{"type":"FeatureCollection","features":[{"type":"Feature","properties":{"id":"0201001001"},"geometry":{"type":"Polygon","coordinates":[[[-1.14665,38.92935],[-1.14929,38.92614],[-1.14951,38.92605],[-1.15102,38.92574],[-1.15717,38.92413],[-1.16132,38.92339],[-1.16155,38.92323],[-1.16167,38.92294],[-1.16281,38.92169],[-1.16929,38.92069],[-1.17184,38.92002],[-1.1751,38.92165],[-1.17721,38.92222],[-1.18754,38.92416],[-1.18851,38.92425],[-1.19763,38.92617],[-1.19889,38.92652],[-1.22007,38.93376],[-1.22539,38.93546],[-1.22654,38.93561],[-1.2332,38.93536],[-1.23633,38.93493],[-1.2427,38.93443],[-1.25065,38.93454],[-1.25458,38.9345],[-1.25877,38.93436],[-1.26944,38.93378],[-1.27085,38.93381],[-1.27388,38.93422],[-1.27698,38.93482],[-1.28118,38.93587],[-1.28215,38.93619],[-1.28174,38.95263],[-1.28009,38.95236],[-1.26216,38.95321],[-1.26173,38.95333],[-1.25559,38.95672],[-1.254,38.95764],[-1.25131,38.9595],[-1.24756,38.96071],[-1.24349,38.96137],[-1.23695,38.96126],[-1.23744,38.96159],[-1.23683,38.96275],[-1.23643,38.96261],[-1.23576,38.96254],[-1.23513,38.96266],[-1.23471,38.96262],[-1.23359,38.96198],[-1.2333,38.96172],[-1.23324,38.96156],[-1.23219,38.96068],[-1.22571,38.95681],[-1.21983,38.95602],[-1.21772,38.95636],[-1.21525,38.95738],[-1.21469,38.95745],[-1.21115,38.95584],[-1.20971,38.95563],[-1.20857,38.9556],[-1.20792,38.95568],[-1.20692,38.95596],[-1.20414,38.95716],[-1.20355,38.95731],[-1.20092,38.95766],[-1.20028,38.95751],[-1.19922,38.9571],[-1.19842,38.95706],[-1.19465,38.95762],[-1.19213,38.95843],[-1.18509,38.96096],[-1.18371,38.96229],[-1.17591,38.9666],[-1.17456,38.96749],[-1.16295,38.95695],[-1.16089,38.95482],[-1.15807,38.94887],[-1.15703,38.94706],[-1.15655,38.94546],[-1.15618,38.94488],[-1.15453,38.93968],[-1.15273,38.9392],[-1.14856,38.93309],[-1.14741,38.93105],[-1.14665,38.92935]]]}},{"type":"Feature","properties":{"id":"0201002001"},"geometry":{"type":"Polygon","coordinates":[[[-1.26675,39.05102],[-1.2639,39.04509],[-1.25926,39.04135],[-1.25205,39.03955],[-1.25171,39.0385],[-1.24557,39.03408],[-1.23955,39.03056],[-1.23207,39.02722],[-1.22768,39.02468],[-1.22654,39.02467],[-1.21429,39.01183],[-1.2086,39.00505],[-1.20571,39.00011],[-1.20504,38.99929],[-1.20456,38.99851],[-1.20222,38.99363],[-1.20181,38.993],[-1.19656,38.98993],[-1.19476,38.98913],[-1.19391,38.98868],[-1.19326,38.98821],[-1.19081,38.98524],[-1.18832,38.98246],[-1.18687,38.98038],[-1.17456,38.96749],[-1.17591,38.9666],[-1.18371,38.96229],[-1.18509,38.96096],[-1.19213,38.95843],[-1.19465,38.95762],[-1.19842,38.95706],[-1.19922,38.9571],[-1.20028,38.95751],[-1.20092,38.95766],[-1.20355,38.95731],[-1.20414,38.95716],[-1.20692,38.95596],[-1.20792,38.95568],[-1.20857,38.9556],[-1.20971,38.95563],[-1.21115,38.95584],[-1.21469,38.95745],[-1.21525,38.95738],[-1.21772,38.95636],[-1.21983,38.95602],[-1.22571,38.95681],[-1.23219,38.96068],[-1.23324,38.96156],[-1.2333,38.96172],[-1.23359,38.96198],[-1.23471,38.96262],[-1.23513,38.96266],[-1.23576,38.96254],[-1.23643,38.96261],[-1.23683,38.96275],[-1.23744,38.96159],[-1.23695,38.96126],[-1.24349,38.96137],[-1.24756,38.96071],[-1.25131,38.9595],[-1.254,38.95764],[-1.25559,38.95672],[-1.26173,38.95333],[-1.26216,38.95321],[-1.28009,38.95236],[-1.28174,38.95263],[-1.28215,38.93619],[-1.29006,38.93888],[-1.294,38.94468],[-1.29469,38.94551],[-1.29874,38.94956],[-1.30019,38.95082],[-1.30121,38.95128],[-1.31142,38.95398],[-1.31851,38.956],[-1.32199,38.95651],[-1.325,38.9573],[-1.3275,38.95832],[-1.33033,38.9593],[-1.33279,38.96027],[-1.33506,38.96136],[-1.34374,38.96622],[-1.36325,38.97813],[-1.36416,38.97899],[-1.36726,38.9824],[-1.3725,38.99115],[-1.37508,38.99738],[-1.37642,39.00019],[-1.37853,39.00392],[-1.38146,39.01116],[-1.3852,39.02136],[-1.38722,39.02565],[-1.39008,39.03273],[-1.38837,39.03246],[-1.37396,39.03981],[-1.37264,39.04009],[-1.37237,39.04077],[-1.36774,39.04199],[-1.36459,39.04322],[-1.36036,39.04332],[-1.34892,39.04525],[-1.34743,39.04519],[-1.34061,39.04636],[-1.33374,39.04811],[-1.32188,39.0502],[-1.31116,39.05055],[-1.2977,39.05055],[-1.2893,39.05471],[-1.28345,39.05503],[-1.28149,39.05455],[-1.27934,39.05418],[-1.27465,39.05353],[-1.27048,39.05253],[-1.26675,39.05102]]]}}]}