{"type":"FeatureCollection","features":[{"type":"Feature","properties":{"id":"0202501001"},"geometry":{"type":"Polygon","coordinates":[[[-1.02692,38.6555],[-1.02723,38.65585],[-1.02839,38.65615],[-1.03211,38.6565],[-1.0341,38.65657],[-1.03613,38.65771],[-1.04298,38.66126],[-1.04599,38.66319],[-1.05061,38.66642],[-1.05747,38.67102],[-1.06178,38.67427],[-1.06291,38.67536],[-1.0662,38.67756],[-1.07282,38.68252],[-1.07699,38.6841],[-1.07884,38.68538],[-1.08009,38.68605],[-1.08107,38.68676],[-1.0816,38.68678],[-1.0827,38.68787],[-1.08455,38.68909],[-1.09,38.69337],[-1.09072,38.69372],[-1.09121,38.69426],[-1.09197,38.69484],[-1.09309,38.69543],[-1.09383,38.69608],[-1.10006,38.70063],[-1.10081,38.7013],[-1.1047,38.70359],[-1.10977,38.70692],[-1.1125,38.70885],[-1.1156,38.71139],[-1.11633,38.71485],[-1.11677,38.7324],[-1.11967,38.73772],[-1.11415,38.73671],[-1.11274,38.73673],[-1.10507,38.73649],[-1.10231,38.73623],[-1.09879,38.73624],[-1.0954,38.73798],[-1.0946,38.73809],[-1.09338,38.73808],[-1.086,38.73856],[-1.08014,38.7391],[-1.0768,38.73837],[-1.0717,38.73747],[-1.06728,38.73655],[-1.0613,38.73896],[-1.05747,38.74003],[-1.05453,38.74114],[-1.05178,38.74261],[-1.05086,38.74293],[-1.04454,38.74478],[-1.03794,38.74699],[-1.03181,38.74855],[-1.02328,38.75099],[-1.01995,38.75228],[-1.01444,38.75418],[-1.00796,38.75626],[-0.99705,38.75816],[-0.98651,38.76253],[-0.98306,38.76362],[-0.97418,38.76881],[-0.96996,38.77184],[-0.96775,38.77325],[-0.96143,38.77479],[-0.96107,38.77351],[-0.96049,38.77205],[-0.9585,38.76794],[-0.95697,38.76307],[-0.95653,38.76035],[-0.95567,38.75791],[-0.95329,38.75342],[-0.95163,38.75072],[-0.95065,38.74851],[-0.94893,38.74567],[-0.94712,38.74221],[-0.94679,38.7413],[-0.94633,38.7387],[-0.94628,38.73782],[-0.94591,38.73672],[-0.94546,38.73613],[-0.94432,38.735],[-0.94322,38.73422],[-0.94045,38.73261],[-0.93986,38.73218],[-0.93951,38.73174],[-0.93917,38.73113],[-0.93826,38.72671],[-0.93795,38.72591],[-0.93579,38.72424],[-0.93463,38.72312],[-0.93336,38.72108],[-0.93221,38.72003],[-0.93085,38.71811],[-0.92892,38.71473],[-0.92773,38.71308],[-0.92846,38.71119],[-0.92864,38.71046],[-0.92865,38.70947],[-0.92848,38.70856],[-0.92754,38.70681],[-0.92668,38.70591],[-0.92526,38.70474],[-0.92304,38.70246],[-0.91579,38.69596],[-0.92311,38.68789],[-0.92474,38.68583],[-0.92709,38.68331],[-0.92997,38.6799],[-0.9325,38.67752],[-0.9331,38.67707],[-0.93492,38.67608],[-0.9399,38.67215],[-0.94204,38.67093],[-0.9479,38.66681],[-0.95003,38.66556],[-0.95582,38.66142],[-0.95986,38.65899],[-0.96247,38.65693],[-0.9703,38.65579],[-0.98022,38.65543],[-0.9811,38.65532],[-0.98236,38.65536],[-0.99155,38.65507],[-1.00908,38.65827],[-1.01084,38.65657],[-1.0149,38.6573],[-1.01772,38.65679],[-1.0199,38.65657],[-1.02692,38.6555]],[[-0.98901,38.70304],[-0.98946,38.70497],[-0.98916,38.70502],[-0.98897,38.70433],[-0.98725,38.70483],[-0.98656,38.7041],[-0.98645,38.70413],[-0.98589,38.70345],[-0.98487,38.70246],[-0.98413,38.70278],[-0.9807,38.70013],[-0.97691,38.70247],[-0.97667,38.70251],[-0.97343,38.70445],[-0.97645,38.70707],[-0.97855,38.70993],[-0.97801,38.71011],[-0.97835,38.7106],[-0.97817,38.71065],[-0.97887,38.7118],[-0.97898,38.71174],[-0.98129,38.71322],[-0.98554,38.7127],[-0.98706,38.71007],[-0.99182,38.70924],[-0.99179,38.70918],[-0.99287,38.70865],[-0.99315,38.70966],[-0.99393,38.70882],[-0.99593,38.70799],[-0.99759,38.70751],[-1.00141,38.70415],[-1.00166,38.70308],[-1.00119,38.70273],[-0.99801,38.69773],[-0.99827,38.69657],[-0.99096,38.69656],[-0.99096,38.69944],[-0.99058,38.69975],[-0.99046,38.70019],[-0.98868,38.70185],[-0.98965,38.70233],[-0.98901,38.70304]]]}},{"type":"Feature","properties":{"id":"0202501002"},"geometry":{"type":"Polygon","coordinates":[[[-0.978,38.70921],[-0.97942,38.70874],[-0.98544,38.70861],[-0.98625,38.70805],[-0.98773,38.70738],[-0.98961,38.70603],[-0.9899,38.70638],[-0.99004,38.70628],[-0.99203,38.70684],[-0.99248,38.70671],[-0.99288,38.7087],[-0.99179,38.70918],[-0.99182,38.70924],[-0.98706,38.71007],[-0.98554,38.7127],[-0.98129,38.71322],[-0.97898,38.71174],[-0.97887,38.7118],[-0.97817,38.71065],[-0.97835,38.7106],[-0.97801,38.71011],[-0.97855,38.70993],[-0.978,38.70921]]]}},{"type":"Feature","properties":{"id":"0202501003"},"geometry":{"type":"Polygon","coordinates":[[[-0.97691,38.70247],[-0.97946,38.70458],[-0.97955,38.70455],[-0.98111,38.70601],[-0.98228,38.70636],[-0.98237,38.70631],[-0.98459,38.7071],[-0.987,38.70619],[-0.98867,38.70528],[-0.98882,38.70528],[-0.98929,38.70504],[-0.98961,38.70603],[-0.98773,38.70738],[-0.98625,38.70805],[-0.98544,38.70861],[-0.97942,38.70874],[-0.978,38.70921],[-0.97645,38.70707],[-0.97343,38.70445],[-0.97667,38.70251],[-0.97691,38.70247]]]}},{"type":"Feature","properties":{"id":"0202501004"},"geometry":{"type":"Polygon","coordinates":[[[-0.99315,38.70966],[-0.99248,38.70671],[-0.99203,38.70684],[-0.99004,38.70628],[-0.9899,38.70638],[-0.98963,38.7061],[-0.98929,38.70504],[-0.98946,38.70497],[-0.98912,38.70368],[-0.99059,38.70337],[-0.99164,38.70291],[-0.99206,38.70351],[-0.99299,38.7042],[-0.99335,38.70442],[-0.99357,38.70429],[-0.99451,38.70462],[-0.99503,38.70488],[-0.99555,38.70544],[-1.00133,38.70284],[-1.00166,38.70308],[-1.00141,38.70415],[-0.99759,38.70751],[-0.99593,38.70799],[-0.99393,38.70882],[-0.99315,38.70966]]]}},{"type":"Feature","properties":{"id":"0202501005"},"geometry":{"type":"Polygon","coordinates":[[[-0.98912,38.70368],[-0.98901,38.70304],[-0.98965,38.70233],[-0.98868,38.70185],[-0.99046,38.70019],[-0.99058,38.69975],[-0.99096,38.69944],[-0.99096,38.69656],[-0.99827,38.69657],[-0.99801,38.69773],[-1.00133,38.70284],[-0.99555,38.70544],[-0.99503,38.70488],[-0.99451,38.70462],[-0.99357,38.70429],[-0.99335,38.70442],[-0.99299,38.7042],[-0.99206,38.70351],[-0.99164,38.70291],[-0.99059,38.70337],[-0.98912,38.70368]]]}},{"type":"Feature","properties":{"id":"0202501006"},"geometry":{"type":"Polygon","coordinates":[[[-0.98237,38.70631],[-0.98656,38.7041],[-0.98725,38.70483],[-0.98897,38.70433],[-0.98916,38.70502],[-0.98926,38.70507],[-0.98867,38.70528],[-0.987,38.70619],[-0.98459,38.7071],[-0.98237,38.70631]]]}},{"type":"Feature","properties":{"id":"0202501007"},"geometry":{"type":"Polygon","coordinates":[[[-0.97691,38.70247],[-0.9807,38.70013],[-0.98413,38.70278],[-0.98487,38.70246],[-0.9865,38.70411],[-0.98228,38.70636],[-0.98111,38.70601],[-0.97955,38.70455],[-0.97946,38.70458],[-0.97691,38.70247]]]}}]}