{"type":"FeatureCollection","features":[{"type":"Feature","properties":{"id":"0203301001"},"geometry":{"type":"Polygon","coordinates":[[[-1.44884,38.76157],[-1.44136,38.76045],[-1.43502,38.75861],[-1.4285,38.75636],[-1.42464,38.75516],[-1.40072,38.74941],[-1.39645,38.74992],[-1.39067,38.75471],[-1.39028,38.75517],[-1.38932,38.75675],[-1.38852,38.75635],[-1.38701,38.75494],[-1.38358,38.75144],[-1.383,38.75066],[-1.3814,38.74802],[-1.37717,38.74481],[-1.37664,38.74429],[-1.37454,38.74149],[-1.37408,38.74055],[-1.37359,38.73928],[-1.37337,38.73806],[-1.37252,38.73635],[-1.37143,38.73263],[-1.3702,38.72999],[-1.37006,38.72871],[-1.36942,38.72674],[-1.36931,38.72425],[-1.36868,38.72111],[-1.36848,38.71815],[-1.36835,38.71457],[-1.36878,38.7122],[-1.36873,38.7114],[-1.36835,38.7105],[-1.36816,38.70822],[-1.36787,38.70664],[-1.36667,38.704],[-1.38377,38.69918],[-1.39071,38.69588],[-1.39588,38.69251],[-1.39963,38.69152],[-1.40054,38.69204],[-1.40182,38.69232],[-1.40234,38.69233],[-1.40437,38.69133],[-1.40583,38.69105],[-1.40813,38.69116],[-1.40852,38.69107],[-1.40963,38.69065],[-1.41028,38.69022],[-1.41199,38.68934],[-1.41274,38.68834],[-1.41426,38.68731],[-1.41504,38.68693],[-1.41637,38.68672],[-1.42457,38.68656],[-1.42514,38.68709],[-1.42639,38.68967],[-1.42783,38.69058],[-1.42793,38.69132],[-1.42839,38.69157],[-1.42861,38.69197],[-1.42857,38.69245],[-1.43077,38.69289],[-1.43077,38.69275],[-1.43141,38.69285],[-1.43638,38.69284],[-1.44246,38.69244],[-1.44535,38.69328],[-1.44723,38.69501],[-1.44903,38.69609],[-1.44958,38.69622],[-1.45173,38.69632],[-1.45213,38.69648],[-1.51514,38.72634],[-1.51648,38.72666],[-1.51838,38.72778],[-1.51883,38.72819],[-1.52079,38.73061],[-1.52366,38.73316],[-1.52173,38.74126],[-1.52038,38.74183],[-1.5197,38.74244],[-1.51063,38.75154],[-1.50612,38.7527],[-1.49431,38.75486],[-1.48395,38.75698],[-1.4706,38.76009],[-1.46963,38.76026],[-1.46733,38.76039],[-1.46685,38.76051],[-1.46379,38.76171],[-1.45271,38.76245],[-1.44884,38.76157]]]}},{"type":"Feature","properties":{"id":"0203301002"},"geometry":{"type":"Polygon","coordinates":[[[-1.39963,38.69152],[-1.40222,38.6908],[-1.40275,38.69047],[-1.40698,38.68757],[-1.40847,38.68644],[-1.41305,38.68335],[-1.41812,38.67916],[-1.42166,38.67699],[-1.42821,38.66798],[-1.42977,38.66665],[-1.43163,38.66486],[-1.445,38.65165],[-1.4477,38.64952],[-1.45557,38.64766],[-1.45931,38.6462],[-1.46066,38.64559],[-1.46105,38.64558],[-1.46506,38.64643],[-1.46673,38.64832],[-1.47128,38.64935],[-1.47307,38.64958],[-1.47507,38.64972],[-1.47669,38.64952],[-1.48005,38.64941],[-1.48228,38.64919],[-1.48318,38.64929],[-1.48695,38.65128],[-1.49288,38.65305],[-1.49424,38.65387],[-1.49843,38.65598],[-1.50065,38.65695],[-1.50196,38.65788],[-1.5027,38.65822],[-1.50516,38.65903],[-1.50633,38.66035],[-1.51051,38.66209],[-1.51516,38.66372],[-1.52089,38.6651],[-1.52281,38.6652],[-1.52611,38.66485],[-1.52843,38.66674],[-1.52882,38.66734],[-1.53138,38.66958],[-1.53367,38.67123],[-1.53579,38.67249],[-1.53871,38.67443],[-1.53939,38.67509],[-1.54049,38.67757],[-1.54061,38.6782],[-1.54064,38.6792],[-1.54053,38.68011],[-1.53747,38.683],[-1.53401,38.69557],[-1.52895,38.71292],[-1.52514,38.72663],[-1.52366,38.73316],[-1.52079,38.73061],[-1.51883,38.72819],[-1.51838,38.72778],[-1.51648,38.72666],[-1.51514,38.72634],[-1.45213,38.69648],[-1.45173,38.69632],[-1.44958,38.69622],[-1.44903,38.69609],[-1.44737,38.69511],[-1.44565,38.69351],[-1.44509,38.69318],[-1.44246,38.69244],[-1.43638,38.69284],[-1.43141,38.69285],[-1.43077,38.69275],[-1.43077,38.69289],[-1.42888,38.69256],[-1.42857,38.69245],[-1.42861,38.69197],[-1.42839,38.69157],[-1.42793,38.69132],[-1.42783,38.69058],[-1.42639,38.68967],[-1.42514,38.68709],[-1.42457,38.68656],[-1.41637,38.68672],[-1.41504,38.68693],[-1.41426,38.68731],[-1.41274,38.68834],[-1.41199,38.68934],[-1.41028,38.69022],[-1.40963,38.69065],[-1.40852,38.69107],[-1.40813,38.69116],[-1.40583,38.69105],[-1.40437,38.69133],[-1.40234,38.69233],[-1.40182,38.69232],[-1.40054,38.69204],[-1.39963,38.69152]]]}}]}