{"type":"FeatureCollection","features":[{"type":"Feature","properties":{"id":"0207401001"},"geometry":{"type":"Polygon","coordinates":[[[-1.71893,38.67514],[-1.7196,38.67463],[-1.72029,38.67382],[-1.72062,38.67362],[-1.72084,38.67326],[-1.72101,38.67266],[-1.72156,38.67197],[-1.72309,38.67053],[-1.72472,38.66938],[-1.72453,38.66908],[-1.72454,38.66829],[-1.72473,38.66795],[-1.72464,38.66752],[-1.72451,38.66742],[-1.72358,38.66719],[-1.72336,38.66683],[-1.72363,38.66654],[-1.72348,38.66626],[-1.72299,38.66562],[-1.72209,38.66484],[-1.72181,38.6644],[-1.72086,38.66208],[-1.72089,38.66175],[-1.72129,38.66098],[-1.72076,38.65994],[-1.72063,38.65934],[-1.72068,38.65921],[-1.7229,38.65822],[-1.72387,38.65634],[-1.72359,38.65579],[-1.72266,38.65446],[-1.72271,38.65393],[-1.72246,38.65284],[-1.72301,38.65163],[-1.72386,38.65134],[-1.72414,38.65078],[-1.72537,38.65045],[-1.72698,38.64981],[-1.72831,38.64849],[-1.73235,38.6441],[-1.73378,38.64321],[-1.73674,38.64214],[-1.73807,38.64123],[-1.73857,38.64066],[-1.73902,38.63993],[-1.74116,38.6376],[-1.74178,38.63676],[-1.74295,38.63426],[-1.74344,38.6336],[-1.74481,38.63101],[-1.74506,38.63011],[-1.7453,38.62976],[-1.74531,38.62856],[-1.74549,38.62808],[-1.74551,38.62667],[-1.74563,38.62628],[-1.74761,38.62257],[-1.74814,38.62033],[-1.74827,38.61918],[-1.74825,38.61872],[-1.74785,38.6177],[-1.74745,38.61513],[-1.74708,38.61435],[-1.74692,38.61347],[-1.74615,38.61161],[-1.74515,38.6096],[-1.74503,38.6081],[-1.74521,38.60735],[-1.74505,38.60612],[-1.74514,38.60582],[-1.74516,38.60409],[-1.74535,38.60379],[-1.74431,38.6025],[-1.74193,38.6013],[-1.7365,38.59952],[-1.73357,38.59903],[-1.73016,38.59828],[-1.72794,38.59849],[-1.72644,38.59851],[-1.72566,38.59866],[-1.7252,38.59851],[-1.72356,38.59833],[-1.72335,38.59815],[-1.71715,38.59959],[-1.71596,38.59955],[-1.71373,38.59883],[-1.711,38.5984],[-1.70722,38.5988],[-1.70573,38.59915],[-1.70475,38.59952],[-1.70364,38.59944],[-1.70325,38.59922],[-1.7019,38.5978],[-1.70029,38.59584],[-1.6994,38.59495],[-1.69622,38.59537],[-1.6962,38.59445],[-1.69536,38.59434],[-1.6941,38.59368],[-1.69382,38.59396],[-1.69394,38.59406],[-1.69352,38.59435],[-1.69363,38.59446],[-1.69349,38.59452],[-1.6928,38.59392],[-1.69287,38.59384],[-1.69252,38.59354],[-1.69268,38.5934],[-1.69282,38.59344],[-1.69309,38.59317],[-1.6923,38.59275],[-1.69279,38.59226],[-1.69244,38.59207],[-1.69235,38.5919],[-1.69161,38.59161],[-1.69081,38.5911],[-1.69047,38.59101],[-1.69112,38.59026],[-1.69083,38.59011],[-1.69059,38.59043],[-1.68997,38.5903],[-1.68999,38.58989],[-1.69009,38.58981],[-1.69015,38.58987],[-1.69026,38.58976],[-1.69065,38.58972],[-1.69066,38.58955],[-1.69107,38.58946],[-1.69102,38.58924],[-1.69134,38.58916],[-1.69161,38.58925],[-1.6919,38.58919],[-1.69183,38.58887],[-1.69216,38.58882],[-1.69212,38.58845],[-1.69194,38.58845],[-1.69197,38.58822],[-1.69216,38.58799],[-1.6913,38.58751],[-1.69113,38.5873],[-1.69113,38.58705],[-1.69152,38.58676],[-1.69101,38.58563],[-1.69076,38.58537],[-1.69137,38.58387],[-1.69192,38.58294],[-1.69199,38.58244],[-1.6881,38.57586],[-1.68774,38.56792],[-1.68783,38.56753],[-1.6933,38.55896],[-1.69396,38.55459],[-1.6946,38.55268],[-1.70085,38.55507],[-1.70484,38.55672],[-1.70704,38.55769],[-1.71128,38.55979],[-1.7114,38.5609],[-1.71177,38.56188],[-1.71309,38.56403],[-1.71362,38.5646],[-1.71577,38.56606],[-1.717,38.56659],[-1.7192,38.56736],[-1.72177,38.56813],[-1.72301,38.56764],[-1.725,38.56833],[-1.72633,38.56905],[-1.72666,38.56953],[-1.72729,38.57149],[-1.72734,38.57394],[-1.72759,38.57461],[-1.72823,38.57575],[-1.72875,38.57623],[-1.73413,38.57836],[-1.74332,38.58403],[-1.7465,38.58543],[-1.75121,38.58778],[-1.75502,38.58917],[-1.75983,38.59107],[-1.76341,38.59258],[-1.76584,38.59372],[-1.77613,38.59912],[-1.78067,38.60213],[-1.78345,38.60353],[-1.78647,38.60483],[-1.78832,38.60544],[-1.79064,38.60674],[-1.80233,38.61216],[-1.80301,38.61259],[-1.81164,38.61932],[-1.81194,38.6196],[-1.81289,38.6215],[-1.81419,38.62342],[-1.81457,38.62429],[-1.81467,38.62535],[-1.81493,38.62571],[-1.81602,38.6265],[-1.81629,38.62688],[-1.81668,38.62809],[-1.81871,38.631],[-1.81902,38.63232],[-1.81926,38.63282],[-1.81954,38.63326],[-1.82021,38.6339],[-1.82056,38.63438],[-1.82083,38.63501],[-1.82105,38.63637],[-1.82081,38.6378],[-1.82087,38.63848],[-1.82326,38.64436],[-1.82586,38.64966],[-1.8311,38.65975],[-1.8348,38.66571],[-1.83634,38.66852],[-1.83767,38.67129],[-1.83833,38.67304],[-1.83883,38.67475],[-1.83994,38.67905],[-1.84123,38.68246],[-1.84171,38.6841],[-1.8424,38.68568],[-1.84309,38.68807],[-1.84477,38.68929],[-1.83916,38.6878],[-1.82767,38.68555],[-1.82391,38.68509],[-1.81869,38.68415],[-1.80507,38.68218],[-1.80087,38.68192],[-1.7967,38.68192],[-1.79325,38.68217],[-1.79283,38.68211],[-1.78398,38.68007],[-1.77594,38.67841],[-1.77449,38.6782],[-1.76496,38.67748],[-1.76066,38.67741],[-1.75121,38.67649],[-1.74809,38.67645],[-1.73355,38.67731],[-1.73242,38.6782],[-1.73125,38.67873],[-1.7278,38.67781],[-1.72542,38.67704],[-1.72525,38.67629],[-1.72232,38.67563],[-1.71893,38.67514]]]}},{"type":"Feature","properties":{"id":"0207402001"},"geometry":{"type":"Polygon","coordinates":[[[-1.67472,38.60362],[-1.67827,38.60354],[-1.67983,38.60273],[-1.68005,38.60393],[-1.68196,38.6038],[-1.68395,38.60384],[-1.68929,38.59732],[-1.68859,38.59711],[-1.68822,38.59672],[-1.68783,38.59544],[-1.68895,38.59404],[-1.68935,38.59266],[-1.68936,38.59188],[-1.68923,38.59108],[-1.68931,38.59072],[-1.69081,38.5911],[-1.69161,38.59161],[-1.69235,38.5919],[-1.69244,38.59207],[-1.69279,38.59226],[-1.6923,38.59275],[-1.69309,38.59317],[-1.69282,38.59344],[-1.69268,38.5934],[-1.69252,38.59354],[-1.69287,38.59384],[-1.6928,38.59392],[-1.69349,38.59452],[-1.69363,38.59446],[-1.69352,38.59435],[-1.69394,38.59406],[-1.69382,38.59396],[-1.6941,38.59368],[-1.69536,38.59434],[-1.6962,38.59445],[-1.69622,38.59537],[-1.6994,38.59495],[-1.70029,38.59584],[-1.7019,38.5978],[-1.70325,38.59922],[-1.70364,38.59944],[-1.70475,38.59952],[-1.70573,38.59915],[-1.70722,38.5988],[-1.711,38.5984],[-1.71373,38.59883],[-1.71596,38.59955],[-1.71715,38.59959],[-1.72335,38.59815],[-1.72356,38.59833],[-1.7252,38.59851],[-1.72566,38.59866],[-1.72644,38.59851],[-1.72794,38.59849],[-1.73016,38.59828],[-1.73357,38.59903],[-1.7365,38.59952],[-1.74193,38.6013],[-1.74431,38.6025],[-1.74535,38.60379],[-1.74516,38.60409],[-1.74514,38.60582],[-1.74505,38.60612],[-1.74521,38.60735],[-1.74503,38.6081],[-1.74515,38.6096],[-1.74615,38.61161],[-1.74692,38.61347],[-1.74708,38.61435],[-1.74745,38.61513],[-1.74785,38.6177],[-1.74825,38.61872],[-1.74814,38.62033],[-1.74761,38.62257],[-1.74563,38.62628],[-1.74544,38.62722],[-1.74549,38.62808],[-1.74531,38.62856],[-1.74536,38.62956],[-1.74506,38.63011],[-1.74481,38.63101],[-1.74344,38.6336],[-1.74295,38.63426],[-1.74201,38.63634],[-1.7415,38.63719],[-1.73902,38.63993],[-1.73857,38.64066],[-1.7377,38.64155],[-1.73674,38.64214],[-1.73378,38.64321],[-1.73235,38.6441],[-1.72831,38.64849],[-1.72698,38.64981],[-1.72537,38.65045],[-1.72414,38.65078],[-1.72386,38.65134],[-1.72301,38.65163],[-1.72246,38.65284],[-1.72271,38.65393],[-1.72266,38.65446],[-1.72359,38.65579],[-1.72387,38.65634],[-1.7229,38.65822],[-1.72068,38.65921],[-1.72063,38.65934],[-1.72076,38.65994],[-1.72129,38.66098],[-1.72089,38.66175],[-1.72086,38.66208],[-1.72181,38.6644],[-1.72209,38.66484],[-1.72299,38.66562],[-1.72348,38.66626],[-1.72363,38.66654],[-1.72336,38.66683],[-1.72358,38.66719],[-1.72451,38.66742],[-1.72464,38.66752],[-1.72473,38.66795],[-1.72454,38.66829],[-1.72453,38.66908],[-1.72472,38.66938],[-1.72469,38.66947],[-1.72309,38.67053],[-1.72156,38.67197],[-1.72101,38.67266],[-1.72084,38.67326],[-1.72062,38.67362],[-1.72029,38.67382],[-1.7196,38.67463],[-1.71893,38.67514],[-1.71218,38.67431],[-1.70855,38.67373],[-1.70162,38.6754],[-1.69669,38.67646],[-1.69002,38.67771],[-1.68557,38.67635],[-1.68048,38.67499],[-1.6758,38.67387],[-1.67195,38.67328],[-1.66716,38.67218],[-1.65561,38.67831],[-1.65041,38.67831],[-1.646,38.67867],[-1.63141,38.67955],[-1.62828,38.67982],[-1.62279,38.67981],[-1.61788,38.68022],[-1.61569,38.68055],[-1.61283,38.68077],[-1.61493,38.67614],[-1.61546,38.67544],[-1.61852,38.67011],[-1.61876,38.66942],[-1.61858,38.66694],[-1.61915,38.66583],[-1.61936,38.66492],[-1.61986,38.66435],[-1.62056,38.66279],[-1.62185,38.66133],[-1.62221,38.65907],[-1.62262,38.65823],[-1.62271,38.65689],[-1.62345,38.65388],[-1.623,38.65376],[-1.62284,38.65355],[-1.62286,38.6533],[-1.62338,38.65256],[-1.62392,38.65207],[-1.62502,38.65034],[-1.62523,38.65016],[-1.62936,38.64322],[-1.6317,38.64137],[-1.63569,38.63632],[-1.63632,38.63571],[-1.6364,38.63529],[-1.63729,38.63413],[-1.63779,38.6331],[-1.63892,38.63178],[-1.63933,38.63091],[-1.63967,38.62928],[-1.64002,38.62859],[-1.64081,38.62759],[-1.64156,38.62626],[-1.64203,38.62506],[-1.64236,38.62457],[-1.64327,38.62201],[-1.64353,38.62164],[-1.64389,38.62069],[-1.64485,38.61941],[-1.64588,38.61834],[-1.6459,38.618],[-1.64783,38.61596],[-1.6525,38.61276],[-1.65379,38.61223],[-1.65967,38.60919],[-1.66363,38.60794],[-1.66988,38.60392],[-1.67029,38.60378],[-1.67291,38.60349],[-1.67348,38.60347],[-1.67472,38.60362]]]}},{"type":"Feature","properties":{"id":"0207402002"},"geometry":{"type":"Polygon","coordinates":[[[-1.67599,38.60361],[-1.67411,38.6027],[-1.67313,38.59792],[-1.67367,38.59014],[-1.67606,38.59072],[-1.67618,38.59056],[-1.67663,38.59062],[-1.67745,38.59038],[-1.67894,38.59089],[-1.67963,38.59103],[-1.67954,38.59122],[-1.68099,38.59155],[-1.6835,38.59183],[-1.68935,38.59267],[-1.68895,38.59404],[-1.68783,38.59544],[-1.68822,38.59672],[-1.68859,38.59711],[-1.68929,38.59732],[-1.68395,38.60384],[-1.68196,38.6038],[-1.68005,38.60393],[-1.67983,38.60273],[-1.67827,38.60354],[-1.67599,38.60361]]]}},{"type":"Feature","properties":{"id":"0207403001"},"geometry":{"type":"Polygon","coordinates":[[[-1.67375,38.59016],[-1.67356,38.58969],[-1.68227,38.58121],[-1.6871,38.57625],[-1.68819,38.576],[-1.69199,38.58244],[-1.69192,38.58294],[-1.69137,38.58387],[-1.69076,38.58537],[-1.69101,38.58563],[-1.69152,38.58676],[-1.69113,38.58705],[-1.69113,38.5873],[-1.6913,38.58751],[-1.69216,38.58799],[-1.69197,38.58822],[-1.69194,38.58845],[-1.69212,38.58845],[-1.69216,38.58882],[-1.69183,38.58887],[-1.6919,38.58919],[-1.69161,38.58925],[-1.69134,38.58916],[-1.69102,38.58924],[-1.69107,38.58946],[-1.69066,38.58955],[-1.69065,38.58972],[-1.69026,38.58976],[-1.69029,38.58981],[-1.69015,38.58987],[-1.69009,38.58981],[-1.68999,38.58989],[-1.68997,38.5903],[-1.69059,38.59043],[-1.69083,38.59011],[-1.69112,38.59026],[-1.69047,38.59101],[-1.68931,38.59072],[-1.68923,38.59108],[-1.68936,38.59188],[-1.68935,38.59267],[-1.6835,38.59183],[-1.68099,38.59155],[-1.67954,38.59122],[-1.67963,38.59103],[-1.67894,38.59089],[-1.67745,38.59038],[-1.67663,38.59062],[-1.67618,38.59056],[-1.67606,38.59072],[-1.67375,38.59016]]]}},{"type":"Feature","properties":{"id":"0207404001"},"geometry":{"type":"Polygon","coordinates":[[[-1.54051,38.68013],[-1.54064,38.6792],[-1.54049,38.67757],[-1.53939,38.67509],[-1.53871,38.67443],[-1.53579,38.67249],[-1.53367,38.67123],[-1.53138,38.66958],[-1.52882,38.66734],[-1.52843,38.66674],[-1.52611,38.66485],[-1.52973,38.65536],[-1.53458,38.64208],[-1.53497,38.63618],[-1.53561,38.62973],[-1.53846,38.61774],[-1.54013,38.61158],[-1.54182,38.60782],[-1.5429,38.60504],[-1.54406,38.60092],[-1.54867,38.59282],[-1.54926,38.59086],[-1.55352,38.58366],[-1.55256,38.58082],[-1.55259,38.57615],[-1.55142,38.57125],[-1.54689,38.56757],[-1.54938,38.5648],[-1.55132,38.56236],[-1.55165,38.56188],[-1.55187,38.56115],[-1.55232,38.557],[-1.55242,38.55486],[-1.55361,38.55028],[-1.55348,38.54067],[-1.55687,38.54018],[-1.56228,38.53921],[-1.57281,38.53784],[-1.57687,38.53665],[-1.58056,38.53571],[-1.59213,38.53449],[-1.60437,38.53304],[-1.61514,38.53546],[-1.62203,38.53722],[-1.62679,38.53821],[-1.63109,38.53928],[-1.63393,38.54024],[-1.63499,38.54046],[-1.65562,38.5426],[-1.66077,38.5411],[-1.66722,38.53949],[-1.68802,38.54868],[-1.69107,38.55121],[-1.6946,38.55268],[-1.69396,38.55459],[-1.6933,38.55896],[-1.68783,38.56753],[-1.68774,38.56792],[-1.68799,38.57473],[-1.68819,38.576],[-1.6871,38.57625],[-1.68227,38.58121],[-1.67356,38.58969],[-1.67375,38.59016],[-1.67367,38.59014],[-1.67313,38.59792],[-1.67411,38.6027],[-1.67599,38.60361],[-1.67472,38.60362],[-1.67348,38.60347],[-1.67291,38.60349],[-1.67029,38.60378],[-1.66988,38.60392],[-1.66363,38.60794],[-1.65967,38.60919],[-1.65379,38.61223],[-1.6525,38.61276],[-1.64783,38.61596],[-1.6459,38.618],[-1.64588,38.61834],[-1.64485,38.61941],[-1.64389,38.62069],[-1.64353,38.62164],[-1.64327,38.62201],[-1.64236,38.62457],[-1.64203,38.62506],[-1.64156,38.62626],[-1.64081,38.62759],[-1.64002,38.62859],[-1.63967,38.62928],[-1.63933,38.63091],[-1.63892,38.63178],[-1.63779,38.6331],[-1.63729,38.63413],[-1.6364,38.63529],[-1.63632,38.63571],[-1.63569,38.63632],[-1.6317,38.64137],[-1.62936,38.64322],[-1.62523,38.65016],[-1.62502,38.65034],[-1.62392,38.65207],[-1.62338,38.65256],[-1.62286,38.6533],[-1.62284,38.65355],[-1.623,38.65376],[-1.62345,38.65388],[-1.62271,38.65689],[-1.62262,38.65823],[-1.62221,38.65907],[-1.62185,38.66133],[-1.62056,38.66279],[-1.61986,38.66435],[-1.61936,38.66492],[-1.61915,38.66583],[-1.61858,38.66694],[-1.61876,38.66942],[-1.61852,38.67011],[-1.61546,38.67544],[-1.61493,38.67614],[-1.61283,38.68077],[-1.60211,38.68159],[-1.59385,38.68499],[-1.58147,38.6896],[-1.57677,38.69122],[-1.57522,38.69167],[-1.56516,38.69379],[-1.56308,38.694],[-1.55356,38.69422],[-1.55224,38.69407],[-1.55175,38.69391],[-1.5496,38.69277],[-1.54816,38.6922],[-1.54586,38.69146],[-1.54494,38.69088],[-1.54418,38.69012],[-1.54007,38.68359],[-1.53977,38.68248],[-1.53986,38.68174],[-1.54051,38.68013]]]}}]}