{"type":"FeatureCollection","features":[{"type":"Feature","properties":{"id":"0301101001"},"geometry":{"type":"Polygon","coordinates":[[[-0.1016,38.58154],[-0.10167,38.58112],[-0.10157,38.58084],[-0.10102,38.58072],[-0.10028,38.5804],[-0.09907,38.57938],[-0.10084,38.57815],[-0.10201,38.57967],[-0.10332,38.58061],[-0.10411,38.58143],[-0.10414,38.58239],[-0.10283,38.58178],[-0.10264,38.58199],[-0.10226,38.58172],[-0.10172,38.5819],[-0.1016,38.58154]]]}},{"type":"Feature","properties":{"id":"0301101002"},"geometry":{"type":"Polygon","coordinates":[[[-0.06894,38.56275],[-0.06792,38.5628],[-0.0671,38.56307],[-0.06701,38.56355],[-0.06683,38.56376],[-0.06625,38.56371],[-0.06515,38.56299],[-0.06509,38.56252],[-0.06473,38.56197],[-0.06484,38.56134],[-0.06506,38.56096],[-0.06441,38.56052],[-0.06418,38.56052],[-0.06408,38.56067],[-0.06408,38.56101],[-0.06356,38.56143],[-0.06376,38.56161],[-0.06418,38.5618],[-0.06408,38.5626],[-0.06448,38.56362],[-0.06416,38.56434],[-0.06478,38.56453],[-0.06444,38.5658],[-0.06388,38.56706],[-0.06359,38.56752],[-0.06163,38.56841],[-0.0598,38.56947],[-0.05954,38.56924],[-0.05849,38.56886],[-0.05759,38.56881],[-0.05684,38.56855],[-0.05546,38.56769],[-0.05458,38.56685],[-0.05425,38.56596],[-0.05371,38.56567],[-0.05323,38.56557],[-0.05164,38.56561],[-0.05102,38.5654],[-0.05003,38.56477],[-0.04962,38.5644],[-0.04913,38.56421],[-0.04896,38.56391],[-0.04894,38.56357],[-0.0498,38.56272],[-0.05017,38.56219],[-0.05215,38.56056],[-0.05312,38.55954],[-0.05349,38.55937],[-0.0552,38.55896],[-0.0571,38.55913],[-0.05764,38.55908],[-0.05842,38.55883],[-0.05918,38.55845],[-0.05971,38.55795],[-0.06012,38.55738],[-0.06053,38.5562],[-0.06093,38.55583],[-0.06161,38.55551],[-0.06274,38.55476],[-0.06503,38.55258],[-0.06695,38.55029],[-0.06801,38.54857],[-0.06826,38.5478],[-0.0683,38.54728],[-0.07,38.54833],[-0.07881,38.55529],[-0.08177,38.55925],[-0.09025,38.56663],[-0.07021,38.58192],[-0.06834,38.5806],[-0.06684,38.57907],[-0.06734,38.57874],[-0.06913,38.57815],[-0.07164,38.5753],[-0.07181,38.5752],[-0.07282,38.5751],[-0.07323,38.57495],[-0.07503,38.57352],[-0.07518,38.57335],[-0.07518,38.57317],[-0.07477,38.57269],[-0.07129,38.57216],[-0.07088,38.57207],[-0.0698,38.57156],[-0.0685,38.57144],[-0.06806,38.57129],[-0.0681,38.5709],[-0.06785,38.57016],[-0.06788,38.56939],[-0.06839,38.56837],[-0.06906,38.56801],[-0.06945,38.56712],[-0.06961,38.56628],[-0.06907,38.56485],[-0.06903,38.56428],[-0.06849,38.5639],[-0.06846,38.56377],[-0.06908,38.56296],[-0.06894,38.56275]]]}},{"type":"Feature","properties":{"id":"0301101003"},"geometry":{"type":"Polygon","coordinates":[[[-0.10414,38.58239],[-0.10411,38.58143],[-0.10332,38.58061],[-0.10201,38.57967],[-0.10081,38.57811],[-0.10142,38.5776],[-0.10067,38.57663],[-0.10214,38.57578],[-0.10247,38.57604],[-0.10436,38.57546],[-0.10431,38.57582],[-0.10647,38.57811],[-0.10857,38.57868],[-0.10921,38.57845],[-0.11005,38.5785],[-0.1112,38.57844],[-0.11155,38.57824],[-0.11214,38.57853],[-0.11052,38.58237],[-0.10993,38.58341],[-0.10896,38.58468],[-0.10816,38.58396],[-0.10754,38.58362],[-0.10659,38.58286],[-0.10637,38.58276],[-0.10615,38.583],[-0.10584,38.58289],[-0.10574,38.58307],[-0.1051,38.58265],[-0.10498,38.58277],[-0.10414,38.58239]]]}},{"type":"Feature","properties":{"id":"0301101004"},"geometry":{"type":"Polygon","coordinates":[[[-0.08008,38.59608],[-0.07911,38.59516],[-0.07742,38.59313],[-0.07693,38.59244],[-0.07659,38.5917],[-0.07432,38.58902],[-0.07419,38.5886],[-0.07441,38.58583],[-0.07275,38.58435],[-0.07025,38.5819],[-0.09025,38.56663],[-0.09367,38.56939],[-0.09412,38.57005],[-0.09444,38.57022],[-0.09666,38.57094],[-0.09962,38.57166],[-0.10135,38.57099],[-0.10283,38.57075],[-0.1059,38.57055],[-0.10734,38.57021],[-0.10889,38.56953],[-0.11005,38.5692],[-0.11125,38.56908],[-0.11273,38.56922],[-0.1131,38.56918],[-0.1147,38.56838],[-0.11501,38.56831],[-0.11577,38.56829],[-0.1166,38.56841],[-0.11766,38.56833],[-0.11844,38.56842],[-0.11895,38.56864],[-0.11735,38.57125],[-0.1137,38.57588],[-0.11297,38.57698],[-0.11214,38.57853],[-0.11155,38.57824],[-0.1112,38.57844],[-0.11005,38.5785],[-0.10921,38.57845],[-0.10857,38.57868],[-0.10647,38.57811],[-0.10431,38.57582],[-0.10436,38.57546],[-0.10378,38.57564],[-0.10373,38.57531],[-0.10148,38.57447],[-0.10107,38.57409],[-0.10042,38.57371],[-0.10007,38.57326],[-0.09945,38.57308],[-0.09946,38.57322],[-0.09921,38.57318],[-0.09852,38.57327],[-0.09764,38.57364],[-0.09726,38.57369],[-0.09664,38.57418],[-0.09649,38.57474],[-0.09617,38.575],[-0.09599,38.5747],[-0.0956,38.57507],[-0.09566,38.57531],[-0.09551,38.57533],[-0.09563,38.57557],[-0.09366,38.5762],[-0.0943,38.57651],[-0.09359,38.57726],[-0.09335,38.57712],[-0.09311,38.57754],[-0.09279,38.57738],[-0.09277,38.57746],[-0.09122,38.5765],[-0.09065,38.57661],[-0.09053,38.57678],[-0.08934,38.57643],[-0.08853,38.57734],[-0.08818,38.57714],[-0.08762,38.57829],[-0.08753,38.57868],[-0.08734,38.57871],[-0.08733,38.57891],[-0.09083,38.57913],[-0.09249,38.57955],[-0.0918,38.58027],[-0.09264,38.58098],[-0.09261,38.58142],[-0.0927,38.5815],[-0.09342,38.58169],[-0.09423,38.58173],[-0.09463,38.58184],[-0.09522,38.58167],[-0.09631,38.58272],[-0.09672,38.58223],[-0.09737,38.58188],[-0.09776,38.58204],[-0.099,38.58217],[-0.10018,38.58165],[-0.1016,38.58154],[-0.10172,38.5819],[-0.10226,38.58172],[-0.10264,38.58199],[-0.10283,38.58178],[-0.10498,38.58277],[-0.1051,38.58265],[-0.10574,38.58307],[-0.10584,38.58289],[-0.10615,38.583],[-0.10637,38.58276],[-0.10659,38.58286],[-0.10754,38.58362],[-0.10816,38.58396],[-0.10896,38.58468],[-0.10686,38.58667],[-0.10504,38.58774],[-0.10414,38.58815],[-0.10173,38.58908],[-0.09953,38.58948],[-0.09584,38.58988],[-0.09385,38.59039],[-0.09267,38.59086],[-0.09147,38.59148],[-0.09004,38.59263],[-0.08913,38.59376],[-0.08713,38.59591],[-0.08599,38.59672],[-0.08466,38.59747],[-0.08008,38.59608]]]}},{"type":"Feature","properties":{"id":"0301101005"},"geometry":{"type":"Polygon","coordinates":[[[-0.10055,38.60246],[-0.09667,38.60228],[-0.09516,38.60207],[-0.09256,38.60067],[-0.08951,38.59943],[-0.08763,38.59834],[-0.08466,38.59747],[-0.08599,38.59672],[-0.08713,38.59591],[-0.08913,38.59376],[-0.09004,38.59263],[-0.09147,38.59148],[-0.09267,38.59086],[-0.09385,38.59039],[-0.09584,38.58988],[-0.09953,38.58948],[-0.10173,38.58908],[-0.10504,38.58774],[-0.10686,38.58667],[-0.10909,38.58456],[-0.10993,38.58341],[-0.11052,38.58237],[-0.11204,38.57874],[-0.11297,38.57698],[-0.1137,38.57588],[-0.11735,38.57125],[-0.11895,38.56864],[-0.11964,38.56894],[-0.11795,38.57083],[-0.11794,38.57141],[-0.11758,38.57265],[-0.11768,38.57271],[-0.1171,38.57464],[-0.11657,38.57526],[-0.11728,38.57576],[-0.11686,38.57648],[-0.11648,38.57644],[-0.11596,38.57828],[-0.11778,38.58303],[-0.118,38.58382],[-0.11874,38.58738],[-0.11977,38.59141],[-0.12,38.59374],[-0.12015,38.59371],[-0.1201,38.59502],[-0.12019,38.59521],[-0.12098,38.59512],[-0.1213,38.59876],[-0.12006,38.6001],[-0.11367,38.60469],[-0.11086,38.60542],[-0.10924,38.60592],[-0.1083,38.60633],[-0.10484,38.60533],[-0.102,38.60371],[-0.10055,38.60246]]]}},{"type":"Feature","properties":{"id":"0301101006"},"geometry":{"type":"Polygon","coordinates":[[[-0.06416,38.56434],[-0.06448,38.56362],[-0.06408,38.5626],[-0.06418,38.5618],[-0.06376,38.56161],[-0.06356,38.56143],[-0.06408,38.56101],[-0.06408,38.56067],[-0.06418,38.56052],[-0.06441,38.56052],[-0.06506,38.56096],[-0.06484,38.56134],[-0.06473,38.56197],[-0.06509,38.56252],[-0.06515,38.56299],[-0.06625,38.56371],[-0.06683,38.56376],[-0.06701,38.56355],[-0.0671,38.56307],[-0.06792,38.5628],[-0.06867,38.56274],[-0.06894,38.56275],[-0.06905,38.56284],[-0.06908,38.56296],[-0.06846,38.56377],[-0.06849,38.5639],[-0.06903,38.56428],[-0.06907,38.56485],[-0.06961,38.56628],[-0.06945,38.56712],[-0.06906,38.56801],[-0.06839,38.56837],[-0.06788,38.56939],[-0.06785,38.57016],[-0.0681,38.5709],[-0.06806,38.57129],[-0.0685,38.57144],[-0.0698,38.57156],[-0.07088,38.57207],[-0.07129,38.57216],[-0.07477,38.57269],[-0.07518,38.57317],[-0.07518,38.57335],[-0.07503,38.57352],[-0.07323,38.57495],[-0.07282,38.5751],[-0.07181,38.5752],[-0.07164,38.5753],[-0.06913,38.57815],[-0.06734,38.57874],[-0.06684,38.57907],[-0.06415,38.5765],[-0.06451,38.57305],[-0.06429,38.57268],[-0.0641,38.5717],[-0.06384,38.5712],[-0.06203,38.5704],[-0.06018,38.56982],[-0.0598,38.56947],[-0.06163,38.56841],[-0.06359,38.56752],[-0.06423,38.56633],[-0.06472,38.56492],[-0.06478,38.56453],[-0.06416,38.56434]]]}},{"type":"Feature","properties":{"id":"0301101007"},"geometry":{"type":"Polygon","coordinates":[[[-0.10053,38.57642],[-0.10142,38.5776],[-0.10112,38.5778],[-0.10084,38.57815],[-0.09907,38.57938],[-0.09989,38.58011],[-0.09842,38.58011],[-0.09823,38.57905],[-0.09845,38.57876],[-0.09888,38.57856],[-0.09904,38.57744],[-0.09951,38.57696],[-0.10024,38.57648],[-0.10027,38.5763],[-0.10053,38.57642]]]}},{"type":"Feature","properties":{"id":"0301101008"},"geometry":{"type":"Polygon","coordinates":[[[-0.10378,38.57564],[-0.10247,38.57604],[-0.10214,38.57578],[-0.10067,38.57663],[-0.10053,38.57642],[-0.10027,38.5763],[-0.10024,38.57648],[-0.09951,38.57696],[-0.09904,38.57744],[-0.09888,38.57856],[-0.09845,38.57876],[-0.09823,38.57905],[-0.09842,38.58011],[-0.09994,38.58011],[-0.10028,38.5804],[-0.10074,38.58061],[-0.10147,38.58077],[-0.10165,38.58102],[-0.1016,38.58154],[-0.09995,38.5817],[-0.099,38.58217],[-0.09776,38.58204],[-0.09737,38.58188],[-0.09672,38.58223],[-0.09631,38.58272],[-0.09522,38.58167],[-0.09463,38.58184],[-0.09423,38.58173],[-0.09342,38.58169],[-0.0927,38.5815],[-0.09261,38.58142],[-0.09264,38.58098],[-0.0918,38.58027],[-0.09249,38.57955],[-0.09083,38.57913],[-0.08733,38.57891],[-0.08734,38.57871],[-0.08753,38.57868],[-0.08762,38.57829],[-0.08818,38.57714],[-0.08853,38.57734],[-0.08934,38.57643],[-0.09053,38.57678],[-0.09065,38.57661],[-0.09122,38.5765],[-0.09277,38.57746],[-0.09279,38.57738],[-0.09311,38.57754],[-0.09335,38.57712],[-0.09359,38.57726],[-0.0943,38.57651],[-0.09366,38.5762],[-0.09563,38.57557],[-0.09551,38.57533],[-0.09566,38.57531],[-0.0956,38.57507],[-0.09599,38.5747],[-0.09617,38.575],[-0.09649,38.57474],[-0.09664,38.57418],[-0.09726,38.57369],[-0.09764,38.57364],[-0.09852,38.57327],[-0.09921,38.57318],[-0.09946,38.57322],[-0.09945,38.57308],[-0.10007,38.57326],[-0.10042,38.57371],[-0.10107,38.57409],[-0.10148,38.57447],[-0.10373,38.57531],[-0.10378,38.57564]]]}}]}