{"type":"FeatureCollection","features":[{"type":"Feature","properties":{"id":"0312801001"},"geometry":{"type":"Polygon","coordinates":[[[0.11708,38.74915],[0.11678,38.74521],[0.11717,38.7424],[0.11822,38.74078],[0.11801,38.74069],[0.11692,38.73972],[0.11404,38.73919],[0.11338,38.73709],[0.11494,38.73568],[0.11697,38.73326],[0.12969,38.72916],[0.13654,38.72742],[0.13972,38.71644],[0.13962,38.71579],[0.1391,38.7142],[0.13795,38.71137],[0.13785,38.71025],[0.13733,38.7081],[0.13647,38.70625],[0.13631,38.70531],[0.13465,38.70568],[0.13505,38.70671],[0.13502,38.70736],[0.13468,38.70902],[0.13431,38.70906],[0.13423,38.70887],[0.13443,38.7087],[0.13387,38.70827],[0.13362,38.70751],[0.13314,38.70812],[0.13292,38.70825],[0.13219,38.70794],[0.1319,38.708],[0.13151,38.70783],[0.13062,38.70809],[0.13026,38.70801],[0.13065,38.70729],[0.12908,38.7072],[0.12887,38.70781],[0.12746,38.70841],[0.12602,38.70836],[0.12564,38.7078],[0.12365,38.70758],[0.12398,38.70686],[0.12258,38.70643],[0.12152,38.70688],[0.12029,38.70612],[0.12009,38.7057],[0.11826,38.70626],[0.11772,38.70623],[0.11672,38.70663],[0.11624,38.7066],[0.11533,38.70508],[0.1144,38.7044],[0.11438,38.70388],[0.11286,38.70322],[0.11276,38.70247],[0.11209,38.70216],[0.11008,38.70418],[0.10801,38.70475],[0.10773,38.70378],[0.10878,38.70323],[0.10803,38.70255],[0.108,38.70184],[0.10721,38.70154],[0.10653,38.70249],[0.1058,38.70218],[0.10648,38.70127],[0.10597,38.70063],[0.10368,38.70032],[0.10234,38.69969],[0.10186,38.69975],[0.10065,38.69928],[0.10093,38.69914],[0.10132,38.69915],[0.10159,38.69903],[0.10171,38.69881],[0.10153,38.6984],[0.10067,38.69796],[0.09902,38.6978],[0.0972,38.69636],[0.09713,38.69599],[0.09585,38.69673],[0.09504,38.69753],[0.09261,38.69772],[0.09001,38.69692],[0.08601,38.69734],[0.08559,38.69719],[0.08241,38.69444],[0.08168,38.6932],[0.08094,38.69343],[0.07924,38.69527],[0.08024,38.69633],[0.08117,38.69615],[0.08124,38.69721],[0.08169,38.69802],[0.08174,38.69841],[0.08159,38.70004],[0.08274,38.7007],[0.08314,38.70443],[0.08237,38.70533],[0.08311,38.71096],[0.08557,38.7136],[0.08573,38.71987],[0.08837,38.72249],[0.08738,38.72392],[0.08902,38.72426],[0.0874,38.72758],[0.08768,38.72857],[0.08748,38.72905],[0.08594,38.7317],[0.08559,38.73207],[0.08413,38.73315],[0.08234,38.73755],[0.07993,38.74484],[0.08125,38.74545],[0.08228,38.7457],[0.08405,38.74644],[0.08513,38.74661],[0.08631,38.74717],[0.0869,38.74722],[0.08773,38.74691],[0.08864,38.747],[0.08944,38.74678],[0.09071,38.74697],[0.09093,38.7471],[0.09091,38.74764],[0.09101,38.74779],[0.09141,38.74792],[0.09189,38.74801],[0.09393,38.74789],[0.09434,38.74795],[0.09577,38.74849],[0.09775,38.74848],[0.09884,38.74892],[0.09958,38.74903],[0.10158,38.74889],[0.10223,38.74906],[0.1068,38.74806],[0.10786,38.74793],[0.11335,38.7487],[0.11598,38.74874],[0.11708,38.74915]],[[0.10262,38.72689],[0.10836,38.72626],[0.10883,38.72629],[0.10895,38.72638],[0.10901,38.7263],[0.10917,38.7263],[0.10983,38.72731],[0.10961,38.72741],[0.11016,38.72795],[0.11048,38.72849],[0.10984,38.72886],[0.10978,38.72878],[0.10756,38.72997],[0.10673,38.73111],[0.10647,38.73123],[0.10461,38.73109],[0.10306,38.73081],[0.10302,38.73054],[0.10326,38.7297],[0.10345,38.72947],[0.10334,38.72945],[0.10358,38.72865],[0.10249,38.72846],[0.10262,38.72689]]]}},{"type":"Feature","properties":{"id":"0312801002"},"geometry":{"type":"Polygon","coordinates":[[[0.10756,38.72997],[0.10978,38.72878],[0.10984,38.72886],[0.11048,38.72849],[0.11016,38.72795],[0.10961,38.72741],[0.10983,38.72731],[0.10917,38.7263],[0.10901,38.7263],[0.10895,38.72638],[0.10883,38.72629],[0.10836,38.72626],[0.10816,38.72636],[0.10262,38.72689],[0.10249,38.72846],[0.10358,38.72865],[0.10334,38.72945],[0.10345,38.72947],[0.10326,38.7297],[0.10302,38.73054],[0.10306,38.73081],[0.10461,38.73109],[0.10647,38.73123],[0.10673,38.73111],[0.10756,38.72997]]]}},{"type":"Feature","properties":{"id":"0312802001"},"geometry":{"type":"Polygon","coordinates":[[[0.13687,38.68721],[0.1367,38.68722],[0.13664,38.68666],[0.13788,38.68653],[0.13775,38.68559],[0.13766,38.6856],[0.13785,38.68649],[0.1375,38.68653],[0.13737,38.68563],[0.13728,38.68564],[0.13747,38.68653],[0.13702,38.68658],[0.13688,38.68568],[0.13679,38.68569],[0.13698,38.68658],[0.13652,38.68663],[0.13637,38.68574],[0.13628,38.68575],[0.13647,38.68664],[0.13591,38.68669],[0.13577,38.68589],[0.13568,38.6859],[0.13585,38.6867],[0.13508,38.68678],[0.13486,38.68564],[0.138,38.6852],[0.13909,38.68513],[0.13938,38.68522],[0.13955,38.68506],[0.13946,38.68492],[0.13473,38.68537],[0.13457,38.68553],[0.13429,38.68663],[0.13405,38.68687],[0.13376,38.68689],[0.13354,38.68674],[0.1336,38.68664],[0.13321,38.6865],[0.13163,38.68639],[0.13128,38.68663],[0.13166,38.68696],[0.13167,38.68706],[0.13159,38.68714],[0.13165,38.68701],[0.13144,38.68685],[0.131,38.68703],[0.13044,38.68697],[0.12956,38.6867],[0.12914,38.68643],[0.1289,38.68675],[0.12918,38.68874],[0.12895,38.68903],[0.12892,38.6897],[0.13335,38.68974],[0.1327,38.69303],[0.13299,38.69295],[0.13326,38.69264],[0.13353,38.69192],[0.13427,38.69175],[0.1346,38.69158],[0.13457,38.69024],[0.1348,38.68924],[0.13536,38.68924],[0.13633,38.68882],[0.13633,38.68826],[0.1361,38.68812],[0.1361,38.68794],[0.13638,38.68753],[0.13687,38.68721]]]}},{"type":"Feature","properties":{"id":"0312803001"},"geometry":{"type":"Polygon","coordinates":[[[0.15164,38.7054],[0.15139,38.70388],[0.15142,38.70338],[0.15275,38.70133],[0.15364,38.69928],[0.15396,38.69898],[0.15499,38.69834],[0.1557,38.69803],[0.15602,38.69803],[0.15682,38.69665],[0.15595,38.69449],[0.15635,38.69277],[0.15523,38.68873],[0.15543,38.68806],[0.15481,38.6878],[0.15558,38.68711],[0.15457,38.68601],[0.15315,38.68563],[0.15375,38.68403],[0.15256,38.68253],[0.15084,38.6808],[0.14965,38.67928],[0.14862,38.6792],[0.14754,38.68311],[0.14727,38.68299],[0.14716,38.68314],[0.14731,38.68447],[0.14707,38.68549],[0.14716,38.68567],[0.1471,38.6861],[0.14719,38.68634],[0.14748,38.6864],[0.14758,38.68661],[0.14731,38.68706],[0.14687,38.68733],[0.14612,38.68759],[0.14513,38.68771],[0.14483,38.68763],[0.14457,38.68712],[0.14379,38.68679],[0.14298,38.68683],[0.14253,38.6866],[0.14181,38.68666],[0.14162,38.68652],[0.14153,38.68656],[0.14145,38.68643],[0.14112,38.68652],[0.141,38.68637],[0.14062,38.68636],[0.14054,38.68628],[0.14002,38.68639],[0.14004,38.68658],[0.13985,38.6867],[0.13924,38.68684],[0.13885,38.68679],[0.13871,38.68594],[0.13858,38.68581],[0.1384,38.6858],[0.13831,38.68592],[0.13836,38.68624],[0.13853,38.68622],[0.13861,38.6867],[0.13836,38.68673],[0.13838,38.68684],[0.13826,38.68686],[0.13822,38.68675],[0.13819,38.68693],[0.13814,38.68676],[0.13819,38.68707],[0.13687,38.68721],[0.13618,38.68772],[0.13608,38.68808],[0.13633,38.68826],[0.13633,38.68882],[0.13536,38.68924],[0.1348,38.68924],[0.13467,38.68953],[0.1346,38.69158],[0.13427,38.69175],[0.13353,38.69192],[0.13326,38.69264],[0.13299,38.69295],[0.1327,38.69303],[0.13335,38.68974],[0.12892,38.6897],[0.12895,38.68903],[0.12918,38.68874],[0.1289,38.68675],[0.12914,38.68643],[0.12916,38.68623],[0.12938,38.68615],[0.12938,38.68603],[0.12927,38.68613],[0.12908,38.686],[0.12912,38.68587],[0.12897,38.68587],[0.12898,38.6857],[0.12871,38.68563],[0.12839,38.68571],[0.12849,38.68557],[0.12837,38.68552],[0.12799,38.68543],[0.12759,38.68551],[0.12746,38.68562],[0.12712,38.68564],[0.12686,38.6854],[0.12698,38.68518],[0.12637,38.68512],[0.12612,38.685],[0.1259,38.68518],[0.12535,38.685],[0.12503,38.68468],[0.12516,38.68463],[0.12507,38.68455],[0.12513,38.68449],[0.12451,38.68415],[0.12401,38.68406],[0.12384,38.68378],[0.12347,38.68362],[0.12296,38.68312],[0.12106,38.68197],[0.12099,38.68155],[0.1214,38.68153],[0.12135,38.68134],[0.12108,38.68121],[0.12101,38.68107],[0.12124,38.681],[0.12109,38.68082],[0.12101,38.68087],[0.12112,38.68075],[0.12089,38.68073],[0.12093,38.68085],[0.12048,38.68075],[0.12039,38.68059],[0.12045,38.68051],[0.12021,38.68048],[0.11995,38.6802],[0.11988,38.67979],[0.11819,38.67852],[0.118,38.67827],[0.118,38.67803],[0.11778,38.67804],[0.11545,38.67483],[0.11539,38.6745],[0.11553,38.67448],[0.11542,38.67444],[0.11541,38.67426],[0.11514,38.67412],[0.11526,38.67403],[0.11524,38.67391],[0.11539,38.6739],[0.11532,38.6737],[0.11516,38.67367],[0.11504,38.67382],[0.11484,38.67383],[0.11459,38.67365],[0.11459,38.67378],[0.11436,38.67388],[0.11378,38.67384],[0.11341,38.67422],[0.11316,38.67419],[0.11343,38.67431],[0.11325,38.67457],[0.11247,38.67499],[0.11193,38.67502],[0.11078,38.67481],[0.11033,38.67486],[0.10868,38.67463],[0.10854,38.67508],[0.10864,38.67473],[0.10817,38.67465],[0.1069,38.67842],[0.10636,38.67941],[0.10629,38.67985],[0.10584,38.68072],[0.10546,38.68251],[0.10568,38.68356],[0.10627,38.68541],[0.10664,38.68612],[0.10792,38.68728],[0.10796,38.68804],[0.10562,38.68974],[0.10422,38.69041],[0.10242,38.69104],[0.10168,38.692],[0.09969,38.69319],[0.09902,38.69349],[0.09762,38.69451],[0.09775,38.69493],[0.09713,38.69599],[0.0972,38.69636],[0.09902,38.6978],[0.10067,38.69796],[0.10153,38.6984],[0.10171,38.69881],[0.10159,38.69903],[0.10132,38.69915],[0.10093,38.69914],[0.10065,38.69928],[0.10186,38.69975],[0.10234,38.69969],[0.10368,38.70032],[0.10597,38.70063],[0.10648,38.70127],[0.1058,38.70218],[0.10653,38.70249],[0.10721,38.70154],[0.108,38.70184],[0.10803,38.70255],[0.10878,38.70323],[0.10773,38.70378],[0.10801,38.70475],[0.11008,38.70418],[0.11209,38.70216],[0.11276,38.70247],[0.11286,38.70322],[0.11438,38.70388],[0.1144,38.7044],[0.11533,38.70508],[0.11624,38.7066],[0.11672,38.70663],[0.11772,38.70623],[0.11826,38.70626],[0.12009,38.7057],[0.12029,38.70612],[0.12152,38.70688],[0.12258,38.70643],[0.12398,38.70686],[0.12365,38.70758],[0.12564,38.7078],[0.12602,38.70836],[0.12746,38.70841],[0.12887,38.70781],[0.12908,38.7072],[0.13065,38.70729],[0.13026,38.70801],[0.13062,38.70809],[0.13151,38.70783],[0.1319,38.708],[0.13219,38.70794],[0.13292,38.70825],[0.13314,38.70812],[0.13362,38.70751],[0.13387,38.70827],[0.13443,38.7087],[0.13423,38.70887],[0.13431,38.70906],[0.13468,38.70902],[0.13502,38.70736],[0.13505,38.70671],[0.13465,38.70568],[0.13631,38.70531],[0.13647,38.70625],[0.13733,38.7081],[0.13785,38.71025],[0.13795,38.71137],[0.1391,38.7142],[0.13962,38.71579],[0.13972,38.71644],[0.13983,38.71619],[0.1452,38.71107],[0.14709,38.71028],[0.14936,38.70878],[0.15064,38.70698],[0.15164,38.7054]]]}}]}