{"type":"FeatureCollection","features":[{"type":"Feature","properties":{"id":"0313301001"},"geometry":{"type":"Polygon","coordinates":[[[-0.67843,37.97805],[-0.67768,37.97438],[-0.67834,37.97419],[-0.67858,37.9746],[-0.67974,37.97574],[-0.68099,37.97577],[-0.68115,37.97794],[-0.67843,37.97805]]]}},{"type":"Feature","properties":{"id":"0313301002"},"geometry":{"type":"Polygon","coordinates":[[[-0.68099,37.97577],[-0.68368,37.97558],[-0.68381,37.97716],[-0.68319,37.9772],[-0.68323,37.97782],[-0.68115,37.97791],[-0.68099,37.97577]]]}},{"type":"Feature","properties":{"id":"0313301003"},"geometry":{"type":"Polygon","coordinates":[[[-0.67935,37.98257],[-0.67843,37.97805],[-0.68115,37.97794],[-0.68146,37.98235],[-0.67935,37.98257]]]}},{"type":"Feature","properties":{"id":"0313301004"},"geometry":{"type":"Polygon","coordinates":[[[-0.68115,37.97794],[-0.68535,37.97777],[-0.68617,37.97953],[-0.68482,37.97979],[-0.68484,37.97992],[-0.6813,37.98008],[-0.68115,37.97794]]]}},{"type":"Feature","properties":{"id":"0313301005"},"geometry":{"type":"Polygon","coordinates":[[[-0.6813,37.98008],[-0.68484,37.97992],[-0.68482,37.97979],[-0.68617,37.97953],[-0.68669,37.98067],[-0.6866,37.98133],[-0.68269,37.982],[-0.68266,37.98217],[-0.68145,37.98231],[-0.6813,37.98008]]]}},{"type":"Feature","properties":{"id":"0313301006"},"geometry":{"type":"Polygon","coordinates":[[[-0.67946,37.98321],[-0.67935,37.98257],[-0.68266,37.98217],[-0.68269,37.982],[-0.6866,37.98133],[-0.68614,37.98374],[-0.67884,37.9852],[-0.67938,37.98409],[-0.67946,37.98321]]]}},{"type":"Feature","properties":{"id":"0313301007"},"geometry":{"type":"Polygon","coordinates":[[[-0.68323,37.97782],[-0.68319,37.9772],[-0.68381,37.97716],[-0.68368,37.97558],[-0.68164,37.9757],[-0.68164,37.97576],[-0.67986,37.97579],[-0.67942,37.97549],[-0.67858,37.9746],[-0.67834,37.97419],[-0.67768,37.97438],[-0.67755,37.97374],[-0.68004,37.96862],[-0.687,37.96436],[-0.68745,37.9646],[-0.68048,37.96878],[-0.67938,37.97159],[-0.68017,37.97243],[-0.67971,37.97271],[-0.67964,37.97266],[-0.67953,37.9728],[-0.68127,37.97456],[-0.68132,37.97522],[-0.68153,37.97519],[-0.68158,37.9753],[-0.68157,37.97519],[-0.68172,37.97522],[-0.68166,37.97442],[-0.68176,37.97441],[-0.68182,37.97523],[-0.68227,37.97519],[-0.68226,37.97505],[-0.6823,37.97519],[-0.68253,37.97518],[-0.68246,37.97454],[-0.68262,37.97454],[-0.68256,37.97496],[-0.68313,37.97493],[-0.68303,37.97389],[-0.68209,37.97392],[-0.68495,37.97375],[-0.68307,37.97389],[-0.68316,37.97493],[-0.68339,37.97486],[-0.68339,37.97492],[-0.68368,37.97491],[-0.68367,37.97475],[-0.68409,37.97474],[-0.6841,37.97483],[-0.68406,37.97477],[-0.6837,37.97478],[-0.68371,37.97491],[-0.68411,37.97486],[-0.68411,37.97492],[-0.68317,37.97496],[-0.68318,37.97513],[-0.68362,37.97511],[-0.68364,37.97527],[-0.68379,37.97533],[-0.68421,37.97529],[-0.68457,37.97483],[-0.68465,37.97486],[-0.68452,37.97505],[-0.68457,37.9752],[-0.68514,37.97542],[-0.68538,37.97534],[-0.68545,37.97513],[-0.68556,37.9751],[-0.68543,37.97536],[-0.68548,37.97556],[-0.6859,37.97578],[-0.68679,37.97587],[-0.68733,37.97579],[-0.68914,37.97512],[-0.68948,37.97487],[-0.68985,37.97491],[-0.69054,37.97452],[-0.69079,37.97428],[-0.69108,37.97422],[-0.6914,37.97381],[-0.69179,37.9737],[-0.69217,37.97341],[-0.69273,37.97319],[-0.69357,37.97261],[-0.69368,37.97237],[-0.69391,37.97221],[-0.69393,37.97175],[-0.69333,37.97109],[-0.69315,37.97071],[-0.69492,37.972],[-0.69007,37.97715],[-0.68959,37.97746],[-0.68547,37.97804],[-0.68535,37.97777],[-0.68323,37.97782]]]}},{"type":"Feature","properties":{"id":"0313301008"},"geometry":{"type":"Polygon","coordinates":[[[-0.6584,38.0318],[-0.65616,38.0277],[-0.65596,38.02636],[-0.66115,38.01382],[-0.66145,38.0135],[-0.66313,38.01195],[-0.66428,38.01141],[-0.66464,38.01096],[-0.67759,38.00767],[-0.68162,38.00393],[-0.68708,38.00087],[-0.691,37.99911],[-0.69321,38.00481],[-0.69446,38.00867],[-0.69553,38.01079],[-0.69665,38.01245],[-0.69933,38.01701],[-0.70409,38.01516],[-0.7089,38.01914],[-0.70851,38.02369],[-0.70953,38.02451],[-0.71506,38.03036],[-0.71863,38.04062],[-0.71933,38.04088],[-0.71272,38.04662],[-0.69326,38.04816],[-0.68758,38.04774],[-0.67375,38.04627],[-0.66698,38.03419],[-0.6584,38.0318]]]}},{"type":"Feature","properties":{"id":"0313301009"},"geometry":{"type":"Polygon","coordinates":[[[-0.66723,38.00512],[-0.67527,37.99133],[-0.6752,37.9913],[-0.67886,37.98519],[-0.68614,37.98374],[-0.68613,37.98414],[-0.68656,37.98545],[-0.68664,37.98599],[-0.691,37.99911],[-0.68708,38.00087],[-0.68162,38.00393],[-0.67759,38.00767],[-0.66464,38.01096],[-0.66497,38.0099],[-0.66538,38.00903],[-0.66678,38.0072],[-0.66707,38.00549],[-0.66723,38.00512]]]}},{"type":"Feature","properties":{"id":"0313302001"},"geometry":{"type":"Polygon","coordinates":[[[-0.68642,37.98227],[-0.68667,37.98061],[-0.68547,37.97804],[-0.68811,37.9777],[-0.689,37.9818],[-0.68642,37.98227]]]}},{"type":"Feature","properties":{"id":"0313302002"},"geometry":{"type":"Polygon","coordinates":[[[-0.68973,37.97737],[-0.69007,37.97715],[-0.6921,37.97497],[-0.69564,37.97707],[-0.69307,37.97968],[-0.69088,37.97808],[-0.68973,37.97737]]]}},{"type":"Feature","properties":{"id":"0313302003"},"geometry":{"type":"Polygon","coordinates":[[[-0.6867,37.98618],[-0.6952,37.97752],[-0.70239,37.98084],[-0.70135,37.99187],[-0.70044,37.99489],[-0.69936,37.99493],[-0.69561,37.99271],[-0.69325,37.99316],[-0.69438,37.99779],[-0.69188,37.99825],[-0.69166,37.99837],[-0.6908,37.99855],[-0.6867,37.98618]]]}},{"type":"Feature","properties":{"id":"0313302004"},"geometry":{"type":"Polygon","coordinates":[[[-0.69484,37.97209],[-0.69492,37.972],[-0.69315,37.97071],[-0.69361,37.9708],[-0.69404,37.97107],[-0.69444,37.97114],[-0.69518,37.97088],[-0.69551,37.97049],[-0.69609,37.97011],[-0.69614,37.96994],[-0.69636,37.96983],[-0.69649,37.96953],[-0.69768,37.96819],[-0.69865,37.9666],[-0.69915,37.96615],[-0.69962,37.96476],[-0.70001,37.96428],[-0.70115,37.96534],[-0.70464,37.96141],[-0.70532,37.96127],[-0.70695,37.96147],[-0.7073,37.96207],[-0.70674,37.96443],[-0.70605,37.96575],[-0.70476,37.9674],[-0.70495,37.96758],[-0.69804,37.97462],[-0.69484,37.97209]]]}},{"type":"Feature","properties":{"id":"0313302005"},"geometry":{"type":"Polygon","coordinates":[[[-0.71933,38.04087],[-0.71863,38.04062],[-0.71506,38.03036],[-0.70953,38.02451],[-0.70851,38.02369],[-0.7089,38.01914],[-0.70409,38.01516],[-0.69958,38.00749],[-0.70011,38.00548],[-0.70682,38.00699],[-0.70867,38.00343],[-0.70645,37.99989],[-0.70044,37.99489],[-0.70135,37.99187],[-0.70239,37.98084],[-0.6952,37.97752],[-0.70495,37.96758],[-0.70476,37.9674],[-0.70605,37.96575],[-0.70674,37.96443],[-0.7073,37.96207],[-0.70695,37.96147],[-0.70532,37.96127],[-0.70464,37.96141],[-0.70115,37.96534],[-0.70001,37.96428],[-0.69996,37.96392],[-0.7004,37.963],[-0.70085,37.96249],[-0.70086,37.9619],[-0.70111,37.96161],[-0.70149,37.96065],[-0.7018,37.96032],[-0.70194,37.95948],[-0.70269,37.95809],[-0.70273,37.95784],[-0.70303,37.95755],[-0.70305,37.95711],[-0.7032,37.95692],[-0.70367,37.95684],[-0.70337,37.95662],[-0.70331,37.95645],[-0.70354,37.95572],[-0.70387,37.95538],[-0.70373,37.95518],[-0.70389,37.95461],[-0.70362,37.95414],[-0.70365,37.95377],[-0.70351,37.9534],[-0.70359,37.95297],[-0.7038,37.95272],[-0.70459,37.95265],[-0.70479,37.95242],[-0.70469,37.95218],[-0.70434,37.95219],[-0.70415,37.95209],[-0.704,37.95152],[-0.70425,37.94994],[-0.70488,37.94895],[-0.70463,37.94852],[-0.70484,37.94685],[-0.70494,37.94665],[-0.70546,37.94635],[-0.70557,37.94612],[-0.70551,37.94577],[-0.70501,37.94558],[-0.70529,37.94534],[-0.70525,37.94514],[-0.70537,37.94494],[-0.70508,37.94457],[-0.7051,37.94447],[-0.70535,37.94435],[-0.70529,37.94402],[-0.70509,37.94376],[-0.70557,37.94319],[-0.70564,37.9422],[-0.70545,37.94173],[-0.705,37.9416],[-0.70501,37.9413],[-0.70531,37.94131],[-0.7058,37.9416],[-0.70581,37.94138],[-0.70638,37.94139],[-0.70693,37.94154],[-0.70698,37.94304],[-0.71073,37.94374],[-0.71073,37.94501],[-0.71176,37.94506],[-0.71154,37.94573],[-0.71472,37.94658],[-0.71443,37.9471],[-0.71584,37.9477],[-0.72666,37.95426],[-0.72584,37.95456],[-0.72566,37.95543],[-0.72508,37.95649],[-0.72367,37.9569],[-0.72223,37.95798],[-0.72078,37.95829],[-0.7206,37.95867],[-0.71942,37.95884],[-0.71929,37.95893],[-0.7196,37.95987],[-0.7191,37.96114],[-0.7196,37.9614],[-0.71962,37.96161],[-0.71635,37.9661],[-0.72159,37.96809],[-0.72164,37.96802],[-0.72288,37.96847],[-0.72567,37.97022],[-0.72847,37.97319],[-0.73122,37.97439],[-0.73303,37.97219],[-0.73328,37.97086],[-0.73323,37.9707],[-0.73571,37.96497],[-0.73686,37.96503],[-0.73827,37.96464],[-0.73911,37.96305],[-0.7405,37.9619],[-0.74109,37.9622],[-0.74052,37.96266],[-0.75685,37.97255],[-0.75778,37.97342],[-0.76188,38.00559],[-0.75577,38.0084],[-0.74999,38.01034],[-0.74917,38.01078],[-0.74246,38.01728],[-0.75005,38.02016],[-0.74979,38.02064],[-0.74208,38.01771],[-0.73932,38.01906],[-0.73886,38.02071],[-0.73636,38.01973],[-0.73431,38.02173],[-0.73186,38.02369],[-0.72941,38.0252],[-0.72614,38.02659],[-0.71751,38.03048],[-0.7187,38.03128],[-0.71962,38.0317],[-0.72115,38.03208],[-0.72383,38.03251],[-0.72061,38.03826],[-0.71933,38.04087]]]}},{"type":"Feature","properties":{"id":"0313302006"},"geometry":{"type":"Polygon","coordinates":[[[-0.68614,37.98374],[-0.68642,37.98227],[-0.689,37.9818],[-0.68811,37.9777],[-0.68918,37.97756],[-0.68973,37.97737],[-0.69088,37.97808],[-0.69307,37.97968],[-0.6867,37.98618],[-0.68614,37.98419],[-0.68614,37.98374]]]}},{"type":"Feature","properties":{"id":"0313302007"},"geometry":{"type":"Polygon","coordinates":[[[-0.72666,37.95426],[-0.72691,37.95441],[-0.72694,37.95464],[-0.72741,37.9546],[-0.72852,37.95537],[-0.72839,37.9555],[-0.72863,37.95568],[-0.72956,37.95607],[-0.73046,37.95624],[-0.73037,37.95638],[-0.73137,37.95702],[-0.73211,37.95704],[-0.73202,37.95744],[-0.73231,37.95736],[-0.73245,37.95809],[-0.7335,37.95754],[-0.73428,37.95743],[-0.73428,37.95794],[-0.73607,37.95949],[-0.7405,37.9619],[-0.73911,37.96305],[-0.73827,37.96464],[-0.73686,37.96503],[-0.73571,37.96497],[-0.73323,37.9707],[-0.73328,37.97086],[-0.73303,37.97219],[-0.73122,37.97439],[-0.72847,37.97319],[-0.72567,37.97022],[-0.72288,37.96847],[-0.72164,37.96802],[-0.72159,37.96809],[-0.71635,37.9661],[-0.71962,37.96161],[-0.7196,37.9614],[-0.7191,37.96114],[-0.7196,37.95987],[-0.71929,37.95893],[-0.71942,37.95884],[-0.7206,37.95867],[-0.72078,37.95829],[-0.72223,37.95798],[-0.72367,37.9569],[-0.72508,37.95649],[-0.72566,37.95543],[-0.72584,37.95456],[-0.72666,37.95426]]]}},{"type":"Feature","properties":{"id":"0313302008"},"geometry":{"type":"Polygon","coordinates":[[[-0.6921,37.97497],[-0.69484,37.97209],[-0.69804,37.97462],[-0.69564,37.97707],[-0.6921,37.97497]]]}},{"type":"Feature","properties":{"id":"0313302009"},"geometry":{"type":"Polygon","coordinates":[[[-0.69321,38.00481],[-0.6908,37.99855],[-0.69166,37.99837],[-0.69188,37.99825],[-0.69438,37.99779],[-0.69325,37.99316],[-0.69561,37.99271],[-0.69936,37.99493],[-0.70044,37.99489],[-0.70645,37.99989],[-0.70867,38.00343],[-0.70682,38.00699],[-0.70011,38.00548],[-0.69958,38.00749],[-0.70409,38.01516],[-0.69933,38.01701],[-0.69665,38.01245],[-0.69553,38.01079],[-0.69446,38.00867],[-0.69321,38.00481]]]}},{"type":"Feature","properties":{"id":"0313303001"},"geometry":{"type":"Polygon","coordinates":[[[-0.67587,37.9797],[-0.67556,37.97819],[-0.67843,37.97805],[-0.67877,37.97976],[-0.67699,37.97995],[-0.67691,37.97959],[-0.67587,37.9797]]]}},{"type":"Feature","properties":{"id":"0313303002"},"geometry":{"type":"Polygon","coordinates":[[[-0.67078,37.97654],[-0.6714,37.97603],[-0.67164,37.97617],[-0.67177,37.9761],[-0.67186,37.97577],[-0.67202,37.97588],[-0.67244,37.97581],[-0.67307,37.97529],[-0.67331,37.97527],[-0.67404,37.97493],[-0.67449,37.97505],[-0.67464,37.97495],[-0.6745,37.97484],[-0.67469,37.97475],[-0.67482,37.9748],[-0.67587,37.9797],[-0.67277,37.98015],[-0.67078,37.97654]]]}},{"type":"Feature","properties":{"id":"0313303003"},"geometry":{"type":"Polygon","coordinates":[[[-0.67519,37.97978],[-0.67691,37.97959],[-0.67699,37.97995],[-0.67877,37.97976],[-0.67946,37.98321],[-0.67673,37.98348],[-0.67519,37.97978]]]}},{"type":"Feature","properties":{"id":"0313303004"},"geometry":{"type":"Polygon","coordinates":[[[-0.65105,38.02945],[-0.65002,38.02947],[-0.65064,38.02982],[-0.65079,38.03002],[-0.65008,38.02987],[-0.64964,38.0296],[-0.64966,38.02951],[-0.64923,38.02939],[-0.64925,38.02926],[-0.64972,38.02915],[-0.64983,38.02894],[-0.65077,38.02886],[-0.65115,38.02872],[-0.6513,38.02858],[-0.65162,38.02787],[-0.65215,38.02539],[-0.65245,38.02492],[-0.65238,38.02463],[-0.65257,38.0234],[-0.65251,38.02298],[-0.65223,38.02262],[-0.6522,38.02239],[-0.65249,38.02011],[-0.6524,38.01882],[-0.65247,38.01774],[-0.65225,38.01675],[-0.65242,38.01508],[-0.6523,38.01389],[-0.65237,38.01284],[-0.65198,38.00868],[-0.65165,38.00843],[-0.65127,38.00837],[-0.65047,38.00775],[-0.65023,38.00746],[-0.65017,38.00709],[-0.64996,38.00684],[-0.65001,38.00655],[-0.64957,38.00616],[-0.64932,38.00567],[-0.64908,38.00558],[-0.64894,38.00573],[-0.64827,38.00582],[-0.64797,38.00545],[-0.64808,38.00532],[-0.64785,38.0053],[-0.64761,38.00499],[-0.64742,38.00429],[-0.64713,38.00406],[-0.64684,38.0042],[-0.64692,38.00408],[-0.6472,38.00398],[-0.6472,38.00383],[-0.6475,38.0036],[-0.64744,38.00344],[-0.64757,38.0033],[-0.64733,38.00298],[-0.6476,38.00302],[-0.64748,38.00282],[-0.64755,38.00271],[-0.64743,38.00263],[-0.64754,38.0026],[-0.64746,38.00255],[-0.64753,38.00241],[-0.64778,38.00227],[-0.64774,38.00209],[-0.64751,38.00207],[-0.64776,38.00202],[-0.64798,38.00208],[-0.64803,38.00195],[-0.64786,38.00177],[-0.64787,38.00163],[-0.64802,38.00161],[-0.64786,38.00149],[-0.64792,38.00142],[-0.64749,38.00118],[-0.64743,38.00123],[-0.64745,38.00105],[-0.64736,38.001],[-0.64755,38.00086],[-0.64774,38.00088],[-0.6478,38.00074],[-0.6478,38.00055],[-0.64766,38.00043],[-0.64772,38.00028],[-0.64758,38.00005],[-0.64746,38.0001],[-0.64763,37.99998],[-0.64759,37.99978],[-0.64785,37.99966],[-0.64798,37.99969],[-0.64792,37.99951],[-0.64803,37.99959],[-0.64826,37.99951],[-0.64868,37.99918],[-0.64907,37.99904],[-0.64935,37.99902],[-0.64951,37.99909],[-0.64974,37.99898],[-0.6501,37.99901],[-0.65042,37.99879],[-0.65064,37.99878],[-0.65073,37.99861],[-0.65229,37.99934],[-0.65136,38.00128],[-0.65217,38.00157],[-0.6564,38.00479],[-0.65673,38.00515],[-0.65755,38.00686],[-0.65691,38.00912],[-0.65719,38.00996],[-0.66125,38.01371],[-0.65596,38.02636],[-0.65616,38.0277],[-0.65804,38.03113],[-0.65677,38.03086],[-0.65511,38.03021],[-0.65105,38.02945]]]}},{"type":"Feature","properties":{"id":"0313303005"},"geometry":{"type":"Polygon","coordinates":[[[-0.67482,37.9748],[-0.67516,37.9748],[-0.67568,37.97497],[-0.67604,37.97458],[-0.67619,37.97457],[-0.6763,37.9744],[-0.6767,37.97413],[-0.67703,37.97408],[-0.67723,37.97417],[-0.67731,37.97407],[-0.67736,37.97416],[-0.67755,37.97374],[-0.67843,37.97805],[-0.67556,37.97819],[-0.67482,37.9748]]]}},{"type":"Feature","properties":{"id":"0313303006"},"geometry":{"type":"Polygon","coordinates":[[[-0.66577,37.98342],[-0.66576,37.98327],[-0.6667,37.98316],[-0.66646,37.9805],[-0.66415,37.98063],[-0.66406,37.98046],[-0.66415,37.98028],[-0.66393,37.98013],[-0.66369,37.9801],[-0.66372,37.97913],[-0.66407,37.97798],[-0.66436,37.97752],[-0.66477,37.97717],[-0.66549,37.97682],[-0.66578,37.97644],[-0.6658,37.97607],[-0.66601,37.976],[-0.66614,37.97607],[-0.66636,37.97604],[-0.66664,37.97585],[-0.66694,37.97584],[-0.66715,37.9759],[-0.66737,37.97612],[-0.66752,37.97677],[-0.6678,37.97714],[-0.66876,37.9834],[-0.66734,37.98366],[-0.66577,37.98342]]]}},{"type":"Feature","properties":{"id":"0313303007"},"geometry":{"type":"Polygon","coordinates":[[[-0.6678,37.97714],[-0.66849,37.97723],[-0.66895,37.97718],[-0.67049,37.97677],[-0.67078,37.97654],[-0.67277,37.98015],[-0.6683,37.9804],[-0.6678,37.97714]]]}},{"type":"Feature","properties":{"id":"0313303008"},"geometry":{"type":"Polygon","coordinates":[[[-0.65545,37.99151],[-0.65561,37.99141],[-0.65558,37.99125],[-0.65514,37.99094],[-0.65493,37.99095],[-0.65481,37.99106],[-0.65476,37.99078],[-0.65458,37.99084],[-0.65436,37.99073],[-0.65415,37.99039],[-0.65426,37.99021],[-0.65457,37.99022],[-0.65455,37.98997],[-0.6549,37.98993],[-0.6552,37.98965],[-0.65515,37.98944],[-0.65465,37.9894],[-0.65467,37.98883],[-0.65481,37.98887],[-0.6551,37.98847],[-0.65508,37.98826],[-0.65496,37.98827],[-0.6547,37.98807],[-0.65471,37.9876],[-0.65497,37.98748],[-0.65486,37.9871],[-0.65498,37.98706],[-0.65504,37.98712],[-0.65534,37.98693],[-0.65517,37.98679],[-0.65543,37.98678],[-0.65567,37.98693],[-0.65571,37.98682],[-0.65552,37.98672],[-0.65579,37.98672],[-0.65584,37.98661],[-0.66376,37.98839],[-0.66387,37.98767],[-0.66424,37.9868],[-0.66409,37.98675],[-0.66459,37.98599],[-0.67304,37.9873],[-0.67285,37.98793],[-0.67336,37.98805],[-0.67241,37.99079],[-0.67527,37.99133],[-0.67299,37.99517],[-0.67272,37.99507],[-0.67185,37.99344],[-0.66877,37.99341],[-0.66795,37.99575],[-0.66595,37.99565],[-0.6664,37.99453],[-0.66362,37.99361],[-0.66277,37.99361],[-0.66273,37.99383],[-0.66209,37.99365],[-0.66172,37.99543],[-0.65909,37.99383],[-0.65911,37.99376],[-0.65885,37.99358],[-0.65899,37.99305],[-0.65545,37.99151]]]}},{"type":"Feature","properties":{"id":"0313303009"},"geometry":{"type":"Polygon","coordinates":[[[-0.67241,37.99079],[-0.67466,37.98428],[-0.67455,37.9837],[-0.67946,37.98321],[-0.67946,37.98375],[-0.67918,37.98461],[-0.6752,37.9913],[-0.67241,37.99079]]]}},{"type":"Feature","properties":{"id":"0313303010"},"geometry":{"type":"Polygon","coordinates":[[[-0.65584,37.98661],[-0.65586,37.98642],[-0.65555,37.98596],[-0.6555,37.98556],[-0.65526,37.9855],[-0.65477,37.9856],[-0.65479,37.98522],[-0.65518,37.9851],[-0.65581,37.98507],[-0.65617,37.98525],[-0.65646,37.98525],[-0.65661,37.98506],[-0.65655,37.98488],[-0.65667,37.98478],[-0.6567,37.98452],[-0.65689,37.98453],[-0.65707,37.9844],[-0.65649,37.98389],[-0.65639,37.98366],[-0.65649,37.98353],[-0.65612,37.9834],[-0.65605,37.98325],[-0.65587,37.98329],[-0.65556,37.98313],[-0.65588,37.98288],[-0.65636,37.98271],[-0.65672,37.98269],[-0.65761,37.98307],[-0.65783,37.98328],[-0.65777,37.98368],[-0.65804,37.98384],[-0.65914,37.98378],[-0.66013,37.98341],[-0.66085,37.98297],[-0.66195,37.98148],[-0.66328,37.98059],[-0.66406,37.98046],[-0.66415,37.98063],[-0.66646,37.9805],[-0.6667,37.98316],[-0.66576,37.98327],[-0.66577,37.98342],[-0.66506,37.98341],[-0.6647,37.98352],[-0.66323,37.98496],[-0.66281,37.98568],[-0.66264,37.98639],[-0.66424,37.9868],[-0.66387,37.98767],[-0.66376,37.98839],[-0.65584,37.98661]]]}},{"type":"Feature","properties":{"id":"0313303011"},"geometry":{"type":"Polygon","coordinates":[[[-0.65389,38.00292],[-0.65428,38.00208],[-0.65478,38.00197],[-0.65502,38.00148],[-0.6559,38.00175],[-0.65836,38.00152],[-0.6585,38.00195],[-0.65869,38.0021],[-0.66373,37.99984],[-0.66332,37.99945],[-0.66509,37.99737],[-0.6697,37.99829],[-0.66955,37.99854],[-0.67076,37.99906],[-0.66723,38.00512],[-0.66707,38.00549],[-0.66678,38.0072],[-0.66538,38.00903],[-0.66455,38.01114],[-0.66428,38.01141],[-0.66313,38.01195],[-0.66125,38.01371],[-0.65719,38.00996],[-0.65691,38.00912],[-0.65752,38.00709],[-0.65751,38.00671],[-0.65673,38.00515],[-0.65647,38.00486],[-0.65389,38.00292]]]}},{"type":"Feature","properties":{"id":"0313303012"},"geometry":{"type":"Polygon","coordinates":[[[-0.6723,37.98018],[-0.67519,37.97978],[-0.67673,37.98348],[-0.67262,37.98388],[-0.6723,37.98018]]]}},{"type":"Feature","properties":{"id":"0313303013"},"geometry":{"type":"Polygon","coordinates":[[[-0.66884,37.98397],[-0.6683,37.9804],[-0.6723,37.98018],[-0.67262,37.98388],[-0.67163,37.98398],[-0.66884,37.98397]]]}},{"type":"Feature","properties":{"id":"0313303014"},"geometry":{"type":"Polygon","coordinates":[[[-0.66409,37.98675],[-0.66264,37.98639],[-0.66281,37.98568],[-0.66323,37.98496],[-0.6647,37.98352],[-0.66506,37.98341],[-0.66548,37.98338],[-0.66734,37.98366],[-0.66876,37.9834],[-0.66884,37.98397],[-0.67163,37.98398],[-0.67455,37.9837],[-0.67466,37.98428],[-0.67336,37.98805],[-0.67285,37.98793],[-0.67304,37.9873],[-0.66459,37.98599],[-0.66409,37.98675]]]}},{"type":"Feature","properties":{"id":"0313303015"},"geometry":{"type":"Polygon","coordinates":[[[-0.65073,37.99861],[-0.65127,37.99835],[-0.65143,37.99806],[-0.65177,37.9978],[-0.65247,37.99774],[-0.65245,37.99742],[-0.65282,37.9973],[-0.65269,37.99713],[-0.6528,37.99675],[-0.65292,37.9967],[-0.65278,37.99646],[-0.6526,37.9964],[-0.65268,37.9962],[-0.65259,37.99612],[-0.65276,37.99599],[-0.6526,37.99587],[-0.65286,37.99589],[-0.65263,37.99571],[-0.65303,37.99575],[-0.65321,37.99564],[-0.65321,37.99538],[-0.65311,37.99526],[-0.6532,37.99512],[-0.65308,37.99506],[-0.65342,37.99488],[-0.65348,37.9941],[-0.65361,37.99397],[-0.65396,37.99391],[-0.65397,37.99406],[-0.65413,37.99403],[-0.65427,37.99395],[-0.65425,37.99379],[-0.6546,37.99391],[-0.65476,37.99373],[-0.6547,37.99356],[-0.65421,37.99325],[-0.65408,37.99295],[-0.65345,37.9928],[-0.65347,37.9926],[-0.65383,37.99239],[-0.65405,37.99191],[-0.65464,37.9917],[-0.6551,37.9917],[-0.65545,37.99151],[-0.65899,37.99305],[-0.65885,37.99358],[-0.65911,37.99376],[-0.65909,37.99383],[-0.66172,37.99543],[-0.66209,37.99365],[-0.66273,37.99383],[-0.66277,37.99361],[-0.66362,37.99361],[-0.6664,37.99453],[-0.66595,37.99565],[-0.66795,37.99575],[-0.66877,37.99341],[-0.67185,37.99344],[-0.67272,37.99507],[-0.67299,37.99517],[-0.67074,37.99904],[-0.66955,37.99854],[-0.6697,37.99829],[-0.66509,37.99737],[-0.66332,37.99945],[-0.66373,37.99984],[-0.65869,38.0021],[-0.6585,38.00195],[-0.65836,38.00152],[-0.6559,38.00175],[-0.65502,38.00148],[-0.65478,38.00197],[-0.65428,38.00208],[-0.65389,38.00292],[-0.65217,38.00157],[-0.65136,38.00128],[-0.65229,37.99934],[-0.65073,37.99861]]]}}]}