{"type":"FeatureCollection","features":[{"type":"Feature","properties":{"id":"0401601001"},"geometry":{"type":"Polygon","coordinates":[[[-1.89178,37.24958],[-1.89187,37.23937],[-1.89178,37.23818],[-1.89192,37.23356],[-1.88719,37.22116],[-1.88755,37.21994],[-1.8881,37.21892],[-1.88853,37.21851],[-1.89134,37.21627],[-1.89269,37.21545],[-1.89443,37.21498],[-1.89695,37.21296],[-1.89769,37.21197],[-1.8982,37.21101],[-1.8987,37.20879],[-1.899,37.20815],[-1.89944,37.20754],[-1.90115,37.20624],[-1.90195,37.20586],[-1.90423,37.20428],[-1.906,37.20294],[-1.90763,37.20189],[-1.90944,37.20089],[-1.91006,37.20008],[-1.91051,37.19876],[-1.91098,37.19819],[-1.91522,37.1952],[-1.91848,37.19175],[-1.91961,37.19155],[-1.92034,37.19129],[-1.92208,37.19132],[-1.92322,37.1912],[-1.92428,37.19079],[-1.92532,37.19011],[-1.93305,37.19508],[-1.94123,37.19939],[-1.94609,37.20049],[-1.94818,37.20111],[-1.95772,37.20781],[-1.96199,37.21027],[-1.96592,37.21195],[-1.96628,37.21219],[-1.97495,37.22049],[-1.97938,37.2233],[-1.98022,37.2237],[-1.97991,37.22431],[-1.97938,37.2245],[-1.97851,37.22458],[-1.97791,37.22441],[-1.97644,37.22444],[-1.97598,37.22479],[-1.9755,37.22554],[-1.97525,37.22567],[-1.97457,37.22563],[-1.97441,37.22555],[-1.97421,37.22521],[-1.97364,37.22501],[-1.97211,37.22494],[-1.97123,37.2248],[-1.97073,37.22491],[-1.97011,37.22476],[-1.96999,37.22643],[-1.96977,37.22744],[-1.96981,37.22783],[-1.96913,37.22859],[-1.96835,37.2291],[-1.96571,37.2298],[-1.96425,37.23095],[-1.96334,37.23127],[-1.96293,37.23162],[-1.96276,37.23191],[-1.96199,37.23236],[-1.96145,37.23369],[-1.96139,37.23462],[-1.96078,37.23534],[-1.96041,37.23601],[-1.95986,37.23651],[-1.95966,37.23709],[-1.95919,37.23721],[-1.95781,37.23816],[-1.95743,37.2386],[-1.95674,37.23907],[-1.95593,37.23998],[-1.95538,37.24019],[-1.95499,37.24074],[-1.95441,37.24106],[-1.95413,37.2418],[-1.95378,37.24175],[-1.95339,37.24206],[-1.95317,37.24208],[-1.95296,37.24179],[-1.95282,37.24179],[-1.95235,37.24189],[-1.9521,37.24209],[-1.9515,37.2422],[-1.95042,37.24307],[-1.95036,37.2435],[-1.94997,37.24406],[-1.94704,37.24204],[-1.94512,37.24017],[-1.94382,37.23975],[-1.94332,37.23973],[-1.94207,37.23994],[-1.94121,37.23951],[-1.94071,37.23951],[-1.9405,37.23967],[-1.94035,37.24011],[-1.94054,37.24106],[-1.94037,37.2414],[-1.93995,37.2418],[-1.94002,37.2422],[-1.94024,37.24244],[-1.94023,37.24275],[-1.94054,37.24317],[-1.94072,37.24368],[-1.94066,37.24439],[-1.94081,37.24525],[-1.94078,37.24637],[-1.93834,37.24305],[-1.93756,37.2422],[-1.93703,37.2418],[-1.93652,37.24156],[-1.93513,37.24128],[-1.93461,37.24129],[-1.9341,37.24119],[-1.93346,37.24149],[-1.93253,37.24165],[-1.93175,37.24214],[-1.93087,37.24247],[-1.92863,37.24317],[-1.92807,37.24391],[-1.92711,37.24468],[-1.92644,37.24579],[-1.92518,37.24706],[-1.92274,37.24911],[-1.92099,37.25002],[-1.91843,37.25028],[-1.91156,37.25015],[-1.90852,37.24979],[-1.90452,37.24959],[-1.90012,37.24926],[-1.89923,37.24912],[-1.89781,37.24931],[-1.89539,37.24935],[-1.89178,37.24958]]]}},{"type":"Feature","properties":{"id":"0401602001"},"geometry":{"type":"Polygon","coordinates":[[[-1.94832,37.30047],[-1.94802,37.30008],[-1.94647,37.29879],[-1.94565,37.29757],[-1.94468,37.29667],[-1.9437,37.29611],[-1.9428,37.29544],[-1.94092,37.29424],[-1.93939,37.29345],[-1.93839,37.29306],[-1.93825,37.29286],[-1.9385,37.29229],[-1.9383,37.29192],[-1.93198,37.28637],[-1.92649,37.28444],[-1.92447,37.28378],[-1.9236,37.28364],[-1.92134,37.28278],[-1.9199,37.28241],[-1.91987,37.28198],[-1.91974,37.28183],[-1.91757,37.28081],[-1.91639,37.27996],[-1.9156,37.27923],[-1.91524,37.27903],[-1.91313,37.27835],[-1.91163,37.27654],[-1.91095,37.27594],[-1.90956,37.27512],[-1.90604,37.27348],[-1.90316,37.27423],[-1.9011,37.27289],[-1.89806,37.27167],[-1.89723,37.27124],[-1.89625,37.27058],[-1.89275,37.27113],[-1.89159,37.27104],[-1.89178,37.24958],[-1.89539,37.24935],[-1.89781,37.24931],[-1.89923,37.24912],[-1.90012,37.24926],[-1.90452,37.24959],[-1.90852,37.24979],[-1.91156,37.25015],[-1.91843,37.25028],[-1.92099,37.25002],[-1.92274,37.24911],[-1.92518,37.24706],[-1.92644,37.24579],[-1.92711,37.24468],[-1.92807,37.24391],[-1.92863,37.24317],[-1.93087,37.24247],[-1.93175,37.24214],[-1.93253,37.24165],[-1.93346,37.24149],[-1.9341,37.24119],[-1.93461,37.24129],[-1.93513,37.24128],[-1.93652,37.24156],[-1.93703,37.2418],[-1.93756,37.2422],[-1.93834,37.24305],[-1.94078,37.24637],[-1.94081,37.24525],[-1.94066,37.24439],[-1.94072,37.24368],[-1.94054,37.24317],[-1.94023,37.24275],[-1.94024,37.24244],[-1.94002,37.2422],[-1.93995,37.2418],[-1.94037,37.2414],[-1.94054,37.24106],[-1.94035,37.24011],[-1.9405,37.23967],[-1.94071,37.23951],[-1.94121,37.23951],[-1.94207,37.23994],[-1.94332,37.23973],[-1.94382,37.23975],[-1.94512,37.24017],[-1.94704,37.24204],[-1.94997,37.24406],[-1.95036,37.2435],[-1.95042,37.24307],[-1.9515,37.2422],[-1.9521,37.24209],[-1.95235,37.24189],[-1.95282,37.24179],[-1.95296,37.24179],[-1.95317,37.24208],[-1.95339,37.24206],[-1.95378,37.24175],[-1.95413,37.2418],[-1.95441,37.24106],[-1.95499,37.24074],[-1.95538,37.24019],[-1.95593,37.23998],[-1.95674,37.23907],[-1.95743,37.2386],[-1.95781,37.23816],[-1.95919,37.23721],[-1.95966,37.23709],[-1.95986,37.23651],[-1.96041,37.23601],[-1.96078,37.23534],[-1.96139,37.23462],[-1.96145,37.23369],[-1.96199,37.23236],[-1.96276,37.23191],[-1.96293,37.23162],[-1.96334,37.23127],[-1.96425,37.23095],[-1.96571,37.2298],[-1.96835,37.2291],[-1.96913,37.22859],[-1.96981,37.22783],[-1.96977,37.22744],[-1.96999,37.22643],[-1.97011,37.22476],[-1.97073,37.22491],[-1.97123,37.2248],[-1.97211,37.22494],[-1.97364,37.22501],[-1.97421,37.22521],[-1.97441,37.22555],[-1.97457,37.22563],[-1.97525,37.22567],[-1.9755,37.22554],[-1.97598,37.22479],[-1.97644,37.22444],[-1.97791,37.22441],[-1.97851,37.22458],[-1.97938,37.2245],[-1.97991,37.22431],[-1.98022,37.2237],[-1.98281,37.2252],[-1.99044,37.2368],[-1.99186,37.23872],[-2.00367,37.25219],[-2.00584,37.25437],[-2.0075,37.25581],[-2.00838,37.25647],[-2.00911,37.25649],[-2.00961,37.25664],[-2.00976,37.25688],[-2.00898,37.25737],[-2.00907,37.25755],[-2.01131,37.25835],[-2.01228,37.2588],[-2.01312,37.25881],[-2.01359,37.25893],[-2.0145,37.2594],[-2.01507,37.25981],[-2.01674,37.25955],[-2.01695,37.25962],[-2.01788,37.2611],[-2.01921,37.26225],[-2.01933,37.26262],[-2.01924,37.26294],[-2.01905,37.26335],[-2.01854,37.26395],[-2.02002,37.26498],[-2.02048,37.26541],[-2.02088,37.26649],[-2.02171,37.26696],[-2.02341,37.26729],[-2.0258,37.26808],[-2.02706,37.26835],[-2.02976,37.26946],[-2.02987,37.26965],[-2.02974,37.27055],[-2.02998,37.27204],[-2.03118,37.27381],[-2.03106,37.2746],[-2.03188,37.27595],[-2.03028,37.27756],[-2.02923,37.279],[-2.03081,37.28052],[-2.03116,37.28108],[-2.03212,37.28406],[-2.0339,37.28424],[-2.03793,37.28541],[-2.03871,37.28592],[-2.03906,37.28667],[-2.03959,37.28678],[-2.04013,37.28675],[-2.04051,37.28861],[-2.0408,37.28931],[-2.04102,37.28958],[-2.04045,37.29019],[-2.04012,37.29037],[-2.03927,37.29041],[-2.03752,37.29025],[-2.03624,37.2904],[-2.03493,37.29075],[-2.0346,37.29094],[-2.03354,37.29223],[-2.03301,37.29266],[-2.02992,37.29289],[-2.0297,37.29446],[-2.02939,37.29493],[-2.02909,37.29523],[-2.02825,37.29576],[-2.02774,37.29596],[-2.02657,37.29617],[-2.02534,37.29622],[-2.02373,37.29644],[-2.02332,37.29631],[-2.02249,37.29624],[-2.01696,37.29721],[-2.01448,37.29778],[-1.99301,37.30031],[-1.98868,37.3009],[-1.96935,37.30453],[-1.95829,37.29962],[-1.9552,37.2998],[-1.94832,37.30047]]]}}]}