{"type":"FeatureCollection","features":[{"type":"Feature","properties":{"id":"0405701001"},"geometry":{"type":"Polygon","coordinates":[[[-2.88501,36.99482],[-2.88466,36.99385],[-2.88515,36.99368],[-2.88525,36.99312],[-2.88539,36.99286],[-2.88565,36.99273],[-2.8861,36.99263],[-2.88622,36.99295],[-2.88663,36.99293],[-2.88709,36.99277],[-2.8879,36.99266],[-2.88822,36.99232],[-2.88862,36.99221],[-2.88936,36.99227],[-2.89001,36.99217],[-2.89091,36.99178],[-2.89236,36.99155],[-2.893,36.99319],[-2.8927,36.99327],[-2.89297,36.99379],[-2.89279,36.99389],[-2.89285,36.99406],[-2.89333,36.99453],[-2.89305,36.99474],[-2.89311,36.9953],[-2.89065,36.99666],[-2.88759,36.99789],[-2.88714,36.99756],[-2.88636,36.99751],[-2.8864,36.9971],[-2.88625,36.99665],[-2.88501,36.99482]]]}},{"type":"Feature","properties":{"id":"0405702001"},"geometry":{"type":"Polygon","coordinates":[[[-2.88985,37.09212],[-2.88619,37.09085],[-2.88366,37.09041],[-2.88189,37.09051],[-2.88018,37.09097],[-2.87907,37.09138],[-2.87746,37.09018],[-2.87611,37.08981],[-2.87469,37.08909],[-2.87392,37.08864],[-2.87277,37.08776],[-2.86947,37.08643],[-2.86851,37.08647],[-2.86763,37.08578],[-2.86655,37.08572],[-2.86537,37.08437],[-2.86417,37.08425],[-2.86282,37.08366],[-2.86084,37.08339],[-2.85894,37.08292],[-2.86183,37.04179],[-2.86181,37.04083],[-2.86219,37.04026],[-2.86292,37.03986],[-2.86344,37.03978],[-2.86612,37.03998],[-2.86696,37.03979],[-2.86775,37.03935],[-2.86851,37.03871],[-2.87095,37.03702],[-2.87075,37.03547],[-2.87052,37.03485],[-2.87024,37.03439],[-2.86852,37.0324],[-2.86817,37.02919],[-2.86823,37.02728],[-2.86797,37.02643],[-2.8675,37.02598],[-2.86711,37.02574],[-2.86586,37.02531],[-2.86671,37.02335],[-2.8672,37.02286],[-2.8675,37.02269],[-2.8688,37.02237],[-2.87027,37.02186],[-2.8709,37.02144],[-2.87133,37.02046],[-2.8714,37.01959],[-2.87121,37.0192],[-2.86987,37.01802],[-2.86906,37.01753],[-2.86721,37.01689],[-2.86661,37.01641],[-2.86626,37.01597],[-2.86496,37.0137],[-2.86468,37.01156],[-2.86447,37.01096],[-2.8642,37.0106],[-2.86582,37.00925],[-2.86857,37.00643],[-2.87119,37.00309],[-2.87147,37.00243],[-2.87173,37.00082],[-2.87191,37.0005],[-2.87273,36.99936],[-2.87375,36.99855],[-2.87491,36.997],[-2.87598,36.99611],[-2.87658,36.99524],[-2.87678,36.99438],[-2.87707,36.99394],[-2.87816,36.99312],[-2.87834,36.99283],[-2.87833,36.99256],[-2.87795,36.99172],[-2.87796,36.99109],[-2.87805,36.99038],[-2.87839,36.98921],[-2.87858,36.9888],[-2.87993,36.98718],[-2.88147,36.98585],[-2.88172,36.98576],[-2.88494,36.98634],[-2.88582,36.98635],[-2.88612,36.98631],[-2.88657,36.98604],[-2.88738,36.98534],[-2.88928,36.98508],[-2.8904,36.98364],[-2.89148,36.98257],[-2.89152,36.98243],[-2.8904,36.98158],[-2.88995,36.98103],[-2.88985,36.98066],[-2.88993,36.98],[-2.88962,36.97882],[-2.88964,36.97814],[-2.88999,36.97715],[-2.88998,36.97689],[-2.88977,36.97639],[-2.88884,36.97531],[-2.88879,36.97506],[-2.88891,36.97467],[-2.88955,36.97347],[-2.8899,36.97319],[-2.89039,36.97296],[-2.89216,36.97264],[-2.89352,36.97204],[-2.89433,36.97151],[-2.89566,36.97131],[-2.89582,36.97112],[-2.89596,36.96991],[-2.89622,36.96953],[-2.89742,36.96851],[-2.89831,36.968],[-2.89889,36.96749],[-2.89971,36.9671],[-2.90022,36.96641],[-2.90041,36.96574],[-2.90027,36.96449],[-2.90036,36.96416],[-2.90054,36.9638],[-2.90128,36.96322],[-2.90161,36.96252],[-2.90156,36.96181],[-2.90108,36.95946],[-2.90141,36.95889],[-2.90217,36.95834],[-2.90261,36.95739],[-2.90333,36.95706],[-2.90353,36.95673],[-2.90394,36.95524],[-2.90383,36.95494],[-2.90304,36.95434],[-2.90262,36.95354],[-2.90236,36.95328],[-2.90209,36.95226],[-2.90225,36.9517],[-2.90251,36.95117],[-2.90398,36.95034],[-2.90448,36.94983],[-2.90445,36.94844],[-2.90556,36.94809],[-2.90626,36.94771],[-2.90746,36.94618],[-2.90822,36.94573],[-2.90846,36.94509],[-2.90959,36.9441],[-2.91026,36.94294],[-2.91,36.94127],[-2.91018,36.94081],[-2.91091,36.93985],[-2.91096,36.9395],[-2.90989,36.93809],[-2.90969,36.93696],[-2.90874,36.93551],[-2.90817,36.93375],[-2.90772,36.93368],[-2.90689,36.93377],[-2.90508,36.93421],[-2.90443,36.93457],[-2.90354,36.93534],[-2.9032,36.93571],[-2.9029,36.93637],[-2.90225,36.93687],[-2.90028,36.93756],[-2.89946,36.9374],[-2.89854,36.93666],[-2.89709,36.9352],[-2.89251,36.93142],[-2.8894,36.92899],[-2.88911,36.92755],[-2.88893,36.92706],[-2.88857,36.92661],[-2.88817,36.92646],[-2.88661,36.92634],[-2.88489,36.92606],[-2.88437,36.92589],[-2.88404,36.92564],[-2.88151,36.92072],[-2.88136,36.92012],[-2.88151,36.91886],[-2.88259,36.91673],[-2.88286,36.91637],[-2.88367,36.9145],[-2.88366,36.91416],[-2.88296,36.91187],[-2.88269,36.91134],[-2.8825,36.90999],[-2.8821,36.90856],[-2.88182,36.90817],[-2.8811,36.90756],[-2.88066,36.90694],[-2.88052,36.90652],[-2.88068,36.90551],[-2.88096,36.90501],[-2.88334,36.90525],[-2.88497,36.90692],[-2.89788,36.91308],[-2.90717,36.91108],[-2.90926,36.91341],[-2.91478,36.91889],[-2.91673,36.91865],[-2.91817,36.91892],[-2.92536,36.91875],[-2.92856,36.91947],[-2.93143,36.91974],[-2.93493,36.9197],[-2.93857,36.91988],[-2.93845,36.9202],[-2.93778,36.92092],[-2.93621,36.92176],[-2.93534,36.92235],[-2.93691,36.92627],[-2.93677,36.93057],[-2.93715,36.93552],[-2.93804,36.94148],[-2.9378,36.95186],[-2.93789,36.95346],[-2.93785,36.95389],[-2.93705,36.95672],[-2.93694,36.95817],[-2.93703,36.95855],[-2.9375,36.95947],[-2.93795,36.96002],[-2.93881,36.96054],[-2.94015,36.96105],[-2.9406,36.96227],[-2.9408,36.9625],[-2.94156,36.96294],[-2.94137,36.9644],[-2.9404,36.969],[-2.94189,36.99571],[-2.9387,36.99851],[-2.93225,37.00119],[-2.93118,37.00291],[-2.92917,37.0046],[-2.92876,37.00524],[-2.92827,37.00703],[-2.92947,37.00891],[-2.93042,37.01151],[-2.91864,37.01315],[-2.91494,37.01534],[-2.91528,37.01611],[-2.91545,37.0173],[-2.91586,37.0178],[-2.91603,37.01823],[-2.91576,37.01906],[-2.91583,37.02008],[-2.91594,37.02037],[-2.91672,37.02144],[-2.91786,37.02366],[-2.91774,37.02448],[-2.91668,37.02643],[-2.91649,37.0271],[-2.91662,37.02776],[-2.9173,37.0292],[-2.91788,37.03082],[-2.91846,37.03366],[-2.91867,37.03423],[-2.91983,37.03622],[-2.92012,37.03695],[-2.92049,37.03811],[-2.92071,37.03933],[-2.92155,37.04077],[-2.92438,37.04408],[-2.92518,37.0453],[-2.92534,37.04599],[-2.92525,37.04633],[-2.92481,37.04705],[-2.92383,37.04787],[-2.92352,37.0486],[-2.92348,37.04899],[-2.9236,37.04979],[-2.92406,37.05121],[-2.92417,37.0522],[-2.92367,37.05397],[-2.92363,37.05441],[-2.92377,37.05488],[-2.92344,37.0561],[-2.92338,37.0571],[-2.92358,37.05986],[-2.924,37.06117],[-2.92524,37.06401],[-2.92548,37.06493],[-2.92544,37.06661],[-2.92562,37.0675],[-2.92717,37.07119],[-2.92798,37.07276],[-2.92826,37.07312],[-2.92896,37.07354],[-2.92686,37.075],[-2.92794,37.07539],[-2.92856,37.07577],[-2.92891,37.0763],[-2.92954,37.07813],[-2.93045,37.07957],[-2.93064,37.08105],[-2.931,37.0816],[-2.93255,37.08342],[-2.93349,37.08551],[-2.93374,37.08663],[-2.93374,37.08718],[-2.93352,37.08821],[-2.93378,37.08927],[-2.93506,37.09093],[-2.93547,37.09125],[-2.93623,37.0922],[-2.93769,37.09309],[-2.93942,37.0939],[-2.94252,37.09464],[-2.94371,37.09476],[-2.94515,37.09465],[-2.94527,37.09484],[-2.94623,37.09478],[-2.94792,37.09495],[-2.94947,37.09546],[-2.95092,37.09607],[-2.94896,37.09655],[-2.94728,37.09684],[-2.94347,37.09712],[-2.9426,37.09681],[-2.94176,37.09698],[-2.93974,37.09687],[-2.93923,37.09656],[-2.93856,37.09587],[-2.93784,37.09534],[-2.93737,37.09522],[-2.93606,37.09533],[-2.93579,37.09526],[-2.931,37.09259],[-2.92968,37.09212],[-2.92715,37.09101],[-2.92647,37.09084],[-2.92508,37.09077],[-2.92431,37.0909],[-2.92354,37.0911],[-2.92234,37.09169],[-2.92133,37.09139],[-2.92066,37.09132],[-2.91997,37.0914],[-2.91914,37.09166],[-2.91848,37.09205],[-2.91817,37.0913],[-2.91776,37.09123],[-2.91519,37.09019],[-2.91394,37.08986],[-2.91341,37.0896],[-2.91292,37.08927],[-2.91191,37.08807],[-2.91079,37.08822],[-2.90975,37.08973],[-2.90912,37.09042],[-2.90861,37.09068],[-2.90798,37.09083],[-2.90719,37.09085],[-2.90634,37.09075],[-2.90496,37.09027],[-2.90133,37.09218],[-2.90106,37.09219],[-2.90074,37.09177],[-2.89734,37.09078],[-2.89671,37.09088],[-2.89552,37.09022],[-2.89486,37.09009],[-2.89419,37.09013],[-2.89115,37.09092],[-2.89035,37.09152],[-2.88985,37.09212]],[[-2.88466,36.99385],[-2.88501,36.99482],[-2.88625,36.99665],[-2.8864,36.9971],[-2.88636,36.99751],[-2.88714,36.99756],[-2.88759,36.99789],[-2.89065,36.99666],[-2.89311,36.9953],[-2.89305,36.99474],[-2.89333,36.99453],[-2.89285,36.99406],[-2.89279,36.99389],[-2.89297,36.99379],[-2.8927,36.99327],[-2.893,36.99319],[-2.89236,36.99155],[-2.89091,36.99178],[-2.89001,36.99217],[-2.88936,36.99227],[-2.88862,36.99221],[-2.88822,36.99232],[-2.8879,36.99266],[-2.88709,36.99277],[-2.88663,36.99293],[-2.88622,36.99295],[-2.8861,36.99263],[-2.88565,36.99273],[-2.88539,36.99286],[-2.88525,36.99312],[-2.88515,36.99368],[-2.88466,36.99385]]]}}]}