{"type":"FeatureCollection","features":[{"type":"Feature","properties":{"id":"0406201001"},"geometry":{"type":"Polygon","coordinates":[[[-2.30739,37.34417],[-2.29345,37.3405],[-2.29293,37.34026],[-2.29081,37.33886],[-2.28965,37.33935],[-2.28826,37.33973],[-2.28622,37.33947],[-2.28557,37.34003],[-2.28272,37.33939],[-2.27984,37.33927],[-2.27922,37.33915],[-2.27797,37.33868],[-2.27435,37.33772],[-2.26984,37.33624],[-2.2695,37.33577],[-2.26965,37.33551],[-2.26811,37.33474],[-2.26744,37.33455],[-2.26707,37.33457],[-2.2665,37.33489],[-2.26592,37.33504],[-2.26556,37.33346],[-2.26537,37.33302],[-2.26394,37.33206],[-2.26207,37.33029],[-2.26148,37.33004],[-2.25856,37.32927],[-2.25832,37.32934],[-2.25787,37.33006],[-2.25678,37.33097],[-2.2564,37.33088],[-2.25602,37.32999],[-2.25614,37.3292],[-2.25601,37.32868],[-2.25517,37.32781],[-2.25419,37.32727],[-2.25176,37.32647],[-2.25084,37.32541],[-2.25051,37.32528],[-2.24831,37.32491],[-2.24744,37.32463],[-2.24314,37.32148],[-2.24487,37.32],[-2.24716,37.31759],[-2.24921,37.31579],[-2.25077,37.31411],[-2.25404,37.31093],[-2.25474,37.31043],[-2.25586,37.30921],[-2.25717,37.30811],[-2.26112,37.30349],[-2.26513,37.29971],[-2.26733,37.29726],[-2.26768,37.29663],[-2.26812,37.29512],[-2.2687,37.29373],[-2.26889,37.29275],[-2.26958,37.29076],[-2.26982,37.28904],[-2.2699,37.28604],[-2.27084,37.28454],[-2.27212,37.28404],[-2.27363,37.28308],[-2.27437,37.28273],[-2.27969,37.28074],[-2.28598,37.27874],[-2.28955,37.27784],[-2.29244,37.27688],[-2.29423,37.27639],[-2.29599,37.27516],[-2.29937,37.27346],[-2.30069,37.27291],[-2.3078,37.27077],[-2.30875,37.26937],[-2.30896,37.26924],[-2.3134,37.26831],[-2.31951,37.26751],[-2.32092,37.26697],[-2.32134,37.26712],[-2.32201,37.26713],[-2.32487,37.26653],[-2.32514,37.266],[-2.32551,37.26558],[-2.32586,37.26546],[-2.3275,37.26515],[-2.32999,37.26491],[-2.33141,37.26489],[-2.33167,37.26497],[-2.33271,37.26584],[-2.33285,37.26666],[-2.33236,37.26727],[-2.33181,37.26827],[-2.33157,37.26895],[-2.33135,37.27117],[-2.33167,37.27378],[-2.33212,37.27552],[-2.33217,37.2761],[-2.33211,37.27647],[-2.33137,37.27757],[-2.33129,37.27785],[-2.33221,37.27966],[-2.33247,37.28047],[-2.33245,37.28106],[-2.33232,37.28151],[-2.33175,37.28271],[-2.33135,37.28332],[-2.32998,37.28487],[-2.32992,37.28583],[-2.32978,37.28633],[-2.3296,37.28658],[-2.32902,37.28694],[-2.32709,37.28782],[-2.32535,37.2882],[-2.32181,37.29265],[-2.32021,37.29509],[-2.31957,37.29581],[-2.3195,37.29689],[-2.3187,37.29799],[-2.31812,37.29924],[-2.31806,37.29983],[-2.31742,37.301],[-2.31699,37.30427],[-2.31638,37.3059],[-2.31686,37.30668],[-2.31865,37.30814],[-2.32012,37.31128],[-2.32209,37.31084],[-2.32415,37.31274],[-2.3247,37.31353],[-2.32564,37.31442],[-2.32566,37.31466],[-2.32515,37.31547],[-2.32696,37.31785],[-2.32725,37.3181],[-2.32808,37.31837],[-2.32928,37.31803],[-2.33034,37.31758],[-2.33103,37.31831],[-2.33305,37.32005],[-2.3338,37.32046],[-2.33388,37.32065],[-2.33378,37.32102],[-2.3324,37.32149],[-2.3323,37.32163],[-2.33172,37.32442],[-2.33255,37.32607],[-2.33462,37.32711],[-2.33608,37.32757],[-2.33632,37.32772],[-2.33683,37.3324],[-2.33669,37.33273],[-2.33633,37.33316],[-2.33573,37.33348],[-2.33087,37.33773],[-2.32985,37.33882],[-2.3275,37.3397],[-2.32604,37.33964],[-2.32473,37.34016],[-2.3245,37.34046],[-2.32433,37.34105],[-2.32382,37.34186],[-2.32326,37.34172],[-2.32255,37.34223],[-2.3214,37.34332],[-2.32021,37.34424],[-2.3195,37.34462],[-2.31925,37.34509],[-2.31519,37.34584],[-2.31412,37.34672],[-2.31375,37.34681],[-2.31264,37.34685],[-2.31125,37.34632],[-2.30739,37.34417]],[[-2.29982,37.33089],[-2.3006,37.33146],[-2.30102,37.33117],[-2.30104,37.33107],[-2.30319,37.33155],[-2.30377,37.33147],[-2.30435,37.33159],[-2.30522,37.3322],[-2.30589,37.33251],[-2.30608,37.33235],[-2.30643,37.33169],[-2.30721,37.33183],[-2.3073,37.33156],[-2.30766,37.33128],[-2.3077,37.33071],[-2.30784,37.33048],[-2.30866,37.33035],[-2.30939,37.33039],[-2.30963,37.3292],[-2.30866,37.32876],[-2.30844,37.32857],[-2.30813,37.32855],[-2.30762,37.32809],[-2.30739,37.32827],[-2.30753,37.32908],[-2.30724,37.32913],[-2.30559,37.32711],[-2.30529,37.32642],[-2.30442,37.32569],[-2.30418,37.32553],[-2.30378,37.32552],[-2.30357,37.32527],[-2.30325,37.32515],[-2.30199,37.32526],[-2.30159,37.32509],[-2.30152,37.32471],[-2.30175,37.32456],[-2.30194,37.32426],[-2.30191,37.32329],[-2.30165,37.32328],[-2.30142,37.32353],[-2.30117,37.32316],[-2.30056,37.32314],[-2.29968,37.32342],[-2.29837,37.32352],[-2.2979,37.32331],[-2.29771,37.32311],[-2.29704,37.3233],[-2.29603,37.32386],[-2.29551,37.32392],[-2.29441,37.32386],[-2.29371,37.3234],[-2.29342,37.32365],[-2.29328,37.32396],[-2.29339,37.32456],[-2.2933,37.32483],[-2.29291,37.32496],[-2.2915,37.32509],[-2.29306,37.32585],[-2.29363,37.32597],[-2.29404,37.32628],[-2.29429,37.32649],[-2.29415,37.32657],[-2.29349,37.32655],[-2.29352,37.32676],[-2.29419,37.32731],[-2.29443,37.32733],[-2.29538,37.32785],[-2.29549,37.32828],[-2.29589,37.32849],[-2.29633,37.32856],[-2.29688,37.32844],[-2.29733,37.3288],[-2.29725,37.32893],[-2.29722,37.33016],[-2.29692,37.33132],[-2.2966,37.33184],[-2.29598,37.33252],[-2.29663,37.33345],[-2.29482,37.33419],[-2.29534,37.33481],[-2.29565,37.33455],[-2.2959,37.33449],[-2.297,37.33461],[-2.2974,37.33454],[-2.29773,37.33435],[-2.29805,37.33443],[-2.29849,37.33418],[-2.2989,37.33422],[-2.29895,37.33438],[-2.29814,37.33547],[-2.29754,37.336],[-2.29731,37.33635],[-2.2976,37.33691],[-2.29764,37.33733],[-2.29751,37.3378],[-2.29703,37.33847],[-2.2966,37.33953],[-2.29661,37.33989],[-2.29726,37.33952],[-2.29853,37.33903],[-2.30047,37.33883],[-2.30194,37.33885],[-2.30237,37.33821],[-2.30136,37.33773],[-2.30115,37.33745],[-2.30104,37.33674],[-2.30075,37.3367],[-2.30073,37.33653],[-2.30093,37.33619],[-2.3016,37.33556],[-2.3027,37.33563],[-2.30311,37.33556],[-2.30391,37.33484],[-2.30425,37.3344],[-2.30428,37.33426],[-2.30361,37.33364],[-2.30336,37.33323],[-2.30319,37.33329],[-2.30257,37.3332],[-2.30265,37.33279],[-2.302,37.33294],[-2.30072,37.33357],[-2.29947,37.33371],[-2.29934,37.33353],[-2.29934,37.33273],[-2.29925,37.33249],[-2.29903,37.33229],[-2.29847,37.33229],[-2.29865,37.3319],[-2.29982,37.33089]]]}},{"type":"Feature","properties":{"id":"0406201002"},"geometry":{"type":"Polygon","coordinates":[[[-2.29982,37.33089],[-2.30013,37.33064],[-2.29969,37.33029],[-2.29916,37.3292],[-2.29941,37.32862],[-2.29991,37.32917],[-2.30018,37.32864],[-2.30063,37.32832],[-2.30108,37.32835],[-2.30131,37.32846],[-2.30192,37.32938],[-2.30228,37.32972],[-2.30281,37.32978],[-2.30319,37.32973],[-2.30328,37.32984],[-2.30365,37.32954],[-2.30391,37.32991],[-2.30502,37.33036],[-2.30545,37.3302],[-2.30598,37.32966],[-2.30608,37.32966],[-2.30591,37.32942],[-2.3063,37.32924],[-2.30654,37.32937],[-2.30677,37.32906],[-2.30699,37.32902],[-2.30723,37.32913],[-2.30753,37.32908],[-2.30739,37.32827],[-2.30762,37.32809],[-2.30813,37.32855],[-2.30844,37.32857],[-2.30866,37.32876],[-2.30963,37.3292],[-2.30939,37.33039],[-2.30866,37.33035],[-2.30784,37.33048],[-2.3077,37.33071],[-2.30766,37.33128],[-2.3073,37.33156],[-2.30721,37.33183],[-2.30643,37.33169],[-2.30608,37.33235],[-2.30589,37.33251],[-2.30522,37.3322],[-2.30435,37.33159],[-2.30377,37.33147],[-2.30319,37.33155],[-2.30104,37.33107],[-2.30102,37.33117],[-2.3006,37.33146],[-2.29982,37.33089]]]}},{"type":"Feature","properties":{"id":"0406201003"},"geometry":{"type":"Polygon","coordinates":[[[-2.29725,37.32893],[-2.29741,37.32868],[-2.29773,37.32897],[-2.298,37.32909],[-2.29811,37.32905],[-2.29832,37.32825],[-2.29857,37.32794],[-2.29883,37.32795],[-2.29956,37.3284],[-2.29924,37.32896],[-2.29918,37.32935],[-2.29969,37.33029],[-2.30013,37.33064],[-2.2995,37.3311],[-2.2992,37.33148],[-2.29865,37.3319],[-2.29847,37.33229],[-2.29903,37.33229],[-2.29925,37.33249],[-2.29934,37.33273],[-2.29934,37.33353],[-2.29947,37.33371],[-2.30072,37.33357],[-2.302,37.33294],[-2.30265,37.33279],[-2.30257,37.3332],[-2.30319,37.33329],[-2.30336,37.33323],[-2.30361,37.33364],[-2.30428,37.33426],[-2.3041,37.33463],[-2.30311,37.33556],[-2.3027,37.33563],[-2.3016,37.33556],[-2.30093,37.33619],[-2.30073,37.33653],[-2.30075,37.3367],[-2.30104,37.33674],[-2.30115,37.33745],[-2.30136,37.33773],[-2.30237,37.33821],[-2.30194,37.33885],[-2.30047,37.33883],[-2.29853,37.33903],[-2.29726,37.33952],[-2.29661,37.33989],[-2.2966,37.33953],[-2.29703,37.33847],[-2.29751,37.3378],[-2.29764,37.33733],[-2.2976,37.33691],[-2.29731,37.33635],[-2.29886,37.3346],[-2.29894,37.33432],[-2.2989,37.33422],[-2.29849,37.33418],[-2.29805,37.33443],[-2.29773,37.33435],[-2.2974,37.33454],[-2.297,37.33461],[-2.2959,37.33449],[-2.29565,37.33455],[-2.29534,37.33481],[-2.29482,37.33419],[-2.29663,37.33345],[-2.29598,37.33252],[-2.2966,37.33184],[-2.29692,37.33132],[-2.29722,37.33016],[-2.29725,37.32893]]]}},{"type":"Feature","properties":{"id":"0406201004"},"geometry":{"type":"Polygon","coordinates":[[[-2.29941,37.32862],[-2.29956,37.3284],[-2.29921,37.32813],[-2.29868,37.32792],[-2.29845,37.32803],[-2.29832,37.32825],[-2.29819,37.32896],[-2.298,37.32909],[-2.29741,37.32868],[-2.29733,37.3288],[-2.29688,37.32844],[-2.29633,37.32856],[-2.29589,37.32849],[-2.29549,37.32828],[-2.29538,37.32785],[-2.29443,37.32733],[-2.29419,37.32731],[-2.29352,37.32676],[-2.29349,37.32655],[-2.29415,37.32657],[-2.29429,37.32649],[-2.29404,37.32628],[-2.29363,37.32597],[-2.29306,37.32585],[-2.2915,37.32509],[-2.29291,37.32496],[-2.2933,37.32483],[-2.29339,37.32456],[-2.29328,37.32396],[-2.29342,37.32365],[-2.29371,37.3234],[-2.29441,37.32386],[-2.29551,37.32392],[-2.29603,37.32386],[-2.29704,37.3233],[-2.29771,37.32311],[-2.2979,37.32331],[-2.29837,37.32352],[-2.29968,37.32342],[-2.30056,37.32314],[-2.30117,37.32316],[-2.30142,37.32353],[-2.30165,37.32328],[-2.30191,37.32329],[-2.30194,37.32426],[-2.30175,37.32456],[-2.30152,37.32471],[-2.30159,37.32509],[-2.30199,37.32526],[-2.30325,37.32515],[-2.30357,37.32527],[-2.30378,37.32552],[-2.30418,37.32553],[-2.30442,37.32569],[-2.30529,37.32642],[-2.30559,37.32711],[-2.30723,37.32913],[-2.30699,37.32902],[-2.30677,37.32906],[-2.30654,37.32937],[-2.3063,37.32924],[-2.30591,37.32942],[-2.30608,37.32966],[-2.30598,37.32966],[-2.30545,37.3302],[-2.30502,37.33036],[-2.30391,37.32991],[-2.30365,37.32954],[-2.30328,37.32984],[-2.30319,37.32973],[-2.30281,37.32978],[-2.30228,37.32972],[-2.30192,37.32938],[-2.30131,37.32846],[-2.30108,37.32835],[-2.30063,37.32832],[-2.30049,37.32839],[-2.30018,37.32864],[-2.29991,37.32917],[-2.29941,37.32862]]]}}]}