{"type":"FeatureCollection","features":[{"type":"Feature","properties":{"id":"0501901001"},"geometry":{"type":"Polygon","coordinates":[[[-4.69693,40.65761],[-4.69863,40.65738],[-4.69876,40.65734],[-4.6989,40.65711],[-4.69953,40.65679],[-4.6983,40.65627],[-4.69827,40.65525],[-4.69844,40.65503],[-4.69765,40.65461],[-4.69697,40.65446],[-4.69711,40.65387],[-4.69721,40.65381],[-4.70099,40.65435],[-4.70491,40.65521],[-4.70449,40.65609],[-4.7031,40.65596],[-4.70285,40.65745],[-4.70379,40.65746],[-4.70367,40.65803],[-4.70379,40.65804],[-4.70378,40.65862],[-4.7029,40.65866],[-4.70299,40.65874],[-4.70288,40.65883],[-4.70181,40.65896],[-4.70006,40.65864],[-4.6973,40.65833],[-4.69701,40.65814],[-4.69693,40.65761]]]}},{"type":"Feature","properties":{"id":"0501901002"},"geometry":{"type":"Polygon","coordinates":[[[-4.70778,40.70444],[-4.7067,40.70438],[-4.70674,40.7038],[-4.70638,40.70377],[-4.70596,40.7047],[-4.7057,40.70395],[-4.70562,40.70301],[-4.70594,40.70165],[-4.70715,40.69867],[-4.70762,40.69792],[-4.70853,40.69701],[-4.71184,40.69487],[-4.71277,40.69396],[-4.71315,40.69324],[-4.71333,40.69246],[-4.71307,40.68987],[-4.7131,40.68891],[-4.71423,40.68524],[-4.71478,40.68381],[-4.71575,40.68267],[-4.71803,40.68105],[-4.71881,40.6803],[-4.71965,40.6787],[-4.71984,40.67752],[-4.71968,40.67649],[-4.7194,40.67582],[-4.71898,40.6752],[-4.71791,40.67422],[-4.71674,40.67356],[-4.71565,40.67321],[-4.71438,40.67308],[-4.71324,40.6732],[-4.7116,40.67366],[-4.71142,40.67325],[-4.71097,40.67276],[-4.7105,40.67197],[-4.70869,40.66995],[-4.70871,40.66968],[-4.70906,40.66945],[-4.70954,40.66819],[-4.70961,40.66686],[-4.70923,40.6657],[-4.70874,40.66542],[-4.70817,40.66531],[-4.70707,40.66528],[-4.70686,40.6652],[-4.7064,40.66494],[-4.70593,40.66418],[-4.70604,40.66375],[-4.7066,40.66332],[-4.70752,40.6629],[-4.70794,40.66225],[-4.70821,40.6617],[-4.70831,40.66124],[-4.70834,40.65965],[-4.70739,40.65958],[-4.70741,40.65906],[-4.70707,40.65897],[-4.70574,40.65894],[-4.70378,40.65862],[-4.70379,40.65804],[-4.70367,40.65803],[-4.70379,40.65746],[-4.70285,40.65745],[-4.7031,40.65596],[-4.70449,40.65609],[-4.70488,40.65528],[-4.70587,40.65558],[-4.70639,40.6556],[-4.70773,40.65613],[-4.70855,40.6562],[-4.70821,40.65556],[-4.7078,40.6536],[-4.70725,40.65267],[-4.70726,40.65239],[-4.70653,40.65067],[-4.70722,40.6484],[-4.70694,40.6481],[-4.70695,40.64796],[-4.70724,40.64772],[-4.70693,40.64573],[-4.70716,40.64511],[-4.70784,40.64436],[-4.70827,40.64405],[-4.70825,40.64373],[-4.70908,40.64344],[-4.71043,40.64139],[-4.71073,40.64016],[-4.71044,40.63977],[-4.71089,40.63912],[-4.71136,40.63871],[-4.71229,40.6384],[-4.71335,40.63836],[-4.71765,40.6395],[-4.7154,40.64177],[-4.72,40.64233],[-4.72026,40.64297],[-4.71921,40.64314],[-4.71918,40.64384],[-4.72031,40.64394],[-4.72174,40.64306],[-4.72319,40.64331],[-4.72406,40.64236],[-4.72643,40.64256],[-4.73035,40.64329],[-4.73141,40.64317],[-4.73409,40.64242],[-4.73497,40.64406],[-4.73947,40.64262],[-4.73962,40.64622],[-4.74019,40.64631],[-4.74007,40.64737],[-4.74037,40.64797],[-4.74334,40.64915],[-4.74375,40.64868],[-4.74331,40.64848],[-4.74323,40.64827],[-4.74418,40.64644],[-4.74629,40.6467],[-4.74612,40.64735],[-4.74782,40.64888],[-4.75088,40.64895],[-4.75108,40.65006],[-4.74848,40.65059],[-4.75151,40.65362],[-4.75163,40.65524],[-4.75305,40.65558],[-4.75275,40.65759],[-4.75114,40.65766],[-4.74736,40.65689],[-4.74606,40.65695],[-4.7447,40.6573],[-4.74237,40.65729],[-4.73984,40.65745],[-4.73679,40.65629],[-4.73671,40.65706],[-4.7353,40.6573],[-4.73554,40.65859],[-4.73479,40.65851],[-4.73455,40.6592],[-4.73452,40.65981],[-4.73866,40.66035],[-4.74259,40.66054],[-4.74466,40.66055],[-4.74483,40.66147],[-4.74482,40.66313],[-4.74803,40.66384],[-4.74834,40.66321],[-4.74953,40.66313],[-4.74993,40.66389],[-4.74955,40.66425],[-4.74995,40.66467],[-4.74955,40.66603],[-4.75272,40.66617],[-4.75361,40.66649],[-4.75343,40.66692],[-4.75299,40.66746],[-4.75346,40.66795],[-4.75273,40.66796],[-4.75222,40.66835],[-4.75085,40.6679],[-4.75058,40.66867],[-4.75183,40.66928],[-4.75176,40.66963],[-4.75147,40.67009],[-4.75109,40.66992],[-4.75051,40.67096],[-4.75192,40.67146],[-4.75198,40.67195],[-4.75146,40.67216],[-4.7511,40.67301],[-4.75032,40.67253],[-4.74933,40.67243],[-4.74924,40.67349],[-4.74868,40.67496],[-4.74761,40.67662],[-4.74669,40.67652],[-4.74354,40.67556],[-4.74308,40.67625],[-4.7439,40.67655],[-4.74366,40.67698],[-4.74256,40.677],[-4.74193,40.6772],[-4.74148,40.67747],[-4.74367,40.67883],[-4.74326,40.67931],[-4.74327,40.67961],[-4.7436,40.68018],[-4.74272,40.68004],[-4.74263,40.68066],[-4.74321,40.68076],[-4.74335,40.68163],[-4.74586,40.68303],[-4.74882,40.68254],[-4.752,40.68516],[-4.75158,40.68565],[-4.75123,40.68651],[-4.75368,40.68736],[-4.75573,40.68788],[-4.75631,40.68747],[-4.75623,40.68679],[-4.75857,40.6871],[-4.75933,40.68759],[-4.75775,40.68826],[-4.75738,40.68885],[-4.75899,40.68958],[-4.75802,40.69167],[-4.7582,40.69308],[-4.76051,40.69417],[-4.76079,40.695],[-4.76226,40.69603],[-4.76339,40.6961],[-4.76373,40.69376],[-4.76503,40.69368],[-4.76508,40.69429],[-4.7658,40.69493],[-4.76576,40.6958],[-4.76625,40.69646],[-4.76681,40.69688],[-4.76794,40.6973],[-4.76906,40.69751],[-4.77147,40.69735],[-4.77207,40.69805],[-4.77291,40.69807],[-4.7738,40.69856],[-4.77553,40.699],[-4.77673,40.69827],[-4.77667,40.69752],[-4.77761,40.69757],[-4.77788,40.69806],[-4.77976,40.69884],[-4.77901,40.70027],[-4.77827,40.70102],[-4.77583,40.70449],[-4.77779,40.70769],[-4.79536,40.70838],[-4.79499,40.71008],[-4.79563,40.71225],[-4.79504,40.7139],[-4.79638,40.71462],[-4.79695,40.71626],[-4.79927,40.71817],[-4.80013,40.71872],[-4.80235,40.71893],[-4.80613,40.71806],[-4.80769,40.71829],[-4.80934,40.71714],[-4.81185,40.71651],[-4.81317,40.71586],[-4.81407,40.71567],[-4.81399,40.71762],[-4.81478,40.71876],[-4.8132,40.72018],[-4.81459,40.72063],[-4.81425,40.72156],[-4.81594,40.72227],[-4.81536,40.72284],[-4.81426,40.72351],[-4.81561,40.72588],[-4.81544,40.72769],[-4.81645,40.72898],[-4.81511,40.7304],[-4.81362,40.72846],[-4.81292,40.72977],[-4.81222,40.7306],[-4.81132,40.7314],[-4.80871,40.73324],[-4.80896,40.73478],[-4.80599,40.73491],[-4.8043,40.73525],[-4.80411,40.73563],[-4.80233,40.7354],[-4.80183,40.73675],[-4.80235,40.73714],[-4.80054,40.74003],[-4.80106,40.74021],[-4.8005,40.74074],[-4.80124,40.74165],[-4.80015,40.74363],[-4.79863,40.74328],[-4.79917,40.7451],[-4.80056,40.74619],[-4.80084,40.74655],[-4.80107,40.74835],[-4.79971,40.74892],[-4.79969,40.74969],[-4.79895,40.74964],[-4.79912,40.75006],[-4.79863,40.75028],[-4.79932,40.75129],[-4.79793,40.75183],[-4.79766,40.75284],[-4.79777,40.75315],[-4.79617,40.75367],[-4.79496,40.75346],[-4.79517,40.75269],[-4.79368,40.75037],[-4.79408,40.74965],[-4.79325,40.74937],[-4.7935,40.749],[-4.79246,40.74828],[-4.79174,40.74877],[-4.79279,40.74944],[-4.79245,40.75038],[-4.79179,40.75028],[-4.78921,40.74942],[-4.78849,40.74903],[-4.78758,40.74834],[-4.78724,40.74871],[-4.78685,40.74854],[-4.78604,40.74845],[-4.78549,40.74798],[-4.78484,40.74828],[-4.78262,40.74791],[-4.78195,40.74768],[-4.78179,40.74734],[-4.78185,40.74693],[-4.78171,40.74671],[-4.78137,40.74655],[-4.78043,40.74646],[-4.77932,40.74547],[-4.78053,40.74455],[-4.78202,40.74395],[-4.78247,40.74353],[-4.78252,40.74332],[-4.78226,40.74305],[-4.78133,40.74284],[-4.7799,40.74278],[-4.77957,40.74204],[-4.77946,40.74202],[-4.77973,40.74153],[-4.781,40.74136],[-4.78192,40.74096],[-4.78224,40.74058],[-4.78293,40.74008],[-4.78375,40.73912],[-4.78421,40.73814],[-4.7845,40.73784],[-4.78506,40.73757],[-4.78532,40.73734],[-4.785,40.73677],[-4.78452,40.73519],[-4.78503,40.73493],[-4.78449,40.73423],[-4.78427,40.7338],[-4.78424,40.73347],[-4.78513,40.73214],[-4.78616,40.73124],[-4.78633,40.73125],[-4.7866,40.73104],[-4.78732,40.73081],[-4.78795,40.73],[-4.78851,40.73015],[-4.78894,40.73038],[-4.7893,40.7304],[-4.78882,40.72761],[-4.78995,40.72666],[-4.79049,40.72529],[-4.79041,40.72492],[-4.79007,40.72474],[-4.78976,40.72444],[-4.78714,40.72414],[-4.78675,40.72404],[-4.78533,40.72342],[-4.7843,40.7213],[-4.78322,40.71981],[-4.78297,40.71882],[-4.78251,40.71991],[-4.78256,40.72056],[-4.78187,40.72068],[-4.7812,40.72103],[-4.77951,40.72045],[-4.77941,40.72025],[-4.77831,40.7203],[-4.77756,40.72046],[-4.77743,40.72021],[-4.77711,40.72014],[-4.77595,40.72055],[-4.77566,40.72081],[-4.77519,40.72094],[-4.77473,40.72088],[-4.77417,40.72103],[-4.77335,40.72168],[-4.77334,40.72182],[-4.7744,40.72238],[-4.77403,40.72298],[-4.77216,40.72203],[-4.77096,40.72316],[-4.7703,40.72501],[-4.76984,40.72572],[-4.76969,40.72628],[-4.77016,40.72645],[-4.77019,40.72667],[-4.77057,40.72693],[-4.77013,40.72746],[-4.76907,40.72763],[-4.76812,40.72759],[-4.76767,40.72738],[-4.76765,40.72718],[-4.76663,40.72693],[-4.76545,40.7277],[-4.7641,40.72701],[-4.76328,40.72641],[-4.76278,40.72624],[-4.75913,40.72561],[-4.75701,40.72534],[-4.755,40.72495],[-4.754,40.72514],[-4.75055,40.72528],[-4.75006,40.72488],[-4.74917,40.72383],[-4.74779,40.72303],[-4.74802,40.72238],[-4.74794,40.72167],[-4.74757,40.72111],[-4.74658,40.72003],[-4.74467,40.71888],[-4.74316,40.71849],[-4.74134,40.71839],[-4.74036,40.71792],[-4.73991,40.71753],[-4.73938,40.71682],[-4.73801,40.71474],[-4.73792,40.71453],[-4.73799,40.71434],[-4.74,40.71258],[-4.74113,40.71142],[-4.74129,40.71096],[-4.7413,40.71037],[-4.74112,40.70962],[-4.74119,40.70938],[-4.74184,40.70884],[-4.7428,40.70826],[-4.74329,40.70757],[-4.74373,40.70657],[-4.74339,40.70551],[-4.74365,40.70465],[-4.74298,40.70446],[-4.74062,40.7028],[-4.73961,40.70185],[-4.73908,40.70148],[-4.73906,40.70113],[-4.73878,40.70063],[-4.7345,40.70029],[-4.73312,40.70088],[-4.72582,40.7046],[-4.72545,40.70453],[-4.72468,40.7046],[-4.72415,40.70527],[-4.72381,40.70524],[-4.7229,40.70686],[-4.72267,40.70684],[-4.72262,40.70693],[-4.7218,40.70679],[-4.72141,40.70689],[-4.72119,40.70684],[-4.72085,40.70603],[-4.72066,40.70596],[-4.71847,40.70617],[-4.71835,40.70626],[-4.71827,40.70668],[-4.71728,40.70692],[-4.71655,40.707],[-4.71628,40.70732],[-4.71441,40.7073],[-4.71469,40.70643],[-4.71462,40.70602],[-4.71404,40.7054],[-4.71404,40.70456],[-4.71334,40.7042],[-4.71374,40.70394],[-4.71367,40.70339],[-4.71389,40.70294],[-4.71315,40.70259],[-4.71294,40.70238],[-4.71229,40.70225],[-4.71221,40.70181],[-4.71063,40.70171],[-4.71068,40.70148],[-4.71103,40.70146],[-4.711,40.69998],[-4.71079,40.69983],[-4.71058,40.69997],[-4.71087,40.70054],[-4.7108,40.70071],[-4.71009,40.70075],[-4.70949,40.70088],[-4.70967,40.7012],[-4.71009,40.70126],[-4.71039,40.70142],[-4.71011,40.702],[-4.70945,40.70226],[-4.70981,40.70266],[-4.70971,40.7033],[-4.70986,40.7039],[-4.71005,40.70397],[-4.71052,40.70392],[-4.71064,40.70595],[-4.70977,40.70592],[-4.70948,40.70634],[-4.70821,40.70604],[-4.71014,40.705],[-4.70931,40.70426],[-4.70889,40.70401],[-4.70778,40.70444]]]}},{"type":"Feature","properties":{"id":"0501902001"},"geometry":{"type":"Polygon","coordinates":[[[-4.69566,40.65686],[-4.69489,40.65661],[-4.69429,40.65669],[-4.69369,40.65665],[-4.69189,40.65637],[-4.69148,40.65649],[-4.69133,40.65627],[-4.69139,40.65623],[-4.69085,40.65577],[-4.69033,40.65575],[-4.69022,40.65549],[-4.69037,40.6554],[-4.69215,40.65465],[-4.69208,40.65432],[-4.69129,40.65417],[-4.69128,40.65405],[-4.69356,40.65394],[-4.69249,40.65298],[-4.69289,40.65292],[-4.69491,40.65301],[-4.69574,40.65322],[-4.69601,40.65347],[-4.69665,40.65349],[-4.69704,40.65364],[-4.69716,40.65382],[-4.69697,40.65446],[-4.69765,40.65461],[-4.69844,40.65503],[-4.69827,40.65525],[-4.6983,40.65627],[-4.69953,40.65679],[-4.6989,40.65711],[-4.69876,40.65734],[-4.69863,40.65738],[-4.69693,40.65761],[-4.69627,40.65752],[-4.69626,40.65726],[-4.69566,40.65686]]]}},{"type":"Feature","properties":{"id":"0501902002"},"geometry":{"type":"Polygon","coordinates":[[[-4.68634,40.65507],[-4.68552,40.65441],[-4.68473,40.65395],[-4.68615,40.6534],[-4.6867,40.65335],[-4.68719,40.65334],[-4.69013,40.65379],[-4.69051,40.65389],[-4.69072,40.65406],[-4.69208,40.65432],[-4.69215,40.65456],[-4.69215,40.65465],[-4.69037,40.6554],[-4.69001,40.6557],[-4.68927,40.65574],[-4.68914,40.65557],[-4.68827,40.65544],[-4.68715,40.65492],[-4.68634,40.65507]]]}},{"type":"Feature","properties":{"id":"0501903001"},"geometry":{"type":"Polygon","coordinates":[[[-4.69304,40.66072],[-4.69351,40.65923],[-4.69419,40.65806],[-4.69431,40.65796],[-4.69476,40.65794],[-4.69509,40.65776],[-4.69512,40.65738],[-4.69545,40.65743],[-4.69566,40.65686],[-4.69626,40.65726],[-4.69627,40.65752],[-4.69693,40.65761],[-4.69701,40.65814],[-4.6973,40.65833],[-4.70006,40.65864],[-4.70181,40.65896],[-4.70288,40.65883],[-4.70299,40.65874],[-4.7029,40.65866],[-4.70378,40.65862],[-4.70574,40.65894],[-4.70682,40.65896],[-4.7065,40.65926],[-4.70604,40.65945],[-4.70368,40.65981],[-4.70308,40.65978],[-4.70181,40.65948],[-4.70022,40.66132],[-4.7001,40.66171],[-4.69818,40.66154],[-4.69304,40.66072]]]}},{"type":"Feature","properties":{"id":"0501903002"},"geometry":{"type":"Polygon","coordinates":[[[-4.68989,40.73437],[-4.68772,40.7337],[-4.68662,40.73372],[-4.68603,40.7336],[-4.68425,40.73277],[-4.68261,40.7326],[-4.68101,40.73224],[-4.67929,40.73209],[-4.67735,40.73217],[-4.67603,40.73188],[-4.67595,40.73245],[-4.6752,40.73255],[-4.67533,40.73194],[-4.67571,40.73123],[-4.67584,40.73044],[-4.67521,40.72744],[-4.67532,40.72703],[-4.67515,40.72704],[-4.67451,40.72438],[-4.67365,40.72193],[-4.67312,40.7208],[-4.67302,40.72008],[-4.67309,40.7196],[-4.67417,40.71769],[-4.6743,40.7172],[-4.67435,40.71619],[-4.67421,40.71503],[-4.67405,40.71503],[-4.67309,40.7126],[-4.67076,40.70771],[-4.67069,40.70695],[-4.67092,40.70218],[-4.67151,40.69947],[-4.67178,40.69855],[-4.67241,40.69751],[-4.67642,40.69554],[-4.68023,40.69389],[-4.68077,40.69338],[-4.68176,40.6913],[-4.68306,40.68781],[-4.68323,40.68706],[-4.68301,40.68618],[-4.68101,40.68326],[-4.68087,40.68253],[-4.68094,40.68209],[-4.68144,40.68131],[-4.69037,40.67236],[-4.69261,40.66853],[-4.69437,40.66537],[-4.69252,40.66535],[-4.69282,40.66322],[-4.69253,40.66316],[-4.69248,40.66306],[-4.69304,40.66072],[-4.69818,40.66154],[-4.7001,40.66171],[-4.70022,40.66132],[-4.70181,40.65948],[-4.70308,40.65978],[-4.70368,40.65981],[-4.70604,40.65945],[-4.7065,40.65926],[-4.70682,40.65896],[-4.70707,40.65897],[-4.70741,40.65906],[-4.70739,40.65958],[-4.70834,40.65965],[-4.70828,40.66139],[-4.70794,40.66225],[-4.70752,40.6629],[-4.7066,40.66332],[-4.70604,40.66375],[-4.70593,40.66418],[-4.7064,40.66494],[-4.70686,40.6652],[-4.70707,40.66528],[-4.70817,40.66531],[-4.70874,40.66542],[-4.70923,40.6657],[-4.70961,40.66686],[-4.70954,40.66819],[-4.70906,40.66945],[-4.70871,40.66968],[-4.70869,40.66995],[-4.7088,40.67014],[-4.7105,40.67197],[-4.71097,40.67276],[-4.71142,40.67325],[-4.7116,40.67366],[-4.71324,40.6732],[-4.71477,40.67309],[-4.71565,40.67321],[-4.71639,40.67342],[-4.71735,40.67386],[-4.71808,40.67434],[-4.71898,40.6752],[-4.71956,40.67615],[-4.71983,40.67718],[-4.71974,40.67837],[-4.71922,40.67964],[-4.71867,40.68046],[-4.71784,40.68119],[-4.71575,40.68267],[-4.71478,40.68381],[-4.71423,40.68524],[-4.7131,40.68891],[-4.71307,40.68987],[-4.71334,40.69212],[-4.71328,40.69283],[-4.71309,40.6934],[-4.71245,40.69435],[-4.71184,40.69487],[-4.70853,40.69701],[-4.70798,40.69749],[-4.70734,40.69831],[-4.70569,40.7024],[-4.70564,40.70363],[-4.70596,40.7047],[-4.7057,40.70524],[-4.70553,40.70536],[-4.70514,40.70545],[-4.70399,40.70544],[-4.70379,40.70535],[-4.70384,40.70439],[-4.70375,40.7044],[-4.7031,40.70499],[-4.70276,40.70597],[-4.7021,40.70622],[-4.70057,40.70556],[-4.69963,40.70536],[-4.6994,40.7061],[-4.69973,40.70635],[-4.69989,40.70744],[-4.69972,40.70805],[-4.69949,40.70826],[-4.698,40.70902],[-4.69753,40.70908],[-4.69629,40.709],[-4.69526,40.70862],[-4.69478,40.70868],[-4.69461,40.70874],[-4.69391,40.70954],[-4.6928,40.7105],[-4.69316,40.71133],[-4.69403,40.7119],[-4.69402,40.71218],[-4.69433,40.71268],[-4.69515,40.7128],[-4.6955,40.71302],[-4.69576,40.71338],[-4.69567,40.71362],[-4.69541,40.71372],[-4.69448,40.71364],[-4.69436,40.7138],[-4.69438,40.71429],[-4.69378,40.71499],[-4.69318,40.71552],[-4.69251,40.71579],[-4.69209,40.71614],[-4.69203,40.71669],[-4.69223,40.71704],[-4.69255,40.71727],[-4.69438,40.71742],[-4.69546,40.71732],[-4.69695,40.71738],[-4.69797,40.71783],[-4.6987,40.71831],[-4.69903,40.71882],[-4.69873,40.71998],[-4.69875,40.72061],[-4.69904,40.72108],[-4.69896,40.72142],[-4.69738,40.72235],[-4.69707,40.72283],[-4.69744,40.72366],[-4.69712,40.7243],[-4.69677,40.72468],[-4.69434,40.72646],[-4.69351,40.72716],[-4.69303,40.72841],[-4.693,40.72931],[-4.69275,40.73012],[-4.69286,40.73068],[-4.69308,40.73086],[-4.69351,40.73096],[-4.69383,40.73116],[-4.69387,40.73155],[-4.69345,40.73181],[-4.69174,40.73211],[-4.69076,40.73248],[-4.69064,40.73257],[-4.69006,40.73414],[-4.68989,40.73437]]]}},{"type":"Feature","properties":{"id":"0501904001"},"geometry":{"type":"Polygon","coordinates":[[[-4.70488,40.65528],[-4.70491,40.65521],[-4.70433,40.65504],[-4.70183,40.65459],[-4.70056,40.65417],[-4.70119,40.65343],[-4.70119,40.65327],[-4.70137,40.65346],[-4.70215,40.65295],[-4.7022,40.65271],[-4.70284,40.65205],[-4.70272,40.65163],[-4.70304,40.65091],[-4.703,40.65077],[-4.70326,40.65041],[-4.70373,40.649],[-4.70413,40.64855],[-4.70405,40.64815],[-4.70415,40.6477],[-4.71087,40.62862],[-4.71675,40.62236],[-4.71795,40.62078],[-4.71989,40.61705],[-4.72067,40.6141],[-4.72276,40.60952],[-4.72397,40.60124],[-4.72525,40.59661],[-4.72593,40.59505],[-4.7272,40.59106],[-4.72758,40.59022],[-4.72794,40.58849],[-4.72803,40.58714],[-4.72961,40.58273],[-4.72959,40.5824],[-4.72946,40.58222],[-4.72919,40.58215],[-4.72862,40.58224],[-4.72789,40.58166],[-4.72723,40.57937],[-4.72804,40.57975],[-4.7328,40.57684],[-4.73485,40.57702],[-4.73586,40.57689],[-4.73678,40.57691],[-4.73797,40.57803],[-4.73814,40.57854],[-4.73924,40.5787],[-4.74129,40.57834],[-4.74031,40.57714],[-4.74033,40.57627],[-4.73985,40.57482],[-4.74245,40.57439],[-4.74399,40.57203],[-4.74639,40.57256],[-4.74752,40.57304],[-4.75033,40.57313],[-4.7512,40.57396],[-4.75283,40.57468],[-4.75347,40.57474],[-4.7542,40.57393],[-4.755,40.5733],[-4.75717,40.57236],[-4.75801,40.57188],[-4.76118,40.57185],[-4.76349,40.57136],[-4.76537,40.57146],[-4.76634,40.57327],[-4.7682,40.57382],[-4.76534,40.57564],[-4.76305,40.57599],[-4.76141,40.5791],[-4.75892,40.57958],[-4.75808,40.57895],[-4.75498,40.57931],[-4.75457,40.57915],[-4.75326,40.57825],[-4.75172,40.57882],[-4.7518,40.58016],[-4.7514,40.58071],[-4.74998,40.58106],[-4.74953,40.5813],[-4.74857,40.58238],[-4.74815,40.5826],[-4.74652,40.58306],[-4.74657,40.58355],[-4.74989,40.58352],[-4.74947,40.58637],[-4.74951,40.58719],[-4.74986,40.58818],[-4.74727,40.58851],[-4.74744,40.58913],[-4.7516,40.5883],[-4.75199,40.58893],[-4.75413,40.58882],[-4.75517,40.58891],[-4.75637,40.58925],[-4.75612,40.58979],[-4.76059,40.59037],[-4.76003,40.59139],[-4.75804,40.59145],[-4.75259,40.59202],[-4.75234,40.59142],[-4.75051,40.5906],[-4.74839,40.59101],[-4.7488,40.59195],[-4.75071,40.59141],[-4.75281,40.59258],[-4.75365,40.59291],[-4.75361,40.59411],[-4.75241,40.59463],[-4.75226,40.59566],[-4.75395,40.59553],[-4.7511,40.59771],[-4.7525,40.6],[-4.74861,40.60013],[-4.74806,40.60077],[-4.74652,40.60016],[-4.74607,40.60058],[-4.74836,40.60131],[-4.74688,40.60348],[-4.74521,40.60381],[-4.74257,40.60645],[-4.74195,40.60607],[-4.74131,40.60605],[-4.74099,40.60549],[-4.74164,40.6049],[-4.7414,40.60361],[-4.74061,40.60364],[-4.73973,40.603],[-4.73911,40.60504],[-4.74071,40.60642],[-4.73695,40.60802],[-4.73763,40.61011],[-4.73546,40.61057],[-4.73476,40.609],[-4.73285,40.60935],[-4.73303,40.61087],[-4.72834,40.61124],[-4.72828,40.61389],[-4.72776,40.61397],[-4.72773,40.61573],[-4.72719,40.61581],[-4.7268,40.61626],[-4.72612,40.61629],[-4.72576,40.62119],[-4.72597,40.62205],[-4.72599,40.62296],[-4.7255,40.62334],[-4.72533,40.62367],[-4.72524,40.62491],[-4.72576,40.62656],[-4.72543,40.62771],[-4.72484,40.6281],[-4.72279,40.62842],[-4.72148,40.62902],[-4.71975,40.62908],[-4.71926,40.62944],[-4.7188,40.63011],[-4.71855,40.63078],[-4.71857,40.63167],[-4.71843,40.63254],[-4.71788,40.63354],[-4.71792,40.63447],[-4.71662,40.63611],[-4.71576,40.63689],[-4.71335,40.63836],[-4.71229,40.6384],[-4.71118,40.63881],[-4.7105,40.63964],[-4.71044,40.63977],[-4.71073,40.64016],[-4.71043,40.64139],[-4.70908,40.64344],[-4.70825,40.64373],[-4.70827,40.64405],[-4.70731,40.64489],[-4.70693,40.64573],[-4.70724,40.64772],[-4.70695,40.64796],[-4.70694,40.6481],[-4.70722,40.6484],[-4.70653,40.65067],[-4.70726,40.65239],[-4.70725,40.65267],[-4.7078,40.6536],[-4.70821,40.65556],[-4.70855,40.6562],[-4.70773,40.65613],[-4.70639,40.6556],[-4.70587,40.65558],[-4.70488,40.65528]]]}},{"type":"Feature","properties":{"id":"0501904002"},"geometry":{"type":"Polygon","coordinates":[[[-4.69716,40.65382],[-4.69704,40.65364],[-4.69677,40.65353],[-4.69615,40.65348],[-4.69646,40.65324],[-4.6968,40.65216],[-4.69751,40.65122],[-4.69759,40.65057],[-4.69973,40.65051],[-4.69963,40.65125],[-4.701,40.65149],[-4.70194,40.65134],[-4.70266,40.65113],[-4.70285,40.65091],[-4.70302,40.65094],[-4.70272,40.65163],[-4.70284,40.65205],[-4.7022,40.65271],[-4.70215,40.65295],[-4.70137,40.65346],[-4.70119,40.65327],[-4.70119,40.65343],[-4.70056,40.65417],[-4.7011,40.65438],[-4.69716,40.65382]]]}},{"type":"Feature","properties":{"id":"0501904003"},"geometry":{"type":"Polygon","coordinates":[[[-4.69973,40.65051],[-4.70121,40.65042],[-4.70157,40.65049],[-4.70219,40.64884],[-4.70325,40.64908],[-4.70336,40.64949],[-4.70356,40.64951],[-4.70321,40.65054],[-4.703,40.65077],[-4.70302,40.65094],[-4.70285,40.65091],[-4.70266,40.65113],[-4.70194,40.65134],[-4.701,40.65149],[-4.69963,40.65125],[-4.69973,40.65051]]]}},{"type":"Feature","properties":{"id":"0501904004"},"geometry":{"type":"Polygon","coordinates":[[[-4.69759,40.65053],[-4.69801,40.6481],[-4.69778,40.64768],[-4.70016,40.64804],[-4.69948,40.65053],[-4.69759,40.65053]]]}},{"type":"Feature","properties":{"id":"0501904005"},"geometry":{"type":"Polygon","coordinates":[[[-4.68994,40.65032],[-4.68975,40.65],[-4.68735,40.64835],[-4.69087,40.64772],[-4.69437,40.64746],[-4.69619,40.64752],[-4.69607,40.64759],[-4.69578,40.64887],[-4.69779,40.64927],[-4.69759,40.65053],[-4.69667,40.65063],[-4.69547,40.65057],[-4.69553,40.65027],[-4.69521,40.65016],[-4.69439,40.64948],[-4.69307,40.65147],[-4.69073,40.65054],[-4.68994,40.65032]]]}},{"type":"Feature","properties":{"id":"0501904006"},"geometry":{"type":"Polygon","coordinates":[[[-4.69307,40.65147],[-4.69439,40.64948],[-4.69521,40.65016],[-4.69553,40.65027],[-4.69547,40.65057],[-4.69667,40.65063],[-4.69759,40.65053],[-4.69751,40.65122],[-4.69689,40.65201],[-4.69662,40.65259],[-4.69606,40.65261],[-4.69307,40.65147]]]}},{"type":"Feature","properties":{"id":"0501904008"},"geometry":{"type":"Polygon","coordinates":[[[-4.69607,40.64759],[-4.69698,40.64643],[-4.69693,40.64635],[-4.69657,40.64627],[-4.69464,40.64537],[-4.69272,40.64466],[-4.68899,40.64413],[-4.68687,40.64255],[-4.68812,40.64194],[-4.68888,40.64178],[-4.6963,40.64168],[-4.69762,40.64332],[-4.69734,40.64488],[-4.69738,40.64569],[-4.69827,40.64665],[-4.69815,40.64733],[-4.69778,40.64765],[-4.69801,40.6481],[-4.69788,40.64887],[-4.69783,40.6491],[-4.69779,40.64927],[-4.69779,40.64927],[-4.69578,40.64887],[-4.69607,40.64759]]]}},{"type":"Feature","properties":{"id":"0501904009"},"geometry":{"type":"Polygon","coordinates":[[[-4.70016,40.64805],[-4.70178,40.64821],[-4.70411,40.64859],[-4.70373,40.649],[-4.70356,40.64951],[-4.70336,40.64949],[-4.70325,40.64908],[-4.70219,40.64884],[-4.70157,40.65049],[-4.70121,40.65042],[-4.69948,40.65053],[-4.70016,40.64805]]]}},{"type":"Feature","properties":{"id":"0501904010"},"geometry":{"type":"Polygon","coordinates":[[[-4.69028,40.64778],[-4.69135,40.64449],[-4.69272,40.64466],[-4.69464,40.64537],[-4.69698,40.64643],[-4.69619,40.64752],[-4.69437,40.64746],[-4.69028,40.64778]]]}},{"type":"Feature","properties":{"id":"0501904011"},"geometry":{"type":"Polygon","coordinates":[[[-4.68554,40.64722],[-4.67729,40.64325],[-4.6751,40.64243],[-4.67386,40.64156],[-4.66966,40.63998],[-4.66979,40.63981],[-4.67095,40.6388],[-4.67166,40.63879],[-4.6725,40.63832],[-4.67386,40.63847],[-4.67524,40.63894],[-4.67636,40.63888],[-4.67684,40.63915],[-4.67726,40.63909],[-4.67911,40.63851],[-4.67965,40.63853],[-4.68012,40.63868],[-4.68143,40.63941],[-4.68198,40.63921],[-4.68279,40.63939],[-4.68305,40.63902],[-4.68338,40.63897],[-4.68436,40.63957],[-4.68451,40.64019],[-4.68536,40.64022],[-4.68587,40.64037],[-4.68597,40.64085],[-4.68574,40.6411],[-4.6857,40.64157],[-4.68873,40.644],[-4.68909,40.64415],[-4.69134,40.64449],[-4.69028,40.64778],[-4.68735,40.64835],[-4.68554,40.64722]]]}},{"type":"Feature","properties":{"id":"0501904012"},"geometry":{"type":"Polygon","coordinates":[[[-4.66966,40.63998],[-4.66822,40.6391],[-4.66752,40.63881],[-4.66664,40.63861],[-4.66413,40.63825],[-4.66284,40.63784],[-4.66156,40.63717],[-4.65892,40.63644],[-4.65682,40.63547],[-4.65534,40.6351],[-4.65412,40.63467],[-4.6515,40.63337],[-4.65304,40.63248],[-4.65479,40.63182],[-4.65472,40.63173],[-4.65544,40.63155],[-4.65586,40.6313],[-4.65595,40.63101],[-4.65574,40.63042],[-4.65571,40.63],[-4.656,40.62955],[-4.65556,40.62838],[-4.65474,40.62788],[-4.6547,40.62762],[-4.65422,40.62722],[-4.65409,40.62654],[-4.65314,40.62613],[-4.65231,40.62561],[-4.65186,40.62554],[-4.65144,40.62519],[-4.65045,40.62475],[-4.64971,40.62462],[-4.64933,40.62415],[-4.64856,40.62416],[-4.64824,40.62332],[-4.64763,40.62292],[-4.64565,40.6218],[-4.64422,40.62146],[-4.64492,40.62093],[-4.6464,40.62012],[-4.64694,40.62058],[-4.64833,40.61989],[-4.64808,40.61871],[-4.64762,40.61817],[-4.64873,40.61694],[-4.64887,40.6162],[-4.64797,40.61581],[-4.64874,40.61388],[-4.64797,40.61352],[-4.64673,40.61403],[-4.64391,40.61562],[-4.64219,40.61345],[-4.64155,40.61183],[-4.64352,40.61115],[-4.6437,40.61088],[-4.64345,40.60963],[-4.6439,40.60851],[-4.64608,40.608],[-4.64753,40.61027],[-4.6482,40.61074],[-4.64858,40.61229],[-4.65032,40.61233],[-4.65128,40.61067],[-4.6515,40.60934],[-4.65314,40.60857],[-4.65275,40.6069],[-4.6545,40.60621],[-4.6536,40.60591],[-4.65617,40.60425],[-4.65557,40.60353],[-4.6565,40.60248],[-4.6571,40.59764],[-4.65744,40.59669],[-4.659,40.59749],[-4.66004,40.59919],[-4.65914,40.60013],[-4.66109,40.60212],[-4.66382,40.60088],[-4.66458,40.60104],[-4.66519,40.60067],[-4.66866,40.60132],[-4.66973,40.60235],[-4.6723,40.6036],[-4.67416,40.60261],[-4.67712,40.60332],[-4.67847,40.60415],[-4.67955,40.60527],[-4.6807,40.60671],[-4.68095,40.60739],[-4.68084,40.60799],[-4.68043,40.60874],[-4.67875,40.61108],[-4.67957,40.61138],[-4.68079,40.61234],[-4.67882,40.61551],[-4.67824,40.61674],[-4.67685,40.61913],[-4.67673,40.61992],[-4.67698,40.62109],[-4.67684,40.62239],[-4.67701,40.62304],[-4.67756,40.624],[-4.6783,40.62457],[-4.68155,40.62546],[-4.68281,40.62553],[-4.68658,40.62482],[-4.68724,40.62486],[-4.68784,40.62516],[-4.68805,40.62536],[-4.68828,40.62589],[-4.69069,40.63259],[-4.69199,40.63529],[-4.69389,40.63876],[-4.6963,40.64168],[-4.68888,40.64178],[-4.68812,40.64194],[-4.68687,40.64255],[-4.6857,40.64157],[-4.68574,40.6411],[-4.68597,40.64085],[-4.68587,40.64037],[-4.68536,40.64022],[-4.68451,40.64019],[-4.68436,40.63957],[-4.68352,40.63903],[-4.6831,40.63898],[-4.68279,40.63939],[-4.68198,40.63921],[-4.68143,40.63941],[-4.68012,40.63868],[-4.67956,40.63852],[-4.67871,40.63859],[-4.67695,40.63915],[-4.67672,40.63912],[-4.67636,40.63888],[-4.67524,40.63894],[-4.67386,40.63847],[-4.6725,40.63832],[-4.67166,40.63879],[-4.67095,40.6388],[-4.67011,40.63949],[-4.66966,40.63998]]]}},{"type":"Feature","properties":{"id":"0501904013"},"geometry":{"type":"Polygon","coordinates":[[[-4.70413,40.64855],[-4.69996,40.64801],[-4.70011,40.64763],[-4.69982,40.64691],[-4.69992,40.64615],[-4.69976,40.64594],[-4.69929,40.64584],[-4.70048,40.64458],[-4.70028,40.64313],[-4.70081,40.63763],[-4.70098,40.63755],[-4.70134,40.63394],[-4.70008,40.63381],[-4.70078,40.62594],[-4.69916,40.56185],[-4.70169,40.56076],[-4.70319,40.56445],[-4.70296,40.56546],[-4.70294,40.56855],[-4.70478,40.56853],[-4.70646,40.56735],[-4.70721,40.56666],[-4.71092,40.56584],[-4.71145,40.56536],[-4.71206,40.56425],[-4.71288,40.56427],[-4.71331,40.56648],[-4.7147,40.56658],[-4.71708,40.5693],[-4.71998,40.56939],[-4.72089,40.56977],[-4.7216,40.57281],[-4.72069,40.57731],[-4.72261,40.57758],[-4.72357,40.5778],[-4.72521,40.57843],[-4.72723,40.57937],[-4.72789,40.58166],[-4.72862,40.58224],[-4.72919,40.58215],[-4.72946,40.58222],[-4.72962,40.58262],[-4.72803,40.58714],[-4.72794,40.58849],[-4.72758,40.59022],[-4.7272,40.59106],[-4.72593,40.59505],[-4.72525,40.59661],[-4.72397,40.60124],[-4.72276,40.60952],[-4.72067,40.6141],[-4.71989,40.61705],[-4.71795,40.62078],[-4.71675,40.62236],[-4.71087,40.62862],[-4.70415,40.6477],[-4.70405,40.64815],[-4.70413,40.64855]]]}},{"type":"Feature","properties":{"id":"0501904014"},"geometry":{"type":"Polygon","coordinates":[[[-4.69778,40.64768],[-4.69815,40.64733],[-4.69827,40.64665],[-4.69738,40.64569],[-4.69734,40.64488],[-4.69762,40.64332],[-4.69389,40.63876],[-4.69232,40.63592],[-4.69069,40.63259],[-4.68805,40.62536],[-4.68736,40.62489],[-4.68658,40.62482],[-4.6829,40.62552],[-4.68201,40.62552],[-4.68124,40.62539],[-4.6783,40.62457],[-4.67756,40.624],[-4.67694,40.62287],[-4.67685,40.62224],[-4.67699,40.62121],[-4.67673,40.61992],[-4.67685,40.61913],[-4.67824,40.61674],[-4.67882,40.61551],[-4.68079,40.61234],[-4.68151,40.61277],[-4.68392,40.61349],[-4.6847,40.613],[-4.68385,40.61078],[-4.68497,40.60681],[-4.68463,40.60639],[-4.68304,40.60581],[-4.68164,40.60506],[-4.68373,40.60312],[-4.68398,40.60277],[-4.68402,40.60231],[-4.68385,40.60138],[-4.68806,40.59936],[-4.68565,40.5975],[-4.68713,40.59692],[-4.68693,40.5965],[-4.68763,40.59602],[-4.68854,40.59302],[-4.68781,40.59176],[-4.68679,40.59259],[-4.68436,40.59221],[-4.68388,40.59119],[-4.68519,40.5904],[-4.68902,40.59019],[-4.68977,40.58997],[-4.69138,40.58903],[-4.69132,40.58665],[-4.69087,40.58522],[-4.6904,40.58415],[-4.69032,40.58356],[-4.69115,40.57951],[-4.68776,40.57477],[-4.68673,40.57297],[-4.68659,40.57239],[-4.68629,40.5682],[-4.68642,40.56772],[-4.68896,40.56411],[-4.69416,40.56239],[-4.69797,40.56214],[-4.69916,40.56185],[-4.70078,40.62594],[-4.70008,40.63381],[-4.70134,40.63394],[-4.70098,40.63755],[-4.70081,40.63763],[-4.70028,40.64313],[-4.70048,40.64458],[-4.69929,40.64584],[-4.69976,40.64594],[-4.69992,40.64615],[-4.69982,40.64691],[-4.7001,40.64775],[-4.69996,40.64797],[-4.69778,40.64768]]]}},{"type":"Feature","properties":{"id":"0501905001"},"geometry":{"type":"Polygon","coordinates":[[[-4.69249,40.65298],[-4.69018,40.65097],[-4.68994,40.65032],[-4.69073,40.65054],[-4.69491,40.65223],[-4.69606,40.65261],[-4.69662,40.65259],[-4.69646,40.65324],[-4.69615,40.65348],[-4.69594,40.65344],[-4.69574,40.65322],[-4.69491,40.65301],[-4.69289,40.65292],[-4.69249,40.65298]]]}},{"type":"Feature","properties":{"id":"0501905002"},"geometry":{"type":"Polygon","coordinates":[[[-4.68835,40.65353],[-4.68868,40.65236],[-4.68773,40.6515],[-4.69042,40.65139],[-4.69053,40.65131],[-4.69356,40.65394],[-4.69161,40.65401],[-4.69128,40.65405],[-4.69129,40.65417],[-4.69072,40.65406],[-4.69051,40.65389],[-4.69013,40.65379],[-4.68835,40.65353]]]}},{"type":"Feature","properties":{"id":"0501905003"},"geometry":{"type":"Polygon","coordinates":[[[-4.68249,40.6528],[-4.68322,40.65215],[-4.68337,40.65185],[-4.68367,40.65169],[-4.68816,40.65192],[-4.68868,40.65236],[-4.68835,40.65353],[-4.68719,40.65334],[-4.68615,40.6534],[-4.68473,40.65395],[-4.68249,40.6528]]]}},{"type":"Feature","properties":{"id":"0501905004"},"geometry":{"type":"Polygon","coordinates":[[[-4.67544,40.65039],[-4.67059,40.648],[-4.66889,40.64691],[-4.66914,40.64685],[-4.66946,40.64696],[-4.67037,40.64706],[-4.67155,40.64699],[-4.67243,40.64731],[-4.67296,40.64769],[-4.67433,40.64826],[-4.67604,40.64882],[-4.68009,40.64959],[-4.68367,40.6505],[-4.68781,40.65071],[-4.68771,40.65149],[-4.68816,40.65192],[-4.68367,40.65169],[-4.68337,40.65185],[-4.68322,40.65215],[-4.68249,40.6528],[-4.68121,40.65227],[-4.6773,40.65107],[-4.67544,40.65039]]]}},{"type":"Feature","properties":{"id":"0501905005"},"geometry":{"type":"Polygon","coordinates":[[[-4.68184,40.65001],[-4.68235,40.64771],[-4.6826,40.64701],[-4.68309,40.64618],[-4.68325,40.64611],[-4.68554,40.64722],[-4.68975,40.65],[-4.69002,40.65071],[-4.69053,40.65131],[-4.69042,40.65139],[-4.68773,40.65151],[-4.68781,40.65071],[-4.68367,40.6505],[-4.68184,40.65001]]]}},{"type":"Feature","properties":{"id":"0501905006"},"geometry":{"type":"Polygon","coordinates":[[[-4.66889,40.64691],[-4.6617,40.64142],[-4.6596,40.64027],[-4.65973,40.6398],[-4.65918,40.63932],[-4.65743,40.63818],[-4.65104,40.6349],[-4.64282,40.62676],[-4.63738,40.6229],[-4.63771,40.62195],[-4.64048,40.6231],[-4.64076,40.62243],[-4.64164,40.62211],[-4.64349,40.62096],[-4.64442,40.61985],[-4.64551,40.61937],[-4.6464,40.62012],[-4.64492,40.62093],[-4.64433,40.62134],[-4.64427,40.6215],[-4.64565,40.6218],[-4.64763,40.62292],[-4.64824,40.62332],[-4.64856,40.62416],[-4.64933,40.62415],[-4.64971,40.62462],[-4.65045,40.62475],[-4.65144,40.62519],[-4.65186,40.62554],[-4.65231,40.62561],[-4.65314,40.62613],[-4.65409,40.62654],[-4.65422,40.62722],[-4.6547,40.62762],[-4.65474,40.62788],[-4.65556,40.62838],[-4.65593,40.62917],[-4.656,40.62955],[-4.65571,40.63],[-4.65574,40.63042],[-4.65595,40.63101],[-4.65586,40.6313],[-4.65544,40.63155],[-4.65472,40.63173],[-4.65479,40.63182],[-4.65304,40.63248],[-4.6515,40.63337],[-4.65412,40.63467],[-4.65534,40.6351],[-4.65682,40.63547],[-4.65892,40.63644],[-4.66156,40.63717],[-4.66284,40.63784],[-4.66413,40.63825],[-4.66664,40.63861],[-4.66752,40.63881],[-4.66822,40.6391],[-4.66966,40.63998],[-4.67386,40.64156],[-4.6751,40.64243],[-4.67729,40.64325],[-4.68325,40.64611],[-4.68309,40.64618],[-4.6826,40.64701],[-4.68235,40.64771],[-4.68184,40.65001],[-4.67904,40.64937],[-4.67827,40.6493],[-4.67604,40.64882],[-4.67433,40.64826],[-4.67296,40.64769],[-4.67243,40.64731],[-4.67155,40.64699],[-4.67037,40.64706],[-4.66946,40.64696],[-4.66914,40.64685],[-4.66889,40.64691]]]}},{"type":"Feature","properties":{"id":"0501906001"},"geometry":{"type":"Polygon","coordinates":[[[-4.69455,40.65798],[-4.69239,40.65783],[-4.69186,40.65719],[-4.69148,40.65649],[-4.69189,40.65637],[-4.69369,40.65665],[-4.69429,40.65669],[-4.69489,40.65661],[-4.69566,40.65686],[-4.69545,40.65743],[-4.69512,40.65738],[-4.69505,40.65779],[-4.69455,40.65798]]]}},{"type":"Feature","properties":{"id":"0501906002"},"geometry":{"type":"Polygon","coordinates":[[[-4.67544,40.65039],[-4.6773,40.65107],[-4.68121,40.65227],[-4.68228,40.65269],[-4.68552,40.65441],[-4.68782,40.65638],[-4.68886,40.65597],[-4.68918,40.65713],[-4.68829,40.65708],[-4.68729,40.65722],[-4.68544,40.65776],[-4.68414,40.65829],[-4.68411,40.65823],[-4.68335,40.65848],[-4.68213,40.6546],[-4.68129,40.65351],[-4.68056,40.65287],[-4.67907,40.65226],[-4.67594,40.65187],[-4.67504,40.65136],[-4.67388,40.65114],[-4.67393,40.65087],[-4.6749,40.65073],[-4.67544,40.65039]]]}},{"type":"Feature","properties":{"id":"0501906003"},"geometry":{"type":"Polygon","coordinates":[[[-4.60003,40.63842],[-4.60295,40.639],[-4.60537,40.63975],[-4.60673,40.63983],[-4.60768,40.64022],[-4.60854,40.64031],[-4.60836,40.64261],[-4.61041,40.64583],[-4.61125,40.6466],[-4.61419,40.64801],[-4.61523,40.64793],[-4.61951,40.64697],[-4.61922,40.64398],[-4.61989,40.641],[-4.61941,40.64026],[-4.61979,40.63843],[-4.62035,40.63838],[-4.62202,40.63702],[-4.62118,40.6363],[-4.62139,40.63577],[-4.62046,40.6333],[-4.61962,40.6333],[-4.61841,40.63174],[-4.61913,40.63122],[-4.62078,40.63082],[-4.62147,40.62999],[-4.62323,40.62911],[-4.62457,40.63037],[-4.62367,40.63111],[-4.6242,40.6316],[-4.62508,40.63181],[-4.62726,40.63324],[-4.62837,40.63193],[-4.63001,40.63265],[-4.63126,40.63264],[-4.63146,40.63252],[-4.63157,40.63215],[-4.6291,40.63087],[-4.62857,40.63048],[-4.6284,40.63006],[-4.62884,40.63018],[-4.62953,40.62961],[-4.62973,40.62986],[-4.63045,40.63028],[-4.63074,40.63004],[-4.63122,40.62922],[-4.63088,40.62909],[-4.63068,40.6287],[-4.6296,40.62842],[-4.62947,40.628],[-4.6286,40.62757],[-4.62834,40.62616],[-4.62774,40.62534],[-4.62831,40.62396],[-4.62616,40.62279],[-4.62571,40.6219],[-4.62786,40.62161],[-4.62938,40.62264],[-4.63059,40.62308],[-4.63165,40.62334],[-4.63179,40.62353],[-4.63184,40.62437],[-4.63145,40.62493],[-4.63282,40.6257],[-4.63464,40.6242],[-4.63563,40.62503],[-4.63747,40.62417],[-4.63719,40.62346],[-4.63738,40.6229],[-4.64282,40.62676],[-4.65106,40.63492],[-4.65743,40.63818],[-4.65968,40.63975],[-4.65973,40.63992],[-4.6596,40.64027],[-4.6617,40.64142],[-4.66854,40.64668],[-4.67059,40.648],[-4.67544,40.65039],[-4.6749,40.65073],[-4.67393,40.65087],[-4.67388,40.65114],[-4.67504,40.65136],[-4.67594,40.65187],[-4.67907,40.65226],[-4.68056,40.65287],[-4.68175,40.65402],[-4.68213,40.6546],[-4.68335,40.65848],[-4.68147,40.65892],[-4.68065,40.6572],[-4.68042,40.65701],[-4.67977,40.65686],[-4.67623,40.65653],[-4.67478,40.65805],[-4.67434,40.65825],[-4.66899,40.6587],[-4.66662,40.65909],[-4.66312,40.65993],[-4.65747,40.66053],[-4.65368,40.66169],[-4.65162,40.66218],[-4.64703,40.66245],[-4.64413,40.66271],[-4.63053,40.66449],[-4.62903,40.66216],[-4.62887,40.66182],[-4.6287,40.66084],[-4.62601,40.66031],[-4.62357,40.66008],[-4.62029,40.66026],[-4.61946,40.66021],[-4.61848,40.66043],[-4.6176,40.66037],[-4.61749,40.66009],[-4.61768,40.6587],[-4.6175,40.65698],[-4.61697,40.65582],[-4.61628,40.65588],[-4.61397,40.65639],[-4.60942,40.65602],[-4.60884,40.65435],[-4.60886,40.65374],[-4.60923,40.65327],[-4.60926,40.65262],[-4.60838,40.65057],[-4.60767,40.64865],[-4.60746,40.64779],[-4.60721,40.64731],[-4.59965,40.64079],[-4.60017,40.63876],[-4.60003,40.63842]]]}},{"type":"Feature","properties":{"id":"0501906004"},"geometry":{"type":"Polygon","coordinates":[[[-4.69073,40.65889],[-4.6908,40.65819],[-4.68841,40.65848],[-4.68818,40.65769],[-4.68888,40.65709],[-4.68952,40.65722],[-4.6896,40.65716],[-4.69068,40.65757],[-4.69127,40.65769],[-4.69306,40.65793],[-4.69431,40.65796],[-4.69351,40.65923],[-4.69073,40.65889]]]}},{"type":"Feature","properties":{"id":"0501906005"},"geometry":{"type":"Polygon","coordinates":[[[-4.69073,40.65889],[-4.69351,40.65923],[-4.69294,40.6612],[-4.69046,40.66108],[-4.69073,40.65889]]]}},{"type":"Feature","properties":{"id":"0501906006"},"geometry":{"type":"Polygon","coordinates":[[[-4.68567,40.66114],[-4.68565,40.66038],[-4.68701,40.66043],[-4.68697,40.65974],[-4.68865,40.6599],[-4.68855,40.65847],[-4.6908,40.65819],[-4.69046,40.66108],[-4.69294,40.6612],[-4.69291,40.66133],[-4.68567,40.66114]]]}},{"type":"Feature","properties":{"id":"0501906008"},"geometry":{"type":"Polygon","coordinates":[[[-4.68334,40.6585],[-4.68441,40.65819],[-4.68471,40.65834],[-4.68548,40.65945],[-4.68536,40.65956],[-4.68563,40.65966],[-4.68567,40.66114],[-4.69291,40.66133],[-4.69248,40.66306],[-4.69253,40.66316],[-4.69282,40.66322],[-4.69252,40.66535],[-4.69437,40.66537],[-4.69059,40.672],[-4.69016,40.67257],[-4.69026,40.67196],[-4.69,40.67144],[-4.67956,40.66128],[-4.67969,40.66109],[-4.68382,40.6604],[-4.68334,40.6585]]]}},{"type":"Feature","properties":{"id":"0501906009"},"geometry":{"type":"Polygon","coordinates":[[[-4.68918,40.65713],[-4.68886,40.65597],[-4.68782,40.65638],[-4.68634,40.65507],[-4.68715,40.65492],[-4.68827,40.65544],[-4.68914,40.65557],[-4.68927,40.65574],[-4.69001,40.6557],[-4.69022,40.6555],[-4.69033,40.65575],[-4.69085,40.65577],[-4.69139,40.65623],[-4.69133,40.65627],[-4.69186,40.65719],[-4.69239,40.65783],[-4.69095,40.65763],[-4.68968,40.65718],[-4.68952,40.65722],[-4.68918,40.65713]]]}},{"type":"Feature","properties":{"id":"0501906010"},"geometry":{"type":"Polygon","coordinates":[[[-4.68565,40.66038],[-4.68563,40.65966],[-4.68536,40.65956],[-4.68548,40.65945],[-4.68471,40.65834],[-4.68441,40.65819],[-4.68544,40.65776],[-4.68729,40.65722],[-4.68888,40.65709],[-4.68818,40.65769],[-4.68841,40.65848],[-4.68855,40.65847],[-4.68865,40.6599],[-4.68697,40.65974],[-4.68701,40.66043],[-4.68565,40.66038]]]}},{"type":"Feature","properties":{"id":"0501906011"},"geometry":{"type":"Polygon","coordinates":[[[-4.46979,40.6925],[-4.46836,40.69111],[-4.46716,40.69064],[-4.46607,40.68998],[-4.46557,40.68915],[-4.46492,40.6884],[-4.4647,40.68778],[-4.46455,40.68664],[-4.46343,40.68603],[-4.46081,40.68288],[-4.4605,40.68153],[-4.45842,40.6796],[-4.45693,40.6775],[-4.45534,40.67402],[-4.45429,40.67018],[-4.45442,40.66941],[-4.45375,40.66848],[-4.45361,40.66806],[-4.45364,40.6669],[-4.45407,40.6639],[-4.45465,40.6615],[-4.45538,40.6591],[-4.45654,40.65611],[-4.45703,40.65529],[-4.45856,40.65342],[-4.45986,40.65201],[-4.46268,40.65001],[-4.46416,40.64873],[-4.46426,40.64836],[-4.46404,40.64669],[-4.46432,40.64581],[-4.46465,40.64527],[-4.46451,40.64224],[-4.46512,40.64088],[-4.46568,40.63886],[-4.46599,40.63693],[-4.46597,40.636],[-4.46561,40.63487],[-4.46745,40.63474],[-4.46967,40.63443],[-4.47138,40.63175],[-4.47483,40.62674],[-4.4763,40.62373],[-4.47799,40.6208],[-4.47895,40.61966],[-4.48187,40.6205],[-4.48248,40.62049],[-4.48478,40.62023],[-4.48736,40.61979],[-4.48921,40.61937],[-4.49112,40.61931],[-4.49228,40.61944],[-4.49481,40.62001],[-4.49664,40.61995],[-4.50199,40.62042],[-4.50595,40.6211],[-4.5071,40.62114],[-4.50865,40.62134],[-4.50961,40.62154],[-4.51076,40.62197],[-4.51197,40.62262],[-4.51247,40.62311],[-4.51177,40.6241],[-4.51145,40.62507],[-4.50928,40.62842],[-4.50912,40.62979],[-4.50944,40.63226],[-4.50898,40.63437],[-4.50907,40.63485],[-4.50941,40.63529],[-4.5107,40.63631],[-4.5126,40.63728],[-4.51552,40.63853],[-4.51735,40.63914],[-4.52097,40.63979],[-4.52234,40.64054],[-4.52414,40.64207],[-4.52632,40.64434],[-4.5289,40.64766],[-4.52934,40.648],[-4.53013,40.64828],[-4.53333,40.64848],[-4.53479,40.65034],[-4.53772,40.65071],[-4.53888,40.65074],[-4.54057,40.65062],[-4.5426,40.65028],[-4.54351,40.65042],[-4.5433,40.65105],[-4.5445,40.65055],[-4.54737,40.65069],[-4.54912,40.65097],[-4.55125,40.65155],[-4.55211,40.65204],[-4.55433,40.65377],[-4.55673,40.65549],[-4.55808,40.66084],[-4.56005,40.66037],[-4.55993,40.65957],[-4.56272,40.65818],[-4.56478,40.65836],[-4.56529,40.6596],[-4.56369,40.66025],[-4.56386,40.66126],[-4.56182,40.66329],[-4.56563,40.66583],[-4.56748,40.66594],[-4.57092,40.66517],[-4.57363,40.66312],[-4.57529,40.66297],[-4.57569,40.66228],[-4.5767,40.66322],[-4.57751,40.66159],[-4.57774,40.66258],[-4.57926,40.66291],[-4.58089,40.66254],[-4.58587,40.65948],[-4.58738,40.65842],[-4.58824,40.65819],[-4.58918,40.65859],[-4.58952,40.65661],[-4.58997,40.65603],[-4.59256,40.65481],[-4.59386,40.65458],[-4.59653,40.65367],[-4.59742,40.65354],[-4.59795,40.65327],[-4.59675,40.65221],[-4.59648,40.65261],[-4.59429,40.65156],[-4.59359,40.65019],[-4.59299,40.64861],[-4.59096,40.64517],[-4.59009,40.64459],[-4.58935,40.64388],[-4.58843,40.64248],[-4.58786,40.64119],[-4.58695,40.64035],[-4.58763,40.63906],[-4.59165,40.63749],[-4.5924,40.63746],[-4.59629,40.63789],[-4.60003,40.63842],[-4.60017,40.63876],[-4.59965,40.64079],[-4.60721,40.64731],[-4.60746,40.64779],[-4.60767,40.64865],[-4.60838,40.65057],[-4.60926,40.65262],[-4.60923,40.65327],[-4.60886,40.65374],[-4.60884,40.65435],[-4.60942,40.65602],[-4.61397,40.65639],[-4.61628,40.65588],[-4.61697,40.65582],[-4.6175,40.65698],[-4.61768,40.6587],[-4.61749,40.66009],[-4.6176,40.66037],[-4.61848,40.66043],[-4.61946,40.66021],[-4.62029,40.66026],[-4.62357,40.66008],[-4.62601,40.66031],[-4.6287,40.66084],[-4.62887,40.66182],[-4.62903,40.66216],[-4.63053,40.66449],[-4.64413,40.66271],[-4.65203,40.66212],[-4.65747,40.66053],[-4.66312,40.65993],[-4.66696,40.65902],[-4.66933,40.65867],[-4.67187,40.66256],[-4.66245,40.66616],[-4.65004,40.67111],[-4.64802,40.67184],[-4.64635,40.67258],[-4.64482,40.67334],[-4.64337,40.67419],[-4.63954,40.67686],[-4.63748,40.67781],[-4.63437,40.6789],[-4.6335,40.67971],[-4.63244,40.68001],[-4.63222,40.68032],[-4.63149,40.68066],[-4.62269,40.68362],[-4.61936,40.68455],[-4.60797,40.68702],[-4.60823,40.68598],[-4.60682,40.68623],[-4.60726,40.68672],[-4.60721,40.68788],[-4.60641,40.68799],[-4.60624,40.68741],[-4.60425,40.68773],[-4.60425,40.68848],[-4.60295,40.68873],[-4.60262,40.68775],[-4.60161,40.68704],[-4.60081,40.68676],[-4.59732,40.68607],[-4.5976,40.6852],[-4.59654,40.68444],[-4.59487,40.68522],[-4.59372,40.68369],[-4.59268,40.68354],[-4.59301,40.68231],[-4.59363,40.68237],[-4.59717,40.68226],[-4.59604,40.68073],[-4.59558,40.68029],[-4.59482,40.67988],[-4.59479,40.67924],[-4.59323,40.67848],[-4.59123,40.67924],[-4.59162,40.68102],[-4.58905,40.68212],[-4.58726,40.68265],[-4.58541,40.68309],[-4.58281,40.68215],[-4.58063,40.6826],[-4.58092,40.68189],[-4.58175,40.6809],[-4.57996,40.68081],[-4.57899,40.68105],[-4.57782,40.68109],[-4.57676,40.68102],[-4.57639,40.68087],[-4.57497,40.68138],[-4.57448,40.6817],[-4.57377,40.68268],[-4.57282,40.68232],[-4.57158,40.6821],[-4.5695,40.68193],[-4.56943,40.68159],[-4.568,40.68154],[-4.56775,40.68099],[-4.56675,40.68107],[-4.56585,40.68051],[-4.56596,40.67945],[-4.56105,40.67973],[-4.55798,40.68177],[-4.55636,40.6844],[-4.55454,40.68647],[-4.55342,40.68745],[-4.5538,40.68923],[-4.55234,40.68858],[-4.5502,40.68819],[-4.54857,40.68804],[-4.54798,40.68784],[-4.54666,40.68675],[-4.54606,40.68644],[-4.54376,40.68578],[-4.53985,40.68422],[-4.5379,40.68327],[-4.5378,40.68342],[-4.538,40.68492],[-4.53819,40.68846],[-4.53399,40.68847],[-4.53312,40.68629],[-4.53009,40.68565],[-4.52937,40.68526],[-4.52827,40.68442],[-4.52416,40.68667],[-4.5246,40.68853],[-4.52495,40.68937],[-4.52534,40.68988],[-4.52742,40.69192],[-4.52782,40.69262],[-4.52818,40.69408],[-4.52768,40.69384],[-4.52737,40.6935],[-4.52683,40.69314],[-4.52495,40.69293],[-4.52432,40.69268],[-4.52236,40.6912],[-4.52199,40.69121],[-4.52199,40.69167],[-4.52163,40.69211],[-4.52097,40.69221],[-4.52045,40.69172],[-4.52018,40.69044],[-4.51988,40.68994],[-4.51931,40.68952],[-4.51835,40.68832],[-4.51796,40.68839],[-4.51762,40.68886],[-4.51733,40.68892],[-4.51696,40.68878],[-4.51639,40.68876],[-4.51407,40.6892],[-4.51317,40.6895],[-4.51292,40.68945],[-4.51273,40.68851],[-4.51247,40.68826],[-4.51212,40.68827],[-4.50927,40.68978],[-4.50786,40.6893],[-4.50641,40.68894],[-4.50523,40.69055],[-4.50478,40.69082],[-4.502,40.69052],[-4.50145,40.69035],[-4.50106,40.69012],[-4.50008,40.68903],[-4.49904,40.68897],[-4.4985,40.68885],[-4.49748,40.68845],[-4.497,40.6885],[-4.49623,40.68873],[-4.49495,40.68863],[-4.49398,40.68866],[-4.49299,40.68885],[-4.49238,40.68923],[-4.49237,40.68969],[-4.49293,40.69056],[-4.4931,40.6913],[-4.493,40.69244],[-4.49231,40.69404],[-4.49167,40.69434],[-4.49112,40.69412],[-4.49072,40.69283],[-4.49053,40.69122],[-4.49002,40.68995],[-4.48929,40.6893],[-4.48828,40.68914],[-4.48688,40.68947],[-4.48557,40.68998],[-4.48139,40.69266],[-4.48082,40.69355],[-4.48114,40.69562],[-4.48077,40.69628],[-4.48047,40.69644],[-4.48007,40.69639],[-4.47804,40.69503],[-4.47557,40.69256],[-4.47464,40.69206],[-4.47368,40.69169],[-4.47346,40.69142],[-4.47352,40.69118],[-4.47419,40.69038],[-4.47431,40.68967],[-4.47417,40.68956],[-4.46979,40.6925]]]}},{"type":"Feature","properties":{"id":"0501906012"},"geometry":{"type":"Polygon","coordinates":[[[-4.67264,40.66226],[-4.68136,40.65895],[-4.68334,40.6585],[-4.68382,40.6604],[-4.67969,40.66109],[-4.67956,40.66128],[-4.68988,40.67131],[-4.69026,40.67196],[-4.69007,40.67269],[-4.6864,40.67637],[-4.68618,40.67631],[-4.68584,40.6764],[-4.68411,40.67621],[-4.68227,40.67561],[-4.67876,40.67293],[-4.67699,40.67184],[-4.67617,40.67148],[-4.67658,40.67088],[-4.67708,40.66977],[-4.67483,40.66799],[-4.67497,40.66633],[-4.6749,40.66578],[-4.67264,40.66226]]]}},{"type":"Feature","properties":{"id":"0501906013"},"geometry":{"type":"Polygon","coordinates":[[[-4.67532,40.72703],[-4.67521,40.72744],[-4.67584,40.73044],[-4.67571,40.73123],[-4.67533,40.73194],[-4.6752,40.73255],[-4.67167,40.73294],[-4.67165,40.7319],[-4.66914,40.73226],[-4.66734,40.73215],[-4.66622,40.73225],[-4.66483,40.73298],[-4.66448,40.7337],[-4.66316,40.73381],[-4.66287,40.73467],[-4.66251,40.73517],[-4.66214,40.73529],[-4.65939,40.7356],[-4.65692,40.73551],[-4.65587,40.73564],[-4.65294,40.7351],[-4.65269,40.7354],[-4.65244,40.73629],[-4.65202,40.73592],[-4.65208,40.73493],[-4.65186,40.73453],[-4.65133,40.73428],[-4.65039,40.73421],[-4.64945,40.7343],[-4.64845,40.73378],[-4.64788,40.73274],[-4.64642,40.73162],[-4.64677,40.73116],[-4.6475,40.73061],[-4.64822,40.72922],[-4.64878,40.72901],[-4.64964,40.72888],[-4.65052,40.72808],[-4.65067,40.72648],[-4.65176,40.72541],[-4.6508,40.7253],[-4.64792,40.72334],[-4.64919,40.7212],[-4.64703,40.72039],[-4.64743,40.71984],[-4.64747,40.71939],[-4.64716,40.71891],[-4.64592,40.71769],[-4.64535,40.71726],[-4.6448,40.71715],[-4.64158,40.71774],[-4.64053,40.71781],[-4.63742,40.71775],[-4.63629,40.71761],[-4.6354,40.71737],[-4.6323,40.71775],[-4.63234,40.7165],[-4.63248,40.71569],[-4.63328,40.71444],[-4.63283,40.71344],[-4.63205,40.71293],[-4.63014,40.71378],[-4.629,40.71415],[-4.62676,40.71465],[-4.62488,40.71481],[-4.62205,40.71381],[-4.62266,40.71224],[-4.62258,40.7105],[-4.62005,40.70976],[-4.61935,40.70878],[-4.61855,40.70855],[-4.61924,40.70758],[-4.61986,40.7074],[-4.62275,40.70733],[-4.62311,40.70695],[-4.62344,40.70605],[-4.62297,40.70585],[-4.62218,40.70575],[-4.62041,40.7059],[-4.61991,40.7065],[-4.61868,40.70629],[-4.61784,40.70746],[-4.61635,40.70798],[-4.61459,40.70778],[-4.61351,40.7084],[-4.61302,40.70852],[-4.61162,40.70859],[-4.61064,40.70787],[-4.61015,40.70663],[-4.60938,40.70624],[-4.60933,40.70604],[-4.60953,40.70589],[-4.6116,40.70587],[-4.61378,40.70611],[-4.61507,40.70483],[-4.61394,40.70474],[-4.61241,40.70481],[-4.61128,40.70458],[-4.61238,40.70128],[-4.61409,40.70081],[-4.61539,40.70072],[-4.61658,40.69992],[-4.61524,40.69889],[-4.61313,40.69783],[-4.61114,40.69753],[-4.60914,40.69747],[-4.60833,40.69647],[-4.60936,40.69467],[-4.60872,40.69451],[-4.60736,40.69393],[-4.60854,40.69305],[-4.61021,40.69312],[-4.60998,40.69018],[-4.61005,40.68982],[-4.61093,40.68953],[-4.61105,40.68937],[-4.61118,40.68838],[-4.60853,40.68883],[-4.60787,40.68864],[-4.60797,40.68702],[-4.62069,40.68424],[-4.63181,40.68054],[-4.63222,40.68032],[-4.63244,40.68001],[-4.6335,40.67971],[-4.63437,40.6789],[-4.63748,40.67781],[-4.63954,40.67686],[-4.64337,40.67419],[-4.64482,40.67334],[-4.64635,40.67258],[-4.64802,40.67184],[-4.65004,40.67111],[-4.66245,40.66616],[-4.67264,40.66226],[-4.6749,40.66578],[-4.67497,40.66633],[-4.67483,40.66799],[-4.67708,40.66977],[-4.67658,40.67088],[-4.67617,40.67148],[-4.67699,40.67184],[-4.67876,40.67293],[-4.68227,40.67561],[-4.68411,40.67621],[-4.68584,40.6764],[-4.68618,40.67631],[-4.6864,40.67637],[-4.68144,40.68131],[-4.68094,40.68209],[-4.68087,40.68253],[-4.68101,40.68326],[-4.68301,40.68618],[-4.68323,40.68706],[-4.68306,40.68781],[-4.68176,40.6913],[-4.68077,40.69338],[-4.68023,40.69389],[-4.67642,40.69554],[-4.67241,40.69751],[-4.67178,40.69855],[-4.67151,40.69947],[-4.67092,40.70218],[-4.67069,40.70695],[-4.67076,40.70771],[-4.67309,40.7126],[-4.67405,40.71503],[-4.67421,40.71503],[-4.67435,40.71619],[-4.6743,40.7172],[-4.67417,40.71769],[-4.67309,40.7196],[-4.67302,40.72008],[-4.67312,40.7208],[-4.67365,40.72193],[-4.67451,40.72438],[-4.67515,40.72704],[-4.67532,40.72703]]]}},{"type":"Feature","properties":{"id":"0501906014"},"geometry":{"type":"Polygon","coordinates":[[[-4.66933,40.65867],[-4.67452,40.65821],[-4.67478,40.65805],[-4.67593,40.65676],[-4.67617,40.65656],[-4.67638,40.65652],[-4.67977,40.65686],[-4.68042,40.65701],[-4.68065,40.6572],[-4.68147,40.65892],[-4.67187,40.66256],[-4.66933,40.65867]]]}}]}