{"type":"FeatureCollection","features":[{"type":"Feature","properties":{"id":"0601201001"},"geometry":{"type":"Polygon","coordinates":[[[-6.45479,38.86206],[-6.45483,38.8605],[-6.45527,38.85892],[-6.45523,38.85675],[-6.45506,38.85595],[-6.455,38.85373],[-6.45604,38.85214],[-6.45702,38.85118],[-6.45779,38.85165],[-6.45861,38.85192],[-6.4595,38.85207],[-6.46087,38.85331],[-6.4608,38.854],[-6.46115,38.85912],[-6.45759,38.85921],[-6.45781,38.862],[-6.45479,38.86206]]]}},{"type":"Feature","properties":{"id":"0601201002"},"geometry":{"type":"Polygon","coordinates":[[[-6.45572,38.87903],[-6.45019,38.87841],[-6.45002,38.87849],[-6.44876,38.87838],[-6.44587,38.87792],[-6.44467,38.87262],[-6.44427,38.8693],[-6.44488,38.86809],[-6.44226,38.86568],[-6.43786,38.8648],[-6.43605,38.86458],[-6.42755,38.8622],[-6.4272,38.86082],[-6.42842,38.8583],[-6.42812,38.85687],[-6.42357,38.85095],[-6.41296,38.84455],[-6.40413,38.84034],[-6.40301,38.8395],[-6.40146,38.83866],[-6.38995,38.83156],[-6.39131,38.8292],[-6.39237,38.82769],[-6.39301,38.827],[-6.39464,38.82572],[-6.40044,38.82175],[-6.40734,38.81666],[-6.40812,38.81616],[-6.41077,38.81491],[-6.42151,38.81053],[-6.42785,38.80979],[-6.43032,38.80941],[-6.4452,38.80755],[-6.45794,38.80628],[-6.4723,38.81003],[-6.47814,38.81165],[-6.48116,38.81518],[-6.48401,38.81877],[-6.4994,38.82446],[-6.49995,38.82478],[-6.50102,38.82565],[-6.5014,38.82606],[-6.50161,38.82646],[-6.50232,38.82967],[-6.5035,38.83344],[-6.50381,38.83517],[-6.50436,38.836],[-6.50458,38.83662],[-6.5045,38.83756],[-6.50404,38.83897],[-6.50297,38.84078],[-6.50084,38.84349],[-6.49919,38.84526],[-6.49765,38.84668],[-6.49675,38.84725],[-6.49587,38.84764],[-6.49504,38.84783],[-6.49219,38.84741],[-6.49177,38.8505],[-6.48989,38.85407],[-6.49107,38.85682],[-6.49325,38.85893],[-6.49376,38.85973],[-6.49403,38.8608],[-6.49425,38.86274],[-6.49414,38.86347],[-6.49439,38.86594],[-6.49468,38.86695],[-6.49483,38.86912],[-6.49475,38.86944],[-6.48409,38.87288],[-6.46923,38.87478],[-6.45572,38.87903]],[[-6.45479,38.86206],[-6.45781,38.862],[-6.45759,38.85921],[-6.46115,38.85912],[-6.4608,38.854],[-6.46087,38.85331],[-6.4595,38.85207],[-6.45861,38.85192],[-6.45779,38.85165],[-6.45702,38.85118],[-6.45604,38.85214],[-6.45505,38.85361],[-6.45453,38.85325],[-6.45053,38.85658],[-6.44757,38.85886],[-6.45106,38.86468],[-6.4547,38.86467],[-6.45479,38.86206]]]}},{"type":"Feature","properties":{"id":"0601201003"},"geometry":{"type":"Polygon","coordinates":[[[-6.45505,38.85361],[-6.45506,38.85595],[-6.45523,38.85675],[-6.45527,38.85892],[-6.45481,38.86071],[-6.4547,38.86467],[-6.45106,38.86468],[-6.44757,38.85886],[-6.45053,38.85658],[-6.45453,38.85325],[-6.45505,38.85361]]]}}]}