{"type":"FeatureCollection","features":[{"type":"Feature","properties":{"id":"0602201001"},"geometry":{"type":"Polygon","coordinates":[[[-6.60603,38.45447],[-6.60271,38.45286],[-6.59779,38.44654],[-6.59571,38.44633],[-6.59281,38.44414],[-6.5834,38.44033],[-6.58254,38.43922],[-6.58171,38.43878],[-6.57865,38.43789],[-6.5767,38.43786],[-6.57616,38.43598],[-6.57397,38.43606],[-6.573,38.43841],[-6.57066,38.43763],[-6.56828,38.43718],[-6.56674,38.43708],[-6.56644,38.43717],[-6.5659,38.43774],[-6.56619,38.43896],[-6.56297,38.4402],[-6.55997,38.44035],[-6.55676,38.44215],[-6.55528,38.44205],[-6.55476,38.4409],[-6.55452,38.44059],[-6.55339,38.43982],[-6.5464,38.44571],[-6.53994,38.4459],[-6.53946,38.44482],[-6.53687,38.44418],[-6.53658,38.44403],[-6.53362,38.44155],[-6.52972,38.44232],[-6.52855,38.44221],[-6.52649,38.43952],[-6.52566,38.43822],[-6.5228,38.43536],[-6.52257,38.43524],[-6.52188,38.43542],[-6.5213,38.43542],[-6.51971,38.43586],[-6.51853,38.43643],[-6.51597,38.43734],[-6.5152,38.4368],[-6.51346,38.43491],[-6.51288,38.43404],[-6.50993,38.43045],[-6.50808,38.42882],[-6.50758,38.42816],[-6.50711,38.42723],[-6.50665,38.42666],[-6.50353,38.42471],[-6.50257,38.42398],[-6.501,38.42197],[-6.49826,38.41968],[-6.49706,38.41838],[-6.49632,38.41734],[-6.49654,38.41522],[-6.4953,38.4137],[-6.49533,38.41233],[-6.49625,38.41128],[-6.49679,38.41082],[-6.49913,38.41015],[-6.50036,38.40946],[-6.50051,38.40795],[-6.49786,38.4043],[-6.49736,38.40322],[-6.49864,38.40224],[-6.49809,38.40085],[-6.49692,38.39917],[-6.49403,38.39783],[-6.49205,38.39602],[-6.49134,38.39371],[-6.49326,38.39178],[-6.49297,38.39001],[-6.49306,38.38943],[-6.49381,38.38813],[-6.49382,38.38579],[-6.49276,38.38455],[-6.49249,38.38403],[-6.49242,38.3835],[-6.49311,38.38124],[-6.49285,38.37951],[-6.49249,38.37806],[-6.49156,38.37574],[-6.49313,38.37496],[-6.4951,38.37584],[-6.49724,38.37663],[-6.49888,38.37812],[-6.50124,38.3795],[-6.5036,38.3805],[-6.50481,38.38066],[-6.50602,38.38102],[-6.50913,38.3832],[-6.51275,38.38487],[-6.51517,38.38572],[-6.51742,38.38578],[-6.51972,38.38566],[-6.52277,38.38519],[-6.52714,38.3858],[-6.53181,38.38582],[-6.54828,38.38803],[-6.55324,38.38841],[-6.55793,38.38865],[-6.56181,38.38872],[-6.56334,38.38834],[-6.56622,38.3871],[-6.5677,38.38623],[-6.56914,38.38517],[-6.57052,38.38479],[-6.57291,38.385],[-6.57478,38.38498],[-6.58175,38.38301],[-6.58421,38.38208],[-6.58521,38.38144],[-6.5871,38.38114],[-6.59052,38.38087],[-6.59309,38.37993],[-6.59498,38.37901],[-6.5956,38.3795],[-6.59832,38.37816],[-6.59978,38.37728],[-6.60356,38.37438],[-6.60367,38.37438],[-6.60627,38.37243],[-6.60878,38.37007],[-6.6113,38.36721],[-6.61566,38.36521],[-6.62338,38.36502],[-6.62609,38.3635],[-6.63183,38.36159],[-6.63296,38.3603],[-6.63512,38.35899],[-6.63703,38.35859],[-6.64713,38.35566],[-6.64854,38.35569],[-6.65181,38.35672],[-6.65296,38.35614],[-6.65377,38.35705],[-6.65422,38.36035],[-6.65468,38.36109],[-6.65481,38.36179],[-6.6547,38.36349],[-6.65545,38.36472],[-6.6568,38.36571],[-6.65725,38.36776],[-6.6579,38.36954],[-6.65796,38.37012],[-6.65878,38.37284],[-6.65939,38.37564],[-6.65978,38.37837],[-6.66003,38.3792],[-6.66078,38.38024],[-6.66101,38.38111],[-6.66163,38.3825],[-6.66146,38.38331],[-6.65937,38.38448],[-6.65919,38.38472],[-6.65886,38.38547],[-6.65882,38.38723],[-6.65937,38.3881],[-6.65968,38.38826],[-6.66024,38.38824],[-6.66092,38.38798],[-6.66139,38.38725],[-6.66161,38.38708],[-6.66193,38.38696],[-6.66261,38.38696],[-6.66306,38.38747],[-6.6638,38.38874],[-6.66343,38.38921],[-6.66296,38.38945],[-6.6627,38.38975],[-6.66268,38.39],[-6.66287,38.39037],[-6.66389,38.39166],[-6.66423,38.39245],[-6.66446,38.39272],[-6.66477,38.39289],[-6.66549,38.393],[-6.66601,38.39319],[-6.66738,38.39408],[-6.66794,38.39478],[-6.66817,38.39528],[-6.66855,38.39686],[-6.66815,38.39946],[-6.66833,38.40128],[-6.66809,38.40217],[-6.66797,38.40326],[-6.66825,38.4048],[-6.66872,38.40573],[-6.66905,38.40613],[-6.67109,38.40778],[-6.67272,38.40861],[-6.67343,38.41049],[-6.67239,38.41171],[-6.67019,38.4137],[-6.67021,38.414],[-6.67066,38.41516],[-6.67097,38.41658],[-6.67184,38.41765],[-6.67181,38.41799],[-6.67134,38.41826],[-6.66963,38.41867],[-6.66882,38.41902],[-6.66879,38.41924],[-6.66894,38.4198],[-6.66931,38.42049],[-6.66984,38.42106],[-6.67062,38.42128],[-6.67179,38.4214],[-6.67233,38.42137],[-6.67249,38.42143],[-6.67271,38.42181],[-6.67265,38.42253],[-6.67277,38.42318],[-6.67317,38.42397],[-6.67318,38.42601],[-6.67347,38.42676],[-6.67344,38.42713],[-6.67324,38.42736],[-6.67316,38.4277],[-6.67368,38.42843],[-6.67403,38.42923],[-6.67398,38.42961],[-6.67381,38.42979],[-6.67285,38.43028],[-6.67227,38.43276],[-6.67207,38.43303],[-6.6717,38.43316],[-6.67069,38.43324],[-6.67039,38.43356],[-6.67036,38.43445],[-6.67016,38.43468],[-6.66745,38.43568],[-6.6657,38.43693],[-6.66593,38.43823],[-6.66742,38.44198],[-6.66716,38.44475],[-6.66745,38.44582],[-6.6689,38.44697],[-6.66846,38.44745],[-6.66885,38.44902],[-6.66748,38.44891],[-6.66428,38.44909],[-6.66205,38.44908],[-6.65981,38.44968],[-6.65825,38.44972],[-6.65688,38.4492],[-6.65471,38.44929],[-6.65287,38.4504],[-6.65175,38.45042],[-6.65083,38.4508],[-6.64909,38.45095],[-6.64743,38.45068],[-6.64613,38.44984],[-6.6444,38.44889],[-6.64297,38.4491],[-6.64076,38.44968],[-6.63938,38.4505],[-6.63557,38.45317],[-6.63323,38.45519],[-6.63161,38.4555],[-6.62952,38.45499],[-6.62799,38.45556],[-6.62425,38.45807],[-6.61853,38.45931],[-6.61505,38.45736],[-6.61468,38.4563],[-6.6132,38.45558],[-6.61256,38.45542],[-6.60845,38.45547],[-6.60603,38.45447]]]}},{"type":"Feature","properties":{"id":"0602201003"},"geometry":{"type":"Polygon","coordinates":[[[-6.49313,38.37496],[-6.49491,38.37407],[-6.50136,38.37126],[-6.50382,38.37064],[-6.50452,38.37017],[-6.50531,38.36926],[-6.50596,38.36817],[-6.50712,38.36698],[-6.5083,38.36614],[-6.50931,38.36578],[-6.51067,38.36505],[-6.51085,38.36455],[-6.51094,38.3633],[-6.5112,38.36219],[-6.51117,38.3614],[-6.51169,38.36008],[-6.51211,38.35948],[-6.51478,38.35939],[-6.51551,38.35909],[-6.51659,38.35891],[-6.51743,38.35815],[-6.52005,38.35621],[-6.52044,38.356],[-6.52132,38.35573],[-6.52237,38.35435],[-6.52768,38.34949],[-6.52846,38.34853],[-6.52954,38.34648],[-6.52981,38.34577],[-6.53007,38.34449],[-6.53178,38.34511],[-6.53282,38.34543],[-6.53407,38.34567],[-6.53531,38.34602],[-6.53628,38.34641],[-6.53704,38.34678],[-6.53947,38.34853],[-6.53961,38.34839],[-6.5398,38.34853],[-6.54009,38.34824],[-6.53906,38.34681],[-6.53973,38.34652],[-6.54038,38.34601],[-6.54094,38.34501],[-6.54124,38.3442],[-6.54146,38.34403],[-6.54261,38.34359],[-6.54358,38.34303],[-6.54561,38.34327],[-6.5461,38.3429],[-6.54706,38.34241],[-6.54747,38.34231],[-6.54943,38.34224],[-6.55042,38.34184],[-6.55221,38.34217],[-6.5533,38.34218],[-6.55387,38.3421],[-6.55504,38.34151],[-6.5563,38.34146],[-6.55708,38.34128],[-6.55833,38.3412],[-6.5611,38.34118],[-6.56888,38.34032],[-6.56236,38.33668],[-6.56145,38.33493],[-6.56077,38.33395],[-6.55991,38.33344],[-6.55918,38.33254],[-6.5598,38.33119],[-6.55986,38.32986],[-6.56003,38.3296],[-6.56052,38.32928],[-6.56135,38.32635],[-6.56225,38.32474],[-6.56232,38.32434],[-6.56201,38.32331],[-6.56177,38.32314],[-6.56309,38.32182],[-6.56766,38.32085],[-6.56805,38.32096],[-6.56864,38.32092],[-6.57119,38.31935],[-6.57172,38.3193],[-6.57357,38.31959],[-6.57482,38.31961],[-6.57498,38.31844],[-6.57544,38.31758],[-6.57567,38.3164],[-6.57553,38.31532],[-6.57516,38.31446],[-6.57502,38.31352],[-6.57436,38.31238],[-6.57438,38.31215],[-6.57489,38.31168],[-6.57664,38.31158],[-6.57706,38.31142],[-6.57734,38.31106],[-6.57725,38.31071],[-6.57698,38.31053],[-6.57544,38.31023],[-6.57512,38.30993],[-6.57509,38.30955],[-6.5754,38.30829],[-6.57545,38.30755],[-6.57601,38.30719],[-6.57779,38.30677],[-6.57822,38.30649],[-6.57938,38.30613],[-6.58032,38.30612],[-6.58072,38.30631],[-6.5821,38.30747],[-6.58297,38.3086],[-6.58361,38.30917],[-6.58425,38.30954],[-6.58463,38.30964],[-6.58494,38.30952],[-6.58544,38.30913],[-6.58659,38.30794],[-6.58707,38.30715],[-6.58735,38.30642],[-6.58677,38.30454],[-6.58677,38.30389],[-6.58665,38.30357],[-6.58695,38.30192],[-6.58715,38.3014],[-6.58955,38.299],[-6.58995,38.29882],[-6.59254,38.29867],[-6.59337,38.29833],[-6.59467,38.29839],[-6.59758,38.2991],[-6.60006,38.29985],[-6.60115,38.29991],[-6.6018,38.30009],[-6.60443,38.30138],[-6.60545,38.30201],[-6.60604,38.30252],[-6.60645,38.30305],[-6.6064,38.3033],[-6.60597,38.30377],[-6.60534,38.30423],[-6.60538,38.30513],[-6.605,38.30638],[-6.60311,38.30795],[-6.60212,38.30891],[-6.60174,38.30942],[-6.60144,38.31025],[-6.60154,38.31059],[-6.60192,38.3108],[-6.60274,38.31099],[-6.60671,38.31126],[-6.60738,38.31121],[-6.60972,38.30988],[-6.61196,38.30894],[-6.61296,38.30811],[-6.61719,38.30514],[-6.61965,38.30377],[-6.62099,38.30333],[-6.62368,38.30287],[-6.62474,38.30291],[-6.6257,38.30322],[-6.62724,38.30437],[-6.62878,38.30683],[-6.63225,38.31164],[-6.63245,38.31176],[-6.63286,38.31182],[-6.63444,38.31166],[-6.63504,38.31141],[-6.63664,38.3106],[-6.63718,38.3102],[-6.63868,38.3086],[-6.64128,38.30929],[-6.64238,38.30991],[-6.6428,38.31066],[-6.64497,38.31349],[-6.64465,38.31526],[-6.64514,38.31995],[-6.64662,38.32686],[-6.64846,38.32884],[-6.64905,38.33153],[-6.65099,38.33224],[-6.65106,38.33321],[-6.65143,38.33371],[-6.65159,38.33452],[-6.65159,38.33488],[-6.65078,38.33649],[-6.65095,38.33705],[-6.65198,38.33838],[-6.65219,38.33885],[-6.65287,38.34317],[-6.65296,38.34593],[-6.65359,38.34803],[-6.65362,38.3505],[-6.65346,38.35155],[-6.65314,38.35191],[-6.65231,38.35248],[-6.65197,38.35303],[-6.65234,38.35528],[-6.65245,38.35556],[-6.65296,38.35614],[-6.65181,38.35672],[-6.64854,38.35569],[-6.64713,38.35566],[-6.63703,38.35859],[-6.63512,38.35899],[-6.63296,38.3603],[-6.63183,38.36159],[-6.62609,38.3635],[-6.62338,38.36502],[-6.61566,38.36521],[-6.6113,38.36721],[-6.60878,38.37007],[-6.60627,38.37243],[-6.60367,38.37438],[-6.60356,38.37438],[-6.59978,38.37728],[-6.59832,38.37816],[-6.5956,38.3795],[-6.59498,38.37901],[-6.59309,38.37993],[-6.59052,38.38087],[-6.5871,38.38114],[-6.58521,38.38144],[-6.58421,38.38208],[-6.58175,38.38301],[-6.57478,38.38498],[-6.57291,38.385],[-6.57052,38.38479],[-6.56914,38.38517],[-6.5677,38.38623],[-6.56622,38.3871],[-6.56334,38.38834],[-6.56181,38.38872],[-6.55793,38.38865],[-6.55324,38.38841],[-6.54828,38.38803],[-6.53181,38.38582],[-6.52714,38.3858],[-6.52277,38.38519],[-6.51972,38.38566],[-6.51742,38.38578],[-6.51517,38.38572],[-6.51275,38.38487],[-6.50913,38.3832],[-6.50602,38.38102],[-6.50481,38.38066],[-6.5036,38.3805],[-6.50124,38.3795],[-6.49888,38.37812],[-6.49724,38.37663],[-6.4951,38.37584],[-6.49313,38.37496]]]}}]}