{"type":"FeatureCollection","features":[{"type":"Feature","properties":{"id":"0603301001"},"geometry":{"type":"Polygon","coordinates":[[[-5.30401,39.08569],[-5.30732,39.08189],[-5.31203,39.07893],[-5.31366,39.07421],[-5.31502,39.07175],[-5.31646,39.07072],[-5.32166,39.07096],[-5.33054,39.06886],[-5.3334,39.06651],[-5.33762,39.06556],[-5.34021,39.06648],[-5.34498,39.06714],[-5.34568,39.06995],[-5.34737,39.07126],[-5.35593,39.0858],[-5.35582,39.09136],[-5.35636,39.09371],[-5.35982,39.09451],[-5.36403,39.09399],[-5.36818,39.0964],[-5.37747,39.0974],[-5.37574,39.10497],[-5.36209,39.10664],[-5.36176,39.10636],[-5.36005,39.10599],[-5.35959,39.10605],[-5.35798,39.10505],[-5.35754,39.10491],[-5.35552,39.10457],[-5.35305,39.10373],[-5.35074,39.1032],[-5.3491,39.10297],[-5.34653,39.10272],[-5.34484,39.10276],[-5.33971,39.10314],[-5.33666,39.1035],[-5.33611,39.10528],[-5.33515,39.10418],[-5.33371,39.1049],[-5.33352,39.10469],[-5.33366,39.10341],[-5.3329,39.10337],[-5.33259,39.10387],[-5.33212,39.1042],[-5.33202,39.10464],[-5.33094,39.10499],[-5.3308,39.10486],[-5.32992,39.10494],[-5.32989,39.10471],[-5.32954,39.10469],[-5.32868,39.10495],[-5.32873,39.10509],[-5.32849,39.10512],[-5.3285,39.10555],[-5.32626,39.10543],[-5.32624,39.10584],[-5.32759,39.10657],[-5.3281,39.10707],[-5.32795,39.10787],[-5.32716,39.10959],[-5.32447,39.10768],[-5.32392,39.10705],[-5.32365,39.10654],[-5.32333,39.10682],[-5.32289,39.10768],[-5.31962,39.10905],[-5.31916,39.10935],[-5.31672,39.10945],[-5.31621,39.10954],[-5.3158,39.10985],[-5.31489,39.11086],[-5.31358,39.11119],[-5.31142,39.11296],[-5.30972,39.1139],[-5.30877,39.11432],[-5.29764,39.10578],[-5.29481,39.09615],[-5.29625,39.09279],[-5.29729,39.08976],[-5.29994,39.08867],[-5.30203,39.08757],[-5.30401,39.08569]]]}},{"type":"Feature","properties":{"id":"0603302001"},"geometry":{"type":"MultiPolygon","coordinates":[[[[-5.31935,39.22162],[-5.30166,39.21568],[-5.30112,39.21268],[-5.30073,39.21158],[-5.29696,39.20385],[-5.29437,39.199],[-5.29373,39.19748],[-5.29269,39.1929],[-5.29385,39.19128],[-5.29396,39.19041],[-5.29398,39.18832],[-5.2961,39.18724],[-5.29715,39.18509],[-5.29649,39.18358],[-5.29769,39.18239],[-5.29661,39.17897],[-5.2961,39.17775],[-5.29423,39.17447],[-5.29408,39.17353],[-5.29406,39.17219],[-5.29183,39.17],[-5.28923,39.16892],[-5.28719,39.16792],[-5.28562,39.16685],[-5.28499,39.16475],[-5.28453,39.16361],[-5.28213,39.16185],[-5.27981,39.16078],[-5.27745,39.15987],[-5.2744,39.15918],[-5.2731,39.15837],[-5.27014,39.15765],[-5.2658,39.15629],[-5.26392,39.15536],[-5.2619,39.15474],[-5.25551,39.15247],[-5.25602,39.14798],[-5.25696,39.14186],[-5.25712,39.13638],[-5.26906,39.13317],[-5.27565,39.13149],[-5.28077,39.13166],[-5.28636,39.13197],[-5.28893,39.13212],[-5.29751,39.13631],[-5.29971,39.13673],[-5.31805,39.13968],[-5.32066,39.13997],[-5.3217,39.11938],[-5.3162,39.12003],[-5.30877,39.11432],[-5.30972,39.1139],[-5.31142,39.11296],[-5.31358,39.11119],[-5.31489,39.11086],[-5.3158,39.10985],[-5.31621,39.10954],[-5.31672,39.10945],[-5.31916,39.10935],[-5.31962,39.10905],[-5.32289,39.10768],[-5.32333,39.10682],[-5.32365,39.10654],[-5.32392,39.10705],[-5.32447,39.10768],[-5.32716,39.10959],[-5.32795,39.10787],[-5.3281,39.10707],[-5.32759,39.10657],[-5.32624,39.10584],[-5.32626,39.10543],[-5.3285,39.10555],[-5.32849,39.10512],[-5.32873,39.10509],[-5.32868,39.10495],[-5.32954,39.10469],[-5.32989,39.10471],[-5.32992,39.10494],[-5.3308,39.10486],[-5.33094,39.10499],[-5.33202,39.10464],[-5.33212,39.1042],[-5.33259,39.10387],[-5.3329,39.10337],[-5.33366,39.10341],[-5.33352,39.10469],[-5.33371,39.1049],[-5.33515,39.10418],[-5.33611,39.10528],[-5.33666,39.1035],[-5.33971,39.10314],[-5.34484,39.10276],[-5.34653,39.10272],[-5.3491,39.10297],[-5.35074,39.1032],[-5.35305,39.10373],[-5.35552,39.10457],[-5.35754,39.10491],[-5.35798,39.10505],[-5.35959,39.10605],[-5.36005,39.10599],[-5.36176,39.10636],[-5.36209,39.10664],[-5.37574,39.10497],[-5.37543,39.10633],[-5.37665,39.10822],[-5.37849,39.11367],[-5.37847,39.1192],[-5.36162,39.1311],[-5.34581,39.1368],[-5.33672,39.13825],[-5.33731,39.13967],[-5.34092,39.14296],[-5.33916,39.14469],[-5.34105,39.15097],[-5.34146,39.16025],[-5.34306,39.16614],[-5.34363,39.16772],[-5.34412,39.17276],[-5.346,39.17501],[-5.34731,39.17892],[-5.34654,39.18102],[-5.34761,39.18443],[-5.34143,39.18274],[-5.33724,39.18228],[-5.33445,39.18086],[-5.33203,39.18276],[-5.32701,39.18159],[-5.32449,39.18052],[-5.31943,39.18034],[-5.31699,39.18301],[-5.31836,39.18433],[-5.32607,39.19812],[-5.33112,39.20846],[-5.3143,39.21147],[-5.30461,39.21583],[-5.31996,39.22087],[-5.33036,39.21919],[-5.34584,39.21599],[-5.35176,39.21274],[-5.35071,39.21688],[-5.35107,39.22139],[-5.35051,39.22586],[-5.35063,39.23091],[-5.34905,39.23356],[-5.34838,39.23604],[-5.34715,39.23916],[-5.34722,39.23966],[-5.34773,39.24082],[-5.34794,39.24174],[-5.34696,39.24443],[-5.34681,39.24554],[-5.34713,39.24795],[-5.34792,39.24931],[-5.35025,39.25179],[-5.35116,39.25299],[-5.3524,39.25374],[-5.35283,39.25415],[-5.35334,39.25553],[-5.35359,39.25761],[-5.3538,39.25812],[-5.35488,39.25941],[-5.35523,39.26027],[-5.35552,39.26208],[-5.35538,39.26779],[-5.35524,39.26899],[-5.35504,39.26974],[-5.35424,39.27183],[-5.35271,39.28606],[-5.34946,39.29764],[-5.34824,39.30233],[-5.34784,39.30576],[-5.34752,39.30751],[-5.34655,39.31104],[-5.34637,39.31206],[-5.34512,39.31517],[-5.34375,39.31926],[-5.34351,39.32168],[-5.34177,39.32701],[-5.34001,39.33331],[-5.33211,39.28609],[-5.33062,39.27613],[-5.32112,39.2423],[-5.31935,39.22162]]],[[[-5.21498,39.23995],[-5.21901,39.23539],[-5.22043,39.23353],[-5.22095,39.2272],[-5.22335,39.22605],[-5.22459,39.22557],[-5.22784,39.22317],[-5.22946,39.2218],[-5.23278,39.21855],[-5.23773,39.21437],[-5.23853,39.2144],[-5.24231,39.21487],[-5.2433,39.2149],[-5.2448,39.21487],[-5.25121,39.21442],[-5.25236,39.21422],[-5.25392,39.21351],[-5.25481,39.21291],[-5.25535,39.21232],[-5.25756,39.215],[-5.2595,39.21754],[-5.25958,39.21817],[-5.26153,39.2201],[-5.26228,39.22116],[-5.26316,39.22307],[-5.2653,39.22714],[-5.2663,39.22842],[-5.2681,39.22999],[-5.26884,39.23089],[-5.26992,39.23182],[-5.27111,39.23236],[-5.2722,39.23271],[-5.27293,39.23309],[-5.27435,39.2334],[-5.27697,39.23497],[-5.2786,39.23536],[-5.28069,39.2361],[-5.28346,39.23686],[-5.28561,39.23421],[-5.28737,39.23286],[-5.28827,39.23105],[-5.28852,39.23081],[-5.29679,39.25866],[-5.30081,39.2613],[-5.29012,39.27653],[-5.28037,39.28496],[-5.28144,39.2965],[-5.27803,39.29447],[-5.27542,39.29221],[-5.27399,39.2905],[-5.27262,39.28933],[-5.27201,39.28902],[-5.27044,39.28865],[-5.26981,39.2883],[-5.26886,39.28741],[-5.26781,39.28708],[-5.26577,39.28585],[-5.26317,39.28344],[-5.26041,39.28136],[-5.25728,39.27861],[-5.25564,39.27759],[-5.25473,39.27652],[-5.25293,39.27588],[-5.25212,39.2747],[-5.25141,39.27405],[-5.24907,39.27233],[-5.24441,39.26863],[-5.24341,39.26764],[-5.243,39.26644],[-5.24236,39.26593],[-5.24142,39.26545],[-5.23494,39.25968],[-5.23432,39.25882],[-5.23003,39.25495],[-5.2281,39.25371],[-5.22788,39.25261],[-5.22765,39.25227],[-5.2269,39.25176],[-5.22593,39.2509],[-5.22391,39.24855],[-5.22049,39.24533],[-5.21964,39.24357],[-5.21883,39.24308],[-5.21781,39.24281],[-5.21728,39.24244],[-5.21712,39.24211],[-5.21498,39.23995]]],[[[-5.21545,39.00066],[-5.21414,39.00037],[-5.21318,39.00075],[-5.2129,39.00098],[-5.21267,39.00142],[-5.21103,39.00344],[-5.21026,39.00415],[-5.21006,39.00198],[-5.21014,38.99783],[-5.2099,38.99571],[-5.20972,38.99549],[-5.20911,38.99518],[-5.20639,38.99435],[-5.20395,38.99424],[-5.20321,38.99408],[-5.1976,38.99224],[-5.19631,38.99116],[-5.19467,38.99084],[-5.19356,38.9904],[-5.19253,38.98959],[-5.19083,38.9878],[-5.19237,38.98241],[-5.19256,38.98135],[-5.19263,38.97994],[-5.19208,38.97697],[-5.19283,38.97529],[-5.19428,38.97371],[-5.19721,38.97353],[-5.19829,38.97332],[-5.2012,38.97389],[-5.20481,38.97269],[-5.20761,38.97424],[-5.20789,38.97602],[-5.20733,38.97657],[-5.21115,38.98543],[-5.21758,38.98823],[-5.23014,38.9908],[-5.23254,38.99251],[-5.2342,38.99183],[-5.23554,38.99216],[-5.23728,38.99513],[-5.23536,38.99719],[-5.23377,39.00015],[-5.22836,39.00686],[-5.22549,39.01085],[-5.22465,39.01047],[-5.22354,39.01022],[-5.22145,39.00792],[-5.22215,39.00694],[-5.22375,39.00507],[-5.22293,39.00423],[-5.22215,39.00366],[-5.21853,39.00201],[-5.2176,39.00146],[-5.21545,39.00066]]],[[[-5.37931,39.10935],[-5.37686,39.10543],[-5.37835,39.10027],[-5.37899,39.09757],[-5.39931,39.09392],[-5.39812,39.09921],[-5.39522,39.1095],[-5.39101,39.10953],[-5.39027,39.1091],[-5.38959,39.10855],[-5.38961,39.11036],[-5.38943,39.11141],[-5.38905,39.1124],[-5.38765,39.11472],[-5.38205,39.11502],[-5.38084,39.11215],[-5.37931,39.10935]]]]}}]}