{"type":"FeatureCollection","features":[{"type":"Feature","properties":{"id":"0606701001"},"geometry":{"type":"Polygon","coordinates":[[[-6.65924,38.1418],[-6.66841,38.13802],[-6.67042,38.13773],[-6.67229,38.13931],[-6.67491,38.13956],[-6.67903,38.1398],[-6.68024,38.13951],[-6.68173,38.13983],[-6.68248,38.13976],[-6.68351,38.13923],[-6.68571,38.13878],[-6.68687,38.13972],[-6.68726,38.13958],[-6.68732,38.13944],[-6.68771,38.13937],[-6.68813,38.14083],[-6.6886,38.14131],[-6.68897,38.14107],[-6.68944,38.14099],[-6.68996,38.14124],[-6.69038,38.14176],[-6.69049,38.1422],[-6.69099,38.14259],[-6.69092,38.14276],[-6.69177,38.14337],[-6.69236,38.14449],[-6.69426,38.14144],[-6.69621,38.14137],[-6.70765,38.14355],[-6.70943,38.14441],[-6.71219,38.1431],[-6.72357,38.14198],[-6.72947,38.142],[-6.73189,38.14303],[-6.73696,38.14353],[-6.74092,38.14543],[-6.74442,38.14539],[-6.74826,38.14683],[-6.75011,38.14822],[-6.75461,38.15121],[-6.75699,38.15182],[-6.76465,38.15348],[-6.76726,38.15444],[-6.77093,38.15764],[-6.78083,38.16188],[-6.78262,38.16243],[-6.78703,38.16265],[-6.79064,38.16328],[-6.79345,38.1633],[-6.79286,38.16634],[-6.79291,38.16656],[-6.79316,38.16677],[-6.79329,38.17015],[-6.79283,38.17295],[-6.79287,38.17332],[-6.79317,38.17373],[-6.79393,38.17567],[-6.79455,38.17695],[-6.79504,38.17839],[-6.79541,38.17854],[-6.79148,38.17938],[-6.78899,38.17979],[-6.78623,38.18102],[-6.78456,38.18152],[-6.78337,38.18202],[-6.78101,38.18283],[-6.77974,38.18339],[-6.77505,38.18577],[-6.77404,38.18667],[-6.77244,38.1874],[-6.77214,38.18763],[-6.77146,38.1885],[-6.76978,38.18937],[-6.76648,38.19145],[-6.76345,38.19299],[-6.76094,38.19375],[-6.76032,38.19413],[-6.75946,38.19494],[-6.75913,38.19512],[-6.75574,38.19543],[-6.75505,38.19517],[-6.7527,38.19455],[-6.75179,38.19444],[-6.75061,38.19449],[-6.74588,38.19514],[-6.74252,38.1955],[-6.74077,38.19625],[-6.74036,38.19652],[-6.73955,38.19736],[-6.73903,38.19755],[-6.73567,38.19791],[-6.73433,38.19842],[-6.73267,38.19862],[-6.73138,38.19898],[-6.72999,38.19995],[-6.73024,38.20053],[-6.72845,38.2011],[-6.72821,38.20167],[-6.71847,38.20679],[-6.71827,38.20631],[-6.71773,38.20607],[-6.71583,38.20566],[-6.71534,38.2055],[-6.71506,38.20531],[-6.71468,38.2045],[-6.71427,38.203],[-6.71347,38.20201],[-6.71317,38.20128],[-6.7133,38.20101],[-6.71372,38.20061],[-6.71381,38.19956],[-6.71427,38.19934],[-6.71419,38.19865],[-6.71295,38.1989],[-6.7121,38.19828],[-6.7112,38.19792],[-6.71028,38.19608],[-6.71003,38.1958],[-6.70898,38.19507],[-6.70814,38.19469],[-6.70617,38.19427],[-6.7039,38.19346],[-6.70272,38.19259],[-6.70242,38.19217],[-6.70226,38.19152],[-6.70206,38.18967],[-6.70125,38.1895],[-6.70087,38.18925],[-6.70019,38.18853],[-6.69683,38.18416],[-6.69556,38.18197],[-6.69554,38.18153],[-6.69584,38.18064],[-6.69543,38.18028],[-6.69385,38.17777],[-6.69293,38.17686],[-6.69297,38.17609],[-6.69235,38.17543],[-6.69193,38.17387],[-6.6899,38.17326],[-6.6884,38.1723],[-6.68799,38.17214],[-6.68414,38.17131],[-6.68333,38.17035],[-6.68082,38.16675],[-6.67986,38.16567],[-6.67747,38.15832],[-6.67641,38.15668],[-6.66865,38.14716],[-6.66817,38.14603],[-6.66587,38.14529],[-6.66204,38.14318],[-6.65951,38.14186],[-6.65924,38.1418]]]}},{"type":"Feature","properties":{"id":"0606701002"},"geometry":{"type":"Polygon","coordinates":[[[-6.68772,38.13937],[-6.68841,38.13932],[-6.68969,38.13947],[-6.68983,38.13897],[-6.68999,38.13897],[-6.6931,38.13983],[-6.69334,38.13907],[-6.69409,38.1388],[-6.6944,38.14143],[-6.69426,38.14144],[-6.69236,38.14449],[-6.69177,38.14337],[-6.69092,38.14276],[-6.69099,38.14259],[-6.69049,38.1422],[-6.69038,38.14176],[-6.68996,38.14124],[-6.68944,38.14099],[-6.68897,38.14107],[-6.6886,38.14131],[-6.68813,38.14083],[-6.68772,38.13937]]]}},{"type":"Feature","properties":{"id":"0606701003"},"geometry":{"type":"Polygon","coordinates":[[[-6.6944,38.14143],[-6.69409,38.1388],[-6.69334,38.13907],[-6.6931,38.13983],[-6.68999,38.13897],[-6.68983,38.13897],[-6.68969,38.13947],[-6.68841,38.13932],[-6.68777,38.13936],[-6.68732,38.13944],[-6.68726,38.13958],[-6.68687,38.13972],[-6.68571,38.13878],[-6.68351,38.13923],[-6.68248,38.13976],[-6.68173,38.13983],[-6.68024,38.13951],[-6.67903,38.1398],[-6.67491,38.13956],[-6.67229,38.13931],[-6.67042,38.13773],[-6.66841,38.13802],[-6.65924,38.1418],[-6.65539,38.14103],[-6.65506,38.14075],[-6.65372,38.13807],[-6.65274,38.13649],[-6.65194,38.136],[-6.64785,38.13439],[-6.64768,38.13423],[-6.64763,38.13381],[-6.64715,38.1329],[-6.64694,38.12791],[-6.64702,38.12718],[-6.64739,38.12617],[-6.64683,38.12407],[-6.64616,38.12311],[-6.64508,38.12062],[-6.64485,38.11983],[-6.64461,38.11944],[-6.63936,38.113],[-6.63894,38.11156],[-6.63774,38.11051],[-6.63575,38.10742],[-6.63552,38.10668],[-6.63544,38.10571],[-6.63605,38.1001],[-6.63633,38.09909],[-6.63765,38.09621],[-6.63832,38.09628],[-6.63976,38.09623],[-6.64043,38.09672],[-6.64089,38.09732],[-6.64127,38.0975],[-6.6417,38.09757],[-6.64206,38.09753],[-6.64271,38.09723],[-6.64351,38.09664],[-6.6442,38.09527],[-6.64525,38.0939],[-6.64541,38.09323],[-6.64538,38.09247],[-6.64617,38.09125],[-6.64658,38.09098],[-6.64893,38.09006],[-6.6493,38.09002],[-6.65045,38.09067],[-6.6511,38.09158],[-6.65152,38.0927],[-6.65142,38.09307],[-6.65081,38.0941],[-6.65005,38.09516],[-6.65012,38.09533],[-6.65303,38.09648],[-6.65371,38.09646],[-6.65471,38.0962],[-6.65598,38.09558],[-6.65649,38.09551],[-6.65793,38.09554],[-6.65871,38.09526],[-6.65898,38.09468],[-6.65882,38.09372],[-6.65891,38.0929],[-6.65931,38.09256],[-6.66037,38.09237],[-6.66104,38.09252],[-6.6619,38.09288],[-6.66315,38.09291],[-6.6636,38.0931],[-6.66417,38.09369],[-6.66492,38.09398],[-6.66638,38.09425],[-6.66787,38.09421],[-6.66947,38.09459],[-6.67087,38.09451],[-6.67214,38.09427],[-6.6725,38.09429],[-6.67264,38.09442],[-6.67287,38.09503],[-6.67357,38.0958],[-6.67411,38.09599],[-6.67491,38.09601],[-6.67534,38.09574],[-6.67555,38.09545],[-6.6759,38.0953],[-6.6768,38.0954],[-6.67722,38.09565],[-6.67824,38.09669],[-6.68002,38.09743],[-6.68043,38.09747],[-6.68074,38.09733],[-6.68092,38.09708],[-6.68136,38.09688],[-6.68214,38.0968],[-6.68193,38.09647],[-6.68214,38.0968],[-6.68411,38.09718],[-6.68487,38.09721],[-6.68603,38.09758],[-6.68649,38.09784],[-6.68659,38.09815],[-6.68652,38.09904],[-6.68671,38.09939],[-6.68724,38.09976],[-6.68767,38.09987],[-6.6881,38.10011],[-6.68867,38.10023],[-6.68961,38.10014],[-6.68996,38.10003],[-6.69017,38.09973],[-6.68991,38.09903],[-6.68985,38.09846],[-6.69019,38.09699],[-6.69083,38.09573],[-6.69182,38.09494],[-6.69261,38.09473],[-6.69389,38.09457],[-6.69488,38.09456],[-6.69584,38.09468],[-6.6966,38.09493],[-6.69768,38.09579],[-6.69821,38.09602],[-6.69914,38.09605],[-6.70157,38.09584],[-6.70486,38.09615],[-6.7059,38.09658],[-6.7069,38.09653],[-6.70752,38.09644],[-6.7086,38.09588],[-6.71134,38.09495],[-6.71192,38.09483],[-6.71344,38.09352],[-6.71396,38.09275],[-6.71427,38.0926],[-6.71504,38.09249],[-6.71546,38.09262],[-6.71577,38.09287],[-6.71593,38.09336],[-6.71589,38.09427],[-6.71629,38.09506],[-6.71674,38.09661],[-6.71674,38.09718],[-6.71709,38.09791],[-6.7171,38.09922],[-6.71697,38.09992],[-6.71724,38.10019],[-6.71764,38.10035],[-6.71827,38.1005],[-6.71975,38.10062],[-6.72031,38.10057],[-6.72068,38.10038],[-6.72203,38.09931],[-6.72324,38.09817],[-6.72348,38.09744],[-6.72378,38.09706],[-6.72417,38.09691],[-6.72659,38.0973],[-6.72686,38.09749],[-6.72705,38.09783],[-6.72707,38.09824],[-6.72691,38.09882],[-6.72694,38.09934],[-6.72713,38.09971],[-6.72815,38.1],[-6.72904,38.09978],[-6.72939,38.0995],[-6.73022,38.0987],[-6.73074,38.09834],[-6.73104,38.09772],[-6.73188,38.09664],[-6.7343,38.0948],[-6.73516,38.09394],[-6.73522,38.09371],[-6.73511,38.09347],[-6.73486,38.09337],[-6.73401,38.09322],[-6.73285,38.0933],[-6.73231,38.09323],[-6.73183,38.09306],[-6.73077,38.09247],[-6.73046,38.09244],[-6.73022,38.09175],[-6.73035,38.09135],[-6.73077,38.09071],[-6.73129,38.09032],[-6.73199,38.09005],[-6.73282,38.08995],[-6.73323,38.09001],[-6.73537,38.09084],[-6.73637,38.09085],[-6.73688,38.091],[-6.73733,38.09123],[-6.73767,38.09165],[-6.73806,38.09192],[-6.73982,38.09243],[-6.74069,38.09281],[-6.74224,38.09331],[-6.74299,38.09316],[-6.7458,38.09177],[-6.74682,38.09148],[-6.74731,38.09141],[-6.74768,38.09146],[-6.74804,38.09171],[-6.74893,38.09275],[-6.7504,38.09372],[-6.75102,38.09386],[-6.75183,38.09383],[-6.75268,38.09364],[-6.75293,38.09368],[-6.75367,38.09451],[-6.75419,38.09495],[-6.75449,38.09501],[-6.7548,38.09495],[-6.75528,38.09465],[-6.75735,38.0929],[-6.75794,38.09267],[-6.75822,38.09271],[-6.75843,38.09289],[-6.75873,38.09457],[-6.75953,38.09647],[-6.76102,38.09787],[-6.76167,38.098],[-6.76366,38.09794],[-6.76435,38.09802],[-6.76666,38.09894],[-6.76891,38.09896],[-6.77009,38.09946],[-6.76989,38.09987],[-6.7696,38.10009],[-6.76457,38.10241],[-6.76438,38.10288],[-6.76476,38.10356],[-6.76453,38.10481],[-6.76493,38.106],[-6.76526,38.10613],[-6.76578,38.10611],[-6.76641,38.10592],[-6.76851,38.10474],[-6.76919,38.10455],[-6.7703,38.10395],[-6.77105,38.10333],[-6.77136,38.10319],[-6.77173,38.10318],[-6.77211,38.10332],[-6.7732,38.1041],[-6.77364,38.10467],[-6.77362,38.10513],[-6.77338,38.10543],[-6.77236,38.10617],[-6.7709,38.10813],[-6.76962,38.11037],[-6.76944,38.11115],[-6.76949,38.11155],[-6.76975,38.11196],[-6.77005,38.11211],[-6.77217,38.11232],[-6.77282,38.11254],[-6.77433,38.11272],[-6.77486,38.11264],[-6.77621,38.11209],[-6.77884,38.10945],[-6.77936,38.10919],[-6.78035,38.10902],[-6.78058,38.10929],[-6.7814,38.11105],[-6.78236,38.11174],[-6.78334,38.11192],[-6.78478,38.11158],[-6.78633,38.11095],[-6.78771,38.11009],[-6.78815,38.10968],[-6.78916,38.10917],[-6.79086,38.10992],[-6.79166,38.11008],[-6.79226,38.11011],[-6.79376,38.11001],[-6.79479,38.11009],[-6.79554,38.11048],[-6.79591,38.11051],[-6.79652,38.11039],[-6.79688,38.11047],[-6.79728,38.11073],[-6.7975,38.11108],[-6.79731,38.11282],[-6.79748,38.11338],[-6.79783,38.11388],[-6.79887,38.11461],[-6.79945,38.11478],[-6.79995,38.1148],[-6.80042,38.11464],[-6.80179,38.11389],[-6.80365,38.11257],[-6.80532,38.11153],[-6.80589,38.11131],[-6.80693,38.11111],[-6.80782,38.11111],[-6.80834,38.11124],[-6.80911,38.11173],[-6.81071,38.11362],[-6.8116,38.11422],[-6.81264,38.11514],[-6.81312,38.11575],[-6.81364,38.11685],[-6.81484,38.11894],[-6.81582,38.12014],[-6.81612,38.12015],[-6.81582,38.12014],[-6.8153,38.12157],[-6.81337,38.12383],[-6.81296,38.12505],[-6.81284,38.1257],[-6.8129,38.12594],[-6.81314,38.12621],[-6.81316,38.12644],[-6.81286,38.1273],[-6.81169,38.12805],[-6.81112,38.12987],[-6.81046,38.13078],[-6.81036,38.13112],[-6.81046,38.13158],[-6.81028,38.13266],[-6.81011,38.13302],[-6.80939,38.1339],[-6.80914,38.1347],[-6.80853,38.13554],[-6.80639,38.13801],[-6.80452,38.1398],[-6.79954,38.1438],[-6.79908,38.15017],[-6.7989,38.15524],[-6.79877,38.15541],[-6.79722,38.15639],[-6.79547,38.15806],[-6.7949,38.15907],[-6.79445,38.15955],[-6.79426,38.15987],[-6.79421,38.16058],[-6.79456,38.16205],[-6.79446,38.16259],[-6.79427,38.16291],[-6.79361,38.16297],[-6.79345,38.1633],[-6.79064,38.16328],[-6.78703,38.16265],[-6.78262,38.16243],[-6.78083,38.16188],[-6.77093,38.15764],[-6.76726,38.15444],[-6.76465,38.15348],[-6.75699,38.15182],[-6.75461,38.15121],[-6.75011,38.14822],[-6.74826,38.14683],[-6.74442,38.14539],[-6.74092,38.14543],[-6.73696,38.14353],[-6.73189,38.14303],[-6.72947,38.142],[-6.72357,38.14198],[-6.71219,38.1431],[-6.70943,38.14441],[-6.70765,38.14355],[-6.69621,38.14137],[-6.6944,38.14143]]]}}]}