{"type":"FeatureCollection","features":[{"type":"Feature","properties":{"id":"0606001001"},"geometry":{"type":"Polygon","coordinates":[[[-5.99178,38.91193],[-5.99085,38.91004],[-5.99026,38.90734],[-5.99172,38.90396],[-5.99197,38.903],[-5.99203,38.90198],[-5.99184,38.90069],[-5.99149,38.8996],[-5.99126,38.89907],[-5.98737,38.89586],[-5.98646,38.89276],[-5.98674,38.89219],[-5.9865,38.8906],[-5.98495,38.88717],[-5.98434,38.88662],[-5.98279,38.88596],[-5.9833,38.88437],[-5.98383,38.88208],[-5.98613,38.88062],[-5.98807,38.87772],[-5.98865,38.8772],[-5.99053,38.87331],[-5.992,38.87241],[-5.9938,38.87094],[-5.99586,38.86945],[-5.99599,38.86816],[-5.99675,38.86759],[-5.99716,38.86624],[-5.99569,38.86521],[-5.99615,38.86167],[-5.9961,38.86114],[-5.99488,38.85969],[-5.99624,38.85652],[-5.9949,38.85533],[-5.99463,38.8528],[-5.99288,38.85047],[-5.99251,38.84873],[-5.99159,38.8472],[-5.99213,38.8412],[-5.99238,38.8397],[-5.99235,38.83879],[-5.98962,38.83523],[-6.02577,38.83625],[-6.03018,38.83388],[-6.03235,38.83523],[-6.03457,38.83765],[-6.03653,38.83774],[-6.03703,38.83796],[-6.0375,38.83782],[-6.03812,38.83787],[-6.03877,38.8382],[-6.03928,38.83898],[-6.03928,38.83969],[-6.04239,38.83975],[-6.04433,38.83967],[-6.04945,38.83906],[-6.05016,38.8389],[-6.05081,38.8367],[-6.04943,38.83316],[-6.05001,38.83229],[-6.04963,38.83062],[-6.04955,38.8296],[-6.04655,38.82884],[-6.04553,38.82632],[-6.04509,38.82449],[-6.0455,38.82308],[-6.04552,38.82193],[-6.0454,38.82128],[-6.0452,38.82066],[-6.04441,38.81943],[-6.04368,38.81859],[-6.0421,38.81761],[-6.04065,38.81641],[-6.0394,38.8156],[-6.0386,38.8149],[-6.03731,38.81325],[-6.0368,38.81196],[-6.03682,38.81146],[-6.03737,38.80993],[-6.03734,38.80964],[-6.03689,38.80914],[-6.03661,38.80811],[-6.03558,38.80675],[-6.03536,38.80579],[-6.03534,38.80465],[-6.03491,38.80253],[-6.0327,38.79763],[-6.03325,38.79609],[-6.03391,38.79503],[-6.03444,38.7946],[-6.03741,38.79337],[-6.0391,38.7925],[-6.04073,38.79148],[-6.04291,38.78831],[-6.04383,38.78576],[-6.04443,38.78463],[-6.04534,38.78332],[-6.04526,38.78298],[-6.03741,38.77302],[-6.0279,38.76168],[-6.0218,38.75408],[-6.03235,38.75179],[-6.0423,38.74988],[-6.0485,38.75152],[-6.05515,38.75341],[-6.06347,38.75541],[-6.06907,38.75696],[-6.07322,38.75796],[-6.07661,38.75995],[-6.07844,38.76083],[-6.08007,38.76178],[-6.08118,38.76211],[-6.08204,38.7629],[-6.08481,38.76458],[-6.09143,38.76805],[-6.09374,38.76902],[-6.09659,38.77306],[-6.09824,38.77585],[-6.09865,38.77716],[-6.09874,38.77789],[-6.10036,38.77893],[-6.1005,38.77916],[-6.1012,38.78235],[-6.10269,38.78683],[-6.10424,38.78975],[-6.10502,38.79157],[-6.10518,38.79222],[-6.10514,38.79409],[-6.1046,38.79615],[-6.10422,38.79682],[-6.10315,38.80025],[-6.10165,38.80178],[-6.09891,38.80299],[-6.09266,38.80525],[-6.09174,38.80578],[-6.08985,38.80711],[-6.08769,38.80898],[-6.08023,38.81283],[-6.07934,38.81401],[-6.07189,38.82269],[-6.07175,38.82312],[-6.07192,38.82549],[-6.07316,38.82566],[-6.07332,38.82748],[-6.07342,38.82769],[-6.07522,38.8289],[-6.07944,38.83352],[-6.08285,38.83683],[-6.08355,38.83793],[-6.08409,38.83918],[-6.08467,38.84019],[-6.08807,38.84445],[-6.09084,38.84431],[-6.09151,38.84402],[-6.09306,38.84297],[-6.09368,38.84279],[-6.09431,38.84276],[-6.09507,38.84298],[-6.09603,38.84342],[-6.09754,38.84268],[-6.09896,38.84362],[-6.09937,38.8436],[-6.09981,38.84296],[-6.10004,38.84311],[-6.10014,38.84296],[-6.10213,38.84417],[-6.10107,38.84659],[-6.10042,38.84753],[-6.09998,38.84878],[-6.09913,38.85023],[-6.09882,38.85097],[-6.09876,38.85161],[-6.09833,38.85234],[-6.098,38.85597],[-6.09713,38.85822],[-6.0972,38.8602],[-6.0944,38.86009],[-6.09189,38.86132],[-6.09118,38.8615],[-6.08895,38.8624],[-6.07344,38.868],[-6.07006,38.8684],[-6.06624,38.86945],[-6.06329,38.86929],[-6.05572,38.87191],[-6.05456,38.87088],[-6.05385,38.87054],[-6.05324,38.86997],[-6.053,38.86916],[-6.05233,38.86852],[-6.05093,38.86767],[-6.05051,38.86756],[-6.05019,38.86756],[-6.04858,38.86795],[-6.04741,38.86857],[-6.04629,38.86941],[-6.04559,38.86981],[-6.04413,38.87034],[-6.04338,38.87366],[-6.04121,38.87733],[-6.03965,38.88043],[-6.03715,38.88294],[-6.03558,38.88517],[-6.03799,38.88877],[-6.03694,38.8917],[-6.03516,38.89575],[-6.03741,38.90155],[-6.03786,38.9034],[-6.03944,38.90694],[-6.04019,38.90982],[-6.03767,38.91757],[-6.03484,38.91707],[-6.03136,38.91674],[-6.02924,38.91665],[-6.02638,38.91766],[-6.02399,38.91858],[-6.02347,38.9189],[-6.02314,38.91951],[-6.02265,38.92254],[-6.02221,38.92317],[-6.02155,38.92374],[-6.02024,38.92453],[-6.01851,38.92533],[-6.01685,38.9258],[-6.01224,38.92653],[-6.0086,38.92793],[-6.00762,38.92694],[-6.00661,38.92621],[-6.00566,38.92595],[-6.004,38.92576],[-6.0032,38.92553],[-6.00281,38.9249],[-6.00253,38.92349],[-6.00209,38.92225],[-6.00149,38.92121],[-6.00121,38.92018],[-6.0011,38.91783],[-6.00066,38.91721],[-5.99567,38.91378],[-5.99235,38.91253],[-5.99178,38.91193]]]}},{"type":"Feature","properties":{"id":"0606001002"},"geometry":{"type":"Polygon","coordinates":[[[-6.09169,38.86137],[-6.0944,38.86009],[-6.0972,38.8602],[-6.09713,38.85822],[-6.09722,38.85792],[-6.1007,38.85866],[-6.10115,38.85883],[-6.10104,38.85903],[-6.10106,38.85957],[-6.10078,38.85962],[-6.10124,38.86031],[-6.10127,38.86154],[-6.10085,38.86212],[-6.10143,38.86246],[-6.10115,38.86286],[-6.10131,38.86295],[-6.09965,38.86479],[-6.09896,38.86534],[-6.09795,38.86593],[-6.0973,38.86475],[-6.09629,38.86523],[-6.09169,38.86137]]]}},{"type":"Feature","properties":{"id":"0606002001"},"geometry":{"type":"Polygon","coordinates":[[[-6.10014,38.86428],[-6.10131,38.86295],[-6.10115,38.86286],[-6.10143,38.86246],[-6.10085,38.86212],[-6.10127,38.86154],[-6.10124,38.86031],[-6.10078,38.85962],[-6.10106,38.85957],[-6.10104,38.85903],[-6.10115,38.85883],[-6.10227,38.85924],[-6.10391,38.85963],[-6.10406,38.85983],[-6.10452,38.85973],[-6.10559,38.86103],[-6.10642,38.86083],[-6.10687,38.86208],[-6.1074,38.86178],[-6.10786,38.86171],[-6.1092,38.86176],[-6.11003,38.8637],[-6.11023,38.86458],[-6.11031,38.86566],[-6.10585,38.86458],[-6.10394,38.86641],[-6.10217,38.86534],[-6.10118,38.86616],[-6.10143,38.86487],[-6.10014,38.86428]]]}},{"type":"Feature","properties":{"id":"0606002002"},"geometry":{"type":"Polygon","coordinates":[[[-6.10115,38.85883],[-6.09966,38.85844],[-6.10001,38.8577],[-6.10167,38.85732],[-6.10336,38.85724],[-6.1049,38.85742],[-6.10582,38.85837],[-6.1082,38.85852],[-6.10733,38.85932],[-6.10755,38.85939],[-6.10968,38.85925],[-6.11134,38.85895],[-6.10959,38.85993],[-6.10947,38.86015],[-6.1081,38.86138],[-6.10687,38.86208],[-6.10642,38.86083],[-6.10559,38.86103],[-6.10452,38.85973],[-6.10406,38.85983],[-6.10391,38.85963],[-6.10227,38.85924],[-6.10115,38.85883]]]}},{"type":"Feature","properties":{"id":"0606003001"},"geometry":{"type":"Polygon","coordinates":[[[-6.05934,38.96148],[-6.0612,38.93636],[-6.06087,38.93636],[-6.06206,38.93519],[-6.05981,38.9348],[-6.06155,38.93436],[-6.06413,38.93396],[-6.06797,38.93366],[-6.06783,38.93245],[-6.06822,38.93083],[-6.06872,38.92968],[-6.07024,38.92819],[-6.07156,38.92731],[-6.07304,38.92698],[-6.0796,38.92708],[-6.08147,38.92692],[-6.08455,38.92714],[-6.08546,38.92709],[-6.08751,38.92789],[-6.08784,38.92789],[-6.08951,38.92753],[-6.08985,38.92847],[-6.09066,38.93013],[-6.09216,38.9317],[-6.09267,38.93202],[-6.09353,38.93159],[-6.09426,38.93105],[-6.09556,38.92948],[-6.09679,38.9283],[-6.09837,38.92711],[-6.10025,38.92592],[-6.10219,38.92498],[-6.10424,38.92419],[-6.10758,38.92309],[-6.10877,38.9224],[-6.11366,38.91909],[-6.12152,38.91193],[-6.11396,38.9062],[-6.11329,38.9062],[-6.11205,38.90522],[-6.11066,38.90349],[-6.10874,38.90167],[-6.10659,38.90003],[-6.10211,38.89614],[-6.10108,38.89485],[-6.10111,38.89412],[-6.1008,38.89339],[-6.10011,38.89243],[-6.10095,38.88966],[-6.10089,38.88885],[-6.10068,38.88824],[-6.10025,38.88778],[-6.09919,38.88729],[-6.09755,38.88691],[-6.09558,38.88698],[-6.09159,38.8875],[-6.09036,38.88731],[-6.08909,38.88691],[-6.08792,38.88617],[-6.08668,38.88518],[-6.08592,38.88478],[-6.08399,38.88465],[-6.08188,38.88477],[-6.07939,38.88507],[-6.07719,38.88552],[-6.07649,38.88581],[-6.0756,38.88665],[-6.07499,38.88704],[-6.07317,38.8872],[-6.07151,38.88766],[-6.0712,38.88756],[-6.06979,38.88625],[-6.06873,38.88709],[-6.06706,38.88818],[-6.0661,38.88896],[-6.06403,38.89],[-6.06252,38.89108],[-6.06228,38.89062],[-6.06231,38.88938],[-6.06219,38.88845],[-6.06145,38.88717],[-6.06133,38.88624],[-6.06173,38.88398],[-6.06166,38.88346],[-6.06119,38.88298],[-6.06049,38.88257],[-6.06005,38.882],[-6.05986,38.88092],[-6.05983,38.87986],[-6.06018,38.87879],[-6.06004,38.87831],[-6.05933,38.87771],[-6.0586,38.8769],[-6.05768,38.8754],[-6.05749,38.87464],[-6.05774,38.87375],[-6.05751,38.87314],[-6.05572,38.87191],[-6.06329,38.86929],[-6.06624,38.86945],[-6.07006,38.8684],[-6.07344,38.868],[-6.09169,38.86137],[-6.09629,38.86523],[-6.0973,38.86475],[-6.09795,38.86593],[-6.09914,38.86521],[-6.10014,38.86428],[-6.10143,38.86487],[-6.10118,38.86616],[-6.10217,38.86534],[-6.10394,38.86641],[-6.10585,38.86458],[-6.11031,38.86566],[-6.11023,38.86458],[-6.11003,38.8637],[-6.1092,38.86176],[-6.10843,38.86168],[-6.1074,38.86178],[-6.1081,38.86138],[-6.10947,38.86015],[-6.10959,38.85993],[-6.11134,38.85895],[-6.10968,38.85925],[-6.10755,38.85939],[-6.10733,38.85932],[-6.1082,38.85852],[-6.10582,38.85837],[-6.1049,38.85742],[-6.10336,38.85724],[-6.10167,38.85732],[-6.10017,38.85763],[-6.09992,38.8578],[-6.09966,38.85844],[-6.09722,38.85792],[-6.098,38.85597],[-6.09833,38.85234],[-6.09876,38.85161],[-6.09882,38.85097],[-6.09913,38.85023],[-6.09998,38.84878],[-6.10042,38.84753],[-6.10107,38.84659],[-6.10213,38.84417],[-6.1042,38.84404],[-6.10967,38.84323],[-6.11004,38.84428],[-6.11863,38.84574],[-6.12244,38.84538],[-6.12544,38.84529],[-6.12891,38.84505],[-6.13134,38.84904],[-6.13293,38.85204],[-6.13539,38.85714],[-6.13629,38.85825],[-6.13822,38.86],[-6.1411,38.86207],[-6.14456,38.86325],[-6.1469,38.86436],[-6.14994,38.86709],[-6.15052,38.86742],[-6.15274,38.86834],[-6.15375,38.86893],[-6.15721,38.8716],[-6.15761,38.87264],[-6.15815,38.87353],[-6.16302,38.87954],[-6.1634,38.88035],[-6.16383,38.8817],[-6.16589,38.88434],[-6.16798,38.8888],[-6.16904,38.88999],[-6.16997,38.89144],[-6.17372,38.89552],[-6.17611,38.89708],[-6.17721,38.89755],[-6.17703,38.8979],[-6.17922,38.89986],[-6.18138,38.90155],[-6.18312,38.90314],[-6.18353,38.90374],[-6.18412,38.90613],[-6.18587,38.90746],[-6.188,38.90942],[-6.18965,38.91047],[-6.19073,38.91093],[-6.19052,38.9116],[-6.18956,38.9133],[-6.188,38.91408],[-6.18574,38.91659],[-6.18507,38.91764],[-6.18467,38.91873],[-6.18461,38.91971],[-6.18672,38.92387],[-6.18661,38.92444],[-6.18556,38.92729],[-6.18469,38.92872],[-6.18454,38.92926],[-6.18326,38.93132],[-6.18272,38.93175],[-6.18111,38.93243],[-6.17952,38.93331],[-6.17606,38.93489],[-6.17476,38.93519],[-6.17188,38.93554],[-6.16987,38.93591],[-6.16889,38.93624],[-6.16769,38.93691],[-6.16517,38.9387],[-6.16479,38.9394],[-6.16221,38.94168],[-6.16114,38.94277],[-6.16213,38.94473],[-6.16294,38.94694],[-6.16451,38.95015],[-6.16484,38.95411],[-6.16427,38.95474],[-6.16437,38.95539],[-6.16414,38.9562],[-6.1615,38.9619],[-6.16137,38.96265],[-6.16151,38.96346],[-6.16123,38.96424],[-6.16134,38.9652],[-6.16077,38.96652],[-6.15964,38.96984],[-6.15936,38.97022],[-6.1588,38.97071],[-6.15737,38.97158],[-6.15676,38.97217],[-6.15518,38.97511],[-6.15541,38.97593],[-6.15522,38.97689],[-6.15437,38.97842],[-6.15427,38.97913],[-6.15454,38.98002],[-6.15516,38.9805],[-6.15579,38.98137],[-6.15586,38.98209],[-6.15569,38.98336],[-6.15579,38.98413],[-6.15558,38.98472],[-6.1538,38.98728],[-6.15121,38.9919],[-6.15133,38.99254],[-6.15051,38.99332],[-6.15038,38.99426],[-6.15011,38.99486],[-6.1502,38.99561],[-6.14679,39.00569],[-6.14676,39.00688],[-6.14555,39.01038],[-6.14562,39.01397],[-6.14422,39.01572],[-6.14434,39.01815],[-6.14231,39.02088],[-6.14204,39.02151],[-6.14197,39.02338],[-6.1413,39.02846],[-6.1409,39.02966],[-6.13934,39.02808],[-6.13581,39.03052],[-6.13521,39.03064],[-6.13349,39.03055],[-6.13187,39.03019],[-6.12951,39.02932],[-6.12795,39.02888],[-6.12718,39.02875],[-6.12655,39.02884],[-6.12579,39.02954],[-6.12312,39.03277],[-6.12211,39.03334],[-6.1204,39.03386],[-6.11938,39.03359],[-6.11817,39.03339],[-6.11545,39.03352],[-6.11472,39.03323],[-6.11371,39.03258],[-6.11275,39.03215],[-6.11107,39.03178],[-6.10988,39.03134],[-6.10926,39.03121],[-6.10858,39.03123],[-6.10774,39.03146],[-6.10608,39.0311],[-6.10531,39.03131],[-6.10398,39.03192],[-6.10351,39.03198],[-6.09884,39.03106],[-6.09672,39.03099],[-6.09513,39.03109],[-6.08594,39.0307],[-6.08365,39.03006],[-6.0802,39.02932],[-6.07739,39.02919],[-6.07335,39.02923],[-6.07227,39.02912],[-6.07091,39.02929],[-6.06931,39.02965],[-6.06726,39.02973],[-6.06309,39.03034],[-6.06131,39.03044],[-6.0595,39.03029],[-6.05307,39.0292],[-6.05202,39.02882],[-6.04608,39.02566],[-6.04032,39.02311],[-6.03775,39.02163],[-6.03616,39.02087],[-6.03534,39.01997],[-6.03507,39.01952],[-6.03616,39.01928],[-6.03844,39.01856],[-6.0399,39.01838],[-6.04159,39.01843],[-6.04266,39.01824],[-6.04519,39.01755],[-6.04784,39.01645],[-6.04902,39.01585],[-6.04954,39.01545],[-6.0499,39.01496],[-6.05052,39.01372],[-6.05117,39.01294],[-6.05273,39.01155],[-6.05445,39.01019],[-6.05555,39.00916],[-6.05599,39.00854],[-6.05662,39.00601],[-6.05707,39.00533],[-6.05758,39.00486],[-6.05867,39.0043],[-6.06213,39.00316],[-6.06302,39.0026],[-6.06382,39.00171],[-6.06436,39.00019],[-6.06494,38.99897],[-6.06619,38.99697],[-6.06728,38.99553],[-6.06791,38.9949],[-6.06885,38.99442],[-6.07107,38.99369],[-6.07238,38.99348],[-6.07389,38.9935],[-6.0764,38.99404],[-6.07723,38.99401],[-6.07846,38.99368],[-6.07994,38.99314],[-6.08292,38.99163],[-6.08765,38.98842],[-6.08846,38.98771],[-6.08884,38.98714],[-6.08952,38.98568],[-6.08884,38.98542],[-6.08657,38.979],[-6.08394,38.9747],[-6.08521,38.96414],[-6.09059,38.96386],[-6.10252,38.96381],[-6.10333,38.96293],[-6.10438,38.96204],[-6.10644,38.96066],[-6.10761,38.95889],[-6.10863,38.95708],[-6.10927,38.95525],[-6.10975,38.95488],[-6.1071,38.95228],[-6.10589,38.95201],[-6.10065,38.95195],[-6.09724,38.95359],[-6.09736,38.95427],[-6.09602,38.95553],[-6.05934,38.96148]]]}}]}