{"type":"FeatureCollection","features":[{"type":"Feature","properties":{"id":"0608801001"},"geometry":{"type":"Polygon","coordinates":[[[-6.58057,38.906],[-6.58791,38.90706],[-6.58944,38.90719],[-6.6024,38.90916],[-6.60894,38.90927],[-6.60907,38.90838],[-6.60953,38.90884],[-6.60968,38.90889],[-6.61159,38.90888],[-6.61372,38.90869],[-6.61498,38.90884],[-6.61531,38.90881],[-6.61566,38.90868],[-6.61511,38.90784],[-6.61579,38.90779],[-6.61613,38.90789],[-6.61601,38.90755],[-6.61661,38.90761],[-6.61686,38.90692],[-6.61747,38.90722],[-6.61774,38.9081],[-6.61747,38.90845],[-6.61711,38.90871],[-6.61703,38.90892],[-6.61747,38.90942],[-6.61682,38.90981],[-6.61695,38.91036],[-6.6156,38.91105],[-6.61498,38.91053],[-6.61392,38.91055],[-6.61378,38.91002],[-6.61274,38.9102],[-6.60944,38.91039],[-6.60798,38.91084],[-6.60302,38.91207],[-6.60358,38.91341],[-6.60433,38.91343],[-6.6041,38.91365],[-6.60401,38.91539],[-6.60228,38.91613],[-6.59855,38.91811],[-6.59351,38.9168],[-6.59012,38.9175],[-6.58722,38.91709],[-6.58485,38.91747],[-6.58171,38.91873],[-6.5819,38.9171],[-6.58199,38.91498],[-6.58168,38.91258],[-6.58057,38.906]]]}},{"type":"Feature","properties":{"id":"0608801002"},"geometry":{"type":"Polygon","coordinates":[[[-6.60959,38.90887],[-6.61222,38.90742],[-6.61254,38.90704],[-6.61279,38.90697],[-6.61259,38.90632],[-6.6118,38.90644],[-6.60989,38.90554],[-6.60888,38.90529],[-6.60724,38.90444],[-6.60914,38.89658],[-6.61224,38.89711],[-6.61251,38.89724],[-6.61273,38.89775],[-6.61333,38.89836],[-6.61565,38.89854],[-6.61586,38.89872],[-6.61784,38.89874],[-6.6188,38.89927],[-6.61837,38.90034],[-6.61812,38.90283],[-6.61771,38.90368],[-6.61762,38.90495],[-6.61779,38.90615],[-6.61747,38.90722],[-6.61686,38.90692],[-6.61661,38.90761],[-6.61601,38.90755],[-6.61613,38.90789],[-6.61579,38.90779],[-6.61511,38.90784],[-6.61566,38.90868],[-6.61531,38.90881],[-6.61498,38.90884],[-6.61372,38.90869],[-6.61106,38.90891],[-6.60959,38.90887]]]}},{"type":"Feature","properties":{"id":"0608801004"},"geometry":{"type":"Polygon","coordinates":[[[-6.58057,38.906],[-6.58005,38.90327],[-6.57941,38.90232],[-6.57746,38.90078],[-6.57585,38.89969],[-6.5743,38.89991],[-6.57075,38.8984],[-6.56539,38.89841],[-6.56403,38.89885],[-6.5631,38.89762],[-6.56127,38.8964],[-6.56023,38.89629],[-6.55927,38.89512],[-6.56007,38.89467],[-6.55915,38.89159],[-6.55864,38.89055],[-6.55822,38.89054],[-6.55746,38.88813],[-6.55615,38.88468],[-6.55684,38.88413],[-6.55662,38.88377],[-6.55636,38.88388],[-6.55629,38.88377],[-6.55539,38.88417],[-6.55499,38.88654],[-6.55464,38.88775],[-6.55097,38.88704],[-6.54541,38.88573],[-6.54215,38.88576],[-6.54096,38.88554],[-6.54063,38.88554],[-6.53776,38.88687],[-6.53499,38.8879],[-6.53458,38.88798],[-6.53377,38.88767],[-6.5326,38.88769],[-6.53196,38.8878],[-6.52983,38.88043],[-6.53486,38.87956],[-6.53967,38.87848],[-6.5407,38.87813],[-6.54406,38.87567],[-6.54323,38.87368],[-6.54565,38.87279],[-6.54648,38.8721],[-6.54754,38.87093],[-6.55059,38.87078],[-6.5519,38.87082],[-6.55606,38.87052],[-6.56916,38.86765],[-6.57175,38.86956],[-6.57338,38.87051],[-6.57418,38.87117],[-6.57481,38.87154],[-6.57764,38.87263],[-6.58007,38.87174],[-6.5827,38.87047],[-6.59002,38.86788],[-6.59615,38.86653],[-6.59796,38.86655],[-6.60032,38.86755],[-6.60159,38.86778],[-6.60252,38.86775],[-6.60402,38.86735],[-6.60447,38.86814],[-6.60531,38.86834],[-6.60645,38.87217],[-6.61181,38.87181],[-6.61171,38.87945],[-6.61154,38.88253],[-6.61118,38.88325],[-6.61172,38.88555],[-6.61113,38.88584],[-6.61098,38.88835],[-6.61575,38.88786],[-6.61579,38.88946],[-6.61315,38.88949],[-6.61276,38.89245],[-6.61361,38.89675],[-6.61411,38.89729],[-6.61565,38.89854],[-6.61333,38.89836],[-6.61273,38.89775],[-6.61251,38.89724],[-6.61224,38.89711],[-6.60914,38.89658],[-6.60724,38.90444],[-6.60888,38.90529],[-6.60989,38.90554],[-6.6118,38.90644],[-6.61259,38.90632],[-6.61279,38.90697],[-6.61254,38.90704],[-6.61222,38.90742],[-6.60959,38.90887],[-6.60907,38.90838],[-6.60894,38.90927],[-6.6024,38.90916],[-6.58944,38.90719],[-6.58791,38.90706],[-6.58057,38.906]]]}},{"type":"Feature","properties":{"id":"0608801005"},"geometry":{"type":"Polygon","coordinates":[[[-6.6188,38.89927],[-6.6247,38.89882],[-6.62563,38.89997],[-6.62677,38.9009],[-6.62393,38.90345],[-6.62228,38.90469],[-6.62042,38.90586],[-6.61747,38.90722],[-6.61779,38.90615],[-6.61762,38.90495],[-6.61771,38.90368],[-6.61812,38.90283],[-6.61837,38.90034],[-6.6188,38.89927]]]}},{"type":"Feature","properties":{"id":"0608802001"},"geometry":{"type":"Polygon","coordinates":[[[-6.61887,38.96481],[-6.61027,38.91821],[-6.60612,38.9158],[-6.60543,38.91508],[-6.60742,38.91448],[-6.60968,38.91424],[-6.61025,38.91287],[-6.60889,38.91052],[-6.60944,38.91039],[-6.61307,38.91017],[-6.61378,38.91002],[-6.61392,38.91055],[-6.61498,38.91053],[-6.6156,38.91105],[-6.61695,38.91036],[-6.61714,38.91069],[-6.6155,38.91184],[-6.61611,38.91392],[-6.61655,38.914],[-6.61902,38.91665],[-6.62028,38.91846],[-6.6219,38.92158],[-6.62402,38.93057],[-6.63594,38.95822],[-6.63843,38.95969],[-6.63901,38.96017],[-6.64042,38.96253],[-6.64616,38.96936],[-6.6429,38.97047],[-6.64021,38.97015],[-6.63842,38.96862],[-6.63649,38.96776],[-6.63078,38.96724],[-6.62143,38.96498],[-6.61983,38.96482],[-6.61887,38.96481]]]}},{"type":"Feature","properties":{"id":"0608802002"},"geometry":{"type":"Polygon","coordinates":[[[-6.61714,38.91069],[-6.61804,38.9115],[-6.61782,38.91155],[-6.61978,38.91318],[-6.62022,38.91437],[-6.6309,38.91567],[-6.63225,38.91576],[-6.63306,38.91561],[-6.63588,38.91594],[-6.63639,38.91824],[-6.63689,38.92145],[-6.63627,38.92675],[-6.63629,38.92826],[-6.6362,38.92884],[-6.63562,38.93052],[-6.63546,38.93399],[-6.63516,38.93529],[-6.63471,38.93658],[-6.63532,38.93679],[-6.63521,38.93924],[-6.63639,38.94441],[-6.63609,38.9472],[-6.63752,38.94896],[-6.63806,38.94982],[-6.63826,38.95092],[-6.63807,38.95332],[-6.63594,38.95822],[-6.62402,38.93057],[-6.6219,38.92158],[-6.62028,38.91846],[-6.61902,38.91665],[-6.61655,38.914],[-6.61611,38.91392],[-6.6155,38.91184],[-6.61714,38.91069]]]}},{"type":"Feature","properties":{"id":"0608802004"},"geometry":{"type":"Polygon","coordinates":[[[-6.51974,38.96256],[-6.52129,38.96266],[-6.52107,38.95987],[-6.52049,38.95988],[-6.5196,38.95974],[-6.51812,38.9593],[-6.51875,38.95765],[-6.52065,38.9541],[-6.52172,38.9531],[-6.52181,38.95261],[-6.52132,38.95144],[-6.52086,38.95067],[-6.52057,38.94875],[-6.5205,38.94735],[-6.52022,38.94649],[-6.51943,38.94499],[-6.52012,38.94378],[-6.52202,38.94322],[-6.52133,38.94222],[-6.52044,38.94138],[-6.51877,38.94127],[-6.51942,38.93874],[-6.52132,38.9379],[-6.52213,38.93773],[-6.52278,38.93739],[-6.52384,38.93599],[-6.52422,38.93374],[-6.52443,38.93338],[-6.52438,38.93281],[-6.52414,38.93232],[-6.52376,38.932],[-6.5229,38.93088],[-6.52289,38.93042],[-6.52307,38.92999],[-6.52456,38.92971],[-6.52507,38.92911],[-6.52608,38.92866],[-6.527,38.92795],[-6.52846,38.92644],[-6.52946,38.92498],[-6.5299,38.92412],[-6.53007,38.92296],[-6.52978,38.92149],[-6.52918,38.91981],[-6.52801,38.9182],[-6.52487,38.91505],[-6.5306,38.91674],[-6.53289,38.91754],[-6.5319,38.919],[-6.53138,38.92184],[-6.53305,38.9216],[-6.53441,38.92159],[-6.54142,38.92494],[-6.54298,38.92536],[-6.54475,38.92536],[-6.54624,38.92549],[-6.54771,38.92605],[-6.54855,38.92658],[-6.54968,38.92789],[-6.55086,38.92958],[-6.55384,38.93083],[-6.55489,38.93299],[-6.55517,38.93289],[-6.55521,38.93299],[-6.55646,38.93252],[-6.55728,38.93205],[-6.55756,38.9315],[-6.55748,38.93014],[-6.55908,38.93029],[-6.5616,38.9303],[-6.56292,38.93081],[-6.56325,38.93081],[-6.56674,38.93],[-6.56882,38.93001],[-6.57025,38.93033],[-6.57213,38.93092],[-6.57345,38.93149],[-6.57345,38.93135],[-6.57378,38.93149],[-6.57383,38.93011],[-6.57579,38.93025],[-6.57806,38.93117],[-6.58194,38.93211],[-6.5832,38.93226],[-6.58358,38.93217],[-6.58463,38.93124],[-6.58432,38.92902],[-6.58367,38.92737],[-6.58258,38.92536],[-6.58205,38.92398],[-6.58163,38.92194],[-6.58158,38.91976],[-6.58171,38.91873],[-6.58485,38.91747],[-6.58722,38.91709],[-6.59012,38.9175],[-6.59351,38.9168],[-6.59855,38.91811],[-6.60228,38.91613],[-6.60401,38.91539],[-6.6041,38.91365],[-6.60433,38.91343],[-6.60358,38.91341],[-6.60302,38.91207],[-6.60798,38.91084],[-6.60889,38.91052],[-6.61025,38.91287],[-6.60968,38.91424],[-6.60742,38.91448],[-6.60543,38.91508],[-6.60612,38.9158],[-6.61027,38.91821],[-6.61887,38.96481],[-6.61791,38.96541],[-6.6155,38.96572],[-6.6147,38.96535],[-6.61341,38.96645],[-6.61,38.96625],[-6.6095,38.96808],[-6.6077,38.96882],[-6.6067,38.96838],[-6.60463,38.96859],[-6.60116,38.96775],[-6.60134,38.96887],[-6.60219,38.97145],[-6.60168,38.97994],[-6.602,38.98419],[-6.6009,38.98729],[-6.60145,38.98894],[-6.60051,38.99567],[-6.60127,39.00016],[-6.60145,39.00242],[-6.60153,39.00634],[-6.60462,39.0133],[-6.60362,39.02256],[-6.60353,39.03236],[-6.60318,39.03469],[-6.60207,39.03548],[-6.59388,39.03351],[-6.58892,39.03363],[-6.58493,39.03166],[-6.58237,39.03152],[-6.58186,39.03425],[-6.57987,39.03719],[-6.57696,39.03685],[-6.57632,39.03593],[-6.58103,39.03158],[-6.57946,39.0274],[-6.57792,39.02529],[-6.57792,39.02364],[-6.57388,39.02016],[-6.57392,39.01926],[-6.57163,39.01772],[-6.5688,39.01753],[-6.56664,39.01397],[-6.5638,39.01719],[-6.56181,39.01855],[-6.55895,39.0191],[-6.55748,39.01994],[-6.54591,39.01995],[-6.54404,39.0205],[-6.54148,39.0204],[-6.53781,39.02148],[-6.5391,39.01496],[-6.53907,39.01405],[-6.53452,39.01458],[-6.52743,39.01668],[-6.52515,39.01548],[-6.5272,39.00733],[-6.52768,39.00008],[-6.52801,38.99863],[-6.52548,38.98875],[-6.5254,38.98581],[-6.5246,38.98473],[-6.52538,38.98176],[-6.53014,38.98215],[-6.53189,38.98108],[-6.53182,38.97913],[-6.52132,38.97284],[-6.52074,38.97187],[-6.52004,38.96966],[-6.52219,38.96769],[-6.52337,38.96523],[-6.52228,38.96403],[-6.52133,38.96362],[-6.51974,38.96256]]]}},{"type":"Feature","properties":{"id":"0608803001"},"geometry":{"type":"Polygon","coordinates":[[[-6.61804,38.9115],[-6.61706,38.91062],[-6.61682,38.90981],[-6.61743,38.90946],[-6.61735,38.90927],[-6.61766,38.90892],[-6.61795,38.90901],[-6.61826,38.90925],[-6.61858,38.90931],[-6.62053,38.90855],[-6.62088,38.90908],[-6.62104,38.90895],[-6.62314,38.91021],[-6.62436,38.91078],[-6.62399,38.91129],[-6.62486,38.91171],[-6.6241,38.91271],[-6.62198,38.91174],[-6.62075,38.91097],[-6.61988,38.91182],[-6.6188,38.91114],[-6.61863,38.91129],[-6.61804,38.9115]]]}},{"type":"Feature","properties":{"id":"0608803002"},"geometry":{"type":"Polygon","coordinates":[[[-6.61782,38.91155],[-6.61863,38.91129],[-6.6188,38.91114],[-6.61988,38.91182],[-6.62075,38.91097],[-6.62198,38.91174],[-6.6241,38.91271],[-6.62486,38.91171],[-6.63306,38.91561],[-6.63225,38.91576],[-6.6309,38.91567],[-6.62022,38.91437],[-6.61978,38.91318],[-6.61782,38.91155]]]}},{"type":"Feature","properties":{"id":"0608804001"},"geometry":{"type":"Polygon","coordinates":[[[-6.61735,38.90927],[-6.61703,38.90892],[-6.61711,38.90871],[-6.61747,38.90845],[-6.61774,38.9081],[-6.61747,38.90722],[-6.62042,38.90586],[-6.62132,38.90704],[-6.6199,38.90761],[-6.62053,38.90855],[-6.6188,38.90927],[-6.61826,38.90925],[-6.61771,38.9089],[-6.61735,38.90927]]]}},{"type":"Feature","properties":{"id":"0608804002"},"geometry":{"type":"Polygon","coordinates":[[[-6.63306,38.91561],[-6.62399,38.91129],[-6.62436,38.91078],[-6.62314,38.91021],[-6.62104,38.90895],[-6.62088,38.90908],[-6.6199,38.90761],[-6.62132,38.90704],[-6.62042,38.90586],[-6.62334,38.90394],[-6.62677,38.9009],[-6.62725,38.90129],[-6.62793,38.90131],[-6.63157,38.90089],[-6.63492,38.89889],[-6.63824,38.89888],[-6.63916,38.89916],[-6.64574,38.90234],[-6.64381,38.91481],[-6.64298,38.91435],[-6.63863,38.91141],[-6.63616,38.91003],[-6.63518,38.91199],[-6.63549,38.91446],[-6.63588,38.91594],[-6.63306,38.91561]]]}}]}