{"type":"FeatureCollection","features":[{"type":"Feature","properties":{"id":"0609501001"},"geometry":{"type":"Polygon","coordinates":[[[-7.10177,38.6876],[-7.10093,38.68761],[-7.10048,38.68683],[-7.10074,38.68665],[-7.10007,38.68633],[-7.09906,38.68569],[-7.09877,38.68584],[-7.09854,38.68613],[-7.09801,38.68593],[-7.09803,38.68449],[-7.09875,38.68378],[-7.09938,38.68353],[-7.10053,38.68339],[-7.10203,38.68404],[-7.10229,38.68435],[-7.10234,38.68471],[-7.10165,38.68512],[-7.10172,38.68607],[-7.10215,38.68703],[-7.10177,38.6876]]]}},{"type":"Feature","properties":{"id":"0609501002"},"geometry":{"type":"Polygon","coordinates":[[[-7.06436,38.74257],[-7.06263,38.7417],[-7.06065,38.73944],[-7.059,38.73591],[-7.05795,38.73393],[-7.05771,38.73371],[-7.05683,38.73316],[-7.05638,38.73306],[-7.05444,38.73339],[-7.05358,38.73343],[-7.0528,38.73311],[-7.05235,38.73257],[-7.0508,38.72772],[-7.04951,38.727],[-7.04898,38.72655],[-7.04835,38.72559],[-7.04686,38.72273],[-7.04606,38.72153],[-7.04548,38.72104],[-7.04477,38.7201],[-7.04432,38.71968],[-7.04041,38.71312],[-7.03959,38.71152],[-7.03855,38.70999],[-7.06405,38.715],[-7.06532,38.71438],[-7.06947,38.71031],[-7.0749,38.70698],[-7.07505,38.70653],[-7.08011,38.70361],[-7.08288,38.70231],[-7.08835,38.70154],[-7.09169,38.69301],[-7.09181,38.69305],[-7.09465,38.68796],[-7.09553,38.68727],[-7.09784,38.68577],[-7.09801,38.68593],[-7.09854,38.68613],[-7.09877,38.68584],[-7.09906,38.68569],[-7.10007,38.68633],[-7.10074,38.68665],[-7.10048,38.68683],[-7.10093,38.68761],[-7.1015,38.6876],[-7.10156,38.68793],[-7.10222,38.68818],[-7.10282,38.68826],[-7.10362,38.68929],[-7.10312,38.68972],[-7.10194,38.69115],[-7.10081,38.69284],[-7.10084,38.69309],[-7.12312,38.72064],[-7.12655,38.72446],[-7.13717,38.73563],[-7.15059,38.74921],[-7.16114,38.76009],[-7.17166,38.7702],[-7.17354,38.77519],[-7.17058,38.77581],[-7.16488,38.77826],[-7.16411,38.7787],[-7.16315,38.77954],[-7.16206,38.78033],[-7.16122,38.78075],[-7.16068,38.78134],[-7.15977,38.78299],[-7.15836,38.78456],[-7.15636,38.78381],[-7.15525,38.78358],[-7.15393,38.78378],[-7.15294,38.78416],[-7.15181,38.78481],[-7.15086,38.78559],[-7.15018,38.78577],[-7.14973,38.78567],[-7.14843,38.7846],[-7.14805,38.78403],[-7.14806,38.78342],[-7.14838,38.78297],[-7.15074,38.78133],[-7.15146,38.78061],[-7.15177,38.78012],[-7.15164,38.77963],[-7.15132,38.77919],[-7.15052,38.77897],[-7.14577,38.77899],[-7.14491,38.77874],[-7.14431,38.7783],[-7.14225,38.77625],[-7.14157,38.77534],[-7.14064,38.77293],[-7.13883,38.77128],[-7.13776,38.76966],[-7.13711,38.7694],[-7.13634,38.76937],[-7.13553,38.76947],[-7.13415,38.76978],[-7.12977,38.77032],[-7.12877,38.77019],[-7.12813,38.76988],[-7.12755,38.76939],[-7.12712,38.76848],[-7.12672,38.7679],[-7.12612,38.76749],[-7.12387,38.76714],[-7.12281,38.7668],[-7.12164,38.76627],[-7.11871,38.76464],[-7.11528,38.76094],[-7.11367,38.75975],[-7.11262,38.75926],[-7.11172,38.75864],[-7.10917,38.75752],[-7.10844,38.75728],[-7.10725,38.75717],[-7.10611,38.75675],[-7.10516,38.75633],[-7.10278,38.75457],[-7.10176,38.75412],[-7.09923,38.75335],[-7.09822,38.75264],[-7.09717,38.75093],[-7.09675,38.75058],[-7.09579,38.74991],[-7.09412,38.7491],[-7.09302,38.74877],[-7.09204,38.7487],[-7.09084,38.74876],[-7.08975,38.7489],[-7.08869,38.7493],[-7.08726,38.74963],[-7.08502,38.74992],[-7.08402,38.74993],[-7.08252,38.74984],[-7.0813,38.74964],[-7.0803,38.74935],[-7.07801,38.74908],[-7.07706,38.74909],[-7.07596,38.74928],[-7.07523,38.74926],[-7.07219,38.74816],[-7.07168,38.74772],[-7.07122,38.74608],[-7.07078,38.74502],[-7.07038,38.74438],[-7.06976,38.74388],[-7.06436,38.74257]]]}},{"type":"Feature","properties":{"id":"0609501003"},"geometry":{"type":"Polygon","coordinates":[[[-7.09642,38.67851],[-7.09654,38.67851],[-7.0978,38.68031],[-7.10145,38.68167],[-7.1011,38.68241],[-7.10041,38.68307],[-7.10039,38.68341],[-7.09938,38.68353],[-7.09875,38.68378],[-7.09803,38.68449],[-7.09802,38.68585],[-7.09784,38.68577],[-7.09553,38.68727],[-7.09468,38.68794],[-7.09518,38.68681],[-7.09531,38.68611],[-7.09573,38.68268],[-7.09642,38.67851]]]}},{"type":"Feature","properties":{"id":"0609501004"},"geometry":{"type":"Polygon","coordinates":[[[-7.1015,38.6876],[-7.10177,38.6876],[-7.10215,38.68703],[-7.10172,38.68607],[-7.10165,38.68512],[-7.10234,38.68471],[-7.10229,38.68435],[-7.10203,38.68404],[-7.10053,38.68339],[-7.10039,38.68341],[-7.10041,38.68307],[-7.1011,38.68241],[-7.10145,38.68167],[-7.10057,38.68135],[-7.10131,38.68034],[-7.1015,38.68025],[-7.10156,38.68124],[-7.10203,38.68115],[-7.10234,38.68097],[-7.10267,38.6812],[-7.10347,38.68133],[-7.10476,38.68125],[-7.10989,38.67675],[-7.11001,38.6759],[-7.11092,38.67393],[-7.11214,38.67306],[-7.12405,38.66197],[-7.12538,38.66185],[-7.12956,38.65891],[-7.13706,38.65533],[-7.13862,38.65078],[-7.13977,38.6504],[-7.24653,38.62775],[-7.24928,38.62879],[-7.25002,38.629],[-7.25062,38.62907],[-7.25163,38.62902],[-7.25483,38.62818],[-7.25795,38.62772],[-7.25978,38.62756],[-7.26143,38.62754],[-7.26319,38.62783],[-7.26531,38.62852],[-7.26648,38.62961],[-7.26752,38.63124],[-7.26806,38.63227],[-7.26848,38.63337],[-7.26989,38.63778],[-7.27002,38.63879],[-7.2701,38.6422],[-7.26994,38.64369],[-7.26838,38.64872],[-7.26814,38.65134],[-7.2676,38.65445],[-7.26712,38.65584],[-7.26707,38.65632],[-7.26708,38.65775],[-7.26825,38.66395],[-7.26838,38.66579],[-7.26828,38.66684],[-7.26836,38.66933],[-7.26807,38.67155],[-7.26775,38.67234],[-7.26722,38.67306],[-7.26673,38.67427],[-7.26588,38.67698],[-7.26558,38.67755],[-7.26484,38.68084],[-7.26442,38.68375],[-7.26447,38.68476],[-7.26466,38.68539],[-7.26675,38.68871],[-7.26704,38.68932],[-7.26712,38.69008],[-7.26637,38.69195],[-7.26544,38.69526],[-7.26522,38.69677],[-7.26469,38.70373],[-7.26241,38.70787],[-7.26187,38.70859],[-7.2579,38.71304],[-7.25409,38.71676],[-7.25349,38.71766],[-7.25311,38.71896],[-7.25317,38.71982],[-7.25371,38.72081],[-7.25586,38.7239],[-7.25593,38.72501],[-7.25563,38.72589],[-7.25434,38.72721],[-7.25007,38.73027],[-7.2462,38.73265],[-7.2439,38.73386],[-7.24181,38.73518],[-7.23948,38.73627],[-7.23644,38.73671],[-7.23145,38.73676],[-7.22938,38.73672],[-7.22823,38.73661],[-7.2256,38.73752],[-7.22431,38.73859],[-7.22039,38.74114],[-7.21798,38.7432],[-7.21735,38.74353],[-7.21473,38.74426],[-7.2133,38.74489],[-7.21058,38.7467],[-7.20943,38.7476],[-7.20808,38.74836],[-7.20632,38.74969],[-7.20415,38.75029],[-7.20371,38.75054],[-7.20182,38.75263],[-7.19928,38.75604],[-7.19817,38.75823],[-7.19498,38.76538],[-7.19285,38.76763],[-7.19173,38.76849],[-7.19076,38.76902],[-7.18945,38.76951],[-7.18798,38.76956],[-7.18425,38.77106],[-7.18199,38.77216],[-7.18035,38.77284],[-7.17489,38.7748],[-7.17354,38.77519],[-7.17166,38.7702],[-7.16114,38.76009],[-7.15059,38.74921],[-7.13717,38.73563],[-7.12655,38.72446],[-7.12312,38.72064],[-7.10084,38.69309],[-7.10081,38.69284],[-7.10194,38.69115],[-7.10312,38.68972],[-7.10362,38.68929],[-7.10282,38.68826],[-7.10222,38.68818],[-7.10156,38.68793],[-7.1015,38.6876]]]}},{"type":"Feature","properties":{"id":"0609501005"},"geometry":{"type":"Polygon","coordinates":[[[-7.10057,38.68135],[-7.09797,38.68037],[-7.10201,38.67853],[-7.10294,38.67819],[-7.10314,38.67786],[-7.10352,38.67791],[-7.10674,38.67947],[-7.10617,38.68008],[-7.10476,38.68125],[-7.10347,38.68133],[-7.10267,38.6812],[-7.10234,38.68097],[-7.10203,38.68115],[-7.10156,38.68124],[-7.1015,38.68025],[-7.10131,38.68034],[-7.10057,38.68135]]]}},{"type":"Feature","properties":{"id":"0609501007"},"geometry":{"type":"Polygon","coordinates":[[[-7.0225,38.68714],[-7.02181,38.68565],[-7.02224,38.68453],[-7.02277,38.68382],[-7.02351,38.68343],[-7.02616,38.68256],[-7.02726,38.68177],[-7.02799,38.68021],[-7.0282,38.67931],[-7.02822,38.67876],[-7.02789,38.67821],[-7.02733,38.6765],[-7.02635,38.67513],[-7.02581,38.67355],[-7.02567,38.67338],[-7.02404,38.67268],[-7.02328,38.67203],[-7.02282,38.67123],[-7.0229,38.6706],[-7.02317,38.66999],[-7.02362,38.66966],[-7.02418,38.66952],[-7.02509,38.66955],[-7.02728,38.67001],[-7.02854,38.66995],[-7.02937,38.66975],[-7.03002,38.66947],[-7.03046,38.66896],[-7.03055,38.66872],[-7.03036,38.6682],[-7.02912,38.66686],[-7.02818,38.66545],[-7.02794,38.66476],[-7.02797,38.66451],[-7.02909,38.66238],[-7.02914,38.66147],[-7.02888,38.66084],[-7.02837,38.66021],[-7.02742,38.65981],[-7.02542,38.65935],[-7.02513,38.65923],[-7.02495,38.65901],[-7.02491,38.65868],[-7.02592,38.65762],[-7.02638,38.65664],[-7.02617,38.65561],[-7.02551,38.65358],[-7.02552,38.65276],[-7.02577,38.6524],[-7.02711,38.65113],[-7.02732,38.65071],[-7.02733,38.6499],[-7.02709,38.64946],[-7.02677,38.64915],[-7.02484,38.64862],[-7.02419,38.64823],[-7.02405,38.64795],[-7.02406,38.6477],[-7.02453,38.64663],[-7.02434,38.6459],[-7.02419,38.64576],[-7.02355,38.64548],[-7.0224,38.64546],[-7.01945,38.64565],[-7.01901,38.64542],[-7.01888,38.64505],[-7.02019,38.64031],[-7.02118,38.63853],[-7.0214,38.63644],[-7.02182,38.63516],[-7.02228,38.63434],[-7.02262,38.63397],[-7.02408,38.63285],[-7.02467,38.63225],[-7.02504,38.6317],[-7.02522,38.63112],[-7.02511,38.63051],[-7.02471,38.63023],[-7.02411,38.63011],[-7.02244,38.63019],[-7.02118,38.6305],[-7.02085,38.6305],[-7.02048,38.63032],[-7.02028,38.63006],[-7.0201,38.62948],[-7.01986,38.62725],[-7.01941,38.6261],[-7.01911,38.6256],[-7.01782,38.62426],[-7.01735,38.62362],[-7.01706,38.62295],[-7.01715,38.62242],[-7.01871,38.62108],[-7.01932,38.62018],[-7.01942,38.6196],[-7.01938,38.61915],[-7.01917,38.61878],[-7.01891,38.61846],[-7.01839,38.61813],[-7.01725,38.61782],[-7.01449,38.61826],[-7.01361,38.61832],[-7.01204,38.61799],[-7.01052,38.61728],[-7.00977,38.61669],[-7.00955,38.61609],[-7.00962,38.61565],[-7.00994,38.61484],[-7.0109,38.6133],[-7.01097,38.61291],[-7.01083,38.61241],[-7.01048,38.61196],[-7.00951,38.61137],[-7.00667,38.61001],[-7.00613,38.60966],[-7.00466,38.60819],[-7.00395,38.60765],[-7.00322,38.60734],[-7.0014,38.60705],[-7.00056,38.60704],[-7.00001,38.60713],[-6.99953,38.60741],[-6.999,38.60791],[-6.99815,38.60908],[-6.99807,38.61169],[-6.99797,38.6119],[-6.99773,38.61213],[-6.99729,38.61234],[-6.99693,38.61237],[-6.99585,38.61226],[-6.9954,38.61211],[-6.99504,38.61182],[-6.99488,38.61149],[-6.9949,38.61106],[-6.99523,38.61025],[-6.99667,38.60854],[-6.99659,38.60811],[-6.99624,38.60771],[-6.99482,38.60735],[-6.99345,38.60715],[-6.99206,38.60714],[-6.99016,38.60684],[-6.98829,38.60632],[-6.98782,38.60607],[-6.98713,38.60549],[-6.98718,38.60494],[-6.98742,38.60432],[-6.98814,38.60291],[-6.98872,38.6006],[-6.98947,38.59846],[-6.9893,38.59805],[-6.98884,38.59769],[-6.98841,38.59764],[-6.98554,38.59854],[-6.98401,38.5989],[-6.98341,38.59889],[-6.98021,38.59823],[-6.97926,38.59794],[-6.97837,38.59736],[-6.97723,38.59498],[-6.977,38.59462],[-6.97658,38.59436],[-6.97315,38.59373],[-6.97139,38.59331],[-6.97025,38.59295],[-6.96866,38.59215],[-6.96833,38.59181],[-6.96799,38.59121],[-6.96723,38.58941],[-6.96699,38.58921],[-6.96656,38.58909],[-6.96568,38.58909],[-6.96391,38.58952],[-6.96328,38.58956],[-6.96274,38.58947],[-6.96089,38.58872],[-6.95933,38.58782],[-6.957,38.58681],[-6.95685,38.58659],[-6.95679,38.58617],[-6.95693,38.58574],[-6.95774,38.58447],[-6.95857,38.58352],[-6.95976,38.58266],[-6.96242,38.58165],[-6.96522,38.58099],[-6.96707,38.58076],[-6.96789,38.58055],[-6.96821,38.58012],[-6.96839,38.57738],[-6.96824,38.57673],[-6.96797,38.57628],[-6.96723,38.57601],[-6.96458,38.57566],[-6.96355,38.57527],[-6.96294,38.57487],[-6.96216,38.57404],[-6.96175,38.57327],[-6.96147,38.57128],[-6.96088,38.57006],[-6.95986,38.56904],[-6.9586,38.56828],[-6.95797,38.56808],[-6.95694,38.56796],[-6.95488,38.56427],[-6.95387,38.561],[-6.953,38.55931],[-6.95382,38.55683],[-6.95439,38.55414],[-6.95439,38.55274],[-6.95499,38.54794],[-6.95613,38.54592],[-6.95678,38.54452],[-6.95624,38.54077],[-6.95839,38.53393],[-6.95979,38.52904],[-6.9605,38.52835],[-6.96092,38.52569],[-6.96228,38.5225],[-6.96249,38.52119],[-6.96239,38.51854],[-6.96421,38.51589],[-6.96474,38.51539],[-6.96534,38.51424],[-6.96611,38.51052],[-6.96577,38.50846],[-6.96512,38.50561],[-6.96737,38.5037],[-6.96854,38.50248],[-6.96989,38.50019],[-6.97005,38.49913],[-6.97043,38.49829],[-6.97136,38.49527],[-6.97251,38.49292],[-6.97294,38.49106],[-6.97363,38.48937],[-6.97382,38.48854],[-6.97367,38.48449],[-6.97346,38.4832],[-6.97336,38.48101],[-6.9726,38.47816],[-6.97151,38.47647],[-6.96754,38.46822],[-6.96688,38.46588],[-6.96723,38.46576],[-6.96751,38.46554],[-6.96788,38.46482],[-6.96897,38.46345],[-6.96916,38.46283],[-6.96953,38.46231],[-6.96993,38.46201],[-6.97019,38.46157],[-6.97031,38.46105],[-6.97068,38.46082],[-6.97184,38.461],[-6.97381,38.46098],[-6.97476,38.46115],[-6.97492,38.46157],[-6.97486,38.4633],[-6.97513,38.46367],[-6.97552,38.46394],[-6.97579,38.46401],[-6.97737,38.46336],[-6.97858,38.46309],[-6.98001,38.46293],[-6.98173,38.46256],[-6.98238,38.46231],[-6.98264,38.46206],[-6.98275,38.46169],[-6.98246,38.45955],[-6.98221,38.45882],[-6.98215,38.45825],[-6.98231,38.45743],[-6.98255,38.45662],[-6.98315,38.45537],[-6.98357,38.45473],[-6.98407,38.45419],[-6.98476,38.4539],[-6.98569,38.45381],[-6.98663,38.45386],[-6.98727,38.45406],[-6.98779,38.45455],[-6.98796,38.45518],[-6.988,38.45622],[-6.98822,38.45696],[-6.9887,38.45784],[-6.98917,38.45834],[-6.98968,38.45853],[-6.9902,38.4585],[-6.99094,38.45832],[-6.99137,38.45808],[-6.99167,38.45769],[-6.99293,38.45876],[-6.99502,38.46021],[-6.99635,38.46179],[-6.99622,38.46235],[-6.99631,38.46275],[-6.99872,38.46529],[-6.99846,38.46777],[-6.99891,38.46823],[-6.99926,38.46899],[-6.99944,38.47104],[-7.00079,38.47227],[-7.00292,38.47446],[-7.00408,38.47515],[-7.00451,38.47727],[-7.00453,38.47848],[-7.00516,38.47982],[-7.00679,38.48216],[-7.00768,38.48318],[-7.00848,38.48395],[-7.01082,38.48582],[-7.01096,38.4862],[-7.00932,38.48702],[-7.00688,38.48849],[-7.00674,38.48894],[-7.00638,38.48917],[-7.00241,38.49069],[-6.99646,38.49231],[-6.9939,38.49517],[-6.99274,38.49532],[-6.98765,38.49698],[-6.98599,38.49782],[-6.98462,38.49869],[-6.98337,38.49879],[-6.98174,38.4997],[-6.98028,38.50119],[-6.98009,38.50127],[-6.97992,38.50236],[-6.9803,38.504],[-6.98009,38.50498],[-6.97956,38.50571],[-6.97831,38.50674],[-6.97637,38.50863],[-6.97257,38.51076],[-6.96994,38.51317],[-6.96823,38.51392],[-6.96682,38.51434],[-6.96636,38.51471],[-6.96616,38.51504],[-6.96483,38.522],[-6.96329,38.52832],[-6.96447,38.52835],[-6.9672,38.528],[-6.96855,38.5281],[-6.97132,38.52901],[-6.97176,38.5296],[-6.97244,38.53176],[-6.97368,38.53392],[-6.975,38.53574],[-6.97703,38.53746],[-6.97803,38.53792],[-6.97904,38.53806],[-6.98054,38.53786],[-6.98393,38.53792],[-6.98617,38.54016],[-6.9871,38.54095],[-6.98863,38.54211],[-6.99122,38.54384],[-6.99177,38.54435],[-6.99419,38.54747],[-6.99675,38.5502],[-6.99818,38.55153],[-7.00228,38.55478],[-7.00363,38.55516],[-7.00495,38.55639],[-7.00455,38.55735],[-7.00498,38.55796],[-7.00588,38.55855],[-7.00823,38.55984],[-7.00925,38.5599],[-7.00968,38.56006],[-7.0153,38.56283],[-7.01646,38.563],[-7.01857,38.56284],[-7.01945,38.56266],[-7.02427,38.5609],[-7.02257,38.55973],[-7.02243,38.55915],[-7.02254,38.55873],[-7.02285,38.55837],[-7.02349,38.55805],[-7.0243,38.5578],[-7.02594,38.55753],[-7.02824,38.55731],[-7.0285,38.55712],[-7.02857,38.55643],[-7.02847,38.55606],[-7.02746,38.55358],[-7.04654,38.54825],[-7.06643,38.57289],[-7.07257,38.57259],[-7.08449,38.57231],[-7.08792,38.57258],[-7.12083,38.57571],[-7.12286,38.58356],[-7.12519,38.58368],[-7.12675,38.58392],[-7.12834,38.58443],[-7.1289,38.58492],[-7.12932,38.58584],[-7.13224,38.58696],[-7.13791,38.5857],[-7.1392,38.58576],[-7.14193,38.58635],[-7.1429,38.58638],[-7.1443,38.58611],[-7.14547,38.58572],[-7.14723,38.58489],[-7.1483,38.58452],[-7.14861,38.58447],[-7.14884,38.58454],[-7.14911,38.58471],[-7.1505,38.58625],[-7.15175,38.58685],[-7.15256,38.58913],[-7.15442,38.5898],[-7.1552,38.59053],[-7.15548,38.59105],[-7.15541,38.59251],[-7.15551,38.59267],[-7.15687,38.59306],[-7.16145,38.59397],[-7.16352,38.5957],[-7.16471,38.59656],[-7.16512,38.59676],[-7.16584,38.5969],[-7.16777,38.59682],[-7.16851,38.59667],[-7.16982,38.59607],[-7.17076,38.59536],[-7.17292,38.59533],[-7.17422,38.59457],[-7.17543,38.59471],[-7.17589,38.59456],[-7.17701,38.59386],[-7.17786,38.59365],[-7.17827,38.59381],[-7.17835,38.59396],[-7.17824,38.59417],[-7.17753,38.59479],[-7.17737,38.59633],[-7.17753,38.59666],[-7.17788,38.59689],[-7.17831,38.59699],[-7.17872,38.59695],[-7.17925,38.59678],[-7.18019,38.59616],[-7.18084,38.59537],[-7.18162,38.59498],[-7.18236,38.59478],[-7.18302,38.59471],[-7.18331,38.59459],[-7.18361,38.59425],[-7.18341,38.59391],[-7.18318,38.59379],[-7.18279,38.59382],[-7.182,38.5941],[-7.18175,38.59404],[-7.18173,38.59382],[-7.18202,38.59325],[-7.18249,38.59291],[-7.18345,38.59247],[-7.18462,38.5923],[-7.18608,38.59243],[-7.18798,38.59306],[-7.19042,38.59345],[-7.19068,38.59362],[-7.19096,38.59426],[-7.19103,38.59608],[-7.19085,38.59642],[-7.18838,38.59873],[-7.18815,38.6],[-7.18836,38.6005],[-7.18874,38.60062],[-7.18936,38.60071],[-7.18972,38.60063],[-7.19082,38.60007],[-7.1913,38.6],[-7.19189,38.60012],[-7.19343,38.60075],[-7.19355,38.60132],[-7.19344,38.60163],[-7.19224,38.60344],[-7.19232,38.60362],[-7.19285,38.60359],[-7.19367,38.6034],[-7.19434,38.60336],[-7.19479,38.60345],[-7.19609,38.60423],[-7.1966,38.60518],[-7.19727,38.60573],[-7.1976,38.6057],[-7.19799,38.60548],[-7.1994,38.60383],[-7.19988,38.60343],[-7.20071,38.60304],[-7.2015,38.6029],[-7.20328,38.6033],[-7.20612,38.60367],[-7.20648,38.60389],[-7.20687,38.60442],[-7.20678,38.6066],[-7.20698,38.60692],[-7.2072,38.60698],[-7.20766,38.60692],[-7.20865,38.60649],[-7.20953,38.60554],[-7.21003,38.60474],[-7.21036,38.6034],[-7.21057,38.60329],[-7.2121,38.6035],[-7.21296,38.60399],[-7.21209,38.60486],[-7.21164,38.60573],[-7.21153,38.60621],[-7.21156,38.60674],[-7.21191,38.60778],[-7.21221,38.60828],[-7.21241,38.60841],[-7.21296,38.60847],[-7.2133,38.60835],[-7.21375,38.60799],[-7.21495,38.60623],[-7.2154,38.60604],[-7.21607,38.60599],[-7.21771,38.60552],[-7.21887,38.60483],[-7.21976,38.60479],[-7.22003,38.60496],[-7.22012,38.60531],[-7.22009,38.60569],[-7.21995,38.6059],[-7.21767,38.60747],[-7.2173,38.60803],[-7.21729,38.60946],[-7.2175,38.61008],[-7.21798,38.61086],[-7.21865,38.611],[-7.21932,38.61106],[-7.2198,38.61078],[-7.22057,38.60987],[-7.22198,38.60919],[-7.22275,38.6084],[-7.22307,38.6082],[-7.22402,38.60803],[-7.22474,38.60817],[-7.22512,38.60833],[-7.22528,38.60854],[-7.22472,38.60987],[-7.22569,38.60988],[-7.22731,38.61037],[-7.22745,38.61029],[-7.22716,38.60887],[-7.22799,38.60737],[-7.22814,38.60693],[-7.22829,38.60618],[-7.22821,38.60442],[-7.22829,38.60403],[-7.22873,38.6037],[-7.22947,38.6035],[-7.23024,38.60345],[-7.23167,38.60378],[-7.23211,38.604],[-7.23278,38.60455],[-7.23282,38.60489],[-7.23227,38.60571],[-7.23213,38.60643],[-7.23219,38.60701],[-7.23234,38.60727],[-7.2326,38.60735],[-7.23302,38.6073],[-7.23384,38.60652],[-7.23598,38.60523],[-7.23675,38.60525],[-7.23768,38.60559],[-7.23788,38.60552],[-7.23823,38.60442],[-7.23927,38.60374],[-7.24099,38.60292],[-7.2424,38.60263],[-7.24407,38.6021],[-7.24484,38.60216],[-7.24552,38.60272],[-7.246,38.60388],[-7.24696,38.60497],[-7.24746,38.60603],[-7.24737,38.60747],[-7.24698,38.60917],[-7.24723,38.60973],[-7.24745,38.60987],[-7.24783,38.60994],[-7.24864,38.60957],[-7.24917,38.60919],[-7.24972,38.60855],[-7.25039,38.6072],[-7.25072,38.60697],[-7.25103,38.60693],[-7.25201,38.60782],[-7.25242,38.608],[-7.25281,38.60804],[-7.25401,38.60769],[-7.25466,38.60733],[-7.25545,38.60667],[-7.25628,38.60576],[-7.25861,38.60605],[-7.25973,38.60641],[-7.25927,38.6075],[-7.25858,38.60826],[-7.25781,38.61113],[-7.25744,38.61199],[-7.25649,38.61366],[-7.25502,38.61551],[-7.25412,38.61642],[-7.25251,38.61761],[-7.24934,38.61937],[-7.24848,38.61972],[-7.24617,38.62112],[-7.24468,38.62296],[-7.24432,38.62427],[-7.24432,38.62537],[-7.24524,38.62687],[-7.24553,38.62715],[-7.24653,38.62775],[-7.13977,38.6504],[-7.13862,38.65078],[-7.13706,38.65533],[-7.12956,38.65891],[-7.12538,38.66185],[-7.12405,38.66197],[-7.11543,38.67001],[-7.12273,38.63356],[-7.11801,38.62737],[-7.1156,38.62821],[-7.11014,38.62872],[-7.10689,38.62935],[-7.1048,38.62925],[-7.10063,38.6265],[-7.09647,38.62556],[-7.09679,38.61762],[-7.09283,38.61844],[-7.08708,38.61948],[-7.08397,38.62036],[-7.07936,38.62132],[-7.07541,38.62788],[-7.08497,38.63746],[-7.08038,38.64037],[-7.08151,38.64379],[-7.08133,38.64441],[-7.08135,38.64526],[-7.08155,38.6465],[-7.08246,38.64834],[-7.08305,38.65008],[-7.08264,38.65041],[-7.08235,38.65097],[-7.08339,38.6523],[-7.08394,38.65407],[-7.0838,38.65544],[-7.08112,38.65608],[-7.08309,38.65907],[-7.08378,38.66091],[-7.08374,38.66146],[-7.08481,38.66307],[-7.08591,38.66618],[-7.05503,38.68027],[-7.03759,38.68675],[-7.0225,38.68714]]]}},{"type":"Feature","properties":{"id":"0609501008"},"geometry":{"type":"Polygon","coordinates":[[[-7.09642,38.67851],[-7.09627,38.67824],[-7.09479,38.67664],[-7.0929,38.67332],[-7.09019,38.67053],[-7.08905,38.67025],[-7.08785,38.66914],[-7.08589,38.66615],[-7.08481,38.66307],[-7.08374,38.66146],[-7.08378,38.66091],[-7.08309,38.65907],[-7.08112,38.65608],[-7.0838,38.65544],[-7.08394,38.65407],[-7.08339,38.6523],[-7.08235,38.65097],[-7.08264,38.65041],[-7.08305,38.65008],[-7.08246,38.64834],[-7.08155,38.6465],[-7.08135,38.64526],[-7.08133,38.64441],[-7.08151,38.64379],[-7.08038,38.64037],[-7.08497,38.63746],[-7.07541,38.62788],[-7.07936,38.62132],[-7.08397,38.62036],[-7.08708,38.61948],[-7.09283,38.61844],[-7.09679,38.61762],[-7.09647,38.62556],[-7.10063,38.6265],[-7.1048,38.62925],[-7.10689,38.62935],[-7.11014,38.62872],[-7.1156,38.62821],[-7.11801,38.62737],[-7.12273,38.63356],[-7.11543,38.67001],[-7.11214,38.67306],[-7.11092,38.67393],[-7.11001,38.6759],[-7.10989,38.67675],[-7.10674,38.67947],[-7.10352,38.67791],[-7.10314,38.67786],[-7.10294,38.67819],[-7.10201,38.67853],[-7.09797,38.68037],[-7.0978,38.68031],[-7.09654,38.67851],[-7.09642,38.67851]]]}},{"type":"Feature","properties":{"id":"0609501009"},"geometry":{"type":"Polygon","coordinates":[[[-7.03855,38.70999],[-7.03733,38.70778],[-7.03626,38.70529],[-7.03587,38.70248],[-7.03563,38.70193],[-7.03436,38.70043],[-7.03228,38.69867],[-7.03029,38.69743],[-7.02849,38.69679],[-7.02774,38.69645],[-7.02734,38.69613],[-7.02459,38.69248],[-7.02284,38.69065],[-7.02265,38.69012],[-7.02264,38.68795],[-7.0225,38.68714],[-7.03759,38.68675],[-7.05503,38.68027],[-7.08591,38.66618],[-7.08785,38.66914],[-7.08905,38.67025],[-7.09019,38.67053],[-7.0929,38.67332],[-7.09479,38.67664],[-7.09627,38.67824],[-7.09642,38.67851],[-7.09573,38.68268],[-7.09518,38.68681],[-7.09468,38.68794],[-7.09181,38.69305],[-7.09169,38.69301],[-7.08835,38.70154],[-7.08288,38.70231],[-7.08011,38.70361],[-7.07505,38.70653],[-7.0749,38.70698],[-7.06947,38.71031],[-7.06532,38.71438],[-7.06405,38.715],[-7.03855,38.70999]]]}}]}