{"type":"FeatureCollection","features":[{"type":"Feature","properties":{"id":"0611601001"},"geometry":{"type":"Polygon","coordinates":[[[-6.8192,38.57528],[-6.81776,38.57473],[-6.81361,38.57375],[-6.80395,38.56937],[-6.80221,38.56874],[-6.80052,38.56771],[-6.80018,38.56737],[-6.79849,38.5651],[-6.795,38.56289],[-6.79346,38.56168],[-6.79328,38.56131],[-6.79321,38.56072],[-6.79327,38.55947],[-6.79233,38.55824],[-6.79127,38.55635],[-6.79104,38.55652],[-6.79095,38.55636],[-6.78954,38.55741],[-6.78623,38.55689],[-6.78415,38.55639],[-6.78208,38.55613],[-6.77821,38.55464],[-6.77488,38.5544],[-6.77231,38.55434],[-6.77147,38.55423],[-6.77139,38.55343],[-6.77107,38.55268],[-6.76962,38.55015],[-6.76869,38.54919],[-6.76653,38.54771],[-6.7652,38.54627],[-6.76376,38.54573],[-6.76335,38.54516],[-6.76241,38.54489],[-6.76199,38.54428],[-6.76203,38.54351],[-6.76176,38.54295],[-6.76027,38.5423],[-6.75915,38.54169],[-6.75818,38.54058],[-6.76943,38.53955],[-6.76939,38.53782],[-6.76982,38.53634],[-6.76951,38.53509],[-6.76987,38.53361],[-6.77066,38.53185],[-6.7714,38.53118],[-6.7732,38.53042],[-6.77394,38.52967],[-6.77374,38.52865],[-6.77386,38.52813],[-6.77691,38.52658],[-6.77842,38.52617],[-6.77977,38.52458],[-6.78109,38.52399],[-6.78326,38.52327],[-6.78381,38.52201],[-6.78457,38.52088],[-6.78229,38.51941],[-6.78066,38.51731],[-6.78121,38.51683],[-6.78099,38.5163],[-6.781,38.51579],[-6.78074,38.515],[-6.78108,38.51414],[-6.78126,38.51302],[-6.78246,38.5119],[-6.78295,38.51126],[-6.78346,38.51091],[-6.78354,38.51089],[-6.7838,38.5111],[-6.78429,38.51099],[-6.78556,38.51036],[-6.78576,38.50994],[-6.78599,38.50983],[-6.78625,38.50988],[-6.78637,38.50958],[-6.78735,38.50943],[-6.78786,38.50945],[-6.78867,38.50918],[-6.78887,38.50927],[-6.7896,38.50852],[-6.78971,38.50827],[-6.79019,38.50834],[-6.79061,38.50907],[-6.79078,38.50901],[-6.79174,38.50852],[-6.79353,38.50704],[-6.79409,38.50668],[-6.7951,38.50646],[-6.79597,38.50651],[-6.79665,38.50672],[-6.79769,38.50721],[-6.79897,38.50736],[-6.80089,38.50788],[-6.80172,38.50777],[-6.80238,38.50789],[-6.80222,38.50919],[-6.80184,38.51025],[-6.80094,38.51088],[-6.80162,38.51347],[-6.80177,38.51449],[-6.80191,38.51942],[-6.80174,38.52057],[-6.80305,38.52239],[-6.8034,38.52267],[-6.80379,38.52341],[-6.80687,38.52246],[-6.80675,38.5266],[-6.81013,38.52682],[-6.81618,38.52945],[-6.81697,38.52949],[-6.81754,38.53002],[-6.8188,38.53055],[-6.82046,38.52998],[-6.82199,38.53019],[-6.82337,38.52979],[-6.82478,38.53007],[-6.82598,38.53061],[-6.82778,38.53118],[-6.8289,38.53141],[-6.83424,38.53322],[-6.83687,38.53495],[-6.83939,38.53505],[-6.83974,38.53514],[-6.84196,38.53643],[-6.84247,38.53695],[-6.84293,38.53777],[-6.84355,38.53921],[-6.84416,38.53994],[-6.84424,38.5405],[-6.84462,38.54125],[-6.846,38.54203],[-6.8482,38.54451],[-6.84876,38.54479],[-6.84386,38.54651],[-6.83964,38.54772],[-6.8375,38.549],[-6.83647,38.54945],[-6.83379,38.55132],[-6.83274,38.55188],[-6.82767,38.55392],[-6.82744,38.55493],[-6.82741,38.55585],[-6.82651,38.55695],[-6.82523,38.5588],[-6.82472,38.55977],[-6.82436,38.56126],[-6.823,38.56397],[-6.82143,38.56803],[-6.82024,38.57178],[-6.81981,38.57355],[-6.8192,38.57528]]]}},{"type":"Feature","properties":{"id":"0611602001"},"geometry":{"type":"Polygon","coordinates":[[[-6.73886,38.52986],[-6.73891,38.52931],[-6.7379,38.52542],[-6.73729,38.52263],[-6.73623,38.52172],[-6.73133,38.51642],[-6.73,38.51526],[-6.72958,38.51478],[-6.72895,38.51342],[-6.72783,38.51143],[-6.72622,38.50908],[-6.7249,38.50874],[-6.72279,38.50779],[-6.72068,38.50522],[-6.71979,38.50388],[-6.71931,38.50302],[-6.71892,38.50164],[-6.71869,38.49923],[-6.71899,38.49735],[-6.71999,38.49413],[-6.72027,38.49252],[-6.72046,38.48785],[-6.72104,38.48663],[-6.7212,38.48543],[-6.7233,38.48212],[-6.72456,38.4796],[-6.72552,38.47749],[-6.72602,38.47572],[-6.72631,38.47361],[-6.72629,38.47225],[-6.7261,38.47071],[-6.72523,38.46769],[-6.7263,38.46303],[-6.72725,38.45768],[-6.72773,38.45565],[-6.72869,38.45577],[-6.73034,38.45576],[-6.73177,38.45605],[-6.73542,38.45593],[-6.73643,38.45607],[-6.73862,38.45657],[-6.74047,38.45661],[-6.74669,38.4578],[-6.75414,38.45896],[-6.75805,38.45923],[-6.75884,38.45963],[-6.76027,38.46006],[-6.7623,38.45982],[-6.76504,38.4602],[-6.76963,38.46103],[-6.77125,38.46185],[-6.77425,38.46283],[-6.77553,38.46267],[-6.77664,38.46292],[-6.77716,38.46293],[-6.7784,38.46261],[-6.77872,38.46261],[-6.77996,38.46298],[-6.78113,38.46345],[-6.78192,38.4641],[-6.78226,38.46504],[-6.78264,38.46713],[-6.78328,38.46917],[-6.78507,38.47236],[-6.78654,38.47633],[-6.78832,38.47896],[-6.78867,38.47931],[-6.78964,38.47983],[-6.7906,38.48014],[-6.79159,38.48116],[-6.7923,38.48175],[-6.79304,38.48372],[-6.79364,38.48673],[-6.79433,38.48896],[-6.79508,38.49061],[-6.79783,38.49517],[-6.79869,38.49692],[-6.79905,38.4983],[-6.79936,38.50091],[-6.79951,38.50135],[-6.80002,38.50213],[-6.80034,38.50335],[-6.80224,38.50671],[-6.8024,38.50745],[-6.80238,38.50789],[-6.80172,38.50777],[-6.80089,38.50788],[-6.79897,38.50736],[-6.79769,38.50721],[-6.79665,38.50672],[-6.79597,38.50651],[-6.7951,38.50646],[-6.79409,38.50668],[-6.79353,38.50704],[-6.79174,38.50852],[-6.79078,38.50901],[-6.79061,38.50907],[-6.79019,38.50834],[-6.78971,38.50827],[-6.7896,38.50852],[-6.78887,38.50927],[-6.78867,38.50918],[-6.78786,38.50945],[-6.78735,38.50943],[-6.78637,38.50958],[-6.78625,38.50988],[-6.78584,38.50987],[-6.78556,38.51036],[-6.78526,38.51054],[-6.78411,38.51105],[-6.78369,38.51108],[-6.78354,38.51089],[-6.78295,38.51126],[-6.78246,38.5119],[-6.78126,38.51302],[-6.78108,38.51414],[-6.78074,38.515],[-6.781,38.51579],[-6.78099,38.5163],[-6.78121,38.51683],[-6.78066,38.51731],[-6.78229,38.51941],[-6.78457,38.52088],[-6.78381,38.52201],[-6.78326,38.52327],[-6.78109,38.52399],[-6.77977,38.52458],[-6.77842,38.52617],[-6.77691,38.52658],[-6.77386,38.52813],[-6.77374,38.52865],[-6.77394,38.52967],[-6.7732,38.53042],[-6.7714,38.53118],[-6.77066,38.53185],[-6.76987,38.53361],[-6.76951,38.53509],[-6.76982,38.53634],[-6.76939,38.53782],[-6.76943,38.53955],[-6.75818,38.54058],[-6.75793,38.54066],[-6.75785,38.54058],[-6.75668,38.541],[-6.7551,38.54142],[-6.75183,38.5395],[-6.75,38.53811],[-6.74452,38.5335],[-6.74195,38.53173],[-6.73886,38.52986]]]}}]}