{"type":"FeatureCollection","features":[{"type":"Feature","properties":{"id":"0612801001"},"geometry":{"type":"Polygon","coordinates":[[[-6.77518,38.87907],[-6.77461,38.878],[-6.77439,38.87796],[-6.77403,38.87797],[-6.77402,38.87819],[-6.77229,38.8783],[-6.77224,38.87808],[-6.77163,38.87793],[-6.77165,38.87769],[-6.77139,38.8775],[-6.77115,38.87747],[-6.77094,38.87722],[-6.77062,38.87706],[-6.76792,38.87645],[-6.76781,38.87599],[-6.76747,38.87554],[-6.76973,38.87475],[-6.77165,38.87449],[-6.77088,38.87335],[-6.77261,38.8731],[-6.77259,38.87405],[-6.77352,38.87581],[-6.77517,38.87741],[-6.77552,38.87787],[-6.77547,38.87828],[-6.77632,38.87924],[-6.77657,38.87967],[-6.77625,38.87989],[-6.77597,38.87994],[-6.77518,38.87907]]]}},{"type":"Feature","properties":{"id":"0612801002"},"geometry":{"type":"Polygon","coordinates":[[[-6.76781,38.87609],[-6.76821,38.87724],[-6.76953,38.87858],[-6.77023,38.87902],[-6.77221,38.87988],[-6.77464,38.88],[-6.77484,38.87844],[-6.77518,38.87907],[-6.77597,38.87994],[-6.77625,38.87989],[-6.77657,38.87967],[-6.77632,38.87924],[-6.77547,38.87828],[-6.77552,38.87787],[-6.77517,38.87741],[-6.77457,38.87686],[-6.77481,38.87663],[-6.77854,38.87688],[-6.78039,38.87675],[-6.78185,38.87675],[-6.78162,38.87699],[-6.7811,38.87719],[-6.7808,38.87751],[-6.7853,38.87798],[-6.77813,38.87952],[-6.77854,38.88213],[-6.77873,38.88232],[-6.77409,38.88257],[-6.7717,38.882],[-6.76905,38.88201],[-6.76871,38.88193],[-6.76695,38.8797],[-6.76697,38.87923],[-6.7668,38.87923],[-6.76617,38.87952],[-6.76579,38.87985],[-6.76517,38.87869],[-6.7658,38.87823],[-6.7652,38.87763],[-6.76368,38.87643],[-6.76781,38.87609]]]}},{"type":"Feature","properties":{"id":"0612801003"},"geometry":{"type":"Polygon","coordinates":[[[-6.74267,38.88694],[-6.73877,38.8832],[-6.73735,38.88164],[-6.73531,38.8799],[-6.73315,38.87824],[-6.72334,38.87114],[-6.72133,38.87001],[-6.71868,38.8688],[-6.71726,38.8683],[-6.71532,38.86781],[-6.7126,38.86742],[-6.71051,38.86735],[-6.70637,38.86773],[-6.70392,38.86812],[-6.7014,38.86865],[-6.69881,38.86933],[-6.69763,38.86944],[-6.69469,38.8693],[-6.69415,38.86881],[-6.69213,38.86816],[-6.69159,38.86791],[-6.69119,38.86745],[-6.69126,38.86711],[-6.69165,38.8666],[-6.69273,38.86565],[-6.69294,38.86519],[-6.69293,38.86464],[-6.69264,38.8638],[-6.69196,38.86301],[-6.69138,38.86269],[-6.6907,38.86251],[-6.68975,38.86249],[-6.68914,38.86269],[-6.68847,38.86353],[-6.68759,38.86419],[-6.68731,38.86424],[-6.68696,38.86413],[-6.68654,38.86375],[-6.68626,38.86331],[-6.68614,38.86268],[-6.68649,38.86147],[-6.6873,38.85985],[-6.68894,38.85815],[-6.6892,38.85751],[-6.68944,38.85717],[-6.68987,38.85702],[-6.69149,38.85702],[-6.69185,38.85688],[-6.69189,38.8567],[-6.69141,38.85625],[-6.69155,38.85582],[-6.69119,38.85487],[-6.69123,38.85433],[-6.69157,38.85368],[-6.6913,38.85339],[-6.6902,38.85315],[-6.68968,38.85316],[-6.68949,38.85276],[-6.68984,38.8523],[-6.68992,38.85198],[-6.68906,38.85149],[-6.6885,38.85007],[-6.68793,38.8494],[-6.68713,38.84894],[-6.68471,38.84851],[-6.68416,38.84833],[-6.68386,38.84806],[-6.68348,38.84678],[-6.68194,38.84619],[-6.67746,38.84414],[-6.67395,38.84227],[-6.6718,38.84145],[-6.67137,38.84055],[-6.67101,38.84017],[-6.67066,38.83998],[-6.66795,38.8401],[-6.66767,38.84004],[-6.66747,38.83984],[-6.66724,38.83922],[-6.66719,38.83892],[-6.67007,38.83598],[-6.67355,38.83267],[-6.67458,38.83122],[-6.67512,38.83003],[-6.67564,38.82834],[-6.6775,38.82574],[-6.67795,38.82549],[-6.67948,38.82686],[-6.68113,38.82814],[-6.68411,38.82925],[-6.68742,38.82997],[-6.68812,38.83023],[-6.69032,38.83076],[-6.69401,38.83236],[-6.69607,38.83304],[-6.69735,38.83316],[-6.70006,38.8328],[-6.70068,38.83287],[-6.70129,38.83304],[-6.70159,38.83326],[-6.7022,38.83401],[-6.70268,38.83432],[-6.70749,38.83649],[-6.70918,38.83704],[-6.71132,38.83751],[-6.71326,38.83781],[-6.71437,38.83776],[-6.71578,38.83677],[-6.71636,38.83594],[-6.71836,38.83353],[-6.71895,38.8321],[-6.71933,38.8315],[-6.72005,38.83066],[-6.72073,38.83012],[-6.72113,38.82987],[-6.72492,38.8286],[-6.72728,38.8269],[-6.72806,38.82597],[-6.7295,38.82273],[-6.73014,38.82079],[-6.73241,38.82097],[-6.73181,38.82401],[-6.73144,38.82504],[-6.73237,38.82566],[-6.73247,38.82732],[-6.73458,38.82839],[-6.73539,38.82834],[-6.73762,38.82855],[-6.73921,38.82851],[-6.74324,38.82811],[-6.74547,38.82775],[-6.75439,38.82566],[-6.75513,38.82588],[-6.75724,38.82626],[-6.75737,38.82691],[-6.75731,38.82848],[-6.75748,38.83041],[-6.75742,38.83086],[-6.7556,38.8345],[-6.75536,38.83534],[-6.76077,38.83981],[-6.76375,38.84196],[-6.76496,38.84268],[-6.7668,38.84291],[-6.7714,38.8439],[-6.7778,38.8448],[-6.77849,38.84534],[-6.78068,38.84765],[-6.78715,38.85029],[-6.79952,38.84713],[-6.80767,38.84517],[-6.81174,38.84404],[-6.82346,38.84257],[-6.82383,38.84717],[-6.82379,38.85058],[-6.82221,38.85442],[-6.82136,38.85541],[-6.81925,38.85822],[-6.81555,38.86234],[-6.81484,38.8635],[-6.81428,38.86487],[-6.81328,38.86607],[-6.81244,38.86746],[-6.81124,38.86983],[-6.80761,38.87612],[-6.8069,38.87787],[-6.8012,38.87792],[-6.7969,38.87769],[-6.7931,38.8776],[-6.7875,38.87767],[-6.78765,38.87832],[-6.78957,38.88132],[-6.79275,38.88593],[-6.79454,38.88914],[-6.79493,38.8923],[-6.79505,38.89435],[-6.79504,38.89697],[-6.79387,38.89866],[-6.79232,38.90553],[-6.79199,38.90811],[-6.79204,38.9095],[-6.79178,38.91006],[-6.79103,38.91115],[-6.7886,38.91034],[-6.78736,38.9102],[-6.78654,38.91039],[-6.78423,38.91145],[-6.78325,38.91156],[-6.78186,38.91125],[-6.77952,38.91037],[-6.77558,38.90945],[-6.7719,38.90845],[-6.76874,38.90698],[-6.76603,38.90544],[-6.76377,38.90388],[-6.76206,38.90231],[-6.76039,38.90038],[-6.759,38.89849],[-6.75756,38.8962],[-6.75497,38.89334],[-6.75247,38.89099],[-6.75166,38.8904],[-6.75049,38.88997],[-6.74809,38.88955],[-6.74587,38.88899],[-6.7443,38.88829],[-6.74267,38.88694]],[[-6.77457,38.87686],[-6.77352,38.87581],[-6.77259,38.87405],[-6.77261,38.8731],[-6.77088,38.87335],[-6.77165,38.87449],[-6.76973,38.87475],[-6.76772,38.87542],[-6.76747,38.87554],[-6.76781,38.87609],[-6.76368,38.87643],[-6.7652,38.87763],[-6.7658,38.87823],[-6.76517,38.87869],[-6.76579,38.87985],[-6.76617,38.87952],[-6.7668,38.87923],[-6.76697,38.87923],[-6.76695,38.8797],[-6.76871,38.88193],[-6.76905,38.88201],[-6.7717,38.882],[-6.77409,38.88257],[-6.77873,38.88232],[-6.77854,38.88213],[-6.77813,38.87952],[-6.7853,38.87798],[-6.7808,38.87751],[-6.7811,38.87719],[-6.78162,38.87699],[-6.78185,38.87675],[-6.78039,38.87675],[-6.77854,38.87688],[-6.77481,38.87663],[-6.77457,38.87686]]]}},{"type":"Feature","properties":{"id":"0612801004"},"geometry":{"type":"Polygon","coordinates":[[[-6.76792,38.87645],[-6.77062,38.87706],[-6.77094,38.87722],[-6.77115,38.87747],[-6.77139,38.8775],[-6.77165,38.87769],[-6.77163,38.87793],[-6.77224,38.87808],[-6.77229,38.8783],[-6.77402,38.87819],[-6.77403,38.87797],[-6.77461,38.878],[-6.77484,38.87844],[-6.77464,38.88],[-6.77221,38.87988],[-6.77023,38.87902],[-6.76953,38.87858],[-6.76821,38.87724],[-6.76792,38.87645]]]}}]}