{"type":"FeatureCollection","features":[{"type":"Feature","properties":{"id":"0614101001"},"geometry":{"type":"Polygon","coordinates":[[[-6.49702,38.31537],[-6.49609,38.31531],[-6.49539,38.31511],[-6.49468,38.31473],[-6.49404,38.31399],[-6.49387,38.31349],[-6.49396,38.31277],[-6.49451,38.31183],[-6.49631,38.30989],[-6.49714,38.30957],[-6.49798,38.3095],[-6.49889,38.30964],[-6.49963,38.30998],[-6.50012,38.31043],[-6.50027,38.31084],[-6.50026,38.31145],[-6.50036,38.31173],[-6.50065,38.31186],[-6.50145,38.31185],[-6.50184,38.31164],[-6.50239,38.31111],[-6.50269,38.3106],[-6.50285,38.30895],[-6.50278,38.30862],[-6.50249,38.30817],[-6.50228,38.30741],[-6.50201,38.30691],[-6.50154,38.30651],[-6.50086,38.30607],[-6.50027,38.3059],[-6.49915,38.30599],[-6.49797,38.30627],[-6.49559,38.30715],[-6.49365,38.30811],[-6.49299,38.30834],[-6.49189,38.30839],[-6.48882,38.307],[-6.4882,38.3062],[-6.48775,38.30582],[-6.48555,38.30489],[-6.48351,38.30477],[-6.4828,38.30483],[-6.48151,38.30516],[-6.47846,38.30431],[-6.47814,38.30432],[-6.47776,38.30434],[-6.47534,38.30506],[-6.47468,38.30517],[-6.47283,38.30523],[-6.47183,38.30542],[-6.47059,38.3059],[-6.46984,38.30601],[-6.46906,38.30601],[-6.46695,38.30561],[-6.46534,38.30561],[-6.46484,38.30569],[-6.46365,38.30684],[-6.46312,38.30715],[-6.46272,38.30721],[-6.46069,38.30698],[-6.45983,38.30679],[-6.45914,38.30645],[-6.45755,38.30505],[-6.45685,38.30495],[-6.45427,38.30513],[-6.45296,38.30435],[-6.45172,38.30382],[-6.45204,38.30242],[-6.45238,38.29906],[-6.45205,38.29784],[-6.45147,38.29635],[-6.45159,38.29565],[-6.45357,38.29419],[-6.45433,38.29206],[-6.45433,38.29061],[-6.45404,38.28903],[-6.45593,38.28715],[-6.45658,38.2857],[-6.45855,38.28328],[-6.46101,38.28069],[-6.4652,38.27672],[-6.46781,38.2736],[-6.47105,38.27025],[-6.47273,38.26823],[-6.47318,38.26727],[-6.47374,38.2664],[-6.47412,38.26601],[-6.47516,38.2658],[-6.47569,38.26579],[-6.47604,38.26584],[-6.47648,38.26607],[-6.47654,38.26602],[-6.47684,38.26628],[-6.47791,38.2662],[-6.47941,38.2664],[-6.48078,38.26712],[-6.48181,38.26729],[-6.48353,38.2678],[-6.48562,38.26863],[-6.48614,38.26934],[-6.48714,38.26989],[-6.48965,38.27041],[-6.49069,38.27094],[-6.49469,38.27091],[-6.49622,38.27055],[-6.497,38.27019],[-6.49835,38.27037],[-6.49905,38.2702],[-6.49948,38.27029],[-6.50045,38.27028],[-6.50087,38.27038],[-6.50172,38.27025],[-6.50293,38.27048],[-6.50319,38.27019],[-6.50454,38.27028],[-6.5059,38.27057],[-6.50724,38.27028],[-6.50857,38.26983],[-6.50955,38.26935],[-6.51149,38.26887],[-6.51254,38.26818],[-6.51427,38.26794],[-6.51509,38.26799],[-6.51568,38.26783],[-6.51823,38.26808],[-6.5205,38.26885],[-6.52084,38.26918],[-6.52096,38.26961],[-6.5212,38.26984],[-6.52336,38.27061],[-6.52738,38.27145],[-6.52885,38.27159],[-6.52793,38.27421],[-6.52741,38.27614],[-6.52742,38.27662],[-6.5277,38.27738],[-6.5289,38.27842],[-6.53077,38.27944],[-6.53359,38.28166],[-6.53573,38.28253],[-6.53637,38.28271],[-6.53739,38.28271],[-6.53854,38.2825],[-6.53973,38.28207],[-6.54193,38.28177],[-6.5433,38.28116],[-6.54374,38.28106],[-6.54487,38.28058],[-6.54564,38.28003],[-6.54694,38.27979],[-6.54777,38.27949],[-6.54941,38.27938],[-6.55056,38.27972],[-6.55123,38.28028],[-6.55158,38.28036],[-6.5527,38.27999],[-6.55344,38.28009],[-6.55502,38.28119],[-6.55545,38.28159],[-6.55583,38.2825],[-6.55488,38.28601],[-6.55467,38.28748],[-6.55484,38.2882],[-6.55602,38.28962],[-6.55691,38.29037],[-6.55899,38.29137],[-6.55937,38.29139],[-6.55997,38.29166],[-6.56158,38.29267],[-6.56236,38.29335],[-6.563,38.29444],[-6.5633,38.29541],[-6.56389,38.29654],[-6.56445,38.29827],[-6.56524,38.29978],[-6.56622,38.30074],[-6.56855,38.30236],[-6.56935,38.30277],[-6.57179,38.30341],[-6.57481,38.30432],[-6.57629,38.30505],[-6.57822,38.30649],[-6.57779,38.30677],[-6.57601,38.30719],[-6.57545,38.30755],[-6.57512,38.30771],[-6.57513,38.30755],[-6.57393,38.30821],[-6.57314,38.30839],[-6.57131,38.30798],[-6.57007,38.30788],[-6.56729,38.30746],[-6.56583,38.30706],[-6.56421,38.30639],[-6.56335,38.30638],[-6.56299,38.30646],[-6.56228,38.30691],[-6.56143,38.30789],[-6.56072,38.30892],[-6.56057,38.30931],[-6.56059,38.30996],[-6.56331,38.31392],[-6.5634,38.31484],[-6.5633,38.31507],[-6.56307,38.31523],[-6.56234,38.31517],[-6.56173,38.31495],[-6.56051,38.31434],[-6.56013,38.31409],[-6.55958,38.31338],[-6.55911,38.31312],[-6.55613,38.3129],[-6.55549,38.31298],[-6.55515,38.31312],[-6.55372,38.31427],[-6.55215,38.31509],[-6.55098,38.31553],[-6.54957,38.31582],[-6.54855,38.31564],[-6.54693,38.31445],[-6.54538,38.3139],[-6.54418,38.31335],[-6.54315,38.31269],[-6.54173,38.31074],[-6.54086,38.30923],[-6.5397,38.30812],[-6.53953,38.30802],[-6.53832,38.30783],[-6.53684,38.30784],[-6.53646,38.30793],[-6.53545,38.30848],[-6.53541,38.30931],[-6.53563,38.30977],[-6.53596,38.30995],[-6.53752,38.31002],[-6.53821,38.31021],[-6.5389,38.31104],[-6.53907,38.31146],[-6.53905,38.31305],[-6.53866,38.31416],[-6.5369,38.31545],[-6.53536,38.31596],[-6.53443,38.31612],[-6.533,38.31587],[-6.53261,38.31567],[-6.53184,38.31429],[-6.53125,38.31393],[-6.53072,38.31383],[-6.52896,38.31388],[-6.52771,38.31454],[-6.52682,38.31527],[-6.52574,38.31659],[-6.52564,38.31716],[-6.52521,38.31774],[-6.52406,38.32004],[-6.52389,38.32015],[-6.52296,38.32001],[-6.52132,38.31936],[-6.51933,38.31877],[-6.51801,38.31857],[-6.51749,38.31864],[-6.51701,38.31888],[-6.5157,38.31988],[-6.5152,38.3201],[-6.51443,38.32027],[-6.51344,38.32036],[-6.51301,38.32027],[-6.51246,38.32004],[-6.51203,38.31969],[-6.51178,38.31921],[-6.51177,38.31877],[-6.51262,38.31668],[-6.51255,38.31621],[-6.51235,38.31581],[-6.51172,38.31532],[-6.51092,38.31484],[-6.51035,38.31463],[-6.50948,38.31465],[-6.50845,38.31507],[-6.5051,38.31609],[-6.50451,38.31591],[-6.50349,38.31518],[-6.50236,38.31469],[-6.50181,38.31456],[-6.50102,38.31456],[-6.49702,38.31537]]]}},{"type":"Feature","properties":{"id":"0614101002"},"geometry":{"type":"Polygon","coordinates":[[[-6.41009,38.27253],[-6.40841,38.27008],[-6.4079,38.26869],[-6.40777,38.26782],[-6.40824,38.26569],[-6.40821,38.26427],[-6.40789,38.26284],[-6.40801,38.2612],[-6.40858,38.26045],[-6.40862,38.26008],[-6.40791,38.25863],[-6.40692,38.25701],[-6.40636,38.25505],[-6.40627,38.25417],[-6.40621,38.25108],[-6.40607,38.25011],[-6.40656,38.2479],[-6.40636,38.24605],[-6.40686,38.24374],[-6.4069,38.24199],[-6.40771,38.23976],[-6.40756,38.23693],[-6.4074,38.23667],[-6.40574,38.23533],[-6.41388,38.2172],[-6.41382,38.21638],[-6.41341,38.21558],[-6.41686,38.21357],[-6.41818,38.2071],[-6.41822,38.20395],[-6.41875,38.20207],[-6.41847,38.20108],[-6.41938,38.19896],[-6.41858,38.19856],[-6.42551,38.17791],[-6.42743,38.1787],[-6.42803,38.17914],[-6.42902,38.18032],[-6.42905,38.18209],[-6.42926,38.18249],[-6.43018,38.18362],[-6.42987,38.18456],[-6.43002,38.18559],[-6.42989,38.18639],[-6.42973,38.18682],[-6.42855,38.18776],[-6.42815,38.18854],[-6.42807,38.18914],[-6.42823,38.18963],[-6.4276,38.19114],[-6.42734,38.1929],[-6.4275,38.19526],[-6.42762,38.19593],[-6.42816,38.19692],[-6.42813,38.19717],[-6.42728,38.19824],[-6.42704,38.1989],[-6.42715,38.19936],[-6.42749,38.19977],[-6.42807,38.20013],[-6.42966,38.20039],[-6.43201,38.20108],[-6.43382,38.20182],[-6.43448,38.20217],[-6.43671,38.2043],[-6.43749,38.20472],[-6.43819,38.2048],[-6.43876,38.20472],[-6.43922,38.20446],[-6.44091,38.20298],[-6.44173,38.20247],[-6.4423,38.20231],[-6.44266,38.2024],[-6.44396,38.20326],[-6.44438,38.20341],[-6.44625,38.20364],[-6.44662,38.20388],[-6.44694,38.20427],[-6.44701,38.20485],[-6.44681,38.20688],[-6.44754,38.20935],[-6.44898,38.21082],[-6.44974,38.21136],[-6.4504,38.21169],[-6.45104,38.2117],[-6.4539,38.21112],[-6.45602,38.21096],[-6.45711,38.21143],[-6.45749,38.21182],[-6.45869,38.21373],[-6.45936,38.2144],[-6.46,38.21471],[-6.46066,38.21476],[-6.46139,38.21465],[-6.46192,38.21444],[-6.46287,38.21327],[-6.46338,38.21285],[-6.46409,38.21246],[-6.46459,38.21238],[-6.46493,38.21248],[-6.46569,38.21344],[-6.46623,38.21448],[-6.46654,38.21473],[-6.46781,38.21481],[-6.46907,38.2147],[-6.47148,38.21405],[-6.47198,38.21412],[-6.47257,38.21435],[-6.47367,38.21501],[-6.47397,38.21531],[-6.47515,38.21742],[-6.4761,38.218],[-6.47722,38.2193],[-6.47752,38.21977],[-6.47785,38.22161],[-6.47785,38.22216],[-6.47744,38.22401],[-6.47697,38.22481],[-6.47525,38.22689],[-6.47478,38.2272],[-6.473,38.22765],[-6.47261,38.22837],[-6.47229,38.22937],[-6.47223,38.2303],[-6.47284,38.23275],[-6.47324,38.23357],[-6.47429,38.23467],[-6.47512,38.23587],[-6.47546,38.23668],[-6.47579,38.23828],[-6.47585,38.23913],[-6.47574,38.23962],[-6.47548,38.24026],[-6.47454,38.24152],[-6.47433,38.24204],[-6.47435,38.24264],[-6.47449,38.24302],[-6.47571,38.24422],[-6.4765,38.24522],[-6.47676,38.24532],[-6.47803,38.24527],[-6.4786,38.24535],[-6.48054,38.24609],[-6.48278,38.24737],[-6.48406,38.2484],[-6.48551,38.24928],[-6.48626,38.24953],[-6.48658,38.2498],[-6.48675,38.25024],[-6.48727,38.25049],[-6.4908,38.25129],[-6.49153,38.25126],[-6.49494,38.25162],[-6.49742,38.25214],[-6.49894,38.25224],[-6.50046,38.25267],[-6.50105,38.253],[-6.50212,38.25308],[-6.50254,38.25323],[-6.50353,38.25456],[-6.50404,38.25496],[-6.50493,38.25596],[-6.50496,38.25714],[-6.5053,38.25848],[-6.50567,38.25902],[-6.50615,38.25945],[-6.50928,38.25952],[-6.51111,38.25911],[-6.51281,38.25783],[-6.51317,38.2574],[-6.51339,38.25684],[-6.51346,38.25535],[-6.51368,38.25491],[-6.51509,38.2544],[-6.51563,38.2543],[-6.51634,38.25434],[-6.51681,38.2545],[-6.51755,38.255],[-6.51807,38.25523],[-6.519,38.25607],[-6.51985,38.25805],[-6.52094,38.25936],[-6.52178,38.26004],[-6.52218,38.26059],[-6.52235,38.26145],[-6.52235,38.26214],[-6.52314,38.26299],[-6.52332,38.26362],[-6.52366,38.26418],[-6.52363,38.26468],[-6.52376,38.26493],[-6.52417,38.26526],[-6.5247,38.26539],[-6.52645,38.2653],[-6.52709,38.26549],[-6.52763,38.26536],[-6.52806,38.26536],[-6.52897,38.26556],[-6.53011,38.26619],[-6.53058,38.26673],[-6.53066,38.26708],[-6.53044,38.26741],[-6.52991,38.26773],[-6.52979,38.26797],[-6.52964,38.26912],[-6.52923,38.26999],[-6.52885,38.27159],[-6.52738,38.27145],[-6.52336,38.27061],[-6.5212,38.26984],[-6.52096,38.26961],[-6.52084,38.26918],[-6.5205,38.26885],[-6.51823,38.26808],[-6.51568,38.26783],[-6.51509,38.26799],[-6.51427,38.26794],[-6.51254,38.26818],[-6.51149,38.26887],[-6.50955,38.26935],[-6.50857,38.26983],[-6.50724,38.27028],[-6.5059,38.27057],[-6.50454,38.27028],[-6.50319,38.27019],[-6.50293,38.27048],[-6.50172,38.27025],[-6.50087,38.27038],[-6.50045,38.27028],[-6.49948,38.27029],[-6.49905,38.2702],[-6.49835,38.27037],[-6.497,38.27019],[-6.49622,38.27055],[-6.49469,38.27091],[-6.49069,38.27094],[-6.48965,38.27041],[-6.48714,38.26989],[-6.48614,38.26934],[-6.48562,38.26863],[-6.48353,38.2678],[-6.48181,38.26729],[-6.48078,38.26712],[-6.47941,38.2664],[-6.47791,38.2662],[-6.47684,38.26628],[-6.47654,38.26602],[-6.47648,38.26607],[-6.47604,38.26584],[-6.47569,38.26579],[-6.47516,38.2658],[-6.474,38.26606],[-6.47318,38.26727],[-6.47273,38.26823],[-6.47105,38.27025],[-6.46781,38.2736],[-6.4652,38.27672],[-6.46101,38.28069],[-6.45855,38.28328],[-6.45658,38.2857],[-6.45593,38.28715],[-6.45404,38.28903],[-6.45433,38.29061],[-6.45433,38.29206],[-6.45357,38.29419],[-6.45159,38.29565],[-6.45147,38.29635],[-6.45205,38.29784],[-6.45238,38.29906],[-6.45204,38.30242],[-6.45172,38.30382],[-6.45107,38.30348],[-6.44866,38.30305],[-6.44687,38.30286],[-6.44599,38.30262],[-6.44466,38.3021],[-6.44331,38.30077],[-6.44278,38.30037],[-6.44219,38.30012],[-6.44042,38.30007],[-6.4387,38.29975],[-6.43826,38.2996],[-6.43764,38.29917],[-6.43745,38.2989],[-6.43748,38.29836],[-6.43811,38.29746],[-6.43923,38.29619],[-6.43939,38.29564],[-6.43937,38.29516],[-6.43919,38.29468],[-6.43852,38.29392],[-6.43745,38.29311],[-6.43659,38.29216],[-6.43606,38.29138],[-6.43584,38.29092],[-6.43562,38.28875],[-6.43519,38.28817],[-6.43453,38.28755],[-6.43213,38.28593],[-6.43148,38.28573],[-6.43054,38.28574],[-6.43005,38.2859],[-6.42922,38.28671],[-6.42863,38.28754],[-6.42819,38.28785],[-6.42649,38.29016],[-6.42602,38.29062],[-6.42545,38.29086],[-6.42405,38.29022],[-6.42125,38.28757],[-6.41881,38.28606],[-6.41775,38.28553],[-6.41724,38.28537],[-6.41647,38.28528],[-6.41593,38.28504],[-6.4157,38.28477],[-6.41556,38.28406],[-6.41561,38.28343],[-6.41601,38.28271],[-6.41619,38.28195],[-6.4162,38.28138],[-6.41583,38.28094],[-6.41501,38.28063],[-6.41398,38.28051],[-6.41283,38.28054],[-6.41246,38.28016],[-6.41215,38.2797],[-6.41202,38.27917],[-6.41223,38.27823],[-6.41302,38.27642],[-6.41298,38.27579],[-6.41262,38.27511],[-6.41171,38.27398],[-6.41009,38.27253]]]}}]}