{"type":"FeatureCollection","features":[{"type":"Feature","properties":{"id":"0615801001"},"geometry":{"type":"Polygon","coordinates":[[[-6.41376,38.42062],[-6.41394,38.42057],[-6.41274,38.41779],[-6.41764,38.4168],[-6.41796,38.41686],[-6.41825,38.41704],[-6.41895,38.41777],[-6.41828,38.41886],[-6.41801,38.42025],[-6.41775,38.42066],[-6.41662,38.42146],[-6.41513,38.42207],[-6.41515,38.42194],[-6.41376,38.42062]]]}},{"type":"Feature","properties":{"id":"0615801002"},"geometry":{"type":"Polygon","coordinates":[[[-6.41798,38.42322],[-6.42017,38.42325],[-6.4213,38.42283],[-6.42231,38.42258],[-6.42545,38.42204],[-6.4256,38.42213],[-6.42551,38.42229],[-6.42509,38.42277],[-6.42447,38.42374],[-6.42525,38.42554],[-6.42523,38.42557],[-6.42416,38.42561],[-6.4222,38.42592],[-6.42141,38.42587],[-6.42108,38.42567],[-6.42023,38.42602],[-6.41988,38.42628],[-6.41934,38.42546],[-6.41913,38.42555],[-6.41798,38.42322]]]}},{"type":"Feature","properties":{"id":"0615801003"},"geometry":{"type":"Polygon","coordinates":[[[-6.42037,38.43096],[-6.41965,38.42983],[-6.41843,38.42974],[-6.4184,38.42959],[-6.41802,38.42917],[-6.41712,38.42832],[-6.41823,38.42748],[-6.41842,38.42758],[-6.41922,38.42665],[-6.41985,38.42634],[-6.42023,38.42602],[-6.42091,38.42571],[-6.42112,38.42568],[-6.42141,38.42587],[-6.4222,38.42592],[-6.42416,38.42561],[-6.42523,38.42557],[-6.42554,38.42721],[-6.42368,38.42812],[-6.42427,38.42875],[-6.42372,38.42902],[-6.42465,38.4295],[-6.42463,38.42971],[-6.42352,38.43013],[-6.42272,38.42945],[-6.42426,38.43382],[-6.42401,38.43409],[-6.42319,38.4344],[-6.42294,38.4329],[-6.42273,38.43231],[-6.4224,38.432],[-6.42163,38.4315],[-6.42037,38.43096]]]}},{"type":"Feature","properties":{"id":"0615801004"},"geometry":{"type":"Polygon","coordinates":[[[-6.41652,38.42825],[-6.41591,38.4276],[-6.41509,38.42637],[-6.41457,38.42407],[-6.41749,38.42325],[-6.41798,38.42322],[-6.41913,38.42555],[-6.41934,38.42546],[-6.41988,38.42628],[-6.41899,38.42683],[-6.41842,38.42758],[-6.41823,38.42748],[-6.41712,38.42832],[-6.41675,38.4281],[-6.41652,38.42825]]]}},{"type":"Feature","properties":{"id":"0615801005"},"geometry":{"type":"Polygon","coordinates":[[[-6.41586,38.42177],[-6.41671,38.4214],[-6.4179,38.4205],[-6.41828,38.41886],[-6.41889,38.41775],[-6.42062,38.41864],[-6.42153,38.42016],[-6.42459,38.42045],[-6.42497,38.42211],[-6.42231,38.42258],[-6.4213,38.42283],[-6.42017,38.42325],[-6.41832,38.42317],[-6.41749,38.42325],[-6.4167,38.42345],[-6.41616,38.42216],[-6.41586,38.42177]]]}},{"type":"Feature","properties":{"id":"0615801006"},"geometry":{"type":"Polygon","coordinates":[[[-6.41274,38.41779],[-6.41194,38.41615],[-6.41144,38.4143],[-6.41036,38.41282],[-6.41434,38.41375],[-6.41509,38.41432],[-6.41617,38.41393],[-6.41687,38.41356],[-6.4176,38.41432],[-6.42011,38.41369],[-6.4228,38.41427],[-6.41915,38.41744],[-6.41895,38.41777],[-6.41825,38.41704],[-6.41796,38.41686],[-6.41764,38.4168],[-6.41274,38.41779]]]}},{"type":"Feature","properties":{"id":"0615802001"},"geometry":{"type":"Polygon","coordinates":[[[-6.51282,38.49568],[-6.51129,38.49346],[-6.50973,38.49149],[-6.50973,38.49117],[-6.51016,38.49039],[-6.50997,38.48999],[-6.50823,38.488],[-6.50725,38.48638],[-6.50261,38.48337],[-6.50205,38.48285],[-6.50154,38.4822],[-6.50084,38.48056],[-6.49825,38.47784],[-6.4949,38.47948],[-6.49364,38.47998],[-6.49284,38.48041],[-6.49181,38.48116],[-6.49106,38.48146],[-6.4897,38.48169],[-6.48869,38.48175],[-6.48777,38.48159],[-6.4863,38.4811],[-6.48462,38.48042],[-6.47618,38.47474],[-6.47392,38.47284],[-6.47091,38.47069],[-6.46983,38.47012],[-6.46849,38.46957],[-6.46713,38.46922],[-6.46525,38.46908],[-6.46333,38.46752],[-6.46227,38.46691],[-6.4601,38.46614],[-6.45597,38.46733],[-6.45106,38.46489],[-6.44798,38.46356],[-6.44648,38.46376],[-6.44525,38.46581],[-6.44511,38.46656],[-6.44468,38.46722],[-6.44425,38.46758],[-6.44418,38.46845],[-6.44377,38.4688],[-6.44306,38.4704],[-6.44257,38.4705],[-6.44224,38.47134],[-6.44116,38.47295],[-6.44022,38.4747],[-6.4398,38.47522],[-6.43903,38.47571],[-6.438,38.47607],[-6.43652,38.47607],[-6.43453,38.47585],[-6.43277,38.47546],[-6.43151,38.47492],[-6.42794,38.47293],[-6.42747,38.47258],[-6.42707,38.47113],[-6.42635,38.46982],[-6.42713,38.46526],[-6.42752,38.46435],[-6.43038,38.45979],[-6.42968,38.45935],[-6.42732,38.45848],[-6.42672,38.4581],[-6.42544,38.45693],[-6.4243,38.45607],[-6.42294,38.45539],[-6.42255,38.45466],[-6.42241,38.45413],[-6.42209,38.45368],[-6.42175,38.45343],[-6.42025,38.45316],[-6.41923,38.45321],[-6.41868,38.4528],[-6.41808,38.45284],[-6.41744,38.4527],[-6.41704,38.45232],[-6.41555,38.45214],[-6.41482,38.45091],[-6.41382,38.44975],[-6.41262,38.44878],[-6.41051,38.44763],[-6.41071,38.44728],[-6.41014,38.44687],[-6.40679,38.44544],[-6.40542,38.44499],[-6.40229,38.44477],[-6.3953,38.43661],[-6.39548,38.43512],[-6.39532,38.43351],[-6.39538,38.43191],[-6.40147,38.43178],[-6.40234,38.43271],[-6.40384,38.43211],[-6.40402,38.43194],[-6.40419,38.43226],[-6.40451,38.43238],[-6.40631,38.43221],[-6.4067,38.43208],[-6.40712,38.43164],[-6.40798,38.43167],[-6.40789,38.43136],[-6.40874,38.43119],[-6.41303,38.42928],[-6.41215,38.42814],[-6.41188,38.42764],[-6.4125,38.42737],[-6.41245,38.42729],[-6.41383,38.42672],[-6.41511,38.42639],[-6.41591,38.4276],[-6.41641,38.42814],[-6.41568,38.42892],[-6.41422,38.43082],[-6.41289,38.43287],[-6.4176,38.4328],[-6.41825,38.43259],[-6.41915,38.43158],[-6.42037,38.43096],[-6.42163,38.4315],[-6.4224,38.432],[-6.42273,38.43231],[-6.42294,38.4329],[-6.42319,38.4344],[-6.42401,38.43409],[-6.42426,38.43382],[-6.42272,38.42945],[-6.42352,38.43013],[-6.42463,38.42971],[-6.42465,38.4295],[-6.42372,38.42902],[-6.42427,38.42875],[-6.42368,38.42812],[-6.42554,38.42721],[-6.42525,38.42554],[-6.42447,38.42374],[-6.4256,38.42213],[-6.42545,38.42204],[-6.42497,38.42211],[-6.42459,38.42045],[-6.42153,38.42016],[-6.42062,38.41864],[-6.41894,38.41778],[-6.41915,38.41744],[-6.4228,38.41427],[-6.42011,38.41369],[-6.4176,38.41432],[-6.41687,38.41356],[-6.41617,38.41393],[-6.41509,38.41432],[-6.41434,38.41375],[-6.41036,38.41282],[-6.40999,38.41225],[-6.4098,38.41146],[-6.40998,38.4105],[-6.4099,38.40989],[-6.40884,38.40871],[-6.4078,38.40846],[-6.40734,38.4081],[-6.40671,38.40709],[-6.40616,38.40546],[-6.40829,38.40296],[-6.40918,38.40172],[-6.40992,38.40103],[-6.41011,38.39941],[-6.41065,38.39786],[-6.41095,38.39797],[-6.41161,38.39721],[-6.41381,38.39536],[-6.41817,38.39195],[-6.41976,38.38968],[-6.42531,38.38407],[-6.42697,38.38201],[-6.43078,38.37849],[-6.43243,38.37638],[-6.43336,38.37548],[-6.4345,38.37475],[-6.43562,38.3742],[-6.43724,38.37363],[-6.44061,38.37806],[-6.44061,38.37872],[-6.44079,38.37901],[-6.4414,38.37951],[-6.44164,38.3802],[-6.44196,38.38045],[-6.44237,38.38115],[-6.44288,38.38157],[-6.44342,38.38261],[-6.44575,38.38455],[-6.44788,38.3869],[-6.45057,38.39018],[-6.4503,38.39176],[-6.45,38.39285],[-6.45071,38.3934],[-6.45169,38.3947],[-6.45443,38.39877],[-6.45737,38.40421],[-6.4587,38.40527],[-6.45747,38.40594],[-6.45841,38.40728],[-6.45888,38.4085],[-6.45903,38.40925],[-6.45888,38.41485],[-6.4592,38.41544],[-6.45972,38.41611],[-6.46084,38.41677],[-6.46325,38.41843],[-6.46472,38.4199],[-6.4668,38.42153],[-6.47037,38.42502],[-6.4709,38.4257],[-6.47201,38.42765],[-6.4735,38.42926],[-6.47369,38.42973],[-6.47392,38.43128],[-6.47506,38.43243],[-6.47782,38.43584],[-6.47916,38.43734],[-6.48993,38.44169],[-6.49314,38.44323],[-6.50414,38.44889],[-6.49957,38.45387],[-6.50045,38.45464],[-6.50237,38.45589],[-6.50512,38.45693],[-6.50612,38.45743],[-6.5067,38.45789],[-6.50761,38.45834],[-6.5086,38.45864],[-6.50981,38.45881],[-6.51306,38.46299],[-6.51918,38.4673],[-6.52066,38.46857],[-6.52099,38.46903],[-6.52132,38.46921],[-6.52369,38.46956],[-6.52461,38.47037],[-6.52511,38.47101],[-6.52576,38.47271],[-6.52455,38.47304],[-6.52404,38.47338],[-6.52379,38.47374],[-6.52373,38.47403],[-6.52419,38.47508],[-6.52426,38.47572],[-6.52413,38.47623],[-6.52132,38.4783],[-6.52111,38.47857],[-6.5209,38.47968],[-6.52064,38.48035],[-6.51942,38.48113],[-6.51853,38.48147],[-6.51625,38.48153],[-6.51549,38.48173],[-6.51453,38.48239],[-6.51351,38.48331],[-6.51233,38.48458],[-6.51206,38.48566],[-6.5108,38.48732],[-6.51059,38.48818],[-6.5106,38.48904],[-6.51178,38.49174],[-6.51266,38.49464],[-6.51282,38.49568]]]}},{"type":"Feature","properties":{"id":"0615802002"},"geometry":{"type":"Polygon","coordinates":[[[-6.39538,38.43191],[-6.3956,38.42708],[-6.39584,38.42591],[-6.3968,38.4234],[-6.39689,38.422],[-6.39745,38.42105],[-6.40027,38.41503],[-6.40159,38.41575],[-6.40271,38.41656],[-6.40866,38.42129],[-6.41139,38.4229],[-6.41196,38.4237],[-6.41202,38.42472],[-6.41457,38.42409],[-6.41511,38.42639],[-6.41383,38.42672],[-6.41245,38.42729],[-6.4125,38.42737],[-6.41188,38.42764],[-6.41215,38.42814],[-6.41303,38.42928],[-6.40874,38.43119],[-6.40789,38.43136],[-6.40798,38.43167],[-6.40712,38.43164],[-6.4067,38.43208],[-6.40631,38.43221],[-6.40451,38.43238],[-6.40419,38.43226],[-6.40402,38.43194],[-6.40384,38.43211],[-6.40234,38.43271],[-6.40147,38.43178],[-6.39538,38.43191]]]}},{"type":"Feature","properties":{"id":"0615802003"},"geometry":{"type":"Polygon","coordinates":[[[-6.41061,38.42244],[-6.41065,38.42198],[-6.41096,38.42154],[-6.41113,38.42158],[-6.41319,38.4202],[-6.41506,38.42186],[-6.41513,38.42207],[-6.41586,38.42177],[-6.41599,38.42188],[-6.4167,38.42345],[-6.41457,38.42409],[-6.41202,38.42472],[-6.41204,38.42398],[-6.41189,38.42354],[-6.41139,38.4229],[-6.41061,38.42244]]]}},{"type":"Feature","properties":{"id":"0615802004"},"geometry":{"type":"Polygon","coordinates":[[[-6.41376,38.42062],[-6.41319,38.4202],[-6.41287,38.42035],[-6.41113,38.42158],[-6.41096,38.42154],[-6.41065,38.42198],[-6.41061,38.42244],[-6.40866,38.42129],[-6.40271,38.41656],[-6.40159,38.41575],[-6.40027,38.41503],[-6.40187,38.41163],[-6.4035,38.409],[-6.40516,38.40659],[-6.40616,38.40546],[-6.40671,38.40709],[-6.40734,38.4081],[-6.4078,38.40846],[-6.40884,38.40871],[-6.4099,38.40989],[-6.40998,38.4105],[-6.4098,38.41146],[-6.40999,38.41225],[-6.41144,38.4143],[-6.41194,38.41615],[-6.4131,38.41848],[-6.41354,38.4198],[-6.41394,38.42057],[-6.41376,38.42062]]]}},{"type":"Feature","properties":{"id":"0615802005"},"geometry":{"type":"Polygon","coordinates":[[[-6.41641,38.42814],[-6.41652,38.42825],[-6.41675,38.4281],[-6.41712,38.42832],[-6.41802,38.42917],[-6.4184,38.42959],[-6.41843,38.42974],[-6.41965,38.42983],[-6.42037,38.43096],[-6.41915,38.43158],[-6.41825,38.43259],[-6.4176,38.4328],[-6.41289,38.43287],[-6.41422,38.43082],[-6.41568,38.42892],[-6.41641,38.42814]]]}}]}