{"type":"FeatureCollection","features":[{"type":"Feature","properties":{"id":"0616001001"},"geometry":{"type":"Polygon","coordinates":[[[-5.64592,38.66345],[-5.64572,38.66153],[-5.64595,38.66082],[-5.64633,38.66032],[-5.64781,38.65898],[-5.6481,38.65853],[-5.64864,38.65799],[-5.64874,38.65771],[-5.65,38.65696],[-5.65146,38.65556],[-5.65264,38.65495],[-5.6541,38.65385],[-5.65494,38.6534],[-5.65819,38.65121],[-5.65893,38.65142],[-5.65907,38.65136],[-5.65938,38.65141],[-5.65961,38.65127],[-5.66,38.65151],[-5.66098,38.65186],[-5.66178,38.65256],[-5.6628,38.65292],[-5.66254,38.65317],[-5.6625,38.65412],[-5.66357,38.65604],[-5.66395,38.65709],[-5.66555,38.65908],[-5.66611,38.65956],[-5.66713,38.66011],[-5.6683,38.66091],[-5.6688,38.66158],[-5.67008,38.66272],[-5.66996,38.66383],[-5.66967,38.66443],[-5.66932,38.66603],[-5.66945,38.66642],[-5.66919,38.66801],[-5.66924,38.66945],[-5.66972,38.67027],[-5.66919,38.67129],[-5.66915,38.67155],[-5.66928,38.67185],[-5.66979,38.67258],[-5.67009,38.67276],[-5.67022,38.67307],[-5.67033,38.67315],[-5.67073,38.67314],[-5.67194,38.67425],[-5.67278,38.67484],[-5.674,38.67626],[-5.67397,38.67693],[-5.67451,38.678],[-5.6757,38.67868],[-5.67622,38.68034],[-5.67618,38.68056],[-5.67579,38.68096],[-5.67592,38.68266],[-5.67668,38.68324],[-5.67687,38.68381],[-5.6774,38.68442],[-5.67725,38.68486],[-5.67724,38.6854],[-5.67752,38.6864],[-5.67771,38.68674],[-5.67833,38.68733],[-5.67809,38.68816],[-5.6786,38.68936],[-5.67816,38.68985],[-5.67833,38.69029],[-5.67896,38.69052],[-5.67973,38.69192],[-5.68266,38.69299],[-5.68331,38.69378],[-5.68436,38.69558],[-5.68387,38.69781],[-5.6843,38.69958],[-5.68584,38.70205],[-5.68609,38.70318],[-5.68704,38.70372],[-5.68713,38.70452],[-5.68735,38.70502],[-5.68726,38.70579],[-5.687,38.70657],[-5.68714,38.70719],[-5.68849,38.7082],[-5.69055,38.71051],[-5.68894,38.70992],[-5.68693,38.70901],[-5.68509,38.70795],[-5.68304,38.70714],[-5.68136,38.70681],[-5.6787,38.70608],[-5.67739,38.70582],[-5.67477,38.70582],[-5.67372,38.70567],[-5.67231,38.70526],[-5.67124,38.7052],[-5.66898,38.70554],[-5.66819,38.70575],[-5.6643,38.70701],[-5.66101,38.70837],[-5.66028,38.70856],[-5.65733,38.70892],[-5.65566,38.70889],[-5.65399,38.71372],[-5.65256,38.71589],[-5.65154,38.71774],[-5.65008,38.72003],[-5.64723,38.72538],[-5.64448,38.72985],[-5.64372,38.73087],[-5.64236,38.73082],[-5.64133,38.73065],[-5.63992,38.73056],[-5.63633,38.73061],[-5.63554,38.7307],[-5.63354,38.73068],[-5.63075,38.7304],[-5.63005,38.73005],[-5.62945,38.72952],[-5.63012,38.72884],[-5.63178,38.72587],[-5.63345,38.72249],[-5.63368,38.7215],[-5.63374,38.72037],[-5.63394,38.71972],[-5.63424,38.7191],[-5.63519,38.71797],[-5.63598,38.71669],[-5.63645,38.7153],[-5.6374,38.7135],[-5.63783,38.71203],[-5.63743,38.71059],[-5.63747,38.70986],[-5.63817,38.70789],[-5.63872,38.70679],[-5.63967,38.70432],[-5.64152,38.69755],[-5.64252,38.69425],[-5.64411,38.6896],[-5.64474,38.68841],[-5.64563,38.68742],[-5.64592,38.68689],[-5.64626,38.68455],[-5.64642,38.68379],[-5.64668,38.68322],[-5.64907,38.67987],[-5.65045,38.67823],[-5.65087,38.67749],[-5.65101,38.67541],[-5.65124,38.6744],[-5.65157,38.67356],[-5.65325,38.67129],[-5.65405,38.6694],[-5.6517,38.66863],[-5.65041,38.66795],[-5.65009,38.66765],[-5.64994,38.6673],[-5.64991,38.66606],[-5.65015,38.66537],[-5.64671,38.66372],[-5.64592,38.66345]]]}},{"type":"Feature","properties":{"id":"0616001002"},"geometry":{"type":"MultiPolygon","coordinates":[[[[-5.81688,38.68236],[-5.81521,38.68062],[-5.81456,38.67928],[-5.81284,38.67665],[-5.81241,38.67546],[-5.81212,38.67371],[-5.81171,38.67236],[-5.81101,38.67139],[-5.80769,38.66907],[-5.80695,38.66886],[-5.80605,38.66927],[-5.8052,38.6698],[-5.80341,38.67131],[-5.8023,38.67279],[-5.80157,38.67347],[-5.80054,38.67266],[-5.79965,38.67256],[-5.79914,38.67279],[-5.79852,38.67352],[-5.79757,38.67422],[-5.79664,38.67215],[-5.79644,38.67099],[-5.79609,38.66997],[-5.79458,38.66982],[-5.7925,38.66977],[-5.79122,38.66989],[-5.78732,38.66962],[-5.78535,38.66964],[-5.78535,38.66731],[-5.78409,38.66458],[-5.78256,38.66385],[-5.7798,38.66185],[-5.77872,38.66095],[-5.77839,38.65988],[-5.7786,38.65873],[-5.7782,38.65737],[-5.77811,38.65629],[-5.77778,38.65484],[-5.77792,38.65329],[-5.7768,38.65078],[-5.78085,38.64964],[-5.78514,38.64884],[-5.78922,38.64852],[-5.79133,38.64819],[-5.79384,38.64813],[-5.79497,38.64783],[-5.79681,38.64766],[-5.80076,38.64704],[-5.80035,38.64569],[-5.80057,38.64484],[-5.80004,38.64375],[-5.80006,38.64321],[-5.80044,38.64233],[-5.80116,38.64158],[-5.80145,38.64089],[-5.80159,38.63951],[-5.80037,38.63652],[-5.80041,38.63528],[-5.8025,38.63687],[-5.80497,38.63823],[-5.8076,38.64007],[-5.8121,38.64272],[-5.82019,38.64663],[-5.82218,38.64824],[-5.8243,38.6496],[-5.82633,38.65127],[-5.82827,38.65303],[-5.83075,38.65587],[-5.83354,38.65859],[-5.83507,38.66056],[-5.83575,38.66124],[-5.83673,38.66201],[-5.83773,38.66339],[-5.83869,38.66397],[-5.83918,38.66484],[-5.83981,38.66561],[-5.83834,38.66658],[-5.8389,38.66702],[-5.8393,38.66756],[-5.84105,38.66878],[-5.84309,38.6697],[-5.84561,38.67127],[-5.84911,38.67295],[-5.85009,38.67439],[-5.84993,38.67523],[-5.85007,38.67615],[-5.84913,38.67643],[-5.84813,38.67687],[-5.84677,38.67762],[-5.84531,38.67809],[-5.84393,38.6789],[-5.84309,38.67922],[-5.84213,38.67857],[-5.84055,38.67803],[-5.83969,38.67735],[-5.83879,38.67701],[-5.83748,38.67675],[-5.83601,38.6765],[-5.83349,38.67739],[-5.83103,38.67893],[-5.8301,38.68008],[-5.82821,38.68171],[-5.82742,38.68199],[-5.82621,38.68191],[-5.82574,38.68164],[-5.82483,38.68159],[-5.82418,38.68172],[-5.82346,38.68213],[-5.82222,38.68347],[-5.82119,38.68431],[-5.82065,38.68487],[-5.81978,38.68511],[-5.81889,38.68492],[-5.81821,38.68358],[-5.81688,38.68236]]],[[[-5.68584,38.70205],[-5.6843,38.69958],[-5.68387,38.69781],[-5.68436,38.69558],[-5.68331,38.69378],[-5.68266,38.69299],[-5.67973,38.69192],[-5.67896,38.69052],[-5.67833,38.69029],[-5.67816,38.68985],[-5.6786,38.68936],[-5.67809,38.68816],[-5.67833,38.68733],[-5.67771,38.68674],[-5.67752,38.6864],[-5.67724,38.6854],[-5.67725,38.68486],[-5.6774,38.68442],[-5.67687,38.68381],[-5.67668,38.68324],[-5.67592,38.68266],[-5.67579,38.68096],[-5.67618,38.68056],[-5.67622,38.68034],[-5.6757,38.67868],[-5.67451,38.678],[-5.67397,38.67693],[-5.674,38.67626],[-5.67278,38.67484],[-5.67194,38.67425],[-5.67073,38.67314],[-5.67033,38.67315],[-5.67022,38.67307],[-5.67009,38.67276],[-5.66979,38.67258],[-5.66956,38.67228],[-5.66915,38.67155],[-5.66929,38.67105],[-5.66972,38.67027],[-5.66924,38.66945],[-5.66919,38.66801],[-5.66944,38.66663],[-5.66932,38.66603],[-5.66967,38.66443],[-5.66996,38.66383],[-5.67008,38.66272],[-5.6688,38.66158],[-5.6683,38.66091],[-5.66713,38.66011],[-5.66611,38.65956],[-5.66555,38.65908],[-5.66395,38.65709],[-5.66357,38.65604],[-5.6625,38.65412],[-5.66254,38.65317],[-5.6628,38.65292],[-5.66178,38.65256],[-5.66098,38.65186],[-5.66,38.65151],[-5.65961,38.65127],[-5.65934,38.65095],[-5.65973,38.65037],[-5.65956,38.65018],[-5.65948,38.6497],[-5.65918,38.64913],[-5.6594,38.64899],[-5.65936,38.64887],[-5.65964,38.64875],[-5.6595,38.64855],[-5.65928,38.64767],[-5.6588,38.64704],[-5.65819,38.64683],[-5.65814,38.64596],[-5.65764,38.64485],[-5.65744,38.64387],[-5.65682,38.64211],[-5.65522,38.6399],[-5.6547,38.6394],[-5.65444,38.63876],[-5.65394,38.63808],[-5.65355,38.63694],[-5.65283,38.63594],[-5.65097,38.6324],[-5.65032,38.63176],[-5.64977,38.63078],[-5.64791,38.62923],[-5.64694,38.62758],[-5.64624,38.62661],[-5.64568,38.62604],[-5.64521,38.62492],[-5.64494,38.62457],[-5.64482,38.62389],[-5.6443,38.62321],[-5.64404,38.6225],[-5.64157,38.61987],[-5.64101,38.6186],[-5.64017,38.61728],[-5.64002,38.61668],[-5.63778,38.61426],[-5.63705,38.61311],[-5.63668,38.61207],[-5.63671,38.61177],[-5.63696,38.61063],[-5.63725,38.6103],[-5.6374,38.60986],[-5.63757,38.60847],[-5.63751,38.60759],[-5.63831,38.60369],[-5.63861,38.60314],[-5.63862,38.60266],[-5.63939,38.60218],[-5.63958,38.60185],[-5.63998,38.60151],[-5.64031,38.60105],[-5.64052,38.6004],[-5.6405,38.59997],[-5.64024,38.59928],[-5.64016,38.59837],[-5.63886,38.59604],[-5.63865,38.59518],[-5.63861,38.59444],[-5.63871,38.59364],[-5.63933,38.59264],[-5.63986,38.59224],[-5.63988,38.59198],[-5.64052,38.59095],[-5.64059,38.59061],[-5.64002,38.58947],[-5.63995,38.58836],[-5.63977,38.5878],[-5.63849,38.58542],[-5.63842,38.58502],[-5.63789,38.58428],[-5.63749,38.58343],[-5.6363,38.58023],[-5.63426,38.57545],[-5.6311,38.56934],[-5.62902,38.56492],[-5.6267,38.55938],[-5.62187,38.54696],[-5.63314,38.54337],[-5.64007,38.54088],[-5.64111,38.54023],[-5.65253,38.53115],[-5.66392,38.52549],[-5.68203,38.51682],[-5.68413,38.51629],[-5.68295,38.51777],[-5.68214,38.51915],[-5.67992,38.52234],[-5.68147,38.52864],[-5.68179,38.53115],[-5.68186,38.5329],[-5.68422,38.53505],[-5.68917,38.53651],[-5.69061,38.53705],[-5.69168,38.53783],[-5.69506,38.54087],[-5.69618,38.54173],[-5.69777,38.54253],[-5.70362,38.54605],[-5.70545,38.54728],[-5.70752,38.54896],[-5.71156,38.55166],[-5.71301,38.55297],[-5.71548,38.55562],[-5.71642,38.55626],[-5.72109,38.55897],[-5.72724,38.56319],[-5.72997,38.56519],[-5.7344,38.56878],[-5.73774,38.57112],[-5.73898,38.57218],[-5.74031,38.57314],[-5.74278,38.5744],[-5.74612,38.57589],[-5.74915,38.57957],[-5.7553,38.5818],[-5.76425,38.58588],[-5.76575,38.58632],[-5.76448,38.58743],[-5.76354,38.58901],[-5.76329,38.59051],[-5.76353,38.59175],[-5.76429,38.59238],[-5.77033,38.59417],[-5.77477,38.59607],[-5.77844,38.59793],[-5.78164,38.59983],[-5.78265,38.60086],[-5.78476,38.60263],[-5.78602,38.60421],[-5.78861,38.60639],[-5.79314,38.60887],[-5.79743,38.61081],[-5.79819,38.61215],[-5.80018,38.61465],[-5.80226,38.61694],[-5.80323,38.61843],[-5.80349,38.61948],[-5.80349,38.62001],[-5.80326,38.62059],[-5.80205,38.62234],[-5.80036,38.62399],[-5.79839,38.62248],[-5.79681,38.62173],[-5.79519,38.62082],[-5.79405,38.61991],[-5.79227,38.61828],[-5.79035,38.6178],[-5.78806,38.61652],[-5.78545,38.61585],[-5.78009,38.6131],[-5.77648,38.61198],[-5.77517,38.61235],[-5.77438,38.61408],[-5.77435,38.61483],[-5.77368,38.61616],[-5.77302,38.61863],[-5.77142,38.61718],[-5.77001,38.61644],[-5.76886,38.61548],[-5.76785,38.61446],[-5.7667,38.61366],[-5.76412,38.61234],[-5.76008,38.6105],[-5.75769,38.60957],[-5.75499,38.60893],[-5.75291,38.60852],[-5.75061,38.60833],[-5.74909,38.60856],[-5.74784,38.60899],[-5.74676,38.60958],[-5.74372,38.61075],[-5.74268,38.61088],[-5.73835,38.61048],[-5.73394,38.60981],[-5.7318,38.60934],[-5.72643,38.60779],[-5.72418,38.60794],[-5.72296,38.60838],[-5.72247,38.6094],[-5.7224,38.6104],[-5.72203,38.61159],[-5.72176,38.61299],[-5.72097,38.61431],[-5.71962,38.61619],[-5.71953,38.61766],[-5.71989,38.62264],[-5.72083,38.62499],[-5.72115,38.62937],[-5.72103,38.63043],[-5.7212,38.63161],[-5.72196,38.63304],[-5.72195,38.63382],[-5.72173,38.63467],[-5.72107,38.63555],[-5.72016,38.63599],[-5.71854,38.63655],[-5.71803,38.63695],[-5.71762,38.63751],[-5.71786,38.63832],[-5.71818,38.63892],[-5.71876,38.63946],[-5.71947,38.64041],[-5.71475,38.64091],[-5.71542,38.64211],[-5.71475,38.64222],[-5.71385,38.64254],[-5.7132,38.64267],[-5.71238,38.64318],[-5.71278,38.64446],[-5.71487,38.64711],[-5.716,38.64888],[-5.71734,38.65062],[-5.71861,38.65305],[-5.71929,38.65463],[-5.71939,38.65609],[-5.71968,38.65767],[-5.72103,38.65989],[-5.72148,38.66094],[-5.72309,38.6622],[-5.72521,38.66314],[-5.72774,38.66322],[-5.73155,38.6629],[-5.72909,38.6647],[-5.72833,38.66545],[-5.72597,38.66845],[-5.7268,38.66848],[-5.72809,38.66815],[-5.73053,38.66715],[-5.73141,38.66802],[-5.73204,38.66935],[-5.73172,38.67022],[-5.7325,38.67138],[-5.7334,38.67129],[-5.73419,38.67136],[-5.7345,38.67207],[-5.7348,38.67344],[-5.7347,38.67503],[-5.73493,38.67613],[-5.73679,38.67482],[-5.73728,38.67389],[-5.7376,38.67253],[-5.73828,38.67144],[-5.73908,38.66974],[-5.74065,38.67224],[-5.74274,38.67484],[-5.74172,38.67548],[-5.741,38.67646],[-5.74073,38.67711],[-5.73979,38.67844],[-5.73959,38.67925],[-5.73948,38.68069],[-5.73993,38.68183],[-5.74197,38.68265],[-5.74392,38.6839],[-5.74685,38.68542],[-5.74851,38.68719],[-5.75181,38.68939],[-5.75172,38.68943],[-5.7502,38.68899],[-5.74909,38.68913],[-5.74654,38.68977],[-5.74556,38.69025],[-5.74521,38.69111],[-5.74571,38.69236],[-5.74596,38.69358],[-5.74489,38.69413],[-5.74369,38.69443],[-5.74137,38.69584],[-5.74068,38.69724],[-5.74094,38.69948],[-5.74141,38.70072],[-5.74136,38.7035],[-5.74093,38.70432],[-5.73621,38.70596],[-5.73452,38.70674],[-5.73457,38.70788],[-5.73596,38.70928],[-5.73701,38.71143],[-5.73617,38.71118],[-5.73521,38.71106],[-5.73141,38.71098],[-5.72988,38.71053],[-5.72779,38.70942],[-5.72409,38.70708],[-5.72234,38.70624],[-5.72144,38.70543],[-5.72071,38.7043],[-5.72019,38.70269],[-5.71844,38.70082],[-5.71717,38.69984],[-5.71658,38.70268],[-5.7163,38.70307],[-5.71445,38.70488],[-5.71337,38.70575],[-5.71262,38.7065],[-5.71169,38.70775],[-5.71152,38.71037],[-5.71103,38.71133],[-5.71058,38.71167],[-5.70954,38.71278],[-5.70808,38.71477],[-5.70432,38.71915],[-5.70223,38.72234],[-5.70132,38.72307],[-5.70003,38.72342],[-5.69907,38.72333],[-5.69831,38.72296],[-5.69779,38.72218],[-5.69665,38.72124],[-5.69618,38.72043],[-5.69561,38.71971],[-5.69471,38.71893],[-5.69355,38.71815],[-5.69302,38.71682],[-5.69275,38.71573],[-5.69252,38.71405],[-5.69233,38.71358],[-5.69192,38.713],[-5.69136,38.71243],[-5.69094,38.71066],[-5.69055,38.71051],[-5.68849,38.7082],[-5.68714,38.70719],[-5.687,38.70657],[-5.68726,38.70579],[-5.68735,38.70502],[-5.68713,38.70452],[-5.68704,38.70372],[-5.68609,38.70318],[-5.68584,38.70205]]]]}},{"type":"Feature","properties":{"id":"0616001003"},"geometry":{"type":"Polygon","coordinates":[[[-5.63104,38.66054],[-5.63065,38.65678],[-5.62799,38.63798],[-5.62746,38.63579],[-5.62591,38.62775],[-5.62316,38.62661],[-5.62097,38.62529],[-5.61873,38.62408],[-5.61738,38.62361],[-5.61622,38.62335],[-5.61552,38.62438],[-5.61474,38.62522],[-5.61355,38.62612],[-5.61215,38.62692],[-5.60987,38.62804],[-5.60917,38.62878],[-5.60851,38.62979],[-5.60814,38.63045],[-5.60789,38.6314],[-5.60733,38.63098],[-5.60641,38.63065],[-5.60535,38.63065],[-5.59987,38.63195],[-5.59659,38.63097],[-5.59456,38.63073],[-5.59309,38.63107],[-5.59105,38.63202],[-5.58893,38.63272],[-5.58813,38.63328],[-5.58759,38.63403],[-5.58355,38.63621],[-5.58202,38.6386],[-5.58103,38.63964],[-5.57963,38.6409],[-5.57869,38.64161],[-5.57785,38.64205],[-5.57728,38.64217],[-5.57531,38.6422],[-5.57082,38.64378],[-5.56702,38.64461],[-5.56603,38.6449],[-5.56523,38.64524],[-5.56472,38.64605],[-5.55811,38.6443],[-5.5569,38.64365],[-5.55352,38.64123],[-5.54697,38.63628],[-5.54344,38.63414],[-5.53693,38.63063],[-5.53453,38.62917],[-5.52609,38.62354],[-5.52775,38.62198],[-5.53451,38.61621],[-5.53831,38.6128],[-5.54136,38.61034],[-5.54499,38.60666],[-5.54929,38.60291],[-5.55633,38.59752],[-5.56753,38.59007],[-5.57376,38.58498],[-5.57939,38.58018],[-5.58275,38.57762],[-5.58454,38.57593],[-5.5866,38.57442],[-5.60419,38.55869],[-5.60719,38.55652],[-5.61081,38.55425],[-5.62025,38.54748],[-5.62187,38.54696],[-5.6267,38.55938],[-5.62902,38.56492],[-5.6311,38.56934],[-5.63426,38.57545],[-5.6363,38.58023],[-5.63749,38.58343],[-5.63789,38.58428],[-5.63842,38.58502],[-5.63849,38.58542],[-5.63977,38.5878],[-5.63995,38.58836],[-5.64002,38.58947],[-5.64059,38.59061],[-5.64052,38.59095],[-5.63988,38.59198],[-5.63986,38.59224],[-5.63933,38.59264],[-5.63871,38.59364],[-5.63861,38.59444],[-5.63865,38.59518],[-5.63886,38.59604],[-5.64016,38.59837],[-5.64024,38.59928],[-5.6405,38.59997],[-5.64052,38.6004],[-5.64031,38.60105],[-5.63998,38.60151],[-5.63958,38.60185],[-5.63939,38.60218],[-5.63862,38.60266],[-5.63861,38.60314],[-5.63831,38.60369],[-5.63751,38.60759],[-5.63757,38.60847],[-5.6374,38.60986],[-5.63725,38.6103],[-5.63696,38.61063],[-5.63671,38.61177],[-5.63668,38.61207],[-5.63705,38.61311],[-5.63778,38.61426],[-5.64002,38.61668],[-5.64017,38.61728],[-5.64101,38.6186],[-5.64157,38.61987],[-5.64404,38.6225],[-5.6443,38.62321],[-5.64482,38.62389],[-5.64494,38.62457],[-5.64521,38.62492],[-5.64568,38.62604],[-5.64624,38.62661],[-5.64694,38.62758],[-5.64791,38.62923],[-5.64977,38.63078],[-5.65032,38.63176],[-5.65097,38.6324],[-5.65283,38.63594],[-5.65355,38.63694],[-5.65394,38.63808],[-5.65444,38.63876],[-5.6547,38.6394],[-5.65522,38.6399],[-5.65682,38.64211],[-5.65744,38.64387],[-5.65764,38.64485],[-5.65814,38.64596],[-5.65819,38.64683],[-5.6588,38.64704],[-5.65928,38.64767],[-5.6595,38.64855],[-5.65964,38.64875],[-5.65936,38.64887],[-5.6594,38.64899],[-5.65918,38.64913],[-5.65948,38.6497],[-5.65956,38.65018],[-5.65973,38.65037],[-5.65934,38.65095],[-5.65961,38.65127],[-5.65938,38.65141],[-5.65907,38.65136],[-5.65893,38.65142],[-5.65819,38.65121],[-5.65494,38.6534],[-5.6541,38.65385],[-5.65264,38.65495],[-5.65146,38.65556],[-5.65,38.65696],[-5.64874,38.65771],[-5.64864,38.65799],[-5.6481,38.65853],[-5.64781,38.65898],[-5.64633,38.66032],[-5.64595,38.66082],[-5.64572,38.66153],[-5.64592,38.66345],[-5.64119,38.66184],[-5.63919,38.66277],[-5.6373,38.66253],[-5.63528,38.66212],[-5.63444,38.66273],[-5.63338,38.66162],[-5.6328,38.66115],[-5.63104,38.66054]]]}}]}