{"type":"FeatureCollection","features":[{"type":"Feature","properties":{"id":"0700101001"},"geometry":{"type":"Polygon","coordinates":[[[2.78636,39.70452],[2.78719,39.70487],[2.7877,39.70488],[2.78799,39.70478],[2.78834,39.70501],[2.78843,39.70494],[2.78905,39.70532],[2.78931,39.70523],[2.78954,39.70531],[2.78957,39.7054],[2.78925,39.70569],[2.78994,39.70601],[2.79066,39.7068],[2.794,39.70685],[2.79715,39.70719],[2.7982,39.70716],[2.79853,39.70726],[2.7987,39.70742],[2.79943,39.70683],[2.79902,39.70657],[2.79895,39.70665],[2.79582,39.70486],[2.79621,39.70447],[2.79603,39.70436],[2.79722,39.70313],[2.7956,39.70222],[2.79654,39.70147],[2.796,39.70115],[2.79722,39.70013],[2.7941,39.69794],[2.79301,39.69948],[2.79287,39.69994],[2.79315,39.70007],[2.79309,39.70107],[2.79232,39.7019],[2.79288,39.70224],[2.7926,39.70248],[2.79189,39.70303],[2.79172,39.70292],[2.79116,39.70335],[2.79098,39.70319],[2.7908,39.70334],[2.79064,39.70323],[2.79056,39.7033],[2.7898,39.70276],[2.78931,39.70254],[2.78967,39.7016],[2.79049,39.70175],[2.79067,39.70198],[2.79097,39.70188],[2.79081,39.70146],[2.79109,39.70136],[2.79052,39.70075],[2.79067,39.70065],[2.79029,39.70033],[2.78981,39.70073],[2.78956,39.70146],[2.78945,39.70144],[2.78888,39.70204],[2.78878,39.70184],[2.7883,39.70205],[2.78785,39.70255],[2.78771,39.7031],[2.78855,39.70363],[2.78924,39.70314],[2.78908,39.7039],[2.78856,39.70425],[2.78819,39.70436],[2.78682,39.70464],[2.78636,39.70452]]]}},{"type":"Feature","properties":{"id":"0700101002"},"geometry":{"type":"Polygon","coordinates":[[[2.83844,39.74569],[2.8361,39.74656],[2.83131,39.74378],[2.82628,39.74174],[2.82617,39.74141],[2.82622,39.74108],[2.82645,39.74082],[2.82679,39.7407],[2.82765,39.74064],[2.82893,39.73773],[2.82923,39.73747],[2.83008,39.73713],[2.82806,39.73633],[2.82718,39.73488],[2.82671,39.73459],[2.82557,39.73423],[2.82473,39.7342],[2.82555,39.73233],[2.8266,39.7304],[2.82721,39.72901],[2.82724,39.72844],[2.82878,39.72526],[2.82899,39.72421],[2.82877,39.7233],[2.82941,39.72284],[2.82973,39.7235],[2.83001,39.72361],[2.83089,39.72353],[2.83219,39.7238],[2.83472,39.7233],[2.83531,39.72327],[2.83575,39.72334],[2.8363,39.7236],[2.83742,39.72366],[2.83795,39.72345],[2.83913,39.72273],[2.84028,39.72237],[2.8421,39.72232],[2.84337,39.72218],[2.84377,39.72179],[2.84453,39.7221],[2.84537,39.722],[2.84636,39.72124],[2.84642,39.72049],[2.84803,39.71833],[2.84821,39.71756],[2.84822,39.71672],[2.84844,39.71585],[2.85002,39.71416],[2.8505,39.7131],[2.85025,39.7129],[2.84944,39.71154],[2.84809,39.71025],[2.84419,39.71222],[2.84122,39.71357],[2.83921,39.71329],[2.83691,39.71425],[2.83712,39.71452],[2.83713,39.7149],[2.83696,39.71515],[2.83662,39.71526],[2.83436,39.71507],[2.83232,39.71438],[2.83198,39.71393],[2.83167,39.71307],[2.83108,39.71254],[2.83075,39.71239],[2.83003,39.71157],[2.82941,39.71067],[2.82692,39.70777],[2.8252,39.70598],[2.82467,39.70562],[2.82057,39.70401],[2.81878,39.70277],[2.81607,39.70208],[2.81489,39.70067],[2.81394,39.69892],[2.81468,39.69564],[2.81435,39.69553],[2.81173,39.69353],[2.81299,39.69241],[2.81322,39.69117],[2.81307,39.68994],[2.81618,39.68978],[2.81734,39.68982],[2.8166,39.68834],[2.81627,39.688],[2.81526,39.68717],[2.81421,39.68667],[2.81363,39.68617],[2.81126,39.68472],[2.80942,39.68343],[2.80902,39.6827],[2.80819,39.682],[2.8061,39.68103],[2.8051,39.68096],[2.80457,39.68071],[2.80421,39.68034],[2.8034,39.67998],[2.80286,39.6796],[2.80225,39.67944],[2.80173,39.67897],[2.80078,39.67865],[2.79866,39.67747],[2.79655,39.67697],[2.79492,39.67624],[2.7938,39.67611],[2.79336,39.67625],[2.79265,39.67613],[2.79033,39.67472],[2.78699,39.67345],[2.78506,39.67227],[2.78428,39.67449],[2.78241,39.67731],[2.78204,39.67731],[2.78003,39.68255],[2.77882,39.68411],[2.77665,39.68591],[2.7709,39.69118],[2.77051,39.69133],[2.76704,39.69182],[2.76521,39.69268],[2.76498,39.6929],[2.76479,39.69329],[2.76484,39.69401],[2.76528,39.69494],[2.76634,39.69655],[2.76676,39.69809],[2.76673,39.69854],[2.7656,39.70199],[2.76559,39.70227],[2.76594,39.70355],[2.76588,39.70384],[2.76544,39.70449],[2.76531,39.70546],[2.76506,39.70576],[2.7627,39.70696],[2.76042,39.70869],[2.75875,39.70957],[2.75561,39.71419],[2.75431,39.71641],[2.75267,39.71849],[2.75315,39.71948],[2.75422,39.72078],[2.75429,39.72138],[2.75451,39.7216],[2.75587,39.72202],[2.75654,39.72239],[2.75679,39.72258],[2.75688,39.72311],[2.75709,39.72337],[2.75784,39.72358],[2.75865,39.7235],[2.7622,39.72616],[2.76525,39.72765],[2.76621,39.72794],[2.76744,39.72814],[2.76868,39.72818],[2.77019,39.72796],[2.77101,39.72763],[2.77231,39.72747],[2.77284,39.72755],[2.77355,39.72893],[2.77846,39.73065],[2.77799,39.731],[2.77785,39.73135],[2.77785,39.73241],[2.80126,39.74328],[2.80116,39.74365],[2.79983,39.7439],[2.7994,39.74412],[2.79821,39.74582],[2.79637,39.74709],[2.79609,39.74742],[2.79595,39.74838],[2.79529,39.74891],[2.79479,39.7495],[2.79433,39.74961],[2.79322,39.74953],[2.79271,39.74964],[2.79198,39.75039],[2.79135,39.75055],[2.79026,39.75128],[2.78994,39.7514],[2.78911,39.75139],[2.78818,39.7517],[2.78762,39.75174],[2.78713,39.75188],[2.7866,39.75223],[2.78691,39.75275],[2.78824,39.75355],[2.78859,39.75387],[2.78935,39.75504],[2.79013,39.7555],[2.79107,39.75634],[2.79234,39.75844],[2.79293,39.75919],[2.79333,39.75954],[2.79343,39.75981],[2.79335,39.76068],[2.79426,39.76267],[2.79477,39.7632],[2.79611,39.76425],[2.79639,39.76483],[2.79651,39.76541],[2.79734,39.7658],[2.79795,39.76665],[2.79899,39.76778],[2.80043,39.76868],[2.80175,39.76887],[2.80049,39.77171],[2.79896,39.77305],[2.80238,39.77553],[2.80328,39.77505],[2.80472,39.77394],[2.80549,39.77361],[2.80583,39.77335],[2.80645,39.77237],[2.80707,39.77229],[2.80725,39.77177],[2.80719,39.77144],[2.80748,39.77126],[2.80799,39.77063],[2.80794,39.76985],[2.80804,39.76967],[2.80843,39.76956],[2.80888,39.76986],[2.80921,39.76958],[2.81044,39.7692],[2.81069,39.76893],[2.81064,39.76862],[2.81162,39.76692],[2.81198,39.76649],[2.81206,39.76602],[2.81188,39.76552],[2.81202,39.7652],[2.81251,39.76487],[2.81307,39.76465],[2.81477,39.76418],[2.82134,39.76516],[2.82224,39.76686],[2.82267,39.76693],[2.82592,39.7679],[2.82751,39.76808],[2.82873,39.76811],[2.83084,39.76973],[2.83138,39.77025],[2.83186,39.77105],[2.83606,39.77291],[2.83972,39.77428],[2.84076,39.77378],[2.84146,39.77376],[2.84152,39.77341],[2.84117,39.77283],[2.8414,39.77255],[2.84368,39.77225],[2.84418,39.77211],[2.84519,39.77121],[2.84574,39.77046],[2.84804,39.76919],[2.84859,39.76879],[2.84722,39.76632],[2.8457,39.76432],[2.8438,39.763],[2.84145,39.76099],[2.83887,39.7583],[2.83837,39.75628],[2.83674,39.75522],[2.83678,39.75349],[2.83494,39.75243],[2.83425,39.75187],[2.83522,39.75088],[2.8369,39.75117],[2.83774,39.74856],[2.83844,39.74569]],[[2.78639,39.70458],[2.78636,39.70452],[2.78682,39.70464],[2.78819,39.70436],[2.78856,39.70425],[2.78908,39.7039],[2.78924,39.70314],[2.78855,39.70363],[2.78771,39.7031],[2.78785,39.70255],[2.7883,39.70205],[2.78878,39.70184],[2.78888,39.70204],[2.78945,39.70144],[2.78956,39.70146],[2.78981,39.70073],[2.79029,39.70033],[2.79067,39.70065],[2.79052,39.70075],[2.79109,39.70136],[2.79081,39.70146],[2.79097,39.70188],[2.79067,39.70198],[2.79049,39.70175],[2.78967,39.7016],[2.78931,39.70254],[2.7898,39.70276],[2.79056,39.7033],[2.79064,39.70323],[2.7908,39.70334],[2.79098,39.70319],[2.79116,39.70335],[2.79172,39.70292],[2.79189,39.70303],[2.7926,39.70248],[2.79288,39.70224],[2.79232,39.7019],[2.79309,39.70107],[2.79315,39.70007],[2.79287,39.69994],[2.79301,39.69948],[2.7941,39.69794],[2.79722,39.70013],[2.796,39.70115],[2.79654,39.70147],[2.7956,39.70222],[2.79722,39.70313],[2.79603,39.70436],[2.79621,39.70447],[2.79582,39.70486],[2.79895,39.70665],[2.79902,39.70657],[2.79943,39.70683],[2.7987,39.70742],[2.79853,39.70726],[2.7982,39.70716],[2.79715,39.70719],[2.794,39.70685],[2.79066,39.7068],[2.78994,39.70601],[2.7892,39.70569],[2.78881,39.70615],[2.78863,39.70609],[2.78864,39.7062],[2.78819,39.70671],[2.78778,39.70656],[2.78726,39.70701],[2.78697,39.70791],[2.78675,39.70793],[2.78724,39.70831],[2.78642,39.70824],[2.7857,39.70854],[2.78546,39.7087],[2.78544,39.70886],[2.785,39.70922],[2.78441,39.70992],[2.784,39.71008],[2.78324,39.7106],[2.78268,39.71046],[2.78309,39.70972],[2.78276,39.70939],[2.78266,39.70957],[2.78211,39.70927],[2.78239,39.70903],[2.78184,39.70869],[2.78201,39.70834],[2.78127,39.70808],[2.78138,39.70731],[2.78195,39.70728],[2.78204,39.7072],[2.78191,39.70686],[2.78315,39.70606],[2.78379,39.70665],[2.78482,39.70715],[2.78508,39.7067],[2.78562,39.70637],[2.78529,39.70622],[2.78597,39.7058],[2.78583,39.70478],[2.78639,39.70458]]]}},{"type":"Feature","properties":{"id":"0700102001"},"geometry":{"type":"Polygon","coordinates":[[[2.78914,39.70571],[2.78957,39.7054],[2.78954,39.70531],[2.78931,39.70523],[2.78905,39.70532],[2.78843,39.70494],[2.78834,39.70501],[2.78799,39.70478],[2.7877,39.70488],[2.78719,39.70487],[2.78639,39.70458],[2.78583,39.70478],[2.78597,39.7058],[2.78529,39.70622],[2.78562,39.70637],[2.78508,39.7067],[2.78482,39.70715],[2.78379,39.70665],[2.78315,39.70606],[2.78191,39.70686],[2.78204,39.7072],[2.78195,39.70728],[2.78138,39.70731],[2.78127,39.70808],[2.78201,39.70834],[2.78184,39.70869],[2.78239,39.70903],[2.78211,39.70927],[2.78266,39.70957],[2.78276,39.70939],[2.78309,39.70972],[2.78268,39.71046],[2.78324,39.7106],[2.784,39.71008],[2.78441,39.70992],[2.785,39.70922],[2.78544,39.70886],[2.78546,39.7087],[2.7857,39.70854],[2.78642,39.70824],[2.78724,39.70831],[2.78675,39.70793],[2.78697,39.70791],[2.78726,39.70701],[2.78778,39.70656],[2.78819,39.70671],[2.78864,39.7062],[2.78863,39.70609],[2.78881,39.70615],[2.78914,39.70571]]]}}]}