{"type":"FeatureCollection","features":[{"type":"Feature","properties":{"id":"0701001001"},"geometry":{"type":"Polygon","coordinates":[[[2.80238,39.77553],[2.79896,39.77305],[2.80049,39.77171],[2.80175,39.76887],[2.80043,39.76868],[2.79899,39.76778],[2.79795,39.76665],[2.79734,39.7658],[2.79651,39.76541],[2.79639,39.76483],[2.79611,39.76425],[2.79477,39.7632],[2.79426,39.76267],[2.79335,39.76068],[2.79343,39.75981],[2.79333,39.75954],[2.79293,39.75919],[2.79234,39.75844],[2.79107,39.75634],[2.79013,39.7555],[2.78935,39.75504],[2.78859,39.75387],[2.78824,39.75355],[2.78691,39.75275],[2.7866,39.75223],[2.78713,39.75188],[2.78762,39.75174],[2.78818,39.7517],[2.78911,39.75139],[2.78994,39.7514],[2.79026,39.75128],[2.79135,39.75055],[2.79198,39.75039],[2.79271,39.74964],[2.79322,39.74953],[2.79433,39.74961],[2.79479,39.7495],[2.79529,39.74891],[2.79595,39.74838],[2.79609,39.74742],[2.79637,39.74709],[2.79821,39.74582],[2.7994,39.74412],[2.79983,39.7439],[2.80116,39.74365],[2.80126,39.74328],[2.77785,39.73241],[2.77785,39.73135],[2.77799,39.731],[2.77846,39.73065],[2.77355,39.72893],[2.77284,39.72755],[2.77231,39.72747],[2.77101,39.72763],[2.77019,39.72796],[2.76868,39.72818],[2.76744,39.72814],[2.76621,39.72794],[2.76525,39.72765],[2.7622,39.72616],[2.75865,39.7235],[2.75784,39.72358],[2.75709,39.72337],[2.75688,39.72311],[2.75679,39.72258],[2.75654,39.72239],[2.75587,39.72202],[2.75451,39.7216],[2.75429,39.72138],[2.75422,39.72078],[2.75404,39.72046],[2.75315,39.71948],[2.75267,39.71849],[2.75156,39.7171],[2.75069,39.71547],[2.74911,39.71463],[2.74547,39.71461],[2.74373,39.71295],[2.74121,39.71267],[2.74015,39.71112],[2.73807,39.7088],[2.73694,39.70648],[2.73477,39.70632],[2.73146,39.69862],[2.73355,39.69638],[2.73575,39.69372],[2.7364,39.69194],[2.73319,39.6896],[2.73307,39.68933],[2.73417,39.68271],[2.73447,39.68247],[2.73428,39.68186],[2.73495,39.67758],[2.73585,39.67252],[2.73683,39.66808],[2.73679,39.66193],[2.73846,39.65921],[2.73757,39.65908],[2.73517,39.65906],[2.73385,39.6594],[2.73153,39.66054],[2.73148,39.66064],[2.73021,39.66092],[2.72885,39.66103],[2.72641,39.66138],[2.72458,39.66134],[2.72103,39.66233],[2.71933,39.66263],[2.71606,39.66432],[2.71449,39.66559],[2.71352,39.66656],[2.70578,39.67762],[2.70549,39.67819],[2.70239,39.68695],[2.70224,39.69065],[2.70209,39.69126],[2.70208,39.69233],[2.70219,39.69295],[2.70157,39.69419],[2.7015,39.69466],[2.70093,39.69545],[2.70063,39.69637],[2.70069,39.69676],[2.69948,39.69662],[2.69925,39.69702],[2.69817,39.69703],[2.69667,39.69738],[2.69434,39.69771],[2.69392,39.69766],[2.69261,39.69711],[2.69141,39.69698],[2.6906,39.69648],[2.68952,39.69618],[2.68746,39.6953],[2.68687,39.69497],[2.68663,39.69466],[2.68467,39.68971],[2.6766,39.66803],[2.67513,39.66869],[2.67469,39.66881],[2.67185,39.66857],[2.67116,39.66835],[2.66839,39.66709],[2.66696,39.66609],[2.66604,39.66579],[2.66521,39.66533],[2.66242,39.66472],[2.66032,39.66459],[2.65944,39.66387],[2.65772,39.66376],[2.65688,39.66358],[2.65574,39.66318],[2.65493,39.66274],[2.65331,39.66381],[2.65224,39.66418],[2.65121,39.66438],[2.65146,39.66576],[2.65205,39.66716],[2.65226,39.6707],[2.65222,39.6724],[2.65244,39.67305],[2.65344,39.67508],[2.65331,39.67615],[2.65305,39.67682],[2.65401,39.67735],[2.65535,39.67866],[2.65522,39.67925],[2.65585,39.6815],[2.65719,39.68204],[2.65694,39.68335],[2.65661,39.68359],[2.65624,39.68441],[2.65661,39.68469],[2.65564,39.68569],[2.65528,39.68657],[2.65408,39.68719],[2.6533,39.68805],[2.65255,39.68851],[2.6507,39.68933],[2.64886,39.69087],[2.64772,39.69164],[2.64978,39.69689],[2.64991,39.69856],[2.65118,39.69932],[2.65331,39.70009],[2.65547,39.70125],[2.65743,39.70364],[2.65692,39.70457],[2.6568,39.70514],[2.65674,39.70619],[2.65695,39.70707],[2.65649,39.70815],[2.65644,39.7086],[2.65659,39.70912],[2.6575,39.71072],[2.65745,39.71212],[2.65782,39.7144],[2.65762,39.71542],[2.65787,39.71601],[2.65791,39.71652],[2.65812,39.71671],[2.6583,39.7174],[2.65848,39.71769],[2.65876,39.71782],[2.65903,39.71809],[2.6595,39.71888],[2.65973,39.71902],[2.6609,39.71927],[2.66173,39.71964],[2.66176,39.72152],[2.66222,39.72279],[2.66172,39.72337],[2.65972,39.72462],[2.65995,39.72545],[2.66099,39.72717],[2.66196,39.72819],[2.66259,39.72953],[2.66312,39.73038],[2.66434,39.73172],[2.66653,39.73542],[2.6685,39.73809],[2.67965,39.73843],[2.68864,39.73626],[2.6932,39.73357],[2.69384,39.73414],[2.69498,39.73482],[2.69582,39.73576],[2.69735,39.73686],[2.69864,39.73826],[2.69891,39.73875],[2.69903,39.73942],[2.69932,39.74007],[2.69966,39.74056],[2.70108,39.74221],[2.70247,39.74362],[2.70307,39.74382],[2.70446,39.74493],[2.7053,39.74602],[2.70551,39.74641],[2.70583,39.7476],[2.70629,39.74822],[2.7093,39.75112],[2.71066,39.75084],[2.71273,39.75021],[2.71519,39.74992],[2.71688,39.75009],[2.71665,39.74675],[2.72545,39.74619],[2.72803,39.7472],[2.73372,39.74455],[2.73547,39.74438],[2.73679,39.74521],[2.7385,39.74572],[2.73877,39.74587],[2.73934,39.74659],[2.73954,39.74724],[2.73975,39.74739],[2.74011,39.74804],[2.7413,39.74904],[2.74182,39.74975],[2.74532,39.74785],[2.74619,39.74719],[2.74923,39.74982],[2.75173,39.74888],[2.75326,39.74818],[2.7585,39.75112],[2.76126,39.751],[2.76298,39.75225],[2.76476,39.75181],[2.76494,39.75183],[2.76866,39.75486],[2.77008,39.75643],[2.77051,39.75736],[2.7712,39.7577],[2.77175,39.7586],[2.77364,39.75924],[2.77533,39.75991],[2.77578,39.76018],[2.77617,39.76052],[2.77652,39.76108],[2.77692,39.76264],[2.77673,39.76505],[2.77652,39.76583],[2.77588,39.76623],[2.77432,39.76769],[2.77633,39.76908],[2.77849,39.77084],[2.77994,39.77229],[2.78264,39.7744],[2.78455,39.77483],[2.78889,39.77656],[2.79132,39.77719],[2.7937,39.77707],[2.79559,39.77727],[2.79627,39.77749],[2.79762,39.77725],[2.79926,39.77712],[2.79986,39.77676],[2.80007,39.77643],[2.80023,39.77637],[2.80052,39.77646],[2.80074,39.77642],[2.80147,39.77601],[2.80215,39.77576],[2.80238,39.77553]]]}},{"type":"Feature","properties":{"id":"0701001002"},"geometry":{"type":"Polygon","coordinates":[[[2.6766,39.66803],[2.67157,39.65468],[2.66952,39.65515],[2.66765,39.6569],[2.66588,39.65727],[2.66061,39.65737],[2.65911,39.6584],[2.65969,39.6604],[2.65977,39.66141],[2.65808,39.66128],[2.65493,39.66274],[2.65574,39.66318],[2.65688,39.66358],[2.65772,39.66376],[2.65944,39.66387],[2.66032,39.66459],[2.66242,39.66472],[2.66521,39.66533],[2.66604,39.66579],[2.66696,39.66609],[2.66839,39.66709],[2.67116,39.66835],[2.67185,39.66857],[2.67469,39.66881],[2.67513,39.66869],[2.6766,39.66803]]]}},{"type":"Feature","properties":{"id":"0701002001"},"geometry":{"type":"Polygon","coordinates":[[[2.70233,39.68844],[2.69844,39.68867],[2.69888,39.69162],[2.7001,39.69145],[2.70036,39.6926],[2.69869,39.69296],[2.69675,39.69657],[2.69459,39.69612],[2.69414,39.69671],[2.69209,39.69611],[2.69136,39.69695],[2.69261,39.69711],[2.69392,39.69766],[2.69434,39.69771],[2.69667,39.69738],[2.69817,39.69703],[2.69925,39.69702],[2.69948,39.69662],[2.70069,39.69676],[2.70063,39.69637],[2.70093,39.69545],[2.7015,39.69466],[2.70157,39.69419],[2.70219,39.69295],[2.70208,39.69233],[2.70209,39.69126],[2.70224,39.69065],[2.70233,39.68844]]]}},{"type":"Feature","properties":{"id":"0701002002"},"geometry":{"type":"Polygon","coordinates":[[[2.70233,39.68844],[2.70239,39.68695],[2.70561,39.67791],[2.71391,39.6661],[2.71606,39.66432],[2.71933,39.66263],[2.72103,39.66233],[2.72458,39.66134],[2.72641,39.66138],[2.72885,39.66103],[2.73021,39.66092],[2.73148,39.66064],[2.73152,39.66054],[2.72537,39.65926],[2.72239,39.65759],[2.72176,39.65716],[2.71818,39.65562],[2.71671,39.65475],[2.71418,39.65281],[2.70896,39.64998],[2.70839,39.64941],[2.70721,39.6488],[2.70086,39.65001],[2.69877,39.65026],[2.69498,39.65098],[2.69444,39.65115],[2.69364,39.65109],[2.68899,39.65173],[2.6872,39.65181],[2.68314,39.65219],[2.67157,39.65468],[2.68467,39.68971],[2.68676,39.69486],[2.68767,39.6954],[2.68952,39.69618],[2.6906,39.69648],[2.69136,39.69695],[2.69209,39.69611],[2.69414,39.69671],[2.69459,39.69612],[2.69675,39.69657],[2.69869,39.69296],[2.70036,39.6926],[2.7001,39.69145],[2.69888,39.69162],[2.69844,39.68867],[2.70233,39.68844]]]}}]}