{"type":"FeatureCollection","features":[{"type":"Feature","properties":{"id":"0704901001"},"geometry":{"type":"Polygon","coordinates":[[[3.02257,39.60699],[3.02259,39.6067],[3.02277,39.60643],[3.02345,39.60569],[3.0232,39.60528],[3.02384,39.60399],[3.02441,39.60238],[3.02466,39.60192],[3.02524,39.60156],[3.02636,39.60052],[3.02752,39.59903],[3.02856,39.59747],[3.02907,39.5964],[3.02923,39.59572],[3.03324,39.59584],[3.03319,39.59734],[3.03589,39.599],[3.03715,39.5985],[3.03736,39.59849],[3.03764,39.59866],[3.04128,39.5934],[3.04074,39.59318],[3.04525,39.58844],[3.04643,39.58702],[3.04694,39.58625],[3.04786,39.58408],[3.0485,39.58291],[3.04865,39.58211],[3.04903,39.58131],[3.05025,39.57929],[3.05178,39.57866],[3.05347,39.57724],[3.05658,39.57503],[3.05905,39.57373],[3.06036,39.57317],[3.06237,39.5725],[3.06802,39.57096],[3.06889,39.57061],[3.07007,39.57091],[3.07101,39.57103],[3.07223,39.57108],[3.0735,39.57098],[3.07425,39.5707],[3.07513,39.57002],[3.07574,39.56976],[3.07915,39.56935],[3.08176,39.56933],[3.08195,39.56909],[3.08248,39.56921],[3.0837,39.56752],[3.08387,39.56717],[3.08414,39.56564],[3.08483,39.56528],[3.08457,39.56511],[3.08446,39.56485],[3.08283,39.56473],[3.08327,39.56415],[3.08369,39.56385],[3.08087,39.56019],[3.0791,39.55635],[3.07878,39.55472],[3.06649,39.55017],[3.06441,39.55071],[3.06371,39.55135],[3.06343,39.55109],[3.06225,39.55165],[3.05786,39.55314],[3.0536,39.5544],[3.05007,39.55333],[3.04706,39.55263],[3.04465,39.55222],[3.04437,39.55275],[3.04453,39.55283],[3.04409,39.55378],[3.04389,39.55462],[3.04319,39.5563],[3.04315,39.5567],[3.04297,39.55692],[3.04254,39.55871],[3.04228,39.55931],[3.0423,39.55999],[3.04131,39.56007],[3.04172,39.56118],[3.04131,39.56226],[3.04143,39.56324],[3.04177,39.56375],[3.0424,39.56426],[3.04141,39.56455],[3.03989,39.5653],[3.03829,39.56624],[3.03768,39.56675],[3.03758,39.56578],[3.03768,39.56511],[3.03299,39.56803],[3.02987,39.57026],[3.02958,39.57151],[3.02848,39.57356],[3.02833,39.57412],[3.02842,39.57516],[3.02946,39.57602],[3.02861,39.57617],[3.02808,39.57847],[3.02805,39.57933],[3.02786,39.58029],[3.02765,39.58092],[3.02608,39.58047],[3.02601,39.58133],[3.02523,39.58099],[3.02102,39.58176],[3.01955,39.58228],[3.01901,39.58256],[3.01867,39.58244],[3.01815,39.58157],[3.01657,39.57936],[3.01616,39.57798],[3.01571,39.57711],[3.01462,39.57647],[3.01099,39.57791],[3.01015,39.57813],[3.00865,39.57838],[3.00718,39.5785],[3.00607,39.57872],[3.00584,39.579],[3.00662,39.57959],[3.00639,39.58073],[3.00652,39.58361],[3.00722,39.58414],[3.00892,39.58608],[3.01084,39.58804],[3.00893,39.58965],[3.008,39.59057],[3.00764,39.59076],[3.00646,39.59102],[3.00387,39.59125],[3.00197,39.59154],[3.00144,39.59135],[3.00088,39.59088],[3.00005,39.59145],[2.99944,39.59172],[2.99914,39.59206],[2.99844,39.59244],[2.99766,39.59307],[2.99546,39.59322],[2.99387,39.59295],[2.99248,39.59285],[2.99136,39.59306],[2.9905,39.59304],[2.98951,39.59334],[2.9891,39.59407],[2.98838,39.59455],[2.98797,39.59515],[2.98684,39.59624],[2.9871,39.59673],[2.98864,39.59766],[2.98609,39.59971],[2.98602,39.59833],[2.98174,39.59831],[2.98064,39.59845],[2.98091,39.59953],[2.98115,39.59948],[2.98121,39.60009],[2.98155,39.60003],[2.98244,39.60094],[2.98306,39.60279],[2.98409,39.60407],[2.98666,39.60405],[2.98818,39.60379],[2.98864,39.605],[2.99015,39.60464],[2.99146,39.60483],[2.99224,39.60473],[2.99451,39.60508],[2.99479,39.60535],[2.99539,39.60563],[2.99913,39.60637],[2.99988,39.60738],[3.00687,39.60581],[3.00751,39.60597],[3.00847,39.60714],[3.01026,39.60885],[3.01158,39.61074],[3.01407,39.61005],[3.01398,39.60981],[3.01681,39.60923],[3.02051,39.60791],[3.02257,39.60699]]]}},{"type":"Feature","properties":{"id":"0704902001"},"geometry":{"type":"Polygon","coordinates":[[[3.06368,39.62168],[3.06588,39.61959],[3.06454,39.6185],[3.06587,39.61734],[3.06837,39.61563],[3.07029,39.61477],[3.06955,39.61421],[3.07082,39.61354],[3.07139,39.61314],[3.06971,39.6123],[3.07131,39.61032],[3.07096,39.61012],[3.07011,39.61058],[3.06932,39.60981],[3.06872,39.60888],[3.06651,39.60703],[3.06314,39.6034],[3.06506,39.60161],[3.06619,39.60088],[3.06623,39.60055],[3.06748,39.60008],[3.06822,39.59927],[3.06922,39.59851],[3.0695,39.59814],[3.07046,39.5973],[3.07158,39.5965],[3.07722,39.59308],[3.08275,39.59007],[3.08421,39.58857],[3.08614,39.58844],[3.08854,39.58641],[3.09018,39.58516],[3.09155,39.58381],[3.09402,39.58207],[3.09499,39.58093],[3.0911,39.57841],[3.09129,39.57819],[3.09024,39.57745],[3.08902,39.57684],[3.08908,39.57633],[3.08445,39.57594],[3.08449,39.57568],[3.08214,39.57539],[3.0817,39.57467],[3.07959,39.57435],[3.07995,39.5723],[3.08085,39.56937],[3.07915,39.56935],[3.07574,39.56976],[3.07513,39.57002],[3.07425,39.5707],[3.0735,39.57098],[3.07223,39.57108],[3.07101,39.57103],[3.07007,39.57091],[3.06889,39.57061],[3.06802,39.57096],[3.06237,39.5725],[3.06036,39.57317],[3.05905,39.57373],[3.05621,39.57527],[3.05347,39.57724],[3.05178,39.57866],[3.05025,39.57929],[3.04903,39.58131],[3.04865,39.58211],[3.0485,39.58291],[3.04786,39.58408],[3.04694,39.58625],[3.04643,39.58702],[3.04525,39.58844],[3.04074,39.59318],[3.04128,39.5934],[3.03764,39.59866],[3.03736,39.59849],[3.03715,39.5985],[3.03589,39.599],[3.03319,39.59734],[3.03324,39.59584],[3.02923,39.59572],[3.02907,39.5964],[3.02856,39.59747],[3.02752,39.59903],[3.02636,39.60052],[3.02524,39.60156],[3.02466,39.60192],[3.02441,39.60238],[3.02384,39.60399],[3.0232,39.60528],[3.02345,39.60569],[3.02259,39.6067],[3.02257,39.60699],[3.02391,39.60614],[3.02402,39.60898],[3.02446,39.61065],[3.02465,39.61101],[3.02492,39.61123],[3.02522,39.61132],[3.02604,39.6113],[3.02648,39.61139],[3.02837,39.61211],[3.02573,39.61386],[3.02625,39.61434],[3.02686,39.61545],[3.02742,39.61598],[3.02788,39.61615],[3.02918,39.61691],[3.02914,39.61714],[3.03071,39.61805],[3.03224,39.61913],[3.03245,39.61899],[3.03341,39.61961],[3.03331,39.61981],[3.03738,39.62208],[3.04008,39.62381],[3.04029,39.62365],[3.04224,39.62486],[3.04737,39.62046],[3.05005,39.61868],[3.0568,39.61561],[3.05776,39.61722],[3.06108,39.61995],[3.06172,39.62041],[3.06266,39.62072],[3.063,39.62119],[3.06368,39.62168]]]}}]}