{"type":"FeatureCollection","features":[{"type":"Feature","properties":{"id":"0704801001"},"geometry":{"type":"MultiPolygon","coordinates":[[[[1.32382,38.94559],[1.33491,38.9445],[1.34032,38.94506],[1.34695,38.9443],[1.35489,38.9393],[1.35565,38.93594],[1.35297,38.93451],[1.3515,38.93414],[1.34763,38.93337],[1.3444,38.9329],[1.3432,38.93262],[1.34293,38.93205],[1.34296,38.93189],[1.34348,38.93128],[1.34459,38.93045],[1.34525,38.92961],[1.34529,38.92877],[1.34515,38.92869],[1.34526,38.92836],[1.34506,38.92755],[1.34422,38.92759],[1.34393,38.92646],[1.3433,38.92551],[1.3434,38.92524],[1.34411,38.92536],[1.3448,38.92534],[1.34542,38.92513],[1.34586,38.9245],[1.34592,38.92374],[1.34604,38.92349],[1.34611,38.92351],[1.34681,38.92224],[1.3469,38.92226],[1.34667,38.92108],[1.3474,38.92035],[1.34749,38.91974],[1.34726,38.91949],[1.34758,38.91828],[1.34789,38.91773],[1.34804,38.91675],[1.34835,38.91646],[1.34859,38.91576],[1.349,38.91525],[1.34898,38.91477],[1.34913,38.91422],[1.34961,38.91357],[1.34964,38.91124],[1.34876,38.91137],[1.34836,38.91183],[1.34816,38.91191],[1.34637,38.91186],[1.34516,38.91208],[1.3431,38.91205],[1.34278,38.91186],[1.34236,38.91137],[1.34206,38.91119],[1.34173,38.91116],[1.34034,38.91121],[1.33905,38.91175],[1.33856,38.91186],[1.3372,38.9117],[1.33607,38.91196],[1.33237,38.91861],[1.32986,38.91987],[1.32975,38.91903],[1.32948,38.91902],[1.32979,38.91829],[1.3286,38.91797],[1.32376,38.91213],[1.32138,38.90973],[1.32762,38.9002],[1.32828,38.89992],[1.33172,38.8978],[1.33183,38.89708],[1.33174,38.89668],[1.33142,38.89621],[1.33201,38.89503],[1.33351,38.89291],[1.33517,38.89243],[1.33548,38.89221],[1.33561,38.8919],[1.33546,38.89171],[1.33515,38.89155],[1.33429,38.89144],[1.33384,38.89117],[1.33358,38.8909],[1.33318,38.89013],[1.33308,38.88965],[1.32923,38.88742],[1.32237,38.88151],[1.31988,38.87711],[1.31716,38.87502],[1.31695,38.87516],[1.31686,38.87576],[1.3162,38.87733],[1.31581,38.87859],[1.31647,38.87975],[1.31659,38.88027],[1.31646,38.88084],[1.31598,38.88128],[1.31525,38.88184],[1.31401,38.88215],[1.31164,38.88197],[1.31071,38.88181],[1.31004,38.8819],[1.30942,38.88205],[1.30889,38.88237],[1.3087,38.8827],[1.30865,38.88465],[1.30846,38.88577],[1.30859,38.88721],[1.30842,38.88854],[1.30944,38.89001],[1.30988,38.89042],[1.31014,38.89058],[1.31098,38.89052],[1.31163,38.89079],[1.3116,38.89105],[1.31049,38.89152],[1.3095,38.89182],[1.30935,38.89202],[1.30937,38.89245],[1.30956,38.89277],[1.30991,38.89299],[1.3101,38.89331],[1.31007,38.89348],[1.30893,38.89349],[1.30873,38.89359],[1.30862,38.89386],[1.30736,38.89466],[1.30743,38.89505],[1.30723,38.89536],[1.305,38.89738],[1.30505,38.89817],[1.30518,38.89833],[1.30675,38.89916],[1.30702,38.89941],[1.30708,38.89971],[1.30644,38.90101],[1.30629,38.90197],[1.30554,38.90285],[1.30515,38.90412],[1.30444,38.90487],[1.29989,38.90622],[1.29901,38.90704],[1.29863,38.90702],[1.29786,38.90679],[1.29768,38.90657],[1.29742,38.90644],[1.29682,38.90633],[1.29642,38.90658],[1.296,38.90669],[1.29461,38.90668],[1.29393,38.90657],[1.29354,38.90629],[1.29216,38.90585],[1.28888,38.9059],[1.28719,38.90568],[1.28572,38.90563],[1.28343,38.90519],[1.27872,38.90214],[1.27636,38.90046],[1.27576,38.89934],[1.27387,38.89671],[1.27222,38.89354],[1.27012,38.89185],[1.26792,38.89069],[1.26587,38.88972],[1.26347,38.8897],[1.2608,38.88949],[1.25787,38.88939],[1.25627,38.88945],[1.25482,38.8896],[1.25182,38.89065],[1.25001,38.89155],[1.24741,38.89247],[1.2466,38.89448],[1.24573,38.89773],[1.2467,38.90061],[1.2474,38.90339],[1.24908,38.90707],[1.25141,38.91042],[1.25293,38.91369],[1.25454,38.91602],[1.25474,38.91726],[1.2606,38.91955],[1.265,38.91959],[1.26821,38.91989],[1.26978,38.92166],[1.27125,38.92178],[1.27204,38.92203],[1.27301,38.92297],[1.27386,38.92399],[1.27446,38.92414],[1.27476,38.92434],[1.2759,38.92419],[1.27702,38.92475],[1.27843,38.92471],[1.27923,38.92483],[1.2791,38.9251],[1.28047,38.92585],[1.28059,38.92645],[1.28129,38.92678],[1.28167,38.92712],[1.28244,38.92748],[1.28298,38.92825],[1.28375,38.92853],[1.2842,38.92879],[1.28506,38.92963],[1.28549,38.9303],[1.28556,38.93097],[1.28601,38.93226],[1.28541,38.93387],[1.28566,38.93519],[1.28597,38.93502],[1.28628,38.93399],[1.28692,38.93313],[1.28713,38.93291],[1.28799,38.93247],[1.28946,38.93253],[1.29071,38.9321],[1.29124,38.93181],[1.29502,38.93196],[1.29746,38.93149],[1.29828,38.93118],[1.29882,38.93123],[1.30003,38.93067],[1.30205,38.93041],[1.30308,38.93057],[1.30503,38.93156],[1.3172,38.94676],[1.32382,38.94559]]],[[[1.20019,38.87062],[1.20048,38.87052],[1.20085,38.87057],[1.20114,38.87042],[1.20129,38.87049],[1.20123,38.87055],[1.20133,38.87069],[1.20148,38.87073],[1.20147,38.87048],[1.20278,38.86945],[1.20294,38.86944],[1.20307,38.86891],[1.20338,38.86873],[1.20346,38.86812],[1.20357,38.86809],[1.2036,38.86796],[1.2035,38.86777],[1.20369,38.86746],[1.20353,38.8673],[1.20372,38.86711],[1.20357,38.86702],[1.20346,38.86705],[1.20349,38.86718],[1.20322,38.86712],[1.20327,38.86695],[1.20316,38.86682],[1.20296,38.86682],[1.20286,38.86666],[1.20246,38.86649],[1.20274,38.86557],[1.20306,38.86494],[1.20297,38.86464],[1.20267,38.8646],[1.20216,38.86427],[1.20191,38.86437],[1.20146,38.86429],[1.20127,38.86445],[1.20045,38.86459],[1.19993,38.86485],[1.19982,38.86478],[1.19876,38.8649],[1.19866,38.86474],[1.19871,38.86454],[1.19823,38.86452],[1.19801,38.86419],[1.19718,38.864],[1.19675,38.86405],[1.19663,38.86424],[1.19586,38.86451],[1.19546,38.86422],[1.19529,38.86369],[1.19467,38.86352],[1.19376,38.86379],[1.1935,38.86397],[1.19226,38.86423],[1.19216,38.86412],[1.19227,38.86393],[1.19222,38.8637],[1.19177,38.86372],[1.19141,38.86358],[1.19103,38.86316],[1.19001,38.86335],[1.18975,38.86317],[1.18958,38.86323],[1.18946,38.86312],[1.18916,38.86318],[1.18895,38.86303],[1.18888,38.8627],[1.18859,38.86268],[1.18846,38.86258],[1.18846,38.86271],[1.18867,38.86282],[1.18855,38.86322],[1.18819,38.86332],[1.18801,38.86356],[1.18824,38.86386],[1.18825,38.8641],[1.18862,38.86425],[1.18902,38.86423],[1.18926,38.8644],[1.18966,38.86439],[1.19043,38.86468],[1.19051,38.86479],[1.19017,38.86517],[1.19045,38.86549],[1.19113,38.86569],[1.19165,38.86603],[1.19193,38.86602],[1.19221,38.8665],[1.19265,38.86663],[1.19337,38.86709],[1.19339,38.86725],[1.19362,38.86721],[1.19387,38.86739],[1.19437,38.86809],[1.19481,38.86831],[1.19487,38.86863],[1.19477,38.86887],[1.19503,38.86896],[1.19506,38.86928],[1.19524,38.86939],[1.19531,38.86961],[1.19561,38.86974],[1.19553,38.8699],[1.19591,38.86997],[1.19597,38.87012],[1.19633,38.87005],[1.19672,38.87011],[1.19723,38.87054],[1.1977,38.87075],[1.19807,38.87067],[1.19814,38.87078],[1.19855,38.8708],[1.19954,38.87064],[1.19997,38.87076],[1.19988,38.87082],[1.2,38.87087],[1.20015,38.87079],[1.20019,38.87062]]]]}},{"type":"Feature","properties":{"id":"0704801002"},"geometry":{"type":"MultiPolygon","coordinates":[[[[1.22979,38.9745],[1.22964,38.97411],[1.22986,38.97386],[1.22985,38.97355],[1.23017,38.97324],[1.23019,38.97298],[1.23056,38.97343],[1.2308,38.97343],[1.23085,38.97302],[1.23094,38.97297],[1.23112,38.97306],[1.23113,38.97285],[1.23144,38.9729],[1.23171,38.97271],[1.23194,38.97269],[1.23243,38.97197],[1.23209,38.97178],[1.23211,38.97128],[1.23181,38.97066],[1.23163,38.97055],[1.23146,38.97025],[1.23221,38.96995],[1.23253,38.97011],[1.23252,38.96981],[1.23222,38.96933],[1.23233,38.96904],[1.23224,38.96877],[1.2323,38.96869],[1.23288,38.96884],[1.23378,38.96882],[1.23394,38.96918],[1.23403,38.96906],[1.23396,38.96879],[1.23423,38.96889],[1.23418,38.96869],[1.23439,38.96852],[1.23481,38.96851],[1.23506,38.96859],[1.23533,38.96845],[1.2356,38.96873],[1.23554,38.96894],[1.23584,38.96898],[1.23597,38.96891],[1.23612,38.96901],[1.23647,38.96963],[1.23642,38.96989],[1.23678,38.9701],[1.23658,38.97071],[1.2367,38.97077],[1.23669,38.97105],[1.23705,38.97152],[1.23761,38.97115],[1.23773,38.97123],[1.23775,38.97146],[1.23749,38.9718],[1.23761,38.97197],[1.23793,38.97187],[1.23919,38.97208],[1.23929,38.97216],[1.2397,38.9721],[1.24028,38.9727],[1.24075,38.9728],[1.24091,38.97295],[1.24126,38.97306],[1.24287,38.97286],[1.24301,38.97259],[1.24278,38.97223],[1.24255,38.97151],[1.2428,38.97086],[1.24218,38.97061],[1.24179,38.97013],[1.24151,38.97001],[1.24115,38.97005],[1.24075,38.96978],[1.24038,38.96974],[1.24033,38.9694],[1.24006,38.96933],[1.2403,38.96922],[1.24023,38.96906],[1.24003,38.96884],[1.23968,38.96884],[1.23958,38.96837],[1.23983,38.96791],[1.24053,38.96738],[1.24069,38.96737],[1.24102,38.96774],[1.24115,38.96764],[1.24117,38.96783],[1.24132,38.96787],[1.24142,38.96757],[1.24133,38.96743],[1.24142,38.96744],[1.24144,38.96725],[1.24137,38.96716],[1.24097,38.96726],[1.24091,38.96707],[1.24133,38.96679],[1.24151,38.96681],[1.2415,38.96707],[1.2414,38.96715],[1.24156,38.96723],[1.24148,38.96753],[1.24181,38.96772],[1.24179,38.96758],[1.24216,38.96731],[1.24193,38.96693],[1.24243,38.96686],[1.24266,38.96667],[1.24287,38.96664],[1.24311,38.9668],[1.24323,38.96667],[1.24338,38.96682],[1.24344,38.9667],[1.24386,38.96664],[1.24382,38.96649],[1.24406,38.96634],[1.24441,38.96652],[1.24454,38.96638],[1.24462,38.966],[1.24482,38.9659],[1.24529,38.96594],[1.2455,38.96626],[1.2459,38.96626],[1.24568,38.96646],[1.24596,38.96646],[1.24587,38.96663],[1.24601,38.9665],[1.24622,38.96649],[1.24606,38.96671],[1.24603,38.96716],[1.24593,38.9672],[1.24615,38.96723],[1.24606,38.96735],[1.24613,38.96772],[1.24642,38.96746],[1.2468,38.96742],[1.24674,38.96738],[1.24687,38.96724],[1.24695,38.96732],[1.24737,38.96726],[1.24759,38.96737],[1.24786,38.96715],[1.24803,38.96726],[1.24824,38.96714],[1.24839,38.96722],[1.24845,38.96739],[1.24861,38.96743],[1.24916,38.96714],[1.24999,38.9673],[1.25085,38.96682],[1.25128,38.96668],[1.25128,38.96683],[1.25057,38.96767],[1.25049,38.96802],[1.25031,38.96807],[1.25023,38.96826],[1.24993,38.96847],[1.24974,38.96886],[1.24979,38.96907],[1.2502,38.96915],[1.25119,38.969],[1.25137,38.96914],[1.25238,38.9689],[1.25316,38.96885],[1.25374,38.96866],[1.25733,38.96804],[1.25791,38.96761],[1.2585,38.96748],[1.25899,38.96748],[1.25952,38.96767],[1.25981,38.96817],[1.26038,38.96843],[1.26066,38.969],[1.26105,38.96944],[1.26107,38.96958],[1.26076,38.97004],[1.26062,38.97057],[1.26059,38.97124],[1.26116,38.97115],[1.26143,38.97083],[1.26159,38.97087],[1.26167,38.97105],[1.26216,38.97085],[1.26261,38.97027],[1.26264,38.96884],[1.26232,38.96884],[1.26237,38.96814],[1.26284,38.96736],[1.26297,38.96676],[1.26327,38.96641],[1.26372,38.96623],[1.26473,38.96539],[1.26516,38.96439],[1.2651,38.96421],[1.2652,38.96381],[1.2648,38.96341],[1.26452,38.96272],[1.26428,38.96162],[1.26479,38.96154],[1.26508,38.96134],[1.26614,38.96001],[1.26628,38.95952],[1.26675,38.95863],[1.26728,38.95643],[1.2679,38.95605],[1.26851,38.95583],[1.27084,38.95532],[1.27261,38.95567],[1.27247,38.95592],[1.27384,38.95628],[1.2731,38.95812],[1.27177,38.95783],[1.27066,38.96026],[1.27153,38.9604],[1.27116,38.96119],[1.27138,38.96168],[1.27172,38.9619],[1.27158,38.96226],[1.27217,38.96266],[1.27155,38.96355],[1.27272,38.96413],[1.27188,38.965],[1.27251,38.96496],[1.27408,38.96461],[1.27541,38.96475],[1.27664,38.9631],[1.27728,38.96243],[1.27718,38.96198],[1.27801,38.96169],[1.27885,38.96161],[1.27909,38.96134],[1.27921,38.96058],[1.28007,38.96031],[1.28105,38.95985],[1.2816,38.95913],[1.28368,38.95978],[1.2827,38.96049],[1.28228,38.96124],[1.282,38.96141],[1.28138,38.9613],[1.27986,38.96281],[1.28114,38.96297],[1.28077,38.96365],[1.27991,38.96351],[1.27887,38.96492],[1.28142,38.96577],[1.2813,38.96595],[1.28168,38.96607],[1.28165,38.96615],[1.2837,38.96668],[1.28414,38.96524],[1.28458,38.9655],[1.28712,38.9656],[1.28932,38.96552],[1.29014,38.96573],[1.29243,38.96547],[1.29236,38.96456],[1.29279,38.96457],[1.29291,38.96329],[1.29411,38.96336],[1.29414,38.96316],[1.29468,38.96308],[1.29427,38.96098],[1.29388,38.95755],[1.29449,38.95752],[1.2947,38.96126],[1.2954,38.96321],[1.29584,38.96319],[1.29621,38.96347],[1.29685,38.96363],[1.29708,38.96167],[1.29741,38.96169],[1.29775,38.96204],[1.29839,38.96214],[1.29845,38.96187],[1.29902,38.96205],[1.29905,38.96172],[1.3003,38.96112],[1.30065,38.96045],[1.30093,38.9582],[1.30238,38.95837],[1.30224,38.95893],[1.30277,38.95908],[1.30265,38.95957],[1.30212,38.95958],[1.30176,38.96124],[1.30419,38.96231],[1.30484,38.96135],[1.30551,38.96159],[1.30574,38.96121],[1.30716,38.96169],[1.30754,38.96115],[1.30772,38.96144],[1.30838,38.9616],[1.30857,38.96155],[1.30892,38.96081],[1.30869,38.95978],[1.30804,38.95964],[1.30808,38.95911],[1.30748,38.95876],[1.30797,38.95845],[1.30841,38.95834],[1.30913,38.96138],[1.31348,38.95336],[1.3172,38.94676],[1.30489,38.93143],[1.30308,38.93057],[1.30205,38.93041],[1.30003,38.93067],[1.29882,38.93123],[1.29828,38.93118],[1.29746,38.93149],[1.29502,38.93196],[1.2911,38.93182],[1.29071,38.9321],[1.28946,38.93253],[1.28864,38.93253],[1.28812,38.93244],[1.28767,38.93259],[1.28713,38.93291],[1.28634,38.93386],[1.28597,38.93502],[1.28566,38.93519],[1.28541,38.93387],[1.28601,38.9322],[1.28556,38.93097],[1.28549,38.9303],[1.28506,38.92963],[1.28449,38.92904],[1.28395,38.92863],[1.28298,38.92825],[1.28244,38.92748],[1.28167,38.92712],[1.28129,38.92678],[1.28059,38.92645],[1.28047,38.92585],[1.2791,38.9251],[1.27923,38.92483],[1.27843,38.92471],[1.27702,38.92475],[1.27585,38.92418],[1.27469,38.92433],[1.27446,38.92414],[1.27383,38.92398],[1.27295,38.92291],[1.27209,38.92207],[1.27176,38.92189],[1.27038,38.92168],[1.26916,38.92168],[1.26869,38.92186],[1.26779,38.92196],[1.26741,38.92211],[1.26547,38.9224],[1.26463,38.92244],[1.2641,38.92262],[1.26357,38.9226],[1.26333,38.92309],[1.26185,38.92348],[1.26131,38.92374],[1.26095,38.92411],[1.26052,38.92427],[1.26039,38.9244],[1.25988,38.9244],[1.25837,38.92382],[1.25775,38.92374],[1.25649,38.92384],[1.25549,38.92427],[1.25423,38.924],[1.25356,38.92399],[1.25227,38.92473],[1.2519,38.92486],[1.25076,38.92497],[1.24813,38.92624],[1.24701,38.92601],[1.24664,38.92603],[1.24487,38.92662],[1.24406,38.92667],[1.24261,38.92701],[1.242,38.92707],[1.24145,38.92702],[1.24044,38.92657],[1.24005,38.92658],[1.23813,38.92753],[1.23721,38.92789],[1.23701,38.92786],[1.23667,38.92801],[1.23668,38.92816],[1.2357,38.92857],[1.23479,38.92926],[1.23413,38.9296],[1.23379,38.92972],[1.23262,38.92979],[1.23292,38.93024],[1.23288,38.93035],[1.23266,38.9304],[1.23257,38.93064],[1.23267,38.9312],[1.23248,38.93136],[1.23243,38.93195],[1.23257,38.93233],[1.2322,38.93241],[1.23198,38.93276],[1.23307,38.93328],[1.23284,38.93378],[1.23212,38.9335],[1.23184,38.93348],[1.23179,38.93358],[1.23216,38.93386],[1.23227,38.93381],[1.23373,38.93418],[1.23375,38.93452],[1.2342,38.93472],[1.2346,38.93507],[1.23463,38.93523],[1.23451,38.93533],[1.23489,38.93534],[1.23492,38.9355],[1.23518,38.93566],[1.23588,38.93563],[1.23613,38.93573],[1.2361,38.93609],[1.23561,38.93682],[1.2355,38.93691],[1.23535,38.93685],[1.23523,38.93692],[1.23529,38.9371],[1.23549,38.93704],[1.23554,38.93718],[1.23538,38.93763],[1.23546,38.93782],[1.23552,38.93787],[1.23575,38.93765],[1.23597,38.93767],[1.23575,38.93781],[1.23568,38.93798],[1.23585,38.93808],[1.23581,38.93821],[1.23619,38.93845],[1.23652,38.9388],[1.2363,38.93947],[1.2361,38.93965],[1.23571,38.93974],[1.23558,38.93946],[1.23535,38.93954],[1.23546,38.93983],[1.23567,38.93984],[1.23568,38.94],[1.23553,38.9402],[1.23542,38.94075],[1.23504,38.94119],[1.23484,38.94114],[1.23453,38.94121],[1.23415,38.94148],[1.23379,38.94133],[1.23339,38.94133],[1.23308,38.94147],[1.23321,38.94161],[1.23316,38.94171],[1.2329,38.94173],[1.23278,38.94157],[1.23218,38.9416],[1.23202,38.94151],[1.23193,38.94141],[1.23212,38.94097],[1.23196,38.94086],[1.23183,38.94095],[1.23164,38.94075],[1.23138,38.94084],[1.23118,38.94111],[1.23098,38.94099],[1.23076,38.9411],[1.2307,38.94117],[1.23086,38.94132],[1.23082,38.94139],[1.23024,38.94147],[1.23029,38.94159],[1.23086,38.94179],[1.23058,38.94186],[1.23045,38.94179],[1.23009,38.94192],[1.23011,38.94199],[1.23037,38.94201],[1.23017,38.94205],[1.23017,38.94218],[1.23097,38.9426],[1.23073,38.94259],[1.23077,38.94274],[1.23042,38.94288],[1.23036,38.94311],[1.23017,38.94323],[1.23006,38.94315],[1.22999,38.94324],[1.22942,38.94322],[1.22942,38.94347],[1.23001,38.94378],[1.23043,38.94381],[1.23049,38.94391],[1.23077,38.94386],[1.23075,38.94394],[1.23092,38.94394],[1.23114,38.94411],[1.23251,38.94431],[1.23262,38.94444],[1.23248,38.94462],[1.23292,38.94478],[1.23283,38.94499],[1.23206,38.94514],[1.2319,38.94512],[1.23178,38.94495],[1.23156,38.94495],[1.23151,38.94514],[1.23102,38.94505],[1.23079,38.94521],[1.23065,38.94515],[1.23053,38.94525],[1.23032,38.94514],[1.23025,38.94529],[1.22982,38.94543],[1.22977,38.94562],[1.22963,38.94568],[1.22887,38.94524],[1.22858,38.94522],[1.22852,38.94548],[1.22835,38.9454],[1.22843,38.94528],[1.22827,38.94527],[1.22825,38.94538],[1.22806,38.94526],[1.22796,38.94539],[1.22692,38.9452],[1.22681,38.94525],[1.22648,38.94501],[1.22623,38.94504],[1.22625,38.94512],[1.22612,38.94516],[1.22638,38.94526],[1.22661,38.94565],[1.2269,38.94586],[1.22764,38.94592],[1.22774,38.94617],[1.22752,38.94634],[1.22766,38.94654],[1.22784,38.94659],[1.22782,38.94683],[1.22747,38.94686],[1.22774,38.9471],[1.22774,38.94727],[1.22763,38.94734],[1.22792,38.94762],[1.22774,38.94764],[1.22793,38.94771],[1.22802,38.94806],[1.22791,38.94814],[1.22761,38.94813],[1.22745,38.94794],[1.22709,38.94791],[1.22702,38.94772],[1.22683,38.9476],[1.22694,38.94755],[1.2268,38.94734],[1.22668,38.94747],[1.22646,38.94748],[1.22625,38.94738],[1.22628,38.94763],[1.22596,38.94783],[1.22617,38.94805],[1.22606,38.94814],[1.22611,38.94825],[1.22534,38.94847],[1.22609,38.94843],[1.22597,38.94856],[1.22605,38.9487],[1.22628,38.94875],[1.22652,38.94901],[1.22717,38.94918],[1.22713,38.94932],[1.22725,38.94938],[1.22732,38.94977],[1.22749,38.94974],[1.22764,38.94983],[1.22753,38.9502],[1.22721,38.95036],[1.22633,38.95022],[1.22532,38.95055],[1.22509,38.95051],[1.22484,38.9503],[1.22388,38.95029],[1.22279,38.95055],[1.22235,38.95011],[1.22256,38.9507],[1.22206,38.9505],[1.22153,38.95058],[1.22143,38.95052],[1.22147,38.95079],[1.22139,38.95084],[1.2211,38.9509],[1.22087,38.95079],[1.2206,38.95083],[1.22038,38.95069],[1.22033,38.95079],[1.22051,38.95082],[1.22044,38.95092],[1.21951,38.95098],[1.219,38.95137],[1.21911,38.95176],[1.21863,38.95188],[1.21849,38.95205],[1.21961,38.95307],[1.22034,38.9533],[1.22019,38.95409],[1.22011,38.95417],[1.21984,38.95402],[1.21976,38.95423],[1.21987,38.95436],[1.22008,38.9544],[1.22003,38.95476],[1.22014,38.95513],[1.21974,38.95545],[1.21938,38.95544],[1.21909,38.9553],[1.21899,38.9551],[1.21859,38.95503],[1.21825,38.95453],[1.21794,38.95492],[1.21771,38.95497],[1.2177,38.95505],[1.21793,38.95504],[1.21791,38.95517],[1.21782,38.95531],[1.21747,38.95546],[1.21745,38.9556],[1.21714,38.95564],[1.21686,38.95556],[1.2169,38.95565],[1.21738,38.95575],[1.21711,38.9562],[1.21676,38.95633],[1.21606,38.95638],[1.21588,38.9566],[1.21566,38.95639],[1.21537,38.95639],[1.21542,38.95655],[1.21514,38.95701],[1.21496,38.95711],[1.21474,38.95705],[1.21482,38.95725],[1.21473,38.95742],[1.21515,38.95787],[1.21489,38.95804],[1.21498,38.95816],[1.21514,38.95816],[1.21502,38.95848],[1.21508,38.95859],[1.21553,38.95883],[1.2164,38.95894],[1.21645,38.95906],[1.21623,38.95911],[1.21625,38.95919],[1.21664,38.95914],[1.21759,38.95938],[1.21776,38.9593],[1.21803,38.95932],[1.21798,38.95953],[1.21756,38.95979],[1.21826,38.95975],[1.21875,38.95985],[1.21881,38.95995],[1.2186,38.96012],[1.21881,38.9602],[1.21898,38.96057],[1.21967,38.96052],[1.21978,38.96079],[1.21948,38.96112],[1.21977,38.96134],[1.22001,38.96189],[1.22005,38.96262],[1.21993,38.9632],[1.22011,38.96318],[1.22019,38.96298],[1.22046,38.96286],[1.22071,38.96303],[1.22154,38.96302],[1.222,38.96333],[1.22192,38.96362],[1.22205,38.9638],[1.22239,38.96392],[1.22296,38.96372],[1.22338,38.96379],[1.22378,38.96446],[1.22399,38.96421],[1.22391,38.96373],[1.22425,38.96344],[1.22446,38.96342],[1.22456,38.96354],[1.22479,38.96348],[1.22498,38.96363],[1.22508,38.96433],[1.22521,38.96443],[1.22565,38.96445],[1.2258,38.96461],[1.22576,38.96508],[1.22591,38.96555],[1.22563,38.96571],[1.22559,38.9662],[1.22609,38.96649],[1.22581,38.96685],[1.22577,38.96713],[1.22592,38.96725],[1.22691,38.96697],[1.22687,38.96709],[1.22702,38.96729],[1.2268,38.96749],[1.22666,38.9675],[1.22661,38.96763],[1.22673,38.96773],[1.22724,38.96765],[1.22738,38.96792],[1.22719,38.96825],[1.22734,38.96855],[1.22735,38.96865],[1.22719,38.9687],[1.22732,38.96907],[1.22774,38.96957],[1.2281,38.96974],[1.22871,38.9707],[1.22868,38.97083],[1.22825,38.97079],[1.22791,38.97092],[1.22791,38.97101],[1.228,38.97115],[1.22822,38.97122],[1.22864,38.97107],[1.22865,38.97133],[1.22883,38.97143],[1.22914,38.9714],[1.2293,38.97163],[1.22943,38.97196],[1.22916,38.97243],[1.22938,38.97281],[1.22944,38.97351],[1.22921,38.97442],[1.22966,38.97457],[1.22979,38.9745]]],[[[1.2144,38.99491],[1.21508,38.99481],[1.21519,38.99449],[1.21503,38.99407],[1.2156,38.99356],[1.21541,38.99334],[1.21541,38.99305],[1.21592,38.99265],[1.21562,38.99223],[1.21564,38.99176],[1.21551,38.99165],[1.21558,38.99123],[1.21532,38.99096],[1.21552,38.9907],[1.21555,38.99048],[1.21526,38.98986],[1.21479,38.98965],[1.21465,38.9891],[1.2147,38.98868],[1.21532,38.98838],[1.21532,38.98817],[1.21494,38.98778],[1.21507,38.98759],[1.21471,38.98741],[1.21482,38.98724],[1.21475,38.98691],[1.21448,38.98659],[1.21324,38.98717],[1.21283,38.98719],[1.21264,38.98709],[1.21252,38.98668],[1.21233,38.98662],[1.21242,38.98635],[1.21229,38.98635],[1.21229,38.98658],[1.21215,38.98655],[1.21209,38.9864],[1.2123,38.98619],[1.21228,38.98606],[1.21189,38.98545],[1.21066,38.98456],[1.2105,38.98402],[1.21078,38.98384],[1.21083,38.98363],[1.21116,38.98363],[1.21157,38.98336],[1.21173,38.98339],[1.21197,38.98325],[1.21208,38.98317],[1.2121,38.98295],[1.21245,38.98298],[1.21241,38.98286],[1.21222,38.98277],[1.21232,38.98264],[1.2128,38.98247],[1.21313,38.98246],[1.2134,38.98224],[1.21414,38.9824],[1.21422,38.98249],[1.21496,38.98244],[1.21529,38.98253],[1.21564,38.98241],[1.21672,38.98227],[1.21739,38.98233],[1.21737,38.9822],[1.21795,38.98179],[1.21818,38.98144],[1.21834,38.9807],[1.218,38.9809],[1.21786,38.98059],[1.21771,38.98066],[1.21769,38.98052],[1.21749,38.98056],[1.21738,38.98018],[1.21695,38.98006],[1.2168,38.98024],[1.21668,38.98025],[1.21654,38.98008],[1.21655,38.97993],[1.21691,38.97973],[1.21699,38.97986],[1.218,38.97932],[1.21869,38.97881],[1.21893,38.97839],[1.21882,38.97834],[1.21846,38.97856],[1.21804,38.97881],[1.21792,38.979],[1.2174,38.97881],[1.21655,38.97887],[1.21604,38.97876],[1.21566,38.97851],[1.2155,38.97812],[1.21521,38.97808],[1.21478,38.97758],[1.21465,38.97715],[1.21476,38.97702],[1.2147,38.97658],[1.21455,38.97638],[1.21426,38.97625],[1.21408,38.97596],[1.21391,38.97622],[1.21329,38.97663],[1.21299,38.9772],[1.21241,38.9774],[1.21228,38.97728],[1.21182,38.97747],[1.21075,38.97826],[1.21068,38.9785],[1.21024,38.97863],[1.2103,38.97892],[1.20997,38.9792],[1.20958,38.9793],[1.20945,38.97969],[1.20867,38.98039],[1.20826,38.98041],[1.20734,38.98074],[1.2072,38.98105],[1.20692,38.98112],[1.20642,38.98164],[1.20656,38.98201],[1.20657,38.98246],[1.20638,38.98297],[1.20645,38.98347],[1.20632,38.98368],[1.20689,38.9841],[1.20715,38.98405],[1.20737,38.98417],[1.20736,38.98451],[1.208,38.98455],[1.2082,38.98475],[1.20819,38.98491],[1.20846,38.98492],[1.20857,38.98545],[1.20853,38.98564],[1.20836,38.9857],[1.20839,38.98595],[1.20868,38.98604],[1.20891,38.98631],[1.20856,38.98638],[1.20869,38.98653],[1.20852,38.98665],[1.20877,38.98675],[1.20858,38.98698],[1.20833,38.98696],[1.2081,38.98706],[1.20813,38.98736],[1.20738,38.9874],[1.20719,38.98756],[1.20734,38.98771],[1.20794,38.98791],[1.20776,38.98804],[1.20795,38.98816],[1.20795,38.98834],[1.20787,38.98838],[1.20754,38.98823],[1.20675,38.98839],[1.20636,38.98898],[1.20668,38.9897],[1.20755,38.98982],[1.20801,38.99036],[1.20904,38.99063],[1.20959,38.99111],[1.21055,38.9925],[1.21131,38.993],[1.21144,38.99329],[1.21172,38.99345],[1.21276,38.99478],[1.21309,38.99486],[1.21351,38.99517],[1.21407,38.9951],[1.2144,38.99491]]],[[[1.19875,38.95961],[1.19907,38.95963],[1.19929,38.95948],[1.19933,38.95896],[1.19919,38.95873],[1.19865,38.95844],[1.19864,38.95805],[1.19925,38.95761],[1.19977,38.95762],[1.19991,38.9575],[1.19985,38.95742],[1.19934,38.95734],[1.19961,38.95702],[1.19895,38.95693],[1.19868,38.95646],[1.19808,38.9564],[1.19713,38.95653],[1.19667,38.95674],[1.19623,38.95679],[1.19605,38.95708],[1.19628,38.95737],[1.19616,38.95755],[1.19542,38.9577],[1.19505,38.95756],[1.19451,38.95775],[1.19405,38.95771],[1.19362,38.95785],[1.19268,38.9578],[1.19256,38.95786],[1.19216,38.95748],[1.19177,38.9573],[1.19074,38.95728],[1.19044,38.95794],[1.19001,38.95781],[1.18973,38.95792],[1.19002,38.95828],[1.19061,38.95834],[1.19175,38.95916],[1.19248,38.95953],[1.1931,38.95963],[1.19364,38.95962],[1.19472,38.95982],[1.19577,38.95964],[1.19691,38.96004],[1.19784,38.96014],[1.19832,38.95994],[1.19875,38.95961]]],[[[1.21541,38.97159],[1.21564,38.97157],[1.21602,38.97119],[1.21646,38.97113],[1.21702,38.97084],[1.21742,38.97081],[1.21744,38.97055],[1.21782,38.97046],[1.21821,38.97011],[1.21875,38.96998],[1.21906,38.96973],[1.21919,38.96954],[1.21911,38.96942],[1.21924,38.96918],[1.21941,38.96908],[1.21964,38.96866],[1.22014,38.96828],[1.21954,38.96745],[1.21926,38.96745],[1.21851,38.96697],[1.21722,38.96695],[1.21615,38.9668],[1.21587,38.96697],[1.2157,38.96698],[1.21582,38.96736],[1.21571,38.96774],[1.21549,38.96785],[1.2147,38.96798],[1.21475,38.96807],[1.21455,38.96837],[1.21456,38.96858],[1.21441,38.96864],[1.21476,38.96981],[1.21473,38.97024],[1.21482,38.97033],[1.21485,38.97082],[1.21513,38.97128],[1.21502,38.97188],[1.21504,38.97217],[1.21515,38.97225],[1.21526,38.97219],[1.21526,38.97184],[1.21541,38.97159]]],[[[1.1895,38.95663],[1.18933,38.95648],[1.18895,38.95662],[1.18848,38.95647],[1.18848,38.957],[1.18883,38.95741],[1.18937,38.95763],[1.1893,38.95771],[1.18952,38.95786],[1.1898,38.95763],[1.18981,38.95738],[1.1895,38.95663]]],[[[1.202,38.95852],[1.20141,38.95848],[1.20118,38.95833],[1.20097,38.95848],[1.20092,38.95875],[1.20116,38.95884],[1.20149,38.95878],[1.20194,38.95864],[1.202,38.95852]]],[[[1.21588,38.98776],[1.21551,38.98786],[1.2156,38.98817],[1.21553,38.98832],[1.21574,38.98832],[1.21569,38.98825],[1.21613,38.98798],[1.21588,38.98776]]],[[[1.23195,38.97352],[1.23147,38.9735],[1.23152,38.9736],[1.23179,38.9739],[1.23201,38.97393],[1.23195,38.97352]]],[[[1.23179,38.97684],[1.23169,38.9771],[1.2319,38.97717],[1.23199,38.97697],[1.23179,38.97684]]],[[[1.21791,38.95424],[1.21773,38.95436],[1.21811,38.95442],[1.21814,38.95437],[1.21791,38.95424]]],[[[1.21751,38.96496],[1.21747,38.96476],[1.21735,38.96477],[1.21724,38.96496],[1.21751,38.96496]]],[[[1.21957,38.96422],[1.21916,38.96425],[1.21932,38.96435],[1.21957,38.96422]]],[[[1.23548,38.94016],[1.23531,38.94011],[1.23517,38.94018],[1.23545,38.94023],[1.23548,38.94016]]]]}},{"type":"Feature","properties":{"id":"0704801003"},"geometry":{"type":"Polygon","coordinates":[[[1.28548,38.9655],[1.28458,38.9655],[1.28414,38.96524],[1.28347,38.96725],[1.28125,38.96675],[1.27835,38.96577],[1.27599,38.96983],[1.27664,38.96996],[1.27699,38.97025],[1.27706,38.9704],[1.27694,38.97047],[1.27704,38.97059],[1.27697,38.97123],[1.27744,38.97139],[1.27759,38.97156],[1.27782,38.97153],[1.27779,38.97167],[1.27813,38.97178],[1.2786,38.97241],[1.27908,38.97267],[1.27998,38.97264],[1.28014,38.97245],[1.28077,38.97229],[1.28089,38.9721],[1.28116,38.97198],[1.28192,38.97205],[1.28223,38.97237],[1.28213,38.97292],[1.28244,38.97267],[1.28277,38.97206],[1.28504,38.96716],[1.28548,38.9655]]]}},{"type":"Feature","properties":{"id":"0704801004"},"geometry":{"type":"Polygon","coordinates":[[[1.27599,38.96983],[1.27835,38.96577],[1.28125,38.96675],[1.28347,38.96725],[1.2837,38.96668],[1.28165,38.96615],[1.28168,38.96607],[1.2813,38.96595],[1.28142,38.96577],[1.27887,38.96492],[1.27991,38.96351],[1.28077,38.96365],[1.28114,38.96297],[1.27986,38.96281],[1.28138,38.9613],[1.282,38.96141],[1.28228,38.96124],[1.2827,38.96049],[1.28368,38.95978],[1.2816,38.95913],[1.28105,38.95985],[1.28007,38.96031],[1.27921,38.96058],[1.27909,38.96134],[1.27885,38.96161],[1.27801,38.96169],[1.27718,38.96198],[1.27728,38.96243],[1.27664,38.9631],[1.27541,38.96475],[1.27408,38.96461],[1.27251,38.96496],[1.27188,38.965],[1.27272,38.96413],[1.27155,38.96355],[1.27217,38.96266],[1.27158,38.96226],[1.27172,38.9619],[1.27138,38.96168],[1.27116,38.96119],[1.27153,38.9604],[1.27066,38.96026],[1.27177,38.95783],[1.2731,38.95812],[1.27384,38.95628],[1.27247,38.95592],[1.27261,38.95567],[1.27098,38.95531],[1.26825,38.95591],[1.26728,38.95643],[1.26675,38.95863],[1.26628,38.95952],[1.26614,38.96001],[1.26508,38.96134],[1.26479,38.96154],[1.26428,38.96162],[1.26452,38.96272],[1.2648,38.96341],[1.2652,38.96381],[1.2651,38.96421],[1.26516,38.96439],[1.26473,38.96539],[1.26372,38.96623],[1.26327,38.96641],[1.26301,38.96669],[1.26284,38.96736],[1.26237,38.96814],[1.26232,38.96884],[1.26264,38.96884],[1.26261,38.97027],[1.26271,38.97032],[1.26284,38.97021],[1.26301,38.96982],[1.26287,38.96862],[1.26272,38.96854],[1.26277,38.96811],[1.26295,38.96794],[1.26317,38.96802],[1.26312,38.96773],[1.26337,38.96755],[1.26337,38.96747],[1.26357,38.96743],[1.2638,38.96755],[1.2642,38.96731],[1.26489,38.96724],[1.26523,38.96706],[1.26557,38.96714],[1.2661,38.96714],[1.26653,38.96703],[1.2667,38.96706],[1.26662,38.96715],[1.26701,38.96716],[1.26734,38.96692],[1.26751,38.96693],[1.26776,38.96661],[1.26841,38.96688],[1.26868,38.96725],[1.26856,38.96746],[1.26792,38.96777],[1.26752,38.96812],[1.26666,38.96845],[1.26596,38.96858],[1.26602,38.9688],[1.26628,38.96895],[1.26671,38.96961],[1.267,38.96985],[1.26724,38.96989],[1.26732,38.96979],[1.26813,38.96979],[1.26898,38.96949],[1.26899,38.96939],[1.26931,38.96933],[1.26953,38.9694],[1.2697,38.96968],[1.2699,38.96969],[1.26975,38.97008],[1.27064,38.9699],[1.27073,38.9698],[1.27063,38.9696],[1.27077,38.96948],[1.27087,38.96957],[1.27124,38.96955],[1.27105,38.96961],[1.27106,38.9697],[1.27123,38.96967],[1.2713,38.96955],[1.27146,38.96965],[1.27154,38.96952],[1.27172,38.96945],[1.27179,38.96952],[1.27196,38.96941],[1.27262,38.96949],[1.27254,38.96958],[1.27268,38.96957],[1.27269,38.9695],[1.27293,38.96967],[1.27319,38.96952],[1.27338,38.96953],[1.27416,38.96983],[1.27456,38.96973],[1.27484,38.96988],[1.27496,38.9698],[1.27599,38.96983]]]}},{"type":"Feature","properties":{"id":"0704801005"},"geometry":{"type":"MultiPolygon","coordinates":[[[[1.23117,38.93011],[1.23136,38.93012],[1.23182,38.92966],[1.23237,38.92962],[1.23262,38.92979],[1.23402,38.92965],[1.23475,38.92929],[1.2357,38.92857],[1.23668,38.92816],[1.23667,38.92801],[1.23701,38.92786],[1.23721,38.92789],[1.23813,38.92753],[1.23939,38.92684],[1.24018,38.92653],[1.24044,38.92657],[1.24145,38.92702],[1.242,38.92707],[1.24261,38.92701],[1.24406,38.92667],[1.24487,38.92662],[1.24664,38.92603],[1.24701,38.92601],[1.24813,38.92624],[1.25076,38.92497],[1.25207,38.9248],[1.25337,38.92405],[1.25367,38.92397],[1.25423,38.924],[1.25549,38.92427],[1.25649,38.92384],[1.25775,38.92374],[1.25837,38.92382],[1.25988,38.9244],[1.26039,38.9244],[1.26052,38.92427],[1.26095,38.92411],[1.26131,38.92374],[1.26185,38.92348],[1.26333,38.92309],[1.26357,38.9226],[1.26417,38.92261],[1.26463,38.92244],[1.26547,38.9224],[1.26741,38.92211],[1.26779,38.92196],[1.26838,38.92193],[1.26916,38.92168],[1.26978,38.92166],[1.26821,38.91989],[1.265,38.91959],[1.2606,38.91955],[1.25474,38.91726],[1.25454,38.91602],[1.25293,38.91369],[1.25141,38.91042],[1.24908,38.90707],[1.2474,38.90339],[1.2467,38.90061],[1.24573,38.89773],[1.2466,38.89448],[1.24741,38.89247],[1.25001,38.89155],[1.25182,38.89065],[1.25482,38.8896],[1.25627,38.88945],[1.25787,38.88939],[1.2608,38.88949],[1.26347,38.8897],[1.26587,38.88972],[1.26792,38.89069],[1.27012,38.89185],[1.27222,38.89354],[1.27387,38.89671],[1.27576,38.89934],[1.27636,38.90046],[1.27872,38.90214],[1.28343,38.90519],[1.28572,38.90563],[1.28719,38.90568],[1.28888,38.9059],[1.29216,38.90585],[1.29354,38.90629],[1.29393,38.90657],[1.29461,38.90668],[1.296,38.90669],[1.29642,38.90658],[1.29682,38.90633],[1.29742,38.90644],[1.29768,38.90657],[1.29786,38.90679],[1.29863,38.90702],[1.29901,38.90704],[1.29989,38.90622],[1.30444,38.90487],[1.30515,38.90412],[1.30554,38.90285],[1.30629,38.90197],[1.30644,38.90101],[1.30708,38.89971],[1.30702,38.89941],[1.30675,38.89916],[1.30518,38.89833],[1.30505,38.89817],[1.305,38.89738],[1.30723,38.89536],[1.30743,38.89505],[1.30736,38.89466],[1.30862,38.89386],[1.30873,38.89359],[1.30893,38.89349],[1.31007,38.89348],[1.3101,38.89331],[1.30991,38.89299],[1.30956,38.89277],[1.30937,38.89245],[1.30935,38.89202],[1.3095,38.89182],[1.31049,38.89152],[1.3116,38.89105],[1.31163,38.89079],[1.31098,38.89052],[1.31014,38.89058],[1.30988,38.89042],[1.30944,38.89001],[1.30842,38.88854],[1.30859,38.88721],[1.30846,38.88577],[1.30865,38.88465],[1.3087,38.8827],[1.30889,38.88237],[1.30942,38.88205],[1.31071,38.88181],[1.31164,38.88197],[1.31401,38.88215],[1.31438,38.88207],[1.31525,38.88184],[1.31646,38.88084],[1.31659,38.88027],[1.31647,38.87975],[1.31581,38.87859],[1.31591,38.87816],[1.31686,38.87576],[1.31695,38.87516],[1.31716,38.87502],[1.317,38.87489],[1.3171,38.87464],[1.31736,38.8742],[1.31894,38.87263],[1.31897,38.87244],[1.31875,38.87202],[1.31877,38.87145],[1.31864,38.871],[1.31681,38.86742],[1.31628,38.86774],[1.31544,38.86802],[1.31347,38.86846],[1.31317,38.86846],[1.31291,38.86817],[1.31254,38.86806],[1.31242,38.86792],[1.31217,38.86793],[1.31169,38.8682],[1.31104,38.8684],[1.30998,38.86824],[1.30964,38.86801],[1.3098,38.86752],[1.30944,38.86623],[1.30912,38.8655],[1.30907,38.86493],[1.30919,38.86492],[1.30922,38.86481],[1.30909,38.86473],[1.30902,38.86437],[1.30871,38.86442],[1.30844,38.86431],[1.30826,38.86376],[1.30808,38.86377],[1.30797,38.8636],[1.30758,38.8636],[1.30768,38.86342],[1.30756,38.86331],[1.30725,38.86326],[1.30705,38.86336],[1.30658,38.86285],[1.30649,38.86262],[1.30641,38.86279],[1.30596,38.86262],[1.30548,38.86212],[1.30503,38.86181],[1.3046,38.86177],[1.30471,38.86193],[1.30451,38.86206],[1.30508,38.86267],[1.30433,38.86308],[1.30396,38.86303],[1.30389,38.86282],[1.30367,38.86276],[1.30361,38.86264],[1.30344,38.86271],[1.30326,38.86263],[1.30292,38.86295],[1.30257,38.86299],[1.3026,38.86286],[1.30226,38.86264],[1.30244,38.86228],[1.30223,38.86191],[1.30159,38.86186],[1.30145,38.862],[1.30118,38.86203],[1.30107,38.86243],[1.30057,38.86254],[1.30051,38.86273],[1.30022,38.86275],[1.30005,38.86262],[1.29954,38.86293],[1.2984,38.86283],[1.29814,38.86248],[1.29769,38.86239],[1.29773,38.86226],[1.29751,38.86216],[1.29739,38.86231],[1.29787,38.86254],[1.29822,38.86289],[1.29824,38.86304],[1.29847,38.86311],[1.29846,38.86355],[1.29895,38.86377],[1.29901,38.86385],[1.29888,38.86386],[1.2989,38.86393],[1.29949,38.8644],[1.29948,38.86472],[1.29936,38.86479],[1.29961,38.86514],[1.29952,38.86542],[1.29985,38.86559],[1.30031,38.86567],[1.30036,38.86576],[1.30146,38.8653],[1.30215,38.86526],[1.30245,38.86541],[1.30275,38.86572],[1.30293,38.86576],[1.30297,38.86588],[1.30367,38.86627],[1.3041,38.8664],[1.30463,38.86639],[1.30487,38.86647],[1.30518,38.86688],[1.30524,38.86767],[1.30495,38.86802],[1.30516,38.86805],[1.30516,38.86819],[1.30489,38.8682],[1.30475,38.86843],[1.30491,38.86858],[1.30475,38.86861],[1.30449,38.86897],[1.30381,38.86925],[1.30386,38.86933],[1.30371,38.86955],[1.30414,38.86987],[1.30382,38.87025],[1.30341,38.8705],[1.30307,38.87051],[1.30269,38.87019],[1.30204,38.86993],[1.30181,38.86931],[1.30155,38.86903],[1.30134,38.86901],[1.30082,38.86923],[1.30075,38.86941],[1.30097,38.86971],[1.30102,38.87008],[1.3014,38.87018],[1.30106,38.87024],[1.30085,38.87055],[1.30091,38.87061],[1.30075,38.87097],[1.30083,38.87111],[1.3008,38.8717],[1.30049,38.87186],[1.29971,38.87183],[1.29975,38.8729],[1.2994,38.87381],[1.29909,38.87395],[1.29917,38.87401],[1.29914,38.87438],[1.29866,38.87478],[1.29823,38.87484],[1.29801,38.87505],[1.29798,38.87525],[1.29788,38.87527],[1.29798,38.87536],[1.29801,38.87565],[1.29782,38.87593],[1.29756,38.87602],[1.29739,38.87645],[1.29598,38.87714],[1.29556,38.87715],[1.29461,38.87693],[1.29353,38.87691],[1.29318,38.87668],[1.29244,38.87638],[1.29245,38.87611],[1.29225,38.8759],[1.29176,38.87598],[1.29157,38.87598],[1.29155,38.87589],[1.2911,38.8759],[1.29091,38.87598],[1.2909,38.87624],[1.29077,38.87621],[1.29073,38.87634],[1.29044,38.87642],[1.29014,38.8762],[1.28949,38.87594],[1.28881,38.87615],[1.28788,38.87611],[1.28727,38.87635],[1.28662,38.87622],[1.28634,38.87658],[1.28618,38.87658],[1.28624,38.87643],[1.28604,38.87636],[1.28584,38.87667],[1.28557,38.8766],[1.2852,38.87668],[1.28484,38.8766],[1.28448,38.87691],[1.28397,38.87692],[1.28381,38.87682],[1.28342,38.87611],[1.28281,38.87606],[1.28306,38.87589],[1.28302,38.8756],[1.28319,38.87516],[1.2831,38.87493],[1.28287,38.87488],[1.2825,38.87493],[1.28237,38.87475],[1.28205,38.87498],[1.28227,38.87509],[1.28166,38.87532],[1.28161,38.87549],[1.28139,38.87564],[1.28133,38.87589],[1.28135,38.87635],[1.2815,38.87644],[1.28193,38.87647],[1.28222,38.8767],[1.28207,38.8771],[1.28163,38.87747],[1.2804,38.87798],[1.28001,38.87828],[1.27922,38.87849],[1.27882,38.87828],[1.27846,38.87847],[1.27811,38.87834],[1.27791,38.87857],[1.2773,38.8786],[1.27595,38.87834],[1.27596,38.87792],[1.27568,38.87792],[1.27503,38.87766],[1.27447,38.87763],[1.2741,38.87859],[1.27434,38.87871],[1.27434,38.87881],[1.2732,38.87911],[1.27308,38.8795],[1.27216,38.87953],[1.27206,38.87943],[1.27162,38.8794],[1.27127,38.87925],[1.2712,38.87909],[1.27131,38.87884],[1.27108,38.87865],[1.26922,38.87844],[1.26844,38.87814],[1.26774,38.87808],[1.26742,38.8778],[1.26651,38.87753],[1.26598,38.87704],[1.26567,38.87657],[1.2656,38.87623],[1.26514,38.87599],[1.26485,38.87568],[1.26473,38.8752],[1.26439,38.87481],[1.26393,38.87361],[1.26335,38.87311],[1.26276,38.87324],[1.26184,38.87268],[1.26155,38.87202],[1.26168,38.87179],[1.26154,38.87178],[1.26151,38.87165],[1.26136,38.87183],[1.26124,38.87181],[1.26092,38.87156],[1.26089,38.87087],[1.26068,38.87057],[1.26024,38.87022],[1.26009,38.86992],[1.26028,38.86965],[1.26007,38.86973],[1.25973,38.86932],[1.25884,38.8691],[1.2583,38.86873],[1.25811,38.86849],[1.25808,38.86822],[1.25833,38.86805],[1.25835,38.86795],[1.2581,38.86761],[1.25787,38.86736],[1.25731,38.86719],[1.25706,38.86681],[1.25611,38.86631],[1.25557,38.86564],[1.25564,38.86535],[1.25532,38.86474],[1.2555,38.86462],[1.25497,38.86365],[1.25474,38.86359],[1.25462,38.86341],[1.25422,38.8632],[1.25364,38.8631],[1.25336,38.86282],[1.25341,38.86237],[1.25435,38.86229],[1.25437,38.86214],[1.25486,38.86199],[1.25575,38.86197],[1.25575,38.86177],[1.2554,38.86133],[1.25552,38.86101],[1.25526,38.86045],[1.2553,38.85978],[1.25487,38.8599],[1.25426,38.85989],[1.25421,38.85964],[1.25401,38.85948],[1.25395,38.85918],[1.25364,38.85897],[1.2532,38.85803],[1.25261,38.85776],[1.25122,38.85736],[1.25004,38.85665],[1.24808,38.85577],[1.24789,38.85582],[1.24821,38.85614],[1.24818,38.85635],[1.24749,38.8569],[1.24695,38.85689],[1.24639,38.85653],[1.24627,38.85657],[1.24625,38.85741],[1.24643,38.85793],[1.24639,38.85826],[1.24551,38.85938],[1.24597,38.85997],[1.24609,38.86041],[1.24542,38.86118],[1.24467,38.86132],[1.24438,38.86149],[1.24432,38.86404],[1.24403,38.86497],[1.24392,38.86524],[1.24363,38.86555],[1.24359,38.86591],[1.24289,38.8662],[1.243,38.86638],[1.24344,38.8663],[1.24338,38.86652],[1.24304,38.8668],[1.24221,38.86702],[1.24199,38.86716],[1.24147,38.86783],[1.24151,38.86805],[1.24176,38.86836],[1.24091,38.86919],[1.2401,38.86952],[1.23962,38.8694],[1.23923,38.86959],[1.23856,38.87012],[1.23839,38.87046],[1.23825,38.87049],[1.2382,38.87094],[1.23798,38.87083],[1.23779,38.87112],[1.23744,38.87112],[1.23724,38.87101],[1.23721,38.87085],[1.23691,38.87091],[1.23678,38.87112],[1.23676,38.87179],[1.2363,38.87216],[1.23589,38.87215],[1.23575,38.87261],[1.23496,38.87269],[1.23378,38.87216],[1.23309,38.87199],[1.23293,38.87207],[1.23294,38.87226],[1.23353,38.87288],[1.23339,38.87306],[1.23309,38.87316],[1.23249,38.87281],[1.23237,38.87228],[1.23211,38.87246],[1.2314,38.87254],[1.23017,38.87229],[1.22984,38.8721],[1.22999,38.87241],[1.23025,38.87247],[1.23065,38.8728],[1.23049,38.87303],[1.23021,38.8731],[1.22997,38.87293],[1.22987,38.87311],[1.22957,38.87318],[1.22901,38.87305],[1.22878,38.87317],[1.2277,38.87249],[1.2274,38.87247],[1.22709,38.87205],[1.22635,38.8718],[1.22597,38.87206],[1.22588,38.87192],[1.22604,38.87173],[1.22586,38.87175],[1.22537,38.87142],[1.22494,38.87134],[1.22468,38.87085],[1.22434,38.87081],[1.22429,38.87114],[1.22508,38.87238],[1.2253,38.8734],[1.22531,38.87372],[1.2252,38.87398],[1.22497,38.8741],[1.22497,38.87426],[1.22512,38.8744],[1.2255,38.87437],[1.22547,38.87453],[1.226,38.87469],[1.22628,38.87568],[1.22614,38.8758],[1.22611,38.87606],[1.22591,38.87616],[1.2257,38.87649],[1.22497,38.87679],[1.22439,38.8772],[1.22378,38.87741],[1.22238,38.87877],[1.22208,38.87917],[1.22207,38.87937],[1.22265,38.87969],[1.22312,38.8802],[1.22299,38.88044],[1.22313,38.88059],[1.22304,38.88074],[1.2233,38.88126],[1.22299,38.88133],[1.22308,38.88144],[1.22305,38.88192],[1.22312,38.88212],[1.22342,38.88227],[1.22358,38.88261],[1.22349,38.883],[1.22353,38.88352],[1.22375,38.88391],[1.22403,38.88406],[1.22457,38.8846],[1.22505,38.88527],[1.22484,38.88558],[1.22482,38.8865],[1.22502,38.88712],[1.2254,38.88764],[1.22564,38.88782],[1.22562,38.88801],[1.22474,38.88852],[1.22484,38.88892],[1.22476,38.88938],[1.2244,38.8899],[1.22318,38.89074],[1.22272,38.89081],[1.22198,38.89076],[1.22178,38.89064],[1.22153,38.89022],[1.22128,38.89029],[1.22103,38.89019],[1.22088,38.89023],[1.22029,38.88998],[1.22017,38.89001],[1.21995,38.89046],[1.21983,38.89049],[1.21962,38.89083],[1.21933,38.89092],[1.21925,38.89123],[1.21895,38.89144],[1.21929,38.89187],[1.22002,38.89223],[1.21989,38.89229],[1.21966,38.89283],[1.21914,38.89275],[1.2189,38.89289],[1.21892,38.89304],[1.21832,38.89284],[1.21806,38.89303],[1.21803,38.89318],[1.21773,38.89318],[1.21778,38.89333],[1.21731,38.89334],[1.21666,38.89382],[1.21656,38.89408],[1.21668,38.89433],[1.21719,38.89416],[1.21778,38.89422],[1.21807,38.89451],[1.21805,38.89466],[1.21777,38.89486],[1.21755,38.89465],[1.21725,38.89481],[1.21702,38.89508],[1.21707,38.89515],[1.21678,38.89531],[1.21681,38.89563],[1.2166,38.89578],[1.21659,38.89611],[1.21619,38.89634],[1.21601,38.89668],[1.21555,38.89688],[1.21532,38.89681],[1.21483,38.89733],[1.2137,38.89745],[1.21367,38.89751],[1.21383,38.89752],[1.21374,38.8978],[1.21388,38.89781],[1.21405,38.89802],[1.21404,38.89847],[1.21385,38.89872],[1.21406,38.89885],[1.21409,38.89897],[1.21374,38.89966],[1.21343,38.90067],[1.21351,38.90103],[1.2133,38.90154],[1.21342,38.90183],[1.21328,38.90191],[1.21353,38.90233],[1.21379,38.90327],[1.21387,38.90411],[1.21403,38.9045],[1.21404,38.90502],[1.2148,38.90591],[1.21514,38.90596],[1.21545,38.90617],[1.21575,38.90659],[1.21595,38.90723],[1.21631,38.90736],[1.21673,38.90735],[1.21691,38.90749],[1.2168,38.90793],[1.21656,38.90831],[1.2164,38.90827],[1.21635,38.90835],[1.21661,38.90887],[1.21698,38.90891],[1.21772,38.90877],[1.21821,38.90878],[1.21811,38.90904],[1.21765,38.90935],[1.21768,38.90974],[1.21782,38.90998],[1.21828,38.91029],[1.21866,38.91037],[1.21914,38.91071],[1.21999,38.91078],[1.21997,38.91089],[1.21983,38.91092],[1.21987,38.91118],[1.21975,38.9115],[1.21984,38.91212],[1.22001,38.91236],[1.21983,38.91228],[1.21962,38.91233],[1.21969,38.91254],[1.21955,38.91265],[1.21944,38.91347],[1.21964,38.91348],[1.22002,38.91307],[1.22023,38.91306],[1.22055,38.91318],[1.22058,38.91334],[1.22078,38.91346],[1.22107,38.91346],[1.22122,38.91361],[1.22099,38.91375],[1.22079,38.91406],[1.22092,38.91421],[1.22105,38.91405],[1.2214,38.91409],[1.22154,38.914],[1.2216,38.91368],[1.22184,38.91336],[1.22228,38.91329],[1.22258,38.91308],[1.22321,38.91296],[1.2234,38.91283],[1.22394,38.91316],[1.22424,38.91372],[1.22421,38.91421],[1.22398,38.91435],[1.22347,38.91438],[1.2229,38.91453],[1.22241,38.91507],[1.22224,38.91546],[1.22188,38.91572],[1.22144,38.91568],[1.22144,38.91557],[1.22132,38.91552],[1.22103,38.91584],[1.22093,38.91566],[1.21947,38.91557],[1.21926,38.91528],[1.21862,38.91533],[1.2187,38.91566],[1.21852,38.91592],[1.21862,38.91625],[1.21843,38.91641],[1.21853,38.91676],[1.21875,38.91678],[1.21887,38.91638],[1.21931,38.91606],[1.21917,38.91639],[1.2194,38.91673],[1.21926,38.91696],[1.2193,38.91715],[1.21902,38.91732],[1.21903,38.91752],[1.21985,38.9175],[1.22015,38.91766],[1.22026,38.91796],[1.22044,38.91797],[1.2208,38.91819],[1.22092,38.91813],[1.22116,38.91819],[1.22126,38.9184],[1.22138,38.9183],[1.22152,38.91847],[1.222,38.91851],[1.22197,38.91862],[1.22172,38.91863],[1.22175,38.91871],[1.22144,38.91882],[1.2214,38.91892],[1.22151,38.91899],[1.2215,38.91922],[1.22164,38.91922],[1.22184,38.91944],[1.22222,38.91954],[1.22236,38.91997],[1.2219,38.92039],[1.22127,38.92053],[1.22154,38.92068],[1.22153,38.921],[1.22124,38.92098],[1.22105,38.92111],[1.22101,38.92128],[1.22115,38.92139],[1.22069,38.92162],[1.22072,38.92181],[1.22051,38.92224],[1.22076,38.9228],[1.22109,38.92294],[1.22112,38.92277],[1.22189,38.92268],[1.22217,38.92247],[1.22245,38.92246],[1.22251,38.9227],[1.2228,38.92257],[1.22308,38.92271],[1.22279,38.92303],[1.22285,38.92316],[1.22369,38.9229],[1.22411,38.923],[1.22458,38.92327],[1.22493,38.92372],[1.22495,38.92389],[1.2248,38.924],[1.22481,38.92414],[1.22526,38.92457],[1.22582,38.92452],[1.22639,38.92459],[1.2275,38.92431],[1.22844,38.92476],[1.22872,38.9252],[1.2285,38.92615],[1.22783,38.92688],[1.22819,38.927],[1.22839,38.92747],[1.22762,38.92813],[1.22758,38.92829],[1.22788,38.92839],[1.22816,38.92837],[1.22843,38.92881],[1.2292,38.92899],[1.22968,38.9289],[1.23053,38.92839],[1.23067,38.92841],[1.23079,38.92871],[1.23068,38.92914],[1.23014,38.92929],[1.22988,38.92982],[1.23029,38.92963],[1.23075,38.92967],[1.2305,38.93002],[1.23074,38.93041],[1.23097,38.93042],[1.23117,38.93011]]],[[[1.21121,38.87001],[1.21168,38.86999],[1.2118,38.86991],[1.21231,38.86985],[1.21287,38.86997],[1.21375,38.86987],[1.21447,38.86949],[1.21497,38.86937],[1.21499,38.86921],[1.2153,38.86912],[1.21532,38.86899],[1.21509,38.86888],[1.21469,38.86798],[1.21469,38.86748],[1.21487,38.86717],[1.21487,38.86692],[1.21449,38.8665],[1.21401,38.86624],[1.21386,38.86602],[1.21363,38.86592],[1.21326,38.86595],[1.21297,38.86572],[1.21273,38.8657],[1.21253,38.86582],[1.21256,38.86639],[1.2124,38.86672],[1.21292,38.86758],[1.21384,38.86809],[1.21389,38.86824],[1.21375,38.86824],[1.21372,38.86834],[1.21303,38.86825],[1.21297,38.8685],[1.2127,38.86863],[1.21238,38.86862],[1.21211,38.86835],[1.21194,38.86844],[1.21197,38.86857],[1.21184,38.86858],[1.21143,38.86845],[1.21131,38.86831],[1.2113,38.86846],[1.21117,38.8684],[1.21085,38.86817],[1.21085,38.86799],[1.21056,38.86758],[1.21108,38.86726],[1.21087,38.86707],[1.2105,38.86713],[1.21038,38.86731],[1.20988,38.86746],[1.20925,38.86732],[1.20877,38.86755],[1.2077,38.86745],[1.20749,38.86781],[1.20819,38.86843],[1.20806,38.86859],[1.20761,38.86834],[1.20705,38.86822],[1.2068,38.86826],[1.20756,38.86891],[1.20745,38.86904],[1.20759,38.86929],[1.20806,38.8695],[1.20842,38.86936],[1.20896,38.86952],[1.20923,38.86941],[1.20985,38.86956],[1.21013,38.86948],[1.21075,38.86969],[1.21074,38.86984],[1.211,38.8699],[1.21104,38.87005],[1.21119,38.87013],[1.21121,38.87001]]],[[[1.29912,38.87172],[1.29951,38.87165],[1.29967,38.87153],[1.29966,38.87138],[1.29937,38.87108],[1.29944,38.87098],[1.29936,38.8709],[1.29961,38.87086],[1.2997,38.87055],[1.29959,38.8701],[1.2993,38.87036],[1.29941,38.8705],[1.29922,38.87059],[1.29893,38.87138],[1.29899,38.87163],[1.29912,38.87172]]],[[[1.19686,38.87205],[1.19606,38.87129],[1.19555,38.87108],[1.19525,38.87105],[1.19545,38.87135],[1.19589,38.87157],[1.19621,38.87187],[1.19686,38.87205]]],[[[1.2188,38.89022],[1.2192,38.89005],[1.21898,38.88976],[1.21866,38.88962],[1.21835,38.88993],[1.21836,38.89007],[1.21852,38.89023],[1.2188,38.89022]]],[[[1.24382,38.86144],[1.24389,38.86137],[1.24359,38.86052],[1.2435,38.86118],[1.24382,38.86144]]],[[[1.29816,38.87061],[1.29851,38.87049],[1.29857,38.87036],[1.2982,38.87024],[1.29806,38.87037],[1.29805,38.87055],[1.29816,38.87061]]],[[[1.24413,38.86241],[1.24393,38.86255],[1.24397,38.8628],[1.24411,38.86294],[1.24413,38.86241]]]]}},{"type":"Feature","properties":{"id":"0704801006"},"geometry":{"type":"Polygon","coordinates":[[[1.30234,38.96946],[1.30467,38.96733],[1.30615,38.96651],[1.30913,38.96138],[1.30841,38.95834],[1.30797,38.95845],[1.30748,38.95876],[1.30808,38.95911],[1.30804,38.95964],[1.30869,38.95978],[1.30892,38.96081],[1.30857,38.96155],[1.30838,38.9616],[1.30772,38.96144],[1.30754,38.96115],[1.30716,38.96169],[1.30574,38.96121],[1.30551,38.96159],[1.30484,38.96135],[1.30419,38.96231],[1.30176,38.96124],[1.30212,38.95958],[1.30265,38.95957],[1.30277,38.95908],[1.30224,38.95893],[1.30238,38.95837],[1.30093,38.9582],[1.30065,38.96045],[1.3003,38.96112],[1.29905,38.96172],[1.29902,38.96205],[1.29845,38.96187],[1.29839,38.96214],[1.29775,38.96204],[1.29741,38.96169],[1.29708,38.96167],[1.29685,38.96363],[1.29621,38.96347],[1.29584,38.96319],[1.2954,38.96321],[1.2947,38.96126],[1.29449,38.95752],[1.29388,38.95755],[1.29427,38.96098],[1.29468,38.96308],[1.29414,38.96316],[1.29411,38.96336],[1.29291,38.96329],[1.29279,38.96457],[1.29236,38.96456],[1.29243,38.96547],[1.29235,38.96548],[1.29235,38.96635],[1.29183,38.97035],[1.29207,38.97095],[1.29231,38.97088],[1.29255,38.9706],[1.29307,38.97064],[1.29365,38.97043],[1.29469,38.96946],[1.29511,38.96886],[1.29559,38.96855],[1.29602,38.96843],[1.29628,38.96855],[1.2966,38.96901],[1.29673,38.96904],[1.2974,38.96885],[1.29815,38.96842],[1.29822,38.96848],[1.29857,38.96843],[1.29855,38.96807],[1.29906,38.968],[1.29967,38.96807],[1.30004,38.96838],[1.30027,38.96845],[1.30085,38.96828],[1.30104,38.96831],[1.30118,38.96846],[1.30106,38.96898],[1.30111,38.96917],[1.30126,38.9693],[1.30234,38.96946]]]}},{"type":"Feature","properties":{"id":"0704801007"},"geometry":{"type":"Polygon","coordinates":[[[1.29207,38.97095],[1.29183,38.97035],[1.29235,38.96635],[1.29235,38.96548],[1.29014,38.96573],[1.28932,38.96552],[1.28712,38.9656],[1.28548,38.9655],[1.28504,38.96716],[1.28277,38.97206],[1.28244,38.97267],[1.28213,38.97292],[1.28222,38.97313],[1.28262,38.97344],[1.28265,38.97372],[1.28285,38.97375],[1.28353,38.97417],[1.28379,38.97424],[1.28414,38.97419],[1.28609,38.97338],[1.28643,38.97316],[1.28654,38.973],[1.28649,38.97283],[1.28597,38.97267],[1.28586,38.97247],[1.28591,38.97199],[1.28606,38.97177],[1.28655,38.97149],[1.28774,38.97124],[1.28806,38.97127],[1.28831,38.97143],[1.28944,38.97179],[1.28991,38.97207],[1.29081,38.97228],[1.29146,38.97268],[1.29217,38.97244],[1.29267,38.97198],[1.29273,38.97177],[1.29264,38.97155],[1.2924,38.97149],[1.29204,38.97117],[1.29207,38.97095]]]}},{"type":"Feature","properties":{"id":"0704802001"},"geometry":{"type":"Polygon","coordinates":[[[1.40507,38.90335],[1.40294,38.90241],[1.4022,38.90201],[1.40161,38.90154],[1.40464,38.89989],[1.40201,38.8968],[1.40164,38.89653],[1.40076,38.89551],[1.40052,38.89475],[1.40078,38.89453],[1.40123,38.8904],[1.40011,38.88877],[1.39941,38.88845],[1.39943,38.88837],[1.39744,38.88701],[1.39534,38.88686],[1.39628,38.88949],[1.39602,38.89061],[1.39563,38.89093],[1.39441,38.8912],[1.39194,38.89224],[1.39113,38.89268],[1.39005,38.89342],[1.38902,38.89601],[1.38799,38.89792],[1.38775,38.89783],[1.38723,38.89891],[1.38634,38.89924],[1.38624,38.89957],[1.40507,38.90335]]]}},{"type":"Feature","properties":{"id":"0704802002"},"geometry":{"type":"Polygon","coordinates":[[[1.38461,38.92947],[1.39202,38.92271],[1.38983,38.91964],[1.3881,38.919],[1.38755,38.91861],[1.38742,38.91863],[1.38727,38.91898],[1.38646,38.91894],[1.38572,38.91859],[1.38525,38.9182],[1.3844,38.91792],[1.38452,38.91772],[1.38431,38.91703],[1.38459,38.91651],[1.38438,38.91572],[1.38395,38.91524],[1.38387,38.91265],[1.3835,38.91106],[1.38362,38.91064],[1.38453,38.90935],[1.38479,38.9085],[1.38525,38.90774],[1.38518,38.90751],[1.38458,38.90675],[1.38487,38.90648],[1.38543,38.90475],[1.38499,38.90464],[1.38487,38.9045],[1.38487,38.90377],[1.38497,38.90341],[1.38564,38.90236],[1.38499,38.90233],[1.38441,38.90215],[1.38271,38.90138],[1.38431,38.89928],[1.38422,38.89901],[1.38386,38.899],[1.38365,38.8979],[1.38368,38.89603],[1.38407,38.89449],[1.38451,38.89375],[1.38458,38.89322],[1.3839,38.89252],[1.38386,38.89183],[1.38407,38.89126],[1.38243,38.89058],[1.38099,38.89015],[1.37474,38.88886],[1.37361,38.88873],[1.37186,38.88832],[1.37462,38.88531],[1.37597,38.88304],[1.37311,38.88278],[1.37083,38.88286],[1.36919,38.88277],[1.36704,38.88238],[1.36707,38.88209],[1.36495,38.88168],[1.36333,38.88199],[1.36085,38.88197],[1.35991,38.88207],[1.35753,38.88546],[1.35709,38.88537],[1.35676,38.88518],[1.35658,38.88443],[1.35362,38.88392],[1.35335,38.88397],[1.35203,38.88316],[1.35074,38.88201],[1.34922,38.88172],[1.34838,38.88127],[1.34779,38.8812],[1.34709,38.88075],[1.34552,38.88252],[1.34471,38.88291],[1.34347,38.88334],[1.34101,38.88376],[1.33975,38.88374],[1.33828,38.88393],[1.33739,38.88395],[1.33594,38.88483],[1.33462,38.88598],[1.33332,38.88794],[1.33308,38.88965],[1.33318,38.89013],[1.33374,38.89108],[1.33429,38.89144],[1.33504,38.89152],[1.33537,38.89165],[1.33559,38.89183],[1.33554,38.89213],[1.33505,38.89249],[1.33372,38.89279],[1.33351,38.89291],[1.33201,38.89503],[1.33142,38.89621],[1.33174,38.89668],[1.33183,38.89708],[1.33172,38.8978],[1.32828,38.89992],[1.32762,38.9002],[1.32138,38.90973],[1.32376,38.91213],[1.3286,38.91797],[1.32979,38.91829],[1.32948,38.91902],[1.32975,38.91903],[1.32986,38.91987],[1.33237,38.91861],[1.33607,38.91196],[1.3372,38.9117],[1.33856,38.91186],[1.33905,38.91175],[1.34034,38.91121],[1.34173,38.91116],[1.34206,38.91119],[1.34236,38.91137],[1.34278,38.91186],[1.3431,38.91205],[1.34516,38.91208],[1.34637,38.91186],[1.34816,38.91191],[1.34836,38.91183],[1.34876,38.91137],[1.34964,38.91124],[1.34961,38.91357],[1.34913,38.91422],[1.34898,38.91477],[1.349,38.91525],[1.34859,38.91576],[1.34835,38.91646],[1.34804,38.91675],[1.34789,38.91773],[1.34758,38.91828],[1.34726,38.91949],[1.34749,38.91974],[1.3474,38.92035],[1.34667,38.92108],[1.3469,38.92226],[1.34681,38.92224],[1.34611,38.92351],[1.34604,38.92349],[1.34592,38.92374],[1.34586,38.9245],[1.34542,38.92513],[1.3448,38.92534],[1.34411,38.92536],[1.3434,38.92524],[1.3433,38.92551],[1.34393,38.92646],[1.34422,38.92759],[1.34506,38.92755],[1.34526,38.92836],[1.34515,38.92869],[1.34529,38.92877],[1.34525,38.92961],[1.34462,38.93042],[1.34363,38.93113],[1.34296,38.93189],[1.34293,38.93205],[1.3432,38.93262],[1.3444,38.9329],[1.34763,38.93337],[1.35218,38.93429],[1.35327,38.93464],[1.35565,38.93594],[1.35628,38.93263],[1.3566,38.93003],[1.3587,38.93028],[1.35986,38.93051],[1.36214,38.9316],[1.36272,38.93171],[1.36318,38.93169],[1.36358,38.93152],[1.3641,38.93153],[1.36473,38.93172],[1.36564,38.93243],[1.36636,38.93273],[1.36772,38.93375],[1.36866,38.93411],[1.37205,38.93509],[1.37339,38.93532],[1.37429,38.93521],[1.37628,38.93467],[1.37821,38.93436],[1.37924,38.93407],[1.38077,38.93251],[1.38461,38.92947]]]}},{"type":"Feature","properties":{"id":"0704802003"},"geometry":{"type":"Polygon","coordinates":[[[1.40519,38.9034],[1.38427,38.89915],[1.38431,38.89928],[1.38396,38.89984],[1.38307,38.90082],[1.38271,38.90138],[1.38441,38.90215],[1.38499,38.90233],[1.38564,38.90236],[1.38497,38.90341],[1.38487,38.90377],[1.38487,38.9045],[1.38499,38.90464],[1.38543,38.90475],[1.38487,38.90648],[1.38458,38.90675],[1.38518,38.90751],[1.38525,38.90774],[1.38479,38.9085],[1.38453,38.90935],[1.38362,38.91064],[1.3835,38.91106],[1.38387,38.91265],[1.38395,38.91524],[1.38438,38.91572],[1.38459,38.91651],[1.38431,38.91703],[1.38452,38.91772],[1.3844,38.91792],[1.38525,38.9182],[1.38572,38.91859],[1.38646,38.91894],[1.38727,38.91898],[1.38742,38.91863],[1.38755,38.91861],[1.3881,38.919],[1.38983,38.91964],[1.39202,38.92271],[1.39307,38.92177],[1.38926,38.91808],[1.39003,38.91775],[1.39021,38.91754],[1.39102,38.91733],[1.39179,38.91662],[1.39209,38.91645],[1.3937,38.91632],[1.39423,38.91617],[1.39495,38.9158],[1.39556,38.91573],[1.39595,38.91554],[1.39635,38.91521],[1.39686,38.91434],[1.3972,38.914],[1.39742,38.91388],[1.39777,38.91389],[1.39825,38.91368],[1.39857,38.91318],[1.39858,38.91297],[1.40348,38.91103],[1.4057,38.90945],[1.40766,38.90777],[1.40753,38.9076],[1.40761,38.90742],[1.40723,38.90732],[1.40692,38.90706],[1.40637,38.9062],[1.40534,38.9057],[1.40528,38.90449],[1.40499,38.90389],[1.40519,38.9034]]]}},{"type":"Feature","properties":{"id":"0704802004"},"geometry":{"type":"Polygon","coordinates":[[[1.4076,38.89704],[1.40623,38.89655],[1.40432,38.89507],[1.40821,38.89204],[1.41015,38.89093],[1.40976,38.89037],[1.40841,38.88783],[1.40806,38.88693],[1.40697,38.885],[1.40497,38.88105],[1.40409,38.87892],[1.40368,38.87763],[1.40383,38.87751],[1.40358,38.8767],[1.4036,38.87542],[1.40243,38.87568],[1.40124,38.87574],[1.4006,38.87567],[1.4001,38.87546],[1.39914,38.87482],[1.39687,38.87411],[1.39497,38.8762],[1.39486,38.87611],[1.39259,38.87913],[1.39534,38.88686],[1.39744,38.88701],[1.39943,38.88837],[1.39941,38.88845],[1.40011,38.88877],[1.40123,38.8904],[1.40078,38.89453],[1.40052,38.89475],[1.40076,38.89551],[1.40164,38.89653],[1.40201,38.8968],[1.40464,38.89989],[1.40654,38.89852],[1.4071,38.89788],[1.4076,38.89704]]]}},{"type":"Feature","properties":{"id":"0704802005"},"geometry":{"type":"MultiPolygon","coordinates":[[[[1.33594,38.88483],[1.33739,38.88395],[1.33828,38.88393],[1.33975,38.88374],[1.34101,38.88376],[1.34347,38.88334],[1.34471,38.88291],[1.34552,38.88252],[1.34709,38.88075],[1.34779,38.8812],[1.34838,38.88127],[1.34922,38.88172],[1.35074,38.88201],[1.35203,38.88316],[1.35335,38.88397],[1.35362,38.88392],[1.35658,38.88443],[1.35676,38.88518],[1.35709,38.88537],[1.35753,38.88546],[1.35991,38.88207],[1.36085,38.88197],[1.36333,38.88199],[1.36495,38.88168],[1.36707,38.88209],[1.36704,38.88238],[1.36919,38.88277],[1.37083,38.88286],[1.37311,38.88278],[1.37597,38.88304],[1.37662,38.88213],[1.37705,38.88231],[1.37982,38.87825],[1.38374,38.87999],[1.38558,38.88145],[1.38608,38.88074],[1.38793,38.88148],[1.38808,38.88086],[1.39064,38.88191],[1.39264,38.87928],[1.39259,38.87913],[1.39486,38.87611],[1.39497,38.8762],[1.39687,38.87411],[1.39914,38.87482],[1.4001,38.87546],[1.4006,38.87567],[1.40124,38.87574],[1.40243,38.87568],[1.4036,38.87542],[1.4034,38.87437],[1.40475,38.87331],[1.40523,38.87306],[1.40475,38.87265],[1.40429,38.87248],[1.40431,38.87236],[1.40473,38.87241],[1.4048,38.87235],[1.40428,38.87214],[1.40413,38.87188],[1.40421,38.87104],[1.40438,38.87087],[1.40479,38.86937],[1.40511,38.86922],[1.40545,38.86925],[1.40621,38.8696],[1.40749,38.86957],[1.40727,38.86911],[1.40729,38.869],[1.40752,38.869],[1.40755,38.86884],[1.40732,38.86859],[1.40765,38.86809],[1.40734,38.86803],[1.40675,38.86727],[1.40648,38.86717],[1.40633,38.8669],[1.40649,38.86677],[1.40583,38.86655],[1.40588,38.86645],[1.40609,38.8664],[1.40627,38.86589],[1.40648,38.86566],[1.40625,38.86529],[1.40678,38.86502],[1.40663,38.86481],[1.40644,38.86487],[1.40628,38.86472],[1.40615,38.86432],[1.406,38.86425],[1.40609,38.86408],[1.4055,38.86383],[1.40561,38.86353],[1.4055,38.8634],[1.40582,38.86326],[1.40535,38.86292],[1.40563,38.86239],[1.40587,38.86219],[1.40522,38.86122],[1.40585,38.86105],[1.4061,38.86086],[1.40613,38.86081],[1.4056,38.86077],[1.40601,38.86065],[1.40606,38.86053],[1.4057,38.86051],[1.40566,38.86044],[1.40665,38.85988],[1.40674,38.85967],[1.40697,38.85952],[1.40695,38.85931],[1.40679,38.85919],[1.40692,38.85903],[1.4072,38.85891],[1.40749,38.85896],[1.40751,38.85884],[1.40723,38.8587],[1.4071,38.85849],[1.40683,38.85861],[1.40682,38.85835],[1.40636,38.85788],[1.40688,38.85752],[1.4069,38.85738],[1.40506,38.85728],[1.40437,38.85737],[1.40486,38.85655],[1.40479,38.85645],[1.40442,38.85637],[1.40487,38.85619],[1.40457,38.85608],[1.40489,38.85541],[1.40462,38.85507],[1.40511,38.85498],[1.40516,38.85477],[1.40494,38.85468],[1.40475,38.85427],[1.40478,38.85407],[1.40454,38.85375],[1.40421,38.85363],[1.40386,38.85365],[1.40437,38.85326],[1.40461,38.85268],[1.40448,38.85248],[1.40439,38.85248],[1.4039,38.85171],[1.40369,38.85075],[1.40355,38.85063],[1.40341,38.85071],[1.40284,38.85035],[1.40289,38.85019],[1.40327,38.85014],[1.40325,38.85004],[1.40282,38.84979],[1.40232,38.84965],[1.40215,38.84944],[1.40219,38.84854],[1.40238,38.84776],[1.40237,38.84659],[1.40258,38.84583],[1.403,38.84045],[1.4033,38.8397],[1.40357,38.83945],[1.40399,38.83937],[1.40402,38.83922],[1.40381,38.83901],[1.40408,38.8389],[1.40409,38.83865],[1.40422,38.83849],[1.40396,38.83837],[1.40404,38.83775],[1.40463,38.83727],[1.40464,38.83691],[1.40483,38.8368],[1.40491,38.83659],[1.40482,38.8364],[1.40519,38.83636],[1.40517,38.83573],[1.40527,38.83545],[1.40548,38.83523],[1.40568,38.83462],[1.4058,38.83457],[1.40572,38.83438],[1.4059,38.83412],[1.40586,38.83402],[1.4059,38.83396],[1.40605,38.83403],[1.40605,38.8342],[1.40621,38.8341],[1.40612,38.83391],[1.40626,38.83375],[1.40607,38.83355],[1.4064,38.83269],[1.40627,38.83231],[1.40644,38.83206],[1.40623,38.83165],[1.40572,38.83154],[1.4049,38.83196],[1.40459,38.832],[1.40399,38.83246],[1.40382,38.83246],[1.404,38.83275],[1.40372,38.83268],[1.40304,38.83303],[1.40305,38.83328],[1.40285,38.83363],[1.40235,38.83373],[1.40251,38.83394],[1.40175,38.83424],[1.40161,38.83442],[1.40165,38.83454],[1.40145,38.83454],[1.40123,38.83471],[1.40127,38.835],[1.40073,38.83531],[1.4006,38.83555],[1.40046,38.83556],[1.40034,38.83541],[1.40024,38.83562],[1.40005,38.8357],[1.40001,38.83586],[1.39984,38.83589],[1.39988,38.83604],[1.39964,38.83627],[1.3994,38.83621],[1.39903,38.83644],[1.39906,38.83661],[1.39883,38.83682],[1.3986,38.83677],[1.39858,38.83696],[1.39833,38.83696],[1.39839,38.83721],[1.39776,38.83747],[1.39745,38.83746],[1.39736,38.83782],[1.39661,38.83794],[1.39642,38.8382],[1.39617,38.83824],[1.3963,38.83842],[1.3959,38.83836],[1.39584,38.83848],[1.39539,38.83859],[1.3953,38.83869],[1.39538,38.83882],[1.39505,38.83888],[1.39501,38.83924],[1.39493,38.83924],[1.39487,38.83906],[1.39464,38.83906],[1.39422,38.83963],[1.39317,38.84012],[1.39326,38.84041],[1.39291,38.84069],[1.39211,38.84082],[1.39139,38.84108],[1.39102,38.84136],[1.38963,38.84165],[1.38921,38.84185],[1.38718,38.84221],[1.38444,38.84239],[1.38418,38.84223],[1.38378,38.84141],[1.38302,38.84052],[1.38281,38.8404],[1.38232,38.84066],[1.38221,38.84018],[1.38207,38.84013],[1.38188,38.8402],[1.38168,38.84003],[1.38173,38.83975],[1.38195,38.83967],[1.38172,38.83939],[1.38196,38.83904],[1.38169,38.83904],[1.38195,38.83875],[1.3819,38.83835],[1.38173,38.8377],[1.38149,38.83761],[1.38148,38.83754],[1.38167,38.83751],[1.38158,38.83718],[1.38125,38.83694],[1.3812,38.8367],[1.38129,38.8367],[1.38128,38.83663],[1.38076,38.83615],[1.38093,38.83494],[1.38044,38.83436],[1.37983,38.83402],[1.37878,38.83403],[1.3784,38.83421],[1.37841,38.83458],[1.37823,38.83471],[1.37804,38.83475],[1.37805,38.83441],[1.37763,38.83448],[1.3774,38.8346],[1.37742,38.83481],[1.3773,38.83498],[1.37716,38.83508],[1.37692,38.83507],[1.37623,38.83369],[1.37601,38.83378],[1.37596,38.83372],[1.37594,38.83302],[1.37577,38.83279],[1.37541,38.83269],[1.37539,38.83259],[1.3755,38.83255],[1.37519,38.83219],[1.37453,38.83184],[1.37434,38.83164],[1.37373,38.83179],[1.37375,38.8315],[1.37323,38.83151],[1.37318,38.83141],[1.37267,38.83134],[1.37239,38.83111],[1.37204,38.83107],[1.37183,38.83133],[1.37182,38.83153],[1.37155,38.83165],[1.37151,38.83178],[1.37198,38.83231],[1.3723,38.83231],[1.37229,38.83291],[1.372,38.83336],[1.37151,38.83376],[1.36992,38.8345],[1.36918,38.83519],[1.36893,38.83522],[1.36879,38.83505],[1.36863,38.83508],[1.36869,38.83535],[1.36905,38.83575],[1.36943,38.83651],[1.36959,38.83742],[1.36978,38.83773],[1.3697,38.83862],[1.36988,38.83865],[1.36992,38.83912],[1.37037,38.84012],[1.37083,38.8415],[1.37083,38.843],[1.37068,38.84331],[1.37074,38.84367],[1.37046,38.84471],[1.37018,38.84525],[1.36835,38.84737],[1.36789,38.84817],[1.36733,38.84958],[1.36733,38.85013],[1.36704,38.85133],[1.36645,38.85284],[1.36492,38.85463],[1.36383,38.85571],[1.363,38.85681],[1.362,38.85777],[1.36136,38.85918],[1.36131,38.85968],[1.36141,38.86032],[1.36134,38.86049],[1.36083,38.86095],[1.35903,38.86201],[1.35771,38.86339],[1.35673,38.86403],[1.35585,38.86475],[1.35313,38.8665],[1.35062,38.86779],[1.35026,38.8681],[1.3476,38.86922],[1.34608,38.87014],[1.34436,38.87074],[1.34282,38.87106],[1.34271,38.8708],[1.34241,38.87049],[1.34182,38.87013],[1.34125,38.87006],[1.34071,38.87024],[1.34041,38.86982],[1.34053,38.86968],[1.33978,38.86962],[1.33857,38.86904],[1.33801,38.86896],[1.33749,38.86905],[1.33706,38.86881],[1.33666,38.86876],[1.33634,38.86845],[1.33601,38.86832],[1.33533,38.86875],[1.33513,38.86871],[1.33486,38.86848],[1.33476,38.86822],[1.33512,38.86774],[1.33526,38.8673],[1.3353,38.86661],[1.33522,38.86641],[1.33508,38.86634],[1.33404,38.86686],[1.33353,38.86697],[1.33296,38.86684],[1.3327,38.86687],[1.3326,38.86698],[1.33287,38.86754],[1.3327,38.86767],[1.33247,38.86769],[1.33221,38.86811],[1.33176,38.86813],[1.3317,38.868],[1.33146,38.86811],[1.33118,38.86792],[1.33096,38.86801],[1.33058,38.868],[1.3296,38.86782],[1.3289,38.86725],[1.32825,38.86561],[1.32798,38.86439],[1.32788,38.86423],[1.32716,38.86386],[1.32697,38.86325],[1.3264,38.86328],[1.32598,38.86318],[1.32578,38.86325],[1.32567,38.86315],[1.32551,38.86325],[1.32479,38.86327],[1.32461,38.86313],[1.3246,38.86298],[1.32431,38.86272],[1.32421,38.86244],[1.32369,38.8619],[1.32379,38.86185],[1.32376,38.86173],[1.32305,38.86101],[1.32277,38.86044],[1.32251,38.86029],[1.32251,38.86006],[1.32235,38.85991],[1.32222,38.85991],[1.32221,38.85979],[1.32208,38.85978],[1.32211,38.85895],[1.32197,38.85881],[1.32188,38.85886],[1.32169,38.85875],[1.32184,38.85838],[1.32166,38.85806],[1.3214,38.858],[1.32152,38.85791],[1.3215,38.85765],[1.32122,38.85727],[1.32112,38.85689],[1.32101,38.85687],[1.32111,38.85675],[1.321,38.85617],[1.32054,38.85601],[1.32057,38.85581],[1.32024,38.85581],[1.32021,38.85593],[1.32039,38.85592],[1.32039,38.85612],[1.32009,38.8565],[1.32013,38.85671],[1.32029,38.85675],[1.32044,38.8571],[1.32049,38.85737],[1.32039,38.85744],[1.32041,38.85768],[1.32061,38.85786],[1.32049,38.85801],[1.32031,38.85781],[1.3202,38.85783],[1.32023,38.85812],[1.32042,38.85828],[1.32062,38.8582],[1.32078,38.85849],[1.32098,38.85861],[1.32126,38.85855],[1.32146,38.85885],[1.3212,38.85902],[1.32114,38.85923],[1.32131,38.85935],[1.32132,38.8598],[1.32143,38.85986],[1.32131,38.86009],[1.32135,38.86079],[1.32151,38.86097],[1.32143,38.86123],[1.32107,38.86113],[1.3217,38.86182],[1.32154,38.86186],[1.32144,38.8622],[1.32143,38.86251],[1.32158,38.86275],[1.32154,38.8632],[1.32141,38.86375],[1.32112,38.86381],[1.3212,38.86418],[1.32107,38.86458],[1.32046,38.8653],[1.31848,38.86661],[1.31681,38.86742],[1.31864,38.871],[1.31877,38.87145],[1.31875,38.87202],[1.31897,38.87244],[1.31879,38.8728],[1.31736,38.8742],[1.317,38.87489],[1.31988,38.87711],[1.32237,38.88151],[1.32923,38.88742],[1.33308,38.88965],[1.33332,38.88794],[1.33462,38.88598],[1.33594,38.88483]]],[[[1.40983,38.81866],[1.4102,38.81836],[1.41036,38.81835],[1.41032,38.81825],[1.41085,38.8182],[1.4108,38.81775],[1.41088,38.81768],[1.41096,38.81781],[1.41105,38.81769],[1.41101,38.81734],[1.4114,38.81729],[1.41142,38.817],[1.41167,38.81692],[1.41144,38.81662],[1.41168,38.8162],[1.41161,38.81609],[1.4117,38.8159],[1.41158,38.81581],[1.4117,38.81578],[1.4117,38.81562],[1.41193,38.81536],[1.41202,38.81476],[1.41227,38.81462],[1.41231,38.81449],[1.41213,38.81416],[1.41181,38.81404],[1.41165,38.8141],[1.41142,38.81371],[1.4112,38.81397],[1.41102,38.81402],[1.41095,38.81436],[1.41054,38.81486],[1.41022,38.81514],[1.40999,38.8152],[1.40984,38.8154],[1.40947,38.81624],[1.40959,38.81647],[1.40946,38.81693],[1.40921,38.81706],[1.4093,38.81722],[1.40917,38.81727],[1.40906,38.81755],[1.40927,38.81783],[1.40921,38.81808],[1.40933,38.8184],[1.40953,38.81856],[1.40977,38.81853],[1.40983,38.81866]]],[[[1.40448,38.81643],[1.40453,38.816],[1.40404,38.81556],[1.40246,38.8157],[1.40238,38.81577],[1.40198,38.81565],[1.40184,38.81575],[1.40191,38.81591],[1.40236,38.81594],[1.40234,38.81607],[1.40264,38.8162],[1.40257,38.81625],[1.40265,38.81631],[1.4033,38.81638],[1.4034,38.81635],[1.40335,38.81628],[1.40359,38.81633],[1.40362,38.81641],[1.40379,38.81638],[1.40393,38.81648],[1.40398,38.81641],[1.40406,38.81666],[1.4044,38.8169],[1.40459,38.81673],[1.40448,38.81643]]],[[[1.40373,38.81455],[1.40407,38.81446],[1.40405,38.81438],[1.40437,38.81419],[1.40505,38.81399],[1.40524,38.81383],[1.40492,38.81365],[1.40454,38.81379],[1.40422,38.8138],[1.40409,38.8139],[1.40393,38.81386],[1.40362,38.81402],[1.40341,38.81393],[1.40289,38.81397],[1.40272,38.81405],[1.4029,38.81432],[1.40297,38.81416],[1.40317,38.81415],[1.40373,38.81455]]],[[[1.40767,38.82669],[1.40817,38.82635],[1.40776,38.8261],[1.4078,38.82644],[1.40764,38.82654],[1.40735,38.82657],[1.40725,38.82671],[1.40704,38.82677],[1.40735,38.82715],[1.40778,38.82693],[1.40767,38.82669]]],[[[1.40653,38.87154],[1.4059,38.87148],[1.4056,38.87156],[1.40638,38.87211],[1.40663,38.87187],[1.40653,38.87154]]],[[[1.40549,38.83084],[1.40595,38.83042],[1.40537,38.83034],[1.40547,38.83019],[1.4053,38.83015],[1.40515,38.83035],[1.40516,38.83056],[1.4054,38.83055],[1.4052,38.83066],[1.40525,38.8309],[1.40549,38.83084]]],[[[1.37203,38.83101],[1.37217,38.83087],[1.37176,38.83101],[1.37169,38.83093],[1.37165,38.83038],[1.37139,38.83055],[1.37117,38.83042],[1.37106,38.83059],[1.37144,38.8309],[1.37151,38.8311],[1.37203,38.83101]]],[[[1.40534,38.83157],[1.40501,38.83155],[1.40492,38.83163],[1.40523,38.83169],[1.40534,38.83157]]],[[[1.37091,38.82862],[1.37104,38.82888],[1.37128,38.8291],[1.37122,38.82892],[1.37091,38.82862]]],[[[1.37086,38.82966],[1.37069,38.82958],[1.37064,38.82988],[1.37086,38.82966]]]]}},{"type":"Feature","properties":{"id":"0704802006"},"geometry":{"type":"Polygon","coordinates":[[[1.39628,38.88949],[1.39264,38.87928],[1.39064,38.88191],[1.38808,38.88086],[1.38793,38.88148],[1.38608,38.88074],[1.38558,38.88145],[1.38374,38.87999],[1.37982,38.87825],[1.37705,38.88231],[1.37662,38.88213],[1.37462,38.88531],[1.37186,38.88832],[1.37361,38.88873],[1.37474,38.88886],[1.38099,38.89015],[1.38243,38.89058],[1.38407,38.89126],[1.38386,38.89183],[1.3839,38.89252],[1.38458,38.89322],[1.38451,38.89375],[1.38407,38.89449],[1.38368,38.89603],[1.38365,38.8979],[1.38386,38.899],[1.38422,38.89901],[1.38427,38.89915],[1.38624,38.89957],[1.38634,38.89924],[1.38723,38.89891],[1.38775,38.89783],[1.38799,38.89792],[1.38902,38.89601],[1.39005,38.89342],[1.39113,38.89268],[1.39194,38.89224],[1.39441,38.8912],[1.39563,38.89093],[1.39602,38.89061],[1.39628,38.88949]]]}}]}