{"type":"FeatureCollection","features":[{"type":"Feature","properties":{"id":"0705701001"},"geometry":{"type":"Polygon","coordinates":[[[3.18814,39.35195],[3.18795,39.35191],[3.18798,39.35141],[3.18772,39.35106],[3.18706,39.35082],[3.18638,39.35073],[3.18581,39.35044],[3.18542,39.35041],[3.1857,39.3498],[3.185,39.34925],[3.18464,39.3491],[3.18445,39.34883],[3.1843,39.34819],[3.18371,39.34782],[3.18332,39.34745],[3.18293,39.34743],[3.1813,39.3477],[3.18015,39.34807],[3.17962,39.34809],[3.17829,39.34882],[3.17735,39.34994],[3.1766,39.35138],[3.17595,39.35204],[3.17584,39.35306],[3.17489,39.35405],[3.17436,39.35437],[3.17287,39.35492],[3.17192,39.35597],[3.17137,39.35684],[3.17007,39.35803],[3.16981,39.35802],[3.16766,39.3586],[3.16681,39.35849],[3.16544,39.35859],[3.16469,39.35846],[3.16347,39.35796],[3.16274,39.35811],[3.16167,39.35816],[3.15699,39.35751],[3.15553,39.35764],[3.15518,39.3576],[3.15443,39.3573],[3.15375,39.35715],[3.15318,39.35714],[3.15213,39.35675],[3.15135,39.35656],[3.15087,39.35686],[3.15058,39.35682],[3.1472,39.35567],[3.14528,39.35528],[3.14392,39.35547],[3.1434,39.35567],[3.14008,39.35756],[3.13721,39.35838],[3.13537,39.3579],[3.13244,39.3573],[3.13141,39.35665],[3.13147,39.35645],[3.13123,39.35594],[3.13126,39.35565],[3.13021,39.35493],[3.13022,39.35475],[3.12954,39.35451],[3.1295,39.3546],[3.129,39.35444],[3.12907,39.35436],[3.12896,39.35412],[3.12874,39.35388],[3.12837,39.35418],[3.12819,39.3541],[3.12806,39.35463],[3.1262,39.35616],[3.12545,39.35783],[3.12352,39.35997],[3.11873,39.36323],[3.10543,39.37468],[3.10463,39.37518],[3.10117,39.37702],[3.09945,39.37939],[3.09783,39.38122],[3.09714,39.38158],[3.0959,39.382],[3.09524,39.3821],[3.091,39.38226],[3.09039,39.38247],[3.08053,39.3877],[3.0864,39.39218],[3.09016,39.39525],[3.09601,39.39958],[3.10395,39.39602],[3.10921,39.39516],[3.11463,39.39455],[3.11636,39.3947],[3.1211,39.39479],[3.13763,39.39546],[3.1422,39.39633],[3.14282,39.39632],[3.14599,39.39714],[3.14749,39.3974],[3.14756,39.39655],[3.14745,39.39621],[3.14698,39.39533],[3.14643,39.39517],[3.14612,39.3947],[3.14632,39.39424],[3.14632,39.39386],[3.1458,39.39259],[3.1454,39.39123],[3.14539,39.39075],[3.14644,39.38998],[3.14764,39.39044],[3.14866,39.39095],[3.15079,39.39154],[3.15114,39.39147],[3.15168,39.39114],[3.15185,39.39062],[3.15206,39.39053],[3.15327,39.39033],[3.15527,39.38979],[3.15399,39.38918],[3.15355,39.3884],[3.15331,39.38722],[3.15372,39.38634],[3.15404,39.3851],[3.15382,39.38461],[3.15309,39.38406],[3.15223,39.38318],[3.15191,39.38257],[3.15259,39.38039],[3.15276,39.37941],[3.15271,39.37881],[3.15362,39.37742],[3.15464,39.3782],[3.1556,39.37646],[3.15547,39.37556],[3.15595,39.37483],[3.15688,39.37383],[3.15965,39.37459],[3.16137,39.3716],[3.16275,39.37069],[3.16322,39.37013],[3.16239,39.36979],[3.16277,39.36912],[3.16239,39.36871],[3.1622,39.36739],[3.16222,39.3668],[3.16238,39.36649],[3.1652,39.3652],[3.16608,39.3645],[3.16742,39.36417],[3.16807,39.36385],[3.16878,39.3628],[3.16952,39.36244],[3.1698,39.36219],[3.16966,39.36165],[3.16971,39.3614],[3.17001,39.36128],[3.17028,39.36125],[3.17113,39.3616],[3.17207,39.36175],[3.17247,39.36168],[3.17378,39.3611],[3.17471,39.36032],[3.17494,39.36],[3.17654,39.35989],[3.17713,39.35945],[3.17761,39.35929],[3.17786,39.35938],[3.17797,39.35953],[3.1783,39.3604],[3.17864,39.36072],[3.17958,39.3606],[3.18015,39.36077],[3.18037,39.36074],[3.1811,39.3595],[3.18176,39.35867],[3.18245,39.35782],[3.18355,39.35677],[3.18488,39.356],[3.18587,39.35593],[3.18678,39.35598],[3.18686,39.35579],[3.1867,39.35537],[3.18814,39.35195]]]}},{"type":"Feature","properties":{"id":"0705701002"},"geometry":{"type":"Polygon","coordinates":[[[3.1857,39.3498],[3.18639,39.34952],[3.18667,39.3498],[3.18691,39.34983],[3.18729,39.34959],[3.18836,39.34859],[3.1894,39.34822],[3.19007,39.34828],[3.19004,39.34789],[3.18924,39.34737],[3.19038,39.34755],[3.19018,39.34737],[3.19049,39.34712],[3.19039,39.34692],[3.1908,39.34678],[3.19112,39.34683],[3.19145,39.3465],[3.19167,39.34639],[3.19187,39.3464],[3.19187,39.34625],[3.19221,39.34624],[3.19226,39.34617],[3.19192,39.3459],[3.19205,39.34558],[3.19187,39.34493],[3.19103,39.3446],[3.19044,39.34452],[3.19027,39.3444],[3.19026,39.34419],[3.18971,39.34392],[3.18903,39.34375],[3.18928,39.34356],[3.18916,39.34346],[3.18928,39.34317],[3.18911,39.34279],[3.1891,39.34184],[3.18897,39.34169],[3.18872,39.34166],[3.18867,39.34144],[3.18803,39.34075],[3.18817,39.34001],[3.18799,39.34005],[3.18796,39.33996],[3.18823,39.3396],[3.18796,39.33956],[3.18806,39.33928],[3.18782,39.33902],[3.18755,39.33902],[3.18738,39.33887],[3.18724,39.33894],[3.18715,39.33869],[3.18698,39.33861],[3.18746,39.33877],[3.18818,39.33871],[3.18854,39.33878],[3.18888,39.33875],[3.18901,39.33861],[3.18922,39.33871],[3.18942,39.33855],[3.18924,39.33849],[3.18937,39.33834],[3.18906,39.33813],[3.18913,39.33797],[3.18896,39.33791],[3.189,39.33779],[3.18873,39.33794],[3.18856,39.33779],[3.18859,39.33764],[3.18841,39.33765],[3.18837,39.33754],[3.18854,39.33732],[3.18824,39.33736],[3.18796,39.33729],[3.188,39.33712],[3.18785,39.33709],[3.18803,39.33698],[3.18795,39.33692],[3.18755,39.33697],[3.18731,39.33688],[3.18733,39.33659],[3.18698,39.33639],[3.1873,39.33576],[3.18709,39.33547],[3.18695,39.33542],[3.18697,39.33526],[3.18682,39.33525],[3.18659,39.33503],[3.18612,39.33506],[3.1857,39.33493],[3.18365,39.33548],[3.1834,39.33539],[3.18288,39.33546],[3.18223,39.33542],[3.18189,39.33529],[3.18135,39.3353],[3.18068,39.33514],[3.17929,39.33435],[3.17894,39.33374],[3.17903,39.33317],[3.17889,39.33313],[3.17883,39.33299],[3.17905,39.33261],[3.17931,39.33258],[3.17946,39.33245],[3.1795,39.33205],[3.17967,39.33211],[3.17981,39.33202],[3.17986,39.33172],[3.18002,39.33172],[3.18002,39.33145],[3.1802,39.33141],[3.18022,39.33105],[3.18011,39.33098],[3.17991,39.33111],[3.17975,39.3309],[3.17875,39.33043],[3.17852,39.33039],[3.17818,39.33056],[3.17803,39.33041],[3.17827,39.33005],[3.1777,39.32998],[3.17754,39.32957],[3.17712,39.32928],[3.17652,39.32945],[3.17598,39.32932],[3.17502,39.32972],[3.17465,39.32958],[3.17433,39.32974],[3.1744,39.32995],[3.17406,39.33024],[3.17395,39.33063],[3.17335,39.33098],[3.17275,39.33127],[3.17226,39.33129],[3.17206,39.33143],[3.17191,39.33123],[3.17159,39.33116],[3.17121,39.33171],[3.17096,39.33182],[3.17026,39.3326],[3.16999,39.33269],[3.1698,39.33298],[3.16988,39.33328],[3.16933,39.33347],[3.16963,39.33261],[3.17004,39.33206],[3.17001,39.33194],[3.16952,39.33184],[3.1694,39.33174],[3.16739,39.33203],[3.16738,39.33187],[3.16802,39.33174],[3.16874,39.33141],[3.1692,39.33137],[3.16983,39.33157],[3.17011,39.33148],[3.17027,39.33173],[3.17017,39.33146],[3.17055,39.33115],[3.1708,39.33072],[3.17104,39.3307],[3.17138,39.3304],[3.17158,39.33049],[3.17189,39.33043],[3.17228,39.33051],[3.17255,39.3304],[3.1728,39.33019],[3.17278,39.32993],[3.17293,39.3298],[3.17276,39.3296],[3.17275,39.32908],[3.1729,39.32903],[3.17316,39.32867],[3.17359,39.32845],[3.1737,39.32811],[3.17384,39.32806],[3.17384,39.32786],[3.17351,39.32792],[3.17248,39.32719],[3.17181,39.32684],[3.17127,39.32681],[3.17094,39.32645],[3.17084,39.32657],[3.17049,39.3265],[3.16943,39.32655],[3.16919,39.32639],[3.16801,39.32638],[3.16668,39.32603],[3.16601,39.32591],[3.16535,39.32591],[3.16524,39.32584],[3.16481,39.32611],[3.16437,39.32618],[3.16387,39.32605],[3.16327,39.32615],[3.16237,39.32613],[3.16207,39.32597],[3.16162,39.3259],[3.16143,39.32602],[3.16104,39.32603],[3.16039,39.32581],[3.16033,39.32602],[3.15992,39.32599],[3.15985,39.3263],[3.15942,39.32661],[3.15875,39.32679],[3.15634,39.32655],[3.15596,39.32707],[3.15566,39.32712],[3.15474,39.32643],[3.15388,39.32687],[3.15383,39.32702],[3.15408,39.32713],[3.15318,39.32707],[3.1527,39.32762],[3.15215,39.32766],[3.15181,39.32786],[3.15148,39.32774],[3.1511,39.32742],[3.15105,39.32705],[3.15079,39.32704],[3.15074,39.32693],[3.15038,39.32679],[3.15005,39.32691],[3.14884,39.32705],[3.14854,39.32774],[3.14831,39.3279],[3.14802,39.32791],[3.14792,39.32808],[3.14773,39.32868],[3.14782,39.32906],[3.14754,39.32904],[3.14729,39.32918],[3.1473,39.32999],[3.1471,39.33036],[3.14627,39.33018],[3.145,39.3316],[3.14344,39.33286],[3.14325,39.33321],[3.14325,39.33375],[3.14397,39.33463],[3.14394,39.33483],[3.14332,39.33605],[3.14281,39.33614],[3.14243,39.33652],[3.14229,39.33856],[3.14169,39.34003],[3.14165,39.34047],[3.14244,39.34201],[3.14227,39.34264],[3.14303,39.34359],[3.14347,39.34396],[3.14381,39.34451],[3.13381,39.35067],[3.13158,39.35239],[3.13079,39.35188],[3.12995,39.35258],[3.12872,39.35391],[3.12896,39.35412],[3.12907,39.35436],[3.129,39.35444],[3.1295,39.3546],[3.12954,39.35451],[3.13022,39.35475],[3.13021,39.35493],[3.13126,39.35565],[3.13123,39.35594],[3.13147,39.35645],[3.13141,39.35665],[3.13244,39.3573],[3.13537,39.3579],[3.13721,39.35838],[3.14008,39.35756],[3.1434,39.35567],[3.14392,39.35547],[3.14528,39.35528],[3.1472,39.35567],[3.15058,39.35682],[3.15087,39.35686],[3.15135,39.35656],[3.15213,39.35675],[3.15318,39.35714],[3.15375,39.35715],[3.15443,39.3573],[3.15518,39.3576],[3.15553,39.35764],[3.15699,39.35751],[3.16167,39.35816],[3.16274,39.35811],[3.16347,39.35796],[3.16469,39.35846],[3.16544,39.35859],[3.16681,39.35849],[3.16766,39.3586],[3.16981,39.35802],[3.17007,39.35803],[3.17137,39.35684],[3.17192,39.35597],[3.17287,39.35492],[3.17436,39.35437],[3.17489,39.35405],[3.17584,39.35306],[3.17595,39.35204],[3.1766,39.35138],[3.17735,39.34994],[3.17829,39.34882],[3.17928,39.34825],[3.17962,39.34809],[3.18015,39.34807],[3.1809,39.34778],[3.18293,39.34743],[3.18332,39.34745],[3.18371,39.34782],[3.1843,39.34819],[3.18445,39.34883],[3.18464,39.3491],[3.185,39.34925],[3.1857,39.3498]]]}},{"type":"Feature","properties":{"id":"0705701003"},"geometry":{"type":"Polygon","coordinates":[[[3.23507,39.38131],[3.23394,39.38063],[3.23189,39.38248],[3.22954,39.38054],[3.22639,39.37965],[3.22619,39.37968],[3.21771,39.37429],[3.2118,39.3819],[3.21011,39.38115],[3.21,39.38119],[3.20936,39.38154],[3.20751,39.38296],[3.20478,39.38415],[3.20351,39.38529],[3.20261,39.3865],[3.20159,39.38599],[3.19388,39.396],[3.19398,39.39614],[3.19301,39.39764],[3.19595,39.39995],[3.19749,39.4013],[3.19806,39.40324],[3.19755,39.4037],[3.19817,39.40478],[3.2,39.40575],[3.19959,39.40686],[3.19845,39.40783],[3.19825,39.40833],[3.1983,39.40868],[3.19866,39.40928],[3.20043,39.41108],[3.2013,39.41072],[3.20181,39.41158],[3.20522,39.40887],[3.20841,39.40597],[3.21135,39.4037],[3.21464,39.40139],[3.21683,39.39936],[3.23507,39.38131]]]}},{"type":"Feature","properties":{"id":"0705701004"},"geometry":{"type":"Polygon","coordinates":[[[3.19301,39.39764],[3.19398,39.39614],[3.19388,39.396],[3.20159,39.38599],[3.20261,39.3865],[3.20351,39.38529],[3.20478,39.38415],[3.20751,39.38296],[3.20936,39.38154],[3.21,39.38119],[3.21011,39.38115],[3.2118,39.3819],[3.22014,39.3711],[3.21881,39.36984],[3.21844,39.36927],[3.2183,39.36863],[3.21844,39.3681],[3.2209,39.36559],[3.22362,39.36238],[3.22369,39.36186],[3.22363,39.36035],[3.22377,39.35994],[3.22381,39.35925],[3.22412,39.3588],[3.22413,39.35851],[3.22308,39.35769],[3.22188,39.35759],[3.2212,39.35738],[3.22037,39.35694],[3.22,39.35694],[3.21941,39.35756],[3.22033,39.35809],[3.22079,39.3587],[3.22083,39.35887],[3.22053,39.35904],[3.22049,39.35929],[3.21998,39.35868],[3.21946,39.35882],[3.21921,39.35849],[3.21894,39.35839],[3.21757,39.35834],[3.21653,39.35783],[3.21614,39.35774],[3.21587,39.35784],[3.21537,39.35828],[3.21525,39.35856],[3.21574,39.35893],[3.21594,39.35942],[3.21605,39.36059],[3.21626,39.36095],[3.21622,39.36166],[3.21573,39.36171],[3.21537,39.36162],[3.21504,39.36172],[3.21491,39.3619],[3.21469,39.36178],[3.21447,39.36202],[3.21441,39.36231],[3.21302,39.36215],[3.21247,39.36238],[3.21202,39.36283],[3.21187,39.36317],[3.21203,39.36396],[3.21198,39.36427],[3.21156,39.36459],[3.21101,39.36478],[3.21089,39.3647],[3.21082,39.36385],[3.2106,39.36342],[3.21097,39.36194],[3.2108,39.36181],[3.21067,39.36149],[3.21135,39.36135],[3.21183,39.36176],[3.21192,39.36169],[3.21149,39.36131],[3.21134,39.3608],[3.21117,39.36084],[3.21124,39.36123],[3.21081,39.36133],[3.21029,39.36071],[3.21044,39.36062],[3.2102,39.36057],[3.21024,39.3607],[3.20998,39.36064],[3.2099,39.36033],[3.20995,39.36064],[3.2097,39.36067],[3.20963,39.36037],[3.20967,39.36068],[3.20941,39.36071],[3.20933,39.36042],[3.20938,39.36071],[3.20855,39.36112],[3.20836,39.36112],[3.20828,39.361],[3.20908,39.36035],[3.20954,39.36018],[3.21022,39.36012],[3.2112,39.36039],[3.21124,39.36059],[3.21124,39.36042],[3.21188,39.36031],[3.21205,39.36012],[3.21213,39.36017],[3.21206,39.36007],[3.21224,39.35983],[3.21206,39.35983],[3.21191,39.35969],[3.21201,39.35964],[3.21191,39.35952],[3.21147,39.35935],[3.21128,39.35917],[3.21174,39.35811],[3.21104,39.35738],[3.21042,39.35742],[3.20936,39.35804],[3.20894,39.35803],[3.20862,39.35782],[3.20993,39.35636],[3.20978,39.35608],[3.20928,39.35577],[3.20927,39.35561],[3.20972,39.35546],[3.20989,39.35549],[3.21069,39.35593],[3.21162,39.35612],[3.2123,39.3565],[3.21269,39.35649],[3.21291,39.35657],[3.21305,39.35648],[3.21386,39.35646],[3.21447,39.35632],[3.21576,39.3556],[3.21577,39.35551],[3.21543,39.35539],[3.21533,39.35498],[3.21476,39.35485],[3.21464,39.35472],[3.21427,39.35474],[3.21359,39.35441],[3.21271,39.35418],[3.2121,39.35419],[3.21186,39.35394],[3.21147,39.35377],[3.20989,39.35391],[3.20998,39.35372],[3.20988,39.3535],[3.20955,39.35362],[3.2092,39.3535],[3.20917,39.35336],[3.20868,39.35342],[3.20849,39.35303],[3.20807,39.35281],[3.20732,39.35283],[3.20723,39.35264],[3.20557,39.35214],[3.20532,39.35178],[3.20498,39.35158],[3.20467,39.35155],[3.20465,39.35139],[3.20399,39.35123],[3.20378,39.35131],[3.20332,39.35114],[3.20305,39.35121],[3.20281,39.35103],[3.20275,39.35081],[3.20218,39.35072],[3.20201,39.35077],[3.20165,39.35064],[3.20143,39.3507],[3.20142,39.35078],[3.20112,39.35071],[3.20102,39.35093],[3.20054,39.3511],[3.20017,39.35105],[3.19982,39.35118],[3.19963,39.35103],[3.1995,39.35108],[3.1995,39.35121],[3.19872,39.35139],[3.19832,39.35159],[3.19762,39.35149],[3.19748,39.35136],[3.19724,39.35138],[3.19728,39.35126],[3.19714,39.35124],[3.19698,39.35143],[3.19804,39.35244],[3.19785,39.35261],[3.19764,39.35254],[3.19717,39.35262],[3.19718,39.35228],[3.197,39.35207],[3.19613,39.35172],[3.19595,39.35167],[3.19539,39.35183],[3.19531,39.35169],[3.19504,39.35189],[3.1947,39.35175],[3.19415,39.35177],[3.19429,39.35164],[3.19411,39.35159],[3.1941,39.35148],[3.19384,39.35127],[3.19365,39.35136],[3.19342,39.35122],[3.19247,39.35119],[3.19247,39.35161],[3.19285,39.35203],[3.193,39.35237],[3.19286,39.35248],[3.19198,39.35193],[3.19155,39.352],[3.19131,39.35186],[3.19127,39.35156],[3.19181,39.35043],[3.19158,39.35018],[3.19083,39.35016],[3.19019,39.35037],[3.19012,39.35031],[3.18956,39.35041],[3.18907,39.35013],[3.18866,39.35044],[3.18897,39.35106],[3.18896,39.35171],[3.18882,39.35197],[3.18814,39.35195],[3.1867,39.35537],[3.18686,39.35579],[3.18678,39.35598],[3.18587,39.35593],[3.18488,39.356],[3.18355,39.35677],[3.18245,39.35782],[3.18176,39.35867],[3.1811,39.3595],[3.18037,39.36074],[3.18015,39.36077],[3.17958,39.3606],[3.17864,39.36072],[3.1783,39.3604],[3.17797,39.35953],[3.17786,39.35938],[3.17761,39.35929],[3.17713,39.35945],[3.17654,39.35989],[3.17494,39.36],[3.17471,39.36032],[3.17378,39.3611],[3.17247,39.36168],[3.17207,39.36175],[3.17113,39.3616],[3.17028,39.36125],[3.17001,39.36128],[3.16971,39.3614],[3.16966,39.36165],[3.1698,39.36219],[3.16952,39.36244],[3.16878,39.3628],[3.16807,39.36385],[3.16742,39.36417],[3.16608,39.3645],[3.1652,39.3652],[3.16238,39.36649],[3.16222,39.3668],[3.1622,39.36739],[3.16239,39.36871],[3.16277,39.36912],[3.16239,39.36979],[3.16322,39.37013],[3.16275,39.37069],[3.16137,39.3716],[3.15965,39.37459],[3.15688,39.37383],[3.15595,39.37483],[3.15547,39.37556],[3.1556,39.37646],[3.15464,39.3782],[3.15362,39.37742],[3.15271,39.37881],[3.15276,39.37941],[3.15259,39.38039],[3.15191,39.38257],[3.15223,39.38318],[3.15309,39.38406],[3.15382,39.38461],[3.15404,39.3851],[3.15372,39.38634],[3.15331,39.38722],[3.15355,39.3884],[3.15399,39.38918],[3.15527,39.38979],[3.15327,39.39033],[3.15206,39.39053],[3.15185,39.39062],[3.15168,39.39114],[3.15114,39.39147],[3.15079,39.39154],[3.14866,39.39095],[3.14764,39.39044],[3.14644,39.38998],[3.14543,39.39065],[3.14537,39.39091],[3.1458,39.39259],[3.14632,39.39386],[3.14632,39.39424],[3.14612,39.3947],[3.14643,39.39517],[3.14698,39.39533],[3.14745,39.39621],[3.14756,39.39655],[3.14749,39.3974],[3.15056,39.39786],[3.15338,39.39787],[3.15423,39.39813],[3.15438,39.39853],[3.15615,39.39885],[3.15647,39.39929],[3.15684,39.39943],[3.15762,39.39943],[3.15812,39.39917],[3.16253,39.40055],[3.16349,39.40039],[3.16461,39.4038],[3.16472,39.40462],[3.16745,39.41048],[3.16807,39.41151],[3.16882,39.41113],[3.17348,39.40819],[3.1743,39.4078],[3.17433,39.40766],[3.17712,39.40629],[3.17877,39.40515],[3.18215,39.40332],[3.1873,39.40009],[3.19239,39.39712],[3.19301,39.39764]]]}},{"type":"Feature","properties":{"id":"0705701005"},"geometry":{"type":"Polygon","coordinates":[[[3.22639,39.37965],[3.22761,39.37758],[3.22851,39.37647],[3.2304,39.37296],[3.23104,39.37312],[3.23393,39.36969],[3.23395,39.36955],[3.23369,39.36939],[3.23363,39.36915],[3.23289,39.36916],[3.23127,39.36999],[3.23057,39.37058],[3.23022,39.37109],[3.22997,39.37107],[3.22974,39.37062],[3.23006,39.37004],[3.23129,39.36896],[3.23142,39.3686],[3.23015,39.36798],[3.22869,39.36816],[3.22804,39.36889],[3.22797,39.36885],[3.22787,39.36915],[3.22757,39.36947],[3.22691,39.36934],[3.22667,39.36937],[3.22607,39.3698],[3.22439,39.37029],[3.22289,39.371],[3.22273,39.3712],[3.22271,39.37152],[3.22329,39.37229],[3.2235,39.37309],[3.22339,39.37324],[3.22304,39.37337],[3.22276,39.37254],[3.22301,39.37338],[3.2227,39.37346],[3.22235,39.37333],[3.22208,39.37292],[3.22234,39.37202],[3.22202,39.37132],[3.22203,39.37113],[3.22331,39.37017],[3.22381,39.36967],[3.22345,39.36911],[3.22374,39.36901],[3.22435,39.36984],[3.22377,39.36899],[3.22396,39.36893],[3.22385,39.36879],[3.22391,39.36876],[3.22404,39.3689],[3.22423,39.36883],[3.22458,39.36893],[3.22505,39.36963],[3.2247,39.36901],[3.22508,39.36888],[3.22545,39.36948],[3.2251,39.36887],[3.22553,39.36872],[3.22589,39.36933],[3.22555,39.36871],[3.22608,39.36852],[3.2264,39.36907],[3.2261,39.36852],[3.2266,39.36834],[3.22707,39.3688],[3.22716,39.36874],[3.22666,39.36825],[3.22693,39.36805],[3.22732,39.36745],[3.22862,39.36687],[3.22879,39.36654],[3.22873,39.36617],[3.22885,39.36607],[3.22912,39.36631],[3.22931,39.36628],[3.23001,39.36657],[3.2309,39.36658],[3.23176,39.36688],[3.23238,39.36734],[3.23292,39.36748],[3.23379,39.36753],[3.23438,39.36766],[3.2349,39.36744],[3.23477,39.36729],[3.23482,39.36696],[3.23506,39.36666],[3.23488,39.3664],[3.23502,39.3661],[3.23455,39.36588],[3.23455,39.36561],[3.23471,39.36535],[3.23457,39.36519],[3.23275,39.36482],[3.23251,39.36466],[3.23198,39.36462],[3.23142,39.36441],[3.23138,39.36422],[3.23174,39.3642],[3.2319,39.36401],[3.2323,39.36397],[3.2326,39.3638],[3.23283,39.36379],[3.23337,39.36406],[3.23374,39.3641],[3.23385,39.364],[3.2335,39.36381],[3.23287,39.36371],[3.23275,39.36343],[3.23226,39.36309],[3.23211,39.36279],[3.23217,39.36247],[3.23198,39.36237],[3.23212,39.36208],[3.23194,39.36195],[3.23217,39.36172],[3.23215,39.36162],[3.23189,39.36148],[3.23157,39.3615],[3.23132,39.36123],[3.23064,39.3609],[3.2299,39.36086],[3.23007,39.36064],[3.23003,39.36036],[3.23015,39.36017],[3.22973,39.35965],[3.22943,39.35966],[3.2292,39.35952],[3.2294,39.35917],[3.22928,39.35899],[3.22816,39.35878],[3.22707,39.35838],[3.22678,39.35841],[3.22642,39.35864],[3.22602,39.35914],[3.22555,39.35943],[3.22573,39.3597],[3.22567,39.3599],[3.22576,39.36013],[3.22482,39.36044],[3.22451,39.36098],[3.22433,39.361],[3.22441,39.36034],[3.22496,39.35995],[3.22499,39.35976],[3.22467,39.35947],[3.22463,39.35921],[3.22501,39.35858],[3.22528,39.35838],[3.22526,39.3581],[3.22498,39.35767],[3.22447,39.35751],[3.22375,39.35689],[3.22344,39.35681],[3.22241,39.35713],[3.2221,39.35755],[3.22308,39.35769],[3.22413,39.35851],[3.22412,39.3588],[3.22381,39.35925],[3.22377,39.35994],[3.22363,39.36035],[3.22369,39.36186],[3.22362,39.36238],[3.2209,39.36559],[3.21844,39.3681],[3.2183,39.36863],[3.21844,39.36927],[3.21881,39.36984],[3.22014,39.3711],[3.21771,39.37429],[3.22619,39.37968],[3.22639,39.37965]]]}},{"type":"Feature","properties":{"id":"0705701006"},"geometry":{"type":"Polygon","coordinates":[[[3.23507,39.38131],[3.23947,39.37705],[3.23885,39.37679],[3.23902,39.37654],[3.2396,39.37617],[3.23987,39.37617],[3.24024,39.37598],[3.24017,39.37584],[3.23997,39.3758],[3.24003,39.37555],[3.23992,39.37544],[3.24006,39.37531],[3.23944,39.37518],[3.23928,39.37524],[3.23922,39.37545],[3.23862,39.37572],[3.2382,39.37581],[3.23794,39.37622],[3.23751,39.37617],[3.23744,39.37626],[3.23725,39.37613],[3.23764,39.37536],[3.23783,39.37521],[3.23831,39.37509],[3.2384,39.37482],[3.23889,39.37446],[3.23909,39.37447],[3.2401,39.3741],[3.24048,39.37378],[3.24052,39.37361],[3.24036,39.37326],[3.2402,39.37322],[3.23955,39.37335],[3.2392,39.373],[3.23919,39.37288],[3.23946,39.37268],[3.23977,39.37259],[3.23979,39.37217],[3.23951,39.37201],[3.23903,39.37198],[3.23887,39.37182],[3.23857,39.37114],[3.23877,39.37091],[3.2386,39.37059],[3.23794,39.37043],[3.23753,39.37045],[3.23697,39.37021],[3.23706,39.36975],[3.23731,39.36959],[3.23714,39.36944],[3.23656,39.36956],[3.23604,39.36987],[3.2357,39.3702],[3.23561,39.37039],[3.23577,39.37094],[3.23574,39.37129],[3.23492,39.37178],[3.23492,39.37234],[3.23428,39.37209],[3.23408,39.37191],[3.23389,39.37197],[3.23369,39.37235],[3.23302,39.37301],[3.23247,39.37281],[3.23262,39.3723],[3.23288,39.37199],[3.23306,39.37135],[3.23349,39.37107],[3.23404,39.37088],[3.23417,39.37073],[3.23417,39.37041],[3.23392,39.37008],[3.23393,39.36969],[3.23104,39.37312],[3.2304,39.37296],[3.22851,39.37647],[3.22761,39.37758],[3.22637,39.37967],[3.22954,39.38054],[3.23189,39.38248],[3.23394,39.38063],[3.23507,39.38131]]]}},{"type":"Feature","properties":{"id":"0705702001"},"geometry":{"type":"Polygon","coordinates":[[[3.12837,39.35418],[3.12879,39.35385],[3.12841,39.35365],[3.1281,39.35359],[3.12804,39.3537],[3.12728,39.35319],[3.12564,39.35233],[3.11995,39.34841],[3.11979,39.34816],[3.11944,39.34628],[3.11918,39.34607],[3.11722,39.34528],[3.11564,39.34398],[3.11599,39.34358],[3.11603,39.34324],[3.11691,39.34269],[3.11751,39.34177],[3.11748,39.34087],[3.11789,39.34002],[3.11795,39.33926],[3.11886,39.33704],[3.11926,39.33578],[3.11982,39.33456],[3.12025,39.33387],[3.12093,39.33314],[3.12124,39.33232],[3.12344,39.32942],[3.12356,39.32914],[3.12435,39.32865],[3.1244,39.32817],[3.12526,39.32774],[3.12532,39.32742],[3.12571,39.32722],[3.1258,39.327],[3.12622,39.3268],[3.12715,39.32663],[3.13065,39.32472],[3.13067,39.32406],[3.13368,39.32539],[3.13481,39.3245],[3.13537,39.32392],[3.1359,39.3239],[3.13717,39.32324],[3.13738,39.32324],[3.13924,39.32395],[3.13945,39.32373],[3.13954,39.32375],[3.14006,39.32405],[3.14049,39.32401],[3.14094,39.32372],[3.14174,39.32378],[3.14237,39.3237],[3.14209,39.32348],[3.14194,39.32323],[3.14202,39.323],[3.14227,39.32288],[3.14226,39.32265],[3.14243,39.32246],[3.14251,39.3221],[3.14216,39.3216],[3.14245,39.32154],[3.14241,39.32138],[3.14221,39.32134],[3.14233,39.32088],[3.14261,39.32063],[3.14247,39.32053],[3.1425,39.32044],[3.14223,39.32041],[3.14191,39.32016],[3.14186,39.32005],[3.14195,39.31999],[3.14089,39.31958],[3.14066,39.31938],[3.14052,39.31898],[3.14031,39.31893],[3.13977,39.31905],[3.13942,39.31891],[3.13928,39.31868],[3.1394,39.31827],[3.13935,39.31813],[3.13893,39.31786],[3.13867,39.31785],[3.13836,39.31765],[3.13762,39.31737],[3.13762,39.31693],[3.13734,39.31675],[3.13682,39.31665],[3.1366,39.31681],[3.13554,39.31658],[3.13509,39.31643],[3.13479,39.31604],[3.13371,39.31598],[3.13306,39.3157],[3.1327,39.31537],[3.13279,39.31501],[3.1327,39.31473],[3.13233,39.31427],[3.13196,39.31402],[3.13102,39.31391],[3.12966,39.31348],[3.12906,39.31357],[3.12864,39.31398],[3.1281,39.31409],[3.1278,39.31433],[3.12743,39.31435],[3.12723,39.31467],[3.12688,39.31491],[3.12647,39.31488],[3.12618,39.31495],[3.12501,39.31579],[3.12486,39.31572],[3.12454,39.31606],[3.12464,39.3155],[3.12431,39.31552],[3.12389,39.31538],[3.12302,39.31445],[3.12154,39.31379],[3.12164,39.31358],[3.12225,39.31375],[3.12314,39.31375],[3.12319,39.31319],[3.1225,39.31293],[3.12227,39.31299],[3.12219,39.31324],[3.1218,39.31317],[3.12185,39.31304],[3.12157,39.31286],[3.12134,39.31285],[3.12132,39.31268],[3.12109,39.31255],[3.12109,39.31221],[3.12098,39.31209],[3.12006,39.31206],[3.11927,39.31238],[3.11937,39.31208],[3.11919,39.31209],[3.11897,39.31222],[3.11903,39.31257],[3.11948,39.31253],[3.11955,39.31268],[3.11907,39.31295],[3.1181,39.31315],[3.11816,39.31305],[3.11848,39.313],[3.11841,39.31287],[3.1185,39.31268],[3.11742,39.31226],[3.11761,39.31182],[3.1178,39.31165],[3.11767,39.31128],[3.11736,39.31109],[3.11716,39.31115],[3.11698,39.31087],[3.11671,39.31099],[3.11647,39.31091],[3.11645,39.31081],[3.11663,39.31087],[3.11673,39.31079],[3.11665,39.31063],[3.11634,39.31042],[3.11595,39.31059],[3.11568,39.31046],[3.11583,39.31041],[3.11584,39.31027],[3.11566,39.31005],[3.11582,39.31005],[3.11583,39.31017],[3.116,39.31013],[3.1155,39.30956],[3.11524,39.30952],[3.11535,39.30923],[3.11527,39.30907],[3.11512,39.30904],[3.11542,39.30875],[3.11545,39.30858],[3.11453,39.30846],[3.11446,39.30823],[3.1147,39.30794],[3.11433,39.30801],[3.11401,39.30791],[3.11379,39.30795],[3.11383,39.3078],[3.11355,39.30746],[3.11356,39.3073],[3.11258,39.30662],[3.1123,39.30635],[3.11229,39.3062],[3.11202,39.30611],[3.11198,39.30595],[3.11168,39.30583],[3.11136,39.30539],[3.11139,39.30497],[3.11125,39.30488],[3.11105,39.30508],[3.11086,39.30494],[3.11115,39.30457],[3.11099,39.30453],[3.11094,39.30436],[3.11057,39.30432],[3.11057,39.30408],[3.11027,39.30384],[3.11058,39.30319],[3.11033,39.3031],[3.11005,39.30282],[3.10988,39.30291],[3.10966,39.30287],[3.10972,39.30253],[3.11005,39.30232],[3.10998,39.3022],[3.10966,39.30221],[3.10956,39.302],[3.10927,39.30201],[3.10908,39.30219],[3.10881,39.30222],[3.1088,39.30234],[3.10845,39.30224],[3.10811,39.30229],[3.10773,39.30223],[3.10707,39.30243],[3.10691,39.3023],[3.10709,39.30212],[3.10696,39.30212],[3.10693,39.30203],[3.10698,39.30187],[3.10722,39.30171],[3.10702,39.3015],[3.1067,39.30161],[3.10638,39.30139],[3.10623,39.30111],[3.10647,39.30094],[3.10641,39.30084],[3.10624,39.30076],[3.10576,39.30103],[3.1056,39.30084],[3.10539,39.30098],[3.1053,39.30092],[3.10539,39.3007],[3.105,39.30085],[3.10472,39.30082],[3.10451,39.30064],[3.1045,39.30049],[3.10495,39.30004],[3.10464,39.29998],[3.10442,39.30014],[3.10404,39.30005],[3.10414,39.29977],[3.10441,39.29955],[3.10409,39.29929],[3.1045,39.29914],[3.10424,39.29908],[3.10428,39.29897],[3.10414,39.29879],[3.10398,39.29893],[3.10386,39.2989],[3.10351,39.29822],[3.10321,39.29792],[3.10318,39.29769],[3.10346,39.29709],[3.10339,39.29696],[3.10291,39.29689],[3.10255,39.29674],[3.10245,39.29677],[3.10242,39.29631],[3.10212,39.29611],[3.10225,39.29597],[3.102,39.29594],[3.10191,39.29574],[3.10173,39.29574],[3.10162,39.29584],[3.1013,39.29556],[3.10127,39.29506],[3.10104,39.29492],[3.10125,39.29474],[3.10121,39.29469],[3.1007,39.29464],[3.10059,39.29444],[3.0998,39.29403],[3.09972,39.29385],[3.0992,39.29359],[3.0989,39.29363],[3.09869,39.29336],[3.09844,39.29331],[3.09787,39.29341],[3.09799,39.29332],[3.09797,39.293],[3.0976,39.29283],[3.09751,39.29265],[3.09714,39.29279],[3.09668,39.29278],[3.0966,39.293],[3.09628,39.29299],[3.09613,39.29294],[3.0962,39.29277],[3.09589,39.29267],[3.09592,39.2926],[3.09536,39.2927],[3.095,39.29248],[3.09608,39.29186],[3.09587,39.29169],[3.09583,39.29129],[3.09573,39.29118],[3.09558,39.29152],[3.09542,39.29097],[3.09564,39.29049],[3.0956,39.29014],[3.09512,39.28997],[3.095,39.28973],[3.09458,39.28964],[3.09453,39.28938],[3.09419,39.28911],[3.09392,39.28903],[3.09366,39.28871],[3.09314,39.28852],[3.09296,39.28864],[3.09299,39.28876],[3.09258,39.28894],[3.09249,39.28908],[3.09223,39.28886],[3.092,39.28896],[3.09181,39.2889],[3.09149,39.28907],[3.09132,39.28883],[3.0908,39.28928],[3.09059,39.28919],[3.09028,39.28923],[3.09013,39.28887],[3.09049,39.28883],[3.09055,39.28877],[3.09044,39.28872],[3.09046,39.28864],[3.09087,39.2885],[3.09079,39.28836],[3.09102,39.28827],[3.09079,39.28821],[3.09081,39.28815],[3.09137,39.2881],[3.09153,39.28754],[3.09136,39.28731],[3.09183,39.28718],[3.09174,39.28699],[3.09131,39.28655],[3.09065,39.28615],[3.09035,39.28582],[3.08956,39.28564],[3.08958,39.28508],[3.08915,39.28493],[3.08907,39.28478],[3.08916,39.28436],[3.08888,39.28442],[3.08872,39.28422],[3.08799,39.28417],[3.08788,39.2841],[3.08795,39.28392],[3.08851,39.28356],[3.08844,39.28348],[3.08829,39.2835],[3.08803,39.2832],[3.08767,39.28319],[3.08757,39.28297],[3.0871,39.28274],[3.08705,39.28246],[3.0873,39.28232],[3.08703,39.28205],[3.08715,39.28183],[3.08691,39.28183],[3.08677,39.28168],[3.08646,39.2816],[3.08565,39.28092],[3.08509,39.28068],[3.08491,39.281],[3.0845,39.28091],[3.08445,39.2807],[3.08462,39.28043],[3.0845,39.28029],[3.08399,39.28017],[3.08368,39.27991],[3.08378,39.27955],[3.08357,39.27931],[3.08354,39.27898],[3.08272,39.27883],[3.08259,39.27867],[3.08271,39.2784],[3.08253,39.27818],[3.08234,39.27823],[3.08207,39.27812],[3.08156,39.27761],[3.0805,39.27713],[3.0805,39.27699],[3.08033,39.27682],[3.08034,39.27609],[3.08012,39.27592],[3.0803,39.27534],[3.08026,39.27495],[3.07874,39.2744],[3.07837,39.27411],[3.07737,39.27378],[3.0775,39.27347],[3.07719,39.2735],[3.07713,39.27344],[3.07724,39.27325],[3.07668,39.27312],[3.0766,39.27277],[3.07631,39.27265],[3.076,39.27227],[3.076,39.27207],[3.07612,39.27197],[3.076,39.2718],[3.07594,39.2713],[3.07522,39.27074],[3.0749,39.27061],[3.07413,39.26991],[3.07401,39.2696],[3.07388,39.26954],[3.0739,39.26936],[3.07367,39.26932],[3.07361,39.26913],[3.07332,39.26901],[3.07329,39.26881],[3.07296,39.26877],[3.07286,39.26859],[3.0724,39.26865],[3.07196,39.26836],[3.07147,39.26839],[3.07126,39.26804],[3.07075,39.26806],[3.07038,39.26786],[3.07012,39.26795],[3.06982,39.26765],[3.06943,39.26755],[3.06926,39.26741],[3.06892,39.26738],[3.06895,39.2669],[3.06877,39.26674],[3.06848,39.26667],[3.06815,39.26674],[3.06793,39.26663],[3.06698,39.26656],[3.06631,39.26663],[3.06615,39.26652],[3.06593,39.26611],[3.06568,39.26603],[3.06519,39.26568],[3.06363,39.26558],[3.06246,39.26522],[3.06136,39.26516],[3.06071,39.26538],[3.06046,39.26522],[3.06011,39.26529],[3.05955,39.26522],[3.05895,39.26498],[3.05889,39.26506],[3.05859,39.26506],[3.05835,39.26483],[3.05774,39.26471],[3.05756,39.26474],[3.0573,39.26494],[3.05694,39.26482],[3.05633,39.26486],[3.05568,39.26442],[3.05545,39.26453],[3.05493,39.26452],[3.05469,39.26465],[3.05466,39.26486],[3.05438,39.26476],[3.05338,39.26469],[3.05223,39.26504],[3.05111,39.26557],[3.05022,39.26557],[3.05006,39.2658],[3.04973,39.26596],[3.04929,39.2665],[3.04927,39.26667],[3.0489,39.26709],[3.04895,39.26739],[3.04885,39.26763],[3.04833,39.26829],[3.04789,39.26846],[3.04757,39.26897],[3.04723,39.26923],[3.04722,39.2694],[3.04652,39.26968],[3.04646,39.27004],[3.04623,39.27022],[3.046,39.27071],[3.04579,39.27083],[3.0456,39.27078],[3.04533,39.27097],[3.04484,39.27189],[3.04467,39.27196],[3.04488,39.27221],[3.04485,39.27234],[3.04452,39.2724],[3.04413,39.27292],[3.04364,39.27334],[3.04325,39.27337],[3.04304,39.27361],[3.04305,39.27387],[3.04349,39.27431],[3.04346,39.2746],[3.043,39.27493],[3.04261,39.27484],[3.04206,39.27486],[3.04176,39.27472],[3.04165,39.27475],[3.0416,39.27498],[3.04176,39.27505],[3.04261,39.27522],[3.04319,39.27516],[3.04342,39.27549],[3.04349,39.2761],[3.04373,39.2763],[3.04383,39.27656],[3.04381,39.27715],[3.04362,39.27783],[3.04222,39.27962],[3.04152,39.28007],[3.04088,39.28026],[3.04069,39.28019],[3.04087,39.28],[3.0407,39.27981],[3.04003,39.27983],[3.0395,39.28011],[3.03888,39.28003],[3.03851,39.27964],[3.03818,39.27949],[3.03781,39.27944],[3.03735,39.2795],[3.03716,39.27961],[3.03805,39.27991],[3.03824,39.2801],[3.03825,39.28031],[3.03804,39.28051],[3.0374,39.28074],[3.03628,39.28065],[3.03602,39.2807],[3.03596,39.28079],[3.03606,39.28111],[3.03584,39.28145],[3.03538,39.28144],[3.03464,39.28119],[3.0339,39.28112],[3.03308,39.28157],[3.03275,39.28214],[3.03187,39.28228],[3.03167,39.2825],[3.03114,39.28273],[3.03021,39.28255],[3.03021,39.28267],[3.03033,39.28263],[3.03049,39.28282],[3.03042,39.28303],[3.03029,39.28314],[3.02998,39.28317],[3.03017,39.28325],[3.03002,39.28348],[3.02988,39.28349],[3.02972,39.28384],[3.02961,39.28386],[3.02947,39.28371],[3.02936,39.28376],[3.02949,39.2839],[3.02923,39.28429],[3.02941,39.28466],[3.02943,39.28512],[3.02838,39.28522],[3.02831,39.28536],[3.0277,39.28553],[3.0285,39.28577],[3.02872,39.28616],[3.02859,39.2864],[3.02898,39.28716],[3.02997,39.2875],[3.0304,39.28817],[3.03082,39.28832],[3.03102,39.28852],[3.03095,39.28904],[3.03066,39.2895],[3.03017,39.28985],[3.02971,39.28997],[3.0296,39.28995],[3.02961,39.28979],[3.02951,39.28974],[3.02936,39.29044],[3.03355,39.29368],[3.03563,39.29395],[3.04716,39.29671],[3.04996,39.29753],[3.0543,39.29942],[3.05696,39.30024],[3.0694,39.30245],[3.06472,39.30749],[3.06377,39.31239],[3.06078,39.31625],[3.06067,39.31651],[3.05669,39.32071],[3.06046,39.32326],[3.06383,39.32569],[3.06396,39.32636],[3.06576,39.32622],[3.06799,39.32534],[3.06858,39.32569],[3.06885,39.32603],[3.07018,39.32854],[3.07067,39.3299],[3.0751,39.32765],[3.08154,39.33798],[3.08153,39.33818],[3.07773,39.34444],[3.07934,39.34573],[3.08304,39.34903],[3.08097,39.34954],[3.07892,39.35099],[3.07869,39.35168],[3.07951,39.35272],[3.07853,39.35322],[3.08564,39.36044],[3.08709,39.36444],[3.08197,39.36813],[3.07875,39.37139],[3.0692,39.37917],[3.07027,39.37982],[3.08053,39.3877],[3.09039,39.38247],[3.091,39.38226],[3.092,39.38218],[3.09524,39.3821],[3.0959,39.382],[3.09714,39.38158],[3.09783,39.38122],[3.09829,39.38072],[3.09945,39.37939],[3.10117,39.37702],[3.10463,39.37518],[3.10543,39.37468],[3.11873,39.36323],[3.12352,39.35997],[3.12545,39.35783],[3.1262,39.35616],[3.12806,39.35463],[3.12819,39.3541],[3.12837,39.35418]]]}},{"type":"Feature","properties":{"id":"0705702002"},"geometry":{"type":"Polygon","coordinates":[[[3.14627,39.33018],[3.1462,39.33006],[3.14643,39.32996],[3.1465,39.32968],[3.14635,39.32941],[3.1465,39.3294],[3.14668,39.32919],[3.14664,39.3289],[3.14687,39.32843],[3.14682,39.32802],[3.1469,39.32793],[3.14656,39.32777],[3.14625,39.32778],[3.14607,39.32756],[3.14611,39.32681],[3.14579,39.32655],[3.14593,39.3263],[3.14579,39.32618],[3.14553,39.32609],[3.14544,39.32612],[3.14551,39.32618],[3.14533,39.32618],[3.14482,39.32606],[3.14441,39.32573],[3.14364,39.32568],[3.14315,39.32576],[3.14333,39.32608],[3.14314,39.32625],[3.14299,39.32626],[3.14262,39.32612],[3.14276,39.32597],[3.14274,39.32583],[3.14251,39.32591],[3.1418,39.32587],[3.14129,39.32561],[3.14122,39.32572],[3.14103,39.32563],[3.1406,39.32568],[3.14083,39.32549],[3.14132,39.32537],[3.14138,39.32516],[3.14125,39.32511],[3.14164,39.32496],[3.14162,39.32486],[3.14146,39.32487],[3.14131,39.3247],[3.14133,39.32454],[3.14099,39.32444],[3.14029,39.32451],[3.13942,39.32437],[3.13918,39.32421],[3.13924,39.32395],[3.13738,39.32324],[3.13717,39.32324],[3.13685,39.32338],[3.1359,39.3239],[3.13537,39.32392],[3.13481,39.3245],[3.13368,39.32539],[3.13067,39.32406],[3.13065,39.32472],[3.12715,39.32663],[3.12622,39.3268],[3.1258,39.327],[3.12571,39.32722],[3.12532,39.32742],[3.12526,39.32774],[3.1244,39.32817],[3.12435,39.32865],[3.12356,39.32914],[3.12344,39.32942],[3.12124,39.33232],[3.12093,39.33314],[3.12025,39.33387],[3.11982,39.33456],[3.11926,39.33578],[3.11886,39.33704],[3.11795,39.33926],[3.11789,39.34002],[3.11748,39.34087],[3.11751,39.34177],[3.11691,39.34269],[3.11603,39.34324],[3.11599,39.34358],[3.11564,39.34398],[3.11722,39.34528],[3.11918,39.34607],[3.11944,39.34628],[3.11979,39.34816],[3.11995,39.34841],[3.12564,39.35233],[3.12728,39.35319],[3.12804,39.3537],[3.1281,39.35359],[3.12841,39.35365],[3.12879,39.35385],[3.12995,39.35258],[3.13079,39.35188],[3.13158,39.35239],[3.13381,39.35067],[3.14381,39.34451],[3.14347,39.34396],[3.14303,39.34359],[3.14227,39.34264],[3.14244,39.34201],[3.14171,39.34072],[3.14169,39.34003],[3.14229,39.33856],[3.14243,39.33652],[3.14281,39.33614],[3.14332,39.33605],[3.14394,39.33483],[3.14397,39.33463],[3.14325,39.33375],[3.14325,39.33321],[3.14344,39.33286],[3.145,39.3316],[3.14627,39.33018]]]}}]}