{"type":"FeatureCollection","features":[{"type":"Feature","properties":{"id":"0800101001"},"geometry":{"type":"Polygon","coordinates":[[[1.90971,41.50175],[1.90878,41.50195],[1.90829,41.50157],[1.90715,41.50175],[1.90615,41.50338],[1.90526,41.50549],[1.90443,41.5069],[1.90018,41.51206],[1.899,41.51432],[1.89848,41.51571],[1.90211,41.51618],[1.90221,41.51624],[1.90184,41.51686],[1.90304,41.51672],[1.90356,41.51706],[1.90695,41.5173],[1.90794,41.51499],[1.90916,41.5117],[1.9106,41.50867],[1.91081,41.50787],[1.91072,41.50724],[1.90989,41.50551],[1.90954,41.50264],[1.90971,41.50175]]]}},{"type":"Feature","properties":{"id":"0800101002"},"geometry":{"type":"Polygon","coordinates":[[[1.90357,41.52143],[1.9037,41.52039],[1.90381,41.52025],[1.90305,41.51987],[1.90219,41.51904],[1.90209,41.51831],[1.90218,41.51777],[1.90197,41.51741],[1.90178,41.51746],[1.9011,41.51805],[1.89989,41.51883],[1.89874,41.51997],[1.89797,41.5205],[1.89793,41.52101],[1.89808,41.52177],[1.90133,41.52134],[1.90357,41.52143]]]}},{"type":"Feature","properties":{"id":"0800101003"},"geometry":{"type":"Polygon","coordinates":[[[1.92482,41.49562],[1.92432,41.49655],[1.92477,41.49719],[1.92481,41.49744],[1.92315,41.49855],[1.92137,41.49867],[1.92055,41.49885],[1.91983,41.49784],[1.91333,41.50004],[1.91119,41.5009],[1.9108,41.50152],[1.90971,41.50175],[1.90954,41.50264],[1.90989,41.50551],[1.91072,41.50724],[1.91081,41.50787],[1.9106,41.50867],[1.90916,41.5117],[1.90794,41.51499],[1.90695,41.5173],[1.90356,41.51706],[1.90304,41.51672],[1.90184,41.51687],[1.902,41.51715],[1.90197,41.51741],[1.90218,41.51777],[1.90209,41.51831],[1.90219,41.51904],[1.90305,41.51987],[1.90381,41.52025],[1.9037,41.52039],[1.90357,41.52143],[1.90389,41.52145],[1.90422,41.52161],[1.90437,41.52194],[1.90566,41.52204],[1.90588,41.52214],[1.90631,41.52248],[1.90653,41.523],[1.90683,41.52316],[1.90688,41.52604],[1.90679,41.52742],[1.90601,41.52925],[1.90723,41.5296],[1.9115,41.53019],[1.91127,41.52977],[1.91106,41.52878],[1.9112,41.52792],[1.91149,41.52756],[1.91226,41.52728],[1.91284,41.52694],[1.91429,41.52512],[1.9148,41.52426],[1.91476,41.52293],[1.91414,41.52189],[1.91364,41.52055],[1.91376,41.51992],[1.9137,41.51963],[1.91319,41.5189],[1.91302,41.51812],[1.91303,41.51765],[1.91321,41.51718],[1.9136,41.51657],[1.91393,41.5165],[1.91457,41.51672],[1.91526,41.51668],[1.91621,41.51635],[1.91719,41.51585],[1.91801,41.51508],[1.91832,41.51456],[1.91839,41.51425],[1.9173,41.51177],[1.91721,41.51008],[1.91757,41.50964],[1.91761,41.50922],[1.9169,41.50727],[1.91566,41.5061],[1.91519,41.50535],[1.91497,41.50406],[1.91515,41.50321],[1.9155,41.50241],[1.916,41.50194],[1.91642,41.50177],[1.91706,41.50177],[1.91835,41.50196],[1.91873,41.50221],[1.9191,41.50228],[1.91972,41.50276],[1.92001,41.50287],[1.92057,41.50278],[1.92117,41.50284],[1.92247,41.50332],[1.9232,41.50328],[1.92401,41.50353],[1.9243,41.50351],[1.92463,41.50333],[1.92576,41.502],[1.92616,41.50118],[1.92625,41.49922],[1.92602,41.49772],[1.92482,41.49562]]]}},{"type":"Feature","properties":{"id":"0800101004"},"geometry":{"type":"Polygon","coordinates":[[[1.8982,41.52229],[1.89793,41.52101],[1.8982,41.51897],[1.89821,41.51673],[1.89842,41.51586],[1.899,41.51432],[1.90018,41.51206],[1.90443,41.5069],[1.90526,41.50549],[1.90615,41.50338],[1.90715,41.50175],[1.90653,41.50184],[1.90597,41.50155],[1.90531,41.50186],[1.90502,41.50291],[1.90393,41.50308],[1.90316,41.50437],[1.90106,41.50503],[1.89718,41.5056],[1.89432,41.50648],[1.89222,41.5065],[1.89049,41.50726],[1.88862,41.50732],[1.88652,41.50796],[1.88204,41.50774],[1.87538,41.5076],[1.87324,41.50719],[1.86816,41.50721],[1.86448,41.50599],[1.86129,41.50654],[1.86009,41.50782],[1.85592,41.50861],[1.85621,41.51029],[1.85577,41.51248],[1.85529,41.51296],[1.85431,41.51344],[1.85405,41.51391],[1.85468,41.51599],[1.85528,41.51623],[1.85578,41.51586],[1.85719,41.51599],[1.85775,41.51774],[1.8591,41.51753],[1.86001,41.5152],[1.86097,41.51514],[1.86195,41.5167],[1.86459,41.51732],[1.86381,41.51764],[1.86499,41.51883],[1.8676,41.51977],[1.86648,41.51992],[1.86808,41.52189],[1.87097,41.5237],[1.87104,41.52444],[1.87306,41.5242],[1.87448,41.52481],[1.87712,41.52262],[1.88341,41.52352],[1.8851,41.52478],[1.89104,41.52388],[1.89537,41.52505],[1.8978,41.52157],[1.8982,41.52229]]]}},{"type":"Feature","properties":{"id":"0800101005"},"geometry":{"type":"Polygon","coordinates":[[[1.90197,41.51741],[1.902,41.51715],[1.90184,41.51687],[1.90221,41.51624],[1.90211,41.51618],[1.89848,41.51571],[1.89821,41.51673],[1.8982,41.51897],[1.89798,41.52047],[1.89874,41.51997],[1.89989,41.51883],[1.9011,41.51805],[1.90178,41.51746],[1.90197,41.51741]]]}},{"type":"Feature","properties":{"id":"0800101007"},"geometry":{"type":"Polygon","coordinates":[[[1.91353,41.51941],[1.91971,41.51892],[1.92027,41.51871],[1.92085,41.51899],[1.9211,41.51892],[1.9213,41.51851],[1.92201,41.51854],[1.9223,41.51808],[1.92262,41.51819],[1.92314,41.51803],[1.92378,41.51817],[1.92432,41.51788],[1.92444,41.51813],[1.92432,41.51865],[1.92458,41.51867],[1.92472,41.5185],[1.92487,41.51853],[1.92487,41.51885],[1.92503,41.51892],[1.92525,41.51882],[1.92539,41.519],[1.92626,41.51875],[1.92632,41.51858],[1.92663,41.51858],[1.92812,41.5182],[1.92987,41.51789],[1.93051,41.51834],[1.93096,41.51886],[1.93118,41.51942],[1.93182,41.51954],[1.93232,41.51941],[1.93257,41.51903],[1.93305,41.51898],[1.93344,41.51917],[1.93336,41.51938],[1.93644,41.51864],[1.93695,41.51826],[1.93817,41.51837],[1.93733,41.51933],[1.93769,41.52],[1.93783,41.52054],[1.93777,41.52104],[1.93652,41.52163],[1.9367,41.52233],[1.9368,41.52392],[1.93701,41.52477],[1.93776,41.52691],[1.93832,41.52664],[1.93861,41.52741],[1.9384,41.52793],[1.93845,41.52863],[1.93863,41.52884],[1.93914,41.5285],[1.9445,41.52684],[1.94934,41.52552],[1.95157,41.52278],[1.9515,41.5193],[1.9516,41.51557],[1.95171,41.5151],[1.95148,41.51471],[1.95155,41.51439],[1.95183,41.51405],[1.95174,41.51341],[1.95183,41.51276],[1.95166,41.51226],[1.95181,41.51148],[1.95148,41.51062],[1.9515,41.51027],[1.9517,41.51005],[1.94074,41.50964],[1.93706,41.50943],[1.93573,41.5052],[1.93442,41.50487],[1.93321,41.50256],[1.93368,41.50074],[1.93141,41.49703],[1.92955,41.49544],[1.9265,41.49501],[1.92482,41.49562],[1.92602,41.49772],[1.92625,41.49922],[1.92616,41.50118],[1.92576,41.502],[1.92463,41.50333],[1.9243,41.50351],[1.92401,41.50353],[1.9232,41.50328],[1.92247,41.50332],[1.92117,41.50284],[1.92057,41.50278],[1.92001,41.50287],[1.91972,41.50276],[1.9191,41.50228],[1.91873,41.50221],[1.91835,41.50196],[1.91706,41.50177],[1.91642,41.50177],[1.916,41.50194],[1.9155,41.50241],[1.91515,41.50321],[1.91497,41.50406],[1.91519,41.50535],[1.91566,41.5061],[1.9169,41.50727],[1.9172,41.50798],[1.91761,41.50922],[1.91757,41.50964],[1.91721,41.51008],[1.9173,41.51177],[1.91839,41.51425],[1.91832,41.51456],[1.91801,41.51508],[1.91719,41.51585],[1.91621,41.51635],[1.91526,41.51668],[1.91457,41.51672],[1.91393,41.5165],[1.9136,41.51657],[1.91303,41.51765],[1.91319,41.5189],[1.91353,41.51941]]]}},{"type":"Feature","properties":{"id":"0800101008"},"geometry":{"type":"Polygon","coordinates":[[[1.90389,41.52145],[1.90133,41.52134],[1.89808,41.52177],[1.8982,41.52229],[1.8978,41.52157],[1.89537,41.52505],[1.8973,41.52557],[1.89782,41.52696],[1.90081,41.52677],[1.903,41.52838],[1.90601,41.52925],[1.90679,41.52742],[1.90688,41.52604],[1.90683,41.52316],[1.90653,41.523],[1.90631,41.52248],[1.90588,41.52214],[1.90566,41.52204],[1.90437,41.52194],[1.90422,41.52161],[1.90389,41.52145]]]}},{"type":"Feature","properties":{"id":"0800101009"},"geometry":{"type":"Polygon","coordinates":[[[1.93863,41.52884],[1.93845,41.52863],[1.9384,41.52793],[1.93861,41.52741],[1.93832,41.52664],[1.93776,41.52691],[1.93701,41.52477],[1.9368,41.52392],[1.9367,41.52233],[1.93652,41.52163],[1.93777,41.52104],[1.93783,41.52054],[1.93769,41.52],[1.93733,41.51933],[1.93817,41.51837],[1.93695,41.51826],[1.93644,41.51864],[1.93336,41.51938],[1.93344,41.51917],[1.93305,41.51898],[1.93257,41.51903],[1.93232,41.51941],[1.93182,41.51954],[1.93118,41.51942],[1.93096,41.51886],[1.93051,41.51834],[1.92987,41.51789],[1.92812,41.5182],[1.92663,41.51858],[1.92632,41.51858],[1.92626,41.51875],[1.92539,41.519],[1.92525,41.51882],[1.92503,41.51892],[1.92487,41.51885],[1.92487,41.51853],[1.92472,41.5185],[1.92458,41.51867],[1.92432,41.51865],[1.92444,41.51813],[1.92432,41.51788],[1.92378,41.51817],[1.92314,41.51803],[1.92262,41.51819],[1.9223,41.51808],[1.92201,41.51854],[1.9213,41.51851],[1.9211,41.51892],[1.92085,41.51899],[1.92027,41.51871],[1.91971,41.51892],[1.91353,41.51941],[1.91376,41.51992],[1.91364,41.52055],[1.91414,41.52189],[1.91476,41.52293],[1.9148,41.52426],[1.91429,41.52512],[1.91284,41.52694],[1.91226,41.52728],[1.91149,41.52756],[1.9112,41.52792],[1.91106,41.52878],[1.91127,41.52977],[1.9115,41.53019],[1.91216,41.53028],[1.91184,41.53208],[1.91187,41.53268],[1.91301,41.53334],[1.91367,41.53313],[1.91393,41.53368],[1.91575,41.53401],[1.91612,41.53539],[1.91724,41.53572],[1.91763,41.53548],[1.91785,41.53581],[1.91846,41.53565],[1.9214,41.53734],[1.92518,41.5366],[1.93249,41.5367],[1.93238,41.53643],[1.93327,41.53605],[1.93434,41.53378],[1.93616,41.53286],[1.93663,41.53213],[1.93664,41.53019],[1.93863,41.52884]]]}}]}