{"type":"FeatureCollection","features":[{"type":"Feature","properties":{"id":"0801801001"},"geometry":{"type":"Polygon","coordinates":[[[1.87866,41.86283],[1.87762,41.86293],[1.87648,41.86329],[1.8755,41.86422],[1.87432,41.86432],[1.87183,41.85995],[1.87129,41.85871],[1.87125,41.85819],[1.87098,41.85923],[1.87088,41.86077],[1.87067,41.86134],[1.87034,41.86182],[1.87016,41.86249],[1.87019,41.86337],[1.8705,41.86404],[1.87331,41.86806],[1.8755,41.86691],[1.87674,41.86704],[1.87774,41.86669],[1.87801,41.86561],[1.87782,41.86525],[1.87765,41.86402],[1.87783,41.86382],[1.87876,41.86348],[1.87884,41.86306],[1.87866,41.86283]]]}},{"type":"Feature","properties":{"id":"0801801002"},"geometry":{"type":"Polygon","coordinates":[[[1.90475,41.8997],[1.90593,41.89631],[1.90847,41.8931],[1.91012,41.89214],[1.91178,41.88972],[1.91378,41.88881],[1.91407,41.88701],[1.90869,41.88294],[1.90614,41.88176],[1.90489,41.8782],[1.90527,41.87726],[1.9033,41.87399],[1.90187,41.87227],[1.90257,41.8688],[1.89897,41.8655],[1.89781,41.86363],[1.89771,41.86195],[1.89687,41.86013],[1.89741,41.85927],[1.89701,41.85593],[1.8974,41.85526],[1.89638,41.85401],[1.89249,41.85195],[1.88661,41.84467],[1.88292,41.84306],[1.8832,41.84253],[1.87985,41.84022],[1.88,41.83772],[1.87958,41.83564],[1.87737,41.83469],[1.87612,41.83458],[1.87454,41.8351],[1.87281,41.83419],[1.8704,41.83177],[1.86968,41.83221],[1.86491,41.8327],[1.86207,41.83257],[1.85732,41.83256],[1.85633,41.83221],[1.85361,41.83244],[1.85242,41.83223],[1.85007,41.83216],[1.84971,41.83229],[1.84941,41.83257],[1.84881,41.83273],[1.84827,41.83339],[1.84771,41.8336],[1.84587,41.83367],[1.84481,41.83407],[1.84298,41.83524],[1.84238,41.83576],[1.84198,41.8363],[1.84186,41.8369],[1.84197,41.8376],[1.8418,41.83817],[1.84099,41.83934],[1.8407,41.8402],[1.84063,41.84077],[1.84075,41.84303],[1.84027,41.84378],[1.83821,41.84472],[1.83445,41.84538],[1.83411,41.84559],[1.83235,41.84785],[1.83217,41.84825],[1.83196,41.84949],[1.83026,41.8516],[1.82982,41.85255],[1.82956,41.85281],[1.82845,41.85324],[1.82784,41.85327],[1.82672,41.85312],[1.82548,41.85384],[1.82478,41.85404],[1.82453,41.85445],[1.82426,41.85531],[1.82331,41.85646],[1.82212,41.85758],[1.8211,41.85913],[1.8202,41.86015],[1.8209,41.86167],[1.82067,41.8621],[1.82041,41.86385],[1.82184,41.86498],[1.82192,41.86582],[1.82215,41.86638],[1.81294,41.87563],[1.81268,41.87554],[1.81237,41.87578],[1.81431,41.87675],[1.81603,41.87728],[1.81922,41.87747],[1.82064,41.87808],[1.82219,41.87842],[1.82293,41.8785],[1.82437,41.87832],[1.82603,41.87881],[1.82775,41.87946],[1.82941,41.87979],[1.83008,41.88007],[1.83082,41.88075],[1.83233,41.88092],[1.83351,41.88141],[1.83424,41.8818],[1.83432,41.88201],[1.83468,41.88217],[1.83486,41.88213],[1.83527,41.88178],[1.83678,41.881],[1.83747,41.88033],[1.83789,41.8797],[1.83821,41.87948],[1.83842,41.87958],[1.83875,41.88005],[1.83916,41.88027],[1.83977,41.88038],[1.84039,41.8803],[1.84148,41.88037],[1.84307,41.88164],[1.84348,41.8817],[1.84417,41.88145],[1.84563,41.88148],[1.85061,41.88322],[1.85228,41.88398],[1.85231,41.88415],[1.8533,41.88452],[1.85431,41.88559],[1.8548,41.8856],[1.85667,41.88523],[1.85722,41.88472],[1.85807,41.88464],[1.85897,41.8843],[1.85969,41.88416],[1.86057,41.88444],[1.86129,41.88502],[1.8623,41.88625],[1.86238,41.88652],[1.86366,41.88751],[1.86402,41.88794],[1.86479,41.88955],[1.86811,41.89244],[1.86773,41.89301],[1.86883,41.89326],[1.87007,41.89372],[1.87137,41.89396],[1.87638,41.89554],[1.87879,41.89687],[1.88018,41.89716],[1.88053,41.89747],[1.88164,41.89765],[1.88215,41.89754],[1.88292,41.89766],[1.88333,41.89828],[1.88482,41.89902],[1.88602,41.89841],[1.88642,41.89854],[1.88646,41.89926],[1.88743,41.89923],[1.89051,41.89952],[1.89568,41.89854],[1.89646,41.89849],[1.90247,41.89923],[1.90475,41.8997]],[[1.87098,41.85923],[1.87125,41.85819],[1.87129,41.85871],[1.87183,41.85995],[1.87432,41.86432],[1.8755,41.86422],[1.87648,41.86329],[1.87762,41.86293],[1.87866,41.86283],[1.87884,41.86306],[1.87876,41.86348],[1.87783,41.86382],[1.87765,41.86402],[1.87782,41.86525],[1.87801,41.86561],[1.87774,41.86669],[1.87674,41.86704],[1.8755,41.86691],[1.87331,41.86806],[1.8705,41.86404],[1.87019,41.86337],[1.87016,41.86249],[1.87034,41.86182],[1.87067,41.86134],[1.87088,41.86077],[1.87098,41.85923]]]}}]}