{"type":"FeatureCollection","features":[{"type":"Feature","properties":{"id":"0802301001"},"geometry":{"type":"Polygon","coordinates":[[[2.24685,41.67857],[2.24651,41.6782],[2.24399,41.67713],[2.24139,41.67462],[2.24127,41.6746],[2.23952,41.67202],[2.2369,41.67094],[2.23631,41.67038],[2.23362,41.66854],[2.23354,41.66833],[2.23295,41.6682],[2.23263,41.66785],[2.23248,41.66741],[2.23147,41.66583],[2.23122,41.66527],[2.22721,41.66517],[2.22711,41.66224],[2.22456,41.6623],[2.21808,41.67885],[2.22223,41.68695],[2.24083,41.68811],[2.24287,41.68635],[2.24352,41.68527],[2.24429,41.68442],[2.24517,41.6832],[2.24599,41.68258],[2.24628,41.68225],[2.2465,41.68149],[2.24615,41.68019],[2.2468,41.67909],[2.24685,41.67857]]]}},{"type":"Feature","properties":{"id":"0802301002"},"geometry":{"type":"Polygon","coordinates":[[[2.24165,41.70375],[2.24138,41.70365],[2.24158,41.70331],[2.24125,41.70277],[2.23995,41.702],[2.23778,41.70107],[2.23264,41.69673],[2.23681,41.69482],[2.23781,41.6928],[2.23806,41.69249],[2.23793,41.6917],[2.2374,41.69155],[2.23744,41.69068],[2.23764,41.6903],[2.24,41.68883],[2.24083,41.68811],[2.22223,41.68695],[2.21808,41.67885],[2.22456,41.6623],[2.22377,41.66232],[2.22222,41.66084],[2.21604,41.66461],[2.21465,41.66573],[2.21391,41.66677],[2.20827,41.67082],[2.20815,41.67225],[2.20735,41.67282],[2.2063,41.67271],[2.20602,41.67278],[2.20561,41.67332],[2.20591,41.67343],[2.20567,41.67368],[2.2053,41.67395],[2.205,41.67375],[2.20401,41.67441],[2.2025,41.67459],[2.19118,41.6735],[2.16902,41.67886],[2.16922,41.67899],[2.17004,41.6809],[2.17115,41.68181],[2.17147,41.68249],[2.1719,41.68283],[2.17213,41.6832],[2.17228,41.68401],[2.17269,41.68423],[2.17626,41.68454],[2.17761,41.68443],[2.17826,41.68448],[2.17894,41.68468],[2.18089,41.68593],[2.18174,41.68609],[2.18223,41.68629],[2.18272,41.68672],[2.20784,41.68737],[2.21383,41.70437],[2.21405,41.70426],[2.21592,41.70436],[2.21765,41.70474],[2.21973,41.70537],[2.22063,41.70549],[2.22125,41.70545],[2.22163,41.70522],[2.22327,41.70557],[2.22478,41.70631],[2.22541,41.7069],[2.227,41.70766],[2.22949,41.70832],[2.23074,41.70841],[2.23175,41.70867],[2.23275,41.70878],[2.23346,41.70903],[2.23743,41.70876],[2.23796,41.70884],[2.23849,41.70878],[2.24078,41.70533],[2.24165,41.70375]]]}},{"type":"Feature","properties":{"id":"0802301003"},"geometry":{"type":"Polygon","coordinates":[[[2.20401,41.67441],[2.205,41.67375],[2.2053,41.67395],[2.20567,41.67368],[2.20591,41.67343],[2.20561,41.67332],[2.20602,41.67278],[2.2063,41.67271],[2.20735,41.67282],[2.20815,41.67225],[2.20827,41.67082],[2.21391,41.66677],[2.21465,41.66573],[2.21604,41.66461],[2.22222,41.66084],[2.22151,41.66012],[2.21756,41.65973],[2.20744,41.6598],[2.20637,41.66197],[2.20537,41.66248],[2.20489,41.66297],[2.20468,41.66343],[2.20421,41.66363],[2.2048,41.66473],[2.20484,41.66513],[2.20461,41.66541],[2.20472,41.66581],[2.20552,41.66638],[2.20554,41.66654],[2.205,41.66715],[2.20468,41.66708],[2.20409,41.66658],[2.20395,41.66658],[2.20346,41.66684],[2.203,41.66682],[2.20311,41.66659],[2.20307,41.66626],[2.20276,41.66572],[2.20253,41.66555],[2.20239,41.66519],[2.20206,41.66493],[2.20209,41.6648],[2.20234,41.66465],[2.20228,41.66457],[2.2009,41.66351],[2.19985,41.66346],[2.19891,41.66311],[2.1996,41.6628],[2.19902,41.66192],[2.19812,41.66147],[2.19781,41.66121],[2.19768,41.66044],[2.19723,41.65973],[2.19716,41.65939],[2.19679,41.65868],[2.19604,41.65794],[2.19648,41.65739],[2.19648,41.65651],[2.19546,41.65579],[2.19505,41.6557],[2.19261,41.658],[2.1881,41.66255],[2.18797,41.66319],[2.18777,41.66349],[2.18696,41.66434],[2.18679,41.66481],[2.18635,41.66515],[2.18639,41.66546],[2.18686,41.66552],[2.18698,41.66533],[2.18753,41.66553],[2.18667,41.66659],[2.18743,41.66679],[2.18832,41.66624],[2.1886,41.66627],[2.18872,41.6664],[2.18869,41.66653],[2.18805,41.66709],[2.18797,41.66735],[2.18822,41.66746],[2.18915,41.66735],[2.18934,41.6674],[2.18967,41.66803],[2.19056,41.66876],[2.18994,41.66931],[2.19118,41.6735],[2.2025,41.67459],[2.20401,41.67441]]]}},{"type":"Feature","properties":{"id":"0802301004"},"geometry":{"type":"Polygon","coordinates":[[[2.19118,41.6735],[2.18994,41.66931],[2.19056,41.66876],[2.18967,41.66803],[2.18934,41.6674],[2.18915,41.66735],[2.18822,41.66746],[2.18797,41.66735],[2.18805,41.66709],[2.18869,41.66653],[2.18872,41.6664],[2.1886,41.66627],[2.18832,41.66624],[2.18743,41.66679],[2.18667,41.66659],[2.18753,41.66553],[2.18698,41.66533],[2.18686,41.66552],[2.18639,41.66546],[2.18635,41.66515],[2.18679,41.66481],[2.18696,41.66434],[2.18777,41.66349],[2.18797,41.66319],[2.1881,41.66255],[2.19261,41.658],[2.19505,41.6557],[2.19403,41.65479],[2.19392,41.6544],[2.19412,41.65405],[2.19416,41.65359],[2.19449,41.65305],[2.19427,41.65269],[2.19419,41.6522],[2.1935,41.65165],[2.19295,41.65166],[2.19246,41.65116],[2.19106,41.65104],[2.19033,41.65124],[2.19009,41.65119],[2.18983,41.651],[2.18993,41.65065],[2.18986,41.65056],[2.18774,41.65043],[2.18711,41.65023],[2.18701,41.65008],[2.18268,41.65561],[2.18212,41.6562],[2.18115,41.65807],[2.18061,41.65809],[2.1798,41.65907],[2.17898,41.65912],[2.17749,41.65942],[2.17437,41.66027],[2.17042,41.65973],[2.17023,41.65985],[2.16904,41.65972],[2.16897,41.65954],[2.167,41.65927],[2.16529,41.65827],[2.16394,41.65799],[2.16395,41.65846],[2.16341,41.65898],[2.16325,41.65966],[2.16331,41.66054],[2.163,41.66131],[2.16302,41.66149],[2.16322,41.66169],[2.16331,41.66263],[2.16389,41.66337],[2.16408,41.66345],[2.16409,41.66396],[2.1639,41.66425],[2.16395,41.66467],[2.1643,41.66506],[2.16458,41.66618],[2.1647,41.66621],[2.16496,41.66676],[2.16473,41.66686],[2.16499,41.66752],[2.16381,41.66794],[2.16386,41.66862],[2.16565,41.67146],[2.16521,41.67317],[2.1642,41.67443],[2.1641,41.67468],[2.16424,41.6753],[2.16495,41.67635],[2.16514,41.67706],[2.1674,41.67784],[2.16902,41.67886],[2.19118,41.6735]]]}},{"type":"Feature","properties":{"id":"0802301005"},"geometry":{"type":"Polygon","coordinates":[[[2.18272,41.68672],[2.18373,41.6872],[2.18434,41.68791],[2.18567,41.68874],[2.18623,41.68975],[2.18653,41.69008],[2.18711,41.69028],[2.188,41.69075],[2.18853,41.69121],[2.18891,41.69177],[2.1861,41.69798],[2.18597,41.69879],[2.18624,41.69974],[2.186,41.70016],[2.18501,41.70126],[2.18516,41.70196],[2.18515,41.70264],[2.18584,41.70606],[2.18575,41.70737],[2.18595,41.7077],[2.1864,41.70791],[2.18653,41.70899],[2.18696,41.71004],[2.18671,41.71018],[2.1865,41.7101],[2.18635,41.71019],[2.18655,41.71046],[2.187,41.71048],[2.18721,41.71071],[2.18709,41.71119],[2.18739,41.71201],[2.18908,41.7138],[2.18908,41.71482],[2.19093,41.71591],[2.19201,41.71555],[2.1923,41.71502],[2.19246,41.71305],[2.19308,41.71168],[2.19376,41.71052],[2.19399,41.71037],[2.19438,41.71031],[2.19486,41.71041],[2.19537,41.71028],[2.19549,41.70879],[2.19585,41.70853],[2.1961,41.70763],[2.19599,41.70699],[2.19627,41.70672],[2.1967,41.70666],[2.19891,41.7072],[2.19971,41.70729],[2.2014,41.70794],[2.20235,41.70855],[2.20357,41.70907],[2.20463,41.709],[2.20545,41.70974],[2.20614,41.70989],[2.20681,41.71078],[2.20726,41.71081],[2.20792,41.71031],[2.20818,41.70975],[2.20855,41.70938],[2.20877,41.70933],[2.20913,41.70954],[2.20945,41.70998],[2.21071,41.7111],[2.21123,41.71131],[2.21173,41.71131],[2.21223,41.7093],[2.2127,41.70845],[2.21306,41.70808],[2.21368,41.70797],[2.21416,41.70804],[2.2145,41.70791],[2.21444,41.7071],[2.21503,41.70686],[2.21532,41.70655],[2.21515,41.70621],[2.21434,41.7057],[2.21365,41.70497],[2.21358,41.70449],[2.21383,41.70437],[2.20784,41.68737],[2.18272,41.68672]]]}}]}