{"type":"FeatureCollection","features":[{"type":"Feature","properties":{"id":"0804401001"},"geometry":{"type":"Polygon","coordinates":[[[1.69765,41.52864],[1.69084,41.52864],[1.69086,41.53044],[1.69045,41.53165],[1.68997,41.53229],[1.68842,41.5314],[1.68736,41.531],[1.68712,41.53078],[1.68653,41.5306],[1.6863,41.53062],[1.68607,41.53099],[1.68443,41.53031],[1.68365,41.53013],[1.68365,41.53124],[1.68263,41.53124],[1.68182,41.53102],[1.68222,41.53026],[1.68155,41.52996],[1.6811,41.52989],[1.68063,41.53013],[1.6804,41.52983],[1.67765,41.52965],[1.67671,41.53105],[1.68297,41.53482],[1.68601,41.53761],[1.6895,41.53764],[1.69029,41.5358],[1.70222,41.54129],[1.70226,41.54166],[1.70322,41.54063],[1.70338,41.54026],[1.7036,41.53917],[1.70361,41.53746],[1.70275,41.53704],[1.70238,41.53637],[1.70215,41.53616],[1.70191,41.53607],[1.70094,41.53606],[1.70065,41.53598],[1.69968,41.53504],[1.69846,41.53369],[1.69824,41.53333],[1.69792,41.53323],[1.69796,41.53212],[1.69697,41.53118],[1.69674,41.53066],[1.6969,41.52999],[1.69755,41.52945],[1.69758,41.52898],[1.6977,41.5288],[1.69765,41.52864]]]}},{"type":"Feature","properties":{"id":"0804402001"},"geometry":{"type":"Polygon","coordinates":[[[1.68607,41.53099],[1.68686,41.52972],[1.68699,41.52902],[1.68444,41.52883],[1.68438,41.52574],[1.68398,41.52559],[1.68368,41.52521],[1.68331,41.52517],[1.68282,41.52588],[1.68266,41.52578],[1.68248,41.52593],[1.68219,41.52588],[1.68211,41.52612],[1.68229,41.52621],[1.68208,41.52638],[1.68204,41.52661],[1.6815,41.5262],[1.68164,41.52569],[1.68147,41.52525],[1.68066,41.52466],[1.67946,41.5267],[1.67899,41.52713],[1.67795,41.52798],[1.67572,41.52904],[1.6765,41.53013],[1.67765,41.52965],[1.6804,41.52983],[1.68063,41.53013],[1.68107,41.52988],[1.68155,41.52996],[1.68222,41.53026],[1.68182,41.53102],[1.68263,41.53124],[1.68365,41.53124],[1.68365,41.53013],[1.68443,41.53031],[1.68607,41.53099]]]}},{"type":"Feature","properties":{"id":"0804402002"},"geometry":{"type":"Polygon","coordinates":[[[1.69765,41.52864],[1.69676,41.52696],[1.6957,41.52621],[1.69548,41.52581],[1.69544,41.52533],[1.6947,41.52427],[1.69342,41.52289],[1.69234,41.52248],[1.69256,41.52205],[1.6923,41.52208],[1.69233,41.5226],[1.69115,41.52261],[1.68918,41.52306],[1.68869,41.52309],[1.68803,41.52275],[1.68661,41.52259],[1.68558,41.52213],[1.68517,41.52213],[1.68482,41.52194],[1.68385,41.52189],[1.68277,41.52153],[1.68177,41.52098],[1.68138,41.52048],[1.68064,41.51879],[1.68039,41.5175],[1.67993,41.51631],[1.6799,41.51502],[1.67971,41.5137],[1.67508,41.51696],[1.67609,41.51794],[1.67613,41.51808],[1.67588,41.51847],[1.67592,41.51879],[1.67718,41.51999],[1.6772,41.52018],[1.67693,41.52061],[1.6769,41.52116],[1.67764,41.52239],[1.67844,41.52265],[1.67879,41.5227],[1.67927,41.52262],[1.6794,41.52286],[1.68033,41.52331],[1.68015,41.52359],[1.68062,41.52397],[1.68066,41.52466],[1.68147,41.52525],[1.68164,41.52569],[1.6815,41.5262],[1.68204,41.52661],[1.68208,41.52638],[1.68229,41.52621],[1.68211,41.52612],[1.68219,41.52588],[1.68248,41.52593],[1.68266,41.52578],[1.68282,41.52588],[1.68331,41.52517],[1.68368,41.52521],[1.68398,41.52559],[1.68438,41.52574],[1.68444,41.52883],[1.68699,41.52902],[1.68686,41.52972],[1.68633,41.53062],[1.68653,41.5306],[1.68712,41.53078],[1.68736,41.531],[1.68842,41.5314],[1.68997,41.53229],[1.69045,41.53165],[1.69086,41.53044],[1.69084,41.52864],[1.69765,41.52864]]]}}]}