{"type":"FeatureCollection","features":[{"type":"Feature","properties":{"id":"0806801001"},"geometry":{"type":"Polygon","coordinates":[[[1.995,41.40249],[1.99367,41.40175],[1.99197,41.40134],[1.98847,41.40019],[1.98757,41.39898],[1.98628,41.39843],[1.98557,41.39793],[1.98508,41.39781],[1.98457,41.39783],[1.98339,41.39801],[1.98183,41.39846],[1.98049,41.39838],[1.97946,41.39847],[1.97875,41.39836],[1.97678,41.39774],[1.97588,41.39781],[1.97574,41.3977],[1.97583,41.39735],[1.97567,41.39714],[1.97533,41.39703],[1.97376,41.39769],[1.97273,41.39719],[1.97129,41.3972],[1.97091,41.39702],[1.9705,41.39614],[1.97053,41.3957],[1.97018,41.3953],[1.96808,41.39469],[1.96613,41.39455],[1.96523,41.39402],[1.96476,41.39389],[1.95949,41.39372],[1.95912,41.39363],[1.95771,41.39288],[1.95738,41.39293],[1.95718,41.39307],[1.95683,41.39364],[1.95631,41.39403],[1.95558,41.39432],[1.95454,41.3945],[1.95432,41.39477],[1.954,41.39481],[1.9536,41.39469],[1.95292,41.39411],[1.95284,41.39385],[1.95302,41.39338],[1.95353,41.39305],[1.95322,41.39276],[1.95217,41.39249],[1.95078,41.39283],[1.95038,41.39271],[1.94852,41.3916],[1.9475,41.39039],[1.94738,41.39009],[1.94765,41.3889],[1.94743,41.38841],[1.94694,41.38785],[1.94584,41.38936],[1.94635,41.38994],[1.94754,41.3923],[1.94827,41.39285],[1.94894,41.39311],[1.95093,41.39348],[1.95124,41.39361],[1.9529,41.3955],[1.95328,41.39564],[1.96607,41.3971],[1.96943,41.39736],[1.97066,41.3976],[1.97321,41.39827],[1.97584,41.3986],[1.97986,41.399],[1.9846,41.39922],[1.98701,41.40047],[1.99335,41.40327],[1.99409,41.40346],[1.995,41.40249]]]}},{"type":"Feature","properties":{"id":"0806801002"},"geometry":{"type":"Polygon","coordinates":[[[1.99409,41.40346],[1.99335,41.40327],[1.98942,41.40155],[1.98701,41.40047],[1.9846,41.39922],[1.97986,41.399],[1.97584,41.3986],[1.97321,41.39827],[1.97066,41.3976],[1.96943,41.39736],[1.96607,41.3971],[1.95328,41.39564],[1.9529,41.3955],[1.95124,41.39361],[1.95093,41.39348],[1.94894,41.39311],[1.94827,41.39285],[1.94754,41.3923],[1.94635,41.38994],[1.94584,41.38936],[1.9452,41.38944],[1.94112,41.39629],[1.93786,41.39786],[1.93362,41.39863],[1.9338,41.39964],[1.9336,41.40078],[1.93237,41.40252],[1.9324,41.40308],[1.93285,41.4034],[1.9369,41.40386],[1.93844,41.40507],[1.94176,41.40715],[1.94483,41.40675],[1.94525,41.40694],[1.94617,41.40498],[1.94601,41.40384],[1.94849,41.40344],[1.94874,41.40319],[1.94955,41.40329],[1.94953,41.40294],[1.95031,41.40292],[1.95254,41.40376],[1.95354,41.40555],[1.95385,41.4059],[1.95543,41.40693],[1.96034,41.40881],[1.96185,41.40884],[1.96249,41.40853],[1.96386,41.40859],[1.96396,41.40834],[1.96426,41.40811],[1.96424,41.40783],[1.96354,41.40721],[1.96392,41.40721],[1.9641,41.40702],[1.96404,41.40672],[1.96425,41.40631],[1.96453,41.40611],[1.9654,41.40621],[1.96579,41.40602],[1.96651,41.40663],[1.96689,41.40663],[1.96699,41.40646],[1.96683,41.40598],[1.96693,41.40472],[1.96783,41.40481],[1.96952,41.40405],[1.97174,41.40353],[1.97273,41.4032],[1.9729,41.40308],[1.973,41.40266],[1.97366,41.40188],[1.97377,41.40123],[1.97398,41.401],[1.97472,41.40065],[1.97582,41.40053],[1.97595,41.40086],[1.97769,41.40084],[1.97788,41.40067],[1.97887,41.40089],[1.97982,41.39985],[1.98037,41.39995],[1.98144,41.39993],[1.98164,41.40002],[1.98239,41.39986],[1.98284,41.39987],[1.98426,41.40062],[1.98514,41.4013],[1.98551,41.40173],[1.98607,41.40277],[1.98658,41.40478],[1.98727,41.40576],[1.98934,41.40779],[1.99154,41.40453],[1.99275,41.4038],[1.99378,41.40379],[1.99409,41.40346]]]}},{"type":"Feature","properties":{"id":"0806801003"},"geometry":{"type":"Polygon","coordinates":[[[1.93715,41.41479],[1.93733,41.41496],[1.93821,41.4145],[1.9394,41.41467],[1.94018,41.41439],[1.94041,41.41367],[1.94023,41.41266],[1.94155,41.4105],[1.93995,41.40771],[1.93956,41.40732],[1.93888,41.40688],[1.93868,41.40663],[1.93856,41.4062],[1.93865,41.40521],[1.9369,41.40386],[1.93285,41.4034],[1.9324,41.40308],[1.93237,41.40252],[1.9336,41.40078],[1.9338,41.39964],[1.93362,41.39863],[1.93343,41.39867],[1.93212,41.39752],[1.93139,41.39796],[1.92867,41.39634],[1.92771,41.39638],[1.92826,41.39425],[1.9276,41.39359],[1.92468,41.39266],[1.92265,41.39098],[1.92247,41.38988],[1.91754,41.38824],[1.91623,41.38932],[1.91084,41.38977],[1.90864,41.38958],[1.90057,41.39076],[1.89681,41.38986],[1.89249,41.38982],[1.87867,41.38885],[1.87678,41.38949],[1.87507,41.39496],[1.87592,41.39889],[1.87657,41.39955],[1.87797,41.40409],[1.87958,41.40509],[1.88287,41.40551],[1.88325,41.40678],[1.88418,41.4075],[1.88545,41.40811],[1.88538,41.40816],[1.88591,41.40824],[1.88687,41.40817],[1.88712,41.40828],[1.88765,41.40822],[1.88836,41.40826],[1.89047,41.4079],[1.89174,41.40711],[1.8923,41.40694],[1.89417,41.40758],[1.89481,41.40765],[1.89695,41.40762],[1.89853,41.40831],[1.89983,41.40834],[1.89969,41.40807],[1.90054,41.40695],[1.9045,41.40476],[1.90433,41.40464],[1.90526,41.40467],[1.90689,41.40442],[1.90793,41.40462],[1.90849,41.4045],[1.90935,41.40498],[1.91075,41.40536],[1.91132,41.40543],[1.91244,41.40536],[1.91304,41.40516],[1.91322,41.40534],[1.91486,41.40523],[1.91527,41.40566],[1.91535,41.40607],[1.91583,41.40656],[1.91669,41.40625],[1.9175,41.40622],[1.91863,41.40644],[1.91965,41.40677],[1.92001,41.40668],[1.92028,41.40675],[1.92168,41.40908],[1.9219,41.4091],[1.9221,41.409],[1.92307,41.40793],[1.92347,41.40782],[1.92364,41.40786],[1.92384,41.40809],[1.92449,41.40834],[1.92471,41.40892],[1.9251,41.40928],[1.92599,41.40977],[1.92641,41.41055],[1.92713,41.41152],[1.92835,41.41192],[1.92871,41.41243],[1.93022,41.41328],[1.93119,41.41367],[1.93201,41.41432],[1.93287,41.41482],[1.93352,41.41487],[1.93485,41.41453],[1.93535,41.41453],[1.93669,41.4152],[1.93715,41.41479]]]}},{"type":"Feature","properties":{"id":"0806801004"},"geometry":{"type":"Polygon","coordinates":[[[1.98242,41.37233],[1.98289,41.37174],[1.98145,41.36961],[1.98194,41.3693],[1.98085,41.36857],[1.9796,41.36855],[1.97762,41.36755],[1.97374,41.36728],[1.97285,41.36686],[1.97122,41.36665],[1.96506,41.36466],[1.96434,41.36533],[1.95975,41.36623],[1.95497,41.36737],[1.95423,41.36777],[1.95341,41.368],[1.95075,41.36973],[1.95033,41.37277],[1.95079,41.37487],[1.94958,41.37556],[1.94879,41.37808],[1.94954,41.37848],[1.94893,41.38505],[1.94694,41.38785],[1.94743,41.38841],[1.94765,41.3889],[1.94738,41.39009],[1.9475,41.39039],[1.94852,41.3916],[1.95038,41.39271],[1.95078,41.39283],[1.95217,41.39249],[1.95322,41.39276],[1.95353,41.39305],[1.95302,41.39338],[1.95284,41.39385],[1.95292,41.39411],[1.9536,41.39469],[1.954,41.39481],[1.95432,41.39477],[1.95454,41.3945],[1.95558,41.39432],[1.95631,41.39403],[1.95683,41.39364],[1.95718,41.39307],[1.95738,41.39293],[1.95771,41.39288],[1.95912,41.39363],[1.95949,41.39372],[1.96476,41.39389],[1.96523,41.39402],[1.96613,41.39455],[1.96808,41.39469],[1.97018,41.3953],[1.97053,41.3957],[1.9705,41.39614],[1.97091,41.39702],[1.97129,41.3972],[1.97273,41.39719],[1.97376,41.39769],[1.97533,41.39703],[1.97567,41.39714],[1.97583,41.39735],[1.97574,41.3977],[1.97588,41.39781],[1.97678,41.39774],[1.97875,41.39836],[1.97946,41.39847],[1.98083,41.39842],[1.98094,41.3974],[1.97958,41.39545],[1.97874,41.39462],[1.97823,41.39388],[1.97841,41.39249],[1.97839,41.39197],[1.9782,41.39161],[1.97714,41.39103],[1.97617,41.38991],[1.97583,41.38904],[1.97522,41.38809],[1.97512,41.3877],[1.97478,41.38732],[1.97425,41.38632],[1.97367,41.38395],[1.97337,41.38175],[1.97303,41.38065],[1.97232,41.37922],[1.97232,41.37821],[1.97289,41.37789],[1.9728,41.37662],[1.97322,41.3766],[1.97314,41.37645],[1.97415,41.37632],[1.97431,41.37661],[1.97487,41.37651],[1.97551,41.3765],[1.97593,41.37558],[1.97595,41.37497],[1.9765,41.37428],[1.97801,41.37414],[1.97813,41.37384],[1.97951,41.37341],[1.98021,41.37337],[1.98059,41.37323],[1.98087,41.37271],[1.98154,41.37231],[1.98242,41.37233]]]}},{"type":"Feature","properties":{"id":"0806801005"},"geometry":{"type":"Polygon","coordinates":[[[1.99506,41.39588],[1.99229,41.39439],[1.98983,41.39412],[1.98934,41.39434],[1.9886,41.39369],[1.98835,41.39339],[1.98762,41.39187],[1.98604,41.39009],[1.98629,41.38902],[1.98352,41.38682],[1.98127,41.38149],[1.98218,41.38057],[1.97956,41.38034],[1.97914,41.38022],[1.97959,41.3785],[1.98012,41.37777],[1.9847,41.3766],[1.98617,41.37559],[1.98926,41.37678],[1.99077,41.37599],[1.98716,41.37284],[1.98233,41.37244],[1.98242,41.37233],[1.98154,41.37231],[1.98087,41.37271],[1.98059,41.37323],[1.98021,41.37337],[1.97951,41.37341],[1.97813,41.37384],[1.97801,41.37414],[1.9765,41.37428],[1.97595,41.37497],[1.97593,41.37558],[1.97551,41.3765],[1.97487,41.37651],[1.97431,41.37661],[1.97415,41.37632],[1.97314,41.37645],[1.97322,41.3766],[1.9728,41.37662],[1.97289,41.37789],[1.97232,41.37821],[1.97232,41.37922],[1.97303,41.38065],[1.97337,41.38175],[1.97367,41.38395],[1.97425,41.38632],[1.97478,41.38732],[1.97512,41.3877],[1.97522,41.38809],[1.97583,41.38904],[1.97617,41.38991],[1.97714,41.39103],[1.9782,41.39161],[1.97839,41.39197],[1.97841,41.39249],[1.97823,41.39388],[1.97874,41.39462],[1.97958,41.39545],[1.98094,41.3974],[1.98083,41.39842],[1.98183,41.39846],[1.98339,41.39801],[1.98457,41.39783],[1.98508,41.39781],[1.98557,41.39793],[1.98628,41.39843],[1.98757,41.39898],[1.98847,41.40019],[1.99197,41.40134],[1.99367,41.40175],[1.995,41.40249],[1.99572,41.40173],[1.99506,41.39588]]]}}]}