{"type":"FeatureCollection","features":[{"type":"Feature","properties":{"id":"0807501001"},"geometry":{"type":"Polygon","coordinates":[[[2.43912,41.61075],[2.44146,41.60509],[2.44065,41.60513],[2.4401,41.60458],[2.43964,41.60456],[2.43801,41.60388],[2.43696,41.60286],[2.43568,41.60269],[2.43589,41.60223],[2.43474,41.60179],[2.43036,41.59144],[2.43123,41.57902],[2.42063,41.57665],[2.41554,41.5769],[2.412,41.57827],[2.40997,41.57834],[2.40592,41.5794],[2.39985,41.57552],[2.39492,41.57826],[2.39314,41.57993],[2.39237,41.57987],[2.39081,41.58227],[2.38952,41.58309],[2.38841,41.58532],[2.38825,41.59015],[2.38688,41.59294],[2.38173,41.59321],[2.38094,41.59418],[2.37878,41.59361],[2.37542,41.59533],[2.37875,41.59509],[2.38096,41.59504],[2.38305,41.59697],[2.38366,41.59916],[2.38286,41.60006],[2.38457,41.60001],[2.38499,41.60032],[2.38643,41.59982],[2.38776,41.60143],[2.38909,41.60193],[2.38956,41.60322],[2.39096,41.6044],[2.39172,41.60435],[2.39304,41.60343],[2.39371,41.60332],[2.39376,41.60294],[2.39465,41.60332],[2.39568,41.6035],[2.3969,41.60291],[2.39743,41.60282],[2.39754,41.602],[2.40049,41.59778],[2.40244,41.59962],[2.40532,41.59908],[2.40535,41.59854],[2.40642,41.59868],[2.40615,41.59788],[2.40593,41.59768],[2.40724,41.59756],[2.40915,41.59848],[2.41898,41.60951],[2.41991,41.61019],[2.42085,41.60983],[2.42087,41.60962],[2.42134,41.60939],[2.42154,41.60914],[2.42276,41.60906],[2.42382,41.60874],[2.42455,41.60867],[2.42477,41.60887],[2.42497,41.60939],[2.42591,41.60998],[2.42633,41.61049],[2.42665,41.61063],[2.42718,41.61152],[2.42732,41.61203],[2.42781,41.61231],[2.42913,41.61358],[2.42984,41.61482],[2.43162,41.61388],[2.43382,41.61324],[2.43376,41.61401],[2.43336,41.61471],[2.43437,41.61593],[2.43523,41.61724],[2.43718,41.61663],[2.43739,41.61643],[2.44009,41.61544],[2.44025,41.61475],[2.4386,41.6133],[2.43726,41.61239],[2.43669,41.61173],[2.4345,41.611],[2.43402,41.61043],[2.4332,41.61001],[2.43299,41.60964],[2.43222,41.60928],[2.43129,41.60908],[2.43018,41.60802],[2.43247,41.60799],[2.43559,41.60977],[2.43791,41.61084],[2.43912,41.61075]]]}},{"type":"Feature","properties":{"id":"0807501002"},"geometry":{"type":"Polygon","coordinates":[[[2.49654,41.62419],[2.4962,41.62153],[2.48481,41.62166],[2.46791,41.62304],[2.46186,41.62111],[2.44418,41.61323],[2.44349,41.61282],[2.44262,41.61252],[2.4415,41.61179],[2.44064,41.61185],[2.44063,41.61119],[2.43899,41.61071],[2.43791,41.61084],[2.43559,41.60977],[2.43247,41.60799],[2.43018,41.60802],[2.43129,41.60908],[2.43222,41.60928],[2.43299,41.60964],[2.4332,41.61001],[2.43402,41.61043],[2.4345,41.611],[2.43669,41.61173],[2.43726,41.61239],[2.4386,41.6133],[2.44025,41.61475],[2.44009,41.61544],[2.43739,41.61643],[2.43718,41.61663],[2.43523,41.61724],[2.43437,41.61593],[2.43336,41.61471],[2.43376,41.61401],[2.43382,41.61324],[2.43162,41.61388],[2.42984,41.61482],[2.42913,41.61358],[2.42781,41.61231],[2.42732,41.61203],[2.42718,41.61152],[2.42665,41.61063],[2.42633,41.61049],[2.42591,41.60998],[2.42497,41.60939],[2.42477,41.60887],[2.42455,41.60867],[2.42382,41.60874],[2.42276,41.60906],[2.42154,41.60914],[2.42134,41.60939],[2.42087,41.60962],[2.42085,41.60983],[2.41991,41.61019],[2.41898,41.60951],[2.40915,41.59848],[2.40724,41.59756],[2.40593,41.59768],[2.40615,41.59788],[2.40642,41.59868],[2.40535,41.59854],[2.40532,41.59908],[2.40244,41.59962],[2.40049,41.59778],[2.39754,41.602],[2.39743,41.60282],[2.3969,41.60291],[2.39568,41.6035],[2.39465,41.60332],[2.39376,41.60294],[2.39371,41.60332],[2.39304,41.60343],[2.39172,41.60435],[2.39096,41.6044],[2.39128,41.60523],[2.39375,41.60623],[2.39453,41.6086],[2.39884,41.60819],[2.40111,41.6076],[2.40144,41.61098],[2.40281,41.61136],[2.40301,41.61283],[2.40498,41.6138],[2.40571,41.61534],[2.40748,41.61715],[2.41052,41.62156],[2.41396,41.62387],[2.41537,41.62624],[2.41615,41.62619],[2.41753,41.62703],[2.41862,41.62702],[2.41922,41.62594],[2.42046,41.62568],[2.42196,41.6305],[2.42445,41.62985],[2.42787,41.62963],[2.4296,41.63002],[2.42938,41.63068],[2.42988,41.63094],[2.43091,41.62958],[2.4319,41.62955],[2.43209,41.63067],[2.43327,41.63049],[2.43386,41.62967],[2.43433,41.6297],[2.43664,41.62833],[2.44107,41.63064],[2.44506,41.62982],[2.44816,41.63046],[2.44779,41.6301],[2.44839,41.62747],[2.45082,41.62629],[2.45307,41.62685],[2.45419,41.62969],[2.45572,41.63102],[2.45726,41.63038],[2.45736,41.62981],[2.45767,41.62932],[2.45742,41.62855],[2.45751,41.62824],[2.45914,41.62854],[2.46107,41.62931],[2.46203,41.62959],[2.46338,41.63052],[2.46385,41.6306],[2.46459,41.63038],[2.46609,41.63047],[2.46738,41.63044],[2.47079,41.62968],[2.47181,41.62975],[2.47241,41.62959],[2.47287,41.62965],[2.47318,41.6305],[2.47347,41.63077],[2.47543,41.63059],[2.47717,41.63075],[2.47814,41.63122],[2.47868,41.63087],[2.47927,41.62996],[2.48013,41.62937],[2.48124,41.62901],[2.48213,41.62934],[2.48294,41.62982],[2.48362,41.63079],[2.48423,41.63107],[2.48501,41.63125],[2.48604,41.63126],[2.48492,41.62989],[2.485,41.62912],[2.48587,41.62839],[2.48625,41.62733],[2.48657,41.62695],[2.48783,41.62642],[2.49023,41.62497],[2.49123,41.62464],[2.49349,41.62434],[2.49407,41.62442],[2.49505,41.62478],[2.49654,41.62419]]]}},{"type":"Feature","properties":{"id":"0807501003"},"geometry":{"type":"Polygon","coordinates":[[[2.4962,41.62153],[2.49582,41.61855],[2.49589,41.61284],[2.4956,41.61233],[2.49573,41.61173],[2.49533,41.61164],[2.49522,41.6115],[2.4948,41.61131],[2.49467,41.61087],[2.49449,41.6107],[2.49399,41.61053],[2.49372,41.61016],[2.49386,41.61005],[2.49447,41.61004],[2.49567,41.60959],[2.49696,41.60895],[2.49732,41.60863],[2.49743,41.60825],[2.49735,41.60805],[2.49741,41.60775],[2.49729,41.60749],[2.49699,41.60735],[2.49655,41.6073],[2.497,41.60665],[2.49715,41.60607],[2.49831,41.60567],[2.49779,41.60456],[2.49638,41.60412],[2.49052,41.60346],[2.49019,41.60259],[2.4846,41.60214],[2.47962,41.59997],[2.47773,41.59926],[2.47685,41.59788],[2.4777,41.59652],[2.47633,41.59438],[2.47384,41.59312],[2.47029,41.58959],[2.46711,41.5879],[2.46556,41.58795],[2.46293,41.58549],[2.46055,41.58335],[2.45867,41.58181],[2.45673,41.57999],[2.44872,41.5805],[2.4367,41.57772],[2.43123,41.57902],[2.43036,41.59144],[2.43474,41.60179],[2.43589,41.60223],[2.43568,41.60269],[2.43696,41.60286],[2.43801,41.60388],[2.43964,41.60456],[2.4401,41.60458],[2.44065,41.60513],[2.44146,41.60509],[2.43912,41.61075],[2.44063,41.61119],[2.44064,41.61185],[2.4415,41.61179],[2.44262,41.61252],[2.44349,41.61282],[2.44418,41.61323],[2.46186,41.62111],[2.46791,41.62304],[2.48481,41.62166],[2.4962,41.62153]]]}}]}