{"type":"FeatureCollection","features":[{"type":"Feature","properties":{"id":"0807201001"},"geometry":{"type":"Polygon","coordinates":[[[1.91952,41.43163],[1.91967,41.4309],[1.92035,41.43054],[1.92065,41.42996],[1.91927,41.42984],[1.91911,41.42972],[1.91903,41.42935],[1.9186,41.42916],[1.91804,41.42905],[1.91779,41.42832],[1.91756,41.42813],[1.91744,41.42785],[1.91697,41.42763],[1.91683,41.42741],[1.91688,41.42712],[1.91729,41.42691],[1.91764,41.4265],[1.91749,41.4258],[1.9172,41.4257],[1.9169,41.42577],[1.91665,41.4255],[1.91652,41.42557],[1.91643,41.42532],[1.91699,41.42427],[1.91772,41.42403],[1.91789,41.42371],[1.91794,41.4233],[1.91783,41.423],[1.91745,41.42254],[1.91745,41.42223],[1.91563,41.4225],[1.91531,41.42292],[1.91445,41.42337],[1.91361,41.42283],[1.91349,41.42159],[1.91316,41.42106],[1.91283,41.42099],[1.91219,41.42108],[1.91153,41.42082],[1.91066,41.42073],[1.90956,41.42107],[1.9084,41.42167],[1.90647,41.42246],[1.90356,41.42278],[1.90239,41.42332],[1.89736,41.42639],[1.89655,41.42656],[1.89478,41.42657],[1.89369,41.42697],[1.8925,41.42771],[1.89151,41.42785],[1.89115,41.42801],[1.89192,41.43033],[1.89444,41.43038],[1.89497,41.43022],[1.8949,41.43002],[1.89655,41.42924],[1.89718,41.42873],[1.89769,41.42906],[1.89853,41.4292],[1.89916,41.42945],[1.90104,41.43131],[1.90165,41.43163],[1.90213,41.43174],[1.90265,41.43174],[1.90348,41.43129],[1.90424,41.43105],[1.90517,41.43086],[1.90579,41.43084],[1.90722,41.43126],[1.90952,41.43229],[1.91216,41.43259],[1.91358,41.4331],[1.91693,41.43214],[1.91795,41.43172],[1.91952,41.43163]]]}},{"type":"Feature","properties":{"id":"0807201002"},"geometry":{"type":"Polygon","coordinates":[[[1.92477,41.41723],[1.92589,41.41675],[1.9268,41.41674],[1.92744,41.41656],[1.92781,41.41598],[1.92819,41.41649],[1.92905,41.41669],[1.92955,41.41602],[1.93014,41.41604],[1.93044,41.4158],[1.93008,41.41545],[1.93091,41.41513],[1.9304,41.41488],[1.93031,41.41423],[1.92936,41.41372],[1.92968,41.41299],[1.92871,41.41243],[1.92835,41.41192],[1.92713,41.41152],[1.92641,41.41055],[1.92599,41.40977],[1.9251,41.40928],[1.92471,41.40892],[1.92449,41.40834],[1.92384,41.40809],[1.92364,41.40786],[1.92347,41.40782],[1.92307,41.40793],[1.9221,41.409],[1.9219,41.4091],[1.92168,41.40908],[1.92028,41.40675],[1.92001,41.40668],[1.91965,41.40677],[1.91863,41.40644],[1.9175,41.40622],[1.91669,41.40625],[1.91602,41.40651],[1.91599,41.40699],[1.91662,41.40717],[1.91744,41.40715],[1.9174,41.40731],[1.91842,41.40769],[1.91923,41.4086],[1.91961,41.40956],[1.9196,41.40997],[1.92025,41.41082],[1.9211,41.41164],[1.92314,41.41299],[1.92318,41.41339],[1.92308,41.41357],[1.92105,41.41382],[1.91987,41.41461],[1.91975,41.41482],[1.91978,41.41505],[1.92026,41.41545],[1.92079,41.41568],[1.92038,41.41524],[1.92046,41.41506],[1.92068,41.41496],[1.92133,41.41494],[1.92165,41.41467],[1.92266,41.41451],[1.92302,41.4145],[1.92361,41.41463],[1.92371,41.41488],[1.92465,41.41582],[1.92464,41.41592],[1.92493,41.41607],[1.92538,41.41603],[1.92558,41.41609],[1.92541,41.41631],[1.92509,41.41644],[1.92488,41.41671],[1.92408,41.41713],[1.92431,41.41722],[1.92477,41.41723]]]}},{"type":"Feature","properties":{"id":"0807201003"},"geometry":{"type":"Polygon","coordinates":[[[1.93716,41.41478],[1.93669,41.4152],[1.93535,41.41453],[1.93485,41.41453],[1.93352,41.41487],[1.93287,41.41482],[1.93201,41.41432],[1.93119,41.41367],[1.92968,41.41299],[1.92936,41.41372],[1.93031,41.41423],[1.9304,41.41488],[1.93091,41.41513],[1.93008,41.41545],[1.93044,41.4158],[1.93014,41.41604],[1.92955,41.41602],[1.92905,41.41669],[1.93048,41.4178],[1.9309,41.41791],[1.93247,41.41771],[1.93273,41.41745],[1.9325,41.41685],[1.93254,41.41666],[1.93293,41.41639],[1.93333,41.41569],[1.93503,41.41535],[1.93534,41.41539],[1.93567,41.41561],[1.93599,41.416],[1.937,41.4151],[1.93733,41.41496],[1.93716,41.41478]]]}},{"type":"Feature","properties":{"id":"0807201004"},"geometry":{"type":"Polygon","coordinates":[[[1.98993,41.43925],[1.98602,41.43691],[1.98704,41.43563],[1.98695,41.43485],[1.98473,41.43428],[1.98371,41.43464],[1.98262,41.43466],[1.98245,41.43419],[1.98044,41.43376],[1.97834,41.43297],[1.97619,41.43238],[1.97439,41.43218],[1.97306,41.43034],[1.97238,41.42857],[1.97108,41.42801],[1.97067,41.42792],[1.96941,41.42784],[1.96897,41.42791],[1.96862,41.42778],[1.96795,41.42642],[1.96707,41.42566],[1.96649,41.42551],[1.96622,41.42535],[1.9653,41.42462],[1.96497,41.42307],[1.96459,41.42275],[1.96272,41.42166],[1.96051,41.42111],[1.95953,41.42104],[1.95811,41.4205],[1.95699,41.42018],[1.95612,41.41961],[1.95584,41.41956],[1.95526,41.41974],[1.95435,41.41972],[1.9533,41.41987],[1.95371,41.4202],[1.95443,41.4214],[1.95447,41.42187],[1.95486,41.42219],[1.95459,41.42247],[1.95462,41.42289],[1.95493,41.42318],[1.95504,41.42362],[1.95496,41.42406],[1.9553,41.42457],[1.95538,41.42512],[1.95507,41.42541],[1.95457,41.42654],[1.95422,41.42824],[1.95437,41.43072],[1.95571,41.4305],[1.95675,41.43075],[1.9575,41.43146],[1.95906,41.43209],[1.96061,41.43237],[1.96165,41.43293],[1.9621,41.43292],[1.96353,41.43257],[1.96533,41.43254],[1.96705,41.43279],[1.96787,41.43312],[1.96854,41.43362],[1.96917,41.43361],[1.96952,41.43335],[1.96986,41.4333],[1.97029,41.43337],[1.97053,41.43354],[1.97129,41.43456],[1.97213,41.43544],[1.97315,41.43576],[1.97357,41.43576],[1.97596,41.43611],[1.97704,41.43557],[1.97736,41.43551],[1.97854,41.43568],[1.97952,41.43596],[1.98149,41.43603],[1.982,41.43614],[1.98287,41.43646],[1.98323,41.43676],[1.98401,41.43779],[1.98413,41.43819],[1.98458,41.43887],[1.9862,41.44002],[1.98675,41.44054],[1.98861,41.44175],[1.99051,41.43981],[1.98993,41.43925]]]}},{"type":"Feature","properties":{"id":"0807201005"},"geometry":{"type":"Polygon","coordinates":[[[1.91374,41.41376],[1.91503,41.41393],[1.91579,41.41374],[1.91713,41.41384],[1.91755,41.41409],[1.91763,41.41427],[1.91777,41.41425],[1.91805,41.41437],[1.91856,41.41476],[1.91894,41.41477],[1.91913,41.41465],[1.91869,41.41342],[1.91826,41.41354],[1.91792,41.41286],[1.91783,41.41251],[1.91807,41.41168],[1.91769,41.41144],[1.91753,41.41122],[1.91762,41.41112],[1.91754,41.41083],[1.91776,41.41077],[1.91799,41.41048],[1.91832,41.40979],[1.9184,41.40902],[1.91791,41.40833],[1.9173,41.40809],[1.91733,41.40739],[1.91744,41.40715],[1.91662,41.40717],[1.91599,41.40699],[1.91602,41.40651],[1.91575,41.40653],[1.91535,41.40607],[1.91527,41.40566],[1.91486,41.40523],[1.91322,41.40534],[1.91304,41.40516],[1.91244,41.40536],[1.91132,41.40543],[1.91075,41.40536],[1.90935,41.40498],[1.90849,41.4045],[1.90793,41.40462],[1.90689,41.40442],[1.90526,41.40467],[1.90433,41.40464],[1.9045,41.40476],[1.90054,41.40695],[1.89969,41.40807],[1.89983,41.40834],[1.89853,41.40831],[1.89695,41.40762],[1.89481,41.40765],[1.89417,41.40758],[1.8923,41.40694],[1.89174,41.40711],[1.89047,41.4079],[1.88836,41.40826],[1.88765,41.40822],[1.88712,41.40828],[1.88687,41.40817],[1.88591,41.40824],[1.88538,41.40816],[1.88271,41.40998],[1.88135,41.41178],[1.88283,41.41469],[1.88649,41.41599],[1.88717,41.4167],[1.88814,41.41798],[1.88976,41.42246],[1.88759,41.42311],[1.88756,41.42392],[1.88781,41.4242],[1.88884,41.42437],[1.88981,41.42427],[1.89031,41.42413],[1.89089,41.42456],[1.8915,41.42484],[1.89263,41.42504],[1.89314,41.42507],[1.89371,41.42489],[1.8941,41.42456],[1.89468,41.42352],[1.89474,41.42295],[1.89498,41.42244],[1.89551,41.42214],[1.89664,41.42178],[1.89802,41.42154],[1.89868,41.42134],[1.89892,41.42111],[1.89879,41.42034],[1.89923,41.41926],[1.89917,41.41877],[1.89868,41.41846],[1.89753,41.41806],[1.89746,41.41786],[1.89792,41.41741],[1.89793,41.41696],[1.89814,41.41672],[1.89845,41.41672],[1.89873,41.41686],[1.89935,41.41776],[1.89961,41.4179],[1.90081,41.4183],[1.90234,41.41825],[1.90422,41.41878],[1.90457,41.41869],[1.90415,41.41752],[1.90417,41.41734],[1.90646,41.41589],[1.90736,41.41542],[1.90767,41.41547],[1.90889,41.41609],[1.91023,41.41603],[1.91038,41.41589],[1.91036,41.41554],[1.9105,41.41532],[1.91116,41.41537],[1.9118,41.41527],[1.91209,41.41507],[1.91217,41.41451],[1.91306,41.41459],[1.91325,41.41453],[1.9134,41.41393],[1.91374,41.41376]]]}},{"type":"Feature","properties":{"id":"0807201006"},"geometry":{"type":"Polygon","coordinates":[[[1.98861,41.44175],[1.98675,41.44054],[1.9862,41.44002],[1.98458,41.43887],[1.98413,41.43819],[1.98401,41.43779],[1.98323,41.43676],[1.98287,41.43646],[1.98248,41.4363],[1.98149,41.43603],[1.97952,41.43596],[1.97854,41.43568],[1.97736,41.43551],[1.97704,41.43557],[1.97596,41.43611],[1.97357,41.43576],[1.97315,41.43576],[1.97213,41.43544],[1.97129,41.43456],[1.97053,41.43354],[1.97029,41.43337],[1.96986,41.4333],[1.96952,41.43335],[1.96917,41.43361],[1.96854,41.43362],[1.96787,41.43312],[1.96705,41.43279],[1.96533,41.43254],[1.96353,41.43257],[1.9621,41.43292],[1.96165,41.43293],[1.96061,41.43237],[1.95906,41.43209],[1.95813,41.43173],[1.9575,41.43146],[1.95675,41.43075],[1.95571,41.4305],[1.95437,41.43072],[1.95443,41.4319],[1.95473,41.43307],[1.95418,41.43381],[1.95394,41.43497],[1.95408,41.4352],[1.95398,41.43547],[1.95349,41.43603],[1.95272,41.43631],[1.95235,41.43631],[1.95137,41.43667],[1.95125,41.43709],[1.95104,41.43723],[1.95162,41.43734],[1.9517,41.43751],[1.95143,41.4381],[1.95117,41.43823],[1.95103,41.43851],[1.95107,41.43925],[1.95114,41.43954],[1.95219,41.44051],[1.95226,41.44083],[1.95239,41.44092],[1.95196,41.44102],[1.95216,41.44105],[1.95285,41.44085],[1.95279,41.44052],[1.95358,41.43956],[1.95453,41.43924],[1.95494,41.43922],[1.95665,41.43964],[1.95838,41.44034],[1.96047,41.44053],[1.96259,41.44201],[1.96452,41.44282],[1.96476,41.44268],[1.96624,41.44292],[1.96856,41.44249],[1.96992,41.44255],[1.97102,41.4427],[1.97305,41.44264],[1.97349,41.44251],[1.9739,41.44212],[1.97429,41.44199],[1.9756,41.44172],[1.97647,41.44179],[1.97723,41.44173],[1.97833,41.44121],[1.97875,41.44111],[1.97907,41.44125],[1.97921,41.44142],[1.97867,41.44254],[1.97874,41.44282],[1.97987,41.44275],[1.98246,41.44288],[1.98501,41.44337],[1.98807,41.44186],[1.98861,41.44175]]]}},{"type":"Feature","properties":{"id":"0807201007"},"geometry":{"type":"Polygon","coordinates":[[[1.95068,41.44133],[1.95239,41.44092],[1.95226,41.44083],[1.95219,41.44051],[1.95114,41.43954],[1.95107,41.43925],[1.95103,41.43851],[1.95117,41.43823],[1.95143,41.4381],[1.9517,41.43751],[1.95162,41.43734],[1.95104,41.43723],[1.95125,41.43709],[1.95137,41.43667],[1.95235,41.43631],[1.95272,41.43631],[1.95349,41.43603],[1.95376,41.43579],[1.95408,41.4352],[1.95394,41.43497],[1.95418,41.43381],[1.95473,41.43307],[1.95437,41.43142],[1.95437,41.42978],[1.95422,41.42824],[1.95457,41.42654],[1.95507,41.42541],[1.95538,41.42512],[1.9553,41.42457],[1.95496,41.42406],[1.95504,41.42362],[1.95493,41.42318],[1.95462,41.42289],[1.95459,41.42247],[1.95486,41.42219],[1.95447,41.42187],[1.95443,41.4214],[1.95371,41.4202],[1.9533,41.41987],[1.95262,41.4203],[1.95125,41.42042],[1.95001,41.42089],[1.94898,41.42116],[1.94812,41.42083],[1.94726,41.42075],[1.94525,41.42022],[1.94521,41.42039],[1.94538,41.42045],[1.94287,41.42302],[1.94126,41.42265],[1.94107,41.42313],[1.94144,41.4246],[1.94104,41.42514],[1.94097,41.42616],[1.94117,41.42681],[1.94085,41.42699],[1.94066,41.42689],[1.93995,41.42726],[1.93901,41.42718],[1.93718,41.42839],[1.93604,41.42899],[1.93531,41.42902],[1.93288,41.4299],[1.93105,41.43072],[1.92884,41.43075],[1.92754,41.43126],[1.92678,41.43134],[1.92618,41.43151],[1.92596,41.43118],[1.92519,41.43148],[1.92498,41.4313],[1.92503,41.43074],[1.92454,41.43055],[1.9251,41.42994],[1.92441,41.42971],[1.92411,41.42996],[1.92401,41.43033],[1.92357,41.4304],[1.92349,41.43064],[1.92394,41.43108],[1.92392,41.43125],[1.92364,41.43136],[1.92361,41.4316],[1.92403,41.43193],[1.92618,41.43256],[1.92787,41.43282],[1.92893,41.43314],[1.93092,41.43383],[1.93273,41.4348],[1.9333,41.43483],[1.93466,41.4347],[1.93568,41.43494],[1.93707,41.43507],[1.93755,41.43505],[1.93844,41.43465],[1.93892,41.4347],[1.94107,41.43573],[1.94294,41.43625],[1.9437,41.43617],[1.94431,41.43629],[1.94459,41.43645],[1.94494,41.43703],[1.94495,41.43767],[1.94533,41.43773],[1.94621,41.43806],[1.94668,41.43845],[1.94731,41.4394],[1.94757,41.44013],[1.94845,41.44053],[1.9485,41.44086],[1.94879,41.44085],[1.94972,41.44124],[1.95068,41.44133]]]}},{"type":"Feature","properties":{"id":"0807201008"},"geometry":{"type":"Polygon","coordinates":[[[1.92361,41.4316],[1.92364,41.43136],[1.92392,41.43125],[1.92394,41.43108],[1.92349,41.43064],[1.92357,41.4304],[1.92401,41.43033],[1.92411,41.42996],[1.92441,41.42971],[1.9251,41.42994],[1.92454,41.43055],[1.92503,41.43074],[1.92498,41.4313],[1.92519,41.43148],[1.92596,41.43118],[1.92618,41.43151],[1.92678,41.43134],[1.92754,41.43126],[1.92884,41.43075],[1.93105,41.43072],[1.93288,41.4299],[1.93531,41.42902],[1.93604,41.42899],[1.93718,41.42839],[1.93901,41.42718],[1.93995,41.42726],[1.94066,41.42689],[1.94085,41.42699],[1.94117,41.42681],[1.94097,41.42616],[1.94104,41.42514],[1.94144,41.4246],[1.94107,41.42313],[1.94126,41.42265],[1.94287,41.42302],[1.94538,41.42045],[1.94521,41.42039],[1.94525,41.42022],[1.94563,41.4202],[1.94558,41.41972],[1.94524,41.41889],[1.9452,41.41757],[1.94404,41.41782],[1.94352,41.41811],[1.94143,41.41887],[1.93991,41.419],[1.93837,41.41893],[1.93775,41.41876],[1.93573,41.41714],[1.93556,41.41638],[1.93599,41.416],[1.93567,41.41561],[1.93534,41.41539],[1.93458,41.41539],[1.93333,41.41569],[1.93293,41.41639],[1.93254,41.41666],[1.9325,41.41685],[1.93273,41.41745],[1.93257,41.41764],[1.93325,41.41789],[1.93418,41.41884],[1.9342,41.41901],[1.93391,41.41927],[1.93345,41.42018],[1.93241,41.42028],[1.93191,41.42019],[1.93188,41.42038],[1.93158,41.42072],[1.93145,41.42162],[1.93135,41.42172],[1.93101,41.42175],[1.93092,41.42138],[1.93014,41.42076],[1.92986,41.4206],[1.92957,41.42089],[1.92866,41.4202],[1.92453,41.42058],[1.9243,41.42131],[1.92397,41.42163],[1.92287,41.42205],[1.92276,41.42267],[1.92262,41.42276],[1.92248,41.42341],[1.92198,41.42442],[1.92192,41.42489],[1.92269,41.42553],[1.92311,41.42627],[1.92307,41.42651],[1.92341,41.42655],[1.92287,41.42754],[1.92261,41.42781],[1.92223,41.42793],[1.92185,41.42838],[1.92153,41.42851],[1.92145,41.42891],[1.9208,41.4293],[1.92064,41.43],[1.92035,41.43054],[1.91967,41.4309],[1.91952,41.43163],[1.91986,41.43163],[1.92051,41.43183],[1.92131,41.43186],[1.922,41.4317],[1.92249,41.43139],[1.92303,41.43127],[1.92328,41.43132],[1.92361,41.4316]]]}},{"type":"Feature","properties":{"id":"0807201009"},"geometry":{"type":"Polygon","coordinates":[[[1.92558,41.4169],[1.92477,41.41723],[1.92431,41.41722],[1.92408,41.41713],[1.92488,41.41671],[1.92509,41.41644],[1.92541,41.41631],[1.92558,41.41609],[1.92538,41.41603],[1.92493,41.41607],[1.92464,41.41592],[1.92465,41.41582],[1.92371,41.41488],[1.92361,41.41463],[1.92302,41.4145],[1.92266,41.41451],[1.92165,41.41467],[1.92133,41.41494],[1.92068,41.41496],[1.92046,41.41506],[1.92038,41.41524],[1.92079,41.41568],[1.92026,41.41545],[1.91978,41.41505],[1.91975,41.41482],[1.91987,41.41461],[1.92105,41.41382],[1.92308,41.41357],[1.92318,41.41339],[1.92314,41.41299],[1.9211,41.41164],[1.92025,41.41082],[1.9196,41.40997],[1.91954,41.40933],[1.9191,41.4084],[1.91842,41.40769],[1.9174,41.40731],[1.9173,41.40809],[1.91791,41.40833],[1.9184,41.40902],[1.91832,41.40979],[1.91799,41.41048],[1.91776,41.41077],[1.91754,41.41083],[1.91761,41.41136],[1.91807,41.41168],[1.91783,41.41251],[1.91826,41.41354],[1.91869,41.41342],[1.91913,41.41465],[1.91894,41.41477],[1.91856,41.41476],[1.91805,41.41437],[1.91777,41.41425],[1.91763,41.41427],[1.9184,41.41568],[1.91891,41.41627],[1.91944,41.4167],[1.91984,41.41683],[1.92045,41.41684],[1.92062,41.41697],[1.9207,41.41741],[1.92095,41.41759],[1.92129,41.41769],[1.92203,41.4176],[1.92238,41.4174],[1.92259,41.4174],[1.92475,41.41813],[1.9249,41.41808],[1.92514,41.41726],[1.92558,41.4169]]]}},{"type":"Feature","properties":{"id":"0807201010"},"geometry":{"type":"Polygon","coordinates":[[[1.93257,41.41764],[1.9309,41.41791],[1.93048,41.4178],[1.92905,41.41669],[1.92819,41.41649],[1.92781,41.41598],[1.92744,41.41656],[1.9268,41.41674],[1.92589,41.41675],[1.92558,41.4169],[1.92514,41.41726],[1.9249,41.41808],[1.92475,41.41813],[1.92259,41.4174],[1.92238,41.4174],[1.92203,41.4176],[1.92129,41.41769],[1.92095,41.41759],[1.9207,41.41741],[1.92062,41.41697],[1.92045,41.41684],[1.91984,41.41683],[1.91944,41.4167],[1.91891,41.41627],[1.91796,41.41499],[1.91755,41.41409],[1.91713,41.41384],[1.91579,41.41374],[1.91503,41.41393],[1.91454,41.41386],[1.91468,41.415],[1.91444,41.41517],[1.91445,41.41532],[1.91497,41.41567],[1.91442,41.41596],[1.91465,41.41651],[1.91553,41.41612],[1.91586,41.41606],[1.91606,41.41574],[1.91697,41.41612],[1.9169,41.41652],[1.91744,41.41701],[1.91878,41.41802],[1.92037,41.41887],[1.9203,41.41975],[1.92006,41.41976],[1.92004,41.42025],[1.92052,41.42025],[1.921,41.4201],[1.92155,41.41986],[1.92175,41.41966],[1.92195,41.41894],[1.9215,41.41874],[1.92095,41.419],[1.92114,41.41852],[1.92201,41.41828],[1.92207,41.41815],[1.92236,41.4181],[1.92267,41.41833],[1.92264,41.41848],[1.92285,41.41848],[1.92284,41.41834],[1.92311,41.41841],[1.92322,41.41861],[1.92339,41.41856],[1.92335,41.41844],[1.92401,41.41839],[1.9245,41.41858],[1.92504,41.4183],[1.9263,41.41879],[1.92785,41.41905],[1.92791,41.41934],[1.92917,41.41939],[1.92863,41.42018],[1.92957,41.42089],[1.92986,41.4206],[1.9303,41.42085],[1.93092,41.42138],[1.93101,41.42175],[1.93114,41.42177],[1.93145,41.42162],[1.93158,41.42072],[1.93188,41.42038],[1.93191,41.42019],[1.93241,41.42028],[1.93345,41.42018],[1.93391,41.41927],[1.9342,41.41901],[1.93418,41.41884],[1.93325,41.41789],[1.93257,41.41764]]]}},{"type":"Feature","properties":{"id":"0807201011"},"geometry":{"type":"Polygon","coordinates":[[[1.92866,41.4202],[1.92917,41.41939],[1.92791,41.41934],[1.92785,41.41905],[1.9263,41.41879],[1.92504,41.4183],[1.9245,41.41858],[1.92401,41.41839],[1.92335,41.41844],[1.92339,41.41856],[1.92322,41.41861],[1.92311,41.41841],[1.92284,41.41834],[1.92285,41.41848],[1.92264,41.41848],[1.92267,41.41833],[1.92236,41.4181],[1.92106,41.41859],[1.92095,41.419],[1.9215,41.41874],[1.92195,41.41894],[1.92189,41.41942],[1.92155,41.41986],[1.92052,41.42025],[1.92004,41.42025],[1.92006,41.41976],[1.9203,41.41975],[1.92037,41.41887],[1.91878,41.41802],[1.91744,41.41701],[1.9169,41.41652],[1.91697,41.41612],[1.91606,41.41574],[1.91586,41.41606],[1.91553,41.41612],[1.91465,41.41651],[1.91442,41.41596],[1.91497,41.41567],[1.91445,41.41532],[1.91444,41.41517],[1.91468,41.415],[1.91454,41.41386],[1.91374,41.41376],[1.9134,41.41393],[1.91325,41.41453],[1.91306,41.41459],[1.91217,41.41451],[1.91209,41.41507],[1.9118,41.41527],[1.91116,41.41537],[1.9105,41.41532],[1.91036,41.41554],[1.91038,41.41589],[1.91023,41.41603],[1.90889,41.41609],[1.90767,41.41547],[1.90736,41.41542],[1.90646,41.41589],[1.90417,41.41734],[1.90415,41.41752],[1.90457,41.41869],[1.90422,41.41878],[1.90234,41.41825],[1.90081,41.4183],[1.89961,41.4179],[1.89935,41.41776],[1.89873,41.41686],[1.89845,41.41672],[1.89814,41.41672],[1.89793,41.41696],[1.89792,41.41741],[1.89746,41.41786],[1.89753,41.41806],[1.89868,41.41846],[1.89917,41.41877],[1.89923,41.41926],[1.89879,41.42034],[1.89892,41.42111],[1.89868,41.42134],[1.89802,41.42154],[1.89664,41.42178],[1.89551,41.42214],[1.89498,41.42244],[1.89474,41.42295],[1.89468,41.42352],[1.8941,41.42456],[1.89371,41.42489],[1.89314,41.42507],[1.8915,41.42484],[1.89089,41.42456],[1.89031,41.42413],[1.88981,41.42427],[1.88884,41.42437],[1.88781,41.4242],[1.89106,41.42776],[1.89115,41.42801],[1.89151,41.42785],[1.8925,41.42771],[1.89369,41.42697],[1.89478,41.42657],[1.89655,41.42656],[1.89736,41.42639],[1.90239,41.42332],[1.90356,41.42278],[1.90647,41.42246],[1.9084,41.42167],[1.90956,41.42107],[1.91066,41.42073],[1.91153,41.42082],[1.91219,41.42108],[1.91283,41.42099],[1.91316,41.42106],[1.91349,41.42159],[1.91361,41.42283],[1.91445,41.42337],[1.91531,41.42292],[1.91563,41.4225],[1.91745,41.42223],[1.91745,41.42254],[1.91783,41.423],[1.91794,41.4233],[1.91789,41.42371],[1.91772,41.42403],[1.91699,41.42427],[1.91643,41.42532],[1.91652,41.42557],[1.91665,41.4255],[1.9169,41.42577],[1.9172,41.4257],[1.91749,41.4258],[1.91764,41.4265],[1.91729,41.42691],[1.91688,41.42712],[1.91683,41.42741],[1.91697,41.42763],[1.91744,41.42785],[1.91756,41.42813],[1.91779,41.42832],[1.91804,41.42905],[1.9186,41.42916],[1.91903,41.42935],[1.91911,41.42972],[1.91927,41.42984],[1.92065,41.42996],[1.9208,41.4293],[1.92145,41.42891],[1.92153,41.42851],[1.92185,41.42838],[1.92223,41.42793],[1.92261,41.42781],[1.92287,41.42754],[1.92341,41.42655],[1.92307,41.42651],[1.92311,41.42627],[1.92269,41.42553],[1.92192,41.42489],[1.92198,41.42442],[1.92248,41.42341],[1.92262,41.42276],[1.92276,41.42267],[1.92287,41.42205],[1.92397,41.42163],[1.9243,41.42131],[1.92453,41.42058],[1.92866,41.4202]]]}}]}