{"type":"FeatureCollection","features":[{"type":"Feature","properties":{"id":"0808801001"},"geometry":{"type":"Polygon","coordinates":[[[2.31066,41.70856],[2.30539,41.70629],[2.29977,41.70368],[2.30064,41.70151],[2.30166,41.69988],[2.30241,41.69897],[2.30218,41.69858],[2.30274,41.69725],[2.30262,41.69664],[2.30289,41.69538],[2.30271,41.69458],[2.30207,41.69369],[2.30147,41.69337],[2.3014,41.69313],[2.30152,41.69279],[2.30117,41.69229],[2.30103,41.69125],[2.30044,41.69062],[2.30016,41.6901],[2.30093,41.6893],[2.30116,41.68891],[2.30128,41.68828],[2.30173,41.68736],[2.30152,41.68646],[2.3,41.68697],[2.29959,41.68698],[2.29939,41.68691],[2.2993,41.68664],[2.29863,41.68606],[2.29731,41.68575],[2.29279,41.68534],[2.29235,41.68545],[2.29114,41.68536],[2.29046,41.68545],[2.28857,41.68496],[2.28624,41.68564],[2.28547,41.68575],[2.28624,41.68745],[2.28681,41.68797],[2.28701,41.68836],[2.2859,41.69826],[2.28543,41.69936],[2.28511,41.70087],[2.28525,41.70289],[2.28636,41.70446],[2.28633,41.7052],[2.28615,41.7056],[2.28578,41.706],[2.28496,41.7066],[2.2842,41.70744],[2.28362,41.70778],[2.28225,41.7081],[2.27894,41.70981],[2.27843,41.71017],[2.27647,41.71238],[2.27571,41.71301],[2.2748,41.71327],[2.27173,41.71284],[2.27078,41.7129],[2.27045,41.71302],[2.27002,41.71335],[2.26986,41.71361],[2.2761,41.71602],[2.27903,41.71567],[2.27903,41.71446],[2.28225,41.71182],[2.28667,41.71163],[2.28546,41.71296],[2.28489,41.71664],[2.29209,41.71882],[2.29987,41.71504],[2.30354,41.71308],[2.30801,41.71051],[2.31066,41.70856]]]}},{"type":"Feature","properties":{"id":"0808801002"},"geometry":{"type":"Polygon","coordinates":[[[2.28474,41.69206],[2.28496,41.68916],[2.28426,41.68823],[2.28368,41.68785],[2.28299,41.68713],[2.28268,41.68658],[2.28223,41.68335],[2.28201,41.6826],[2.28142,41.68165],[2.28014,41.68027],[2.2798,41.68007],[2.27878,41.67907],[2.27845,41.67857],[2.27828,41.67846],[2.2773,41.67828],[2.27697,41.67826],[2.2756,41.67863],[2.27391,41.67832],[2.27322,41.6784],[2.27138,41.67889],[2.27055,41.6787],[2.26941,41.67927],[2.26888,41.67972],[2.26732,41.68039],[2.26564,41.6816],[2.26431,41.68215],[2.26321,41.68276],[2.26306,41.68295],[2.26316,41.68329],[2.26308,41.68351],[2.26237,41.6842],[2.26196,41.68427],[2.26202,41.68401],[2.26178,41.68361],[2.26163,41.68364],[2.26161,41.68385],[2.2615,41.68392],[2.26118,41.68395],[2.26079,41.68419],[2.25997,41.68427],[2.25975,41.6844],[2.25893,41.68435],[2.25808,41.6845],[2.25512,41.684],[2.254,41.68523],[2.2532,41.68575],[2.25265,41.68594],[2.25949,41.69568],[2.26018,41.69569],[2.26068,41.69548],[2.26138,41.6954],[2.26187,41.69556],[2.26244,41.69525],[2.26258,41.69454],[2.26319,41.69389],[2.26316,41.69349],[2.26334,41.69307],[2.26331,41.69255],[2.26367,41.69205],[2.26412,41.69218],[2.26465,41.69203],[2.2672,41.69067],[2.26822,41.69039],[2.26871,41.6901],[2.26858,41.68976],[2.27126,41.68859],[2.27172,41.6882],[2.27348,41.68774],[2.27408,41.68745],[2.27454,41.68743],[2.27511,41.68701],[2.27567,41.68678],[2.27718,41.68713],[2.27832,41.68707],[2.27845,41.68852],[2.27892,41.68936],[2.28176,41.69301],[2.28209,41.6936],[2.28266,41.69542],[2.28472,41.69577],[2.28507,41.69455],[2.28513,41.69383],[2.28474,41.69206]]]}},{"type":"Feature","properties":{"id":"0808801003"},"geometry":{"type":"Polygon","coordinates":[[[2.2868,41.6903],[2.28484,41.69011],[2.28474,41.69206],[2.28513,41.69383],[2.28507,41.69455],[2.28472,41.69577],[2.28266,41.69542],[2.28209,41.6936],[2.28176,41.69301],[2.27892,41.68936],[2.27845,41.68852],[2.27832,41.68707],[2.27718,41.68713],[2.27567,41.68678],[2.27511,41.68701],[2.27454,41.68743],[2.27408,41.68745],[2.27348,41.68774],[2.27172,41.6882],[2.27126,41.68859],[2.26858,41.68976],[2.26871,41.6901],[2.26822,41.69039],[2.2672,41.69067],[2.26465,41.69203],[2.26412,41.69218],[2.26367,41.69205],[2.26331,41.69255],[2.26334,41.69307],[2.26316,41.69349],[2.26319,41.69389],[2.26258,41.69454],[2.26244,41.69525],[2.26187,41.69556],[2.26138,41.6954],[2.26068,41.69548],[2.26018,41.69569],[2.25949,41.69568],[2.26018,41.69667],[2.26162,41.70325],[2.26366,41.70625],[2.26545,41.70863],[2.2693,41.71339],[2.26986,41.71361],[2.27002,41.71335],[2.27045,41.71302],[2.27101,41.71287],[2.27173,41.71284],[2.2748,41.71327],[2.27571,41.71301],[2.27647,41.71238],[2.27843,41.71017],[2.27894,41.70981],[2.28225,41.7081],[2.28362,41.70778],[2.2842,41.70744],[2.28496,41.7066],[2.28578,41.706],[2.28615,41.7056],[2.28633,41.7052],[2.28636,41.70446],[2.28525,41.70289],[2.28511,41.70087],[2.28543,41.69936],[2.2859,41.69826],[2.2868,41.6903]]]}},{"type":"Feature","properties":{"id":"0808801004"},"geometry":{"type":"Polygon","coordinates":[[[2.28547,41.68575],[2.28494,41.68591],[2.2848,41.68607],[2.28277,41.68675],[2.28299,41.68713],[2.28368,41.68785],[2.28426,41.68823],[2.28496,41.68916],[2.28484,41.69011],[2.2868,41.6903],[2.28701,41.68836],[2.28681,41.68797],[2.28624,41.68745],[2.28547,41.68575]]]}},{"type":"Feature","properties":{"id":"0808802001"},"geometry":{"type":"Polygon","coordinates":[[[2.29179,41.66423],[2.29086,41.66883],[2.29035,41.67251],[2.29036,41.67819],[2.29021,41.67888],[2.28943,41.68048],[2.28888,41.68131],[2.2886,41.68497],[2.29046,41.68545],[2.29114,41.68536],[2.29235,41.68545],[2.29279,41.68534],[2.29731,41.68575],[2.29863,41.68606],[2.2993,41.68664],[2.29948,41.68697],[2.3,41.68697],[2.30152,41.68646],[2.30076,41.68326],[2.30114,41.6812],[2.29986,41.67683],[2.30366,41.672],[2.29764,41.66889],[2.29463,41.66669],[2.29179,41.66423]]]}},{"type":"Feature","properties":{"id":"0808802002"},"geometry":{"type":"Polygon","coordinates":[[[2.28316,41.68012],[2.28282,41.68202],[2.28249,41.68314],[2.28265,41.68402],[2.28381,41.68641],[2.2848,41.68607],[2.28494,41.68591],[2.28546,41.68573],[2.28545,41.68508],[2.28603,41.68306],[2.2862,41.68187],[2.28316,41.68012]]]}},{"type":"Feature","properties":{"id":"0808802003"},"geometry":{"type":"Polygon","coordinates":[[[2.28673,41.6761],[2.28244,41.67606],[2.28189,41.67618],[2.28086,41.67657],[2.27874,41.67751],[2.28407,41.6807],[2.2862,41.68187],[2.28655,41.6773],[2.28673,41.6761]]]}},{"type":"Feature","properties":{"id":"0808802004"},"geometry":{"type":"Polygon","coordinates":[[[2.27148,41.66813],[2.2661,41.67261],[2.26602,41.67288],[2.26624,41.67325],[2.2653,41.67358],[2.26317,41.67515],[2.26298,41.67518],[2.26384,41.67885],[2.26149,41.68068],[2.25773,41.6818],[2.25743,41.68197],[2.25663,41.68277],[2.25571,41.68323],[2.25512,41.684],[2.25808,41.6845],[2.25893,41.68435],[2.25975,41.6844],[2.25997,41.68427],[2.26079,41.68419],[2.26118,41.68395],[2.2615,41.68392],[2.26161,41.68385],[2.26163,41.68364],[2.26178,41.68361],[2.26202,41.68401],[2.26196,41.68427],[2.26213,41.68426],[2.26237,41.6842],[2.26308,41.68351],[2.26316,41.68329],[2.26306,41.68295],[2.26321,41.68276],[2.26431,41.68215],[2.26564,41.6816],[2.26732,41.68039],[2.26888,41.67972],[2.26941,41.67927],[2.27055,41.6787],[2.27138,41.67889],[2.27322,41.6784],[2.27391,41.67832],[2.2756,41.67863],[2.27697,41.67826],[2.2784,41.67854],[2.27827,41.67778],[2.27832,41.67743],[2.27874,41.67751],[2.28189,41.67618],[2.2828,41.67605],[2.28673,41.6761],[2.28861,41.66575],[2.28934,41.6648],[2.29086,41.66338],[2.28757,41.6591],[2.279,41.65762],[2.27875,41.6571],[2.27796,41.65754],[2.27738,41.65751],[2.27745,41.66204],[2.27529,41.6667],[2.27525,41.6671],[2.27148,41.66813]]]}},{"type":"Feature","properties":{"id":"0808802005"},"geometry":{"type":"Polygon","coordinates":[[[2.2886,41.68497],[2.28888,41.68131],[2.28943,41.68048],[2.29021,41.67888],[2.29036,41.67819],[2.29035,41.67251],[2.29086,41.66883],[2.29179,41.66423],[2.29086,41.66338],[2.28934,41.6648],[2.28861,41.66575],[2.28673,41.67606],[2.28616,41.68221],[2.28603,41.68306],[2.28545,41.68508],[2.28547,41.68575],[2.28624,41.68564],[2.2886,41.68497]]]}},{"type":"Feature","properties":{"id":"0808802006"},"geometry":{"type":"Polygon","coordinates":[[[2.28381,41.68641],[2.28265,41.68402],[2.28249,41.68314],[2.28282,41.68202],[2.28316,41.68012],[2.27877,41.67752],[2.27832,41.67743],[2.27827,41.67778],[2.2784,41.67854],[2.27878,41.67907],[2.2798,41.68007],[2.28014,41.68027],[2.28053,41.68076],[2.28121,41.68136],[2.28201,41.6826],[2.28223,41.68335],[2.28254,41.68607],[2.28277,41.68675],[2.28381,41.68641]]]}}]}