{"type":"FeatureCollection","features":[{"type":"Feature","properties":{"id":"0809801001"},"geometry":{"type":"Polygon","coordinates":[[[1.80862,41.69043],[1.80865,41.68999],[1.81056,41.6892],[1.81173,41.68878],[1.81292,41.68853],[1.81559,41.68748],[1.81602,41.6868],[1.81519,41.68615],[1.81292,41.68616],[1.81186,41.68603],[1.80799,41.68459],[1.80739,41.68428],[1.80683,41.68415],[1.80585,41.68423],[1.80522,41.6841],[1.80261,41.68292],[1.8013,41.68284],[1.80059,41.68267],[1.79999,41.68238],[1.79924,41.68153],[1.79554,41.67842],[1.7951,41.67788],[1.79447,41.67662],[1.79542,41.67458],[1.7971,41.67202],[1.797,41.67169],[1.79593,41.67079],[1.79561,41.66977],[1.79475,41.66924],[1.79403,41.66861],[1.79388,41.66834],[1.79396,41.66778],[1.79389,41.66752],[1.78956,41.66891],[1.78979,41.66963],[1.79031,41.67013],[1.79038,41.67056],[1.78949,41.67082],[1.7888,41.67144],[1.78854,41.67153],[1.78868,41.6722],[1.78905,41.67242],[1.78934,41.67281],[1.78952,41.67351],[1.78968,41.67607],[1.79019,41.67755],[1.78767,41.67843],[1.78741,41.67963],[1.78662,41.68144],[1.78595,41.68223],[1.78561,41.68327],[1.7855,41.68496],[1.78568,41.68536],[1.78706,41.68651],[1.78752,41.68707],[1.78765,41.68956],[1.7878,41.68988],[1.79091,41.69224],[1.79172,41.69272],[1.79169,41.6931],[1.78985,41.69482],[1.7887,41.69523],[1.78861,41.69536],[1.78869,41.69614],[1.78943,41.69697],[1.78804,41.69657],[1.78479,41.69512],[1.78449,41.69507],[1.78347,41.69426],[1.78281,41.69331],[1.78145,41.69067],[1.7798,41.68926],[1.77937,41.68712],[1.77916,41.68678],[1.77879,41.68665],[1.77818,41.68663],[1.77644,41.68694],[1.77431,41.68699],[1.77413,41.68635],[1.77388,41.68596],[1.7748,41.68565],[1.77489,41.68414],[1.77427,41.68322],[1.7742,41.68287],[1.77476,41.68198],[1.77527,41.68181],[1.77716,41.68147],[1.77895,41.68081],[1.78093,41.68035],[1.7837,41.67918],[1.78406,41.67892],[1.78447,41.67826],[1.78535,41.6777],[1.7863,41.67744],[1.78534,41.67605],[1.78484,41.67564],[1.78463,41.67499],[1.78473,41.67448],[1.78515,41.67387],[1.785,41.67317],[1.78463,41.67262],[1.78437,41.67244],[1.78379,41.67227],[1.7832,41.67197],[1.78086,41.66829],[1.78258,41.66825],[1.78418,41.6684],[1.78496,41.66857],[1.78534,41.66854],[1.78605,41.66834],[1.78628,41.66813],[1.78653,41.66765],[1.78713,41.66726],[1.78775,41.66729],[1.78779,41.66699],[1.78793,41.66693],[1.78901,41.66683],[1.78994,41.66697],[1.79079,41.66675],[1.79136,41.66697],[1.7917,41.66721],[1.79187,41.6672],[1.7921,41.66699],[1.79245,41.66694],[1.79259,41.66658],[1.79216,41.6661],[1.79165,41.66616],[1.79184,41.66584],[1.79384,41.66386],[1.79307,41.66325],[1.79075,41.66299],[1.7896,41.66272],[1.79074,41.66118],[1.79049,41.65976],[1.78934,41.65746],[1.78755,41.65599],[1.78813,41.65423],[1.78785,41.65359],[1.78865,41.6529],[1.78815,41.65262],[1.78706,41.65242],[1.78641,41.65258],[1.78571,41.65257],[1.78476,41.65236],[1.78327,41.65305],[1.78084,41.65309],[1.78,41.65372],[1.77953,41.65369],[1.7789,41.654],[1.77724,41.65408],[1.77551,41.65469],[1.77533,41.65489],[1.77489,41.65415],[1.77461,41.65304],[1.77407,41.65288],[1.77306,41.65292],[1.77253,41.65262],[1.7722,41.65219],[1.77188,41.65213],[1.77152,41.65216],[1.77117,41.65238],[1.77086,41.65246],[1.76986,41.65237],[1.76911,41.65206],[1.76849,41.65118],[1.76825,41.65098],[1.76763,41.65076],[1.76738,41.65041],[1.76731,41.64939],[1.76644,41.64853],[1.76637,41.64819],[1.76681,41.64729],[1.76675,41.64719],[1.76593,41.64681],[1.76574,41.64629],[1.76538,41.64583],[1.76482,41.64574],[1.76362,41.64586],[1.76279,41.64624],[1.76197,41.6463],[1.76137,41.64608],[1.76099,41.64575],[1.75922,41.64513],[1.75776,41.64454],[1.75734,41.64428],[1.75676,41.64428],[1.75604,41.64454],[1.75436,41.64486],[1.75351,41.64482],[1.75228,41.64497],[1.74975,41.64577],[1.74903,41.64592],[1.74787,41.64601],[1.74574,41.64542],[1.7434,41.64548],[1.74238,41.64534],[1.73479,41.64634],[1.72949,41.64614],[1.72861,41.64594],[1.72884,41.64563],[1.7292,41.64547],[1.72941,41.64526],[1.72949,41.64503],[1.72913,41.64451],[1.72917,41.64434],[1.72613,41.64157],[1.71708,41.64475],[1.71542,41.64618],[1.70606,41.6499],[1.70327,41.65052],[1.72402,41.66147],[1.73563,41.66671],[1.73746,41.66765],[1.73802,41.67326],[1.73335,41.67737],[1.73252,41.68651],[1.73185,41.68736],[1.73173,41.68834],[1.73215,41.69092],[1.73248,41.69191],[1.73452,41.69436],[1.7364,41.69638],[1.741,41.69794],[1.74535,41.70061],[1.74833,41.70277],[1.75015,41.70326],[1.75224,41.7034],[1.75321,41.70376],[1.75725,41.70627],[1.75829,41.70649],[1.76057,41.70751],[1.76362,41.70845],[1.76522,41.70906],[1.76688,41.71003],[1.76767,41.70978],[1.76965,41.70988],[1.77081,41.71021],[1.77266,41.71005],[1.77351,41.71023],[1.77447,41.71057],[1.77548,41.71063],[1.77695,41.71048],[1.77747,41.71134],[1.78013,41.71279],[1.7831,41.71309],[1.78585,41.71351],[1.78809,41.711],[1.78894,41.70975],[1.79006,41.7091],[1.79309,41.70777],[1.79479,41.70378],[1.7963,41.70111],[1.79698,41.69892],[1.79856,41.69804],[1.80236,41.69289],[1.80531,41.69306],[1.80575,41.69289],[1.80606,41.69187],[1.80668,41.69096],[1.80707,41.69012],[1.80762,41.68957],[1.80862,41.69043]]]}},{"type":"Feature","properties":{"id":"0809801002"},"geometry":{"type":"Polygon","coordinates":[[[1.79389,41.66752],[1.79358,41.66649],[1.7933,41.66631],[1.79229,41.66609],[1.79216,41.6661],[1.79242,41.66632],[1.79258,41.66675],[1.79245,41.66694],[1.7921,41.66699],[1.79187,41.6672],[1.7917,41.66721],[1.79136,41.66697],[1.79079,41.66675],[1.78994,41.66697],[1.78901,41.66683],[1.78793,41.66693],[1.78779,41.66699],[1.78775,41.66729],[1.78713,41.66726],[1.78653,41.66765],[1.78628,41.66813],[1.78605,41.66834],[1.78534,41.66854],[1.78496,41.66857],[1.78418,41.6684],[1.78258,41.66825],[1.78086,41.66829],[1.7832,41.67197],[1.78379,41.67227],[1.78437,41.67244],[1.78463,41.67262],[1.785,41.67317],[1.78515,41.67387],[1.78473,41.67448],[1.78463,41.67499],[1.78484,41.67564],[1.78534,41.67605],[1.7863,41.67744],[1.78535,41.6777],[1.78447,41.67826],[1.78406,41.67892],[1.7837,41.67918],[1.78093,41.68035],[1.77895,41.68081],[1.77716,41.68147],[1.77527,41.68181],[1.77476,41.68198],[1.7742,41.68287],[1.77427,41.68322],[1.77489,41.68414],[1.77492,41.68446],[1.77476,41.68571],[1.77388,41.68596],[1.77413,41.68635],[1.77431,41.68699],[1.77644,41.68694],[1.77818,41.68663],[1.77879,41.68665],[1.77916,41.68678],[1.77937,41.68712],[1.7798,41.68926],[1.78145,41.69067],[1.78281,41.69331],[1.78347,41.69426],[1.78449,41.69507],[1.78479,41.69512],[1.78804,41.69657],[1.78943,41.69697],[1.78869,41.69614],[1.78861,41.69536],[1.7887,41.69523],[1.78985,41.69482],[1.79169,41.6931],[1.79172,41.69272],[1.79091,41.69224],[1.7878,41.68988],[1.78765,41.68956],[1.78752,41.68707],[1.78706,41.68651],[1.78568,41.68536],[1.7855,41.68496],[1.78561,41.68327],[1.78595,41.68223],[1.78662,41.68144],[1.78741,41.67963],[1.78767,41.67843],[1.79019,41.67755],[1.78968,41.67607],[1.78952,41.67351],[1.78934,41.67281],[1.78905,41.67242],[1.78868,41.6722],[1.78854,41.67153],[1.7888,41.67144],[1.78949,41.67082],[1.79038,41.67056],[1.79031,41.67013],[1.78979,41.66963],[1.78956,41.66891],[1.79389,41.66752]]]}}]}