{"type":"FeatureCollection","features":[{"type":"Feature","properties":{"id":"0810001001"},"geometry":{"type":"Polygon","coordinates":[[[2.25749,41.95286],[2.25429,41.95227],[2.25502,41.95125],[2.25387,41.95096],[2.25415,41.95026],[2.25191,41.94878],[2.24968,41.95857],[2.24589,41.95698],[2.24221,41.95506],[2.23578,41.95131],[2.23392,41.94987],[2.23259,41.94827],[2.23143,41.94627],[2.23076,41.944],[2.2311,41.94185],[2.23199,41.93971],[2.23239,41.93833],[2.23239,41.93703],[2.2322,41.93598],[2.23124,41.93427],[2.23048,41.93455],[2.23022,41.93417],[2.23036,41.93388],[2.2299,41.93306],[2.22991,41.93263],[2.23025,41.93216],[2.2266,41.93163],[2.2256,41.93049],[2.22458,41.93009],[2.22253,41.93199],[2.21926,41.9344],[2.21846,41.93352],[2.21357,41.93564],[2.2094,41.93689],[2.20688,41.93568],[2.20452,41.93415],[2.1996,41.92612],[2.18741,41.92803],[2.18683,41.92849],[2.18593,41.92846],[2.18568,41.92914],[2.18455,41.92933],[2.18396,41.92931],[2.18317,41.92989],[2.18382,41.93025],[2.18302,41.93228],[2.1825,41.93241],[2.18132,41.93251],[2.18034,41.93276],[2.18038,41.93306],[2.17906,41.93275],[2.17851,41.93271],[2.17803,41.93292],[2.17732,41.93266],[2.17749,41.93237],[2.17733,41.93205],[2.17755,41.93132],[2.17629,41.93159],[2.17577,41.93185],[2.17472,41.93207],[2.17423,41.93203],[2.17357,41.93178],[2.17317,41.93204],[2.17277,41.93284],[2.17224,41.93214],[2.1715,41.93267],[2.16972,41.93318],[2.16877,41.93335],[2.16772,41.9359],[2.1684,41.93786],[2.16954,41.93814],[2.17059,41.93748],[2.17133,41.9373],[2.17165,41.93731],[2.17241,41.93704],[2.17275,41.93725],[2.1715,41.93895],[2.17141,41.93958],[2.17126,41.93981],[2.17082,41.9401],[2.17054,41.94062],[2.16908,41.94061],[2.16892,41.94074],[2.16901,41.94138],[2.16881,41.9418],[2.16886,41.94191],[2.16934,41.94218],[2.1694,41.94274],[2.16875,41.94324],[2.16837,41.94334],[2.1684,41.94358],[2.167,41.94391],[2.1669,41.94449],[2.16659,41.94499],[2.16723,41.94568],[2.16731,41.94629],[2.16706,41.947],[2.16714,41.94738],[2.16766,41.94766],[2.16748,41.94814],[2.16771,41.94832],[2.16804,41.94833],[2.16814,41.94847],[2.16799,41.94891],[2.16829,41.94893],[2.16917,41.95041],[2.16897,41.95098],[2.16945,41.95139],[2.1697,41.95292],[2.17006,41.95303],[2.16998,41.9538],[2.17014,41.95431],[2.17068,41.95472],[2.17053,41.95505],[2.17062,41.95542],[2.17044,41.9558],[2.17088,41.95615],[2.1708,41.95662],[2.17091,41.95712],[2.17063,41.95777],[2.17113,41.95852],[2.17078,41.95868],[2.17092,41.95972],[2.1712,41.96024],[2.1717,41.96077],[2.17182,41.96137],[2.1722,41.96156],[2.17236,41.96183],[2.17231,41.96202],[2.17168,41.96222],[2.17164,41.96244],[2.1721,41.9627],[2.1721,41.963],[2.17237,41.96354],[2.17212,41.96375],[2.17268,41.96449],[2.17265,41.9647],[2.17236,41.96498],[2.17237,41.96513],[2.17288,41.96521],[2.17295,41.9654],[2.17268,41.96563],[2.17251,41.96623],[2.17266,41.96677],[2.17317,41.96732],[2.1743,41.96711],[2.17645,41.96728],[2.17681,41.9674],[2.177,41.96764],[2.17779,41.96787],[2.17717,41.96859],[2.17694,41.96918],[2.17695,41.97027],[2.17722,41.97061],[2.17826,41.97116],[2.17888,41.97246],[2.17861,41.97286],[2.17865,41.97358],[2.17893,41.97431],[2.17948,41.97508],[2.17979,41.97643],[2.17983,41.97708],[2.18048,41.97682],[2.18089,41.97695],[2.18195,41.97784],[2.18236,41.9785],[2.18391,41.97962],[2.18478,41.97989],[2.18664,41.97978],[2.18747,41.98073],[2.18897,41.98084],[2.18955,41.98098],[2.19023,41.98088],[2.19101,41.98056],[2.19191,41.98125],[2.19304,41.98239],[2.19329,41.98334],[2.19111,41.98466],[2.19074,41.98515],[2.19054,41.98571],[2.19047,41.98686],[2.1906,41.98728],[2.19052,41.9878],[2.19006,41.98851],[2.19017,41.98987],[2.19163,41.99302],[2.18974,41.99352],[2.18955,41.9938],[2.18943,41.99481],[2.18912,41.99501],[2.18746,41.99538],[2.19624,41.99781],[2.19598,41.99309],[2.20296,41.98742],[2.22264,41.98565],[2.22942,41.98052],[2.23851,41.98388],[2.23923,41.98353],[2.23987,41.98308],[2.24021,41.9826],[2.24096,41.98196],[2.24392,41.98312],[2.24413,41.98385],[2.24417,41.98449],[2.24448,41.98501],[2.24565,41.9851],[2.24669,41.98582],[2.24689,41.98586],[2.2469,41.98617],[2.24747,41.98628],[2.24773,41.98661],[2.24871,41.98877],[2.24851,41.98903],[2.24874,41.98933],[2.24839,41.99091],[2.24878,41.99172],[2.24909,41.99175],[2.24916,41.99206],[2.24945,41.9923],[2.24945,41.9926],[2.24848,41.99319],[2.24856,41.99339],[2.24957,41.9943],[2.25092,41.99393],[2.25833,41.99407],[2.25966,41.99447],[2.26228,41.99544],[2.26328,41.99569],[2.26262,41.99149],[2.26281,41.99078],[2.26551,41.99098],[2.26664,41.98656],[2.26696,41.98436],[2.26733,41.98418],[2.2675,41.98434],[2.27265,41.98423],[2.2832,41.98774],[2.28449,41.98636],[2.28556,41.98554],[2.28711,41.98503],[2.28797,41.98503],[2.28855,41.9849],[2.28967,41.98506],[2.29319,41.98358],[2.29017,41.98363],[2.28913,41.98337],[2.28855,41.98286],[2.28858,41.98228],[2.29003,41.98178],[2.29095,41.98134],[2.29662,41.97734],[2.29694,41.97697],[2.2967,41.97543],[2.29635,41.97444],[2.29564,41.97388],[2.29994,41.97264],[2.29853,41.97185],[2.29873,41.97142],[2.29933,41.97146],[2.29941,41.97116],[2.29889,41.9709],[2.29918,41.97038],[2.30018,41.97114],[2.2995,41.97011],[2.29893,41.96957],[2.29714,41.96691],[2.29283,41.96276],[2.2915,41.96137],[2.28888,41.96029],[2.28776,41.95958],[2.28425,41.9566],[2.28323,41.9588],[2.27971,41.95921],[2.27892,41.95955],[2.27753,41.95972],[2.27707,41.95924],[2.27705,41.95895],[2.27739,41.95869],[2.27747,41.95847],[2.2774,41.95809],[2.27714,41.9577],[2.27669,41.95744],[2.27584,41.9574],[2.27552,41.95727],[2.27474,41.95638],[2.27347,41.95606],[2.27254,41.9554],[2.27185,41.9553],[2.27175,41.95501],[2.27181,41.95451],[2.27147,41.95389],[2.2714,41.95319],[2.26998,41.95338],[2.26964,41.95357],[2.26867,41.95358],[2.26823,41.95374],[2.26767,41.95344],[2.26753,41.95299],[2.26663,41.95254],[2.26511,41.95261],[2.26205,41.95194],[2.26137,41.95257],[2.26116,41.95255],[2.26052,41.95288],[2.25973,41.9529],[2.2594,41.95311],[2.25853,41.95326],[2.25784,41.95381],[2.25752,41.95345],[2.25749,41.95286]]]}},{"type":"Feature","properties":{"id":"0810001002"},"geometry":{"type":"Polygon","coordinates":[[[2.25749,41.95286],[2.25755,41.95155],[2.25782,41.95077],[2.25853,41.94998],[2.25867,41.94951],[2.25925,41.94895],[2.25931,41.94821],[2.25917,41.94793],[2.25852,41.9476],[2.25699,41.9475],[2.25655,41.94732],[2.25602,41.94694],[2.25422,41.94631],[2.25264,41.94613],[2.25199,41.94572],[2.25129,41.94553],[2.25111,41.94488],[2.25059,41.94494],[2.2503,41.9447],[2.25025,41.94409],[2.24963,41.9424],[2.24962,41.94199],[2.24928,41.94093],[2.24904,41.94073],[2.24745,41.94005],[2.24729,41.93964],[2.24692,41.93939],[2.24272,41.93975],[2.24196,41.94007],[2.24123,41.93993],[2.24074,41.93999],[2.24029,41.93947],[2.23959,41.93983],[2.23899,41.93982],[2.23839,41.93953],[2.23891,41.93414],[2.23972,41.9333],[2.24018,41.93304],[2.23731,41.93294],[2.23663,41.93303],[2.23524,41.9334],[2.23488,41.93337],[2.23369,41.93354],[2.2316,41.93403],[2.23124,41.93427],[2.2322,41.93598],[2.23239,41.93703],[2.23239,41.93833],[2.23199,41.93971],[2.2311,41.94185],[2.23076,41.944],[2.23143,41.94627],[2.23259,41.94827],[2.23392,41.94987],[2.23578,41.95131],[2.24221,41.95506],[2.24589,41.95698],[2.24968,41.95857],[2.25191,41.94878],[2.25415,41.95026],[2.25387,41.95096],[2.25502,41.95125],[2.25429,41.95227],[2.25749,41.95286]]]}}]}