{"type":"FeatureCollection","features":[{"type":"Feature","properties":{"id":"0810801001"},"geometry":{"type":"Polygon","coordinates":[[[2.22327,41.57552],[2.2169,41.57206],[2.21571,41.57159],[2.21508,41.57187],[2.21275,41.57013],[2.21207,41.57016],[2.20932,41.56841],[2.20466,41.56859],[2.20451,41.56871],[2.20348,41.5714],[2.20332,41.57459],[2.20299,41.57638],[2.20269,41.57684],[2.20773,41.57822],[2.20843,41.57753],[2.20911,41.57772],[2.2108,41.58138],[2.21171,41.58302],[2.21155,41.58306],[2.21164,41.58319],[2.21144,41.58336],[2.21151,41.58379],[2.21128,41.584],[2.21093,41.58401],[2.21086,41.58416],[2.21143,41.58447],[2.21144,41.58457],[2.21104,41.5848],[2.21109,41.58524],[2.21186,41.58633],[2.21197,41.58691],[2.21238,41.58733],[2.21218,41.58797],[2.21249,41.58845],[2.21233,41.5896],[2.2127,41.59021],[2.21272,41.59086],[2.2129,41.59141],[2.21267,41.59196],[2.21285,41.59239],[2.21277,41.59268],[2.2128,41.59395],[2.21332,41.59472],[2.2133,41.59596],[2.21406,41.59668],[2.214,41.5968],[2.21418,41.59699],[2.21651,41.5972],[2.21749,41.59743],[2.21639,41.60031],[2.2157,41.60118],[2.2162,41.60166],[2.21703,41.6019],[2.21838,41.60173],[2.21886,41.60199],[2.21918,41.60199],[2.21859,41.60276],[2.21858,41.60331],[2.21882,41.60356],[2.22279,41.59877],[2.22228,41.59861],[2.22046,41.59845],[2.22022,41.59819],[2.22008,41.59681],[2.22062,41.5953],[2.22048,41.59458],[2.22107,41.59331],[2.22058,41.59259],[2.21896,41.59144],[2.21881,41.59042],[2.21887,41.58923],[2.21899,41.58902],[2.21894,41.58822],[2.22117,41.58818],[2.22094,41.58739],[2.22112,41.58713],[2.22063,41.5851],[2.22007,41.58409],[2.22073,41.58444],[2.22199,41.58452],[2.22308,41.58469],[2.2236,41.5849],[2.22463,41.58575],[2.2253,41.58596],[2.22485,41.58706],[2.22549,41.58719],[2.22612,41.58707],[2.22634,41.58662],[2.22873,41.58555],[2.22845,41.5853],[2.22793,41.58509],[2.22824,41.58482],[2.22911,41.5853],[2.22972,41.58483],[2.22981,41.58453],[2.23017,41.58441],[2.23038,41.58401],[2.23031,41.5833],[2.23014,41.58343],[2.22974,41.58316],[2.22935,41.58269],[2.23,41.58246],[2.23094,41.58276],[2.23063,41.58297],[2.23054,41.58319],[2.23063,41.58385],[2.23414,41.5834],[2.23349,41.58305],[2.23319,41.58233],[2.23392,41.58207],[2.23278,41.58177],[2.23291,41.58236],[2.23216,41.58259],[2.23151,41.58264],[2.23087,41.58237],[2.23081,41.58223],[2.22937,41.58182],[2.22884,41.58211],[2.22804,41.58228],[2.22729,41.58231],[2.22604,41.58275],[2.2257,41.5823],[2.2268,41.58178],[2.22502,41.58086],[2.22648,41.57952],[2.22689,41.57881],[2.22743,41.5783],[2.22767,41.57779],[2.22724,41.57749],[2.22579,41.5768],[2.2233,41.57623],[2.22327,41.57552]]]}},{"type":"Feature","properties":{"id":"0810801002"},"geometry":{"type":"Polygon","coordinates":[[[2.22762,41.60608],[2.22792,41.60519],[2.22878,41.60377],[2.22997,41.60414],[2.23062,41.60418],[2.23494,41.60272],[2.23511,41.60209],[2.23549,41.60154],[2.23631,41.60135],[2.23662,41.60118],[2.237,41.60081],[2.23732,41.60017],[2.24003,41.60108],[2.24092,41.6016],[2.24122,41.60136],[2.24218,41.5993],[2.24214,41.5988],[2.24225,41.59828],[2.24162,41.5978],[2.241,41.5977],[2.24146,41.59671],[2.24129,41.59608],[2.2416,41.59545],[2.24098,41.5943],[2.24114,41.59301],[2.24057,41.59235],[2.24034,41.58951],[2.23993,41.58953],[2.23983,41.58877],[2.24005,41.58871],[2.2396,41.58745],[2.2373,41.58591],[2.23367,41.58968],[2.23122,41.59171],[2.22886,41.59519],[2.22784,41.59622],[2.2256,41.59537],[2.21882,41.60356],[2.21922,41.60384],[2.22018,41.604],[2.22064,41.60401],[2.22113,41.60372],[2.22125,41.6039],[2.22121,41.60423],[2.22136,41.60441],[2.22361,41.60556],[2.22484,41.6066],[2.22526,41.60638],[2.22551,41.60651],[2.22565,41.60648],[2.22683,41.60597],[2.22762,41.60608]]]}},{"type":"Feature","properties":{"id":"0810801003"},"geometry":{"type":"Polygon","coordinates":[[[2.23652,41.5782],[2.23628,41.57874],[2.23537,41.5785],[2.23478,41.57848],[2.23479,41.57821],[2.23366,41.57799],[2.23034,41.57786],[2.22579,41.5768],[2.22724,41.57749],[2.22767,41.57779],[2.22743,41.5783],[2.22689,41.57881],[2.22648,41.57952],[2.22502,41.58086],[2.2268,41.58178],[2.2257,41.5823],[2.22604,41.58275],[2.22729,41.58231],[2.22804,41.58228],[2.22884,41.58211],[2.22937,41.58182],[2.23081,41.58223],[2.23087,41.58237],[2.23151,41.58264],[2.23216,41.58259],[2.23291,41.58236],[2.23278,41.58177],[2.23392,41.58207],[2.23319,41.58233],[2.23349,41.58305],[2.23414,41.5834],[2.23063,41.58385],[2.23054,41.58319],[2.23063,41.58297],[2.23094,41.58276],[2.23,41.58246],[2.22935,41.58269],[2.22974,41.58316],[2.23014,41.58343],[2.23031,41.5833],[2.23038,41.58401],[2.23017,41.58441],[2.22981,41.58453],[2.22972,41.58483],[2.22911,41.5853],[2.22824,41.58482],[2.22793,41.58509],[2.22845,41.5853],[2.22873,41.58555],[2.22634,41.58662],[2.22612,41.58707],[2.22549,41.58719],[2.22485,41.58706],[2.2253,41.58596],[2.22463,41.58575],[2.2236,41.5849],[2.22308,41.58469],[2.22199,41.58452],[2.22073,41.58444],[2.22007,41.58409],[2.22063,41.5851],[2.22112,41.58713],[2.22094,41.58739],[2.22117,41.58818],[2.21894,41.58822],[2.21899,41.58902],[2.21887,41.58923],[2.21881,41.59042],[2.21896,41.59144],[2.22058,41.59259],[2.22107,41.59331],[2.22048,41.59458],[2.22062,41.5953],[2.22008,41.59681],[2.22022,41.59819],[2.22046,41.59845],[2.22228,41.59861],[2.22279,41.59877],[2.2256,41.59537],[2.22784,41.59622],[2.22886,41.59519],[2.23122,41.59171],[2.23367,41.58968],[2.23844,41.58474],[2.23888,41.5846],[2.24027,41.58386],[2.24136,41.5838],[2.24182,41.584],[2.24195,41.58393],[2.24137,41.58325],[2.24154,41.58309],[2.24141,41.58214],[2.24211,41.5814],[2.24324,41.57943],[2.23652,41.5782]]]}},{"type":"Feature","properties":{"id":"0810801004"},"geometry":{"type":"Polygon","coordinates":[[[2.24279,41.59859],[2.24285,41.59785],[2.24362,41.59779],[2.24534,41.59746],[2.24858,41.59742],[2.25287,41.59608],[2.25428,41.59624],[2.25842,41.59616],[2.26234,41.59635],[2.26113,41.59353],[2.25923,41.58335],[2.25917,41.58241],[2.2589,41.58152],[2.25622,41.5813],[2.25348,41.58092],[2.25367,41.5812],[2.24992,41.58077],[2.2496,41.58061],[2.24791,41.58096],[2.24779,41.58051],[2.24591,41.58023],[2.24547,41.57983],[2.2432,41.57949],[2.24211,41.5814],[2.24141,41.58214],[2.24154,41.58309],[2.24137,41.58325],[2.24195,41.58393],[2.24182,41.584],[2.24136,41.5838],[2.24027,41.58386],[2.23888,41.5846],[2.23844,41.58474],[2.2373,41.58591],[2.2396,41.58745],[2.24005,41.58871],[2.23983,41.58877],[2.23993,41.58953],[2.24034,41.58951],[2.24057,41.59235],[2.24114,41.59301],[2.24098,41.5943],[2.2416,41.59545],[2.24129,41.59608],[2.24146,41.59671],[2.241,41.5977],[2.24162,41.5978],[2.24225,41.59828],[2.24215,41.59896],[2.24279,41.59859]]]}}]}