{"type":"FeatureCollection","features":[{"type":"Feature","properties":{"id":"0811501001"},"geometry":{"type":"Polygon","coordinates":[[[2.25344,41.53172],[2.25269,41.53135],[2.25321,41.53035],[2.2526,41.52948],[2.25111,41.52961],[2.25048,41.52639],[2.24978,41.52624],[2.24923,41.52572],[2.24813,41.52596],[2.24795,41.5253],[2.24766,41.52535],[2.24569,41.52496],[2.24626,41.52341],[2.24512,41.52322],[2.24424,41.52342],[2.24354,41.52339],[2.24358,41.52313],[2.24397,41.52247],[2.24395,41.52216],[2.24336,41.52162],[2.24289,41.52081],[2.24209,41.52068],[2.24062,41.52092],[2.24035,41.52199],[2.23919,41.52245],[2.23815,41.52213],[2.23694,41.52322],[2.23648,41.52452],[2.23444,41.52507],[2.23422,41.52486],[2.23428,41.52524],[2.23498,41.52633],[2.23513,41.52654],[2.23551,41.52673],[2.23597,41.52678],[2.23718,41.52637],[2.23756,41.52641],[2.23759,41.52671],[2.23773,41.52676],[2.23923,41.52679],[2.24062,41.52717],[2.24149,41.52728],[2.24141,41.52757],[2.24126,41.52764],[2.24184,41.52769],[2.24329,41.52826],[2.24468,41.52833],[2.24531,41.52843],[2.24557,41.52855],[2.24565,41.52871],[2.24623,41.52869],[2.24709,41.52889],[2.24718,41.52918],[2.24757,41.52969],[2.24785,41.52976],[2.24796,41.52995],[2.2482,41.52997],[2.24836,41.53012],[2.24866,41.53016],[2.24963,41.5306],[2.24982,41.53079],[2.24985,41.53107],[2.25071,41.53204],[2.25194,41.53254],[2.25223,41.53258],[2.25275,41.53233],[2.25344,41.53172]]]}},{"type":"Feature","properties":{"id":"0811501002"},"geometry":{"type":"Polygon","coordinates":[[[2.24406,41.5378],[2.25007,41.5355],[2.24943,41.5339],[2.25223,41.53258],[2.25194,41.53254],[2.25071,41.53204],[2.24985,41.53107],[2.24982,41.53079],[2.24963,41.5306],[2.24866,41.53016],[2.24836,41.53012],[2.2482,41.52997],[2.24796,41.52995],[2.24785,41.52976],[2.24765,41.52973],[2.2474,41.52954],[2.24709,41.52889],[2.24623,41.52869],[2.24565,41.52871],[2.24557,41.52855],[2.24531,41.52843],[2.24468,41.52833],[2.24329,41.52826],[2.24184,41.52769],[2.24126,41.52764],[2.23969,41.52802],[2.23915,41.52788],[2.2373,41.52777],[2.23607,41.52749],[2.23354,41.52721],[2.23084,41.52776],[2.22708,41.52736],[2.22662,41.52711],[2.22098,41.53119],[2.2295,41.53987],[2.23273,41.54191],[2.24284,41.5381],[2.24406,41.5378]]]}},{"type":"Feature","properties":{"id":"0811501003"},"geometry":{"type":"Polygon","coordinates":[[[2.23423,41.52489],[2.23397,41.52489],[2.23378,41.52452],[2.22843,41.52581],[2.22789,41.5263],[2.22662,41.52711],[2.22708,41.52736],[2.23084,41.52776],[2.23354,41.52721],[2.23607,41.52749],[2.2373,41.52777],[2.23915,41.52788],[2.23969,41.52802],[2.24141,41.52757],[2.24149,41.52728],[2.24062,41.52717],[2.23923,41.52679],[2.23773,41.52676],[2.23759,41.52671],[2.23756,41.52641],[2.23724,41.52636],[2.23597,41.52678],[2.23528,41.52665],[2.23428,41.52524],[2.23423,41.52489]]]}}]}