{"type":"FeatureCollection","features":[{"type":"Feature","properties":{"id":"0811701001"},"geometry":{"type":"Polygon","coordinates":[[[2.23923,41.98353],[2.23791,41.98419],[2.2369,41.98517],[2.23533,41.98565],[2.23536,41.98596],[2.23498,41.98616],[2.23481,41.98643],[2.23451,41.98776],[2.23445,41.98896],[2.23432,41.9894],[2.23452,41.99018],[2.23358,41.99059],[2.23306,41.99094],[2.23256,41.9911],[2.23071,41.99609],[2.2311,41.99885],[2.2294,42.00005],[2.22957,42.00056],[2.22225,42.00551],[2.22031,42.00664],[2.21707,42.00894],[2.21128,42.01208],[2.20955,42.01067],[2.20847,42.00942],[2.20768,42.00882],[2.20425,42.00668],[2.20411,42.00752],[2.20454,42.00866],[2.20477,42.00975],[2.20495,42.01148],[2.20472,42.01202],[2.20399,42.01309],[2.20319,42.0137],[2.20142,42.01317],[2.20084,42.01278],[2.19972,42.01125],[2.19959,42.01207],[2.19982,42.01279],[2.1985,42.0128],[2.19861,42.01355],[2.19756,42.01315],[2.19791,42.01443],[2.19764,42.01527],[2.20053,42.01861],[2.19813,42.02125],[2.19909,42.02434],[2.19934,42.02381],[2.19956,42.02359],[2.20092,42.02287],[2.20267,42.0223],[2.20366,42.02178],[2.20478,42.02166],[2.20585,42.02139],[2.2066,42.02034],[2.20716,42.01975],[2.20776,42.01931],[2.20805,42.01931],[2.20858,42.01963],[2.20907,42.01953],[2.20994,42.01956],[2.21071,42.01974],[2.21141,42.02013],[2.21216,42.02025],[2.21233,42.02013],[2.21203,42.01952],[2.21212,42.01874],[2.21237,42.0184],[2.21314,42.01815],[2.21388,42.01771],[2.21433,42.0177],[2.2151,42.01797],[2.21543,42.018],[2.2165,42.01738],[2.2189,42.01688],[2.22026,42.01619],[2.22298,42.01563],[2.22569,42.01585],[2.22867,42.0157],[2.22971,42.01589],[2.22965,42.01578],[2.22929,42.01561],[2.2293,42.01544],[2.22986,42.01527],[2.23065,42.01472],[2.23069,42.0143],[2.2312,42.01384],[2.23107,42.01362],[2.23158,42.0135],[2.23129,42.01342],[2.23125,42.01326],[2.23286,42.01257],[2.2335,42.01207],[2.23399,42.01213],[2.23429,42.0119],[2.23534,42.01153],[2.23609,42.01142],[2.23627,42.01118],[2.23692,42.01088],[2.23838,42.01068],[2.2406,42.01075],[2.24226,42.01198],[2.24268,42.01248],[2.24313,42.01233],[2.24388,42.01229],[2.24466,42.01243],[2.24476,42.01264],[2.24534,42.01282],[2.24521,42.01327],[2.24501,42.01339],[2.2454,42.01355],[2.24535,42.01385],[2.24465,42.01519],[2.24326,42.01695],[2.24265,42.01916],[2.24214,42.01912],[2.24181,42.0195],[2.24291,42.02151],[2.24329,42.02319],[2.24441,42.02426],[2.24446,42.02477],[2.24468,42.02495],[2.24559,42.02531],[2.24671,42.02607],[2.24712,42.02646],[2.24746,42.02695],[2.24768,42.02777],[2.2476,42.02847],[2.25288,42.03023],[2.25673,42.03041],[2.2585,42.02872],[2.25755,42.02602],[2.25218,42.02072],[2.25253,42.01919],[2.25397,42.01792],[2.25761,42.01681],[2.25871,42.0146],[2.25804,42.01326],[2.25598,42.01166],[2.24651,42.00784],[2.24358,42.00333],[2.24359,42.00007],[2.2445,41.99756],[2.24891,41.99441],[2.24957,41.9943],[2.24856,41.99339],[2.24848,41.99319],[2.24945,41.9926],[2.24945,41.9923],[2.24916,41.99206],[2.24909,41.99175],[2.24878,41.99172],[2.24839,41.99091],[2.24874,41.98933],[2.24851,41.98903],[2.24871,41.98877],[2.24773,41.98661],[2.24747,41.98628],[2.2469,41.98617],[2.24689,41.98586],[2.24669,41.98582],[2.24565,41.9851],[2.24448,41.98501],[2.24417,41.98449],[2.24413,41.98385],[2.24392,41.98312],[2.24096,41.98196],[2.24021,41.9826],[2.23987,41.98308],[2.23923,41.98353]]]}},{"type":"Feature","properties":{"id":"0811702001"},"geometry":{"type":"Polygon","coordinates":[[[2.24243,42.05352],[2.2438,42.05143],[2.24758,42.04889],[2.25473,42.04724],[2.25679,42.04564],[2.25704,42.04265],[2.25501,42.04204],[2.24401,42.04246],[2.23876,42.04659],[2.23732,42.04636],[2.23616,42.04452],[2.2365,42.04282],[2.24123,42.03885],[2.24299,42.03086],[2.24456,42.02868],[2.24714,42.02832],[2.2476,42.02847],[2.24768,42.02777],[2.24746,42.02695],[2.24712,42.02646],[2.24671,42.02607],[2.24559,42.02531],[2.24468,42.02495],[2.24446,42.02477],[2.24441,42.02426],[2.24329,42.02319],[2.24291,42.02151],[2.24181,42.0195],[2.24076,42.01974],[2.24073,42.02005],[2.24046,42.02004],[2.23848,42.01977],[2.2374,42.01905],[2.23574,42.01897],[2.23569,42.01989],[2.23562,42.02005],[2.23541,42.02013],[2.23505,42.01988],[2.23431,42.01966],[2.23164,42.01938],[2.23312,42.01699],[2.23283,42.01686],[2.23284,42.01643],[2.23236,42.01649],[2.23212,42.01624],[2.23161,42.01647],[2.23069,42.01639],[2.23059,42.01648],[2.23043,42.01647],[2.23041,42.01631],[2.23008,42.01615],[2.2297,42.01643],[2.22963,42.01623],[2.22971,42.01589],[2.22867,42.0157],[2.22569,42.01585],[2.22298,42.01563],[2.22026,42.01619],[2.2189,42.01688],[2.2165,42.01738],[2.21543,42.018],[2.2151,42.01797],[2.21433,42.0177],[2.21388,42.01771],[2.21314,42.01815],[2.21237,42.0184],[2.21212,42.01874],[2.21203,42.01952],[2.21233,42.02005],[2.21222,42.02024],[2.21141,42.02013],[2.21071,42.01974],[2.20994,42.01956],[2.20907,42.01953],[2.20858,42.01963],[2.20805,42.01931],[2.20784,42.01929],[2.20742,42.01953],[2.2066,42.02034],[2.20585,42.02139],[2.20478,42.02166],[2.20366,42.02178],[2.20267,42.0223],[2.20092,42.02287],[2.19956,42.02359],[2.19934,42.02381],[2.19909,42.02434],[2.19916,42.02455],[2.19803,42.02552],[2.19748,42.02567],[2.19653,42.02578],[2.19613,42.02604],[2.19539,42.02708],[2.19417,42.02736],[2.19374,42.02807],[2.19305,42.02961],[2.19123,42.03022],[2.18847,42.033],[2.19085,42.03655],[2.19225,42.03808],[2.19457,42.03888],[2.1998,42.04113],[2.20182,42.04184],[2.20514,42.04268],[2.2086,42.04339],[2.21557,42.04517],[2.21876,42.04604],[2.21979,42.04642],[2.22607,42.05026],[2.22972,42.05104],[2.233,42.05219],[2.23491,42.05446],[2.24243,42.05352]]]}}]}