{"type":"FeatureCollection","features":[{"type":"Feature","properties":{"id":"0814601001"},"geometry":{"type":"Polygon","coordinates":[[[1.87943,41.34422],[1.87889,41.34423],[1.87746,41.34399],[1.87468,41.3443],[1.874,41.34428],[1.87221,41.34367],[1.87015,41.34264],[1.8697,41.34201],[1.87096,41.34047],[1.87191,41.33854],[1.86737,41.33652],[1.86534,41.33519],[1.8645,41.3349],[1.86392,41.33482],[1.86293,41.33431],[1.86234,41.3343],[1.86182,41.33388],[1.86137,41.33373],[1.86029,41.33242],[1.86015,41.33206],[1.86049,41.33029],[1.85981,41.3296],[1.8593,41.32966],[1.85883,41.32959],[1.85845,41.32932],[1.8582,41.32891],[1.85803,41.32814],[1.85784,41.32792],[1.85647,41.32707],[1.85289,41.32],[1.85192,41.31923],[1.85092,41.31905],[1.8477,41.31942],[1.84054,41.31908],[1.83982,41.31918],[1.83905,41.31959],[1.83809,41.3205],[1.83658,41.32252],[1.83476,41.32359],[1.8335,41.32475],[1.83248,41.32521],[1.82992,41.32539],[1.828,41.32672],[1.82504,41.32767],[1.82559,41.33424],[1.82542,41.33445],[1.82449,41.33492],[1.82258,41.33466],[1.82123,41.33516],[1.81844,41.33679],[1.81747,41.33719],[1.81543,41.33761],[1.81477,41.33787],[1.8142,41.33829],[1.81445,41.33845],[1.8151,41.3384],[1.81604,41.33816],[1.81651,41.3382],[1.81615,41.33894],[1.81567,41.33929],[1.81568,41.33943],[1.81599,41.33968],[1.81684,41.33981],[1.81717,41.33996],[1.81773,41.34055],[1.81792,41.34094],[1.81841,41.34116],[1.81864,41.34176],[1.81898,41.34204],[1.8191,41.34236],[1.81862,41.34283],[1.819,41.34367],[1.81903,41.34396],[1.81749,41.34472],[1.81227,41.34789],[1.81111,41.34891],[1.8106,41.34992],[1.81008,41.35011],[1.80931,41.35007],[1.80862,41.35018],[1.80732,41.34987],[1.8065,41.35],[1.80619,41.34993],[1.80581,41.34955],[1.80541,41.34939],[1.80497,41.34932],[1.80451,41.34941],[1.80401,41.34961],[1.80375,41.34983],[1.8034,41.35092],[1.80343,41.35131],[1.81292,41.35527],[1.81614,41.35684],[1.81819,41.35773],[1.81861,41.35786],[1.82136,41.35824],[1.82176,41.35844],[1.82262,41.35945],[1.82427,41.36024],[1.82506,41.36092],[1.82585,41.36196],[1.82652,41.36306],[1.82747,41.36354],[1.82824,41.36446],[1.83002,41.36579],[1.83083,41.36743],[1.83182,41.36892],[1.83244,41.36945],[1.83222,41.37011],[1.83295,41.37155],[1.83307,41.37203],[1.83238,41.37302],[1.83193,41.37393],[1.83287,41.37472],[1.83496,41.37485],[1.83503,41.3746],[1.8356,41.37391],[1.83679,41.3753],[1.83841,41.37668],[1.84032,41.37687],[1.84321,41.37887],[1.8438,41.3785],[1.84423,41.37843],[1.84687,41.37825],[1.84788,41.37834],[1.84996,41.38011],[1.85118,41.3801],[1.85478,41.38038],[1.85528,41.37877],[1.85641,41.37629],[1.85605,41.37546],[1.85681,41.37352],[1.85564,41.37274],[1.85493,41.37139],[1.85642,41.36958],[1.85586,41.36884],[1.85603,41.36845],[1.8555,41.36809],[1.85586,41.36754],[1.85755,41.36717],[1.85731,41.36657],[1.85778,41.36617],[1.85847,41.36591],[1.86007,41.36294],[1.86064,41.36246],[1.86041,41.36209],[1.86076,41.36131],[1.85895,41.36139],[1.85912,41.361],[1.85876,41.36025],[1.85901,41.35819],[1.85797,41.35785],[1.85696,41.35789],[1.85522,41.35758],[1.85589,41.35702],[1.85467,41.35562],[1.85605,41.35511],[1.85711,41.35438],[1.85712,41.35316],[1.85818,41.35243],[1.85812,41.35167],[1.85902,41.35148],[1.85945,41.35054],[1.86112,41.34986],[1.86292,41.34963],[1.86408,41.35027],[1.86507,41.34985],[1.86689,41.34992],[1.86974,41.34881],[1.87384,41.3481],[1.8758,41.34589],[1.87781,41.3458],[1.87879,41.3453],[1.87943,41.34422]]]}},{"type":"Feature","properties":{"id":"0814601002"},"geometry":{"type":"Polygon","coordinates":[[[1.8974,41.35913],[1.89701,41.3584],[1.89689,41.35793],[1.89715,41.35716],[1.89667,41.35688],[1.89859,41.35497],[1.89825,41.35481],[1.89699,41.35314],[1.89622,41.35147],[1.89518,41.35099],[1.89438,41.35074],[1.89228,41.35051],[1.89139,41.34989],[1.88974,41.34797],[1.88937,41.34775],[1.8888,41.34766],[1.88741,41.34706],[1.88364,41.3451],[1.88334,41.34488],[1.88278,41.34387],[1.88192,41.34385],[1.88049,41.3442],[1.87943,41.34422],[1.87879,41.3453],[1.87781,41.3458],[1.8758,41.34589],[1.87384,41.3481],[1.86974,41.34881],[1.86689,41.34992],[1.86507,41.34985],[1.86408,41.35027],[1.86292,41.34963],[1.86112,41.34986],[1.85945,41.35054],[1.85902,41.35148],[1.85812,41.35167],[1.85818,41.35243],[1.85712,41.35316],[1.85711,41.35438],[1.85605,41.35511],[1.85467,41.35562],[1.85589,41.35702],[1.85522,41.35758],[1.85696,41.35789],[1.85797,41.35785],[1.85901,41.35819],[1.85876,41.36025],[1.85912,41.361],[1.85895,41.36139],[1.86076,41.36131],[1.86041,41.36209],[1.86064,41.36246],[1.86007,41.36294],[1.85847,41.36591],[1.85778,41.36617],[1.85731,41.36657],[1.85755,41.36717],[1.85586,41.36754],[1.8555,41.36809],[1.85603,41.36845],[1.85586,41.36884],[1.85642,41.36958],[1.85493,41.37139],[1.85564,41.37274],[1.85681,41.37352],[1.85605,41.37546],[1.85641,41.37629],[1.85528,41.37877],[1.85478,41.38038],[1.8559,41.38081],[1.85686,41.38155],[1.85854,41.38266],[1.8586,41.38313],[1.8589,41.38389],[1.85987,41.38499],[1.86011,41.38719],[1.861,41.38772],[1.86195,41.38803],[1.86412,41.38747],[1.8667,41.387],[1.86821,41.387],[1.86947,41.38711],[1.87035,41.38345],[1.87089,41.38046],[1.87348,41.37953],[1.87635,41.37677],[1.87782,41.3755],[1.88129,41.37337],[1.8816,41.37342],[1.88194,41.3733],[1.88209,41.37315],[1.88353,41.37305],[1.88474,41.37283],[1.8869,41.37234],[1.88729,41.37208],[1.88891,41.37035],[1.88974,41.36727],[1.88896,41.36572],[1.89028,41.36341],[1.89024,41.36282],[1.89258,41.36153],[1.89343,41.36127],[1.89372,41.36107],[1.89399,41.36098],[1.89557,41.36082],[1.89617,41.36043],[1.89656,41.3604],[1.89701,41.36018],[1.89736,41.35954],[1.8974,41.35913]]]}}]}