{"type":"FeatureCollection","features":[{"type":"Feature","properties":{"id":"0815701001"},"geometry":{"type":"Polygon","coordinates":[[[2.00303,41.40883],[2.00278,41.40874],[1.99839,41.40579],[1.99287,41.40889],[1.99106,41.40936],[1.98897,41.40834],[1.98871,41.40864],[1.98819,41.41083],[1.98791,41.41139],[1.98773,41.4115],[1.98671,41.41174],[1.98497,41.41106],[1.98349,41.41115],[1.98192,41.41267],[1.98406,41.41358],[1.98347,41.41431],[1.98363,41.41439],[1.98377,41.41489],[1.98385,41.41488],[1.98388,41.41448],[1.98409,41.41454],[1.98418,41.41528],[1.98458,41.41569],[1.98561,41.4159],[1.98658,41.41572],[1.98761,41.41582],[1.98824,41.41599],[1.98934,41.41673],[1.98876,41.41748],[1.98874,41.41958],[1.98848,41.41972],[1.9883,41.42049],[1.98907,41.42043],[1.98923,41.42053],[1.98968,41.4203],[1.98978,41.42055],[1.99002,41.42047],[1.99024,41.42061],[1.99047,41.42008],[1.99052,41.41917],[1.99077,41.41871],[1.991,41.41895],[1.99093,41.41966],[1.99106,41.41981],[1.99149,41.42017],[1.99288,41.42058],[1.99306,41.42075],[1.99297,41.42108],[1.99532,41.42135],[1.99622,41.42161],[1.99664,41.42185],[1.99713,41.42199],[1.99858,41.41748],[2.00303,41.40883]]]}},{"type":"Feature","properties":{"id":"0815701002"},"geometry":{"type":"Polygon","coordinates":[[[1.99523,41.43581],[1.99758,41.43196],[1.99996,41.43042],[2.00245,41.42658],[2.00554,41.42487],[2.0054,41.42447],[1.99847,41.42345],[1.99863,41.42288],[1.99778,41.42278],[1.99786,41.42249],[1.99695,41.42272],[1.99523,41.42975],[1.99302,41.43502],[1.99261,41.43627],[1.99176,41.43752],[1.99143,41.43772],[1.98908,41.43831],[1.99051,41.43981],[1.99523,41.43581]]]}},{"type":"Feature","properties":{"id":"0815701003"},"geometry":{"type":"Polygon","coordinates":[[[1.99302,41.43502],[1.99523,41.42975],[1.99713,41.42199],[1.99664,41.42185],[1.99622,41.42161],[1.99532,41.42135],[1.99297,41.42108],[1.99306,41.42075],[1.99288,41.42058],[1.99149,41.42017],[1.99106,41.41981],[1.99093,41.41966],[1.991,41.41895],[1.99077,41.41871],[1.99052,41.41917],[1.99047,41.42008],[1.99024,41.42061],[1.99002,41.42047],[1.98978,41.42055],[1.98968,41.4203],[1.98923,41.42053],[1.98907,41.42043],[1.9883,41.42049],[1.98761,41.42087],[1.98771,41.42165],[1.98749,41.42294],[1.98752,41.42404],[1.98704,41.42441],[1.98652,41.42458],[1.98568,41.42427],[1.98507,41.42385],[1.98486,41.42385],[1.98472,41.42391],[1.98468,41.42406],[1.98498,41.42475],[1.98494,41.42489],[1.98437,41.42452],[1.9838,41.42392],[1.98292,41.42351],[1.98261,41.42297],[1.98188,41.42311],[1.98171,41.42304],[1.98158,41.42283],[1.98086,41.42243],[1.98074,41.4222],[1.98113,41.4214],[1.98114,41.42107],[1.98036,41.42136],[1.97957,41.4214],[1.97924,41.42165],[1.97915,41.42199],[1.97929,41.4225],[1.97966,41.42256],[1.97988,41.42272],[1.97981,41.42323],[1.98031,41.42337],[1.98089,41.42432],[1.98092,41.42454],[1.9806,41.42487],[1.98026,41.42507],[1.9799,41.42573],[1.97977,41.42624],[1.97952,41.42658],[1.97673,41.42608],[1.97633,41.42615],[1.97664,41.42677],[1.97711,41.42731],[1.97699,41.42795],[1.97669,41.42832],[1.97704,41.4288],[1.97587,41.4292],[1.97524,41.4298],[1.97479,41.43006],[1.97306,41.43034],[1.97439,41.43218],[1.97619,41.43238],[1.97834,41.43297],[1.98044,41.43376],[1.98245,41.43419],[1.98262,41.43466],[1.98371,41.43464],[1.98473,41.43428],[1.98695,41.43485],[1.98704,41.43563],[1.98602,41.43691],[1.98993,41.43925],[1.98908,41.43831],[1.99106,41.43784],[1.99176,41.43752],[1.99261,41.43627],[1.99302,41.43502]]]}},{"type":"Feature","properties":{"id":"0815701004"},"geometry":{"type":"Polygon","coordinates":[[[1.97713,41.42752],[1.97701,41.42713],[1.97664,41.42677],[1.97631,41.42622],[1.97637,41.42612],[1.97673,41.42608],[1.97784,41.42624],[1.97952,41.42658],[1.97977,41.42624],[1.9799,41.42573],[1.98026,41.42507],[1.9806,41.42487],[1.98092,41.42454],[1.98089,41.42432],[1.98031,41.42337],[1.97981,41.42323],[1.97988,41.42272],[1.97966,41.42256],[1.97929,41.4225],[1.97915,41.42199],[1.97924,41.42165],[1.97957,41.4214],[1.98036,41.42136],[1.98114,41.42107],[1.98113,41.4214],[1.98074,41.4222],[1.98086,41.42243],[1.98158,41.42283],[1.98171,41.42304],[1.98188,41.42311],[1.98261,41.42297],[1.98292,41.42351],[1.9838,41.42392],[1.98437,41.42452],[1.98494,41.42489],[1.98498,41.42475],[1.98468,41.42406],[1.98472,41.42391],[1.98486,41.42385],[1.98507,41.42385],[1.98568,41.42427],[1.98652,41.42458],[1.98704,41.42441],[1.98752,41.42404],[1.98749,41.42294],[1.98771,41.42165],[1.98761,41.42087],[1.98825,41.42056],[1.98838,41.42036],[1.98848,41.41972],[1.98874,41.41958],[1.98876,41.41748],[1.98934,41.41673],[1.98824,41.41599],[1.9871,41.41575],[1.98658,41.41572],[1.98561,41.4159],[1.98482,41.41577],[1.98431,41.41549],[1.98418,41.41528],[1.984,41.41446],[1.98388,41.41448],[1.98385,41.41488],[1.98377,41.41489],[1.98363,41.41439],[1.98347,41.41431],[1.98321,41.41463],[1.97967,41.41355],[1.97817,41.41331],[1.97765,41.41335],[1.97857,41.41442],[1.97688,41.41445],[1.97598,41.41437],[1.97622,41.4158],[1.97559,41.41575],[1.97412,41.4154],[1.9735,41.41512],[1.97322,41.41551],[1.97376,41.41614],[1.97358,41.41775],[1.9716,41.41687],[1.9708,41.41693],[1.96992,41.41676],[1.96951,41.41697],[1.96854,41.41662],[1.96855,41.41635],[1.96668,41.4164],[1.96699,41.41668],[1.96738,41.4174],[1.96602,41.4174],[1.96585,41.41778],[1.96332,41.41675],[1.96206,41.41635],[1.96177,41.41657],[1.96227,41.41802],[1.96045,41.41771],[1.96025,41.4173],[1.96,41.41711],[1.95946,41.41704],[1.95874,41.41679],[1.95818,41.41711],[1.9574,41.41668],[1.95576,41.41644],[1.95488,41.41671],[1.95561,41.41753],[1.95496,41.41729],[1.95372,41.41757],[1.95308,41.41741],[1.95286,41.41748],[1.95286,41.41783],[1.95146,41.41747],[1.9507,41.41737],[1.94936,41.41743],[1.94758,41.41669],[1.94623,41.41669],[1.945,41.4173],[1.94532,41.41756],[1.9452,41.41757],[1.94524,41.41889],[1.94558,41.41972],[1.94563,41.4202],[1.94534,41.42022],[1.94726,41.42075],[1.94812,41.42083],[1.94898,41.42116],[1.95001,41.42089],[1.95125,41.42042],[1.95262,41.4203],[1.95321,41.41989],[1.95379,41.41976],[1.95526,41.41974],[1.95584,41.41956],[1.95612,41.41961],[1.95699,41.42018],[1.95811,41.4205],[1.95953,41.42104],[1.96051,41.42111],[1.96272,41.42166],[1.96459,41.42275],[1.96497,41.42307],[1.9653,41.42462],[1.96622,41.42535],[1.96649,41.42551],[1.96707,41.42566],[1.96795,41.42642],[1.96862,41.42778],[1.96897,41.42791],[1.96941,41.42784],[1.97067,41.42792],[1.97108,41.42801],[1.97238,41.42857],[1.97306,41.43034],[1.97479,41.43006],[1.97524,41.4298],[1.97587,41.4292],[1.97704,41.4288],[1.97669,41.42832],[1.97699,41.42795],[1.97713,41.42752]]]}},{"type":"Feature","properties":{"id":"0815701005"},"geometry":{"type":"Polygon","coordinates":[[[2.00621,41.42137],[2.00752,41.41858],[2.00801,41.41669],[2.00879,41.41213],[2.00974,41.41094],[2.00716,41.41028],[2.00303,41.40883],[1.99858,41.41748],[1.99695,41.42272],[1.99786,41.42249],[1.99778,41.42278],[1.99863,41.42288],[1.99847,41.42345],[2.0054,41.42447],[2.00501,41.42335],[2.00569,41.42173],[2.00621,41.42137]]]}}]}