{"type":"FeatureCollection","features":[{"type":"Feature","properties":{"id":"0816901001"},"geometry":{"type":"Polygon","coordinates":[[[2.07898,41.34758],[2.08051,41.34673],[2.08594,41.34501],[2.08651,41.34377],[2.08849,41.34227],[2.08949,41.34171],[2.09212,41.34058],[2.09238,41.34075],[2.10487,41.33399],[2.10555,41.33338],[2.10263,41.33141],[2.10109,41.33243],[2.09686,41.33078],[2.09594,41.33211],[2.09403,41.33138],[2.09349,41.33143],[2.09375,41.33203],[2.09367,41.33249],[2.09258,41.33401],[2.09239,41.33426],[2.09106,41.33383],[2.09009,41.33612],[2.08701,41.33549],[2.08703,41.33743],[2.08698,41.33787],[2.08667,41.33857],[2.08569,41.33973],[2.08463,41.34016],[2.08354,41.34117],[2.07749,41.34195],[2.07717,41.3424],[2.07634,41.34221],[2.07645,41.34169],[2.07305,41.34007],[2.07362,41.33945],[2.07237,41.3388],[2.07038,41.34135],[2.06929,41.34393],[2.06975,41.34506],[2.07026,41.34495],[2.0712,41.34503],[2.07146,41.34516],[2.07241,41.34535],[2.07598,41.34818],[2.0766,41.34845],[2.07718,41.3485],[2.07786,41.34834],[2.0787,41.34792],[2.07898,41.34758]]]}},{"type":"Feature","properties":{"id":"0816901002"},"geometry":{"type":"Polygon","coordinates":[[[2.09594,41.33211],[2.09706,41.33047],[2.09838,41.32953],[2.09865,41.32912],[2.09778,41.32872],[2.0975,41.32916],[2.0958,41.32845],[2.09519,41.32935],[2.09387,41.32887],[2.09359,41.32918],[2.09262,41.32887],[2.09301,41.33027],[2.09294,41.33066],[2.09325,41.3307],[2.09351,41.33143],[2.09403,41.33138],[2.09594,41.33211]]]}},{"type":"Feature","properties":{"id":"0816901003"},"geometry":{"type":"Polygon","coordinates":[[[2.0958,41.32845],[2.09546,41.32829],[2.09611,41.32732],[2.09288,41.32609],[2.09271,41.32672],[2.09266,41.32883],[2.09359,41.32918],[2.09387,41.32887],[2.09519,41.32935],[2.0958,41.32845]]]}},{"type":"Feature","properties":{"id":"0816901004"},"geometry":{"type":"Polygon","coordinates":[[[2.09961,41.32875],[2.09906,41.32852],[2.09913,41.32841],[2.09611,41.32732],[2.09546,41.32829],[2.0975,41.32916],[2.09778,41.32872],[2.09803,41.32882],[2.09865,41.32912],[2.09837,41.32954],[2.09895,41.32977],[2.09961,41.32875]]]}},{"type":"Feature","properties":{"id":"0816901005"},"geometry":{"type":"Polygon","coordinates":[[[2.10261,41.33143],[2.10165,41.33097],[2.10247,41.32984],[2.09961,41.32875],[2.09895,41.32977],[2.09837,41.32954],[2.09706,41.33047],[2.09686,41.33078],[2.10109,41.33243],[2.10261,41.33143]]]}},{"type":"Feature","properties":{"id":"0816902001"},"geometry":{"type":"Polygon","coordinates":[[[2.09587,41.32524],[2.09356,41.32426],[2.09299,41.32564],[2.0929,41.32609],[2.09478,41.32681],[2.09587,41.32524]]]}},{"type":"Feature","properties":{"id":"0816902002"},"geometry":{"type":"Polygon","coordinates":[[[2.09741,41.32778],[2.09933,41.32493],[2.09798,41.3244],[2.0978,41.32447],[2.09735,41.32502],[2.09634,41.32462],[2.09478,41.32681],[2.09741,41.32778]]]}},{"type":"Feature","properties":{"id":"0816902003"},"geometry":{"type":"Polygon","coordinates":[[[2.10303,41.32901],[2.09792,41.32702],[2.09741,41.32778],[2.09913,41.32841],[2.09906,41.32852],[2.10245,41.32983],[2.10303,41.32901]]]}},{"type":"Feature","properties":{"id":"0816902004"},"geometry":{"type":"Polygon","coordinates":[[[2.09791,41.32443],[2.09773,41.32429],[2.09414,41.32287],[2.09358,41.32427],[2.09587,41.32524],[2.09634,41.32462],[2.09735,41.32502],[2.09791,41.32443]]]}},{"type":"Feature","properties":{"id":"0816902005"},"geometry":{"type":"Polygon","coordinates":[[[2.09983,41.32743],[2.10101,41.32562],[2.09933,41.32494],[2.09792,41.32702],[2.09951,41.32764],[2.09983,41.32743]]]}},{"type":"Feature","properties":{"id":"0816902006"},"geometry":{"type":"Polygon","coordinates":[[[2.11071,41.32824],[2.10889,41.32769],[2.10722,41.32786],[2.10687,41.32802],[2.10662,41.32842],[2.10457,41.32719],[2.10439,41.3272],[2.10086,41.32585],[2.09983,41.32743],[2.09951,41.32764],[2.10303,41.32901],[2.10165,41.33097],[2.10263,41.33141],[2.10555,41.33338],[2.10833,41.33109],[2.11071,41.32824]]]}},{"type":"Feature","properties":{"id":"0816902007"},"geometry":{"type":"Polygon","coordinates":[[[2.1019,41.32447],[2.10086,41.32585],[2.10439,41.3272],[2.10457,41.32719],[2.10662,41.32842],[2.10589,41.32617],[2.10514,41.32577],[2.1019,41.32447]]]}},{"type":"Feature","properties":{"id":"0816903001"},"geometry":{"type":"Polygon","coordinates":[[[2.09375,41.33203],[2.09325,41.3307],[2.09294,41.33066],[2.09301,41.33027],[2.09262,41.3291],[2.09269,41.32715],[2.09165,41.32676],[2.09208,41.32575],[2.09031,41.32529],[2.08973,41.32641],[2.08721,41.32588],[2.08627,41.3281],[2.08623,41.32853],[2.08652,41.32934],[2.08586,41.33054],[2.08593,41.33069],[2.08657,41.33101],[2.0868,41.33125],[2.08679,41.33186],[2.08732,41.33252],[2.09239,41.33426],[2.09367,41.33249],[2.09375,41.33203]]]}},{"type":"Feature","properties":{"id":"0816903002"},"geometry":{"type":"Polygon","coordinates":[[[2.09106,41.33384],[2.08732,41.33252],[2.08679,41.33186],[2.0868,41.33125],[2.08657,41.33101],[2.08593,41.33069],[2.08588,41.33046],[2.08652,41.32934],[2.08623,41.32853],[2.08627,41.3281],[2.08719,41.32589],[2.08709,41.32553],[2.0881,41.3238],[2.0881,41.32362],[2.08556,41.32302],[2.08326,41.32267],[2.08474,41.31952],[2.08423,41.31947],[2.07931,41.31657],[2.07835,41.31625],[2.07859,41.31487],[2.07852,41.31356],[2.07793,41.31093],[2.07753,41.3101],[2.07386,41.30915],[2.06735,41.30791],[2.06441,41.31438],[2.06306,41.31605],[2.07089,41.31967],[2.07026,41.32127],[2.07077,41.32166],[2.07041,41.32239],[2.0731,41.32377],[2.0677,41.32917],[2.07253,41.33187],[2.07158,41.33365],[2.07238,41.33405],[2.07143,41.33496],[2.07226,41.33554],[2.0726,41.33514],[2.07413,41.33629],[2.07375,41.33665],[2.07902,41.33971],[2.07749,41.34195],[2.08354,41.34117],[2.08463,41.34016],[2.08569,41.33973],[2.08667,41.33857],[2.08698,41.33787],[2.08703,41.33743],[2.08701,41.33549],[2.09009,41.33612],[2.09106,41.33384]]]}},{"type":"Feature","properties":{"id":"0816903003"},"geometry":{"type":"Polygon","coordinates":[[[2.08964,41.32407],[2.08811,41.3237],[2.08709,41.32553],[2.08719,41.32589],[2.08727,41.32585],[2.08826,41.32608],[2.08881,41.32491],[2.08921,41.32501],[2.08964,41.32407]]]}},{"type":"Feature","properties":{"id":"0816903004"},"geometry":{"type":"Polygon","coordinates":[[[2.09133,41.32555],[2.09183,41.32461],[2.08964,41.32407],[2.08921,41.32501],[2.08881,41.32491],[2.08826,41.32608],[2.08973,41.32641],[2.09031,41.32529],[2.09133,41.32555]]]}},{"type":"Feature","properties":{"id":"0816903005"},"geometry":{"type":"Polygon","coordinates":[[[2.09269,41.32715],[2.09299,41.32564],[2.09383,41.3236],[2.0922,41.32325],[2.09157,41.32441],[2.09188,41.32448],[2.09133,41.32555],[2.09208,41.32575],[2.09165,41.32676],[2.09269,41.32715]]]}},{"type":"Feature","properties":{"id":"0816903006"},"geometry":{"type":"Polygon","coordinates":[[[2.09136,41.32234],[2.0894,41.32186],[2.08914,41.32189],[2.08811,41.3237],[2.08991,41.32413],[2.0903,41.3233],[2.0909,41.32343],[2.09136,41.32234]]]}},{"type":"Feature","properties":{"id":"0816903007"},"geometry":{"type":"Polygon","coordinates":[[[2.09383,41.3236],[2.09408,41.323],[2.09137,41.32233],[2.0909,41.32343],[2.0903,41.3233],[2.08991,41.32413],[2.09183,41.32461],[2.09188,41.32448],[2.09157,41.32441],[2.0922,41.32325],[2.09383,41.3236]]]}},{"type":"Feature","properties":{"id":"0816903008"},"geometry":{"type":"Polygon","coordinates":[[[2.08911,41.3218],[2.09061,41.31949],[2.09057,41.31936],[2.08599,41.31954],[2.08598,41.32152],[2.08911,41.3218]]]}},{"type":"Feature","properties":{"id":"0816903009"},"geometry":{"type":"Polygon","coordinates":[[[2.09408,41.323],[2.09474,41.32197],[2.0938,41.32171],[2.0923,41.32113],[2.09216,41.32144],[2.08973,41.32085],[2.08911,41.3218],[2.08914,41.32189],[2.08967,41.32191],[2.09408,41.323]]]}},{"type":"Feature","properties":{"id":"0816903010"},"geometry":{"type":"Polygon","coordinates":[[[2.09378,41.3217],[2.09361,41.31951],[2.09351,41.31938],[2.09139,41.31932],[2.09057,41.31937],[2.09061,41.31949],[2.08973,41.32085],[2.09216,41.32144],[2.0923,41.32113],[2.09378,41.3217]]]}},{"type":"Feature","properties":{"id":"0816903011"},"geometry":{"type":"Polygon","coordinates":[[[2.08914,41.32189],[2.0891,41.32176],[2.08796,41.32166],[2.0875,41.32263],[2.08589,41.32223],[2.08556,41.32302],[2.0881,41.32362],[2.08827,41.32351],[2.08914,41.32189]]]}},{"type":"Feature","properties":{"id":"0816903012"},"geometry":{"type":"Polygon","coordinates":[[[2.08796,41.32166],[2.08598,41.32152],[2.08373,41.32158],[2.08326,41.32267],[2.08556,41.32302],[2.08589,41.32223],[2.0875,41.32263],[2.08796,41.32166]]]}},{"type":"Feature","properties":{"id":"0816903013"},"geometry":{"type":"Polygon","coordinates":[[[2.08599,41.31954],[2.08474,41.31952],[2.08373,41.32158],[2.08598,41.32152],[2.08599,41.31954]]]}},{"type":"Feature","properties":{"id":"0816904001"},"geometry":{"type":"Polygon","coordinates":[[[2.0918,41.28224],[2.07484,41.27727],[2.07094,41.28179],[2.07048,41.2855],[2.06814,41.28806],[2.06237,41.29176],[2.05776,41.30248],[2.05988,41.30301],[2.05876,41.3056],[2.06371,41.30658],[2.06738,41.30784],[2.06735,41.30791],[2.07386,41.30915],[2.07753,41.3101],[2.07793,41.31093],[2.07852,41.31356],[2.07859,41.31487],[2.07835,41.31625],[2.07924,41.31655],[2.08003,41.31572],[2.08195,41.31439],[2.08398,41.31353],[2.08458,41.31348],[2.09079,41.31569],[2.09256,41.31642],[2.09215,41.31721],[2.09063,41.31936],[2.09353,41.31941],[2.09286,41.31479],[2.09244,41.31295],[2.09473,41.31164],[2.09666,41.30963],[2.09757,41.30841],[2.09813,41.30733],[2.1011,41.30365],[2.10116,41.30334],[2.10108,41.30278],[2.10076,41.30217],[2.09846,41.29866],[2.09834,41.29831],[2.09831,41.29789],[2.09854,41.29732],[2.10015,41.29482],[2.09995,41.29437],[2.09457,41.29142],[2.08991,41.28871],[2.08876,41.28823],[2.09018,41.28508],[2.0918,41.28224]]]}},{"type":"Feature","properties":{"id":"0816904002"},"geometry":{"type":"Polygon","coordinates":[[[2.09063,41.31936],[2.09215,41.31721],[2.09256,41.31642],[2.08659,41.31414],[2.08788,41.31945],[2.09063,41.31936]]]}},{"type":"Feature","properties":{"id":"0816904003"},"geometry":{"type":"Polygon","coordinates":[[[2.08788,41.31945],[2.08717,41.31671],[2.08537,41.31697],[2.08599,41.31954],[2.08788,41.31945]]]}},{"type":"Feature","properties":{"id":"0816904004"},"geometry":{"type":"Polygon","coordinates":[[[2.08537,41.31697],[2.08377,41.31719],[2.0822,41.31626],[2.08088,41.31751],[2.08423,41.31947],[2.08599,41.31953],[2.08537,41.31697]]]}},{"type":"Feature","properties":{"id":"0816904005"},"geometry":{"type":"Polygon","coordinates":[[[2.08377,41.31719],[2.08717,41.31671],[2.08684,41.31522],[2.08276,41.31576],[2.0822,41.31626],[2.08377,41.31719]]]}},{"type":"Feature","properties":{"id":"0816904006"},"geometry":{"type":"Polygon","coordinates":[[[2.08088,41.31751],[2.08276,41.31576],[2.08684,41.31522],[2.08659,41.31417],[2.08458,41.31348],[2.08398,41.31353],[2.08195,41.31439],[2.08003,41.31572],[2.07924,41.31655],[2.08088,41.31751]]]}},{"type":"Feature","properties":{"id":"0816905001"},"geometry":{"type":"Polygon","coordinates":[[[2.09547,41.32339],[2.09684,41.32184],[2.09377,41.32076],[2.09378,41.3217],[2.09474,41.32197],[2.09417,41.32288],[2.09547,41.32339]]]}},{"type":"Feature","properties":{"id":"0816905002"},"geometry":{"type":"Polygon","coordinates":[[[2.09798,41.3244],[2.09922,41.32377],[2.0962,41.32256],[2.09547,41.32339],[2.09798,41.3244]]]}},{"type":"Feature","properties":{"id":"0816905003"},"geometry":{"type":"Polygon","coordinates":[[[2.10165,41.32476],[2.09922,41.32377],[2.09798,41.3244],[2.101,41.32561],[2.10165,41.32476]]]}},{"type":"Feature","properties":{"id":"0816905004"},"geometry":{"type":"Polygon","coordinates":[[[2.10058,41.32253],[2.10133,41.32134],[2.09817,41.32039],[2.09818,41.32059],[2.0971,41.32152],[2.0962,41.32256],[2.09759,41.32312],[2.09797,41.32258],[2.09914,41.32305],[2.09975,41.32218],[2.10058,41.32253]]]}},{"type":"Feature","properties":{"id":"0816905005"},"geometry":{"type":"Polygon","coordinates":[[[2.10058,41.32253],[2.09975,41.32218],[2.09914,41.32305],[2.09797,41.32258],[2.09759,41.32312],[2.09929,41.3238],[2.10039,41.32285],[2.10058,41.32253]]]}},{"type":"Feature","properties":{"id":"0816905006"},"geometry":{"type":"Polygon","coordinates":[[[2.10165,41.32476],[2.1039,41.3222],[2.1029,41.3218],[2.10133,41.32134],[2.10039,41.32285],[2.09929,41.3238],[2.10165,41.32476]]]}},{"type":"Feature","properties":{"id":"0816905007"},"geometry":{"type":"Polygon","coordinates":[[[2.09817,41.32039],[2.09634,41.31985],[2.09353,41.31941],[2.09377,41.32076],[2.09682,41.32183],[2.09818,41.32059],[2.09817,41.32039]]]}},{"type":"Feature","properties":{"id":"0816905008"},"geometry":{"type":"Polygon","coordinates":[[[2.11187,41.32686],[2.1089,41.32512],[2.10787,41.32382],[2.10749,41.32352],[2.10563,41.32322],[2.10387,41.32223],[2.1019,41.32447],[2.10514,41.32577],[2.10589,41.32617],[2.10662,41.32842],[2.10687,41.32802],[2.10722,41.32786],[2.10889,41.32769],[2.11071,41.32824],[2.11187,41.32686]]]}},{"type":"Feature","properties":{"id":"0816905009"},"geometry":{"type":"Polygon","coordinates":[[[2.15068,41.32097],[2.14685,41.31585],[2.14628,41.31486],[2.14584,41.31448],[2.13854,41.30568],[2.1198,41.29206],[2.10566,41.2863],[2.0918,41.28224],[2.09018,41.28508],[2.08876,41.28823],[2.08991,41.28871],[2.09457,41.29142],[2.09995,41.29437],[2.10015,41.29482],[2.09854,41.29732],[2.09831,41.29789],[2.09834,41.29831],[2.09846,41.29866],[2.10076,41.30217],[2.10108,41.30278],[2.10116,41.30334],[2.1011,41.30365],[2.09813,41.30733],[2.09757,41.30841],[2.09666,41.30963],[2.09473,41.31164],[2.09244,41.31295],[2.09286,41.31479],[2.09353,41.31941],[2.09498,41.31961],[2.09687,41.31999],[2.10362,41.32206],[2.10563,41.32322],[2.10749,41.32352],[2.10787,41.32382],[2.1089,41.32512],[2.11187,41.32686],[2.11286,41.32568],[2.11917,41.32283],[2.13134,41.32081],[2.13961,41.32116],[2.1472,41.32005],[2.14919,41.32032],[2.15012,41.321],[2.15068,41.32097]]]}}]}