{"type":"FeatureCollection","features":[{"type":"Feature","properties":{"id":"0819201001"},"geometry":{"type":"Polygon","coordinates":[[[1.84075,41.78099],[1.84004,41.78276],[1.83894,41.78237],[1.83807,41.78222],[1.83774,41.78225],[1.83693,41.78106],[1.83635,41.78275],[1.83622,41.78323],[1.8372,41.78385],[1.83757,41.78392],[1.83742,41.78451],[1.83731,41.78451],[1.83792,41.78514],[1.83895,41.78591],[1.83897,41.78625],[1.83966,41.78561],[1.84034,41.78585],[1.84229,41.78494],[1.84217,41.7848],[1.84253,41.78463],[1.84313,41.78285],[1.84248,41.78276],[1.84056,41.78224],[1.84055,41.78206],[1.84085,41.78122],[1.84247,41.78149],[1.84256,41.78097],[1.84178,41.78085],[1.84231,41.78078],[1.84262,41.78032],[1.8433,41.77983],[1.8458,41.77879],[1.84741,41.77822],[1.84894,41.77834],[1.85455,41.77916],[1.85489,41.77892],[1.85451,41.77839],[1.85471,41.77787],[1.85451,41.7778],[1.85427,41.77788],[1.85426,41.77846],[1.85444,41.77867],[1.85446,41.77887],[1.85413,41.77894],[1.84897,41.7782],[1.84791,41.77809],[1.84703,41.77814],[1.84318,41.77969],[1.84287,41.77987],[1.84221,41.78071],[1.84075,41.78099]]]}},{"type":"Feature","properties":{"id":"0819201002"},"geometry":{"type":"Polygon","coordinates":[[[1.84004,41.78276],[1.84084,41.78059],[1.8408,41.77983],[1.84024,41.77846],[1.83988,41.77699],[1.83904,41.7706],[1.83899,41.76664],[1.83934,41.76378],[1.83782,41.76319],[1.8289,41.76394],[1.82817,41.76756],[1.82149,41.76417],[1.80826,41.76809],[1.8081,41.77211],[1.81057,41.77352],[1.81294,41.77433],[1.8132,41.77656],[1.81393,41.77743],[1.81399,41.77939],[1.81342,41.78285],[1.83171,41.78361],[1.83263,41.78407],[1.83366,41.78442],[1.83527,41.78457],[1.83742,41.78451],[1.83757,41.78392],[1.8372,41.78385],[1.83622,41.78323],[1.83693,41.78106],[1.83774,41.78225],[1.83807,41.78222],[1.83894,41.78237],[1.84004,41.78276]]]}},{"type":"Feature","properties":{"id":"0819201003"},"geometry":{"type":"Polygon","coordinates":[[[1.86573,41.7837],[1.86148,41.77721],[1.86083,41.77276],[1.85748,41.7658],[1.84905,41.76754],[1.83934,41.76378],[1.83899,41.76664],[1.83904,41.7706],[1.83988,41.77699],[1.84024,41.77846],[1.8408,41.77983],[1.84084,41.78059],[1.84075,41.78099],[1.84221,41.78071],[1.84287,41.77987],[1.84318,41.77969],[1.84703,41.77814],[1.84791,41.77809],[1.84897,41.7782],[1.85433,41.77893],[1.85446,41.77887],[1.85444,41.77867],[1.85426,41.77846],[1.85422,41.77811],[1.85427,41.77788],[1.85451,41.7778],[1.85471,41.77787],[1.85451,41.77839],[1.85489,41.77892],[1.85455,41.77916],[1.84894,41.77834],[1.84741,41.77822],[1.8458,41.77879],[1.8433,41.77983],[1.84262,41.78032],[1.84231,41.78078],[1.84178,41.78085],[1.84256,41.78097],[1.84247,41.78149],[1.84085,41.78122],[1.84055,41.78206],[1.84056,41.78224],[1.84248,41.78276],[1.84313,41.78285],[1.84253,41.78463],[1.84217,41.7848],[1.84229,41.78494],[1.84034,41.78585],[1.83966,41.78561],[1.83897,41.78625],[1.83895,41.78591],[1.83792,41.78514],[1.83731,41.78451],[1.83527,41.78457],[1.83366,41.78442],[1.83263,41.78407],[1.83233,41.78386],[1.83216,41.78382],[1.83223,41.78416],[1.83551,41.78684],[1.82931,41.79126],[1.82357,41.79471],[1.82157,41.79784],[1.83042,41.79829],[1.83689,41.80017],[1.83904,41.80336],[1.84708,41.80902],[1.85192,41.80065],[1.8564,41.79831],[1.86501,41.79486],[1.86246,41.78924],[1.86573,41.7837]]]}},{"type":"Feature","properties":{"id":"0819201004"},"geometry":{"type":"Polygon","coordinates":[[[1.82157,41.79784],[1.82357,41.79471],[1.82931,41.79126],[1.83551,41.78684],[1.83223,41.78416],[1.83222,41.78385],[1.83171,41.78361],[1.81342,41.78285],[1.81293,41.78581],[1.81213,41.78929],[1.8022,41.7918],[1.80205,41.79219],[1.80233,41.79321],[1.8029,41.79376],[1.80306,41.79406],[1.80294,41.79425],[1.80215,41.79483],[1.80203,41.79531],[1.80154,41.79593],[1.80187,41.79711],[1.80777,41.79818],[1.809,41.79831],[1.81063,41.79871],[1.81146,41.79871],[1.81293,41.79837],[1.81822,41.79767],[1.82157,41.79784]]]}}]}