{"type":"FeatureCollection","features":[{"type":"Feature","properties":{"id":"0821701001"},"geometry":{"type":"Polygon","coordinates":[[[2.0438,41.37397],[2.04508,41.37254],[2.04775,41.37244],[2.05028,41.37251],[2.05264,41.37292],[2.0548,41.37341],[2.05608,41.37382],[2.05832,41.37107],[2.0551,41.36945],[2.05061,41.36685],[2.05584,41.36143],[2.0561,41.36137],[2.05631,41.36142],[2.05787,41.36244],[2.05807,41.3627],[2.05921,41.36166],[2.05827,41.36105],[2.05836,41.36059],[2.05908,41.35928],[2.05484,41.35635],[2.05752,41.35421],[2.05345,41.351],[2.05097,41.34864],[2.04956,41.34745],[2.04959,41.34751],[2.04721,41.34808],[2.04719,41.34821],[2.04661,41.34857],[2.04618,41.3487],[2.04606,41.34886],[2.04621,41.34994],[2.04617,41.35172],[2.04605,41.35241],[2.04579,41.35303],[2.04465,41.35297],[2.04099,41.35025],[2.04039,41.35002],[2.03995,41.35001],[2.03904,41.35043],[2.03687,41.35229],[2.03621,41.354],[2.0363,41.35601],[2.04739,41.36025],[2.04895,41.36036],[2.04903,41.36104],[2.04865,41.36168],[2.0485,41.36253],[2.04371,41.36676],[2.03798,41.36871],[2.03615,41.37058],[2.0438,41.37397]]]}},{"type":"Feature","properties":{"id":"0821701002"},"geometry":{"type":"Polygon","coordinates":[[[2.06047,41.36842],[2.06459,41.36341],[2.06569,41.36285],[2.06514,41.36252],[2.06343,41.36346],[2.06297,41.36385],[2.06184,41.36444],[2.06116,41.36492],[2.06051,41.36452],[2.06002,41.36495],[2.05923,41.36523],[2.06008,41.36614],[2.05866,41.36734],[2.06047,41.36842]]]}},{"type":"Feature","properties":{"id":"0821701003"},"geometry":{"type":"Polygon","coordinates":[[[2.05605,41.36768],[2.05375,41.36667],[2.05251,41.36795],[2.05587,41.36984],[2.05605,41.36768]]]}},{"type":"Feature","properties":{"id":"0821701004"},"geometry":{"type":"Polygon","coordinates":[[[2.05769,41.3657],[2.06002,41.36495],[2.06051,41.36452],[2.05874,41.36343],[2.06008,41.36223],[2.05921,41.36166],[2.05803,41.36273],[2.05787,41.36244],[2.05736,41.3621],[2.05592,41.36333],[2.05669,41.36388],[2.05512,41.36525],[2.05689,41.36635],[2.05769,41.3657]]]}},{"type":"Feature","properties":{"id":"0821701005"},"geometry":{"type":"Polygon","coordinates":[[[2.05866,41.36734],[2.05776,41.36689],[2.05512,41.36525],[2.05375,41.36667],[2.05605,41.36768],[2.0576,41.36848],[2.05866,41.36734]]]}},{"type":"Feature","properties":{"id":"0821701006"},"geometry":{"type":"Polygon","coordinates":[[[2.0576,41.36848],[2.05605,41.36768],[2.05587,41.36984],[2.05628,41.37006],[2.0576,41.36848]]]}},{"type":"Feature","properties":{"id":"0821701007"},"geometry":{"type":"Polygon","coordinates":[[[2.06008,41.36614],[2.05923,41.36524],[2.05769,41.3657],[2.05689,41.36635],[2.05866,41.36734],[2.06008,41.36614]]]}},{"type":"Feature","properties":{"id":"0821701008"},"geometry":{"type":"Polygon","coordinates":[[[2.06047,41.36842],[2.05866,41.36734],[2.05628,41.37006],[2.05832,41.37107],[2.06047,41.36842]]]}},{"type":"Feature","properties":{"id":"0821701009"},"geometry":{"type":"Polygon","coordinates":[[[2.05251,41.36795],[2.05433,41.36606],[2.05376,41.36576],[2.05354,41.36548],[2.05249,41.3649],[2.05061,41.36685],[2.05251,41.36795]]]}},{"type":"Feature","properties":{"id":"0821701010"},"geometry":{"type":"Polygon","coordinates":[[[2.05433,41.36606],[2.05669,41.36388],[2.05592,41.36333],[2.05736,41.3621],[2.05618,41.36138],[2.05592,41.36139],[2.05576,41.3615],[2.05249,41.3649],[2.05354,41.36548],[2.05376,41.36576],[2.05433,41.36606]]]}},{"type":"Feature","properties":{"id":"0821702002"},"geometry":{"type":"Polygon","coordinates":[[[2.07612,41.37266],[2.07687,41.3721],[2.07601,41.37074],[2.07543,41.37029],[2.074,41.3696],[2.07048,41.36848],[2.06996,41.36742],[2.0648,41.36467],[2.06404,41.36548],[2.06336,41.36586],[2.06205,41.36747],[2.06145,41.36721],[2.05608,41.37383],[2.05881,41.37452],[2.06131,41.37501],[2.06499,41.37535],[2.06535,41.37363],[2.06543,41.3688],[2.07013,41.36927],[2.07314,41.37032],[2.07612,41.37266]]]}},{"type":"Feature","properties":{"id":"0821702003"},"geometry":{"type":"Polygon","coordinates":[[[2.0711,41.36544],[2.0676,41.36402],[2.06569,41.36285],[2.06459,41.36341],[2.06145,41.36721],[2.06205,41.36747],[2.06336,41.36586],[2.06404,41.36548],[2.0648,41.36467],[2.06996,41.36742],[2.0694,41.36634],[2.06999,41.36663],[2.0711,41.36544]]]}},{"type":"Feature","properties":{"id":"0821702004"},"geometry":{"type":"Polygon","coordinates":[[[2.07029,41.36808],[2.07229,41.36596],[2.0711,41.36544],[2.06999,41.36663],[2.0694,41.36634],[2.07029,41.36808]]]}},{"type":"Feature","properties":{"id":"0821703001"},"geometry":{"type":"Polygon","coordinates":[[[2.07264,41.3676],[2.07135,41.36693],[2.07029,41.36808],[2.07048,41.36848],[2.0718,41.36887],[2.07264,41.3676]]]}},{"type":"Feature","properties":{"id":"0821703002"},"geometry":{"type":"Polygon","coordinates":[[[2.07435,41.36833],[2.07278,41.36781],[2.07284,41.3677],[2.07264,41.3676],[2.0718,41.36887],[2.07367,41.36949],[2.07435,41.36833]]]}},{"type":"Feature","properties":{"id":"0821703003"},"geometry":{"type":"Polygon","coordinates":[[[2.07539,41.36759],[2.07421,41.36662],[2.07393,41.36672],[2.07342,41.36645],[2.07358,41.36634],[2.07305,41.3658],[2.07244,41.36601],[2.07235,41.36598],[2.07386,41.36672],[2.07278,41.36781],[2.07435,41.36833],[2.07451,41.36808],[2.07539,41.36759]]]}},{"type":"Feature","properties":{"id":"0821703004"},"geometry":{"type":"Polygon","coordinates":[[[2.07914,41.36967],[2.07903,41.36982],[2.07539,41.36759],[2.07451,41.36808],[2.07367,41.36949],[2.07543,41.37029],[2.07601,41.37074],[2.07687,41.3721],[2.07878,41.37068],[2.0793,41.36977],[2.07914,41.36967]]]}},{"type":"Feature","properties":{"id":"0821703005"},"geometry":{"type":"Polygon","coordinates":[[[2.07235,41.36598],[2.07135,41.36693],[2.07284,41.3677],[2.07386,41.36672],[2.07235,41.36598]]]}},{"type":"Feature","properties":{"id":"0821704001"},"geometry":{"type":"Polygon","coordinates":[[[2.07129,41.36967],[2.07013,41.36927],[2.06543,41.3688],[2.06535,41.37363],[2.06499,41.37535],[2.06771,41.37561],[2.06743,41.37266],[2.06967,41.3726],[2.07129,41.36967]]]}},{"type":"Feature","properties":{"id":"0821704002"},"geometry":{"type":"Polygon","coordinates":[[[2.07129,41.36967],[2.06967,41.3726],[2.06743,41.37266],[2.06771,41.37561],[2.07044,41.37588],[2.07089,41.37567],[2.07283,41.37532],[2.07334,41.37491],[2.07341,41.3747],[2.07612,41.37266],[2.07314,41.37032],[2.07129,41.36967]]]}},{"type":"Feature","properties":{"id":"0821705001"},"geometry":{"type":"Polygon","coordinates":[[[2.05865,41.37787],[2.05954,41.37703],[2.05905,41.37677],[2.05972,41.37615],[2.05934,41.37592],[2.06049,41.37485],[2.05881,41.37452],[2.05608,41.37383],[2.05475,41.37568],[2.05201,41.37906],[2.05253,41.3793],[2.053,41.3786],[2.05865,41.37787]]]}},{"type":"Feature","properties":{"id":"0821705002"},"geometry":{"type":"Polygon","coordinates":[[[2.0654,41.37908],[2.06539,41.37881],[2.06639,41.3781],[2.06696,41.37741],[2.06739,41.37707],[2.068,41.37678],[2.06881,41.37664],[2.07044,41.37588],[2.06131,41.37501],[2.06049,41.37485],[2.05934,41.37592],[2.05972,41.37615],[2.05905,41.37677],[2.05954,41.37703],[2.05865,41.37787],[2.05879,41.37785],[2.05954,41.3793],[2.06145,41.37916],[2.06153,41.37956],[2.06533,41.37951],[2.06505,41.37929],[2.0654,41.37908]]]}},{"type":"Feature","properties":{"id":"0821706001"},"geometry":{"type":"Polygon","coordinates":[[[2.05608,41.37382],[2.0548,41.37341],[2.05264,41.37292],[2.05028,41.37251],[2.04775,41.37244],[2.04508,41.37254],[2.0438,41.37397],[2.04664,41.37523],[2.04918,41.37691],[2.05201,41.37906],[2.05475,41.37568],[2.05608,41.37382]]]}}]}