{"type":"FeatureCollection","features":[{"type":"Feature","properties":{"id":"0822701001"},"geometry":{"type":"Polygon","coordinates":[[[1.61167,41.39467],[1.61355,41.39374],[1.61461,41.39398],[1.61525,41.39377],[1.6169,41.39387],[1.61812,41.39318],[1.61987,41.39179],[1.62193,41.39056],[1.62203,41.3898],[1.62278,41.38935],[1.6234,41.38879],[1.6243,41.38828],[1.62574,41.3882],[1.62754,41.38826],[1.62821,41.38745],[1.629,41.38746],[1.62902,41.38769],[1.62994,41.38786],[1.63044,41.38774],[1.63014,41.38684],[1.63021,41.38636],[1.63202,41.38473],[1.63278,41.38504],[1.63342,41.38448],[1.63489,41.38421],[1.63428,41.38363],[1.63363,41.38404],[1.63283,41.38428],[1.62692,41.38441],[1.62091,41.38349],[1.62008,41.3836],[1.61867,41.38405],[1.61663,41.38244],[1.61608,41.3817],[1.61564,41.3809],[1.61515,41.38073],[1.61523,41.38048],[1.61485,41.38051],[1.61461,41.38029],[1.61422,41.38015],[1.61394,41.37978],[1.61252,41.37978],[1.61165,41.37953],[1.6081,41.37798],[1.60727,41.3778],[1.60677,41.37714],[1.60524,41.37705],[1.59964,41.37888],[1.5994,41.38002],[1.60046,41.38025],[1.60215,41.38105],[1.60225,41.38173],[1.60402,41.38174],[1.60439,41.38189],[1.60523,41.38203],[1.60614,41.38266],[1.60624,41.3834],[1.60599,41.38455],[1.60489,41.38538],[1.60444,41.38611],[1.60602,41.38785],[1.60285,41.38885],[1.6045,41.39067],[1.60454,41.39153],[1.60719,41.39293],[1.60752,41.39295],[1.6079,41.39328],[1.60787,41.39351],[1.60757,41.39358],[1.6065,41.39359],[1.60688,41.39389],[1.60771,41.39377],[1.60854,41.39329],[1.60896,41.3932],[1.61029,41.39381],[1.61055,41.39352],[1.61136,41.39354],[1.61127,41.39444],[1.61167,41.39467]]]}},{"type":"Feature","properties":{"id":"0822701002"},"geometry":{"type":"Polygon","coordinates":[[[1.64554,41.40722],[1.64536,41.40689],[1.64563,41.40668],[1.64562,41.40652],[1.64402,41.40468],[1.64254,41.40276],[1.64219,41.40266],[1.6409,41.40262],[1.64017,41.40289],[1.63927,41.40283],[1.63925,41.40032],[1.6381,41.40012],[1.63854,41.39911],[1.63905,41.39803],[1.63999,41.39698],[1.6402,41.39637],[1.6415,41.39559],[1.64238,41.39482],[1.64284,41.39363],[1.64428,41.39259],[1.64474,41.39199],[1.64719,41.38995],[1.64716,41.3895],[1.65314,41.381],[1.66246,41.37072],[1.65626,41.36969],[1.64865,41.36741],[1.64745,41.36731],[1.64777,41.36682],[1.64769,41.36663],[1.64685,41.36653],[1.64667,41.36643],[1.64665,41.36625],[1.64715,41.36503],[1.64807,41.36353],[1.64801,41.36301],[1.64748,41.36213],[1.64783,41.36172],[1.64903,41.36132],[1.64915,41.3611],[1.6485,41.3606],[1.64826,41.3602],[1.64825,41.35988],[1.65003,41.35923],[1.65011,41.35912],[1.64965,41.35848],[1.64898,41.35807],[1.64891,41.3579],[1.64908,41.3578],[1.6511,41.35763],[1.65114,41.35751],[1.65091,41.35704],[1.65117,41.35674],[1.65148,41.35664],[1.65359,41.35659],[1.65375,41.35644],[1.65358,41.35587],[1.65377,41.35543],[1.65446,41.35478],[1.65635,41.35353],[1.6574,41.35295],[1.65807,41.35269],[1.65829,41.35212],[1.65894,41.35111],[1.659,41.35078],[1.66006,41.34863],[1.66106,41.34809],[1.66156,41.34755],[1.66168,41.34698],[1.66202,41.34623],[1.66205,41.34573],[1.65926,41.34417],[1.65958,41.33935],[1.6612,41.33722],[1.65851,41.33634],[1.65871,41.33465],[1.65789,41.33356],[1.65682,41.33449],[1.65661,41.33579],[1.65543,41.33611],[1.65353,41.33859],[1.64706,41.33962],[1.64212,41.33779],[1.63989,41.33613],[1.63681,41.34168],[1.6269,41.34818],[1.62062,41.35169],[1.6184,41.35335],[1.6159,41.35496],[1.61474,41.35603],[1.61477,41.35622],[1.61501,41.35643],[1.61164,41.35929],[1.60994,41.36045],[1.60799,41.36268],[1.60693,41.36327],[1.59949,41.36302],[1.59445,41.3603],[1.59425,41.36011],[1.58782,41.35656],[1.58413,41.35613],[1.58399,41.35546],[1.58334,41.35506],[1.58325,41.35442],[1.58305,41.35433],[1.5828,41.35433],[1.58152,41.35472],[1.581,41.35471],[1.58015,41.35448],[1.5798,41.3545],[1.57955,41.35459],[1.57947,41.35483],[1.5795,41.35503],[1.57986,41.3556],[1.57987,41.35587],[1.57978,41.35607],[1.57949,41.35627],[1.57914,41.35634],[1.57838,41.35735],[1.57897,41.35814],[1.57814,41.35844],[1.57811,41.36013],[1.57754,41.3608],[1.57861,41.36123],[1.57831,41.36245],[1.57445,41.36321],[1.5738,41.36239],[1.57146,41.36122],[1.57085,41.3614],[1.57064,41.36453],[1.56953,41.3649],[1.56938,41.36543],[1.57076,41.36651],[1.56981,41.36725],[1.5697,41.36836],[1.56854,41.36866],[1.56801,41.36929],[1.56362,41.36917],[1.56332,41.36974],[1.56355,41.36989],[1.56375,41.37023],[1.56429,41.37172],[1.56393,41.37427],[1.57127,41.37721],[1.57191,41.37734],[1.57216,41.37728],[1.57257,41.37699],[1.57473,41.37799],[1.57506,41.37809],[1.57589,41.37813],[1.57637,41.37838],[1.5771,41.37908],[1.58303,41.38166],[1.58446,41.38331],[1.58508,41.38384],[1.58614,41.38455],[1.58834,41.38549],[1.59481,41.39321],[1.59506,41.39586],[1.59618,41.39805],[1.59797,41.39838],[1.60194,41.39996],[1.60244,41.40005],[1.60329,41.40045],[1.60376,41.40041],[1.60391,41.40058],[1.60479,41.40073],[1.60854,41.40252],[1.60892,41.40262],[1.6109,41.40276],[1.61291,41.40364],[1.61763,41.40479],[1.61917,41.40561],[1.62827,41.41186],[1.63158,41.41215],[1.63958,41.41052],[1.6413,41.4105],[1.64334,41.40919],[1.64499,41.40754],[1.64554,41.40722]],[[1.61127,41.39444],[1.61136,41.39354],[1.61055,41.39352],[1.61029,41.39381],[1.60896,41.3932],[1.60854,41.39329],[1.60771,41.39377],[1.60688,41.39389],[1.6065,41.39359],[1.60757,41.39358],[1.60787,41.39351],[1.6079,41.39328],[1.60752,41.39295],[1.60719,41.39293],[1.60454,41.39153],[1.6045,41.39067],[1.60285,41.38885],[1.60602,41.38785],[1.60444,41.38611],[1.60489,41.38538],[1.60599,41.38455],[1.60624,41.3834],[1.60614,41.38266],[1.60523,41.38203],[1.60439,41.38189],[1.60402,41.38174],[1.60225,41.38173],[1.60215,41.38105],[1.60046,41.38025],[1.5994,41.38002],[1.59964,41.37888],[1.60524,41.37705],[1.60677,41.37714],[1.60727,41.3778],[1.6081,41.37798],[1.61165,41.37953],[1.61252,41.37978],[1.61394,41.37978],[1.61422,41.38015],[1.61461,41.38029],[1.61485,41.38051],[1.61523,41.38048],[1.61515,41.38073],[1.61564,41.3809],[1.61608,41.3817],[1.61663,41.38244],[1.61867,41.38405],[1.62008,41.3836],[1.62091,41.38349],[1.62692,41.38441],[1.63283,41.38428],[1.63363,41.38404],[1.63428,41.38363],[1.63489,41.38421],[1.63342,41.38448],[1.63278,41.38504],[1.63202,41.38473],[1.63021,41.38636],[1.63014,41.38684],[1.63044,41.38774],[1.62994,41.38786],[1.62902,41.38769],[1.629,41.38746],[1.62821,41.38745],[1.62754,41.38826],[1.62574,41.3882],[1.6243,41.38828],[1.6234,41.38879],[1.62278,41.38935],[1.62203,41.3898],[1.62193,41.39056],[1.61987,41.39179],[1.61812,41.39318],[1.6169,41.39387],[1.61525,41.39377],[1.61461,41.39398],[1.61355,41.39374],[1.61167,41.39467],[1.61127,41.39444]]]}}]}