{"type":"FeatureCollection","features":[{"type":"Feature","properties":{"id":"0823101001"},"geometry":{"type":"Polygon","coordinates":[[[1.78112,41.2557],[1.7815,41.25516],[1.78268,41.25449],[1.78298,41.25417],[1.78323,41.25345],[1.78322,41.25286],[1.78374,41.25208],[1.78483,41.25088],[1.78404,41.25053],[1.78279,41.24953],[1.78158,41.24852],[1.78033,41.24727],[1.77998,41.24744],[1.77827,41.24892],[1.77715,41.24958],[1.77559,41.25098],[1.77348,41.25156],[1.77297,41.25209],[1.77238,41.25232],[1.7721,41.2526],[1.77195,41.25301],[1.77124,41.25324],[1.77072,41.2536],[1.7698,41.25381],[1.76871,41.25344],[1.76877,41.25374],[1.76937,41.25442],[1.7753,41.25904],[1.77782,41.25749],[1.7785,41.25638],[1.78021,41.25568],[1.78112,41.2557]]]}},{"type":"Feature","properties":{"id":"0823101002"},"geometry":{"type":"Polygon","coordinates":[[[1.77203,41.25651],[1.76913,41.2542],[1.76877,41.25374],[1.76871,41.25344],[1.7698,41.25381],[1.77061,41.25364],[1.77124,41.25324],[1.77198,41.25299],[1.77207,41.25265],[1.77238,41.25232],[1.77297,41.25209],[1.77348,41.25156],[1.77559,41.25098],[1.77715,41.24958],[1.77827,41.24892],[1.77998,41.24744],[1.78046,41.2472],[1.77872,41.24588],[1.77599,41.24431],[1.77363,41.24334],[1.77122,41.24254],[1.7684,41.24186],[1.76565,41.24191],[1.76293,41.24139],[1.76154,41.24096],[1.76029,41.24029],[1.76017,41.24005],[1.75742,41.23882],[1.75588,41.2408],[1.75491,41.24168],[1.75446,41.24201],[1.75414,41.2421],[1.75066,41.24121],[1.74965,41.24123],[1.74874,41.24114],[1.74804,41.24077],[1.74764,41.24017],[1.74488,41.24484],[1.74506,41.24505],[1.74628,41.24586],[1.74841,41.2464],[1.74901,41.24683],[1.74996,41.24776],[1.75082,41.24826],[1.75304,41.24999],[1.75472,41.25052],[1.75534,41.25135],[1.75643,41.252],[1.7564,41.25285],[1.75621,41.25349],[1.75661,41.25377],[1.75714,41.25441],[1.75877,41.2548],[1.75924,41.25501],[1.76206,41.25675],[1.76267,41.25756],[1.76246,41.25812],[1.76274,41.25839],[1.76334,41.25872],[1.76404,41.25871],[1.76505,41.25891],[1.76593,41.2593],[1.76623,41.25866],[1.76663,41.25818],[1.76755,41.25772],[1.77038,41.261],[1.77122,41.26133],[1.77203,41.26016],[1.7711,41.25983],[1.77074,41.2591],[1.77203,41.25651]]]}},{"type":"Feature","properties":{"id":"0823101003"},"geometry":{"type":"Polygon","coordinates":[[[1.7785,41.26076],[1.77822,41.261],[1.77784,41.26117],[1.7767,41.26117],[1.77356,41.26053],[1.77339,41.26153],[1.7727,41.26226],[1.77265,41.2634],[1.77231,41.26367],[1.77274,41.26383],[1.77314,41.26386],[1.77343,41.264],[1.77413,41.26402],[1.77446,41.2642],[1.77515,41.26614],[1.77585,41.26615],[1.77813,41.26578],[1.7808,41.2644],[1.78088,41.26392],[1.78065,41.26355],[1.78043,41.26344],[1.77972,41.26335],[1.77943,41.26284],[1.77925,41.26186],[1.77953,41.26139],[1.7785,41.26076]]]}},{"type":"Feature","properties":{"id":"0823101004"},"geometry":{"type":"Polygon","coordinates":[[[1.74729,41.23155],[1.74707,41.22855],[1.74603,41.22862],[1.74391,41.23099],[1.74517,41.23157],[1.74729,41.23155]]]}},{"type":"Feature","properties":{"id":"0823101005"},"geometry":{"type":"Polygon","coordinates":[[[1.75063,41.22931],[1.75122,41.22698],[1.75119,41.22648],[1.7517,41.2263],[1.75158,41.22614],[1.75106,41.22618],[1.75102,41.22577],[1.74993,41.2258],[1.74996,41.22548],[1.74924,41.22547],[1.74922,41.2258],[1.74755,41.22579],[1.74704,41.22577],[1.74651,41.22531],[1.74626,41.22553],[1.74607,41.22597],[1.74633,41.22618],[1.74598,41.22725],[1.74603,41.22862],[1.74807,41.22853],[1.74803,41.22832],[1.74823,41.2283],[1.74872,41.22885],[1.74987,41.22827],[1.7504,41.22918],[1.75063,41.22931]]]}},{"type":"Feature","properties":{"id":"0823101006"},"geometry":{"type":"Polygon","coordinates":[[[1.74603,41.22862],[1.74597,41.22739],[1.74476,41.22714],[1.74391,41.22865],[1.74446,41.22876],[1.74294,41.23049],[1.74277,41.23052],[1.74391,41.23099],[1.74603,41.22862]]]}},{"type":"Feature","properties":{"id":"0823101007"},"geometry":{"type":"Polygon","coordinates":[[[1.74391,41.22865],[1.74476,41.22714],[1.74597,41.22739],[1.74633,41.22618],[1.74607,41.22597],[1.74626,41.22553],[1.74648,41.22535],[1.74564,41.22465],[1.74509,41.22484],[1.74483,41.22523],[1.7416,41.22764],[1.74156,41.22824],[1.74254,41.22914],[1.74391,41.22865]]]}},{"type":"Feature","properties":{"id":"0823101008"},"geometry":{"type":"Polygon","coordinates":[[[1.7785,41.26076],[1.78059,41.25976],[1.78066,41.26044],[1.78089,41.26043],[1.78246,41.26017],[1.78412,41.25947],[1.78494,41.25934],[1.78573,41.25903],[1.78633,41.2589],[1.78741,41.25831],[1.78673,41.25726],[1.78674,41.25638],[1.7877,41.2567],[1.78818,41.25695],[1.78848,41.25746],[1.78878,41.25766],[1.78863,41.25692],[1.78877,41.25643],[1.7889,41.25636],[1.78903,41.25648],[1.7891,41.25711],[1.78941,41.25745],[1.79259,41.2576],[1.79339,41.25726],[1.79387,41.25724],[1.79426,41.25738],[1.79518,41.25719],[1.79739,41.25766],[1.79745,41.25757],[1.79729,41.25739],[1.7966,41.2571],[1.79629,41.25668],[1.79646,41.25635],[1.79743,41.25522],[1.79736,41.25513],[1.79759,41.25456],[1.79786,41.25423],[1.79851,41.25391],[1.79919,41.25333],[1.80009,41.25289],[1.80046,41.25256],[1.80141,41.25198],[1.80161,41.25178],[1.80185,41.25102],[1.80226,41.25079],[1.80203,41.25067],[1.80032,41.25146],[1.79829,41.25211],[1.79565,41.25267],[1.79354,41.25294],[1.79094,41.25285],[1.78897,41.25262],[1.78757,41.25229],[1.78567,41.25156],[1.78473,41.25101],[1.78374,41.25208],[1.78322,41.25286],[1.78323,41.25345],[1.78284,41.25435],[1.7815,41.25516],[1.78129,41.25556],[1.78079,41.25604],[1.78058,41.2564],[1.78044,41.25643],[1.78051,41.25753],[1.77965,41.25757],[1.77486,41.2608],[1.7767,41.26117],[1.77784,41.26117],[1.77822,41.261],[1.7785,41.26076]]]}},{"type":"Feature","properties":{"id":"0823101009"},"geometry":{"type":"Polygon","coordinates":[[[1.77515,41.26614],[1.77446,41.2642],[1.77413,41.26402],[1.77343,41.264],[1.77314,41.26386],[1.77274,41.26383],[1.77231,41.26367],[1.7723,41.2642],[1.77187,41.26432],[1.77135,41.26467],[1.77113,41.26595],[1.77037,41.26603],[1.77024,41.26476],[1.77052,41.26426],[1.7713,41.26344],[1.7701,41.26323],[1.76911,41.26292],[1.77038,41.261],[1.76755,41.25772],[1.76663,41.25818],[1.76623,41.25866],[1.76593,41.2593],[1.76505,41.25891],[1.76404,41.25871],[1.76334,41.25872],[1.76274,41.25839],[1.76246,41.25812],[1.76267,41.25756],[1.76206,41.25675],[1.75924,41.25501],[1.75877,41.2548],[1.75714,41.25441],[1.75661,41.25377],[1.75621,41.25349],[1.7564,41.25285],[1.75643,41.252],[1.75534,41.25135],[1.75472,41.25052],[1.75304,41.24999],[1.75082,41.24826],[1.74996,41.24776],[1.74901,41.24683],[1.74841,41.2464],[1.74628,41.24586],[1.74532,41.24529],[1.74421,41.24416],[1.74301,41.24261],[1.74183,41.24221],[1.74146,41.24186],[1.74054,41.24054],[1.7388,41.23965],[1.73645,41.24374],[1.73461,41.24819],[1.73341,41.25004],[1.72307,41.26289],[1.72436,41.26565],[1.72437,41.26629],[1.72471,41.26623],[1.72484,41.26628],[1.7252,41.26596],[1.72638,41.26597],[1.72674,41.26648],[1.72627,41.26688],[1.72632,41.26692],[1.72826,41.2672],[1.73051,41.2678],[1.73167,41.26794],[1.7344,41.2679],[1.73514,41.26823],[1.73912,41.26789],[1.74002,41.26875],[1.73986,41.26923],[1.73962,41.27219],[1.73975,41.27248],[1.74024,41.27301],[1.74102,41.27369],[1.74012,41.27543],[1.74035,41.27557],[1.74063,41.2753],[1.74118,41.27549],[1.74105,41.27588],[1.74122,41.27614],[1.74195,41.27659],[1.74244,41.27709],[1.74262,41.27754],[1.74308,41.27814],[1.74894,41.28183],[1.75006,41.28194],[1.75362,41.28193],[1.75695,41.2823],[1.75924,41.28232],[1.76022,41.28226],[1.76105,41.28211],[1.76164,41.28216],[1.76211,41.28294],[1.76285,41.28362],[1.76398,41.28441],[1.76419,41.28527],[1.76448,41.28561],[1.76655,41.2867],[1.76762,41.28739],[1.76839,41.28814],[1.76873,41.28867],[1.76916,41.28895],[1.77003,41.28922],[1.77252,41.2895],[1.77761,41.28934],[1.77733,41.28934],[1.77715,41.28915],[1.77695,41.28866],[1.77711,41.28788],[1.77747,41.28749],[1.77786,41.28747],[1.77861,41.28775],[1.77949,41.28772],[1.78066,41.28709],[1.78085,41.28686],[1.78078,41.28669],[1.78038,41.28636],[1.7788,41.28534],[1.77791,41.28488],[1.77717,41.28421],[1.77683,41.28362],[1.77696,41.28311],[1.77806,41.28281],[1.77997,41.28256],[1.78102,41.28259],[1.78203,41.2829],[1.78271,41.28294],[1.78311,41.2828],[1.78374,41.27808],[1.78442,41.27703],[1.78483,41.27664],[1.78524,41.27542],[1.7854,41.27527],[1.78643,41.27498],[1.78775,41.27495],[1.78779,41.27485],[1.7875,41.27394],[1.78681,41.27326],[1.78598,41.27272],[1.78441,41.27236],[1.78384,41.27202],[1.7845,41.27136],[1.78522,41.27091],[1.78675,41.27025],[1.78706,41.26993],[1.78709,41.26974],[1.78691,41.26945],[1.78613,41.26914],[1.78557,41.26868],[1.78505,41.26844],[1.78424,41.26823],[1.78379,41.2683],[1.78109,41.26921],[1.77996,41.26963],[1.77837,41.27043],[1.77778,41.27055],[1.77695,41.27018],[1.77602,41.26908],[1.77515,41.26614]]]}},{"type":"Feature","properties":{"id":"0823101010"},"geometry":{"type":"Polygon","coordinates":[[[1.75098,41.22969],[1.7504,41.22918],[1.74987,41.22827],[1.74872,41.22885],[1.74823,41.2283],[1.74803,41.22832],[1.74807,41.22853],[1.74707,41.22855],[1.74728,41.23143],[1.74744,41.23143],[1.74898,41.23049],[1.7493,41.23008],[1.7503,41.23004],[1.75098,41.22969]]]}},{"type":"Feature","properties":{"id":"0823101011"},"geometry":{"type":"Polygon","coordinates":[[[1.74391,41.22865],[1.74254,41.22914],[1.74156,41.22824],[1.74149,41.22954],[1.74277,41.23052],[1.74294,41.23049],[1.74446,41.22876],[1.74391,41.22865]]]}},{"type":"Feature","properties":{"id":"0823101012"},"geometry":{"type":"Polygon","coordinates":[[[1.83516,41.26828],[1.83475,41.2672],[1.83659,41.26485],[1.83632,41.26333],[1.83448,41.26065],[1.82573,41.26001],[1.81686,41.256],[1.8146,41.25626],[1.81293,41.2559],[1.80999,41.25491],[1.80924,41.25398],[1.80523,41.25235],[1.80226,41.25079],[1.80185,41.25102],[1.80161,41.25178],[1.80141,41.25198],[1.80046,41.25256],[1.80009,41.25289],[1.79919,41.25333],[1.79851,41.25391],[1.79786,41.25423],[1.79759,41.25456],[1.79736,41.25513],[1.79743,41.25522],[1.79646,41.25635],[1.79629,41.25668],[1.7966,41.2571],[1.79729,41.25739],[1.79745,41.25757],[1.79739,41.25766],[1.79518,41.25719],[1.79426,41.25738],[1.79387,41.25724],[1.79339,41.25726],[1.79259,41.2576],[1.78941,41.25745],[1.7891,41.25711],[1.78903,41.25648],[1.7889,41.25636],[1.78877,41.25643],[1.78863,41.25692],[1.78878,41.25766],[1.78848,41.25746],[1.78818,41.25695],[1.7877,41.2567],[1.78674,41.25638],[1.78673,41.25726],[1.78741,41.25831],[1.78633,41.2589],[1.78573,41.25903],[1.78494,41.25934],[1.78412,41.25947],[1.78246,41.26017],[1.78089,41.26043],[1.78066,41.26044],[1.78059,41.25976],[1.7785,41.26076],[1.77953,41.26139],[1.77925,41.26186],[1.77943,41.26284],[1.77972,41.26335],[1.78043,41.26344],[1.78065,41.26355],[1.78088,41.26392],[1.7808,41.2644],[1.77813,41.26578],[1.77585,41.26615],[1.77515,41.26614],[1.77602,41.26908],[1.77695,41.27018],[1.77778,41.27055],[1.77837,41.27043],[1.77996,41.26963],[1.78379,41.2683],[1.78424,41.26823],[1.78505,41.26844],[1.78557,41.26868],[1.78613,41.26914],[1.78702,41.26954],[1.78706,41.26993],[1.78651,41.2704],[1.78522,41.27091],[1.7845,41.27136],[1.78384,41.27202],[1.78441,41.27236],[1.78598,41.27272],[1.78681,41.27326],[1.7875,41.27394],[1.78779,41.27485],[1.78775,41.27495],[1.78643,41.27498],[1.7854,41.27527],[1.78524,41.27542],[1.78483,41.27664],[1.78442,41.27703],[1.78374,41.27808],[1.78311,41.2828],[1.78271,41.28294],[1.78203,41.2829],[1.78102,41.28259],[1.77997,41.28256],[1.77806,41.28281],[1.77696,41.28311],[1.77681,41.28348],[1.77687,41.28377],[1.77735,41.28439],[1.77809,41.285],[1.77989,41.28601],[1.78078,41.28669],[1.78085,41.28686],[1.78066,41.28709],[1.77949,41.28772],[1.77861,41.28775],[1.77786,41.28747],[1.77747,41.28749],[1.77711,41.28788],[1.77698,41.28829],[1.77695,41.28866],[1.77709,41.28907],[1.77733,41.28934],[1.77762,41.28934],[1.77889,41.29072],[1.77924,41.29123],[1.78,41.29187],[1.78228,41.29343],[1.78364,41.2946],[1.78619,41.29427],[1.7895,41.29365],[1.79516,41.2921],[1.80057,41.2905],[1.80094,41.29057],[1.80468,41.2921],[1.80693,41.29263],[1.80973,41.29192],[1.81068,41.29195],[1.81572,41.29284],[1.81536,41.29135],[1.81537,41.29059],[1.81608,41.28904],[1.81376,41.28719],[1.81567,41.28336],[1.81609,41.28181],[1.81681,41.28091],[1.81795,41.27854],[1.82168,41.27963],[1.82391,41.2797],[1.82456,41.2752],[1.82479,41.27485],[1.82616,41.27496],[1.82609,41.27361],[1.83042,41.2705],[1.83146,41.27028],[1.83219,41.27],[1.83338,41.26923],[1.83411,41.26901],[1.83516,41.26828]]]}},{"type":"Feature","properties":{"id":"0823101013"},"geometry":{"type":"Polygon","coordinates":[[[1.75694,41.21937],[1.75535,41.2196],[1.75276,41.21962],[1.75207,41.21861],[1.74544,41.22428],[1.74509,41.22484],[1.74564,41.22465],[1.74704,41.22577],[1.74922,41.2258],[1.74924,41.22547],[1.74996,41.22548],[1.74993,41.2258],[1.75098,41.22578],[1.75094,41.22489],[1.75105,41.22481],[1.75098,41.22434],[1.75213,41.22446],[1.75509,41.2252],[1.75674,41.22542],[1.75684,41.2256],[1.75656,41.22474],[1.75694,41.21937]]]}},{"type":"Feature","properties":{"id":"0823101014"},"geometry":{"type":"Polygon","coordinates":[[[1.80203,41.25067],[1.80077,41.25001],[1.79971,41.24961],[1.79884,41.2474],[1.7985,41.24714],[1.79848,41.24671],[1.79767,41.24581],[1.79456,41.24419],[1.7941,41.2446],[1.79268,41.245],[1.7912,41.24527],[1.79051,41.24564],[1.78907,41.24666],[1.78816,41.24755],[1.78559,41.24968],[1.78551,41.24997],[1.78473,41.25101],[1.78567,41.25156],[1.78757,41.25229],[1.78897,41.25262],[1.79094,41.25285],[1.79354,41.25294],[1.79565,41.25267],[1.79829,41.25211],[1.80032,41.25146],[1.80203,41.25067]]]}},{"type":"Feature","properties":{"id":"0823101015"},"geometry":{"type":"Polygon","coordinates":[[[1.79456,41.24419],[1.79418,41.24405],[1.79278,41.2442],[1.7917,41.24374],[1.79162,41.24361],[1.79181,41.24253],[1.79168,41.24231],[1.78942,41.24141],[1.78873,41.24062],[1.7885,41.24016],[1.78698,41.23811],[1.78692,41.23815],[1.7864,41.23762],[1.7863,41.23652],[1.78571,41.2361],[1.78573,41.23529],[1.7855,41.2339],[1.78474,41.23262],[1.78146,41.23405],[1.77818,41.23656],[1.77324,41.23943],[1.77079,41.23963],[1.76605,41.23441],[1.76578,41.23382],[1.76287,41.23348],[1.76056,41.23116],[1.75711,41.22644],[1.75674,41.22542],[1.75509,41.2252],[1.75213,41.22446],[1.75098,41.22434],[1.75106,41.22618],[1.75158,41.22614],[1.7517,41.2263],[1.75119,41.22648],[1.75122,41.22698],[1.75063,41.22931],[1.75098,41.22969],[1.7503,41.23004],[1.7493,41.23008],[1.74898,41.23049],[1.74744,41.23143],[1.74728,41.23143],[1.74729,41.23155],[1.74517,41.23157],[1.74277,41.23052],[1.74155,41.23376],[1.74,41.23593],[1.73979,41.23792],[1.7388,41.23965],[1.74054,41.24054],[1.74146,41.24186],[1.74183,41.24221],[1.74301,41.24261],[1.74421,41.24416],[1.74488,41.24484],[1.74764,41.24017],[1.74804,41.24077],[1.74874,41.24114],[1.74965,41.24123],[1.75066,41.24121],[1.75414,41.2421],[1.75446,41.24201],[1.75491,41.24168],[1.75588,41.2408],[1.75742,41.23882],[1.76017,41.24005],[1.76029,41.24029],[1.76154,41.24096],[1.76293,41.24139],[1.76565,41.24191],[1.7684,41.24186],[1.77122,41.24254],[1.77363,41.24334],[1.77599,41.24431],[1.77872,41.24588],[1.78046,41.2472],[1.78033,41.24727],[1.78158,41.24852],[1.78279,41.24953],[1.78404,41.25053],[1.78483,41.25088],[1.78551,41.24997],[1.78559,41.24968],[1.78816,41.24755],[1.78907,41.24666],[1.79051,41.24564],[1.7912,41.24527],[1.79268,41.245],[1.7941,41.2446],[1.79456,41.24419]]]}},{"type":"Feature","properties":{"id":"0823101016"},"geometry":{"type":"Polygon","coordinates":[[[1.78112,41.2557],[1.78021,41.25568],[1.7785,41.25638],[1.77782,41.25749],[1.77379,41.25997],[1.77356,41.26053],[1.77486,41.2608],[1.77965,41.25757],[1.78051,41.25753],[1.78044,41.25643],[1.78058,41.2564],[1.78112,41.2557]]]}},{"type":"Feature","properties":{"id":"0823101017"},"geometry":{"type":"Polygon","coordinates":[[[1.77231,41.26367],[1.77265,41.2634],[1.7727,41.26226],[1.77339,41.26153],[1.77356,41.26053],[1.77379,41.25997],[1.7753,41.25904],[1.77203,41.25651],[1.77074,41.2591],[1.7711,41.25983],[1.77203,41.26016],[1.77122,41.26133],[1.77038,41.261],[1.76911,41.26292],[1.7701,41.26323],[1.7713,41.26344],[1.77052,41.26426],[1.77024,41.26476],[1.77037,41.26603],[1.77113,41.26595],[1.77135,41.26467],[1.77187,41.26432],[1.7723,41.2642],[1.77231,41.26367]]]}}]}