{"type":"FeatureCollection","features":[{"type":"Feature","properties":{"id":"0824501001"},"geometry":{"type":"Polygon","coordinates":[[[2.20833,41.45337],[2.21068,41.45264],[2.2099,41.45205],[2.20963,41.45159],[2.21019,41.45139],[2.20973,41.45103],[2.20898,41.45117],[2.20802,41.45109],[2.20682,41.45329],[2.20649,41.45371],[2.20723,41.45426],[2.20833,41.45337]]]}},{"type":"Feature","properties":{"id":"0824501002"},"geometry":{"type":"Polygon","coordinates":[[[2.20919,41.45113],[2.21022,41.44979],[2.21029,41.44947],[2.21046,41.44806],[2.20987,41.44789],[2.20802,41.45109],[2.20919,41.45113]]]}},{"type":"Feature","properties":{"id":"0824501003"},"geometry":{"type":"Polygon","coordinates":[[[2.21218,41.44793],[2.21244,41.44758],[2.21092,41.44631],[2.21075,41.44731],[2.21046,41.44807],[2.21069,41.44825],[2.21097,41.4483],[2.21164,41.4477],[2.21218,41.44793]]]}},{"type":"Feature","properties":{"id":"0824501004"},"geometry":{"type":"Polygon","coordinates":[[[2.21249,41.44878],[2.212,41.44864],[2.21224,41.44822],[2.21202,41.44812],[2.21218,41.44793],[2.21164,41.4477],[2.21097,41.4483],[2.21069,41.44825],[2.21046,41.44807],[2.21037,41.44881],[2.21044,41.4488],[2.21055,41.44913],[2.21249,41.44878]]]}},{"type":"Feature","properties":{"id":"0824501005"},"geometry":{"type":"Polygon","coordinates":[[[2.21079,41.45039],[2.21109,41.45035],[2.21099,41.45004],[2.21195,41.44987],[2.21177,41.44924],[2.21298,41.44904],[2.21304,41.44894],[2.21249,41.44878],[2.21055,41.44913],[2.21044,41.4488],[2.21037,41.44881],[2.21022,41.44979],[2.20991,41.45019],[2.21067,41.45009],[2.21079,41.45039]]]}},{"type":"Feature","properties":{"id":"0824501006"},"geometry":{"type":"Polygon","coordinates":[[[2.21416,41.44949],[2.21425,41.44929],[2.21304,41.44894],[2.21298,41.44904],[2.21177,41.44924],[2.21195,41.44987],[2.21416,41.44949]]]}},{"type":"Feature","properties":{"id":"0824501007"},"geometry":{"type":"Polygon","coordinates":[[[2.21304,41.44894],[2.21374,41.44765],[2.21245,41.44758],[2.21202,41.44812],[2.21224,41.44822],[2.212,41.44864],[2.21304,41.44894]]]}},{"type":"Feature","properties":{"id":"0824501009"},"geometry":{"type":"Polygon","coordinates":[[[2.21484,41.44778],[2.21374,41.44766],[2.21304,41.44894],[2.21424,41.44929],[2.21484,41.44778]]]}},{"type":"Feature","properties":{"id":"0824501010"},"geometry":{"type":"Polygon","coordinates":[[[2.21637,41.44835],[2.21568,41.44817],[2.21484,41.44778],[2.21425,41.4493],[2.2157,41.44972],[2.21637,41.44835]]]}},{"type":"Feature","properties":{"id":"0824501011"},"geometry":{"type":"Polygon","coordinates":[[[2.21569,41.44972],[2.21425,41.4493],[2.21374,41.45046],[2.21513,41.45087],[2.21569,41.44972]]]}},{"type":"Feature","properties":{"id":"0824501012"},"geometry":{"type":"Polygon","coordinates":[[[2.21512,41.45088],[2.21378,41.45048],[2.21321,41.45143],[2.21332,41.45235],[2.21359,41.4523],[2.21484,41.4514],[2.21512,41.45088]]]}},{"type":"Feature","properties":{"id":"0824501013"},"geometry":{"type":"Polygon","coordinates":[[[2.21322,41.45139],[2.21378,41.45048],[2.21373,41.45041],[2.21416,41.44949],[2.21099,41.45004],[2.21109,41.45035],[2.21091,41.45038],[2.21114,41.45118],[2.21174,41.45106],[2.21204,41.45198],[2.21322,41.45139]]]}},{"type":"Feature","properties":{"id":"0824501014"},"geometry":{"type":"Polygon","coordinates":[[[2.21073,41.45262],[2.21203,41.45196],[2.21174,41.45106],[2.21114,41.45118],[2.21091,41.45038],[2.21079,41.45039],[2.21067,41.45009],[2.20992,41.45021],[2.20919,41.45113],[2.20973,41.45103],[2.21018,41.45135],[2.20963,41.45159],[2.2099,41.45205],[2.21073,41.45262]]]}},{"type":"Feature","properties":{"id":"0824501015"},"geometry":{"type":"Polygon","coordinates":[[[2.21333,41.45244],[2.21322,41.45139],[2.21073,41.45262],[2.21165,41.45331],[2.21216,41.45329],[2.21333,41.45244]]]}},{"type":"Feature","properties":{"id":"0824501016"},"geometry":{"type":"Polygon","coordinates":[[[2.21166,41.4533],[2.21073,41.45262],[2.20833,41.45337],[2.20847,41.45349],[2.20885,41.45345],[2.20999,41.45409],[2.21088,41.4543],[2.21162,41.45366],[2.21166,41.4533]]]}},{"type":"Feature","properties":{"id":"0824501017"},"geometry":{"type":"Polygon","coordinates":[[[2.20916,41.45625],[2.20927,41.45578],[2.21084,41.45429],[2.20999,41.45409],[2.2093,41.45367],[2.2087,41.45417],[2.20943,41.45478],[2.20857,41.45527],[2.20885,41.45555],[2.20849,41.45582],[2.20916,41.45625]]]}},{"type":"Feature","properties":{"id":"0824501018"},"geometry":{"type":"Polygon","coordinates":[[[2.2093,41.45367],[2.20885,41.45345],[2.20847,41.45349],[2.20833,41.45337],[2.20723,41.45426],[2.20671,41.45388],[2.20637,41.45409],[2.20644,41.45441],[2.20851,41.45581],[2.20885,41.45555],[2.20857,41.45527],[2.20943,41.45478],[2.2087,41.45417],[2.2093,41.45367]]]}},{"type":"Feature","properties":{"id":"0824501019"},"geometry":{"type":"Polygon","coordinates":[[[2.20851,41.45707],[2.20877,41.45689],[2.20918,41.45634],[2.20916,41.45625],[2.20645,41.45442],[2.20652,41.45489],[2.20633,41.45535],[2.20851,41.45707]]]}},{"type":"Feature","properties":{"id":"0824502001"},"geometry":{"type":"Polygon","coordinates":[[[2.21066,41.45735],[2.20917,41.45632],[2.20877,41.45689],[2.20851,41.45707],[2.20976,41.45795],[2.21066,41.45735]]]}},{"type":"Feature","properties":{"id":"0824502002"},"geometry":{"type":"Polygon","coordinates":[[[2.21481,41.45656],[2.21262,41.45457],[2.21537,41.45423],[2.21424,41.45325],[2.21388,41.45315],[2.21347,41.45324],[2.21333,41.45244],[2.21216,41.45329],[2.21166,41.4533],[2.21162,41.45366],[2.20921,41.45586],[2.20965,41.45626],[2.21049,41.45602],[2.21042,41.4558],[2.2124,41.4556],[2.21262,41.45679],[2.21481,41.45656]]]}},{"type":"Feature","properties":{"id":"0824502003"},"geometry":{"type":"Polygon","coordinates":[[[2.21865,41.46046],[2.21847,41.46029],[2.2179,41.45835],[2.21638,41.45762],[2.2167,41.45739],[2.21581,41.45663],[2.21523,41.45693],[2.21481,41.45656],[2.21262,41.45679],[2.2124,41.4556],[2.21042,41.4558],[2.21049,41.45602],[2.20965,41.45626],[2.20926,41.45596],[2.20917,41.45632],[2.21067,41.45734],[2.21295,41.45928],[2.2141,41.45982],[2.21633,41.46125],[2.21679,41.46132],[2.21803,41.46117],[2.21853,41.46088],[2.21865,41.46046]]]}},{"type":"Feature","properties":{"id":"0824502004"},"geometry":{"type":"Polygon","coordinates":[[[2.21347,41.45324],[2.21651,41.45142],[2.21653,41.45115],[2.216,41.45113],[2.21512,41.45088],[2.21484,41.4514],[2.21359,41.4523],[2.21336,41.45236],[2.21347,41.45324]]]}},{"type":"Feature","properties":{"id":"0824502005"},"geometry":{"type":"Polygon","coordinates":[[[2.21685,41.45237],[2.21663,41.45148],[2.21651,41.45142],[2.21365,41.45318],[2.2141,41.45318],[2.21463,41.45358],[2.21504,41.45335],[2.21547,41.45328],[2.21685,41.45237]]]}},{"type":"Feature","properties":{"id":"0824502006"},"geometry":{"type":"Polygon","coordinates":[[[2.21744,41.45305],[2.21685,41.45237],[2.21547,41.45328],[2.21504,41.45335],[2.21463,41.45358],[2.21536,41.45425],[2.21564,41.45425],[2.21744,41.45305]]]}},{"type":"Feature","properties":{"id":"0824502007"},"geometry":{"type":"Polygon","coordinates":[[[2.218,41.45654],[2.21547,41.45425],[2.21262,41.45457],[2.21523,41.45693],[2.21581,41.45663],[2.2167,41.45739],[2.218,41.45654]]]}},{"type":"Feature","properties":{"id":"0824502008"},"geometry":{"type":"Polygon","coordinates":[[[2.2183,41.4536],[2.21744,41.45305],[2.21564,41.45425],[2.21547,41.45425],[2.21631,41.45506],[2.21688,41.45472],[2.2183,41.4536]]]}},{"type":"Feature","properties":{"id":"0824502009"},"geometry":{"type":"Polygon","coordinates":[[[2.21695,41.45562],[2.21905,41.45426],[2.2183,41.4536],[2.21688,41.45472],[2.21631,41.45506],[2.21695,41.45562]]]}},{"type":"Feature","properties":{"id":"0824502010"},"geometry":{"type":"Polygon","coordinates":[[[2.21996,41.45528],[2.21894,41.45437],[2.21828,41.45478],[2.2193,41.4557],[2.21996,41.45528]]]}},{"type":"Feature","properties":{"id":"0824502011"},"geometry":{"type":"Polygon","coordinates":[[[2.2193,41.4557],[2.21828,41.45478],[2.21695,41.45562],[2.218,41.45654],[2.2193,41.4557]]]}},{"type":"Feature","properties":{"id":"0824503001"},"geometry":{"type":"Polygon","coordinates":[[[2.20511,41.45454],[2.20041,41.45173],[2.19956,41.45089],[2.197,41.45296],[2.19812,41.45369],[2.19864,41.45415],[2.19891,41.45548],[2.1989,41.45624],[2.19855,41.45747],[2.1986,41.4576],[2.20014,41.45779],[2.20135,41.45757],[2.20236,41.45827],[2.20349,41.4574],[2.20261,41.45675],[2.20264,41.45662],[2.20294,41.45643],[2.20446,41.45631],[2.205,41.4556],[2.20511,41.45454]]]}},{"type":"Feature","properties":{"id":"0824503002"},"geometry":{"type":"Polygon","coordinates":[[[2.20109,41.45929],[2.20235,41.45827],[2.20135,41.45757],[2.20014,41.45779],[2.1982,41.45758],[2.19821,41.45773],[2.19882,41.45812],[2.1995,41.4583],[2.1996,41.45861],[2.20022,41.45859],[2.20051,41.45871],[2.20109,41.45929]]]}},{"type":"Feature","properties":{"id":"0824503003"},"geometry":{"type":"Polygon","coordinates":[[[2.19801,41.45754],[2.19859,41.45758],[2.1989,41.45624],[2.19891,41.45548],[2.19872,41.45444],[2.19861,41.4541],[2.197,41.45296],[2.19075,41.45806],[2.19163,41.45886],[2.19259,41.45997],[2.19404,41.45917],[2.19515,41.45873],[2.19541,41.45874],[2.19476,41.45901],[2.19424,41.45978],[2.194,41.46032],[2.19406,41.46044],[2.19423,41.46049],[2.19434,41.46044],[2.19467,41.4597],[2.19506,41.45943],[2.19567,41.4594],[2.1967,41.45985],[2.19683,41.45978],[2.19695,41.45926],[2.1973,41.45911],[2.19742,41.45849],[2.19789,41.45768],[2.19801,41.45754]]]}},{"type":"Feature","properties":{"id":"0824503004"},"geometry":{"type":"Polygon","coordinates":[[[2.19431,41.46095],[2.19479,41.46062],[2.19491,41.45996],[2.19519,41.45972],[2.19546,41.45966],[2.19583,41.45976],[2.19648,41.46035],[2.19681,41.46031],[2.19751,41.46],[2.1978,41.4597],[2.1978,41.45901],[2.19792,41.45858],[2.19817,41.45829],[2.1988,41.45811],[2.19821,41.45773],[2.19819,41.45761],[2.19801,41.45754],[2.19789,41.45768],[2.19742,41.45849],[2.1973,41.45911],[2.19695,41.45926],[2.19683,41.45978],[2.1967,41.45985],[2.19567,41.4594],[2.19506,41.45943],[2.19467,41.4597],[2.19434,41.46044],[2.19423,41.46049],[2.19406,41.46044],[2.194,41.46032],[2.19424,41.45978],[2.19476,41.45901],[2.19541,41.45874],[2.19515,41.45873],[2.19404,41.45917],[2.19259,41.45997],[2.19163,41.45886],[2.19075,41.45806],[2.19956,41.45089],[2.19942,41.45081],[2.19748,41.45237],[2.19065,41.45726],[2.18914,41.4589],[2.18832,41.46006],[2.18785,41.46116],[2.18766,41.46207],[2.18746,41.46213],[2.18705,41.46743],[2.18735,41.46744],[2.18939,41.47068],[2.19057,41.47038],[2.19172,41.47101],[2.19254,41.47027],[2.19387,41.46824],[2.1941,41.46649],[2.19305,41.46318],[2.19431,41.46095]]]}},{"type":"Feature","properties":{"id":"0824503005"},"geometry":{"type":"Polygon","coordinates":[[[2.19923,41.462],[2.19912,41.46153],[2.19938,41.46119],[2.19933,41.46096],[2.19902,41.46085],[2.19919,41.46037],[2.19956,41.46019],[2.20004,41.45927],[2.2002,41.45954],[2.20028,41.46013],[2.20091,41.45979],[2.20109,41.45929],[2.20051,41.45871],[2.20008,41.45858],[2.1997,41.45865],[2.1995,41.4583],[2.19867,41.45812],[2.19817,41.45829],[2.19792,41.45858],[2.1978,41.45901],[2.1978,41.4597],[2.19751,41.46],[2.19681,41.46031],[2.19648,41.46035],[2.19583,41.45976],[2.19546,41.45966],[2.19519,41.45972],[2.19491,41.45996],[2.19479,41.46062],[2.19454,41.4608],[2.19706,41.46232],[2.19766,41.46229],[2.19817,41.46184],[2.19853,41.46187],[2.19901,41.46206],[2.19923,41.462]]]}},{"type":"Feature","properties":{"id":"0824503006"},"geometry":{"type":"Polygon","coordinates":[[[2.20142,41.46257],[2.20098,41.46164],[2.2022,41.46124],[2.20242,41.46104],[2.20209,41.4594],[2.20151,41.45893],[2.20109,41.45929],[2.20091,41.45979],[2.20028,41.46013],[2.2002,41.45954],[2.20004,41.45927],[2.19956,41.46019],[2.19919,41.46037],[2.19902,41.46085],[2.19933,41.46096],[2.19938,41.46119],[2.19976,41.46117],[2.2002,41.46151],[2.20068,41.46224],[2.20079,41.46263],[2.20096,41.46271],[2.20142,41.46257]]]}},{"type":"Feature","properties":{"id":"0824503007"},"geometry":{"type":"Polygon","coordinates":[[[2.20342,41.46046],[2.20308,41.45885],[2.20234,41.45828],[2.20151,41.45893],[2.20209,41.4594],[2.20233,41.46049],[2.20342,41.46046]]]}},{"type":"Feature","properties":{"id":"0824503008"},"geometry":{"type":"Polygon","coordinates":[[[2.2048,41.45873],[2.20464,41.45827],[2.2043,41.45799],[2.20306,41.45883],[2.2032,41.45936],[2.2048,41.45873]]]}},{"type":"Feature","properties":{"id":"0824503009"},"geometry":{"type":"Polygon","coordinates":[[[2.2043,41.45799],[2.20592,41.45734],[2.20587,41.45834],[2.20643,41.45864],[2.20722,41.4578],[2.20746,41.45728],[2.20807,41.45675],[2.20634,41.45534],[2.20511,41.45454],[2.205,41.4556],[2.20446,41.45631],[2.20294,41.45643],[2.20264,41.45662],[2.20261,41.45675],[2.20349,41.4574],[2.20234,41.45828],[2.20306,41.45883],[2.2043,41.45799]]]}},{"type":"Feature","properties":{"id":"0824503010"},"geometry":{"type":"Polygon","coordinates":[[[2.20976,41.45795],[2.20807,41.45675],[2.20746,41.45728],[2.20722,41.4578],[2.20643,41.45863],[2.20793,41.45953],[2.20899,41.45836],[2.20917,41.45834],[2.20976,41.45795]]]}},{"type":"Feature","properties":{"id":"0824503011"},"geometry":{"type":"Polygon","coordinates":[[[2.20699,41.45898],[2.20587,41.45834],[2.20592,41.45734],[2.20434,41.45792],[2.2043,41.45799],[2.20476,41.45848],[2.20524,41.46027],[2.20588,41.46012],[2.20665,41.4597],[2.20699,41.45898]]]}},{"type":"Feature","properties":{"id":"0824503012"},"geometry":{"type":"Polygon","coordinates":[[[2.20523,41.46027],[2.2048,41.45873],[2.2032,41.45936],[2.20342,41.46046],[2.2044,41.46046],[2.20523,41.46027]]]}},{"type":"Feature","properties":{"id":"0824503013"},"geometry":{"type":"Polygon","coordinates":[[[2.20523,41.46027],[2.2044,41.46046],[2.20233,41.46049],[2.20238,41.46114],[2.20098,41.46164],[2.20163,41.46298],[2.2015,41.46358],[2.2016,41.46387],[2.20179,41.46397],[2.20273,41.46406],[2.20495,41.46234],[2.20525,41.46246],[2.20546,41.46243],[2.20526,41.46189],[2.20553,41.46158],[2.20606,41.4613],[2.20581,41.46082],[2.20523,41.46027]]]}},{"type":"Feature","properties":{"id":"0824503014"},"geometry":{"type":"Polygon","coordinates":[[[2.2032,41.4641],[2.20179,41.46397],[2.2016,41.46387],[2.2015,41.46358],[2.20163,41.46298],[2.20142,41.46257],[2.20096,41.46271],[2.20079,41.46263],[2.20068,41.46224],[2.2002,41.46151],[2.19976,41.46117],[2.19938,41.46119],[2.19912,41.46153],[2.19951,41.4633],[2.19993,41.46383],[2.20028,41.46457],[2.20082,41.46501],[2.20081,41.46511],[2.20209,41.46537],[2.2029,41.46509],[2.20395,41.46519],[2.20439,41.46592],[2.20478,41.46592],[2.20462,41.46565],[2.20467,41.46492],[2.20431,41.46406],[2.20393,41.46393],[2.2032,41.4641]]]}},{"type":"Feature","properties":{"id":"0824503015"},"geometry":{"type":"Polygon","coordinates":[[[2.20792,41.45954],[2.20699,41.45898],[2.20665,41.4597],[2.20588,41.46012],[2.20523,41.46027],[2.20581,41.46082],[2.20606,41.4613],[2.20553,41.46158],[2.20526,41.46189],[2.20546,41.46243],[2.20525,41.46246],[2.20495,41.46234],[2.20273,41.46406],[2.2032,41.4641],[2.20393,41.46393],[2.20431,41.46406],[2.20467,41.46492],[2.20462,41.46565],[2.20479,41.46586],[2.20454,41.46597],[2.20543,41.46679],[2.20785,41.46761],[2.2083,41.4673],[2.20827,41.46651],[2.20798,41.46608],[2.2076,41.46587],[2.20752,41.46569],[2.20791,41.46518],[2.20819,41.46364],[2.20813,41.46303],[2.20786,41.46202],[2.20717,41.46112],[2.20728,41.46029],[2.20792,41.45954]]]}},{"type":"Feature","properties":{"id":"0824503016"},"geometry":{"type":"Polygon","coordinates":[[[2.21168,41.47111],[2.21214,41.47085],[2.21207,41.46912],[2.21165,41.46601],[2.21208,41.46571],[2.2118,41.46456],[2.21088,41.46321],[2.21058,41.46243],[2.21065,41.46214],[2.20897,41.46162],[2.20968,41.46027],[2.20792,41.45954],[2.20728,41.46029],[2.20717,41.46112],[2.20786,41.46202],[2.20808,41.46274],[2.20819,41.46364],[2.20791,41.46518],[2.20752,41.46569],[2.2076,41.46587],[2.20798,41.46608],[2.20827,41.46651],[2.2083,41.4673],[2.20785,41.46761],[2.20543,41.46679],[2.20492,41.46626],[2.20439,41.46592],[2.20395,41.46519],[2.2029,41.46509],[2.20209,41.46537],[2.20081,41.46511],[2.20082,41.46501],[2.20028,41.46457],[2.19993,41.46383],[2.19951,41.4633],[2.19923,41.462],[2.19901,41.46206],[2.19853,41.46187],[2.19817,41.46184],[2.19766,41.46229],[2.19706,41.46232],[2.19454,41.4608],[2.19431,41.46095],[2.19305,41.46318],[2.1941,41.46649],[2.19387,41.46824],[2.19254,41.47027],[2.19172,41.47101],[2.1932,41.47182],[2.20037,41.47329],[2.20609,41.47041],[2.2107,41.47061],[2.21168,41.47111]]]}},{"type":"Feature","properties":{"id":"0824503017"},"geometry":{"type":"Polygon","coordinates":[[[2.21214,41.47085],[2.22196,41.46518],[2.22199,41.46383],[2.2207,41.46237],[2.22102,41.46148],[2.22069,41.46129],[2.22061,41.46061],[2.21892,41.46067],[2.21865,41.46046],[2.21853,41.46088],[2.21803,41.46117],[2.21679,41.46132],[2.21633,41.46125],[2.2141,41.45982],[2.21295,41.45928],[2.21066,41.45735],[2.20917,41.45834],[2.20899,41.45836],[2.20793,41.45953],[2.20968,41.46027],[2.20897,41.46162],[2.21065,41.46214],[2.21058,41.46243],[2.21088,41.46321],[2.2118,41.46456],[2.21208,41.46571],[2.21165,41.46601],[2.21207,41.46912],[2.21214,41.47085]]]}},{"type":"Feature","properties":{"id":"0824504001"},"geometry":{"type":"Polygon","coordinates":[[[2.20652,41.45489],[2.20637,41.45409],[2.20671,41.45388],[2.2065,41.45366],[2.20681,41.45331],[2.20483,41.45266],[2.20462,41.45267],[2.20459,41.45295],[2.20494,41.45443],[2.20634,41.45534],[2.20652,41.45489]]]}},{"type":"Feature","properties":{"id":"0824504002"},"geometry":{"type":"Polygon","coordinates":[[[2.20802,41.4511],[2.20678,41.45092],[2.20663,41.45098],[2.20615,41.4517],[2.20532,41.45217],[2.20472,41.45263],[2.20681,41.45331],[2.20802,41.4511]]]}},{"type":"Feature","properties":{"id":"0824504003"},"geometry":{"type":"Polygon","coordinates":[[[2.20457,41.45275],[2.20159,41.45191],[2.20124,41.45167],[2.20089,41.45203],[2.20494,41.45443],[2.20457,41.45275]]]}},{"type":"Feature","properties":{"id":"0824504004"},"geometry":{"type":"Polygon","coordinates":[[[2.20457,41.45275],[2.20517,41.45228],[2.2007,41.44996],[2.19956,41.45089],[2.20041,41.45173],[2.20089,41.45203],[2.20124,41.45167],[2.20159,41.45191],[2.20457,41.45275]]]}},{"type":"Feature","properties":{"id":"0824504005"},"geometry":{"type":"Polygon","coordinates":[[[2.20614,41.45171],[2.20267,41.45049],[2.20096,41.44974],[2.2007,41.44996],[2.20517,41.45228],[2.20614,41.45171]]]}},{"type":"Feature","properties":{"id":"0824504006"},"geometry":{"type":"Polygon","coordinates":[[[2.20673,41.45094],[2.2016,41.44911],[2.20096,41.44974],[2.20267,41.45049],[2.20614,41.45171],[2.20673,41.45094]]]}},{"type":"Feature","properties":{"id":"0824504007"},"geometry":{"type":"Polygon","coordinates":[[[2.20802,41.45109],[2.20912,41.44917],[2.20772,41.4487],[2.20669,41.45092],[2.20802,41.45109]]]}},{"type":"Feature","properties":{"id":"0824504008"},"geometry":{"type":"Polygon","coordinates":[[[2.20772,41.4487],[2.20625,41.44822],[2.20501,41.45031],[2.20669,41.45092],[2.20772,41.4487]]]}},{"type":"Feature","properties":{"id":"0824504009"},"geometry":{"type":"Polygon","coordinates":[[[2.20625,41.44822],[2.20331,41.44714],[2.20479,41.44544],[2.20133,41.449],[2.20501,41.45031],[2.20625,41.44822]]]}},{"type":"Feature","properties":{"id":"0824504010"},"geometry":{"type":"Polygon","coordinates":[[[2.20987,41.44789],[2.20836,41.4474],[2.20772,41.4487],[2.20912,41.44917],[2.20987,41.44789]]]}},{"type":"Feature","properties":{"id":"0824504011"},"geometry":{"type":"Polygon","coordinates":[[[2.20836,41.4474],[2.207,41.44694],[2.20625,41.44822],[2.20772,41.4487],[2.20836,41.4474]]]}},{"type":"Feature","properties":{"id":"0824504012"},"geometry":{"type":"Polygon","coordinates":[[[2.207,41.44694],[2.2043,41.446],[2.20331,41.44714],[2.20624,41.44821],[2.207,41.44694]]]}},{"type":"Feature","properties":{"id":"0824504013"},"geometry":{"type":"Polygon","coordinates":[[[2.20984,41.44558],[2.20922,41.44539],[2.20832,41.44738],[2.20987,41.44789],[2.21021,41.4472],[2.2103,41.44648],[2.20953,41.44583],[2.20984,41.44558]]]}},{"type":"Feature","properties":{"id":"0824504014"},"geometry":{"type":"Polygon","coordinates":[[[2.20922,41.44539],[2.20809,41.4451],[2.207,41.44694],[2.20832,41.44738],[2.20922,41.44539]]]}},{"type":"Feature","properties":{"id":"0824504015"},"geometry":{"type":"Polygon","coordinates":[[[2.20808,41.44512],[2.20576,41.4444],[2.2043,41.446],[2.207,41.44694],[2.20808,41.44512]]]}},{"type":"Feature","properties":{"id":"0824504016"},"geometry":{"type":"Polygon","coordinates":[[[2.21092,41.44632],[2.20984,41.44558],[2.20953,41.44583],[2.2103,41.44648],[2.21021,41.4472],[2.20987,41.44789],[2.21046,41.44806],[2.21075,41.44731],[2.21092,41.44632]]]}},{"type":"Feature","properties":{"id":"0824505001"},"geometry":{"type":"Polygon","coordinates":[[[2.21245,41.44758],[2.21315,41.4467],[2.21095,41.44612],[2.21102,41.44551],[2.21081,41.44515],[2.21099,41.4449],[2.21081,41.44481],[2.21058,41.44447],[2.2106,41.44399],[2.2101,41.44447],[2.20867,41.44392],[2.20841,41.44395],[2.20809,41.44379],[2.20646,41.44361],[2.20576,41.4444],[2.20984,41.44558],[2.21054,41.44602],[2.21245,41.44758]]]}},{"type":"Feature","properties":{"id":"0824505002"},"geometry":{"type":"Polygon","coordinates":[[[2.21502,41.44717],[2.21315,41.44669],[2.21245,41.44758],[2.21483,41.44777],[2.21502,41.44717]]]}},{"type":"Feature","properties":{"id":"0824505003"},"geometry":{"type":"Polygon","coordinates":[[[2.21743,41.44724],[2.21607,41.44704],[2.21533,41.44675],[2.2151,41.44699],[2.21483,41.44777],[2.21568,41.44817],[2.21641,41.44835],[2.21688,41.44773],[2.21743,41.44724]]]}},{"type":"Feature","properties":{"id":"0824505004"},"geometry":{"type":"Polygon","coordinates":[[[2.21532,41.44676],[2.21287,41.44603],[2.21221,41.44642],[2.21502,41.44717],[2.21532,41.44676]]]}},{"type":"Feature","properties":{"id":"0824505005"},"geometry":{"type":"Polygon","coordinates":[[[2.21287,41.44603],[2.21195,41.44564],[2.21108,41.44507],[2.21095,41.44503],[2.21082,41.44511],[2.21102,41.44551],[2.21095,41.44612],[2.21221,41.44642],[2.21287,41.44603]]]}},{"type":"Feature","properties":{"id":"0824505006"},"geometry":{"type":"Polygon","coordinates":[[[2.21781,41.44685],[2.21672,41.44574],[2.21664,41.44571],[2.21636,41.44608],[2.21586,41.44596],[2.21565,41.44641],[2.2161,41.44656],[2.21617,41.44667],[2.21607,41.44704],[2.21744,41.44722],[2.21781,41.44685]]]}},{"type":"Feature","properties":{"id":"0824505007"},"geometry":{"type":"Polygon","coordinates":[[[2.21586,41.44596],[2.21424,41.44549],[2.21397,41.44514],[2.21387,41.44518],[2.21373,41.44586],[2.21349,41.4462],[2.21607,41.44704],[2.21617,41.44667],[2.2161,41.44656],[2.21565,41.44641],[2.21586,41.44596]]]}},{"type":"Feature","properties":{"id":"0824505008"},"geometry":{"type":"Polygon","coordinates":[[[2.21388,41.44517],[2.21272,41.44501],[2.21215,41.4447],[2.21203,41.44482],[2.21244,41.44532],[2.21213,41.44572],[2.21349,41.4462],[2.21376,41.4458],[2.21388,41.44517]]]}},{"type":"Feature","properties":{"id":"0824505009"},"geometry":{"type":"Polygon","coordinates":[[[2.21388,41.44517],[2.21392,41.44478],[2.21375,41.44444],[2.21339,41.44445],[2.21184,41.44404],[2.21095,41.44503],[2.21213,41.44572],[2.21244,41.44532],[2.21203,41.44482],[2.21215,41.4447],[2.21272,41.44501],[2.21388,41.44517]]]}},{"type":"Feature","properties":{"id":"0824505011"},"geometry":{"type":"Polygon","coordinates":[[[2.21843,41.44653],[2.2189,41.44675],[2.21996,41.44654],[2.21917,41.44585],[2.2186,41.44508],[2.21774,41.44444],[2.21665,41.44572],[2.21721,41.44617],[2.21781,41.44685],[2.21843,41.44653]]]}},{"type":"Feature","properties":{"id":"0824505012"},"geometry":{"type":"Polygon","coordinates":[[[2.21636,41.44608],[2.21774,41.44444],[2.2167,41.44335],[2.21597,41.44372],[2.21561,41.44438],[2.2154,41.44545],[2.21459,41.4456],[2.21636,41.44608]]]}},{"type":"Feature","properties":{"id":"0824505013"},"geometry":{"type":"Polygon","coordinates":[[[2.21459,41.4456],[2.2154,41.44545],[2.21561,41.44438],[2.21597,41.44372],[2.2167,41.44335],[2.21456,41.44163],[2.21351,41.44025],[2.21274,41.44054],[2.21364,41.44068],[2.21316,41.44116],[2.2134,41.44283],[2.21397,41.44292],[2.21275,41.44331],[2.21392,41.44356],[2.21378,41.44398],[2.21406,41.44436],[2.21375,41.44444],[2.21392,41.44478],[2.21389,41.44517],[2.21403,41.44517],[2.21424,41.44549],[2.2144,41.44555],[2.21459,41.4456]]]}},{"type":"Feature","properties":{"id":"0824505014"},"geometry":{"type":"Polygon","coordinates":[[[2.21339,41.44445],[2.21406,41.44436],[2.21378,41.44398],[2.21392,41.44356],[2.21085,41.44296],[2.21102,41.44338],[2.2106,41.44399],[2.21054,41.44433],[2.21065,41.44462],[2.21099,41.4449],[2.21184,41.44404],[2.21339,41.44445]]]}},{"type":"Feature","properties":{"id":"0824505015"},"geometry":{"type":"Polygon","coordinates":[[[2.2106,41.44399],[2.21102,41.44338],[2.21085,41.44296],[2.21276,41.44329],[2.21397,41.44292],[2.2134,41.44283],[2.2133,41.44191],[2.21065,41.44211],[2.20915,41.44205],[2.20787,41.44189],[2.20646,41.44361],[2.20809,41.44379],[2.20841,41.44395],[2.20867,41.44392],[2.2101,41.44447],[2.2106,41.44399]]]}},{"type":"Feature","properties":{"id":"0824505016"},"geometry":{"type":"Polygon","coordinates":[[[2.2133,41.44191],[2.21321,41.44116],[2.21118,41.44109],[2.21112,41.44005],[2.20858,41.4398],[2.20787,41.44189],[2.20915,41.44205],[2.21065,41.44211],[2.2133,41.44191]]]}},{"type":"Feature","properties":{"id":"0824505018"},"geometry":{"type":"Polygon","coordinates":[[[2.21351,41.44025],[2.21331,41.43998],[2.21112,41.44006],[2.21118,41.44109],[2.21316,41.44116],[2.21364,41.44068],[2.21274,41.4405],[2.21351,41.44025]]]}},{"type":"Feature","properties":{"id":"0824505019"},"geometry":{"type":"Polygon","coordinates":[[[2.21469,41.43486],[2.21291,41.4343],[2.21275,41.4344],[2.21192,41.434],[2.21091,41.43367],[2.21051,41.43366],[2.2097,41.4352],[2.20806,41.44095],[2.20693,41.44298],[2.20787,41.44189],[2.20858,41.4398],[2.21129,41.44009],[2.21331,41.43998],[2.21328,41.43948],[2.21309,41.43918],[2.2136,41.43648],[2.21469,41.43486]]]}},{"type":"Feature","properties":{"id":"0824506002"},"geometry":{"type":"Polygon","coordinates":[[[2.21686,41.45236],[2.21849,41.45127],[2.21757,41.45032],[2.21704,41.45013],[2.21659,41.45099],[2.21651,41.45142],[2.21663,41.45148],[2.21686,41.45236]]]}},{"type":"Feature","properties":{"id":"0824506003"},"geometry":{"type":"Polygon","coordinates":[[[2.21744,41.45305],[2.21935,41.45174],[2.21965,41.45182],[2.21961,41.45155],[2.219,41.44989],[2.21913,41.44976],[2.21867,41.44946],[2.21773,41.45047],[2.21849,41.45127],[2.21685,41.45237],[2.21744,41.45305]]]}},{"type":"Feature","properties":{"id":"0824506004"},"geometry":{"type":"Polygon","coordinates":[[[2.22042,41.45216],[2.21935,41.45174],[2.21744,41.45305],[2.2183,41.4536],[2.22042,41.45216]]]}},{"type":"Feature","properties":{"id":"0824506005"},"geometry":{"type":"Polygon","coordinates":[[[2.2213,41.45156],[2.21996,41.45045],[2.21914,41.44976],[2.219,41.44989],[2.21965,41.45182],[2.22042,41.45216],[2.2213,41.45156]]]}},{"type":"Feature","properties":{"id":"0824506008"},"geometry":{"type":"Polygon","coordinates":[[[2.21643,41.45119],[2.21704,41.45013],[2.21757,41.45032],[2.21773,41.45047],[2.21868,41.44945],[2.21638,41.44835],[2.21512,41.45088],[2.21643,41.45119]]]}},{"type":"Feature","properties":{"id":"0824506009"},"geometry":{"type":"Polygon","coordinates":[[[2.22094,41.44967],[2.21985,41.45036],[2.2213,41.45156],[2.22236,41.45087],[2.22094,41.44967]]]}},{"type":"Feature","properties":{"id":"0824506011"},"geometry":{"type":"Polygon","coordinates":[[[2.22168,41.44801],[2.22122,41.44752],[2.22036,41.44796],[2.21991,41.44779],[2.21921,41.44772],[2.21941,41.44786],[2.21906,41.44828],[2.22007,41.44892],[2.21935,41.44994],[2.21985,41.45036],[2.22093,41.44966],[2.22051,41.44929],[2.22157,41.44825],[2.22168,41.44801]]]}},{"type":"Feature","properties":{"id":"0824506012"},"geometry":{"type":"Polygon","coordinates":[[[2.21935,41.44994],[2.22007,41.44892],[2.21906,41.44828],[2.21941,41.44786],[2.21921,41.44772],[2.21991,41.44779],[2.22036,41.44796],[2.22122,41.44752],[2.21996,41.44654],[2.21892,41.44674],[2.21917,41.44726],[2.21854,41.44779],[2.2177,41.44898],[2.21868,41.44945],[2.21935,41.44994]]]}},{"type":"Feature","properties":{"id":"0824506014"},"geometry":{"type":"Polygon","coordinates":[[[2.2177,41.44898],[2.21854,41.44779],[2.21917,41.44726],[2.21892,41.44674],[2.21849,41.44652],[2.21827,41.44656],[2.21781,41.44685],[2.21688,41.44773],[2.21638,41.44835],[2.2177,41.44898]]]}}]}