{"type":"FeatureCollection","features":[{"type":"Feature","properties":{"id":"0826601001"},"geometry":{"type":"Polygon","coordinates":[[[2.14957,41.49414],[2.14813,41.49328],[2.15179,41.49061],[2.15304,41.48945],[2.15385,41.48819],[2.1604,41.48455],[2.15948,41.48345],[2.14303,41.49612],[2.14356,41.49658],[2.14401,41.49622],[2.14465,41.49699],[2.14474,41.49696],[2.14522,41.49734],[2.14957,41.49414]]]}},{"type":"Feature","properties":{"id":"0826601002"},"geometry":{"type":"Polygon","coordinates":[[[2.13972,41.49856],[2.14717,41.49295],[2.14342,41.49376],[2.14306,41.49344],[2.14317,41.49323],[2.14266,41.49304],[2.14245,41.49284],[2.1422,41.49225],[2.14183,41.49229],[2.14154,41.49249],[2.14142,41.49279],[2.14188,41.49483],[2.14168,41.49593],[2.14118,41.49661],[2.13974,41.49756],[2.13902,41.49785],[2.13651,41.49848],[2.13551,41.49889],[2.13442,41.49949],[2.13217,41.5011],[2.13182,41.50125],[2.13135,41.50129],[2.12458,41.50056],[2.12396,41.50075],[2.12224,41.50175],[2.12167,41.50199],[2.12177,41.50204],[2.12076,41.50274],[2.12254,41.50394],[2.12629,41.50601],[2.12578,41.50654],[2.12835,41.50656],[2.13517,41.50167],[2.13972,41.49856]]]}},{"type":"Feature","properties":{"id":"0826601003"},"geometry":{"type":"Polygon","coordinates":[[[2.14717,41.49295],[2.15024,41.49061],[2.14816,41.49099],[2.14485,41.49199],[2.14337,41.49222],[2.1422,41.49225],[2.14245,41.49284],[2.14266,41.49304],[2.14317,41.49323],[2.14306,41.49344],[2.14342,41.49376],[2.14717,41.49295]]]}},{"type":"Feature","properties":{"id":"0826601004"},"geometry":{"type":"Polygon","coordinates":[[[2.14701,41.49134],[2.147,41.48973],[2.14691,41.48965],[2.14764,41.48932],[2.14834,41.48922],[2.14651,41.48883],[2.14586,41.48889],[2.14507,41.48915],[2.14449,41.48914],[2.1444,41.48945],[2.1462,41.4916],[2.14701,41.49134]]]}},{"type":"Feature","properties":{"id":"0826601005"},"geometry":{"type":"Polygon","coordinates":[[[2.1485,41.49092],[2.14857,41.48919],[2.14834,41.48915],[2.14834,41.48922],[2.14762,41.48933],[2.14691,41.48965],[2.147,41.48973],[2.14701,41.49134],[2.1485,41.49092]]]}},{"type":"Feature","properties":{"id":"0826601006"},"geometry":{"type":"Polygon","coordinates":[[[2.15279,41.48864],[2.15667,41.48563],[2.15582,41.48464],[2.15333,41.48442],[2.15287,41.48476],[2.15209,41.485],[2.15142,41.48503],[2.15121,41.48463],[2.1505,41.48508],[2.14985,41.48499],[2.14899,41.48507],[2.14833,41.48494],[2.14377,41.4853],[2.14374,41.48638],[2.14396,41.48697],[2.14462,41.48803],[2.14449,41.48914],[2.14507,41.48915],[2.14586,41.48889],[2.14651,41.48883],[2.14834,41.48922],[2.14834,41.48915],[2.14993,41.48926],[2.15122,41.48904],[2.15202,41.48866],[2.15279,41.48864]]]}},{"type":"Feature","properties":{"id":"0826601007"},"geometry":{"type":"Polygon","coordinates":[[[2.14482,41.48996],[2.1444,41.48945],[2.14452,41.48897],[2.1432,41.4888],[2.14222,41.48839],[2.14209,41.48816],[2.14183,41.48815],[2.14167,41.48836],[2.14187,41.48854],[2.14103,41.49074],[2.14095,41.49129],[2.14107,41.49143],[2.14189,41.49163],[2.14212,41.49104],[2.14249,41.49135],[2.14353,41.49056],[2.14482,41.48996]]]}},{"type":"Feature","properties":{"id":"0826601008"},"geometry":{"type":"Polygon","coordinates":[[[2.14083,41.49121],[2.14187,41.48854],[2.14168,41.48841],[2.1417,41.48823],[2.13977,41.48739],[2.13836,41.49084],[2.14057,41.49131],[2.14083,41.49121]]]}},{"type":"Feature","properties":{"id":"0826601009"},"geometry":{"type":"Polygon","coordinates":[[[2.13926,41.4887],[2.1355,41.48788],[2.13492,41.48917],[2.13592,41.48942],[2.13552,41.49018],[2.13836,41.49084],[2.13926,41.4887]]]}},{"type":"Feature","properties":{"id":"0826601010"},"geometry":{"type":"Polygon","coordinates":[[[2.13647,41.48603],[2.13966,41.48449],[2.14071,41.48376],[2.14201,41.48336],[2.14338,41.48314],[2.14298,41.48092],[2.14201,41.48104],[2.14113,41.48125],[2.13745,41.48238],[2.13696,41.48232],[2.13672,41.48254],[2.13597,41.48288],[2.13485,41.48299],[2.13339,41.48277],[2.1325,41.48253],[2.12818,41.48238],[2.12663,41.48273],[2.1262,41.48271],[2.12523,41.48315],[2.12431,41.48335],[2.12332,41.4838],[2.12264,41.48387],[2.12126,41.48432],[2.12097,41.48453],[2.1203,41.48473],[2.11988,41.48478],[2.11909,41.48466],[2.11858,41.48474],[2.11746,41.48429],[2.11654,41.48291],[2.116,41.48258],[2.116,41.48234],[2.11558,41.4822],[2.11399,41.48203],[2.1127,41.48174],[2.11196,41.48177],[2.1115,41.48169],[2.10992,41.48124],[2.10902,41.48084],[2.10871,41.48051],[2.10846,41.47998],[2.10789,41.47973],[2.10717,41.48079],[2.10609,41.48125],[2.10537,41.48109],[2.105,41.48083],[2.10474,41.48035],[2.10464,41.47862],[2.10369,41.47706],[2.10209,41.47589],[2.10169,41.47566],[2.10108,41.47559],[2.1008,41.47528],[2.09816,41.47765],[2.09912,41.47833],[2.10104,41.4792],[2.10176,41.47941],[2.10288,41.48001],[2.103,41.48013],[2.10311,41.48084],[2.1034,41.48107],[2.10406,41.48124],[2.10448,41.48161],[2.10511,41.48175],[2.10598,41.48219],[2.11165,41.48426],[2.11349,41.48505],[2.11381,41.48529],[2.11438,41.48538],[2.11568,41.48518],[2.11697,41.48549],[2.11849,41.48613],[2.11872,41.48605],[2.11996,41.4863],[2.12119,41.48618],[2.12447,41.48535],[2.12615,41.48514],[2.12879,41.48544],[2.13334,41.48573],[2.13522,41.48604],[2.13536,41.48595],[2.13647,41.48603]]]}},{"type":"Feature","properties":{"id":"0826601011"},"geometry":{"type":"Polygon","coordinates":[[[2.15948,41.48345],[2.15789,41.48155],[2.15835,41.4798],[2.15464,41.47522],[2.15605,41.47461],[2.15756,41.4718],[2.15628,41.46695],[2.15902,41.4683],[2.15853,41.46709],[2.15986,41.46597],[2.15997,41.46414],[2.15855,41.46186],[2.15831,41.46007],[2.15752,41.45866],[2.15746,41.45631],[2.1581,41.45582],[2.1587,41.45356],[2.15641,41.45026],[2.15366,41.44909],[2.15339,41.44881],[2.1528,41.44767],[2.15234,41.44737],[2.15193,41.44727],[2.15147,41.44735],[2.14964,41.44731],[2.14866,41.44679],[2.14779,41.447],[2.1474,41.44717],[2.14697,41.44751],[2.14662,41.44757],[2.14578,41.44753],[2.14534,41.44735],[2.14504,41.44744],[2.14439,41.44739],[2.14366,41.44763],[2.14153,41.44709],[2.1408,41.44757],[2.13759,41.4479],[2.13727,41.44766],[2.13669,41.44776],[2.13617,41.44738],[2.1347,41.44759],[2.13463,41.44722],[2.13366,41.44585],[2.13345,41.44566],[2.13288,41.44543],[2.13285,41.44472],[2.13226,41.44417],[2.13066,41.44379],[2.13021,41.4431],[2.12492,41.44644],[2.12358,41.44752],[2.12215,41.44824],[2.12011,41.45028],[2.11956,41.45348],[2.12017,41.45574],[2.11833,41.45647],[2.11777,41.45882],[2.11726,41.45897],[2.11704,41.45985],[2.11625,41.46001],[2.11653,41.46316],[2.11779,41.46601],[2.11231,41.46602],[2.10705,41.46785],[2.10493,41.47173],[2.10496,41.4728],[2.10265,41.47363],[2.1008,41.47528],[2.10108,41.47559],[2.10169,41.47566],[2.10209,41.47589],[2.10369,41.47706],[2.10464,41.47862],[2.10474,41.48035],[2.105,41.48083],[2.10537,41.48109],[2.10609,41.48125],[2.10717,41.48079],[2.10789,41.47973],[2.10846,41.47998],[2.10871,41.48051],[2.10902,41.48084],[2.10992,41.48124],[2.1115,41.48169],[2.11196,41.48177],[2.1127,41.48174],[2.11399,41.48203],[2.11558,41.4822],[2.116,41.48234],[2.116,41.48258],[2.11654,41.48291],[2.11746,41.48429],[2.11858,41.48474],[2.11909,41.48466],[2.11988,41.48478],[2.1203,41.48473],[2.12097,41.48453],[2.12126,41.48432],[2.12264,41.48387],[2.12332,41.4838],[2.12431,41.48335],[2.12523,41.48315],[2.1262,41.48271],[2.12663,41.48273],[2.12818,41.48238],[2.1325,41.48253],[2.13339,41.48277],[2.13485,41.48299],[2.13597,41.48288],[2.13672,41.48254],[2.13696,41.48232],[2.13745,41.48238],[2.14201,41.48104],[2.14355,41.48088],[2.14689,41.4811],[2.14893,41.48189],[2.15066,41.48193],[2.15253,41.48163],[2.15424,41.48266],[2.15667,41.48563],[2.15948,41.48345]]]}},{"type":"Feature","properties":{"id":"0826601012"},"geometry":{"type":"Polygon","coordinates":[[[2.13836,41.49084],[2.13316,41.48956],[2.12861,41.48794],[2.12843,41.48828],[2.12754,41.48901],[2.13291,41.49088],[2.13488,41.4914],[2.1351,41.49097],[2.13802,41.49168],[2.13836,41.49084]]]}},{"type":"Feature","properties":{"id":"0826601013"},"geometry":{"type":"Polygon","coordinates":[[[2.1328,41.49307],[2.13291,41.49088],[2.12756,41.48901],[2.12696,41.48951],[2.12735,41.48987],[2.12877,41.49248],[2.12937,41.49405],[2.1328,41.49307]]]}},{"type":"Feature","properties":{"id":"0826601014"},"geometry":{"type":"Polygon","coordinates":[[[2.12424,41.50064],[2.12427,41.50042],[2.12916,41.49762],[2.12968,41.49699],[2.13063,41.49647],[2.12991,41.49509],[2.12804,41.49581],[2.12718,41.49643],[2.11989,41.50066],[2.12096,41.50161],[2.12167,41.50199],[2.12424,41.50064]]]}},{"type":"Feature","properties":{"id":"0826601015"},"geometry":{"type":"Polygon","coordinates":[[[2.13352,41.49387],[2.13488,41.4914],[2.13291,41.49088],[2.13275,41.49428],[2.13329,41.49407],[2.13352,41.49387]]]}},{"type":"Feature","properties":{"id":"0826601016"},"geometry":{"type":"Polygon","coordinates":[[[2.13656,41.49455],[2.13477,41.49313],[2.13443,41.49275],[2.13439,41.49226],[2.13357,41.49381],[2.13329,41.49407],[2.13275,41.49428],[2.13273,41.49461],[2.13289,41.4949],[2.13432,41.49615],[2.13445,41.49615],[2.13656,41.49455]]]}},{"type":"Feature","properties":{"id":"0826601017"},"geometry":{"type":"Polygon","coordinates":[[[2.13802,41.49168],[2.1351,41.49097],[2.13439,41.49226],[2.13443,41.49275],[2.13537,41.49367],[2.13802,41.49168]]]}},{"type":"Feature","properties":{"id":"0826601018"},"geometry":{"type":"Polygon","coordinates":[[[2.14025,41.49287],[2.14223,41.49225],[2.14208,41.49181],[2.14185,41.49161],[2.14107,41.49143],[2.14092,41.49123],[2.14097,41.491],[2.14083,41.49121],[2.14057,41.49131],[2.13836,41.49084],[2.13802,41.49168],[2.13983,41.49209],[2.13445,41.49615],[2.13431,41.49616],[2.1343,41.49626],[2.13362,41.49678],[2.13322,41.49694],[2.13401,41.49801],[2.13482,41.49761],[2.13513,41.49798],[2.13617,41.49733],[2.13697,41.49666],[2.13716,41.49616],[2.13819,41.49539],[2.13912,41.49451],[2.13902,41.4942],[2.13911,41.49385],[2.13945,41.49336],[2.14025,41.49287]]]}},{"type":"Feature","properties":{"id":"0826601019"},"geometry":{"type":"Polygon","coordinates":[[[2.13802,41.49168],[2.13537,41.49367],[2.13656,41.49455],[2.13983,41.49209],[2.13802,41.49168]]]}},{"type":"Feature","properties":{"id":"0826601020"},"geometry":{"type":"Polygon","coordinates":[[[2.0906,41.50058],[2.08831,41.49749],[2.09133,41.49703],[2.09394,41.49692],[2.09387,41.4961],[2.09398,41.49555],[2.09431,41.49515],[2.09534,41.49434],[2.09638,41.49282],[2.09688,41.49246],[2.09593,41.49211],[2.09355,41.49152],[2.09016,41.49102],[2.0889,41.4904],[2.08586,41.4899],[2.08472,41.48916],[2.08369,41.48823],[2.0828,41.48881],[2.07901,41.4954],[2.07481,41.49747],[2.07472,41.499],[2.07537,41.50004],[2.07525,41.50109],[2.07552,41.50199],[2.07535,41.50373],[2.07572,41.50595],[2.07546,41.5068],[2.07611,41.50673],[2.07672,41.50688],[2.07788,41.50613],[2.0794,41.50651],[2.07971,41.50634],[2.07926,41.5055],[2.07882,41.5053],[2.07921,41.50483],[2.07925,41.50443],[2.07958,41.50396],[2.07966,41.50355],[2.08047,41.50341],[2.0809,41.50302],[2.08108,41.50263],[2.0829,41.50182],[2.08295,41.50155],[2.08284,41.50115],[2.08673,41.5008],[2.08715,41.50093],[2.08869,41.50067],[2.08907,41.50086],[2.08929,41.50075],[2.09006,41.50071],[2.0906,41.50058]]]}},{"type":"Feature","properties":{"id":"0826601027"},"geometry":{"type":"Polygon","coordinates":[[[2.1462,41.4916],[2.14482,41.48996],[2.14353,41.49056],[2.14249,41.49135],[2.14212,41.49104],[2.14189,41.49163],[2.14208,41.49181],[2.14223,41.49225],[2.14279,41.49225],[2.14481,41.492],[2.1462,41.4916]]]}},{"type":"Feature","properties":{"id":"0826601028"},"geometry":{"type":"Polygon","coordinates":[[[2.14377,41.4853],[2.14338,41.48314],[2.14201,41.48336],[2.14071,41.48376],[2.13966,41.48449],[2.13778,41.4854],[2.13796,41.4862],[2.13928,41.48718],[2.1417,41.48823],[2.14188,41.48813],[2.14209,41.48816],[2.14222,41.48839],[2.14311,41.48878],[2.14365,41.48891],[2.14452,41.48897],[2.14462,41.48803],[2.14396,41.48697],[2.14374,41.48638],[2.14377,41.4853]]]}},{"type":"Feature","properties":{"id":"0826601029"},"geometry":{"type":"Polygon","coordinates":[[[2.10942,41.50635],[2.10958,41.50561],[2.10997,41.50521],[2.11076,41.50481],[2.1136,41.50427],[2.11572,41.50407],[2.11933,41.50321],[2.12063,41.50266],[2.12076,41.50274],[2.12163,41.50216],[2.12177,41.50204],[2.12096,41.50161],[2.11989,41.50066],[2.12718,41.49643],[2.12804,41.49581],[2.12983,41.49509],[2.1288,41.49254],[2.12659,41.49423],[2.12297,41.4962],[2.12014,41.49696],[2.11827,41.49763],[2.11658,41.49843],[2.1179,41.49874],[2.11712,41.49951],[2.11618,41.50001],[2.1157,41.50007],[2.11381,41.50121],[2.11344,41.50164],[2.11134,41.50326],[2.11124,41.5037],[2.11064,41.50405],[2.10921,41.50429],[2.10809,41.50489],[2.10786,41.50483],[2.10732,41.50504],[2.10514,41.50648],[2.10514,41.50672],[2.10759,41.50755],[2.10861,41.50673],[2.10942,41.50635]]]}},{"type":"Feature","properties":{"id":"0826601030"},"geometry":{"type":"Polygon","coordinates":[[[2.13492,41.48917],[2.13579,41.48728],[2.13535,41.48704],[2.13688,41.48609],[2.13536,41.48595],[2.13527,41.48604],[2.13483,41.48602],[2.13334,41.48573],[2.12879,41.48544],[2.12615,41.48514],[2.12447,41.48535],[2.12119,41.48618],[2.11996,41.4863],[2.11872,41.48605],[2.11849,41.48613],[2.11958,41.48649],[2.12102,41.48715],[2.1214,41.48717],[2.1227,41.48692],[2.12411,41.48691],[2.12737,41.48758],[2.12873,41.48798],[2.13293,41.48949],[2.13552,41.49018],[2.13592,41.48942],[2.13492,41.48917]]]}},{"type":"Feature","properties":{"id":"0826601031"},"geometry":{"type":"Polygon","coordinates":[[[2.15024,41.49061],[2.15239,41.48895],[2.15279,41.48864],[2.15202,41.48866],[2.15122,41.48904],[2.15036,41.48922],[2.14957,41.48926],[2.14857,41.48919],[2.1485,41.49092],[2.15024,41.49061]]]}},{"type":"Feature","properties":{"id":"0826601032"},"geometry":{"type":"Polygon","coordinates":[[[2.13977,41.48739],[2.13928,41.48718],[2.13796,41.4862],[2.13778,41.4854],[2.13647,41.48603],[2.13688,41.48609],[2.13535,41.48704],[2.13579,41.48728],[2.1355,41.48788],[2.13926,41.4887],[2.13977,41.48739]]]}},{"type":"Feature","properties":{"id":"0826601033"},"geometry":{"type":"Polygon","coordinates":[[[2.12991,41.49509],[2.13275,41.49428],[2.1328,41.49307],[2.12937,41.49405],[2.12991,41.49509]]]}},{"type":"Feature","properties":{"id":"0826601034"},"geometry":{"type":"Polygon","coordinates":[[[2.13482,41.49925],[2.13322,41.49694],[2.13362,41.49678],[2.1343,41.49626],[2.13432,41.49615],[2.13283,41.49484],[2.13275,41.49428],[2.12991,41.49509],[2.13063,41.49647],[2.12968,41.49699],[2.12916,41.49762],[2.12427,41.50042],[2.12424,41.50064],[2.12502,41.50055],[2.13164,41.50129],[2.13214,41.50111],[2.13482,41.49925]]]}},{"type":"Feature","properties":{"id":"0826601035"},"geometry":{"type":"Polygon","coordinates":[[[2.14906,41.48506],[2.14903,41.48319],[2.14886,41.48295],[2.14897,41.48189],[2.14689,41.4811],[2.14355,41.48088],[2.14298,41.48094],[2.14377,41.4853],[2.14833,41.48494],[2.14906,41.48506]]]}},{"type":"Feature","properties":{"id":"0826601036"},"geometry":{"type":"Polygon","coordinates":[[[2.15582,41.48464],[2.15424,41.48266],[2.15253,41.48163],[2.15066,41.48193],[2.14897,41.48189],[2.14886,41.48295],[2.14903,41.48319],[2.14906,41.48506],[2.14985,41.48499],[2.1505,41.48508],[2.15121,41.48463],[2.15142,41.48503],[2.15209,41.485],[2.15287,41.48476],[2.15333,41.48442],[2.15582,41.48464]]]}},{"type":"Feature","properties":{"id":"0826601037"},"geometry":{"type":"Polygon","coordinates":[[[2.14465,41.49699],[2.14401,41.49622],[2.14356,41.49658],[2.14303,41.49612],[2.13972,41.49856],[2.13517,41.50167],[2.12835,41.50656],[2.13497,41.50661],[2.1386,41.5019],[2.14286,41.49713],[2.14392,41.49632],[2.14465,41.49699]]]}},{"type":"Feature","properties":{"id":"0826601038"},"geometry":{"type":"Polygon","coordinates":[[[2.10514,41.50648],[2.10732,41.50504],[2.10786,41.50483],[2.10809,41.50489],[2.10921,41.50429],[2.11064,41.50405],[2.11124,41.5037],[2.11134,41.50326],[2.11344,41.50164],[2.11381,41.50121],[2.1157,41.50007],[2.11618,41.50001],[2.11712,41.49951],[2.1179,41.49874],[2.11658,41.49843],[2.11827,41.49763],[2.12014,41.49696],[2.12297,41.4962],[2.12659,41.49423],[2.1288,41.49254],[2.12735,41.48987],[2.12696,41.48951],[2.12843,41.48828],[2.12861,41.48794],[2.12737,41.48758],[2.12411,41.48691],[2.1227,41.48692],[2.1214,41.48717],[2.12102,41.48715],[2.11958,41.48649],[2.11646,41.48536],[2.11568,41.48518],[2.11438,41.48538],[2.11381,41.48529],[2.11349,41.48505],[2.11165,41.48426],[2.10598,41.48219],[2.10511,41.48175],[2.10448,41.48161],[2.10406,41.48124],[2.1034,41.48107],[2.10311,41.48084],[2.103,41.48013],[2.10288,41.48001],[2.10176,41.47941],[2.10104,41.4792],[2.09912,41.47833],[2.09816,41.47765],[2.09534,41.48009],[2.09203,41.48207],[2.09174,41.48195],[2.09141,41.48247],[2.08982,41.4842],[2.08369,41.48823],[2.08472,41.48916],[2.08586,41.4899],[2.0889,41.4904],[2.09016,41.49102],[2.09355,41.49152],[2.09593,41.49211],[2.09688,41.49246],[2.09638,41.49282],[2.09534,41.49434],[2.09431,41.49515],[2.09398,41.49555],[2.09387,41.4961],[2.09394,41.49692],[2.09133,41.49703],[2.08831,41.49749],[2.09197,41.50236],[2.09263,41.50342],[2.09302,41.50461],[2.09331,41.50836],[2.09469,41.50836],[2.09733,41.50857],[2.09987,41.50856],[2.10073,41.50836],[2.10185,41.50782],[2.10469,41.50611],[2.10514,41.50625],[2.10514,41.50648]]]}},{"type":"Feature","properties":{"id":"0826601039"},"geometry":{"type":"Polygon","coordinates":[[[2.14167,41.49238],[2.14025,41.49287],[2.13945,41.49336],[2.13911,41.49385],[2.13902,41.4942],[2.13912,41.49451],[2.13819,41.49539],[2.13716,41.49616],[2.13697,41.49666],[2.13617,41.49733],[2.13513,41.49798],[2.13482,41.49761],[2.13401,41.49801],[2.13482,41.49925],[2.13638,41.49853],[2.13949,41.49767],[2.14017,41.49731],[2.14129,41.49651],[2.14168,41.49593],[2.14188,41.49499],[2.14142,41.49283],[2.14148,41.49257],[2.14167,41.49238]]]}},{"type":"Feature","properties":{"id":"0826601040"},"geometry":{"type":"Polygon","coordinates":[[[2.0906,41.50058],[2.09006,41.50071],[2.08929,41.50075],[2.08907,41.50086],[2.08869,41.50067],[2.08715,41.50093],[2.08673,41.5008],[2.08284,41.50115],[2.08295,41.50155],[2.0829,41.50182],[2.08108,41.50263],[2.0809,41.50302],[2.08047,41.50341],[2.07966,41.50355],[2.07958,41.50396],[2.07925,41.50443],[2.07921,41.50483],[2.07882,41.5053],[2.07926,41.5055],[2.07971,41.50634],[2.0794,41.50651],[2.07788,41.50613],[2.07672,41.50688],[2.08034,41.50774],[2.08068,41.5083],[2.0809,41.50912],[2.08117,41.50908],[2.08136,41.50938],[2.08361,41.50984],[2.08545,41.51048],[2.08597,41.5106],[2.08617,41.51046],[2.0875,41.51069],[2.08877,41.5111],[2.08937,41.50982],[2.08985,41.50944],[2.09156,41.50955],[2.0924,41.50947],[2.09399,41.50972],[2.09778,41.51009],[2.09985,41.51013],[2.10041,41.50981],[2.10071,41.50948],[2.10192,41.5087],[2.10314,41.50767],[2.10418,41.50726],[2.10484,41.50686],[2.10491,41.50672],[2.10514,41.50672],[2.10514,41.50625],[2.10469,41.50611],[2.10185,41.50782],[2.10073,41.50836],[2.09987,41.50856],[2.09733,41.50857],[2.09469,41.50836],[2.09331,41.50836],[2.09302,41.50461],[2.09263,41.50342],[2.09197,41.50236],[2.0906,41.50058]]]}}]}