{"type":"FeatureCollection","features":[{"type":"Feature","properties":{"id":"0827901001"},"geometry":{"type":"Polygon","coordinates":[[[2.01366,41.56284],[2.01211,41.56266],[2.01131,41.56229],[2.01152,41.56199],[2.01103,41.56182],[2.01086,41.56191],[2.0093,41.56111],[2.00765,41.56073],[2.00794,41.56372],[2.01225,41.5648],[2.01305,41.56508],[2.01364,41.56396],[2.01366,41.56284]]]}},{"type":"Feature","properties":{"id":"0827901002"},"geometry":{"type":"Polygon","coordinates":[[[2.01825,41.56544],[2.01817,41.5645],[2.01786,41.56368],[2.01794,41.56343],[2.017,41.56333],[2.01667,41.56355],[2.01636,41.56351],[2.01479,41.56299],[2.01366,41.56284],[2.01364,41.56396],[2.01305,41.56508],[2.01416,41.5657],[2.01615,41.56648],[2.01728,41.56665],[2.01726,41.56627],[2.0175,41.56587],[2.01825,41.56544]]]}},{"type":"Feature","properties":{"id":"0827901004"},"geometry":{"type":"Polygon","coordinates":[[[2.01564,41.56995],[2.01707,41.56972],[2.0172,41.56847],[2.01748,41.56716],[2.01728,41.56665],[2.01615,41.56648],[2.01416,41.5657],[2.01305,41.56508],[2.01251,41.56487],[2.01322,41.56601],[2.01425,41.56967],[2.01559,41.56978],[2.01564,41.56995]]]}},{"type":"Feature","properties":{"id":"0827901005"},"geometry":{"type":"Polygon","coordinates":[[[2.01424,41.56962],[2.01322,41.56601],[2.01251,41.56487],[2.01225,41.5648],[2.01058,41.56873],[2.01424,41.56962]]]}},{"type":"Feature","properties":{"id":"0827901006"},"geometry":{"type":"Polygon","coordinates":[[[2.01058,41.56873],[2.01154,41.56647],[2.00871,41.5662],[2.00888,41.56518],[2.00874,41.56499],[2.00894,41.56455],[2.00784,41.56428],[2.00533,41.56779],[2.00835,41.56817],[2.01058,41.56873]]]}},{"type":"Feature","properties":{"id":"0827901007"},"geometry":{"type":"Polygon","coordinates":[[[2.01211,41.55708],[2.01068,41.55686],[2.00815,41.55706],[2.00753,41.55699],[2.00748,41.55686],[2.00738,41.55699],[2.00765,41.56073],[2.0093,41.56111],[2.01086,41.56191],[2.01103,41.56182],[2.01159,41.56202],[2.01178,41.56161],[2.01176,41.5612],[2.01044,41.56094],[2.01098,41.55949],[2.01211,41.55708]]]}},{"type":"Feature","properties":{"id":"0827901008"},"geometry":{"type":"Polygon","coordinates":[[[2.01481,41.55962],[2.0125,41.55927],[2.01241,41.55948],[2.01111,41.55923],[2.01044,41.56094],[2.01176,41.5612],[2.01176,41.56167],[2.01159,41.56202],[2.01152,41.56199],[2.01131,41.56229],[2.01219,41.56267],[2.01356,41.56284],[2.01359,41.56264],[2.01408,41.56209],[2.01432,41.56162],[2.01496,41.56097],[2.01466,41.56093],[2.01481,41.55962]]]}},{"type":"Feature","properties":{"id":"0827901009"},"geometry":{"type":"Polygon","coordinates":[[[2.017,41.56333],[2.0166,41.56284],[2.01661,41.5623],[2.01775,41.55819],[2.01771,41.55812],[2.01504,41.55763],[2.01466,41.56093],[2.01496,41.56097],[2.01432,41.56162],[2.01408,41.56209],[2.01359,41.56264],[2.01356,41.56284],[2.01479,41.56299],[2.01636,41.56351],[2.01667,41.56355],[2.017,41.56333]]]}},{"type":"Feature","properties":{"id":"0827901010"},"geometry":{"type":"Polygon","coordinates":[[[2.01888,41.56107],[2.02041,41.55946],[2.02013,41.55763],[2.01996,41.55747],[2.01996,41.5573],[2.01771,41.55812],[2.01661,41.5623],[2.0166,41.56284],[2.017,41.56333],[2.01794,41.56343],[2.01888,41.56107]]]}},{"type":"Feature","properties":{"id":"0827901011"},"geometry":{"type":"Polygon","coordinates":[[[2.02651,41.55891],[2.0253,41.55893],[2.02451,41.55875],[2.02209,41.55801],[2.02169,41.5576],[2.02013,41.55726],[2.01996,41.5573],[2.01996,41.55747],[2.02013,41.55763],[2.02041,41.55946],[2.02105,41.56008],[2.02173,41.5597],[2.02172,41.55925],[2.02518,41.55985],[2.02485,41.56087],[2.02585,41.56105],[2.02651,41.55891]]]}},{"type":"Feature","properties":{"id":"0827901012"},"geometry":{"type":"Polygon","coordinates":[[[2.02293,41.56169],[2.02362,41.55956],[2.02172,41.55925],[2.02173,41.5597],[2.02105,41.56008],[2.02041,41.55946],[2.01888,41.56107],[2.0197,41.56125],[2.02293,41.56169]]]}},{"type":"Feature","properties":{"id":"0827901013"},"geometry":{"type":"Polygon","coordinates":[[[2.02761,41.56249],[2.0282,41.55989],[2.02765,41.55883],[2.02651,41.55891],[2.02552,41.5621],[2.02761,41.56249]]]}},{"type":"Feature","properties":{"id":"0827901014"},"geometry":{"type":"Polygon","coordinates":[[[2.02627,41.56878],[2.02761,41.56249],[2.0266,41.5623],[2.02597,41.56437],[2.02475,41.56714],[2.02627,41.56878]]]}},{"type":"Feature","properties":{"id":"0827901015"},"geometry":{"type":"Polygon","coordinates":[[[2.0266,41.5623],[2.02293,41.56169],[2.02231,41.56352],[2.02595,41.56442],[2.0266,41.5623]]]}},{"type":"Feature","properties":{"id":"0827901016"},"geometry":{"type":"Polygon","coordinates":[[[2.02627,41.56878],[2.02545,41.56796],[2.02211,41.56409],[2.0208,41.56389],[2.0218,41.5667],[2.02199,41.56696],[2.02217,41.5692],[2.02627,41.56878]]]}},{"type":"Feature","properties":{"id":"0827901017"},"geometry":{"type":"Polygon","coordinates":[[[2.02217,41.5692],[2.02199,41.56696],[2.0218,41.5667],[2.0208,41.56389],[2.01794,41.56343],[2.01786,41.56368],[2.01817,41.5645],[2.01825,41.56544],[2.01921,41.5662],[2.0195,41.56667],[2.01986,41.56825],[2.02026,41.56937],[2.02217,41.5692]]]}},{"type":"Feature","properties":{"id":"0827901018"},"geometry":{"type":"Polygon","coordinates":[[[2.01707,41.56972],[2.02026,41.56937],[2.01986,41.56825],[2.0195,41.56667],[2.01921,41.5662],[2.01825,41.56544],[2.0175,41.56587],[2.01726,41.56627],[2.01748,41.56716],[2.01703,41.56958],[2.01707,41.56972]]]}},{"type":"Feature","properties":{"id":"0827901019"},"geometry":{"type":"Polygon","coordinates":[[[2.02585,41.56105],[2.02485,41.56087],[2.02518,41.55985],[2.02362,41.55956],[2.02293,41.56169],[2.02552,41.5621],[2.02585,41.56105]]]}},{"type":"Feature","properties":{"id":"0827901020"},"geometry":{"type":"Polygon","coordinates":[[[2.02211,41.56409],[2.02292,41.5617],[2.01888,41.56107],[2.01794,41.56343],[2.02211,41.56409]]]}},{"type":"Feature","properties":{"id":"0827901021"},"geometry":{"type":"Polygon","coordinates":[[[2.02595,41.56442],[2.02231,41.56352],[2.02211,41.56409],[2.02475,41.56714],[2.02595,41.56442]]]}},{"type":"Feature","properties":{"id":"0827901022"},"geometry":{"type":"Polygon","coordinates":[[[2.00918,41.56839],[2.00835,41.56817],[2.00533,41.56779],[2.0043,41.56924],[2.00629,41.5699],[2.00744,41.57013],[2.00886,41.57026],[2.00918,41.56839]]]}},{"type":"Feature","properties":{"id":"0827901023"},"geometry":{"type":"Polygon","coordinates":[[[2.00991,41.57032],[2.01498,41.57006],[2.01564,41.56995],[2.01559,41.56978],[2.01425,41.56967],[2.00918,41.56839],[2.00886,41.57026],[2.00991,41.57032]]]}},{"type":"Feature","properties":{"id":"0827901024"},"geometry":{"type":"Polygon","coordinates":[[[2.01225,41.5648],[2.00863,41.5639],[2.00794,41.56372],[2.00784,41.56428],[2.00894,41.56455],[2.00874,41.56499],[2.00888,41.56518],[2.00871,41.5662],[2.01154,41.56647],[2.01225,41.5648]]]}},{"type":"Feature","properties":{"id":"0827901025"},"geometry":{"type":"Polygon","coordinates":[[[2.01111,41.55923],[2.01241,41.55948],[2.0125,41.55927],[2.01481,41.55962],[2.01504,41.55763],[2.01211,41.55708],[2.01111,41.55923]]]}},{"type":"Feature","properties":{"id":"0827902001"},"geometry":{"type":"Polygon","coordinates":[[[2.02822,41.56858],[2.02932,41.56521],[2.02713,41.56467],[2.02627,41.56878],[2.02822,41.56858]]]}},{"type":"Feature","properties":{"id":"0827902003"},"geometry":{"type":"Polygon","coordinates":[[[2.03388,41.56807],[2.03354,41.56615],[2.03113,41.56564],[2.03064,41.56714],[2.02964,41.56713],[2.02919,41.5685],[2.03388,41.56807]]]}},{"type":"Feature","properties":{"id":"0827902004"},"geometry":{"type":"Polygon","coordinates":[[[2.02919,41.5685],[2.02964,41.56713],[2.03064,41.56714],[2.03113,41.56564],[2.02932,41.56521],[2.02822,41.56858],[2.02919,41.5685]]]}},{"type":"Feature","properties":{"id":"0827902005"},"geometry":{"type":"Polygon","coordinates":[[[2.0333,41.56467],[2.02738,41.56354],[2.02713,41.56467],[2.03305,41.56609],[2.03354,41.56615],[2.0333,41.56467]]]}},{"type":"Feature","properties":{"id":"0827902006"},"geometry":{"type":"Polygon","coordinates":[[[2.03039,41.56189],[2.02784,41.56142],[2.02738,41.56354],[2.02972,41.564],[2.03039,41.56189]]]}},{"type":"Feature","properties":{"id":"0827902008"},"geometry":{"type":"Polygon","coordinates":[[[2.03308,41.56238],[2.03039,41.56189],[2.02972,41.564],[2.0333,41.56467],[2.03308,41.56238]]]}},{"type":"Feature","properties":{"id":"0827902009"},"geometry":{"type":"Polygon","coordinates":[[[2.03298,41.56059],[2.02834,41.55974],[2.0282,41.55989],[2.02784,41.56142],[2.03308,41.56238],[2.03298,41.56059]]]}},{"type":"Feature","properties":{"id":"0827902011"},"geometry":{"type":"Polygon","coordinates":[[[2.03369,41.55798],[2.0314,41.55821],[2.03024,41.55839],[2.02931,41.55868],[2.02765,41.55883],[2.0282,41.55989],[2.02834,41.55974],[2.03298,41.56059],[2.03369,41.55798]]]}},{"type":"Feature","properties":{"id":"0827902012"},"geometry":{"type":"Polygon","coordinates":[[[2.03388,41.56807],[2.0391,41.56759],[2.039,41.56714],[2.03822,41.56617],[2.03815,41.56472],[2.03798,41.5644],[2.03729,41.56375],[2.03715,41.56344],[2.03711,41.56199],[2.03683,41.56129],[2.03624,41.56035],[2.03642,41.56015],[2.03751,41.56031],[2.03803,41.55874],[2.03839,41.55819],[2.03918,41.5574],[2.03914,41.55724],[2.03369,41.55798],[2.03307,41.56002],[2.03293,41.56088],[2.03334,41.56499],[2.03388,41.56807]]]}},{"type":"Feature","properties":{"id":"0827902014"},"geometry":{"type":"Polygon","coordinates":[[[2.03951,41.56059],[2.03642,41.56015],[2.03624,41.56035],[2.03695,41.56152],[2.03711,41.56199],[2.03715,41.56344],[2.03759,41.56408],[2.03774,41.5642],[2.03788,41.56412],[2.03774,41.56388],[2.03769,41.56336],[2.0387,41.56346],[2.03965,41.56403],[2.04203,41.56417],[2.04211,41.56322],[2.04117,41.56223],[2.03952,41.56075],[2.03951,41.56059]]]}},{"type":"Feature","properties":{"id":"0827902015"},"geometry":{"type":"Polygon","coordinates":[[[2.04085,41.557],[2.03914,41.55724],[2.03918,41.5574],[2.03839,41.55819],[2.03795,41.55895],[2.04088,41.5589],[2.04085,41.557]]]}},{"type":"Feature","properties":{"id":"0827902016"},"geometry":{"type":"Polygon","coordinates":[[[2.0436,41.5671],[2.04154,41.56633],[2.04204,41.56417],[2.03965,41.56403],[2.0387,41.56346],[2.03769,41.56336],[2.03774,41.56388],[2.03788,41.56412],[2.03774,41.5642],[2.03798,41.5644],[2.03815,41.56472],[2.03822,41.56617],[2.039,41.56714],[2.0391,41.56759],[2.0436,41.5671]]]}},{"type":"Feature","properties":{"id":"0827902017"},"geometry":{"type":"Polygon","coordinates":[[[2.0436,41.5671],[2.06437,41.56519],[2.06338,41.56359],[2.06783,41.56258],[2.06817,41.56172],[2.06917,41.56071],[2.06771,41.55993],[2.06678,41.56043],[2.0652,41.55941],[2.0656,41.55906],[2.06416,41.55788],[2.0673,41.55618],[2.06536,41.55531],[2.06531,41.55433],[2.06624,41.55359],[2.06319,41.55363],[2.06256,41.55335],[2.06121,41.55353],[2.05965,41.55336],[2.05799,41.55343],[2.05637,41.55388],[2.05315,41.55408],[2.05199,41.5547],[2.05027,41.55583],[2.04085,41.557],[2.04088,41.5589],[2.03795,41.55895],[2.03745,41.5603],[2.03951,41.56059],[2.03952,41.56075],[2.04117,41.56223],[2.04211,41.56322],[2.04204,41.56417],[2.04154,41.56633],[2.0436,41.5671]]]}},{"type":"Feature","properties":{"id":"0827903001"},"geometry":{"type":"Polygon","coordinates":[[[2.0253,41.55893],[2.02805,41.55881],[2.02753,41.55694],[2.02154,41.55757],[2.02169,41.5576],[2.02209,41.55801],[2.02451,41.55875],[2.0253,41.55893]]]}},{"type":"Feature","properties":{"id":"0827903002"},"geometry":{"type":"Polygon","coordinates":[[[2.02753,41.55694],[2.02731,41.55613],[2.02299,41.55535],[2.02232,41.55748],[2.02753,41.55694]]]}},{"type":"Feature","properties":{"id":"0827903003"},"geometry":{"type":"Polygon","coordinates":[[[2.02349,41.55381],[2.02052,41.55323],[2.01995,41.5548],[2.023,41.55535],[2.02349,41.55381]]]}},{"type":"Feature","properties":{"id":"0827903004"},"geometry":{"type":"Polygon","coordinates":[[[2.01995,41.5548],[2.02127,41.55119],[2.01757,41.55045],[2.01748,41.55104],[2.01757,41.55139],[2.01812,41.5522],[2.01827,41.55264],[2.01871,41.55321],[2.0191,41.55358],[2.01938,41.55366],[2.01941,41.55449],[2.01969,41.55475],[2.01995,41.5548]]]}},{"type":"Feature","properties":{"id":"0827903005"},"geometry":{"type":"Polygon","coordinates":[[[2.01996,41.5573],[2.01985,41.55691],[2.01961,41.55664],[2.0199,41.55622],[2.01985,41.55574],[2.02013,41.55507],[2.01941,41.55449],[2.01938,41.55366],[2.0191,41.55358],[2.01871,41.55321],[2.01827,41.55264],[2.01812,41.5522],[2.01757,41.55139],[2.01748,41.55104],[2.01758,41.55042],[2.0159,41.55014],[2.01571,41.55111],[2.01594,41.55178],[2.01637,41.55242],[2.01663,41.55251],[2.01506,41.55763],[2.01771,41.55812],[2.01996,41.5573]]]}},{"type":"Feature","properties":{"id":"0827903006"},"geometry":{"type":"Polygon","coordinates":[[[2.0159,41.55014],[2.01358,41.54979],[2.01251,41.55335],[2.01286,41.55341],[2.01268,41.5538],[2.01244,41.55531],[2.01135,41.55695],[2.01506,41.55763],[2.01663,41.55251],[2.01637,41.55242],[2.01594,41.55178],[2.01571,41.55111],[2.0159,41.55014]]]}},{"type":"Feature","properties":{"id":"0827903007"},"geometry":{"type":"Polygon","coordinates":[[[2.01358,41.54979],[2.01152,41.54944],[2.01097,41.54948],[2.00992,41.54993],[2.00919,41.55062],[2.00732,41.5564],[2.00753,41.55699],[2.00815,41.55706],[2.01068,41.55686],[2.01135,41.55695],[2.01244,41.55531],[2.01268,41.5538],[2.01286,41.55341],[2.01251,41.55335],[2.01358,41.54979]]]}},{"type":"Feature","properties":{"id":"0827903008"},"geometry":{"type":"Polygon","coordinates":[[[2.02436,41.52782],[2.02423,41.52801],[2.02402,41.52808],[2.02345,41.5281],[2.02311,41.52966],[2.02264,41.53088],[2.02121,41.53303],[2.0208,41.53393],[2.02031,41.53667],[2.02007,41.53747],[2.01928,41.53879],[2.01865,41.53947],[2.01636,41.5413],[2.0156,41.54238],[2.01484,41.54387],[2.01441,41.54445],[2.01207,41.54713],[2.01097,41.54823],[2.00919,41.55062],[2.00992,41.54993],[2.01097,41.54948],[2.01152,41.54944],[2.01758,41.55042],[2.01822,41.55061],[2.02175,41.55128],[2.02331,41.54684],[2.02217,41.54449],[2.02325,41.54227],[2.02579,41.54283],[2.02803,41.54384],[2.02993,41.54506],[2.03101,41.54558],[2.03225,41.54593],[2.03374,41.54606],[2.03528,41.54598],[2.03757,41.54539],[2.03914,41.54471],[2.04001,41.54448],[2.04046,41.54257],[2.04067,41.54104],[2.04025,41.53968],[2.03927,41.53788],[2.03834,41.53668],[2.03677,41.53509],[2.0347,41.53355],[2.03433,41.53393],[2.03339,41.53365],[2.03171,41.53206],[2.03087,41.53145],[2.02436,41.52782]]]}},{"type":"Feature","properties":{"id":"0827903014"},"geometry":{"type":"Polygon","coordinates":[[[2.02415,41.55173],[2.02127,41.55119],[2.02052,41.55323],[2.02349,41.55381],[2.02415,41.55173]]]}},{"type":"Feature","properties":{"id":"0827903015"},"geometry":{"type":"Polygon","coordinates":[[[2.02685,41.55445],[2.02349,41.55381],[2.023,41.55535],[2.02731,41.55613],[2.02685,41.55445]]]}},{"type":"Feature","properties":{"id":"0827903016"},"geometry":{"type":"Polygon","coordinates":[[[2.02934,41.55867],[2.03101,41.55303],[2.02914,41.55268],[2.02685,41.55445],[2.02805,41.55881],[2.02934,41.55867]]]}},{"type":"Feature","properties":{"id":"0827903017"},"geometry":{"type":"Polygon","coordinates":[[[2.02914,41.55268],[2.0262,41.55213],[2.02685,41.55445],[2.02914,41.55268]]]}},{"type":"Feature","properties":{"id":"0827903018"},"geometry":{"type":"Polygon","coordinates":[[[2.06256,41.55335],[2.06092,41.55282],[2.06246,41.54978],[2.06376,41.54813],[2.06373,41.54796],[2.06331,41.54777],[2.06575,41.5446],[2.06618,41.5438],[2.06614,41.5435],[2.06595,41.54323],[2.06626,41.54309],[2.05822,41.54249],[2.0539,41.54239],[2.05025,41.54256],[2.04765,41.54283],[2.04405,41.5434],[2.03914,41.54471],[2.03757,41.54539],[2.03528,41.54598],[2.03374,41.54606],[2.03225,41.54593],[2.03101,41.54558],[2.02993,41.54506],[2.02803,41.54384],[2.02579,41.54283],[2.02325,41.54227],[2.02217,41.54449],[2.02331,41.54684],[2.02175,41.55128],[2.03101,41.55303],[2.02934,41.55867],[2.03024,41.55839],[2.0314,41.55821],[2.0327,41.55811],[2.0412,41.55695],[2.05027,41.55583],[2.05199,41.5547],[2.05315,41.55408],[2.05637,41.55388],[2.05799,41.55343],[2.05965,41.55336],[2.06121,41.55353],[2.06256,41.55335]]]}},{"type":"Feature","properties":{"id":"0827903019"},"geometry":{"type":"Polygon","coordinates":[[[2.0262,41.55213],[2.02415,41.55173],[2.02349,41.55381],[2.02685,41.55445],[2.0262,41.55213]]]}},{"type":"Feature","properties":{"id":"0827903020"},"geometry":{"type":"Polygon","coordinates":[[[2.02232,41.55748],[2.02299,41.55535],[2.01969,41.55475],[2.02013,41.55514],[2.01985,41.55574],[2.0199,41.55622],[2.01961,41.55664],[2.01985,41.55691],[2.01996,41.5573],[2.02013,41.55726],[2.02154,41.55757],[2.02232,41.55748]]]}},{"type":"Feature","properties":{"id":"0827904001"},"geometry":{"type":"Polygon","coordinates":[[[2.00766,41.56075],[2.00741,41.55695],[2.00523,41.55642],[2.00543,41.56071],[2.00638,41.56068],[2.00637,41.5605],[2.00766,41.56075]]]}},{"type":"Feature","properties":{"id":"0827904002"},"geometry":{"type":"Polygon","coordinates":[[[2.00523,41.55642],[2.00408,41.55614],[2.00292,41.56057],[2.00541,41.56049],[2.00523,41.55642]]]}},{"type":"Feature","properties":{"id":"0827904003"},"geometry":{"type":"Polygon","coordinates":[[[2.00408,41.55614],[2.00294,41.55587],[2.00146,41.55937],[1.99961,41.55894],[1.99927,41.55973],[2.00292,41.56057],[2.00408,41.55614]]]}},{"type":"Feature","properties":{"id":"0827904004"},"geometry":{"type":"Polygon","coordinates":[[[2.00294,41.55587],[2.00114,41.55543],[1.99961,41.55894],[2.00146,41.55937],[2.00294,41.55587]]]}},{"type":"Feature","properties":{"id":"0827904005"},"geometry":{"type":"Polygon","coordinates":[[[2.00919,41.55062],[2.01028,41.54916],[2.00907,41.54982],[2.0063,41.55227],[2.00391,41.55355],[2.00375,41.55392],[2.00385,41.55463],[2.00766,41.55532],[2.00919,41.55062]]]}},{"type":"Feature","properties":{"id":"0827904006"},"geometry":{"type":"Polygon","coordinates":[[[1.99286,41.56025],[1.99789,41.55941],[1.99927,41.55973],[2.00114,41.55543],[2.00074,41.55526],[1.99449,41.55882],[1.99312,41.55983],[1.99286,41.56025]]]}},{"type":"Feature","properties":{"id":"0827904007"},"geometry":{"type":"Polygon","coordinates":[[[2.00294,41.55587],[2.00391,41.55355],[2.0063,41.55227],[2.00907,41.54982],[2.01028,41.54916],[2.01097,41.54823],[2.01207,41.54713],[2.01441,41.54445],[2.01507,41.54343],[2.01379,41.54436],[2.01219,41.54661],[2.01117,41.54752],[2.01037,41.54797],[2.00784,41.54879],[2.00737,41.54901],[2.00493,41.55055],[2.00386,41.55092],[2.00195,41.5513],[2.00118,41.55155],[2.00033,41.55194],[1.99951,41.55255],[1.99983,41.55284],[1.99956,41.55299],[1.99934,41.5533],[2.00002,41.55388],[2.00018,41.55414],[2.00035,41.55511],[2.00114,41.55543],[2.00294,41.55587]]]}},{"type":"Feature","properties":{"id":"0827904008"},"geometry":{"type":"Polygon","coordinates":[[[2.00074,41.55526],[2.00035,41.55511],[2.00018,41.55414],[2.00002,41.55388],[1.99934,41.5533],[1.99956,41.55299],[1.99983,41.55284],[1.99951,41.55255],[1.99841,41.55368],[1.9977,41.55422],[1.99707,41.55451],[1.99621,41.55478],[1.99353,41.55524],[1.99387,41.556],[1.994,41.55606],[1.99464,41.55812],[1.99446,41.55816],[1.99465,41.55873],[2.00074,41.55526]]]}},{"type":"Feature","properties":{"id":"0827904009"},"geometry":{"type":"Polygon","coordinates":[[[1.99488,41.56452],[1.99364,41.56012],[1.99286,41.56025],[1.99223,41.56103],[1.99197,41.56198],[1.99215,41.56357],[1.99458,41.56487],[1.99488,41.56452]]]}},{"type":"Feature","properties":{"id":"0827904010"},"geometry":{"type":"Polygon","coordinates":[[[1.99741,41.56421],[1.99625,41.56424],[1.99582,41.56274],[1.99534,41.56283],[1.99437,41.56226],[1.99425,41.56228],[1.99488,41.56452],[1.99458,41.56487],[1.99673,41.56597],[1.99741,41.56421]]]}},{"type":"Feature","properties":{"id":"0827904012"},"geometry":{"type":"Polygon","coordinates":[[[2.00063,41.56413],[1.99974,41.56415],[1.99673,41.56597],[1.99887,41.56706],[2.00004,41.56602],[2.00063,41.56413]]]}},{"type":"Feature","properties":{"id":"0827904013"},"geometry":{"type":"Polygon","coordinates":[[[2.00392,41.56912],[2.00366,41.56407],[2.00063,41.56413],[2.00004,41.56602],[1.99887,41.56706],[2.00153,41.5683],[2.00392,41.56912]]]}},{"type":"Feature","properties":{"id":"0827904014"},"geometry":{"type":"Polygon","coordinates":[[[2.00784,41.56428],[2.00794,41.56374],[2.00551,41.56313],[2.00554,41.56404],[2.00366,41.56407],[2.00373,41.56544],[2.00706,41.56537],[2.00784,41.56428]]]}},{"type":"Feature","properties":{"id":"0827904015"},"geometry":{"type":"Polygon","coordinates":[[[2.00794,41.56372],[2.00766,41.56075],[2.00637,41.5605],[2.00638,41.56068],[2.00543,41.56071],[2.00551,41.56313],[2.00794,41.56372]]]}},{"type":"Feature","properties":{"id":"0827904016"},"geometry":{"type":"Polygon","coordinates":[[[2.00554,41.56404],[2.00541,41.56049],[2.00346,41.56055],[2.00359,41.56223],[2.00343,41.56239],[2.00264,41.56243],[2.00287,41.5629],[2.00214,41.56411],[2.00554,41.56404]]]}},{"type":"Feature","properties":{"id":"0827904017"},"geometry":{"type":"Polygon","coordinates":[[[2.00346,41.56055],[2.00292,41.56057],[2.00195,41.56034],[2.00063,41.56413],[2.00214,41.56411],[2.00287,41.5629],[2.00264,41.56243],[2.00343,41.56239],[2.00359,41.56223],[2.00346,41.56055]]]}},{"type":"Feature","properties":{"id":"0827904018"},"geometry":{"type":"Polygon","coordinates":[[[2.00063,41.56413],[2.00195,41.56034],[1.99927,41.55973],[1.99848,41.56148],[1.99673,41.56597],[1.99974,41.56415],[2.00063,41.56413]]]}},{"type":"Feature","properties":{"id":"0827904019"},"geometry":{"type":"Polygon","coordinates":[[[1.99927,41.55973],[1.99789,41.55941],[1.99587,41.56293],[1.99625,41.56424],[1.99743,41.56421],[1.99848,41.56148],[1.99927,41.55973]]]}},{"type":"Feature","properties":{"id":"0827904020"},"geometry":{"type":"Polygon","coordinates":[[[1.99582,41.56274],[1.99503,41.55989],[1.99364,41.56012],[1.99425,41.56228],[1.99437,41.56226],[1.99534,41.56283],[1.99582,41.56274]]]}},{"type":"Feature","properties":{"id":"0827904021"},"geometry":{"type":"Polygon","coordinates":[[[1.99789,41.55941],[1.99503,41.55989],[1.99587,41.56293],[1.9976,41.56006],[1.99789,41.55941]]]}},{"type":"Feature","properties":{"id":"0827904022"},"geometry":{"type":"Polygon","coordinates":[[[1.99223,41.56103],[1.99312,41.55983],[1.99465,41.55873],[1.99446,41.55816],[1.99464,41.55812],[1.994,41.55606],[1.99387,41.556],[1.99353,41.55524],[1.99088,41.55563],[1.99121,41.55673],[1.99144,41.55669],[1.99183,41.55805],[1.98794,41.55868],[1.98811,41.55929],[1.98709,41.55946],[1.98818,41.56085],[1.9875,41.56237],[1.98911,41.56251],[1.98967,41.56264],[1.99071,41.56294],[1.99217,41.56364],[1.99198,41.56264],[1.99197,41.56198],[1.99223,41.56103]]]}},{"type":"Feature","properties":{"id":"0827904023"},"geometry":{"type":"Polygon","coordinates":[[[1.99088,41.55563],[1.98915,41.55578],[1.98799,41.55571],[1.98495,41.55506],[1.98344,41.55486],[1.98791,41.56104],[1.9872,41.56195],[1.98714,41.56227],[1.98754,41.5623],[1.98818,41.56085],[1.98709,41.55946],[1.98811,41.55929],[1.98794,41.55868],[1.99183,41.55805],[1.99144,41.55669],[1.99121,41.55673],[1.99088,41.55563]]]}},{"type":"Feature","properties":{"id":"0827904024"},"geometry":{"type":"Polygon","coordinates":[[[1.99088,41.55563],[1.99505,41.555],[1.99621,41.55478],[1.99707,41.55451],[1.99796,41.55404],[1.99951,41.55255],[2.00033,41.55194],[2.00155,41.55142],[2.00386,41.55092],[2.00493,41.55055],[2.00737,41.54901],[2.00784,41.54879],[2.01037,41.54797],[2.01117,41.54752],[2.01179,41.54703],[2.01379,41.54436],[2.01507,41.54343],[2.0156,41.54238],[2.01636,41.5413],[2.01865,41.53947],[2.01966,41.53822],[2.02007,41.53747],[2.02031,41.53667],[2.0208,41.53393],[2.02121,41.53303],[2.02264,41.53088],[2.02311,41.52966],[2.02345,41.5281],[2.02295,41.52811],[2.02065,41.52848],[2.01996,41.52902],[2.01985,41.53002],[2.01957,41.5305],[2.01882,41.53104],[2.0176,41.5316],[2.01589,41.53173],[2.01485,41.53207],[2.01438,41.53231],[2.01136,41.53278],[2.01052,41.53282],[2.00954,41.53266],[2.0067,41.53253],[2.00519,41.53296],[2.00486,41.53347],[2.0043,41.53374],[2.0039,41.53447],[2.0032,41.53495],[2.00223,41.5354],[2.00104,41.53669],[2.00082,41.53732],[1.99984,41.53853],[1.99982,41.53898],[2.00014,41.5394],[2.0001,41.53951],[1.99912,41.54047],[1.99881,41.54114],[1.99785,41.54159],[1.9972,41.54218],[1.9967,41.54217],[1.99569,41.54181],[1.99429,41.54163],[1.99381,41.54167],[1.99248,41.54221],[1.99235,41.54249],[1.99168,41.54304],[1.99147,41.54338],[1.99137,41.54265],[1.99076,41.54143],[1.99051,41.53955],[1.98998,41.53868],[1.98937,41.53797],[1.98781,41.53646],[1.98704,41.5362],[1.9861,41.53524],[1.98072,41.53531],[1.97865,41.53382],[1.97817,41.53404],[1.9774,41.5342],[1.97655,41.53422],[1.97446,41.53463],[1.97321,41.53586],[1.97195,41.53659],[1.97134,41.5371],[1.97082,41.53804],[1.97076,41.53855],[1.97059,41.53882],[1.97006,41.53892],[1.96939,41.53887],[1.96849,41.53867],[1.96639,41.53849],[1.96517,41.53865],[1.96425,41.53908],[1.96373,41.5392],[1.9632,41.53917],[1.96266,41.53926],[1.9616,41.5391],[1.96082,41.53932],[1.95995,41.53901],[1.95913,41.53895],[1.9587,41.53973],[1.9592,41.54003],[1.96026,41.53996],[1.96082,41.54013],[1.96126,41.54057],[1.96134,41.54089],[1.96175,41.54121],[1.96328,41.54164],[1.96423,41.54166],[1.9646,41.54185],[1.96515,41.54244],[1.96534,41.54252],[1.96628,41.54257],[1.96668,41.54296],[1.96747,41.5433],[1.96827,41.54328],[1.96917,41.54351],[1.96961,41.54402],[1.9703,41.54449],[1.97075,41.54541],[1.97133,41.54529],[1.97179,41.54597],[1.97265,41.54614],[1.97281,41.54648],[1.97266,41.54733],[1.97336,41.54719],[1.97363,41.54734],[1.97378,41.54769],[1.97422,41.5482],[1.97429,41.54884],[1.97449,41.54916],[1.97548,41.54946],[1.9758,41.55012],[1.97601,41.55028],[1.97672,41.55003],[1.97713,41.55018],[1.97788,41.55155],[1.97803,41.55174],[1.97846,41.55196],[1.97884,41.55251],[1.97927,41.55291],[1.97998,41.55273],[1.98066,41.55287],[1.9811,41.55319],[1.98177,41.55342],[1.98202,41.5538],[1.98206,41.55406],[1.98295,41.55442],[1.98307,41.55463],[1.98344,41.55486],[1.98495,41.55506],[1.98799,41.55571],[1.98915,41.55578],[1.99088,41.55563]]]}},{"type":"Feature","properties":{"id":"0827904025"},"geometry":{"type":"Polygon","coordinates":[[[2.00748,41.55686],[2.00732,41.5564],[2.00766,41.55532],[2.00385,41.55463],[2.00375,41.55392],[2.00294,41.55587],[2.00741,41.55695],[2.00748,41.55686]]]}},{"type":"Feature","properties":{"id":"0827904026"},"geometry":{"type":"Polygon","coordinates":[[[2.0043,41.56924],[2.00674,41.56583],[2.00706,41.56537],[2.00373,41.56544],[2.00392,41.56912],[2.0043,41.56924]]]}},{"type":"Feature","properties":{"id":"0827905001"},"geometry":{"type":"Polygon","coordinates":[[[2.01758,41.5776],[2.01731,41.57552],[2.01751,41.5752],[2.01381,41.57501],[2.0136,41.57743],[2.01758,41.5776]]]}},{"type":"Feature","properties":{"id":"0827905002"},"geometry":{"type":"Polygon","coordinates":[[[2.01812,41.58119],[2.01506,41.58109],[2.015,41.5817],[2.01393,41.58165],[2.01356,41.58398],[2.01852,41.58417],[2.01812,41.58119]]]}},{"type":"Feature","properties":{"id":"0827905003"},"geometry":{"type":"Polygon","coordinates":[[[2.01751,41.5752],[2.01981,41.57327],[2.01781,41.57302],[2.01874,41.5695],[2.01758,41.56964],[2.01608,41.57512],[2.01751,41.5752]]]}},{"type":"Feature","properties":{"id":"0827905004"},"geometry":{"type":"Polygon","coordinates":[[[2.02065,41.57259],[2.02022,41.57167],[2.02019,41.57123],[2.01992,41.57052],[2.01986,41.56965],[2.02009,41.56938],[2.01874,41.5695],[2.01781,41.57302],[2.01981,41.57327],[2.02065,41.57259]]]}},{"type":"Feature","properties":{"id":"0827905005"},"geometry":{"type":"Polygon","coordinates":[[[2.01758,41.56964],[2.01694,41.56975],[2.01682,41.57007],[2.01637,41.57035],[2.01604,41.57072],[2.01582,41.57165],[2.01534,41.57166],[2.01537,41.57269],[2.01514,41.57508],[2.01608,41.57512],[2.01758,41.56964]]]}},{"type":"Feature","properties":{"id":"0827905006"},"geometry":{"type":"Polygon","coordinates":[[[2.01694,41.56975],[2.01498,41.57006],[2.01228,41.57017],[2.01231,41.57172],[2.01357,41.57169],[2.01303,41.57496],[2.01514,41.57508],[2.01537,41.57269],[2.01534,41.57166],[2.01582,41.57165],[2.01604,41.57072],[2.01637,41.57035],[2.01682,41.57007],[2.01694,41.56975]]]}},{"type":"Feature","properties":{"id":"0827905007"},"geometry":{"type":"Polygon","coordinates":[[[2.01228,41.57017],[2.00991,41.57032],[2.01051,41.57185],[2.01069,41.57194],[2.01069,41.57268],[2.01334,41.57308],[2.01357,41.57169],[2.01231,41.57172],[2.01228,41.57017]]]}},{"type":"Feature","properties":{"id":"0827905008"},"geometry":{"type":"Polygon","coordinates":[[[2.01069,41.57268],[2.01069,41.57194],[2.01051,41.57185],[2.00991,41.57032],[2.00904,41.57239],[2.00707,41.57465],[2.01024,41.57482],[2.01069,41.57268]]]}},{"type":"Feature","properties":{"id":"0827905009"},"geometry":{"type":"Polygon","coordinates":[[[2.0043,41.56924],[2.00268,41.56869],[2.00087,41.57058],[2.00323,41.57139],[2.0043,41.56924]]]}},{"type":"Feature","properties":{"id":"0827905010"},"geometry":{"type":"Polygon","coordinates":[[[2.00029,41.57158],[2.00151,41.57317],[2.00216,41.57102],[2.00087,41.57058],[2.00058,41.57131],[2.00029,41.57158]]]}},{"type":"Feature","properties":{"id":"0827905011"},"geometry":{"type":"Polygon","coordinates":[[[2.00274,41.57286],[2.00241,41.57392],[2.00707,41.57465],[2.00775,41.57389],[2.00531,41.57346],[2.00515,41.57264],[2.00274,41.57286]]]}},{"type":"Feature","properties":{"id":"0827905012"},"geometry":{"type":"Polygon","coordinates":[[[2.00645,41.57535],[2.00228,41.57471],[2.00407,41.57754],[2.00496,41.57703],[2.00645,41.57535]]]}},{"type":"Feature","properties":{"id":"0827905013"},"geometry":{"type":"Polygon","coordinates":[[[2.00154,41.58046],[2.00176,41.58032],[2.00345,41.57802],[2.00407,41.57754],[2.00295,41.57587],[2.00178,41.57639],[2.00162,41.57735],[2.00081,41.57753],[2.00038,41.57804],[1.99929,41.57879],[1.99894,41.57833],[1.99831,41.57852],[1.99827,41.57865],[1.99873,41.57877],[1.99884,41.57897],[1.99796,41.57932],[1.99695,41.57947],[1.99655,41.57962],[1.99546,41.5796],[1.99507,41.57969],[1.99508,41.58031],[1.99496,41.58074],[1.99476,41.58092],[1.99533,41.58137],[1.99477,41.58199],[1.99578,41.58269],[1.99609,41.58263],[1.99605,41.58245],[1.99619,41.58234],[1.99755,41.5817],[1.99991,41.58079],[2.0011,41.58045],[2.00154,41.58046]]]}},{"type":"Feature","properties":{"id":"0827905014"},"geometry":{"type":"Polygon","coordinates":[[[1.99787,41.56916],[2.00028,41.57159],[2.00058,41.57131],[2.00079,41.57066],[2.00268,41.56869],[2.0006,41.56789],[1.99787,41.56916]]]}},{"type":"Feature","properties":{"id":"0827905015"},"geometry":{"type":"Polygon","coordinates":[[[1.99285,41.56469],[1.99784,41.56917],[2.0006,41.56789],[1.99222,41.56366],[1.99249,41.56425],[1.99285,41.56469]]]}},{"type":"Feature","properties":{"id":"0827905016"},"geometry":{"type":"Polygon","coordinates":[[[2.00626,41.5803],[2.00699,41.57978],[2.00671,41.57955],[2.00721,41.57918],[2.00688,41.57487],[2.00496,41.57703],[2.00345,41.57802],[2.00176,41.58032],[2.00154,41.58046],[2.00626,41.5803]]]}},{"type":"Feature","properties":{"id":"0827905017"},"geometry":{"type":"Polygon","coordinates":[[[2.01798,41.58021],[2.01758,41.5776],[2.01354,41.57742],[2.01336,41.58004],[2.01798,41.58021]]]}},{"type":"Feature","properties":{"id":"0827905018"},"geometry":{"type":"Polygon","coordinates":[[[2.01812,41.58119],[2.01798,41.58021],[2.01418,41.58007],[2.01393,41.58165],[2.015,41.5817],[2.01506,41.58109],[2.01812,41.58119]]]}},{"type":"Feature","properties":{"id":"0827905019"},"geometry":{"type":"Polygon","coordinates":[[[1.99225,41.57169],[1.99044,41.57001],[1.98962,41.57015],[1.98951,41.57041],[1.98973,41.57097],[1.9897,41.57133],[1.98908,41.57208],[1.98896,41.57245],[1.98903,41.57392],[1.98607,41.57662],[1.98562,41.57684],[1.98441,41.57654],[1.9836,41.5764],[1.98275,41.57637],[1.98238,41.57621],[1.98182,41.57618],[1.98162,41.57574],[1.98082,41.57541],[1.97979,41.57622],[1.97908,41.57515],[1.9781,41.57548],[1.97811,41.57598],[1.97747,41.57558],[1.97692,41.57502],[1.97785,41.57465],[1.9775,41.57446],[1.97682,41.57464],[1.97663,41.57488],[1.97638,41.57439],[1.9764,41.57372],[1.97605,41.57394],[1.97497,41.57398],[1.97315,41.57363],[1.97154,41.57322],[1.97088,41.57263],[1.97015,41.57256],[1.96972,41.57223],[1.96921,41.57225],[1.96832,41.57268],[1.96786,41.57253],[1.96722,41.57253],[1.96708,41.57264],[1.96701,41.57292],[1.96689,41.57296],[1.96597,41.57282],[1.9651,41.57393],[1.96533,41.5744],[1.96508,41.5747],[1.96483,41.57544],[1.96438,41.57567],[1.96385,41.57574],[1.96368,41.57606],[1.96334,41.57614],[1.9625,41.5766],[1.96222,41.57697],[1.96187,41.5771],[1.96158,41.57818],[1.96092,41.57899],[1.96117,41.57917],[1.96089,41.57971],[1.95955,41.58072],[1.95896,41.58142],[1.95811,41.58206],[1.95533,41.58293],[1.95429,41.58337],[1.95372,41.58375],[1.95218,41.58435],[1.95181,41.58485],[1.952,41.58517],[1.95278,41.58566],[1.95353,41.58596],[1.95413,41.58741],[1.95491,41.58766],[1.95483,41.58824],[1.95448,41.58855],[1.95413,41.58926],[1.95437,41.58965],[1.95474,41.58994],[1.95491,41.59083],[1.95529,41.59146],[1.95471,41.59183],[1.95409,41.59189],[1.95397,41.59258],[1.95353,41.59301],[1.95233,41.59318],[1.95199,41.59337],[1.95133,41.5943],[1.95095,41.59451],[1.95073,41.59488],[1.94998,41.5952],[1.94935,41.59616],[1.94896,41.59637],[1.94871,41.59671],[1.94819,41.59708],[1.94676,41.59692],[1.94645,41.59712],[1.94669,41.59737],[1.94648,41.59794],[1.94591,41.59846],[1.94549,41.59928],[1.94471,41.59995],[1.94436,41.60005],[1.94398,41.60002],[1.94393,41.60038],[1.94409,41.60098],[1.94527,41.60167],[1.94676,41.60305],[1.94739,41.60345],[1.94776,41.60415],[1.9487,41.60458],[1.94923,41.60471],[1.94973,41.60515],[1.95168,41.60544],[1.95217,41.60568],[1.9526,41.6057],[1.95344,41.60625],[1.95402,41.60756],[1.95397,41.60821],[1.9547,41.60884],[1.95506,41.60955],[1.95594,41.61056],[1.95631,41.61073],[1.95655,41.61114],[1.95538,41.61176],[1.95581,41.61347],[1.95556,41.61441],[1.9545,41.61541],[1.9543,41.61831],[1.95416,41.61859],[1.9545,41.61906],[1.95409,41.61949],[1.95441,41.6203],[1.95392,41.62068],[1.95386,41.62086],[1.95396,41.62117],[1.95477,41.62139],[1.95508,41.62448],[1.96367,41.62924],[1.96636,41.62985],[1.96693,41.63018],[1.96825,41.63145],[1.96941,41.6324],[1.9704,41.63344],[1.97301,41.63397],[1.97501,41.63461],[1.97621,41.63526],[1.97643,41.63581],[1.97645,41.63679],[1.9758,41.63809],[1.97521,41.63885],[1.9741,41.63931],[1.97357,41.64129],[1.97172,41.64198],[1.97137,41.64236],[1.97117,41.64304],[1.97113,41.64454],[1.97215,41.64568],[1.97229,41.64609],[1.97219,41.64761],[1.9719,41.64881],[1.98108,41.64832],[1.98281,41.64831],[1.98226,41.64109],[1.97968,41.62337],[1.98244,41.62134],[1.98293,41.62074],[1.98388,41.62009],[1.98447,41.61896],[1.98575,41.61814],[1.98618,41.61746],[1.98739,41.61701],[1.98961,41.61723],[1.98952,41.61581],[1.99363,41.61303],[1.99649,41.61182],[1.99858,41.60942],[1.99931,41.60931],[2.00192,41.60777],[2.00773,41.60527],[2.01031,41.60502],[2.02122,41.60006],[2.02078,41.59899],[2.02037,41.59756],[2.01998,41.59474],[2.0228,41.5941],[2.02297,41.59428],[2.02262,41.59341],[2.02261,41.59204],[2.02276,41.59074],[2.02633,41.58458],[2.01356,41.58398],[2.01418,41.58007],[2.01183,41.57998],[2.01142,41.58455],[2.00804,41.58441],[2.00707,41.58429],[2.00696,41.58413],[2.00701,41.58377],[2.00669,41.58312],[2.00735,41.58189],[2.00779,41.5814],[2.00789,41.58104],[2.00772,41.58066],[2.00679,41.57992],[2.00626,41.5803],[2.0011,41.58045],[1.99991,41.58079],[1.99755,41.5817],[1.99619,41.58234],[1.99605,41.58245],[1.99609,41.58263],[1.99578,41.58269],[1.99477,41.58199],[1.99533,41.58137],[1.99476,41.58092],[1.99496,41.58074],[1.99508,41.58031],[1.99507,41.57969],[1.99546,41.5796],[1.99655,41.57962],[1.99695,41.57947],[1.99796,41.57932],[1.99884,41.57897],[1.99873,41.57877],[1.99827,41.57865],[1.99831,41.57852],[1.99894,41.57833],[1.99929,41.57879],[2.00003,41.57829],[1.99762,41.5782],[1.99444,41.57423],[1.99225,41.57169]]]}},{"type":"Feature","properties":{"id":"0827905020"},"geometry":{"type":"Polygon","coordinates":[[[2.00499,41.57181],[2.00531,41.57346],[2.00775,41.57389],[2.00904,41.57239],[2.00499,41.57181]]]}},{"type":"Feature","properties":{"id":"0827905021"},"geometry":{"type":"Polygon","coordinates":[[[2.00499,41.57181],[2.0032,41.57155],[2.00275,41.57285],[2.00515,41.57264],[2.00499,41.57181]]]}},{"type":"Feature","properties":{"id":"0827905022"},"geometry":{"type":"Polygon","coordinates":[[[2.00058,41.57613],[2.00076,41.57632],[2.0007,41.5773],[2.00086,41.57752],[2.00162,41.57735],[2.00178,41.57639],[2.00295,41.57587],[2.00228,41.57471],[2.00645,41.57535],[2.00707,41.57465],[2.00482,41.57433],[2.00154,41.57373],[2.00118,41.57532],[2.00058,41.57613]]]}},{"type":"Feature","properties":{"id":"0827905023"},"geometry":{"type":"Polygon","coordinates":[[[2.00991,41.57032],[2.00744,41.57013],[2.00629,41.5699],[2.0043,41.56924],[2.00318,41.57155],[2.00904,41.57239],[2.00991,41.57032]]]}},{"type":"Feature","properties":{"id":"0827905024"},"geometry":{"type":"Polygon","coordinates":[[[2.01336,41.58004],[2.01381,41.57501],[2.01016,41.57481],[2.00975,41.5799],[2.01336,41.58004]]]}},{"type":"Feature","properties":{"id":"0827905025"},"geometry":{"type":"Polygon","coordinates":[[[2.01016,41.57481],[2.00707,41.57465],[2.00688,41.57487],[2.00721,41.57918],[2.00671,41.57955],[2.00699,41.57978],[2.00975,41.5799],[2.01016,41.57481]]]}},{"type":"Feature","properties":{"id":"0827905026"},"geometry":{"type":"Polygon","coordinates":[[[2.01334,41.57308],[2.01069,41.57268],[2.01024,41.57482],[2.01303,41.57496],[2.01334,41.57308]]]}},{"type":"Feature","properties":{"id":"0827905027"},"geometry":{"type":"Polygon","coordinates":[[[2.02065,41.57259],[2.02601,41.5692],[2.02627,41.56878],[2.02009,41.56938],[2.01986,41.56965],[2.01992,41.57052],[2.02019,41.57123],[2.02022,41.57167],[2.02065,41.57259]]]}},{"type":"Feature","properties":{"id":"0827905028"},"geometry":{"type":"Polygon","coordinates":[[[2.01172,41.58126],[2.01183,41.57998],[2.00699,41.57978],[2.00679,41.57992],[2.00772,41.58066],[2.00789,41.58112],[2.00771,41.58151],[2.00735,41.58189],[2.00691,41.58285],[2.00838,41.58288],[2.01172,41.58126]]]}},{"type":"Feature","properties":{"id":"0827905029"},"geometry":{"type":"Polygon","coordinates":[[[2.01172,41.58126],[2.00838,41.58288],[2.00691,41.58285],[2.00669,41.58319],[2.00696,41.58364],[2.00696,41.58413],[2.00713,41.58435],[2.01142,41.58455],[2.01172,41.58126]]]}},{"type":"Feature","properties":{"id":"0827905030"},"geometry":{"type":"Polygon","coordinates":[[[1.99225,41.57169],[1.99609,41.57002],[1.99687,41.56877],[1.99714,41.56853],[1.99285,41.56469],[1.99249,41.56425],[1.99222,41.56366],[1.99071,41.56294],[1.98967,41.56264],[1.98712,41.56227],[1.98424,41.56965],[1.98326,41.57174],[1.98279,41.57219],[1.9824,41.57233],[1.98172,41.5722],[1.98092,41.57222],[1.98048,41.57215],[1.97871,41.5725],[1.97805,41.57295],[1.97677,41.57346],[1.97669,41.57359],[1.9764,41.57372],[1.97638,41.57439],[1.97663,41.57488],[1.97682,41.57464],[1.9775,41.57446],[1.97785,41.57465],[1.97692,41.57502],[1.97747,41.57558],[1.97811,41.57598],[1.9781,41.57548],[1.97908,41.57515],[1.97979,41.57622],[1.98082,41.57541],[1.98162,41.57574],[1.98182,41.57618],[1.98238,41.57621],[1.98275,41.57637],[1.9836,41.5764],[1.98441,41.57654],[1.98562,41.57684],[1.98607,41.57662],[1.98903,41.57392],[1.98896,41.57245],[1.98908,41.57208],[1.9897,41.57133],[1.98973,41.57097],[1.98951,41.57041],[1.98962,41.57015],[1.99044,41.57001],[1.99225,41.57169]]]}},{"type":"Feature","properties":{"id":"0827905031"},"geometry":{"type":"Polygon","coordinates":[[[2.00151,41.57317],[2.00029,41.57158],[1.99714,41.56853],[1.99687,41.56877],[1.99609,41.57002],[1.99222,41.5717],[1.99444,41.57423],[1.99762,41.5782],[2.00003,41.57829],[2.00086,41.57752],[2.0007,41.5773],[2.00076,41.57632],[2.00058,41.57613],[2.00118,41.57532],[2.00135,41.57443],[2.00154,41.57403],[2.00151,41.57317]]]}},{"type":"Feature","properties":{"id":"0827905032"},"geometry":{"type":"Polygon","coordinates":[[[2.00323,41.57139],[2.00216,41.57102],[2.0015,41.5732],[2.00154,41.57373],[2.00238,41.57392],[2.00323,41.57139]]]}},{"type":"Feature","properties":{"id":"0827906001"},"geometry":{"type":"Polygon","coordinates":[[[2.02396,41.58036],[2.02507,41.57525],[2.02412,41.57516],[2.02325,41.57913],[2.0229,41.58026],[2.02264,41.58358],[2.02371,41.58363],[2.02396,41.58036]]]}},{"type":"Feature","properties":{"id":"0827906002"},"geometry":{"type":"Polygon","coordinates":[[[2.02397,41.57584],[2.02428,41.57444],[2.01916,41.5738],[2.01844,41.5744],[2.01998,41.57464],[2.01981,41.57532],[2.02397,41.57584]]]}},{"type":"Feature","properties":{"id":"0827906003"},"geometry":{"type":"Polygon","coordinates":[[[2.02966,41.5765],[2.02766,41.57417],[2.02536,41.57392],[2.02492,41.57594],[2.02892,41.57643],[2.02945,41.57672],[2.02966,41.5765]]]}},{"type":"Feature","properties":{"id":"0827906004"},"geometry":{"type":"Polygon","coordinates":[[[2.03018,41.57349],[2.02699,41.56974],[2.02627,41.56878],[2.02601,41.5692],[2.02433,41.57028],[2.02795,41.57451],[2.03018,41.57349]]]}},{"type":"Feature","properties":{"id":"0827906005"},"geometry":{"type":"Polygon","coordinates":[[[2.03208,41.57401],[2.03328,41.57205],[2.03376,41.57036],[2.0339,41.56919],[2.03385,41.56807],[2.02627,41.56878],[2.03136,41.57488],[2.03208,41.57401]]]}},{"type":"Feature","properties":{"id":"0827906006"},"geometry":{"type":"Polygon","coordinates":[[[2.04268,41.57138],[2.0386,41.57195],[2.03854,41.57202],[2.04054,41.57435],[2.04094,41.57441],[2.04092,41.57449],[2.04165,41.57461],[2.04268,41.57138]]]}},{"type":"Feature","properties":{"id":"0827906008"},"geometry":{"type":"Polygon","coordinates":[[[2.02599,41.57224],[2.02433,41.57028],[2.02075,41.57251],[2.01916,41.5738],[2.02428,41.57444],[2.02475,41.5723],[2.02566,41.5724],[2.02599,41.57224]]]}},{"type":"Feature","properties":{"id":"0827906009"},"geometry":{"type":"Polygon","coordinates":[[[2.0196,41.5764],[2.01998,41.57464],[2.01844,41.5744],[2.0174,41.57532],[2.0192,41.57635],[2.0196,41.5764]]]}},{"type":"Feature","properties":{"id":"0827906010"},"geometry":{"type":"Polygon","coordinates":[[[2.02374,41.57689],[2.0192,41.57635],[2.0174,41.57532],[2.01731,41.57552],[2.01747,41.57685],[2.02035,41.57721],[2.01996,41.57886],[2.02322,41.57926],[2.02374,41.57689]]]}},{"type":"Feature","properties":{"id":"0827906011"},"geometry":{"type":"Polygon","coordinates":[[[2.02371,41.58363],[2.02264,41.58358],[2.0229,41.58026],[2.02322,41.57926],[2.01774,41.5786],[2.01852,41.58417],[2.02045,41.58425],[2.02047,41.58434],[2.02365,41.58443],[2.02371,41.58363]]]}},{"type":"Feature","properties":{"id":"0827906012"},"geometry":{"type":"Polygon","coordinates":[[[2.02766,41.57417],[2.02599,41.57224],[2.02566,41.5724],[2.02475,41.5723],[2.02412,41.57516],[2.02507,41.57525],[2.02536,41.57392],[2.02766,41.57417]]]}},{"type":"Feature","properties":{"id":"0827906013"},"geometry":{"type":"Polygon","coordinates":[[[2.02866,41.57759],[2.02945,41.57672],[2.02892,41.57643],[2.02492,41.57594],[2.02396,41.58036],[2.02365,41.58443],[2.02654,41.58459],[2.02766,41.5797],[2.02807,41.57857],[2.02866,41.57759]]]}},{"type":"Feature","properties":{"id":"0827906014"},"geometry":{"type":"Polygon","coordinates":[[[2.03136,41.57488],[2.03018,41.57349],[2.02795,41.57451],[2.02966,41.5765],[2.03136,41.57488]]]}},{"type":"Feature","properties":{"id":"0827906016"},"geometry":{"type":"Polygon","coordinates":[[[2.04447,41.60388],[2.04468,41.60356],[2.0493,41.60108],[2.05178,41.59903],[2.05476,41.59787],[2.05528,41.5972],[2.05715,41.59688],[2.05917,41.59495],[2.05959,41.59521],[2.05964,41.59394],[2.06103,41.59341],[2.06066,41.59313],[2.06174,41.59213],[2.06066,41.59126],[2.06156,41.59049],[2.06263,41.5903],[2.06243,41.58771],[2.05964,41.58734],[2.05254,41.58857],[2.05101,41.58954],[2.04725,41.58712],[2.0486,41.58611],[2.04786,41.5856],[2.04859,41.58462],[2.04957,41.58471],[2.04976,41.58432],[2.05057,41.58338],[2.05258,41.58122],[2.05462,41.58156],[2.06299,41.57914],[2.06085,41.57762],[2.06617,41.57549],[2.06492,41.57295],[2.06363,41.57329],[2.06255,41.57228],[2.06147,41.57046],[2.06313,41.5694],[2.06617,41.56813],[2.06482,41.56678],[2.06485,41.56596],[2.06437,41.56519],[2.04487,41.56696],[2.04537,41.56711],[2.04557,41.56729],[2.04561,41.56778],[2.04372,41.56974],[2.04319,41.5711],[2.04282,41.57104],[2.04114,41.57611],[2.04034,41.57605],[2.03608,41.57809],[2.03755,41.57987],[2.03762,41.58042],[2.03754,41.58095],[2.03735,41.58139],[2.03709,41.58152],[2.03464,41.57869],[2.03141,41.58022],[2.03064,41.57933],[2.03123,41.57904],[2.02939,41.57678],[2.02866,41.57759],[2.02807,41.57857],[2.02766,41.5797],[2.02654,41.58459],[2.02633,41.58458],[2.02276,41.59074],[2.02261,41.59204],[2.02262,41.59341],[2.02297,41.59428],[2.02385,41.59394],[2.02389,41.59409],[2.02654,41.5935],[2.02836,41.59234],[2.02873,41.59291],[2.03093,41.5948],[2.03147,41.59444],[2.03238,41.59435],[2.03427,41.59513],[2.03335,41.59566],[2.03332,41.59592],[2.03489,41.59733],[2.03599,41.59808],[2.03612,41.5984],[2.04447,41.60388]]]}},{"type":"Feature","properties":{"id":"0827906018"},"geometry":{"type":"Polygon","coordinates":[[[2.03255,41.57623],[2.03136,41.57488],[2.02939,41.57678],[2.03123,41.57904],[2.03289,41.57823],[2.03161,41.57668],[2.03255,41.57623]]]}},{"type":"Feature","properties":{"id":"0827906020"},"geometry":{"type":"Polygon","coordinates":[[[2.03464,41.57869],[2.03255,41.57623],[2.03161,41.57668],[2.03289,41.57823],[2.03064,41.57933],[2.03141,41.58022],[2.03464,41.57869]]]}},{"type":"Feature","properties":{"id":"0827906023"},"geometry":{"type":"Polygon","coordinates":[[[2.03795,41.57559],[2.03597,41.57327],[2.03289,41.57474],[2.03208,41.57401],[2.03136,41.57488],[2.03374,41.57758],[2.03795,41.57559]]]}},{"type":"Feature","properties":{"id":"0827906024"},"geometry":{"type":"Polygon","coordinates":[[[2.03289,41.57474],[2.03861,41.57199],[2.03837,41.57102],[2.035,41.57145],[2.03519,41.57045],[2.03378,41.57021],[2.03328,41.57205],[2.03208,41.57401],[2.03289,41.57474]]]}},{"type":"Feature","properties":{"id":"0827906025"},"geometry":{"type":"Polygon","coordinates":[[[2.02397,41.57584],[2.01981,41.57532],[2.0196,41.5764],[2.02374,41.57689],[2.02397,41.57584]]]}},{"type":"Feature","properties":{"id":"0827906026"},"geometry":{"type":"Polygon","coordinates":[[[2.03837,41.57102],[2.03761,41.56773],[2.03385,41.56807],[2.0339,41.56919],[2.03378,41.57021],[2.03519,41.57045],[2.035,41.57145],[2.03837,41.57102]]]}},{"type":"Feature","properties":{"id":"0827906027"},"geometry":{"type":"Polygon","coordinates":[[[2.04165,41.57461],[2.04054,41.57435],[2.03374,41.57758],[2.03709,41.58152],[2.03735,41.58139],[2.03754,41.58095],[2.03762,41.58042],[2.03755,41.57987],[2.03608,41.57809],[2.04034,41.57605],[2.04114,41.57611],[2.04165,41.57461]]]}},{"type":"Feature","properties":{"id":"0827906028"},"geometry":{"type":"Polygon","coordinates":[[[2.04054,41.57435],[2.03854,41.57202],[2.03597,41.57327],[2.03795,41.57559],[2.04054,41.57435]]]}},{"type":"Feature","properties":{"id":"0827906029"},"geometry":{"type":"Polygon","coordinates":[[[2.04268,41.57138],[2.0428,41.57107],[2.04241,41.57094],[2.03812,41.56996],[2.0386,41.57195],[2.04268,41.57138]]]}},{"type":"Feature","properties":{"id":"0827906030"},"geometry":{"type":"Polygon","coordinates":[[[2.03938,41.57026],[2.03881,41.56763],[2.03761,41.56773],[2.03812,41.56996],[2.03938,41.57026]]]}},{"type":"Feature","properties":{"id":"0827906031"},"geometry":{"type":"Polygon","coordinates":[[[2.01747,41.57685],[2.01774,41.5786],[2.01996,41.57886],[2.02035,41.57721],[2.01747,41.57685]]]}},{"type":"Feature","properties":{"id":"0827906032"},"geometry":{"type":"Polygon","coordinates":[[[2.0392,41.5694],[2.03938,41.57026],[2.04221,41.57089],[2.04232,41.57051],[2.04207,41.57018],[2.0423,41.56986],[2.04179,41.56915],[2.0392,41.5694]]]}},{"type":"Feature","properties":{"id":"0827906033"},"geometry":{"type":"Polygon","coordinates":[[[2.04487,41.56696],[2.03881,41.56763],[2.0392,41.5694],[2.04179,41.56915],[2.0423,41.56986],[2.04207,41.57018],[2.04232,41.57051],[2.04221,41.57089],[2.04319,41.5711],[2.04372,41.56974],[2.04561,41.56778],[2.04557,41.56729],[2.04537,41.56711],[2.04487,41.56696]]]}},{"type":"Feature","properties":{"id":"0827907001"},"geometry":{"type":"Polygon","coordinates":[[[2.03853,41.52715],[2.03472,41.53354],[2.03677,41.53509],[2.03734,41.53566],[2.03777,41.53542],[2.03802,41.53564],[2.03845,41.53559],[2.04015,41.53465],[2.04144,41.53379],[2.04208,41.53327],[2.04195,41.53217],[2.04208,41.53207],[2.04328,41.53172],[2.04439,41.53165],[2.04523,41.53172],[2.04588,41.53155],[2.04705,41.53146],[2.04725,41.53128],[2.04797,41.53103],[2.04781,41.53038],[2.04782,41.5299],[2.04823,41.5296],[2.04886,41.52949],[2.05075,41.52942],[2.05132,41.52966],[2.05146,41.52992],[2.0514,41.53034],[2.05175,41.53063],[2.05183,41.5316],[2.05463,41.53043],[2.05717,41.52485],[2.05518,41.52575],[2.05425,41.52542],[2.05334,41.5256],[2.05189,41.52552],[2.05094,41.52516],[2.05035,41.52544],[2.04936,41.52572],[2.04872,41.52578],[2.04699,41.52555],[2.04611,41.52522],[2.04517,41.5246],[2.04482,41.52452],[2.04408,41.5246],[2.04295,41.52406],[2.04268,41.52405],[2.0426,41.52417],[2.04292,41.52456],[2.04175,41.52405],[2.04105,41.52433],[2.04079,41.52455],[2.04063,41.52501],[2.04083,41.52536],[2.03993,41.52635],[2.0396,41.52705],[2.03958,41.52736],[2.03986,41.52782],[2.03904,41.52761],[2.03853,41.52715]]]}},{"type":"Feature","properties":{"id":"0827907002"},"geometry":{"type":"Polygon","coordinates":[[[2.04182,41.53883],[2.04134,41.53506],[2.04065,41.53432],[2.03845,41.53559],[2.03802,41.53564],[2.03777,41.53542],[2.03734,41.53566],[2.03834,41.53668],[2.03927,41.53788],[2.03993,41.53909],[2.04047,41.53893],[2.04182,41.53883]]]}},{"type":"Feature","properties":{"id":"0827907003"},"geometry":{"type":"Polygon","coordinates":[[[2.06626,41.54309],[2.06638,41.5425],[2.06603,41.54203],[2.06552,41.54251],[2.06528,41.54159],[2.06441,41.54147],[2.06408,41.54047],[2.06294,41.53983],[2.06257,41.53897],[2.06178,41.5391],[2.06078,41.53892],[2.05972,41.5399],[2.05968,41.54002],[2.05997,41.54042],[2.05993,41.54056],[2.0589,41.54056],[2.05816,41.54095],[2.05556,41.54095],[2.05459,41.54059],[2.05374,41.54056],[2.05282,41.53821],[2.05209,41.53785],[2.0517,41.53728],[2.05129,41.53636],[2.0505,41.53773],[2.05024,41.53773],[2.0487,41.53729],[2.04864,41.53825],[2.04826,41.53847],[2.04823,41.54015],[2.04471,41.54076],[2.04473,41.53951],[2.0453,41.53858],[2.04047,41.53893],[2.03993,41.53909],[2.04025,41.53968],[2.04067,41.54104],[2.04046,41.54257],[2.04001,41.54448],[2.04405,41.5434],[2.04588,41.54308],[2.04892,41.54269],[2.05175,41.54247],[2.0539,41.54239],[2.05822,41.54249],[2.06626,41.54309]]]}},{"type":"Feature","properties":{"id":"0827907004"},"geometry":{"type":"Polygon","coordinates":[[[2.05129,41.53636],[2.05181,41.53481],[2.0518,41.53445],[2.05158,41.53424],[2.05078,41.53406],[2.04986,41.53352],[2.04976,41.53337],[2.05004,41.53233],[2.05072,41.53192],[2.05184,41.5315],[2.05175,41.53063],[2.0514,41.53034],[2.05146,41.52992],[2.05139,41.52973],[2.05075,41.52942],[2.04886,41.52949],[2.04839,41.52955],[2.04796,41.52973],[2.04779,41.53009],[2.04797,41.53103],[2.04725,41.53128],[2.04705,41.53146],[2.04588,41.53155],[2.04523,41.53172],[2.04439,41.53165],[2.04328,41.53172],[2.04208,41.53207],[2.04195,41.53217],[2.04208,41.53327],[2.04065,41.53432],[2.04134,41.53506],[2.04182,41.53883],[2.0453,41.53858],[2.04473,41.53951],[2.04471,41.54076],[2.04823,41.54015],[2.04826,41.53847],[2.04864,41.53825],[2.0487,41.53729],[2.05024,41.53773],[2.0505,41.53773],[2.05129,41.53636]]]}},{"type":"Feature","properties":{"id":"0827907005"},"geometry":{"type":"Polygon","coordinates":[[[2.03472,41.53356],[2.03853,41.52715],[2.03677,41.52561],[2.03636,41.52675],[2.03579,41.52744],[2.03504,41.52735],[2.03363,41.5279],[2.03337,41.52811],[2.03313,41.5281],[2.03248,41.52545],[2.03267,41.52523],[2.03258,41.52509],[2.03238,41.52503],[2.03189,41.52226],[2.0323,41.52216],[2.03282,41.52223],[2.0341,41.52188],[2.0358,41.52162],[2.037,41.52117],[2.03596,41.52007],[2.03597,41.51974],[2.03558,41.51927],[2.03548,41.5188],[2.03555,41.51828],[2.03502,41.51766],[2.0349,41.51717],[2.03303,41.51775],[2.03265,41.51802],[2.03147,41.51928],[2.03068,41.51992],[2.03062,41.52026],[2.03046,41.52049],[2.02939,41.52113],[2.0285,41.52279],[2.02809,41.52334],[2.02766,41.52489],[2.02722,41.52531],[2.02692,41.5261],[2.0266,41.52657],[2.02549,41.52778],[2.02489,41.52796],[2.02452,41.52779],[2.02438,41.52781],[2.03087,41.53145],[2.03171,41.53206],[2.03339,41.53365],[2.03433,41.53393],[2.03472,41.53356]]]}}]}