{"type":"FeatureCollection","features":[{"type":"Feature","properties":{"id":"0828901001"},"geometry":{"type":"Polygon","coordinates":[[[2.00026,41.37167],[2.00347,41.36945],[2.00152,41.36533],[1.99839,41.36396],[1.9984,41.36359],[1.9989,41.36215],[1.99864,41.36196],[1.99809,41.36187],[1.99748,41.36189],[1.99702,41.36206],[1.99702,41.36218],[1.99743,41.36258],[1.99748,41.36307],[1.99716,41.3641],[1.99711,41.3642],[1.99684,41.36425],[1.99677,41.36453],[1.99707,41.36459],[1.99694,41.36506],[1.99709,41.36505],[1.99709,41.36528],[1.99676,41.36573],[1.99389,41.36569],[1.99353,41.36663],[1.99286,41.36588],[1.99255,41.36509],[1.9918,41.36527],[1.99029,41.36545],[1.99059,41.36482],[1.99029,41.36416],[1.99072,41.36388],[1.98963,41.36351],[1.98907,41.36378],[1.98802,41.36292],[1.98761,41.36288],[1.98767,41.36261],[1.98827,41.36205],[1.98827,41.36188],[1.99132,41.36199],[1.99189,41.36192],[1.99171,41.36098],[1.99175,41.36034],[1.99201,41.35972],[1.99092,41.35931],[1.98367,41.35242],[1.9832,41.35259],[1.98236,41.35263],[1.98223,41.35346],[1.9823,41.35366],[1.98382,41.35446],[1.98422,41.35481],[1.98469,41.35595],[1.98464,41.35737],[1.98431,41.35794],[1.98415,41.3596],[1.98398,41.36025],[1.98352,41.36024],[1.98323,41.35994],[1.98297,41.3593],[1.9821,41.35924],[1.98195,41.35933],[1.98153,41.35898],[1.98108,41.3588],[1.98089,41.35721],[1.98068,41.35661],[1.98016,41.35607],[1.97876,41.35699],[1.97789,41.35742],[1.97772,41.35701],[1.97735,41.35674],[1.97663,41.35657],[1.97619,41.35632],[1.97575,41.35634],[1.97545,41.35681],[1.97504,41.35719],[1.97487,41.35725],[1.97435,41.35707],[1.97402,41.35715],[1.97373,41.35731],[1.97326,41.35792],[1.97297,41.35811],[1.97258,41.3583],[1.97193,41.35842],[1.97259,41.35781],[1.97272,41.35749],[1.97265,41.35741],[1.97279,41.35669],[1.97313,41.35672],[1.97365,41.3561],[1.97362,41.35597],[1.97342,41.35593],[1.97394,41.35519],[1.97408,41.3541],[1.97675,41.3544],[1.97651,41.35353],[1.97656,41.35331],[1.97663,41.35307],[1.97698,41.35274],[1.97739,41.35252],[1.97736,41.35222],[1.97696,41.35171],[1.977,41.3515],[1.97637,41.35146],[1.97633,41.35129],[1.97604,41.35119],[1.97533,41.3515],[1.97493,41.35197],[1.97467,41.35266],[1.97409,41.35268],[1.97397,41.35243],[1.97321,41.35291],[1.97109,41.35339],[1.96813,41.35438],[1.96818,41.35464],[1.96744,41.35516],[1.96648,41.35552],[1.96577,41.35566],[1.96502,41.35632],[1.96446,41.35662],[1.96224,41.35706],[1.96141,41.35752],[1.96073,41.35758],[1.95944,41.35752],[1.95874,41.35735],[1.95767,41.35672],[1.95731,41.35625],[1.95735,41.35583],[1.95723,41.3556],[1.95622,41.35508],[1.95551,41.35512],[1.95474,41.35542],[1.95379,41.35534],[1.95375,41.35555],[1.95307,41.35598],[1.95227,41.35614],[1.95168,41.35643],[1.95139,41.3571],[1.9524,41.35736],[1.95281,41.35725],[1.95393,41.3578],[1.95437,41.35771],[1.95495,41.35792],[1.95528,41.35809],[1.95589,41.35876],[1.9564,41.35898],[1.95661,41.35928],[1.95605,41.35987],[1.95397,41.36108],[1.9536,41.36145],[1.95317,41.36142],[1.95287,41.36119],[1.95183,41.36079],[1.94996,41.3604],[1.94941,41.36007],[1.94905,41.35965],[1.94878,41.35904],[1.94769,41.35614],[1.94786,41.35549],[1.94841,41.3552],[1.94863,41.35483],[1.94929,41.35414],[1.95022,41.35359],[1.95279,41.35269],[1.95414,41.35238],[1.95618,41.35207],[1.95855,41.35184],[1.95956,41.35192],[1.96148,41.35258],[1.96336,41.35274],[1.96878,41.35035],[1.96929,41.35022],[1.96927,41.35006],[1.96895,41.34972],[1.96891,41.34904],[1.96907,41.34868],[1.96918,41.34778],[1.96961,41.3473],[1.96983,41.34682],[1.96997,41.34615],[1.96984,41.34601],[1.97003,41.34512],[1.97093,41.34512],[1.97064,41.3444],[1.97121,41.34424],[1.9714,41.34388],[1.97215,41.34343],[1.97259,41.34412],[1.97294,41.34363],[1.97269,41.34295],[1.97307,41.34287],[1.97344,41.34298],[1.97354,41.34325],[1.97404,41.34343],[1.97426,41.34342],[1.97416,41.34301],[1.97443,41.34263],[1.9742,41.34246],[1.97382,41.34244],[1.9732,41.34223],[1.97337,41.34192],[1.97327,41.34164],[1.97336,41.34135],[1.97231,41.34136],[1.97179,41.34123],[1.97109,41.34096],[1.96856,41.33963],[1.96607,41.3377],[1.96235,41.3351],[1.9595,41.33335],[1.94954,41.33492],[1.94722,41.33658],[1.9443,41.33689],[1.94388,41.33761],[1.94531,41.34175],[1.94425,41.34449],[1.94453,41.35],[1.94576,41.35007],[1.94764,41.3522],[1.94557,41.35423],[1.94644,41.35654],[1.94904,41.36225],[1.95146,41.36344],[1.95232,41.36577],[1.95423,41.36777],[1.95497,41.36737],[1.95975,41.36623],[1.96434,41.36533],[1.96506,41.36466],[1.97122,41.36665],[1.97285,41.36686],[1.97374,41.36728],[1.97762,41.36755],[1.9796,41.36855],[1.98085,41.36857],[1.98194,41.3693],[1.98145,41.36961],[1.98289,41.37174],[1.98233,41.37244],[1.98716,41.37284],[1.99077,41.37599],[1.99142,41.37601],[1.99493,41.37563],[2.00026,41.37167]]]}},{"type":"Feature","properties":{"id":"0828901002"},"geometry":{"type":"Polygon","coordinates":[[[1.99847,41.36192],[1.99912,41.36032],[1.99827,41.35764],[1.99823,41.35643],[1.99795,41.35627],[1.99639,41.35628],[1.99598,41.35611],[1.99569,41.3556],[1.99482,41.35453],[1.99401,41.35402],[1.99309,41.35323],[1.99318,41.35241],[1.9926,41.35143],[1.99212,41.35103],[1.99121,41.34971],[1.99107,41.34929],[1.99109,41.34808],[1.99072,41.34802],[1.98955,41.3465],[1.98889,41.34607],[1.98779,41.34505],[1.98731,41.34485],[1.98683,41.34477],[1.98549,41.34478],[1.98377,41.34451],[1.98379,41.34517],[1.98409,41.34621],[1.9841,41.34677],[1.9849,41.34902],[1.98494,41.3496],[1.98456,41.35025],[1.98442,41.35092],[1.98213,41.35149],[1.98083,41.35166],[1.98047,41.35184],[1.97952,41.35262],[1.9795,41.35256],[1.97836,41.35261],[1.97739,41.35252],[1.97717,41.3526],[1.97663,41.35307],[1.97656,41.35331],[1.97651,41.35353],[1.97675,41.3544],[1.97408,41.3541],[1.97394,41.35519],[1.97342,41.35593],[1.97362,41.35597],[1.97365,41.3561],[1.97313,41.35672],[1.97279,41.35669],[1.97265,41.35741],[1.97272,41.35749],[1.97259,41.35781],[1.97193,41.35842],[1.97258,41.3583],[1.97297,41.35811],[1.97326,41.35792],[1.97373,41.35731],[1.97402,41.35715],[1.97435,41.35707],[1.97487,41.35725],[1.97504,41.35719],[1.97545,41.35681],[1.97575,41.35634],[1.97619,41.35632],[1.97663,41.35657],[1.97735,41.35674],[1.97772,41.35701],[1.97789,41.35742],[1.97876,41.35699],[1.97977,41.35629],[1.97904,41.35597],[1.97906,41.35572],[1.98122,41.35416],[1.9814,41.35362],[1.98131,41.35335],[1.98154,41.35283],[1.98232,41.35263],[1.9832,41.35259],[1.98367,41.35242],[1.99092,41.35931],[1.99201,41.35972],[1.99175,41.36034],[1.99171,41.36098],[1.99189,41.36192],[1.99132,41.36199],[1.98827,41.36188],[1.98827,41.36205],[1.98767,41.36261],[1.98761,41.36288],[1.98802,41.36292],[1.98907,41.36378],[1.98963,41.36351],[1.99072,41.36388],[1.99029,41.36416],[1.99059,41.36482],[1.99029,41.36545],[1.9918,41.36527],[1.99255,41.36509],[1.99286,41.36588],[1.99353,41.36663],[1.99389,41.36569],[1.99676,41.36573],[1.99709,41.36528],[1.99709,41.36505],[1.99694,41.36506],[1.99707,41.36459],[1.99677,41.36453],[1.99684,41.36425],[1.99711,41.3642],[1.99716,41.3641],[1.99748,41.36307],[1.99743,41.36258],[1.99702,41.36218],[1.99702,41.36206],[1.99748,41.36189],[1.99847,41.36192]]]}},{"type":"Feature","properties":{"id":"0828901003"},"geometry":{"type":"Polygon","coordinates":[[[1.97739,41.35252],[1.97836,41.35261],[1.9795,41.35256],[1.97952,41.35262],[1.98047,41.35184],[1.98083,41.35166],[1.98213,41.35149],[1.98442,41.35092],[1.98456,41.35025],[1.98494,41.3496],[1.9849,41.34902],[1.9841,41.34677],[1.98409,41.34621],[1.98379,41.34517],[1.98379,41.34435],[1.98108,41.34355],[1.97962,41.34298],[1.97842,41.34245],[1.97767,41.34171],[1.9761,41.34134],[1.97517,41.34124],[1.97336,41.34135],[1.97327,41.34164],[1.97337,41.34192],[1.9732,41.34223],[1.97382,41.34244],[1.9742,41.34246],[1.97443,41.34263],[1.97416,41.34301],[1.97426,41.34342],[1.97404,41.34343],[1.97354,41.34325],[1.97344,41.34298],[1.97307,41.34287],[1.97269,41.34295],[1.97294,41.34363],[1.97259,41.34412],[1.97215,41.34343],[1.9714,41.34388],[1.97121,41.34424],[1.97064,41.3444],[1.97093,41.34512],[1.97003,41.34512],[1.96984,41.34601],[1.96997,41.34615],[1.96983,41.34682],[1.96961,41.3473],[1.96918,41.34778],[1.96907,41.34868],[1.96891,41.34904],[1.96895,41.34972],[1.96927,41.35006],[1.96929,41.35022],[1.96878,41.35035],[1.96336,41.35274],[1.96148,41.35258],[1.95956,41.35192],[1.95855,41.35184],[1.95618,41.35207],[1.95414,41.35238],[1.95279,41.35269],[1.95022,41.35359],[1.94929,41.35414],[1.94863,41.35483],[1.94841,41.3552],[1.94786,41.35549],[1.94769,41.35614],[1.94878,41.35904],[1.94905,41.35965],[1.94941,41.36007],[1.94996,41.3604],[1.95183,41.36079],[1.95287,41.36119],[1.95317,41.36142],[1.9536,41.36145],[1.95397,41.36108],[1.95605,41.35987],[1.95661,41.35928],[1.9564,41.35898],[1.95589,41.35876],[1.95528,41.35809],[1.95495,41.35792],[1.95437,41.35771],[1.95393,41.3578],[1.95281,41.35725],[1.9524,41.35736],[1.95139,41.3571],[1.95168,41.35643],[1.95227,41.35614],[1.95307,41.35598],[1.95375,41.35555],[1.95379,41.35534],[1.95474,41.35542],[1.95551,41.35512],[1.95622,41.35508],[1.95723,41.3556],[1.95735,41.35583],[1.95731,41.35625],[1.95767,41.35672],[1.95874,41.35735],[1.95944,41.35752],[1.96073,41.35758],[1.96141,41.35752],[1.96224,41.35706],[1.96446,41.35662],[1.96502,41.35632],[1.96577,41.35566],[1.96648,41.35552],[1.96744,41.35516],[1.96818,41.35464],[1.96813,41.35438],[1.97109,41.35339],[1.97321,41.35291],[1.97397,41.35243],[1.97409,41.35268],[1.97467,41.35266],[1.97493,41.35197],[1.97533,41.3515],[1.97604,41.35119],[1.97633,41.35129],[1.97637,41.35146],[1.977,41.3515],[1.97696,41.35171],[1.97736,41.35222],[1.97739,41.35252]]]}},{"type":"Feature","properties":{"id":"0828901004"},"geometry":{"type":"Polygon","coordinates":[[[1.98236,41.35263],[1.98154,41.35283],[1.98131,41.35335],[1.9814,41.35362],[1.98122,41.35416],[1.97898,41.35584],[1.97904,41.35597],[1.97976,41.35628],[1.98016,41.35607],[1.98068,41.35661],[1.98089,41.35721],[1.98108,41.3588],[1.98153,41.35898],[1.98195,41.35933],[1.9821,41.35924],[1.98297,41.3593],[1.98323,41.35994],[1.98352,41.36024],[1.98398,41.36025],[1.98415,41.3596],[1.98431,41.35794],[1.98464,41.35737],[1.98469,41.35595],[1.98441,41.35516],[1.98402,41.35462],[1.9823,41.35366],[1.98223,41.35346],[1.98236,41.35263]]]}}]}