{"type":"FeatureCollection","features":[{"type":"Feature","properties":{"id":"0828601001"},"geometry":{"type":"Polygon","coordinates":[[[1.70226,41.54166],[1.70222,41.54129],[1.69029,41.5358],[1.6895,41.53764],[1.68601,41.53761],[1.68297,41.53482],[1.67671,41.53105],[1.67765,41.52965],[1.6765,41.53013],[1.67572,41.52904],[1.67795,41.52798],[1.6789,41.52721],[1.67946,41.5267],[1.68058,41.52489],[1.63975,41.51995],[1.64566,41.5318],[1.64625,41.53153],[1.64687,41.53106],[1.64712,41.53105],[1.64756,41.53122],[1.64744,41.53214],[1.64755,41.53236],[1.64848,41.53297],[1.6507,41.53507],[1.65104,41.53526],[1.65179,41.53651],[1.65233,41.53703],[1.65291,41.53789],[1.65288,41.53812],[1.65271,41.53831],[1.65181,41.53893],[1.65198,41.53926],[1.65252,41.53943],[1.65296,41.53946],[1.65508,41.5391],[1.65577,41.5395],[1.65631,41.5406],[1.6565,41.54068],[1.65673,41.54068],[1.65698,41.54054],[1.6574,41.54009],[1.65814,41.53973],[1.65891,41.53964],[1.65991,41.54039],[1.66059,41.5407],[1.66091,41.54077],[1.66256,41.54068],[1.66295,41.54089],[1.66298,41.54157],[1.66287,41.54205],[1.66248,41.54296],[1.66266,41.54378],[1.66291,41.54398],[1.66332,41.54412],[1.66416,41.54418],[1.66604,41.5433],[1.6781,41.54324],[1.68806,41.54501],[1.68802,41.54445],[1.6982,41.54472],[1.69859,41.54462],[1.69938,41.54392],[1.69968,41.54319],[1.70085,41.54224],[1.70226,41.54166]]]}},{"type":"Feature","properties":{"id":"0828601002"},"geometry":{"type":"Polygon","coordinates":[[[1.61672,41.51313],[1.6151,41.51335],[1.61462,41.51325],[1.61661,41.51688],[1.61598,41.51949],[1.62473,41.51857],[1.63975,41.51995],[1.68059,41.52489],[1.68063,41.52478],[1.6807,41.52441],[1.68062,41.52397],[1.68015,41.52359],[1.68033,41.52331],[1.6794,41.52286],[1.67927,41.52262],[1.67879,41.5227],[1.67844,41.52265],[1.67764,41.52239],[1.6769,41.52116],[1.67693,41.52061],[1.6772,41.52018],[1.67718,41.51999],[1.67592,41.51879],[1.67588,41.51847],[1.67613,41.51808],[1.67609,41.51794],[1.67508,41.51696],[1.67971,41.5137],[1.67972,41.51387],[1.68043,41.5134],[1.67996,41.51241],[1.67987,41.51122],[1.68001,41.51062],[1.68065,41.51018],[1.68096,41.50849],[1.68063,41.50754],[1.68022,41.50716],[1.66853,41.50873],[1.66591,41.50679],[1.64624,41.50674],[1.64216,41.50659],[1.63777,41.5079],[1.63662,41.50766],[1.63619,41.50783],[1.63537,41.50717],[1.63417,41.50741],[1.63288,41.50801],[1.63048,41.50825],[1.62996,41.50819],[1.62873,41.50842],[1.62761,41.50893],[1.62042,41.51101],[1.61976,41.51131],[1.61916,41.51178],[1.61744,41.51266],[1.61672,41.51313]]]}}]}