{"type":"FeatureCollection","features":[{"type":"Feature","properties":{"id":"0828301001"},"geometry":{"type":"Polygon","coordinates":[[[2.23398,41.8463],[2.23391,41.84594],[2.23216,41.84618],[2.23081,41.84649],[2.22985,41.84631],[2.22861,41.84753],[2.2284,41.84756],[2.22829,41.84771],[2.22799,41.84859],[2.22804,41.84917],[2.22688,41.84941],[2.22431,41.85051],[2.22874,41.85342],[2.23078,41.84924],[2.23398,41.8463]]]}},{"type":"Feature","properties":{"id":"0828301002"},"geometry":{"type":"MultiPolygon","coordinates":[[[[2.23024,41.87524],[2.2318,41.87524],[2.23204,41.8756],[2.23731,41.87524],[2.2419,41.8739],[2.24355,41.8727],[2.24334,41.86811],[2.24382,41.86797],[2.24459,41.86563],[2.24587,41.8662],[2.24641,41.86563],[2.24363,41.86185],[2.24451,41.86039],[2.24719,41.85447],[2.24123,41.85003],[2.23771,41.85053],[2.23717,41.85193],[2.23744,41.85436],[2.23567,41.85456],[2.23439,41.85386],[2.23195,41.8539],[2.22868,41.85355],[2.22874,41.85342],[2.22431,41.85051],[2.22336,41.8495],[2.22271,41.84783],[2.22176,41.84395],[2.22102,41.84333],[2.22061,41.84366],[2.21947,41.84342],[2.21983,41.84249],[2.21962,41.84153],[2.2191,41.84138],[2.21881,41.83753],[2.21763,41.83555],[2.21671,41.83556],[2.21075,41.83706],[2.21078,41.83729],[2.2106,41.8374],[2.2104,41.83744],[2.21012,41.83767],[2.20918,41.83797],[2.20883,41.838],[2.20831,41.83787],[2.20756,41.83808],[2.20745,41.83803],[2.2074,41.83779],[2.20723,41.83776],[2.20665,41.838],[2.20588,41.83774],[2.20555,41.8379],[2.2053,41.83839],[2.20416,41.83831],[2.20387,41.83803],[2.2036,41.83793],[2.20313,41.83803],[2.20279,41.83799],[2.20255,41.83811],[2.20246,41.83827],[2.20202,41.83836],[2.19955,41.83799],[2.19942,41.83778],[2.19923,41.8377],[2.19843,41.83754],[2.19776,41.83727],[2.19745,41.83648],[2.19678,41.83615],[2.19374,41.83863],[2.19236,41.83788],[2.18903,41.844],[2.19028,41.8466],[2.19033,41.84932],[2.18657,41.85974],[2.18725,41.86114],[2.18808,41.86223],[2.18845,41.86361],[2.18883,41.86414],[2.19083,41.86429],[2.19204,41.86618],[2.19268,41.86644],[2.19393,41.8674],[2.19605,41.86791],[2.19804,41.86797],[2.19884,41.86822],[2.19942,41.86906],[2.20056,41.86907],[2.20373,41.87014],[2.20473,41.87022],[2.20526,41.87012],[2.20718,41.86855],[2.20815,41.86806],[2.20875,41.86798],[2.20911,41.86771],[2.20968,41.86751],[2.21053,41.86735],[2.2107,41.86743],[2.21178,41.8674],[2.21247,41.8678],[2.2127,41.86818],[2.21418,41.86804],[2.21503,41.8682],[2.2153,41.86849],[2.21561,41.86836],[2.21695,41.86877],[2.21748,41.86875],[2.21887,41.86896],[2.22638,41.87229],[2.22745,41.87204],[2.23089,41.87324],[2.23037,41.87406],[2.23024,41.87524]]],[[[2.26214,41.86408],[2.26282,41.86499],[2.26153,41.86493],[2.26195,41.86668],[2.26065,41.86755],[2.26208,41.86846],[2.26242,41.86906],[2.2655,41.8672],[2.26859,41.87083],[2.27124,41.87203],[2.2729,41.87049],[2.27262,41.86872],[2.27345,41.86582],[2.27408,41.86534],[2.27361,41.86461],[2.27435,41.8643],[2.27601,41.86149],[2.27451,41.86142],[2.27368,41.86073],[2.27214,41.86073],[2.27138,41.85997],[2.27263,41.85996],[2.27131,41.85792],[2.27274,41.85773],[2.27274,41.85745],[2.2709,41.85723],[2.27053,41.85655],[2.26948,41.85696],[2.26718,41.85932],[2.26707,41.86033],[2.26534,41.86178],[2.26544,41.86318],[2.26287,41.86423],[2.26214,41.86408]]],[[[2.26042,41.86387],[2.26214,41.86408],[2.26156,41.86284],[2.25973,41.86248],[2.25932,41.86346],[2.26042,41.86387]]]]}},{"type":"Feature","properties":{"id":"0828301003"},"geometry":{"type":"Polygon","coordinates":[[[2.23391,41.84594],[2.23282,41.84408],[2.23255,41.8443],[2.23216,41.84422],[2.23126,41.84427],[2.22926,41.8439],[2.22871,41.84389],[2.2283,41.84397],[2.22764,41.84357],[2.22684,41.84323],[2.22634,41.8422],[2.22664,41.84031],[2.22649,41.8391],[2.22688,41.83553],[2.22553,41.83566],[2.22428,41.83555],[2.21763,41.83555],[2.21881,41.83753],[2.2191,41.84138],[2.21962,41.84153],[2.21983,41.84249],[2.21947,41.84342],[2.22061,41.84366],[2.22102,41.84333],[2.22176,41.84395],[2.22298,41.8486],[2.22336,41.8495],[2.22392,41.85016],[2.22436,41.8505],[2.22688,41.84941],[2.22804,41.84917],[2.22799,41.84859],[2.22829,41.84771],[2.2284,41.84756],[2.22861,41.84753],[2.22985,41.84631],[2.23081,41.84649],[2.23216,41.84618],[2.23391,41.84594]]]}},{"type":"Feature","properties":{"id":"0828301004"},"geometry":{"type":"Polygon","coordinates":[[[2.23771,41.85053],[2.23735,41.85066],[2.23664,41.85009],[2.23613,41.84908],[2.23556,41.84823],[2.23437,41.84706],[2.23408,41.84689],[2.23398,41.8463],[2.23078,41.84924],[2.22868,41.85355],[2.23195,41.8539],[2.23439,41.85386],[2.23567,41.85456],[2.23744,41.85436],[2.23717,41.85193],[2.23771,41.85053]]]}}]}