{"type":"FeatureCollection","features":[{"type":"Feature","properties":{"id":"0890401001"},"geometry":{"type":"Polygon","coordinates":[[[2.12288,41.50413],[2.12063,41.50266],[2.11933,41.50321],[2.11672,41.50382],[2.11691,41.50595],[2.11746,41.50633],[2.11784,41.50632],[2.11885,41.50565],[2.11969,41.50631],[2.12288,41.50413]]]}},{"type":"Feature","properties":{"id":"0890401002"},"geometry":{"type":"Polygon","coordinates":[[[2.11584,41.50668],[2.11631,41.50643],[2.11648,41.50644],[2.11663,41.50616],[2.11721,41.50616],[2.11691,41.50595],[2.11672,41.50382],[2.11572,41.50407],[2.1136,41.50427],[2.11564,41.50592],[2.11435,41.50601],[2.11478,41.50656],[2.11513,41.50667],[2.11577,41.50656],[2.11584,41.50668]]]}},{"type":"Feature","properties":{"id":"0890401003"},"geometry":{"type":"Polygon","coordinates":[[[2.1147,41.50646],[2.11435,41.50601],[2.11564,41.50592],[2.1136,41.50427],[2.11198,41.50459],[2.11258,41.5068],[2.11423,41.5066],[2.1147,41.50646]]]}},{"type":"Feature","properties":{"id":"0890401004"},"geometry":{"type":"Polygon","coordinates":[[[2.11321,41.50989],[2.11688,41.50721],[2.11621,41.5067],[2.11594,41.50662],[2.11584,41.50668],[2.11577,41.50656],[2.11513,41.50667],[2.1147,41.50646],[2.11423,41.5066],[2.11258,41.5068],[2.11198,41.50459],[2.11076,41.50481],[2.10997,41.50521],[2.10958,41.50561],[2.10942,41.50635],[2.11027,41.5076],[2.11321,41.50989]]]}},{"type":"Feature","properties":{"id":"0890401005"},"geometry":{"type":"Polygon","coordinates":[[[2.10759,41.50755],[2.10554,41.50871],[2.10872,41.50935],[2.10948,41.50894],[2.1108,41.50993],[2.1121,41.50902],[2.11027,41.5076],[2.10942,41.50635],[2.10861,41.50673],[2.10759,41.50755]]]}},{"type":"Feature","properties":{"id":"0890401006"},"geometry":{"type":"Polygon","coordinates":[[[2.1113,41.51237],[2.11283,41.51123],[2.11336,41.51113],[2.11411,41.5106],[2.11363,41.51022],[2.11403,41.50993],[2.11391,41.50984],[2.11452,41.50939],[2.11425,41.50915],[2.11321,41.50989],[2.1121,41.50902],[2.1108,41.50993],[2.10948,41.50894],[2.10894,41.5104],[2.10916,41.51041],[2.10934,41.51078],[2.1098,41.51128],[2.11036,41.5115],[2.11073,41.51154],[2.1113,41.51237]]]}},{"type":"Feature","properties":{"id":"0890401007"},"geometry":{"type":"Polygon","coordinates":[[[2.11144,41.51229],[2.11261,41.51382],[2.11264,41.51419],[2.11196,41.51578],[2.11188,41.51624],[2.11201,41.51709],[2.11287,41.51755],[2.11602,41.5151],[2.11573,41.51465],[2.11352,41.51388],[2.1132,41.51351],[2.11331,41.51256],[2.11617,41.51056],[2.11603,41.51023],[2.11607,41.50996],[2.1159,41.50993],[2.11451,41.51091],[2.11411,41.5106],[2.11336,41.51113],[2.11283,41.51123],[2.11144,41.51229]]]}},{"type":"Feature","properties":{"id":"0890401008"},"geometry":{"type":"Polygon","coordinates":[[[2.1159,41.50993],[2.1162,41.50992],[2.11632,41.50946],[2.11653,41.50917],[2.11632,41.50883],[2.11586,41.50917],[2.11535,41.50878],[2.11515,41.50892],[2.11487,41.50869],[2.11425,41.50915],[2.11452,41.50939],[2.11391,41.50984],[2.11403,41.50993],[2.11363,41.51022],[2.11451,41.51091],[2.1159,41.50993]]]}},{"type":"Feature","properties":{"id":"0890401009"},"geometry":{"type":"Polygon","coordinates":[[[2.11872,41.50865],[2.11769,41.50784],[2.11632,41.50883],[2.11653,41.50917],[2.11632,41.50946],[2.1162,41.50992],[2.11601,41.51007],[2.11617,41.51056],[2.11872,41.50865]]]}},{"type":"Feature","properties":{"id":"0890401010"},"geometry":{"type":"Polygon","coordinates":[[[2.11586,41.50917],[2.11769,41.50784],[2.11699,41.50729],[2.11756,41.50674],[2.11746,41.50633],[2.11721,41.50616],[2.11663,41.50616],[2.11648,41.50644],[2.11631,41.50643],[2.11594,41.50662],[2.11629,41.50675],[2.11688,41.50721],[2.11487,41.50869],[2.11515,41.50892],[2.11535,41.50878],[2.11586,41.50917]]]}},{"type":"Feature","properties":{"id":"0890401011"},"geometry":{"type":"Polygon","coordinates":[[[2.12,41.5077],[2.11944,41.50728],[2.11836,41.50697],[2.1178,41.5067],[2.11756,41.50674],[2.11699,41.50729],[2.11872,41.50865],[2.12,41.5077]]]}},{"type":"Feature","properties":{"id":"0890401012"},"geometry":{"type":"Polygon","coordinates":[[[2.12531,41.50703],[2.12629,41.50601],[2.12288,41.50413],[2.11969,41.50631],[2.11885,41.50565],[2.11796,41.50629],[2.11743,41.50633],[2.11756,41.50674],[2.11785,41.50671],[2.11836,41.50697],[2.11937,41.50724],[2.12,41.5077],[2.12269,41.50569],[2.12303,41.50552],[2.12334,41.50612],[2.12392,41.50664],[2.12531,41.50703]]]}}]}