{"type":"FeatureCollection","features":[{"type":"Feature","properties":{"id":"0921901001"},"geometry":{"type":"Polygon","coordinates":[[[-2.95573,42.68875],[-2.95425,42.68678],[-2.95374,42.68644],[-2.95341,42.68597],[-2.95248,42.68528],[-2.95009,42.68231],[-2.94953,42.6818],[-2.94882,42.68134],[-2.94796,42.68098],[-2.94795,42.68124],[-2.94399,42.67999],[-2.94184,42.67955],[-2.94193,42.67844],[-2.94105,42.67805],[-2.94028,42.67742],[-2.94267,42.67684],[-2.94507,42.67641],[-2.94563,42.67612],[-2.94758,42.67763],[-2.95037,42.67751],[-2.9505,42.67819],[-2.94927,42.67845],[-2.94976,42.679],[-2.94957,42.67915],[-2.95017,42.67951],[-2.95039,42.67943],[-2.95109,42.67979],[-2.9518,42.6793],[-2.95376,42.67907],[-2.95394,42.6807],[-2.9559,42.6798],[-2.95617,42.67996],[-2.95585,42.68025],[-2.95593,42.68049],[-2.95642,42.68043],[-2.95691,42.68152],[-2.95657,42.68164],[-2.95632,42.68245],[-2.95805,42.68172],[-2.95945,42.6813],[-2.96267,42.6806],[-2.96431,42.6805],[-2.96572,42.67945],[-2.96804,42.67732],[-2.96903,42.67668],[-2.96925,42.67641],[-2.97162,42.67676],[-2.96512,42.68052],[-2.96489,42.68074],[-2.96184,42.68162],[-2.96208,42.68198],[-2.96191,42.68203],[-2.96193,42.68224],[-2.96249,42.68271],[-2.96202,42.68299],[-2.963,42.68376],[-2.96317,42.68433],[-2.96438,42.68462],[-2.96471,42.68513],[-2.96513,42.68677],[-2.96521,42.68719],[-2.96408,42.68793],[-2.96324,42.68882],[-2.96102,42.6881],[-2.95925,42.68766],[-2.95812,42.68855],[-2.95825,42.68865],[-2.95664,42.68979],[-2.95573,42.68875]]]}},{"type":"Feature","properties":{"id":"0921902001"},"geometry":{"type":"Polygon","coordinates":[[[-2.94783,42.6854],[-2.94796,42.68098],[-2.94882,42.68134],[-2.94953,42.6818],[-2.95009,42.68231],[-2.95122,42.6838],[-2.94946,42.68435],[-2.94783,42.6854]]]}},{"type":"Feature","properties":{"id":"0921902002"},"geometry":{"type":"Polygon","coordinates":[[[-2.94822,42.68514],[-2.9496,42.68428],[-2.95122,42.6838],[-2.9523,42.68508],[-2.94954,42.68637],[-2.94822,42.68514]]]}},{"type":"Feature","properties":{"id":"0921902003"},"geometry":{"type":"Polygon","coordinates":[[[-2.95025,42.68704],[-2.94954,42.68637],[-2.9523,42.68508],[-2.95309,42.68573],[-2.95218,42.68617],[-2.95247,42.68651],[-2.95135,42.68713],[-2.95088,42.68669],[-2.95025,42.68704]]]}},{"type":"Feature","properties":{"id":"0921902004"},"geometry":{"type":"Polygon","coordinates":[[[-2.95025,42.68704],[-2.95088,42.68669],[-2.95135,42.68713],[-2.95247,42.68651],[-2.95218,42.68617],[-2.95309,42.68573],[-2.95341,42.68597],[-2.95374,42.68644],[-2.95425,42.68678],[-2.95263,42.68766],[-2.95137,42.68809],[-2.95025,42.68704]]]}},{"type":"Feature","properties":{"id":"0921902005"},"geometry":{"type":"Polygon","coordinates":[[[-2.94777,42.68644],[-2.94783,42.6854],[-2.94822,42.68514],[-2.95137,42.68809],[-2.94989,42.68854],[-2.94953,42.6881],[-2.94938,42.68811],[-2.94836,42.68682],[-2.94799,42.68647],[-2.94777,42.68644]]]}},{"type":"Feature","properties":{"id":"0921902006"},"geometry":{"type":"Polygon","coordinates":[[[-2.92996,42.69617],[-2.92873,42.69567],[-2.92846,42.69511],[-2.93526,42.69317],[-2.9365,42.69255],[-2.93847,42.69177],[-2.9513,42.68815],[-2.95263,42.68766],[-2.95425,42.68678],[-2.95521,42.68795],[-2.95573,42.68875],[-2.95725,42.69055],[-2.95821,42.69143],[-2.95763,42.69175],[-2.95745,42.69171],[-2.95732,42.69182],[-2.95699,42.69155],[-2.95685,42.69166],[-2.95544,42.69147],[-2.95543,42.69095],[-2.95508,42.69075],[-2.95448,42.68964],[-2.95214,42.69067],[-2.95281,42.69107],[-2.95278,42.69121],[-2.95316,42.69134],[-2.95337,42.6916],[-2.95351,42.69147],[-2.95375,42.69158],[-2.95348,42.69189],[-2.95378,42.69203],[-2.95363,42.69224],[-2.95379,42.69232],[-2.95334,42.69255],[-2.95404,42.69351],[-2.95464,42.69412],[-2.95463,42.69423],[-2.95596,42.69479],[-2.95598,42.69465],[-2.95768,42.69488],[-2.95794,42.69434],[-2.95914,42.69453],[-2.95875,42.69548],[-2.95813,42.69554],[-2.95705,42.69513],[-2.95698,42.69528],[-2.95716,42.69536],[-2.95653,42.69622],[-2.9336,42.69606],[-2.93376,42.69649],[-2.93334,42.69665],[-2.93287,42.69669],[-2.93271,42.69643],[-2.93147,42.69717],[-2.93144,42.69739],[-2.93119,42.69679],[-2.93087,42.69638],[-2.93019,42.69604],[-2.92996,42.69617]]]}},{"type":"Feature","properties":{"id":"0921902007"},"geometry":{"type":"Polygon","coordinates":[[[-2.94571,42.68864],[-2.94666,42.68797],[-2.94732,42.68724],[-2.94777,42.68644],[-2.94799,42.68647],[-2.94836,42.68682],[-2.94938,42.68811],[-2.94953,42.6881],[-2.94989,42.68854],[-2.94592,42.68966],[-2.94559,42.6891],[-2.94584,42.68888],[-2.94571,42.68864]]]}},{"type":"Feature","properties":{"id":"0921903001"},"geometry":{"type":"Polygon","coordinates":[[[-2.94525,42.68376],[-2.94621,42.68319],[-2.94792,42.6822],[-2.94789,42.68294],[-2.94672,42.68364],[-2.94739,42.68425],[-2.94615,42.68474],[-2.94525,42.68376]]]}},{"type":"Feature","properties":{"id":"0921903002"},"geometry":{"type":"Polygon","coordinates":[[[-2.94604,42.68657],[-2.94384,42.6846],[-2.94525,42.68376],[-2.94712,42.68591],[-2.94776,42.68647],[-2.94733,42.68722],[-2.94636,42.68638],[-2.94604,42.68657]]]}},{"type":"Feature","properties":{"id":"0921903003"},"geometry":{"type":"Polygon","coordinates":[[[-2.94323,42.68402],[-2.94716,42.68167],[-2.94793,42.68167],[-2.94792,42.6822],[-2.94385,42.68459],[-2.94323,42.68402]]]}},{"type":"Feature","properties":{"id":"0921903004"},"geometry":{"type":"Polygon","coordinates":[[[-2.93895,42.68211],[-2.93696,42.68178],[-2.93504,42.68128],[-2.9344,42.68272],[-2.93376,42.68267],[-2.93548,42.67904],[-2.93608,42.67929],[-2.937,42.67943],[-2.9411,42.67948],[-2.94235,42.67963],[-2.94511,42.68031],[-2.94652,42.68083],[-2.94795,42.68124],[-2.94793,42.68167],[-2.94716,42.68167],[-2.94385,42.68366],[-2.94007,42.68217],[-2.93947,42.6824],[-2.93895,42.68211]]]}},{"type":"Feature","properties":{"id":"0921903005"},"geometry":{"type":"Polygon","coordinates":[[[-2.94424,42.68918],[-2.94326,42.68826],[-2.94636,42.68638],[-2.94733,42.68722],[-2.9461,42.68843],[-2.94504,42.68895],[-2.94424,42.68918]]]}},{"type":"Feature","properties":{"id":"0921903006"},"geometry":{"type":"Polygon","coordinates":[[[-2.94207,42.68719],[-2.94402,42.68601],[-2.94522,42.68707],[-2.94326,42.68826],[-2.94207,42.68719]]]}},{"type":"Feature","properties":{"id":"0921903007"},"geometry":{"type":"Polygon","coordinates":[[[-2.9382,42.68446],[-2.93707,42.68342],[-2.93888,42.68229],[-2.94173,42.68488],[-2.94235,42.68451],[-2.94402,42.68601],[-2.94207,42.68719],[-2.93872,42.68416],[-2.9382,42.68446]]]}},{"type":"Feature","properties":{"id":"0921903008"},"geometry":{"type":"Polygon","coordinates":[[[-2.94105,42.68781],[-2.93768,42.68477],[-2.93708,42.68511],[-2.93629,42.68439],[-2.93743,42.68374],[-2.9382,42.68446],[-2.93872,42.68416],[-2.94207,42.68719],[-2.94105,42.68781]]]}},{"type":"Feature","properties":{"id":"0921903009"},"geometry":{"type":"Polygon","coordinates":[[[-2.94183,42.68912],[-2.93917,42.6882],[-2.94055,42.68737],[-2.94105,42.68781],[-2.94207,42.68719],[-2.94326,42.68826],[-2.94183,42.68912]]]}},{"type":"Feature","properties":{"id":"0921903010"},"geometry":{"type":"Polygon","coordinates":[[[-2.93847,42.69177],[-2.93788,42.69093],[-2.93733,42.69098],[-2.93613,42.69064],[-2.93693,42.6903],[-2.93691,42.69015],[-2.93748,42.68995],[-2.93993,42.68847],[-2.94183,42.68912],[-2.94063,42.68985],[-2.94115,42.69103],[-2.93847,42.69177]]]}},{"type":"Feature","properties":{"id":"0921903011"},"geometry":{"type":"Polygon","coordinates":[[[-2.93951,42.688],[-2.93549,42.68448],[-2.93711,42.68346],[-2.93743,42.68374],[-2.93629,42.68439],[-2.93708,42.68511],[-2.93768,42.68477],[-2.94055,42.68737],[-2.93951,42.688]]]}},{"type":"Feature","properties":{"id":"0921903012"},"geometry":{"type":"Polygon","coordinates":[[[-2.93917,42.6882],[-2.93459,42.68668],[-2.93353,42.68632],[-2.93761,42.68628],[-2.93951,42.688],[-2.93917,42.6882]]]}},{"type":"Feature","properties":{"id":"0921903013"},"geometry":{"type":"Polygon","coordinates":[[[-2.93748,42.68995],[-2.93691,42.69015],[-2.93693,42.6903],[-2.93613,42.69064],[-2.93486,42.68995],[-2.93475,42.68998],[-2.93489,42.68987],[-2.93433,42.68942],[-2.9374,42.68761],[-2.93993,42.68847],[-2.93748,42.68995]]]}},{"type":"Feature","properties":{"id":"0921903014"},"geometry":{"type":"Polygon","coordinates":[[[-2.9374,42.68761],[-2.93433,42.68942],[-2.93349,42.68879],[-2.93085,42.6862],[-2.93117,42.68559],[-2.93172,42.68569],[-2.9374,42.68761]]]}},{"type":"Feature","properties":{"id":"0921903015"},"geometry":{"type":"Polygon","coordinates":[[[-2.94615,42.68474],[-2.94739,42.68425],[-2.94672,42.68364],[-2.94789,42.68294],[-2.94776,42.68647],[-2.94712,42.68591],[-2.94615,42.68474]]]}},{"type":"Feature","properties":{"id":"0921903016"},"geometry":{"type":"Polygon","coordinates":[[[-2.94522,42.68707],[-2.94235,42.68451],[-2.94173,42.68488],[-2.93863,42.68205],[-2.93895,42.68211],[-2.93947,42.6824],[-2.94007,42.68217],[-2.94385,42.68366],[-2.94323,42.68402],[-2.94604,42.68657],[-2.94522,42.68707]]]}},{"type":"Feature","properties":{"id":"0921903017"},"geometry":{"type":"Polygon","coordinates":[[[-2.94063,42.68985],[-2.94326,42.68826],[-2.94424,42.68918],[-2.94521,42.68889],[-2.94571,42.68864],[-2.94584,42.68888],[-2.94559,42.6891],[-2.94592,42.68966],[-2.94115,42.69103],[-2.94063,42.68985]]]}},{"type":"Feature","properties":{"id":"0921903018"},"geometry":{"type":"Polygon","coordinates":[[[-2.93271,42.68603],[-2.9354,42.68439],[-2.93756,42.68627],[-2.93353,42.68632],[-2.93271,42.68603]]]}},{"type":"Feature","properties":{"id":"0921904001"},"geometry":{"type":"Polygon","coordinates":[[[-2.94893,42.70988],[-2.94045,42.70879],[-2.93849,42.7084],[-2.93202,42.70848],[-2.93058,42.70822],[-2.93021,42.70803],[-2.92803,42.70476],[-2.92893,42.70303],[-2.92964,42.70215],[-2.93048,42.70059],[-2.93053,42.69995],[-2.93032,42.69966],[-2.9295,42.69996],[-2.92246,42.70114],[-2.92166,42.70119],[-2.92159,42.70106],[-2.93019,42.69604],[-2.93071,42.69626],[-2.931,42.69651],[-2.93144,42.69739],[-2.93147,42.69717],[-2.93271,42.69643],[-2.93287,42.69669],[-2.93334,42.69665],[-2.93376,42.69649],[-2.9336,42.69606],[-2.95653,42.69622],[-2.95716,42.69536],[-2.95698,42.69528],[-2.95705,42.69513],[-2.95813,42.69554],[-2.95875,42.69548],[-2.95914,42.69453],[-2.95794,42.69434],[-2.95768,42.69488],[-2.95598,42.69465],[-2.95596,42.69479],[-2.95463,42.69423],[-2.95464,42.69412],[-2.95404,42.69351],[-2.95334,42.69255],[-2.95379,42.69232],[-2.95363,42.69224],[-2.95378,42.69203],[-2.95348,42.69189],[-2.95375,42.69158],[-2.95351,42.69147],[-2.95337,42.6916],[-2.95316,42.69134],[-2.95278,42.69121],[-2.95281,42.69107],[-2.95214,42.69067],[-2.95448,42.68964],[-2.95508,42.69075],[-2.95543,42.69095],[-2.95544,42.69147],[-2.95685,42.69166],[-2.95699,42.69155],[-2.95732,42.69182],[-2.95745,42.69171],[-2.95763,42.69175],[-2.95821,42.69143],[-2.95725,42.69055],[-2.95664,42.68979],[-2.95825,42.68865],[-2.95812,42.68855],[-2.95925,42.68766],[-2.96102,42.6881],[-2.96324,42.68882],[-2.96408,42.68793],[-2.96521,42.68719],[-2.96471,42.68513],[-2.96429,42.68459],[-2.9646,42.68434],[-2.96646,42.68447],[-2.96843,42.68447],[-2.96929,42.68436],[-2.97092,42.68398],[-2.97293,42.68318],[-2.97496,42.6817],[-2.97573,42.68075],[-2.97613,42.67993],[-2.97659,42.67833],[-2.9771,42.67172],[-2.97696,42.67061],[-2.97664,42.66947],[-2.97514,42.66626],[-2.97527,42.66628],[-2.97419,42.66379],[-2.97403,42.66268],[-2.97432,42.66136],[-2.97513,42.66023],[-2.97743,42.65822],[-2.97811,42.65738],[-2.97874,42.65583],[-2.9794,42.65317],[-2.98031,42.65153],[-2.98106,42.65067],[-2.98198,42.65],[-2.98285,42.64957],[-2.98963,42.64696],[-2.99115,42.64664],[-2.99232,42.64656],[-2.99338,42.64668],[-2.99453,42.647],[-2.99572,42.64747],[-2.99708,42.64817],[-3.00104,42.65061],[-3.00219,42.65104],[-3.00403,42.65139],[-3.00394,42.65173],[-3.00557,42.65189],[-3.00603,42.65206],[-3.00637,42.65279],[-3.00526,42.65722],[-3.00642,42.65983],[-3.00757,42.66017],[-3.00808,42.66048],[-3.00834,42.66419],[-3.00867,42.66456],[-3.00869,42.66516],[-3.00842,42.66687],[-3.00842,42.66877],[-3.00969,42.67086],[-3.01217,42.67125],[-3.01376,42.67125],[-3.01695,42.67398],[-3.01843,42.67589],[-3.01922,42.67673],[-3.0207,42.67767],[-3.02149,42.67791],[-3.02442,42.67482],[-3.02583,42.67465],[-3.02991,42.67357],[-3.03068,42.67415],[-3.03173,42.67533],[-3.03236,42.67584],[-3.03311,42.67584],[-3.03475,42.67605],[-3.03925,42.67699],[-3.04115,42.6775],[-3.04188,42.67757],[-3.04399,42.67752],[-3.04584,42.67733],[-3.05203,42.67585],[-3.05325,42.67588],[-3.05368,42.68066],[-3.05401,42.68221],[-3.05554,42.68649],[-3.05567,42.68725],[-3.05559,42.68977],[-3.05524,42.69229],[-3.05439,42.69496],[-3.05301,42.6979],[-3.05206,42.69925],[-3.05053,42.69968],[-3.04948,42.70014],[-3.04703,42.70153],[-3.04573,42.70203],[-3.0446,42.70259],[-3.04174,42.70479],[-3.03769,42.70479],[-3.03686,42.70495],[-3.03513,42.7057],[-3.03059,42.707],[-3.02955,42.70718],[-3.027,42.70681],[-3.02481,42.70676],[-3.02436,42.70631],[-3.01819,42.70618],[-3.0133,42.70481],[-3.01381,42.70527],[-3.01553,42.70594],[-3.01692,42.70661],[-3.01988,42.70765],[-3.02089,42.70783],[-3.02161,42.70807],[-3.02503,42.70943],[-3.02623,42.71036],[-3.02858,42.71309],[-3.02943,42.71465],[-3.03013,42.71528],[-3.03136,42.71893],[-3.03204,42.72012],[-3.03275,42.72094],[-3.03541,42.72354],[-3.03653,42.72443],[-3.03681,42.72494],[-3.03887,42.72736],[-3.04018,42.72931],[-3.04272,42.7322],[-3.04283,42.73461],[-3.04314,42.73561],[-3.042,42.73637],[-3.04154,42.73701],[-3.04124,42.73782],[-3.04077,42.73849],[-3.04024,42.7383],[-3.03693,42.73788],[-3.03454,42.73726],[-3.03306,42.73707],[-3.02938,42.73793],[-3.02364,42.7397],[-3.02231,42.73999],[-3.02017,42.74075],[-3.01783,42.74123],[-3.01696,42.74108],[-3.01633,42.74049],[-3.01648,42.73907],[-3.01669,42.73825],[-3.01683,42.73546],[-3.01632,42.73389],[-3.01556,42.73332],[-3.01482,42.73307],[-3.01421,42.733],[-3.01236,42.73302],[-3.00937,42.73373],[-3.00715,42.73366],[-3.00654,42.73338],[-3.00622,42.73309],[-3.00585,42.73246],[-3.0059,42.73197],[-3.00624,42.7312],[-3.00666,42.73055],[-3.00719,42.73004],[-3.00771,42.72969],[-3.01079,42.72846],[-3.01115,42.72823],[-3.01124,42.72782],[-3.01099,42.72725],[-3.00953,42.72511],[-3.00835,42.72391],[-3.00746,42.72322],[-3.00653,42.72297],[-3.00556,42.72284],[-3.00169,42.7226],[-3.00072,42.72239],[-2.99432,42.72154],[-2.99062,42.72008],[-2.98937,42.71927],[-2.98902,42.71882],[-2.98868,42.71546],[-2.98763,42.71059],[-2.98701,42.70885],[-2.98554,42.70753],[-2.98209,42.70522],[-2.98096,42.7043],[-2.98064,42.70382],[-2.97399,42.70868],[-2.96688,42.70806],[-2.96506,42.70811],[-2.96345,42.70802],[-2.95637,42.71039],[-2.94893,42.70988]]]}},{"type":"Feature","properties":{"id":"0921904002"},"geometry":{"type":"MultiPolygon","coordinates":[[[[-2.90243,42.69213],[-2.90378,42.68642],[-2.90274,42.68505],[-2.9014,42.68258],[-2.89804,42.6823],[-2.89629,42.68066],[-2.89506,42.67931],[-2.89606,42.67887],[-2.89636,42.67855],[-2.89736,42.6764],[-2.89969,42.67337],[-2.8999,42.67295],[-2.89953,42.67225],[-2.89772,42.67041],[-2.89724,42.66971],[-2.89729,42.6694],[-2.89745,42.66912],[-2.89784,42.66887],[-2.9007,42.66781],[-2.90007,42.6668],[-2.89947,42.66547],[-2.89765,42.66122],[-2.89687,42.65911],[-2.89634,42.65556],[-2.89606,42.65503],[-2.89572,42.65464],[-2.89494,42.65414],[-2.89045,42.65148],[-2.88996,42.65097],[-2.88913,42.64923],[-2.88873,42.64892],[-2.87643,42.64407],[-2.87448,42.64303],[-2.8737,42.64239],[-2.8728,42.64108],[-2.87171,42.64017],[-2.87022,42.63938],[-2.86906,42.63892],[-2.86807,42.63872],[-2.86677,42.63862],[-2.86128,42.63909],[-2.86004,42.63904],[-2.85892,42.63881],[-2.85809,42.6382],[-2.85639,42.63746],[-2.85809,42.6382],[-2.8596,42.63649],[-2.86408,42.63326],[-2.86823,42.63293],[-2.8763,42.631],[-2.88171,42.62672],[-2.88353,42.62443],[-2.88223,42.62118],[-2.88214,42.62073],[-2.88028,42.61884],[-2.88214,42.62073],[-2.88367,42.6208],[-2.88829,42.62131],[-2.894,42.62133],[-2.89048,42.62573],[-2.89149,42.62635],[-2.89178,42.62727],[-2.89275,42.62771],[-2.89463,42.62767],[-2.89736,42.62741],[-2.89988,42.62733],[-2.90162,42.62673],[-2.90446,42.62649],[-2.90539,42.6238],[-2.90444,42.62016],[-2.9087,42.62052],[-2.90979,42.62002],[-2.91096,42.61977],[-2.91205,42.61998],[-2.91312,42.62007],[-2.91387,42.61999],[-2.91483,42.61967],[-2.91601,42.61952],[-2.92049,42.62046],[-2.92313,42.62146],[-2.9242,42.62173],[-2.92605,42.62305],[-2.92584,42.62518],[-2.92896,42.62839],[-2.93063,42.63033],[-2.93347,42.6345],[-2.93387,42.63474],[-2.9451,42.63892],[-2.94645,42.63932],[-2.94713,42.63934],[-2.95264,42.63856],[-2.95621,42.63904],[-2.95759,42.6394],[-2.9656,42.6406],[-2.96993,42.6406],[-2.97039,42.6411],[-2.97102,42.641],[-2.9718,42.64058],[-2.97588,42.63916],[-2.97645,42.6388],[-2.97719,42.63752],[-2.97791,42.63661],[-2.98003,42.63532],[-2.98057,42.63522],[-2.98596,42.63633],[-2.98636,42.63668],[-2.98894,42.64154],[-2.98935,42.642],[-2.98995,42.64233],[-2.9905,42.64243],[-2.99512,42.64194],[-2.99723,42.64214],[-2.99913,42.64254],[-3.00124,42.64312],[-3.00476,42.64427],[-3.00461,42.64474],[-3.00401,42.64565],[-3.00379,42.64628],[-3.00471,42.64872],[-3.00403,42.65139],[-3.00219,42.65104],[-3.00104,42.65061],[-2.99795,42.64866],[-2.99536,42.64731],[-2.99373,42.64676],[-2.99232,42.64656],[-2.99115,42.64664],[-2.98909,42.64715],[-2.98285,42.64957],[-2.98198,42.65],[-2.98106,42.65067],[-2.98031,42.65153],[-2.9794,42.65317],[-2.97874,42.65583],[-2.97828,42.65711],[-2.97743,42.65822],[-2.97493,42.66046],[-2.97432,42.66136],[-2.97411,42.66212],[-2.97405,42.66313],[-2.97425,42.66401],[-2.97527,42.66628],[-2.97514,42.66626],[-2.97664,42.66947],[-2.97696,42.67061],[-2.9771,42.67172],[-2.97693,42.6737],[-2.97167,42.67677],[-2.96925,42.67641],[-2.96903,42.67668],[-2.96804,42.67732],[-2.96572,42.67945],[-2.96431,42.6805],[-2.96267,42.6806],[-2.95945,42.6813],[-2.95805,42.68172],[-2.95632,42.68245],[-2.95657,42.68164],[-2.95691,42.68152],[-2.95642,42.68043],[-2.95593,42.68049],[-2.95585,42.68025],[-2.95617,42.67996],[-2.9559,42.6798],[-2.95394,42.6807],[-2.95376,42.67907],[-2.9518,42.6793],[-2.95109,42.67979],[-2.95039,42.67943],[-2.95017,42.67951],[-2.94957,42.67915],[-2.94976,42.679],[-2.94927,42.67845],[-2.9505,42.67819],[-2.95037,42.67751],[-2.94758,42.67763],[-2.94563,42.67612],[-2.94507,42.67641],[-2.94267,42.67684],[-2.94028,42.67742],[-2.94105,42.67805],[-2.94193,42.67844],[-2.94184,42.67955],[-2.937,42.67943],[-2.93608,42.67929],[-2.93548,42.67904],[-2.93376,42.68267],[-2.9344,42.68272],[-2.93504,42.68128],[-2.93696,42.68178],[-2.93863,42.68205],[-2.93888,42.68229],[-2.9355,42.68447],[-2.9354,42.68439],[-2.93271,42.68603],[-2.93117,42.68559],[-2.93085,42.6862],[-2.93349,42.68879],[-2.93489,42.68987],[-2.93475,42.68998],[-2.93486,42.68995],[-2.93614,42.69064],[-2.93733,42.69098],[-2.93788,42.69093],[-2.93847,42.69177],[-2.9365,42.69255],[-2.93526,42.69317],[-2.92846,42.69511],[-2.92873,42.69567],[-2.92996,42.69617],[-2.92159,42.70106],[-2.92166,42.70119],[-2.92125,42.7004],[-2.9185,42.69792],[-2.91764,42.69753],[-2.91633,42.69733],[-2.9109,42.69608],[-2.90957,42.69569],[-2.90739,42.69565],[-2.90635,42.69459],[-2.90691,42.69419],[-2.9025,42.6936],[-2.90243,42.69213]]],[[[-2.93038,42.59563],[-2.93626,42.5941],[-2.93918,42.59429],[-2.9396,42.59446],[-2.9404,42.59566],[-2.94279,42.59798],[-2.94312,42.59852],[-2.94497,42.60357],[-2.94521,42.60389],[-2.94376,42.60557],[-2.94234,42.60658],[-2.94054,42.60704],[-2.94026,42.60728],[-2.938,42.60984],[-2.93518,42.61355],[-2.9345,42.61408],[-2.93217,42.61291],[-2.92974,42.61122],[-2.92955,42.61069],[-2.92956,42.60625],[-2.92263,42.60083],[-2.92766,42.59614],[-2.93038,42.59563]]],[[[-2.99194,42.60456],[-2.99427,42.60358],[-2.99472,42.60392],[-2.99716,42.6021],[-2.99827,42.60145],[-2.99938,42.60095],[-2.99801,42.60333],[-2.99805,42.60508],[-2.99787,42.60543],[-2.99628,42.60689],[-2.99442,42.60948],[-2.99409,42.61045],[-2.99476,42.61258],[-2.99485,42.61337],[-2.99452,42.61549],[-2.98645,42.61475],[-2.98522,42.61422],[-2.98455,42.61309],[-2.98286,42.6108],[-2.98577,42.60985],[-2.98643,42.60839],[-2.98611,42.60736],[-2.98625,42.60705],[-2.98897,42.60557],[-2.99097,42.60481],[-2.99194,42.60456]]]]}},{"type":"Feature","properties":{"id":"0921904003"},"geometry":{"type":"Polygon","coordinates":[[[-2.96512,42.68052],[-2.97688,42.67373],[-2.97691,42.67482],[-2.97673,42.67704],[-2.97642,42.67911],[-2.97573,42.68075],[-2.97496,42.6817],[-2.97293,42.68318],[-2.97092,42.68398],[-2.96929,42.68436],[-2.96755,42.68449],[-2.9646,42.68434],[-2.96429,42.68459],[-2.96317,42.68433],[-2.963,42.68376],[-2.96202,42.68299],[-2.96249,42.68271],[-2.96193,42.68224],[-2.96191,42.68203],[-2.96208,42.68198],[-2.96184,42.68162],[-2.96489,42.68074],[-2.96512,42.68052]]]}}]}