{"type":"FeatureCollection","features":[{"type":"Feature","properties":{"id":"1001801001"},"geometry":{"type":"Polygon","coordinates":[[[-6.64781,39.42828],[-6.68929,39.42398],[-6.68934,39.42351],[-6.69005,39.42332],[-6.69109,39.42331],[-6.69207,39.42282],[-6.6923,39.42248],[-6.69255,39.42234],[-6.69306,39.42254],[-6.69355,39.42232],[-6.6944,39.42236],[-6.69517,39.42247],[-6.69679,39.42311],[-6.70092,39.42561],[-6.70221,39.42605],[-6.74614,39.43332],[-6.74449,39.43517],[-6.74387,39.43634],[-6.7429,39.43711],[-6.74163,39.43902],[-6.73984,39.4407],[-6.73504,39.44188],[-6.7322,39.44272],[-6.7298,39.44277],[-6.72783,39.44295],[-6.72462,39.4435],[-6.72253,39.44358],[-6.72157,39.44376],[-6.72016,39.44436],[-6.71849,39.44478],[-6.71618,39.44554],[-6.71373,39.4466],[-6.71142,39.44687],[-6.71013,39.44688],[-6.70799,39.44705],[-6.70718,39.44722],[-6.70544,39.44798],[-6.70323,39.44983],[-6.70244,39.45083],[-6.70209,39.45187],[-6.70214,39.45224],[-6.70201,39.45335],[-6.70174,39.4538],[-6.70166,39.45433],[-6.70185,39.45611],[-6.70098,39.45752],[-6.69925,39.4591],[-6.699,39.45965],[-6.69903,39.46018],[-6.69937,39.46072],[-6.69971,39.46103],[-6.70014,39.46188],[-6.70088,39.46244],[-6.7,39.46261],[-6.69819,39.46238],[-6.69778,39.46202],[-6.69729,39.46134],[-6.6969,39.46117],[-6.69606,39.46053],[-6.69462,39.46031],[-6.69367,39.4599],[-6.69197,39.45991],[-6.69018,39.46032],[-6.68777,39.46064],[-6.68495,39.46072],[-6.68353,39.46067],[-6.68145,39.46127],[-6.68099,39.4613],[-6.68047,39.46103],[-6.68006,39.46061],[-6.67992,39.4603],[-6.6803,39.45982],[-6.6808,39.45939],[-6.68278,39.45826],[-6.68388,39.45709],[-6.68403,39.45652],[-6.68379,39.45563],[-6.68351,39.45518],[-6.68246,39.4544],[-6.68181,39.45371],[-6.6794,39.4522],[-6.67854,39.4519],[-6.67557,39.45152],[-6.67423,39.45062],[-6.6732,39.44904],[-6.67307,39.44813],[-6.67325,39.44741],[-6.67437,39.44568],[-6.67428,39.44521],[-6.67385,39.44491],[-6.67316,39.4447],[-6.67228,39.44476],[-6.67132,39.44467],[-6.66866,39.44468],[-6.66802,39.44376],[-6.66716,39.44325],[-6.66555,39.44287],[-6.66436,39.44212],[-6.66395,39.44177],[-6.66358,39.44123],[-6.66335,39.44062],[-6.66284,39.44005],[-6.66201,39.43929],[-6.66093,39.43855],[-6.66062,39.4375],[-6.66057,39.43688],[-6.66059,39.43501],[-6.66072,39.43394],[-6.65896,39.43273],[-6.65856,39.43272],[-6.65797,39.43345],[-6.65622,39.43412],[-6.65545,39.4343],[-6.65468,39.43463],[-6.65425,39.43497],[-6.65384,39.43512],[-6.65294,39.43534],[-6.65185,39.43611],[-6.6512,39.43636],[-6.65083,39.43636],[-6.65016,39.436],[-6.64938,39.43522],[-6.64903,39.43449],[-6.6489,39.43358],[-6.64875,39.43331],[-6.64842,39.43304],[-6.64804,39.43235],[-6.64812,39.43203],[-6.6494,39.42989],[-6.64935,39.42939],[-6.64902,39.42885],[-6.64864,39.42851],[-6.64781,39.42828]]]}},{"type":"Feature","properties":{"id":"1001802001"},"geometry":{"type":"Polygon","coordinates":[[[-6.64781,39.42828],[-6.6469,39.4281],[-6.6457,39.42799],[-6.6449,39.42805],[-6.64358,39.42783],[-6.64186,39.42733],[-6.64153,39.42714],[-6.6408,39.42642],[-6.64024,39.42565],[-6.63974,39.4244],[-6.63994,39.42373],[-6.64068,39.42293],[-6.64185,39.42206],[-6.64233,39.42198],[-6.64307,39.42217],[-6.64377,39.42253],[-6.6448,39.42289],[-6.64709,39.42329],[-6.64736,39.42345],[-6.64778,39.42399],[-6.64825,39.42428],[-6.64864,39.42438],[-6.64903,39.42435],[-6.65061,39.42379],[-6.65412,39.42228],[-6.65481,39.42184],[-6.65625,39.42066],[-6.65882,39.41747],[-6.6603,39.41598],[-6.66038,39.41575],[-6.65852,39.41497],[-6.65775,39.41453],[-6.65525,39.41336],[-6.65462,39.41289],[-6.65391,39.41203],[-6.64832,39.4077],[-6.64787,39.40701],[-6.64777,39.40603],[-6.6469,39.40484],[-6.64688,39.40444],[-6.64714,39.40331],[-6.64666,39.4026],[-6.64663,39.40208],[-6.64634,39.40143],[-6.64714,39.40078],[-6.64765,39.40016],[-6.6486,39.39849],[-6.64892,39.39808],[-6.64931,39.39783],[-6.65009,39.39685],[-6.64958,39.39623],[-6.64893,39.39513],[-6.64813,39.39429],[-6.64769,39.39354],[-6.64654,39.39279],[-6.64531,39.39172],[-6.6449,39.39144],[-6.64421,39.39129],[-6.6439,39.39114],[-6.64324,39.39051],[-6.64249,39.38998],[-6.64108,39.38918],[-6.63908,39.38757],[-6.6384,39.38722],[-6.63662,39.38672],[-6.63603,39.38646],[-6.63514,39.38572],[-6.63426,39.38517],[-6.63491,39.38438],[-6.6354,39.38405],[-6.63594,39.38348],[-6.63675,39.38185],[-6.63743,39.38115],[-6.63843,39.38032],[-6.63927,39.37985],[-6.64276,39.37721],[-6.64569,39.37583],[-6.64906,39.3737],[-6.64891,39.37309],[-6.6495,39.37226],[-6.65229,39.3704],[-6.65389,39.36889],[-6.65445,39.3685],[-6.65515,39.36829],[-6.65607,39.36858],[-6.65652,39.36855],[-6.65726,39.36832],[-6.65828,39.36764],[-6.65984,39.36711],[-6.66045,39.36669],[-6.66132,39.36557],[-6.66188,39.3655],[-6.66293,39.36561],[-6.66485,39.36611],[-6.66655,39.36714],[-6.66773,39.36749],[-6.66857,39.36763],[-6.66983,39.36764],[-6.67164,39.36733],[-6.67518,39.36661],[-6.67641,39.36624],[-6.67699,39.36622],[-6.67777,39.3664],[-6.67882,39.3664],[-6.67971,39.36611],[-6.6808,39.36552],[-6.68133,39.36503],[-6.68272,39.36416],[-6.68356,39.3638],[-6.68597,39.36301],[-6.68841,39.36252],[-6.68902,39.36215],[-6.69055,39.36185],[-6.69174,39.36176],[-6.6928,39.36131],[-6.69343,39.36085],[-6.69471,39.36034],[-6.69506,39.36007],[-6.6963,39.3555],[-6.69659,39.35485],[-6.697,39.35438],[-6.69775,39.35395],[-6.69904,39.35368],[-6.701,39.35366],[-6.70687,39.35216],[-6.71016,39.35058],[-6.71082,39.35045],[-6.71247,39.35048],[-6.71293,39.35058],[-6.71352,39.35084],[-6.71432,39.35065],[-6.71505,39.35063],[-6.71707,39.35077],[-6.71786,39.35071],[-6.71899,39.35043],[-6.71984,39.35049],[-6.72074,39.35074],[-6.72289,39.35296],[-6.7252,39.35329],[-6.72619,39.35393],[-6.72779,39.35531],[-6.72848,39.35609],[-6.73177,39.35884],[-6.73327,39.36048],[-6.73361,39.361],[-6.73434,39.36153],[-6.73484,39.36214],[-6.73519,39.36272],[-6.73536,39.3638],[-6.73576,39.36491],[-6.73577,39.36571],[-6.73548,39.36673],[-6.73706,39.36876],[-6.73742,39.36944],[-6.73772,39.37024],[-6.73784,39.37105],[-6.73829,39.37183],[-6.73827,39.37274],[-6.73815,39.37307],[-6.73691,39.37404],[-6.73597,39.3751],[-6.73452,39.37594],[-6.73161,39.37816],[-6.73091,39.37904],[-6.73135,39.37958],[-6.73227,39.38138],[-6.73336,39.38318],[-6.73354,39.38371],[-6.73434,39.38472],[-6.73473,39.38623],[-6.73517,39.38695],[-6.73631,39.38953],[-6.73697,39.39013],[-6.73796,39.39151],[-6.73871,39.39224],[-6.73923,39.39247],[-6.7408,39.39253],[-6.7413,39.3927],[-6.74358,39.39533],[-6.74471,39.39743],[-6.74492,39.39921],[-6.74537,39.40064],[-6.74652,39.40324],[-6.75016,39.40034],[-6.7511,39.39999],[-6.75288,39.39958],[-6.75404,39.39955],[-6.75496,39.39974],[-6.75802,39.40064],[-6.76038,39.40102],[-6.76144,39.4013],[-6.76223,39.40166],[-6.76378,39.40207],[-6.7681,39.40281],[-6.76919,39.40321],[-6.76625,39.40377],[-6.76483,39.40388],[-6.76335,39.40412],[-6.76212,39.40441],[-6.76126,39.40442],[-6.76064,39.40434],[-6.76,39.40459],[-6.75862,39.40467],[-6.75786,39.40482],[-6.75816,39.40608],[-6.75823,39.40745],[-6.75852,39.40902],[-6.75901,39.41097],[-6.75925,39.41142],[-6.75777,39.41313],[-6.75707,39.41429],[-6.7562,39.41528],[-6.75526,39.41691],[-6.75461,39.4175],[-6.75316,39.41928],[-6.75123,39.4219],[-6.74995,39.42421],[-6.74826,39.42967],[-6.74679,39.4324],[-6.74614,39.43332],[-6.70221,39.42605],[-6.70092,39.42561],[-6.69679,39.42311],[-6.69517,39.42247],[-6.6944,39.42236],[-6.69355,39.42232],[-6.69306,39.42254],[-6.69255,39.42234],[-6.6923,39.42248],[-6.69207,39.42282],[-6.69109,39.42331],[-6.69005,39.42332],[-6.68934,39.42351],[-6.68929,39.42398],[-6.64781,39.42828]]]}}]}