{"type":"FeatureCollection","features":[{"type":"Feature","properties":{"id":"1011501001"},"geometry":{"type":"Polygon","coordinates":[[[-6.50907,39.44206],[-6.50869,39.44112],[-6.5079,39.44116],[-6.50736,39.44043],[-6.50881,39.43812],[-6.50881,39.43756],[-6.50836,39.43724],[-6.50792,39.43709],[-6.50756,39.4368],[-6.50768,39.4362],[-6.50752,39.43569],[-6.50536,39.43228],[-6.50486,39.43045],[-6.50474,39.42957],[-6.50479,39.42887],[-6.50508,39.42842],[-6.50646,39.42716],[-6.5065,39.42631],[-6.50681,39.42483],[-6.50591,39.42297],[-6.50538,39.42223],[-6.50436,39.42172],[-6.50181,39.4211],[-6.50121,39.42064],[-6.50117,39.41995],[-6.50161,39.41576],[-6.50366,39.41601],[-6.50507,39.41606],[-6.50739,39.4179],[-6.5084,39.41846],[-6.50876,39.41925],[-6.50978,39.41987],[-6.50992,39.42022],[-6.51004,39.42174],[-6.51078,39.42457],[-6.51091,39.4269],[-6.51075,39.42798],[-6.51421,39.42771],[-6.51455,39.42856],[-6.51536,39.42817],[-6.51596,39.42803],[-6.51649,39.42815],[-6.51672,39.42839],[-6.51687,39.42888],[-6.52141,39.42766],[-6.52216,39.4278],[-6.52344,39.42783],[-6.52376,39.42777],[-6.52455,39.42811],[-6.52653,39.42855],[-6.5286,39.42782],[-6.52921,39.42738],[-6.52987,39.42638],[-6.53054,39.42574],[-6.53084,39.42526],[-6.5311,39.42566],[-6.5324,39.42648],[-6.53432,39.42733],[-6.53454,39.42729],[-6.53531,39.42636],[-6.53589,39.42546],[-6.53641,39.42492],[-6.53652,39.42619],[-6.53611,39.42758],[-6.53691,39.4286],[-6.53845,39.42785],[-6.5392,39.42783],[-6.53972,39.42797],[-6.54048,39.42848],[-6.54072,39.42852],[-6.54266,39.4279],[-6.54358,39.42784],[-6.54467,39.42801],[-6.54532,39.42826],[-6.54576,39.42858],[-6.54612,39.42909],[-6.54654,39.42943],[-6.54715,39.42974],[-6.54679,39.43046],[-6.54588,39.43126],[-6.54545,39.43179],[-6.54507,39.43254],[-6.54389,39.43414],[-6.5436,39.4344],[-6.54249,39.43486],[-6.54183,39.43537],[-6.54124,39.43597],[-6.54005,39.43768],[-6.53947,39.43813],[-6.53886,39.43898],[-6.53867,39.44017],[-6.53844,39.44026],[-6.53765,39.44011],[-6.53751,39.44019],[-6.53742,39.44075],[-6.53773,39.44231],[-6.53772,39.44352],[-6.53733,39.44437],[-6.53724,39.44499],[-6.53731,39.44594],[-6.51994,39.4455],[-6.51591,39.44527],[-6.51332,39.44438],[-6.51258,39.44393],[-6.51201,39.44377],[-6.50889,39.44353],[-6.50707,39.44316],[-6.50761,39.4427],[-6.5077,39.44216],[-6.50907,39.44206]]]}},{"type":"Feature","properties":{"id":"1011501002"},"geometry":{"type":"Polygon","coordinates":[[[-6.47035,39.43237],[-6.47055,39.43119],[-6.47314,39.42506],[-6.47339,39.42429],[-6.47354,39.42327],[-6.47314,39.42181],[-6.47192,39.41979],[-6.4711,39.41811],[-6.47131,39.41759],[-6.47161,39.41551],[-6.4728,39.41471],[-6.47465,39.41265],[-6.47521,39.4117],[-6.47754,39.40879],[-6.48042,39.40865],[-6.4825,39.4079],[-6.48591,39.40894],[-6.48846,39.40986],[-6.4905,39.40971],[-6.49164,39.40952],[-6.49396,39.4112],[-6.49488,39.41171],[-6.49694,39.41247],[-6.49842,39.41273],[-6.49992,39.41318],[-6.50044,39.41376],[-6.50107,39.41412],[-6.50161,39.41576],[-6.50117,39.41995],[-6.50121,39.42064],[-6.50181,39.4211],[-6.50436,39.42172],[-6.50538,39.42223],[-6.50591,39.42297],[-6.50681,39.42483],[-6.5065,39.42631],[-6.50646,39.42716],[-6.50551,39.42795],[-6.50479,39.42887],[-6.50474,39.42957],[-6.50486,39.43045],[-6.50536,39.43228],[-6.50752,39.43569],[-6.50768,39.4362],[-6.50756,39.4368],[-6.50792,39.43709],[-6.50836,39.43724],[-6.50881,39.43756],[-6.50881,39.43812],[-6.50736,39.44043],[-6.5079,39.44116],[-6.50869,39.44112],[-6.50907,39.44206],[-6.5077,39.44216],[-6.50761,39.4427],[-6.50707,39.44316],[-6.50474,39.44238],[-6.50465,39.44178],[-6.50306,39.44102],[-6.50253,39.44046],[-6.50178,39.44015],[-6.50041,39.44023],[-6.49875,39.43968],[-6.4977,39.43954],[-6.49676,39.43964],[-6.49561,39.43964],[-6.49525,39.43944],[-6.49421,39.43928],[-6.4918,39.43867],[-6.48788,39.43751],[-6.48659,39.4369],[-6.48333,39.43585],[-6.48164,39.43481],[-6.48062,39.43435],[-6.477,39.43301],[-6.47456,39.43263],[-6.47035,39.43237]]]}},{"type":"Feature","properties":{"id":"1011502001"},"geometry":{"type":"Polygon","coordinates":[[[-6.47035,39.43237],[-6.47456,39.43263],[-6.477,39.43301],[-6.48062,39.43435],[-6.48164,39.43481],[-6.48333,39.43585],[-6.48659,39.4369],[-6.48788,39.43751],[-6.4918,39.43867],[-6.49421,39.43928],[-6.49525,39.43944],[-6.49561,39.43964],[-6.49676,39.43964],[-6.4977,39.43954],[-6.49875,39.43968],[-6.50041,39.44023],[-6.50178,39.44015],[-6.50253,39.44046],[-6.50306,39.44102],[-6.50465,39.44178],[-6.50474,39.44238],[-6.50707,39.44316],[-6.50665,39.44339],[-6.50628,39.44386],[-6.50822,39.44431],[-6.50804,39.44463],[-6.50467,39.4458],[-6.50258,39.44671],[-6.50147,39.44696],[-6.47494,39.44665],[-6.45825,39.45176],[-6.45704,39.45005],[-6.45692,39.44954],[-6.45711,39.44807],[-6.45755,39.447],[-6.45937,39.44402],[-6.45981,39.44295],[-6.46051,39.44063],[-6.46073,39.43944],[-6.4615,39.43828],[-6.46392,39.43705],[-6.46804,39.43581],[-6.46922,39.43479],[-6.47018,39.43296],[-6.47035,39.43237]]]}},{"type":"Feature","properties":{"id":"1011502002"},"geometry":{"type":"Polygon","coordinates":[[[-6.50514,39.4739],[-6.50297,39.4739],[-6.50262,39.4736],[-6.50253,39.4726],[-6.49992,39.47244],[-6.49846,39.4698],[-6.49808,39.4695],[-6.49701,39.46917],[-6.49679,39.46898],[-6.49695,39.46845],[-6.49662,39.46783],[-6.4959,39.46722],[-6.49503,39.46607],[-6.49383,39.46492],[-6.49224,39.46416],[-6.49068,39.46302],[-6.4901,39.4628],[-6.4889,39.46184],[-6.48868,39.46147],[-6.48818,39.45968],[-6.48772,39.45924],[-6.48703,39.45907],[-6.48634,39.45908],[-6.48357,39.45943],[-6.48012,39.45962],[-6.47672,39.46004],[-6.47512,39.4601],[-6.4736,39.46005],[-6.47024,39.46018],[-6.46886,39.46006],[-6.46775,39.45986],[-6.4675,39.4596],[-6.46754,39.45892],[-6.46736,39.45747],[-6.46583,39.45695],[-6.46165,39.45449],[-6.45979,39.45393],[-6.45873,39.45257],[-6.45825,39.45176],[-6.47494,39.44665],[-6.50147,39.44696],[-6.50258,39.44671],[-6.50467,39.4458],[-6.50804,39.44463],[-6.50822,39.44431],[-6.50628,39.44386],[-6.50665,39.44339],[-6.50707,39.44316],[-6.50889,39.44353],[-6.51201,39.44377],[-6.51258,39.44393],[-6.51332,39.44438],[-6.51591,39.44527],[-6.51994,39.4455],[-6.53731,39.44594],[-6.53744,39.44692],[-6.53774,39.44753],[-6.53663,39.44867],[-6.53553,39.4502],[-6.53512,39.45174],[-6.53464,39.45252],[-6.53423,39.45285],[-6.53326,39.45338],[-6.53248,39.45369],[-6.5316,39.45379],[-6.53034,39.45518],[-6.52933,39.45697],[-6.52855,39.45788],[-6.52795,39.45831],[-6.52729,39.45898],[-6.52721,39.45943],[-6.52732,39.46021],[-6.52715,39.46073],[-6.52603,39.46212],[-6.52654,39.46282],[-6.52382,39.4652],[-6.52265,39.46592],[-6.52225,39.46629],[-6.52333,39.46773],[-6.52473,39.4693],[-6.52404,39.46936],[-6.52372,39.46951],[-6.52354,39.46975],[-6.52305,39.47157],[-6.52263,39.47267],[-6.52256,39.47317],[-6.52215,39.47403],[-6.52197,39.47471],[-6.52141,39.4744],[-6.51926,39.47365],[-6.51776,39.47244],[-6.51677,39.47192],[-6.51601,39.47125],[-6.514,39.4713],[-6.51128,39.47166],[-6.50994,39.47199],[-6.50828,39.47266],[-6.5058,39.4735],[-6.50514,39.4739]]]}}]}