{"type":"FeatureCollection","features":[{"type":"Feature","properties":{"id":"1011301001"},"geometry":{"type":"Polygon","coordinates":[[[-5.64207,39.46302],[-5.64463,39.46088],[-5.64569,39.46073],[-5.64864,39.4591],[-5.65082,39.45766],[-5.65162,39.45699],[-5.6537,39.45383],[-5.65465,39.45072],[-5.65527,39.44958],[-5.65847,39.44574],[-5.65891,39.4444],[-5.66166,39.44369],[-5.66785,39.44233],[-5.66932,39.4421],[-5.67136,39.44368],[-5.67764,39.44358],[-5.68069,39.44369],[-5.68217,39.44106],[-5.68305,39.43978],[-5.68376,39.43761],[-5.75115,39.42632],[-5.75155,39.42649],[-5.75168,39.42644],[-5.75254,39.42669],[-5.75342,39.42626],[-5.75375,39.42632],[-5.75454,39.42618],[-5.75563,39.42581],[-5.757,39.42483],[-5.75782,39.42409],[-5.75842,39.42334],[-5.75959,39.42277],[-5.76053,39.42201],[-5.78067,39.40201],[-5.78095,39.40217],[-5.78222,39.40252],[-5.78287,39.40293],[-5.78464,39.40328],[-5.78532,39.40328],[-5.78813,39.40269],[-5.78974,39.40215],[-5.79041,39.40177],[-5.79107,39.40168],[-5.79213,39.40131],[-5.7927,39.40099],[-5.79246,39.39961],[-5.79265,39.39928],[-5.79323,39.3992],[-5.79368,39.39898],[-5.79471,39.39727],[-5.79514,39.39691],[-5.79663,39.39653],[-5.79691,39.39607],[-5.79698,39.39516],[-5.79764,39.39597],[-5.80403,39.39686],[-5.80687,39.39705],[-5.80835,39.39756],[-5.80932,39.39817],[-5.81115,39.39954],[-5.81259,39.4009],[-5.81367,39.40246],[-5.81461,39.40446],[-5.81664,39.40737],[-5.81839,39.40845],[-5.81957,39.40941],[-5.82089,39.41023],[-5.81657,39.41224],[-5.81569,39.41287],[-5.81405,39.41346],[-5.81314,39.41389],[-5.81117,39.41671],[-5.811,39.41728],[-5.81054,39.41807],[-5.80891,39.41959],[-5.80706,39.42228],[-5.80501,39.42269],[-5.80544,39.42396],[-5.80592,39.42499],[-5.80654,39.42569],[-5.807,39.42587],[-5.81012,39.42656],[-5.81361,39.42772],[-5.81512,39.42897],[-5.81563,39.42926],[-5.81566,39.43019],[-5.8155,39.43051],[-5.81501,39.43089],[-5.81399,39.43126],[-5.81289,39.43186],[-5.8116,39.43271],[-5.81096,39.43293],[-5.8099,39.43295],[-5.8025,39.43409],[-5.80234,39.43527],[-5.80045,39.43646],[-5.80006,39.43688],[-5.79996,39.43736],[-5.80003,39.43818],[-5.80042,39.44014],[-5.79907,39.44156],[-5.79853,39.44177],[-5.7979,39.44189],[-5.79624,39.4419],[-5.79216,39.4428],[-5.79073,39.44304],[-5.78965,39.44298],[-5.78872,39.44275],[-5.78783,39.44231],[-5.78704,39.44168],[-5.78552,39.43977],[-5.78505,39.44008],[-5.78438,39.44088],[-5.78116,39.44338],[-5.78088,39.44388],[-5.78095,39.44481],[-5.78069,39.44571],[-5.77946,39.44732],[-5.78076,39.44789],[-5.78293,39.44931],[-5.78448,39.45009],[-5.78556,39.45055],[-5.78737,39.45106],[-5.78814,39.45113],[-5.79072,39.45051],[-5.79228,39.4504],[-5.79416,39.4504],[-5.79441,39.45052],[-5.79351,39.45095],[-5.79517,39.45176],[-5.79702,39.45328],[-5.79904,39.4545],[-5.80006,39.45496],[-5.80049,39.45488],[-5.80153,39.45429],[-5.8022,39.45412],[-5.80369,39.45542],[-5.80399,39.45547],[-5.80427,39.45534],[-5.80473,39.45492],[-5.80495,39.45445],[-5.80521,39.45327],[-5.80546,39.45301],[-5.8067,39.45296],[-5.8073,39.45321],[-5.80742,39.45364],[-5.80712,39.45412],[-5.80393,39.45693],[-5.80387,39.45766],[-5.7996,39.46129],[-5.79862,39.46199],[-5.79803,39.46223],[-5.79573,39.46222],[-5.79528,39.46233],[-5.7953,39.46284],[-5.79574,39.46437],[-5.79609,39.46664],[-5.79689,39.4685],[-5.79682,39.46919],[-5.79697,39.47028],[-5.79701,39.47243],[-5.7946,39.47323],[-5.79403,39.47356],[-5.79426,39.47436],[-5.79185,39.47541],[-5.79055,39.4771],[-5.78941,39.47753],[-5.78843,39.47776],[-5.78489,39.47818],[-5.78399,39.47847],[-5.78345,39.47875],[-5.78326,39.47908],[-5.7832,39.47966],[-5.78317,39.48246],[-5.78333,39.48396],[-5.78316,39.48458],[-5.78258,39.48522],[-5.7814,39.48599],[-5.78048,39.48696],[-5.78154,39.48924],[-5.77987,39.49012],[-5.77806,39.49161],[-5.77471,39.49373],[-5.77387,39.4944],[-5.7723,39.49639],[-5.77169,39.49691],[-5.77039,39.49838],[-5.77012,39.49904],[-5.7699,39.50019],[-5.76964,39.50067],[-5.76994,39.50149],[-5.76832,39.50256],[-5.76767,39.50337],[-5.76656,39.50516],[-5.76545,39.50671],[-5.76409,39.50791],[-5.75985,39.50852],[-5.75738,39.50492],[-5.75424,39.50811],[-5.75248,39.50948],[-5.74959,39.51219],[-5.748,39.51389],[-5.74602,39.51624],[-5.7445,39.51453],[-5.74328,39.51335],[-5.74313,39.51305],[-5.74289,39.5107],[-5.74258,39.50917],[-5.74246,39.5062],[-5.73968,39.50677],[-5.73594,39.508],[-5.73527,39.5093],[-5.73462,39.51009],[-5.73237,39.51243],[-5.73185,39.51314],[-5.73171,39.51478],[-5.73149,39.51555],[-5.73096,39.51657],[-5.73075,39.5172],[-5.73316,39.51865],[-5.73474,39.52041],[-5.73515,39.52069],[-5.73579,39.52083],[-5.73637,39.52069],[-5.73669,39.52073],[-5.73886,39.52237],[-5.73819,39.52305],[-5.73708,39.52393],[-5.7369,39.52393],[-5.73581,39.52307],[-5.7353,39.52284],[-5.73206,39.52267],[-5.73176,39.52271],[-5.72679,39.52467],[-5.72468,39.52532],[-5.7228,39.52553],[-5.71595,39.52562],[-5.71521,39.52554],[-5.71397,39.52506],[-5.71004,39.52475],[-5.70544,39.52549],[-5.70121,39.52586],[-5.69892,39.52694],[-5.69772,39.52628],[-5.6963,39.52452],[-5.69403,39.52358],[-5.69272,39.52268],[-5.6922,39.52245],[-5.6891,39.51991],[-5.68776,39.51912],[-5.6862,39.51765],[-5.68572,39.5174],[-5.6853,39.51732],[-5.68419,39.51734],[-5.6836,39.51719],[-5.68166,39.51633],[-5.683,39.51435],[-5.68404,39.51394],[-5.68484,39.51344],[-5.68594,39.51236],[-5.68713,39.51095],[-5.69026,39.50854],[-5.69158,39.50788],[-5.69298,39.50703],[-5.69385,39.50639],[-5.69446,39.50575],[-5.69598,39.5037],[-5.69789,39.50022],[-5.69741,39.49906],[-5.69709,39.49685],[-5.69785,39.49411],[-5.69846,39.49269],[-5.69919,39.49053],[-5.69837,39.49025],[-5.69633,39.49024],[-5.69326,39.49111],[-5.68895,39.49303],[-5.68787,39.49366],[-5.68682,39.49443],[-5.68593,39.49609],[-5.68551,39.49656],[-5.6853,39.49663],[-5.68486,39.49648],[-5.68408,39.49562],[-5.68299,39.49498],[-5.68124,39.49304],[-5.68068,39.49268],[-5.67937,39.49258],[-5.67541,39.4908],[-5.67283,39.49025],[-5.67134,39.49013],[-5.67129,39.48997],[-5.67182,39.48913],[-5.67312,39.48805],[-5.67437,39.48735],[-5.67536,39.48657],[-5.67758,39.48379],[-5.67786,39.48309],[-5.67781,39.4825],[-5.67723,39.4821],[-5.67386,39.48118],[-5.67255,39.48068],[-5.67145,39.48006],[-5.6698,39.47878],[-5.66877,39.47784],[-5.66731,39.4772],[-5.66586,39.47611],[-5.66447,39.47479],[-5.66353,39.47373],[-5.66314,39.47315],[-5.66282,39.47206],[-5.66112,39.46983],[-5.6611,39.4691],[-5.66141,39.46782],[-5.66011,39.4677],[-5.65906,39.46746],[-5.65708,39.46682],[-5.65579,39.46628],[-5.6539,39.46518],[-5.6517,39.46542],[-5.64977,39.46539],[-5.64894,39.46572],[-5.64207,39.46302]]]}},{"type":"Feature","properties":{"id":"1011302001"},"geometry":{"type":"Polygon","coordinates":[[[-5.71816,39.39345],[-5.71864,39.39349],[-5.72036,39.39442],[-5.72304,39.39635],[-5.72472,39.39734],[-5.72563,39.39766],[-5.72674,39.39768],[-5.72893,39.39887],[-5.7314,39.40003],[-5.73162,39.40003],[-5.73251,39.39952],[-5.73375,39.39904],[-5.7354,39.39879],[-5.73656,39.39879],[-5.74049,39.3991],[-5.74156,39.39937],[-5.74399,39.40031],[-5.74488,39.40052],[-5.74642,39.40045],[-5.74693,39.4003],[-5.74822,39.39957],[-5.7497,39.39851],[-5.75119,39.39768],[-5.7523,39.39726],[-5.7541,39.39692],[-5.75511,39.39656],[-5.75651,39.39586],[-5.75696,39.39582],[-5.75857,39.396],[-5.75916,39.39593],[-5.76262,39.39503],[-5.76344,39.39493],[-5.76511,39.39453],[-5.76685,39.39392],[-5.76734,39.3936],[-5.76844,39.39555],[-5.76946,39.3977],[-5.77006,39.39854],[-5.77041,39.3988],[-5.77555,39.40069],[-5.77629,39.40105],[-5.77665,39.40141],[-5.77679,39.40145],[-5.77703,39.40117],[-5.77787,39.39954],[-5.77822,39.39979],[-5.77912,39.40077],[-5.78067,39.40201],[-5.76053,39.42201],[-5.75959,39.42277],[-5.75842,39.42334],[-5.75782,39.42409],[-5.757,39.42483],[-5.75578,39.42572],[-5.75526,39.42597],[-5.75375,39.42632],[-5.75342,39.42626],[-5.75254,39.42669],[-5.75168,39.42644],[-5.75155,39.42649],[-5.75115,39.42632],[-5.68376,39.43761],[-5.68403,39.43669],[-5.68399,39.43617],[-5.68366,39.43515],[-5.68284,39.43336],[-5.68271,39.43263],[-5.68236,39.43171],[-5.68186,39.43085],[-5.67919,39.42849],[-5.67878,39.42827],[-5.67994,39.42582],[-5.68126,39.42261],[-5.68135,39.42171],[-5.68079,39.41948],[-5.68078,39.4189],[-5.68118,39.41803],[-5.68186,39.41723],[-5.68205,39.41688],[-5.68201,39.41592],[-5.68136,39.41356],[-5.68371,39.41202],[-5.68611,39.41023],[-5.68835,39.40987],[-5.68914,39.40932],[-5.69242,39.40755],[-5.69317,39.40705],[-5.69706,39.40342],[-5.70136,39.40361],[-5.70316,39.40176],[-5.70436,39.40092],[-5.70579,39.39964],[-5.70646,39.39882],[-5.70692,39.39799],[-5.70716,39.39655],[-5.70752,39.39616],[-5.71015,39.39512],[-5.71207,39.39424],[-5.71288,39.39376],[-5.71816,39.39345]]]}}]}