{"type":"FeatureCollection","features":[{"type":"Feature","properties":{"id":"1020301001"},"geometry":{"type":"Polygon","coordinates":[[[-7.22951,39.41531],[-7.23014,39.41477],[-7.23229,39.41363],[-7.23486,39.4121],[-7.23595,39.41189],[-7.23686,39.41181],[-7.23999,39.41351],[-7.24018,39.41352],[-7.24114,39.41468],[-7.24181,39.41408],[-7.24221,39.41306],[-7.24276,39.41334],[-7.24299,39.41338],[-7.24306,39.41322],[-7.24443,39.41374],[-7.24446,39.41449],[-7.24537,39.41479],[-7.24467,39.4157],[-7.2447,39.4161],[-7.24456,39.41655],[-7.24371,39.41787],[-7.24373,39.42091],[-7.2436,39.42309],[-7.24383,39.42514],[-7.24527,39.42714],[-7.25085,39.43102],[-7.25134,39.43173],[-7.25326,39.43366],[-7.25277,39.43419],[-7.2524,39.4344],[-7.25119,39.43371],[-7.24966,39.43184],[-7.24767,39.43018],[-7.24702,39.42976],[-7.24583,39.4291],[-7.24175,39.42751],[-7.2404,39.42689],[-7.24036,39.42656],[-7.24055,39.42594],[-7.24048,39.42531],[-7.24005,39.42457],[-7.23893,39.42455],[-7.23844,39.42445],[-7.23754,39.42349],[-7.23652,39.42345],[-7.23578,39.42352],[-7.23563,39.42345],[-7.23504,39.4226],[-7.23288,39.42066],[-7.2321,39.41981],[-7.23008,39.41843],[-7.22913,39.41815],[-7.22933,39.41619],[-7.22963,39.41536],[-7.22951,39.41531]]]}},{"type":"Feature","properties":{"id":"1020301002"},"geometry":{"type":"Polygon","coordinates":[[[-7.23686,39.41181],[-7.23732,39.41152],[-7.23777,39.4104],[-7.23908,39.40948],[-7.24115,39.40723],[-7.24161,39.40702],[-7.24209,39.40717],[-7.24292,39.40778],[-7.24313,39.40804],[-7.24338,39.41075],[-7.2435,39.41093],[-7.24397,39.41105],[-7.24696,39.41047],[-7.24692,39.41142],[-7.24607,39.41249],[-7.24624,39.41341],[-7.2456,39.41419],[-7.24537,39.41479],[-7.24446,39.41449],[-7.24443,39.41374],[-7.24306,39.41322],[-7.24299,39.41338],[-7.24276,39.41334],[-7.24221,39.41306],[-7.24181,39.41408],[-7.24114,39.41468],[-7.24018,39.41352],[-7.23999,39.41351],[-7.23686,39.41181]]]}},{"type":"Feature","properties":{"id":"1020302001"},"geometry":{"type":"Polygon","coordinates":[[[-7.24591,39.39377],[-7.24692,39.39391],[-7.24705,39.39521],[-7.24757,39.39608],[-7.24919,39.39751],[-7.24977,39.39779],[-7.25083,39.39896],[-7.25106,39.39957],[-7.25152,39.40017],[-7.25148,39.40069],[-7.25168,39.40233],[-7.25148,39.40338],[-7.2506,39.40537],[-7.24824,39.40958],[-7.24696,39.41047],[-7.24489,39.41091],[-7.24471,39.41087],[-7.24397,39.41105],[-7.24363,39.41099],[-7.24338,39.41075],[-7.24313,39.40804],[-7.24292,39.40778],[-7.24209,39.40717],[-7.24179,39.40703],[-7.24152,39.40704],[-7.24109,39.4073],[-7.23908,39.40948],[-7.23777,39.4104],[-7.23737,39.41145],[-7.23719,39.41165],[-7.23686,39.41181],[-7.23525,39.41198],[-7.23486,39.4121],[-7.23229,39.41363],[-7.23014,39.41477],[-7.22951,39.41531],[-7.22883,39.41506],[-7.22639,39.41475],[-7.2243,39.41466],[-7.22355,39.41435],[-7.22673,39.40889],[-7.22422,39.40615],[-7.2201,39.40133],[-7.22121,39.39985],[-7.22225,39.39813],[-7.2246,39.39465],[-7.22633,39.39162],[-7.22778,39.39061],[-7.23091,39.38997],[-7.23229,39.38943],[-7.23369,39.38852],[-7.2343,39.38829],[-7.23533,39.38816],[-7.23747,39.38884],[-7.23819,39.38898],[-7.23963,39.38855],[-7.24107,39.38831],[-7.24226,39.38795],[-7.24246,39.38853],[-7.24314,39.38948],[-7.24353,39.39027],[-7.24454,39.3928],[-7.24491,39.3932],[-7.24552,39.39355],[-7.24591,39.39377]]]}},{"type":"Feature","properties":{"id":"1020302002"},"geometry":{"type":"Polygon","coordinates":[[[-7.25326,39.43366],[-7.25134,39.43173],[-7.25085,39.43102],[-7.24527,39.42714],[-7.24383,39.42514],[-7.2436,39.42309],[-7.24373,39.42091],[-7.2437,39.41798],[-7.24376,39.41776],[-7.24456,39.41655],[-7.2447,39.4161],[-7.24467,39.4157],[-7.24503,39.41519],[-7.24522,39.41506],[-7.24551,39.41434],[-7.24624,39.41341],[-7.24607,39.41249],[-7.24692,39.41142],[-7.24696,39.41047],[-7.24824,39.40958],[-7.24858,39.40909],[-7.25123,39.40407],[-7.25148,39.40338],[-7.25168,39.40233],[-7.25148,39.40069],[-7.25152,39.40017],[-7.25106,39.39957],[-7.25083,39.39896],[-7.24977,39.39779],[-7.24919,39.39751],[-7.24757,39.39608],[-7.24705,39.39521],[-7.24692,39.39391],[-7.24645,39.39388],[-7.24764,39.39323],[-7.24901,39.39214],[-7.2503,39.39139],[-7.25718,39.38767],[-7.25925,39.38834],[-7.26408,39.39051],[-7.26637,39.39143],[-7.27212,39.39421],[-7.27095,39.39532],[-7.26899,39.39765],[-7.26502,39.40071],[-7.2637,39.40212],[-7.26226,39.40441],[-7.26311,39.40398],[-7.26458,39.40441],[-7.26617,39.40428],[-7.26665,39.4042],[-7.26745,39.40366],[-7.26926,39.40327],[-7.27124,39.40339],[-7.27241,39.40318],[-7.27172,39.40433],[-7.27141,39.40571],[-7.27159,39.40644],[-7.27124,39.4076],[-7.27128,39.40929],[-7.27047,39.41527],[-7.27074,39.41568],[-7.27103,39.41657],[-7.26996,39.41864],[-7.26923,39.4207],[-7.26771,39.42366],[-7.26693,39.42477],[-7.26609,39.42654],[-7.26414,39.42907],[-7.26334,39.4303],[-7.26166,39.43199],[-7.2597,39.43351],[-7.25796,39.43406],[-7.25691,39.43421],[-7.256,39.4342],[-7.25508,39.43399],[-7.25409,39.43392],[-7.25326,39.43366]]]}},{"type":"Feature","properties":{"id":"1020303001"},"geometry":{"type":"Polygon","coordinates":[[[-7.17869,39.57541],[-7.17853,39.5737],[-7.17819,39.57307],[-7.17714,39.57236],[-7.17175,39.56686],[-7.16756,39.56374],[-7.1666,39.56285],[-7.16506,39.56119],[-7.16425,39.55974],[-7.16251,39.55798],[-7.1619,39.55757],[-7.15919,39.55669],[-7.15469,39.55571],[-7.15294,39.55549],[-7.15199,39.55513],[-7.14981,39.55343],[-7.14918,39.55324],[-7.14859,39.55318],[-7.14628,39.55225],[-7.1431,39.55067],[-7.1409,39.54928],[-7.14027,39.5485],[-7.14027,39.54763],[-7.14099,39.54414],[-7.14122,39.54251],[-7.14118,39.54011],[-7.1406,39.53914],[-7.13971,39.53797],[-7.13855,39.53679],[-7.13962,39.53535],[-7.14168,39.53286],[-7.14257,39.52884],[-7.1426,39.52576],[-7.14282,39.52378],[-7.14476,39.51918],[-7.1464,39.51588],[-7.14626,39.51516],[-7.14575,39.51434],[-7.14495,39.51319],[-7.14334,39.51126],[-7.14262,39.51074],[-7.14134,39.51016],[-7.13895,39.5095],[-7.13452,39.50886],[-7.13051,39.50812],[-7.1295,39.50804],[-7.12823,39.50776],[-7.12694,39.50733],[-7.12514,39.50648],[-7.12237,39.50554],[-7.12,39.50451],[-7.11689,39.50201],[-7.11236,39.49911],[-7.10896,39.49806],[-7.10785,39.49781],[-7.10535,39.50007],[-7.10488,39.50061],[-7.10211,39.50255],[-7.10077,39.50375],[-7.10028,39.50404],[-7.09973,39.50426],[-7.09879,39.50447],[-7.09813,39.50451],[-7.09484,39.5043],[-7.0957,39.50356],[-7.09588,39.50316],[-7.09598,39.50213],[-7.09587,39.50159],[-7.09539,39.50044],[-7.09541,39.50015],[-7.09577,39.4994],[-7.09593,39.49875],[-7.09591,39.49741],[-7.09609,39.49695],[-7.09748,39.49466],[-7.09868,39.49306],[-7.09985,39.49169],[-7.10103,39.49091],[-7.10596,39.48584],[-7.10817,39.48445],[-7.11039,39.48271],[-7.11131,39.48163],[-7.1121,39.48042],[-7.11442,39.47826],[-7.11622,39.47595],[-7.12282,39.46795],[-7.12684,39.4657],[-7.09365,39.45124],[-7.08584,39.4483],[-7.08366,39.44774],[-7.07662,39.44514],[-7.06604,39.44228],[-7.0651,39.4413],[-7.0629,39.44141],[-7.05913,39.43993],[-7.05536,39.439],[-7.0531,39.43786],[-7.04985,39.43674],[-7.04938,39.43667],[-7.05104,39.4346],[-7.05209,39.43266],[-7.05325,39.43166],[-7.05677,39.42672],[-7.05799,39.42543],[-7.06012,39.42199],[-7.06147,39.42019],[-7.06225,39.41887],[-7.06342,39.4172],[-7.06625,39.41547],[-7.0668,39.41477],[-7.06703,39.4143],[-7.06511,39.41332],[-7.06235,39.41102],[-7.05796,39.40859],[-7.05569,39.40701],[-7.05431,39.40572],[-7.05213,39.40414],[-7.04969,39.40194],[-7.04708,39.40108],[-7.04626,39.40073],[-7.04504,39.40012],[-7.04217,39.39824],[-7.03982,39.39708],[-7.03823,39.39644],[-7.03653,39.39593],[-7.03347,39.39527],[-7.03198,39.39479],[-7.03141,39.39469],[-7.03078,39.39471],[-7.03017,39.39458],[-7.02903,39.39468],[-7.0278,39.3945],[-7.02687,39.39453],[-7.02417,39.39392],[-7.02254,39.39326],[-7.0206,39.39277],[-7.01837,39.39236],[-7.0146,39.39045],[-7.01402,39.39007],[-7.01263,39.38944],[-7.01162,39.38908],[-7.00927,39.38848],[-7.01062,39.38746],[-7.01299,39.38603],[-7.01475,39.38521],[-7.01572,39.38492],[-7.01713,39.38421],[-7.01879,39.38305],[-7.01933,39.38247],[-7.0196,39.3819],[-7.01951,39.3814],[-7.01833,39.37893],[-7.01825,39.37859],[-7.0186,39.3772],[-7.02032,39.37315],[-7.02137,39.37131],[-7.02235,39.37069],[-7.02379,39.37012],[-7.02534,39.3697],[-7.02923,39.36947],[-7.02989,39.36934],[-7.0311,39.3688],[-7.0324,39.36801],[-7.03261,39.36764],[-7.03247,39.36664],[-7.03226,39.36597],[-7.03111,39.36429],[-7.03028,39.36219],[-7.03015,39.361],[-7.02947,39.35965],[-7.02937,39.35915],[-7.02935,39.35836],[-7.02981,39.35729],[-7.0295,39.3553],[-7.02983,39.3515],[-7.03001,39.35086],[-7.03147,39.34845],[-7.03471,39.34524],[-7.03564,39.34452],[-7.03756,39.34335],[-7.03935,39.34261],[-7.0406,39.34164],[-7.04137,39.34069],[-7.042,39.33967],[-7.04367,39.33782],[-7.04497,39.33654],[-7.04617,39.33559],[-7.04656,39.33493],[-7.04802,39.33351],[-7.04876,39.33165],[-7.04891,39.32986],[-7.04879,39.32937],[-7.04836,39.32898],[-7.04679,39.32812],[-7.04413,39.32693],[-7.04424,39.3268],[-7.04446,39.32692],[-7.04625,39.32492],[-7.04727,39.32398],[-7.04911,39.32261],[-7.05072,39.32159],[-7.05569,39.31955],[-7.05713,39.31917],[-7.0604,39.31747],[-7.06184,39.31646],[-7.06293,39.31602],[-7.06434,39.3156],[-7.06621,39.31529],[-7.06734,39.31497],[-7.06843,39.31446],[-7.07124,39.31263],[-7.07218,39.31214],[-7.07427,39.31134],[-7.07652,39.31062],[-7.0775,39.31017],[-7.07904,39.31085],[-7.0799,39.31139],[-7.0809,39.31226],[-7.08169,39.31323],[-7.08244,39.31514],[-7.08339,39.31845],[-7.08371,39.32025],[-7.0846,39.323],[-7.08458,39.32376],[-7.08432,39.32441],[-7.08417,39.32528],[-7.08429,39.32618],[-7.0841,39.32813],[-7.08326,39.32962],[-7.08324,39.3299],[-7.08345,39.33035],[-7.08367,39.3323],[-7.08414,39.33348],[-7.08421,39.33396],[-7.08376,39.33462],[-7.08308,39.33532],[-7.08319,39.33556],[-7.08369,39.33585],[-7.08571,39.33836],[-7.08648,39.33915],[-7.08707,39.33958],[-7.08867,39.34034],[-7.09085,39.34097],[-7.09175,39.34146],[-7.09235,39.34148],[-7.09415,39.34185],[-7.09517,39.34226],[-7.09745,39.34413],[-7.09862,39.34485],[-7.09993,39.34547],[-7.1021,39.34605],[-7.10243,39.34637],[-7.10262,39.34673],[-7.10261,39.34724],[-7.10223,39.34828],[-7.10237,39.34947],[-7.10259,39.35011],[-7.10315,39.35075],[-7.10349,39.35163],[-7.10357,39.35354],[-7.10312,39.35533],[-7.10275,39.35588],[-7.10059,39.35784],[-7.09892,39.35912],[-7.09283,39.35746],[-7.09086,39.35654],[-7.08785,39.35546],[-7.08404,39.3534],[-7.08201,39.35263],[-7.07946,39.35141],[-7.079,39.35231],[-7.07824,39.35443],[-7.07665,39.35681],[-7.07478,39.35912],[-7.07379,39.36011],[-7.07287,39.36135],[-7.07156,39.36248],[-7.07114,39.36301],[-7.07073,39.36368],[-7.06967,39.36664],[-7.06736,39.36841],[-7.0653,39.37057],[-7.0633,39.37227],[-7.06425,39.37244],[-7.06519,39.37273],[-7.06693,39.37355],[-7.06947,39.37409],[-7.07054,39.37422],[-7.07095,39.37481],[-7.07155,39.37628],[-7.07313,39.37867],[-7.07421,39.38121],[-7.07635,39.38113],[-7.07944,39.37963],[-7.08017,39.37932],[-7.08048,39.37929],[-7.0835,39.37958],[-7.08619,39.38015],[-7.08845,39.38045],[-7.0891,39.38047],[-7.09025,39.38012],[-7.09131,39.37991],[-7.09248,39.37987],[-7.09353,39.37996],[-7.09415,39.38014],[-7.09442,39.38052],[-7.09852,39.38476],[-7.09911,39.38512],[-7.09954,39.38526],[-7.10338,39.38565],[-7.10472,39.38595],[-7.10521,39.38596],[-7.10879,39.38539],[-7.11,39.38513],[-7.1115,39.38464],[-7.11317,39.38441],[-7.11456,39.3841],[-7.11741,39.38369],[-7.11921,39.38365],[-7.12075,39.38291],[-7.12257,39.38228],[-7.12364,39.38181],[-7.12607,39.38117],[-7.12654,39.3809],[-7.12888,39.37828],[-7.12966,39.37766],[-7.13101,39.37683],[-7.1317,39.37621],[-7.13412,39.37475],[-7.13627,39.37586],[-7.13755,39.37678],[-7.1417,39.3749],[-7.14434,39.37306],[-7.14733,39.37122],[-7.14909,39.3704],[-7.14975,39.36996],[-7.15104,39.36877],[-7.15463,39.36751],[-7.15657,39.36581],[-7.15907,39.36409],[-7.15962,39.36359],[-7.16156,39.36133],[-7.1618,39.36083],[-7.16204,39.35983],[-7.16175,39.358],[-7.16194,39.35657],[-7.16415,39.35311],[-7.16508,39.35219],[-7.1657,39.35058],[-7.16641,39.34985],[-7.16773,39.34895],[-7.16798,39.34865],[-7.16846,39.34787],[-7.16895,39.34613],[-7.16982,39.34513],[-7.17101,39.34423],[-7.1721,39.34381],[-7.17252,39.34347],[-7.17474,39.34125],[-7.17475,39.34058],[-7.17492,39.34],[-7.17626,39.33926],[-7.17678,39.33781],[-7.17751,39.33757],[-7.17695,39.33376],[-7.17708,39.3334],[-7.17773,39.33332],[-7.17816,39.33121],[-7.17759,39.32864],[-7.17706,39.32742],[-7.17583,39.32722],[-7.17492,39.32684],[-7.17438,39.32572],[-7.17352,39.32507],[-7.17301,39.32443],[-7.17224,39.32302],[-7.17179,39.32271],[-7.17078,39.32228],[-7.17011,39.32188],[-7.16967,39.3214],[-7.16884,39.32015],[-7.16852,39.32054],[-7.16796,39.32218],[-7.16678,39.32329],[-7.16619,39.32607],[-7.16481,39.32731],[-7.16286,39.32752],[-7.16138,39.32926],[-7.16052,39.33055],[-7.15914,39.33066],[-7.15828,39.3303],[-7.15733,39.33044],[-7.15575,39.32966],[-7.1553,39.32894],[-7.15486,39.32794],[-7.15402,39.32548],[-7.1546,39.32488],[-7.15415,39.32409],[-7.15307,39.32385],[-7.15236,39.32224],[-7.15235,39.32148],[-7.15414,39.31972],[-7.15585,39.31736],[-7.15589,39.31572],[-7.15553,39.31445],[-7.15797,39.31319],[-7.15883,39.31293],[-7.16073,39.31259],[-7.16168,39.31213],[-7.16444,39.31026],[-7.16597,39.30894],[-7.16953,39.30641],[-7.17008,39.30589],[-7.17106,39.30256],[-7.17157,39.29898],[-7.17204,39.29772],[-7.17255,39.29681],[-7.17502,39.29478],[-7.17586,39.29427],[-7.18003,39.29271],[-7.18625,39.28656],[-7.18704,39.28597],[-7.18799,39.28557],[-7.19021,39.2838],[-7.19171,39.28197],[-7.19317,39.27959],[-7.19446,39.27787],[-7.1947,39.27726],[-7.1947,39.27535],[-7.19551,39.27404],[-7.19673,39.27275],[-7.19727,39.27234],[-7.19828,39.27081],[-7.19871,39.27038],[-7.20077,39.26925],[-7.20131,39.26882],[-7.20269,39.26716],[-7.20369,39.26627],[-7.20419,39.26569],[-7.21072,39.26953],[-7.22025,39.27263],[-7.22459,39.27541],[-7.23065,39.27826],[-7.2314,39.27836],[-7.23343,39.27968],[-7.24035,39.28295],[-7.2412,39.2835],[-7.24341,39.28558],[-7.25159,39.29076],[-7.2534,39.29205],[-7.25682,39.29474],[-7.26001,39.29663],[-7.26429,39.29966],[-7.26739,39.30141],[-7.26967,39.30382],[-7.2705,39.30518],[-7.27074,39.30606],[-7.2692,39.30776],[-7.26882,39.30869],[-7.26899,39.30943],[-7.27065,39.31004],[-7.27281,39.31166],[-7.27396,39.31354],[-7.27439,39.31404],[-7.28015,39.31838],[-7.28279,39.3209],[-7.28352,39.32137],[-7.28734,39.32257],[-7.28818,39.323],[-7.28834,39.32348],[-7.28834,39.32427],[-7.2885,39.325],[-7.28878,39.32547],[-7.28906,39.32575],[-7.29155,39.32713],[-7.2925,39.32871],[-7.29288,39.32904],[-7.29378,39.3292],[-7.29488,39.32927],[-7.29766,39.32975],[-7.2987,39.33005],[-7.30059,39.33109],[-7.30413,39.33341],[-7.30831,39.33683],[-7.31054,39.34095],[-7.30857,39.34555],[-7.30624,39.35142],[-7.3064,39.35595],[-7.308,39.35866],[-7.31081,39.36245],[-7.31095,39.36858],[-7.31227,39.37076],[-7.3135,39.37169],[-7.3147,39.37238],[-7.31552,39.37304],[-7.31629,39.374],[-7.31672,39.37469],[-7.3175,39.37785],[-7.32107,39.37836],[-7.32181,39.3783],[-7.32348,39.38194],[-7.32166,39.38625],[-7.32057,39.38753],[-7.31901,39.38845],[-7.31725,39.38976],[-7.31581,39.39165],[-7.31384,39.39355],[-7.31354,39.395],[-7.31347,39.39731],[-7.3127,39.39963],[-7.31216,39.3999],[-7.31189,39.39985],[-7.31126,39.3995],[-7.3103,39.3986],[-7.30983,39.3986],[-7.30941,39.3988],[-7.30914,39.39913],[-7.30878,39.39997],[-7.30739,39.40143],[-7.30664,39.40256],[-7.30653,39.40291],[-7.30661,39.40325],[-7.30698,39.40354],[-7.30741,39.40413],[-7.30751,39.40448],[-7.30703,39.40494],[-7.3069,39.40524],[-7.30694,39.40559],[-7.30671,39.40616],[-7.30664,39.40735],[-7.30648,39.40768],[-7.30557,39.40854],[-7.30522,39.40928],[-7.30514,39.41031],[-7.30323,39.41155],[-7.3032,39.41197],[-7.30226,39.41332],[-7.30238,39.41373],[-7.30285,39.4144],[-7.30279,39.41488],[-7.30261,39.41537],[-7.3015,39.4164],[-7.3015,39.4168],[-7.30177,39.4174],[-7.30316,39.4189],[-7.3034,39.41935],[-7.30313,39.4202],[-7.30225,39.42117],[-7.30216,39.42169],[-7.30229,39.42222],[-7.30428,39.42389],[-7.30484,39.42459],[-7.30539,39.42567],[-7.30605,39.42646],[-7.30662,39.42687],[-7.30684,39.42722],[-7.30814,39.4282],[-7.3088,39.42986],[-7.30893,39.43158],[-7.30808,39.43255],[-7.30745,39.43364],[-7.30693,39.43416],[-7.3067,39.43463],[-7.30653,39.43582],[-7.30565,39.43736],[-7.30566,39.4376],[-7.30636,39.4386],[-7.30637,39.43902],[-7.30629,39.43951],[-7.30561,39.44087],[-7.30566,39.44208],[-7.30597,39.44297],[-7.30556,39.44389],[-7.30545,39.44454],[-7.30567,39.44556],[-7.30558,39.44579],[-7.30371,39.44785],[-7.30295,39.4489],[-7.30126,39.44976],[-7.30075,39.45015],[-7.29955,39.45146],[-7.29803,39.4528],[-7.29723,39.45334],[-7.29663,39.45363],[-7.29588,39.45432],[-7.29461,39.45593],[-7.29545,39.45733],[-7.2959,39.45767],[-7.2965,39.4589],[-7.29741,39.45956],[-7.29828,39.46049],[-7.29941,39.46142],[-7.3005,39.4627],[-7.30085,39.46283],[-7.30117,39.46273],[-7.30205,39.46214],[-7.30231,39.46215],[-7.30364,39.46278],[-7.30467,39.46345],[-7.30518,39.46391],[-7.30724,39.46517],[-7.30854,39.46666],[-7.30896,39.46689],[-7.30944,39.4669],[-7.31173,39.46658],[-7.31335,39.46683],[-7.31436,39.46749],[-7.31556,39.46846],[-7.3175,39.46975],[-7.31828,39.47001],[-7.31944,39.47069],[-7.31975,39.4711],[-7.31983,39.47233],[-7.32032,39.47289],[-7.3206,39.47404],[-7.32091,39.47426],[-7.3221,39.47457],[-7.32276,39.47486],[-7.32458,39.47586],[-7.32489,39.47584],[-7.32539,39.47558],[-7.3257,39.47552],[-7.32616,39.47554],[-7.32802,39.47604],[-7.32891,39.4761],[-7.3306,39.476],[-7.33163,39.47611],[-7.33353,39.47688],[-7.33492,39.47765],[-7.33586,39.47833],[-7.33642,39.47851],[-7.33777,39.4792],[-7.33811,39.47926],[-7.33925,39.47884],[-7.34052,39.47857],[-7.34114,39.47835],[-7.34288,39.47835],[-7.3438,39.47863],[-7.34425,39.47891],[-7.34459,39.47933],[-7.34512,39.48148],[-7.3458,39.48266],[-7.34651,39.48313],[-7.34699,39.4837],[-7.34713,39.48407],[-7.34742,39.4857],[-7.34729,39.48611],[-7.34684,39.48666],[-7.34673,39.48698],[-7.34697,39.48779],[-7.34711,39.4879],[-7.34734,39.48798],[-7.3492,39.48783],[-7.3502,39.4876],[-7.35106,39.48694],[-7.35198,39.48582],[-7.35271,39.48559],[-7.35317,39.48566],[-7.35342,39.4856],[-7.35454,39.48455],[-7.35495,39.4843],[-7.3554,39.48414],[-7.35725,39.48408],[-7.35822,39.48376],[-7.35937,39.48373],[-7.35964,39.48363],[-7.35994,39.48336],[-7.36054,39.48246],[-7.36082,39.48223],[-7.3618,39.48211],[-7.36282,39.48238],[-7.36346,39.48331],[-7.36396,39.48447],[-7.3641,39.48508],[-7.36408,39.48637],[-7.36395,39.48706],[-7.36414,39.48713],[-7.36482,39.48689],[-7.36562,39.48685],[-7.36631,39.48699],[-7.36686,39.48726],[-7.36711,39.4875],[-7.36749,39.48818],[-7.36802,39.48848],[-7.36866,39.4885],[-7.36926,39.48834],[-7.37057,39.48828],[-7.37226,39.48891],[-7.37365,39.49],[-7.37436,39.49],[-7.37493,39.4898],[-7.3754,39.48974],[-7.37914,39.49108],[-7.38015,39.49125],[-7.38127,39.49181],[-7.38122,39.49244],[-7.381,39.49261],[-7.3799,39.49294],[-7.37915,39.4939],[-7.37884,39.49394],[-7.3783,39.49423],[-7.37785,39.49468],[-7.37781,39.49514],[-7.37813,39.49655],[-7.37832,39.49685],[-7.3786,39.49714],[-7.37896,39.49732],[-7.38043,39.49767],[-7.38176,39.49898],[-7.38242,39.499],[-7.38335,39.49859],[-7.3849,39.49848],[-7.38569,39.49832],[-7.38624,39.49841],[-7.38658,39.49859],[-7.38683,39.49881],[-7.38707,39.49949],[-7.38672,39.5008],[-7.38667,39.50137],[-7.38676,39.50169],[-7.38758,39.50238],[-7.38924,39.503],[-7.38992,39.50364],[-7.39008,39.5043],[-7.3896,39.5055],[-7.3896,39.50584],[-7.39041,39.50688],[-7.39055,39.5073],[-7.39034,39.50808],[-7.38993,39.50855],[-7.38885,39.50928],[-7.38835,39.50989],[-7.38829,39.51012],[-7.38828,39.51117],[-7.38847,39.51216],[-7.38912,39.51401],[-7.38924,39.51479],[-7.38864,39.51636],[-7.38849,39.51706],[-7.38846,39.51819],[-7.38823,39.52014],[-7.389,39.52166],[-7.38863,39.52354],[-7.38873,39.52435],[-7.38932,39.5253],[-7.39121,39.52629],[-7.39183,39.52671],[-7.39214,39.52722],[-7.39213,39.52822],[-7.39122,39.52926],[-7.39112,39.52988],[-7.38996,39.52995],[-7.3881,39.52977],[-7.38774,39.52981],[-7.38704,39.53014],[-7.38586,39.53122],[-7.38484,39.53168],[-7.38225,39.53237],[-7.38105,39.53299],[-7.38089,39.53318],[-7.38048,39.53429],[-7.37977,39.53485],[-7.37907,39.53516],[-7.37864,39.53573],[-7.37857,39.53606],[-7.37884,39.53697],[-7.37901,39.53819],[-7.37868,39.54007],[-7.37827,39.54061],[-7.37736,39.54132],[-7.37637,39.54145],[-7.37516,39.54147],[-7.37308,39.54129],[-7.37245,39.54134],[-7.372,39.54143],[-7.37084,39.54199],[-7.37049,39.54208],[-7.37015,39.54226],[-7.3696,39.54277],[-7.36917,39.54295],[-7.36864,39.54288],[-7.36612,39.54221],[-7.36485,39.54227],[-7.36416,39.54244],[-7.36304,39.54332],[-7.36237,39.54371],[-7.36192,39.54384],[-7.35916,39.54401],[-7.35752,39.54383],[-7.35617,39.54349],[-7.3548,39.54297],[-7.35349,39.54284],[-7.35418,39.54497],[-7.35416,39.54521],[-7.35382,39.54589],[-7.35333,39.54634],[-7.35138,39.5475],[-7.35113,39.54776],[-7.35083,39.54825],[-7.35049,39.54924],[-7.34956,39.55081],[-7.34924,39.55166],[-7.34862,39.55231],[-7.34705,39.5543],[-7.34529,39.55687],[-7.3431,39.55959],[-7.34186,39.56084],[-7.34277,39.56306],[-7.34341,39.56406],[-7.34557,39.56596],[-7.34609,39.56715],[-7.34656,39.5679],[-7.34709,39.56834],[-7.34831,39.5689],[-7.35098,39.5712],[-7.35113,39.5714],[-7.35108,39.57215],[-7.35083,39.57261],[-7.35039,39.57309],[-7.34826,39.5741],[-7.34523,39.57495],[-7.34293,39.57572],[-7.34132,39.57642],[-7.3388,39.57721],[-7.33717,39.57785],[-7.33619,39.57846],[-7.33435,39.579],[-7.3337,39.57902],[-7.33351,39.57893],[-7.33318,39.57848],[-7.3328,39.57823],[-7.3321,39.57799],[-7.33161,39.57794],[-7.33111,39.57804],[-7.33052,39.57828],[-7.33006,39.5798],[-7.32956,39.58037],[-7.3291,39.5805],[-7.32825,39.58032],[-7.32735,39.58041],[-7.32666,39.58077],[-7.32473,39.58133],[-7.32446,39.5815],[-7.32426,39.58178],[-7.32414,39.58219],[-7.32414,39.5827],[-7.32436,39.58358],[-7.32485,39.58405],[-7.3256,39.58417],[-7.32586,39.58436],[-7.32581,39.58483],[-7.32515,39.58524],[-7.32492,39.58551],[-7.3248,39.58595],[-7.32492,39.58651],[-7.32522,39.58677],[-7.32609,39.58723],[-7.32628,39.58765],[-7.32612,39.58801],[-7.32511,39.58919],[-7.32502,39.58965],[-7.32451,39.59074],[-7.32392,39.59174],[-7.32387,39.59259],[-7.32369,39.59317],[-7.32401,39.5937],[-7.3239,39.59402],[-7.32348,39.59422],[-7.32324,39.59448],[-7.32309,39.59544],[-7.32291,39.5956],[-7.32243,39.59561],[-7.32121,39.59509],[-7.3208,39.59498],[-7.32054,39.59502],[-7.32014,39.59528],[-7.31958,39.59623],[-7.31978,39.59738],[-7.31973,39.59779],[-7.31987,39.59808],[-7.32074,39.59837],[-7.32119,39.59859],[-7.32149,39.59885],[-7.32157,39.59913],[-7.32115,39.60007],[-7.32112,39.60035],[-7.32162,39.60116],[-7.32172,39.60213],[-7.32189,39.60235],[-7.32281,39.60283],[-7.32288,39.60347],[-7.32378,39.60428],[-7.32481,39.60442],[-7.32509,39.60452],[-7.32513,39.60462],[-7.32497,39.60507],[-7.32401,39.60656],[-7.32385,39.60874],[-7.32375,39.60889],[-7.32342,39.60891],[-7.32222,39.60796],[-7.3219,39.60786],[-7.32163,39.60795],[-7.32146,39.60827],[-7.32153,39.60903],[-7.32132,39.60951],[-7.3208,39.61016],[-7.31932,39.61086],[-7.31908,39.61076],[-7.31894,39.61004],[-7.31882,39.60998],[-7.31786,39.61044],[-7.31714,39.61037],[-7.31682,39.61045],[-7.31653,39.61067],[-7.31644,39.61099],[-7.31654,39.61128],[-7.31702,39.61189],[-7.317,39.61263],[-7.31744,39.61327],[-7.31749,39.61388],[-7.3177,39.6144],[-7.31753,39.6146],[-7.31685,39.61488],[-7.31687,39.61511],[-7.31715,39.61528],[-7.31795,39.61535],[-7.31803,39.61552],[-7.31789,39.61588],[-7.31743,39.61631],[-7.31736,39.61652],[-7.31751,39.61668],[-7.3177,39.61668],[-7.31851,39.61625],[-7.31883,39.61622],[-7.31902,39.61634],[-7.31961,39.61743],[-7.31965,39.61774],[-7.31951,39.61807],[-7.3193,39.61832],[-7.31899,39.61836],[-7.3186,39.61823],[-7.31781,39.6183],[-7.31764,39.61847],[-7.31765,39.61888],[-7.31738,39.61973],[-7.31614,39.62031],[-7.31553,39.62131],[-7.31528,39.62145],[-7.31487,39.62141],[-7.31428,39.62103],[-7.31407,39.62101],[-7.3134,39.62146],[-7.31259,39.62129],[-7.31231,39.6214],[-7.31212,39.6216],[-7.31177,39.62231],[-7.31093,39.62098],[-7.3108,39.62027],[-7.31093,39.61942],[-7.31071,39.61877],[-7.31015,39.61851],[-7.30815,39.61817],[-7.30757,39.61817],[-7.30691,39.61837],[-7.30667,39.61874],[-7.30698,39.62003],[-7.30696,39.62035],[-7.3066,39.6209],[-7.30594,39.62136],[-7.30542,39.62214],[-7.30521,39.62224],[-7.30483,39.62228],[-7.30361,39.62197],[-7.30256,39.62208],[-7.30202,39.62203],[-7.30157,39.62173],[-7.30202,39.62107],[-7.30331,39.62053],[-7.30356,39.62035],[-7.3037,39.62008],[-7.30372,39.61973],[-7.30358,39.61946],[-7.30266,39.61894],[-7.30238,39.61865],[-7.3023,39.61844],[-7.30239,39.61816],[-7.30258,39.61784],[-7.30305,39.61746],[-7.30442,39.61713],[-7.30462,39.61699],[-7.30476,39.61585],[-7.3046,39.61551],[-7.30433,39.61521],[-7.30359,39.61469],[-7.30131,39.61365],[-7.30027,39.61366],[-7.29909,39.61387],[-7.29858,39.61372],[-7.29821,39.61283],[-7.29795,39.61274],[-7.29731,39.61304],[-7.29674,39.6138],[-7.29656,39.6139],[-7.29608,39.61385],[-7.29591,39.61366],[-7.29588,39.61334],[-7.29602,39.61311],[-7.29739,39.6119],[-7.29915,39.61112],[-7.29919,39.61087],[-7.29903,39.61041],[-7.2991,39.61008],[-7.30002,39.60916],[-7.30013,39.60886],[-7.2996,39.6085],[-7.29911,39.60834],[-7.29798,39.60831],[-7.29734,39.60838],[-7.29686,39.60812],[-7.29643,39.60771],[-7.29636,39.6074],[-7.29644,39.60703],[-7.29668,39.60652],[-7.29729,39.60581],[-7.29769,39.60557],[-7.29904,39.60533],[-7.29929,39.60519],[-7.29928,39.60485],[-7.29908,39.60468],[-7.298,39.60434],[-7.29743,39.60394],[-7.29734,39.60362],[-7.29738,39.60317],[-7.2981,39.60128],[-7.29788,39.60079],[-7.29643,39.60006],[-7.29602,39.60021],[-7.29594,39.6005],[-7.29617,39.60152],[-7.29612,39.60181],[-7.29592,39.60195],[-7.29522,39.60188],[-7.29448,39.60143],[-7.29384,39.60163],[-7.29355,39.60243],[-7.29354,39.60314],[-7.29372,39.60432],[-7.29366,39.60471],[-7.29293,39.6049],[-7.29048,39.6042],[-7.29014,39.60429],[-7.28965,39.60485],[-7.28939,39.60495],[-7.28887,39.60447],[-7.28695,39.60369],[-7.28679,39.60324],[-7.28712,39.60235],[-7.28817,39.60145],[-7.28758,39.60123],[-7.28696,39.60123],[-7.28578,39.60142],[-7.2855,39.60135],[-7.28532,39.60107],[-7.28537,39.60082],[-7.28629,39.59947],[-7.2864,39.59903],[-7.28625,39.59799],[-7.28642,39.59782],[-7.28672,39.59781],[-7.28719,39.59797],[-7.28797,39.59844],[-7.28823,39.59847],[-7.28839,39.59812],[-7.28832,39.5972],[-7.28854,39.59678],[-7.28939,39.59603],[-7.28949,39.59581],[-7.28943,39.59564],[-7.28809,39.59559],[-7.28765,39.5957],[-7.28606,39.5967],[-7.28569,39.59675],[-7.28528,39.59661],[-7.2852,39.59635],[-7.2854,39.5958],[-7.2861,39.59461],[-7.28623,39.5939],[-7.28624,39.59294],[-7.28611,39.59254],[-7.28577,39.59218],[-7.28539,39.59202],[-7.28445,39.59202],[-7.28387,39.59214],[-7.2832,39.59242],[-7.28219,39.59434],[-7.28172,39.5943],[-7.2815,39.59386],[-7.28102,39.59225],[-7.2806,39.59162],[-7.28056,39.59123],[-7.28078,39.59103],[-7.28184,39.59066],[-7.28215,39.59034],[-7.28229,39.58995],[-7.28216,39.58954],[-7.28186,39.58922],[-7.28145,39.58906],[-7.27965,39.58935],[-7.27868,39.58972],[-7.27702,39.59054],[-7.27513,39.59041],[-7.27476,39.59025],[-7.27452,39.59],[-7.27374,39.58975],[-7.27352,39.58957],[-7.27341,39.58877],[-7.27366,39.58772],[-7.27337,39.58774],[-7.2724,39.5881],[-7.27167,39.588],[-7.27057,39.58704],[-7.27012,39.58642],[-7.2698,39.58627],[-7.2694,39.58625],[-7.26879,39.58648],[-7.26861,39.58674],[-7.26871,39.58761],[-7.26853,39.58779],[-7.2673,39.58823],[-7.26675,39.58828],[-7.26571,39.58818],[-7.26469,39.58792],[-7.26385,39.58662],[-7.26341,39.58567],[-7.26362,39.58503],[-7.2642,39.58451],[-7.26475,39.58367],[-7.26489,39.58268],[-7.2647,39.58228],[-7.2644,39.58198],[-7.26404,39.58183],[-7.263,39.58168],[-7.26161,39.58162],[-7.26003,39.58171],[-7.25984,39.58159],[-7.2601,39.5803],[-7.25998,39.57962],[-7.25937,39.5793],[-7.25808,39.57901],[-7.25688,39.57862],[-7.2565,39.57843],[-7.25619,39.57792],[-7.25633,39.57763],[-7.25659,39.57755],[-7.25817,39.57746],[-7.25857,39.57734],[-7.25882,39.57715],[-7.259,39.57686],[-7.25925,39.5759],[-7.25922,39.57546],[-7.25863,39.57436],[-7.25817,39.57378],[-7.25727,39.57323],[-7.2543,39.57267],[-7.25346,39.57235],[-7.25288,39.572],[-7.2521,39.57126],[-7.25207,39.57084],[-7.25255,39.57031],[-7.25397,39.56936],[-7.25509,39.56883],[-7.25544,39.56834],[-7.25543,39.56808],[-7.255,39.5676],[-7.25341,39.56724],[-7.25264,39.56687],[-7.25243,39.56655],[-7.25226,39.56537],[-7.25214,39.56518],[-7.25184,39.56513],[-7.25041,39.56523],[-7.24901,39.56546],[-7.24874,39.56529],[-7.24889,39.56495],[-7.24984,39.56434],[-7.25011,39.56403],[-7.25007,39.56377],[-7.24983,39.56362],[-7.24807,39.56401],[-7.24623,39.56368],[-7.24555,39.56336],[-7.24548,39.56321],[-7.24558,39.56283],[-7.24581,39.56256],[-7.24624,39.56227],[-7.24667,39.56213],[-7.24744,39.56213],[-7.24908,39.56246],[-7.24986,39.56252],[-7.25037,39.56229],[-7.25037,39.56213],[-7.25,39.56175],[-7.24826,39.56103],[-7.24779,39.56052],[-7.24677,39.55831],[-7.24667,39.55786],[-7.24673,39.55698],[-7.24644,39.55645],[-7.24611,39.55633],[-7.24373,39.55627],[-7.24344,39.55636],[-7.24273,39.55686],[-7.24245,39.55692],[-7.24156,39.55674],[-7.2411,39.55656],[-7.23998,39.5557],[-7.2399,39.55519],[-7.24017,39.55434],[-7.24113,39.55248],[-7.24112,39.55207],[-7.24104,39.55189],[-7.23998,39.55106],[-7.23968,39.55051],[-7.23921,39.5502],[-7.23892,39.55016],[-7.23778,39.55042],[-7.23543,39.55056],[-7.23448,39.55053],[-7.23378,39.55066],[-7.23207,39.55153],[-7.23173,39.55158],[-7.23062,39.55151],[-7.2283,39.55098],[-7.22786,39.55081],[-7.22686,39.55011],[-7.22617,39.5498],[-7.22523,39.54965],[-7.2234,39.55024],[-7.22179,39.55053],[-7.22076,39.55056],[-7.21974,39.55085],[-7.21935,39.55089],[-7.21743,39.55064],[-7.21655,39.55065],[-7.21516,39.55086],[-7.21504,39.55347],[-7.21522,39.55363],[-7.22029,39.55626],[-7.21974,39.55621],[-7.2191,39.55636],[-7.21836,39.55682],[-7.21805,39.55691],[-7.21336,39.55724],[-7.21259,39.55765],[-7.21172,39.55845],[-7.21147,39.55894],[-7.21107,39.55938],[-7.21072,39.55961],[-7.20996,39.55968],[-7.20953,39.5596],[-7.20879,39.55915],[-7.20804,39.55889],[-7.20714,39.5591],[-7.20571,39.55969],[-7.20502,39.56025],[-7.20409,39.5618],[-7.20402,39.56282],[-7.2039,39.56314],[-7.20295,39.56419],[-7.20247,39.56439],[-7.20226,39.56458],[-7.2021,39.56553],[-7.20167,39.56592],[-7.20066,39.56619],[-7.19989,39.56611],[-7.19839,39.56637],[-7.19702,39.56597],[-7.19577,39.56621],[-7.19516,39.56607],[-7.19436,39.5657],[-7.19384,39.56555],[-7.19268,39.56578],[-7.19147,39.56629],[-7.19113,39.56654],[-7.19107,39.56679],[-7.19134,39.56808],[-7.1912,39.56869],[-7.19126,39.56891],[-7.19178,39.56923],[-7.19242,39.56941],[-7.19339,39.56992],[-7.19377,39.57037],[-7.19242,39.57037],[-7.19162,39.57046],[-7.1901,39.57084],[-7.1893,39.5712],[-7.18764,39.57224],[-7.18661,39.57326],[-7.17954,39.57526],[-7.17869,39.57541]],[[-7.25326,39.43366],[-7.25409,39.43392],[-7.25508,39.43399],[-7.256,39.4342],[-7.25691,39.43421],[-7.25796,39.43406],[-7.2597,39.43351],[-7.26088,39.43263],[-7.26166,39.43199],[-7.26334,39.4303],[-7.26414,39.42907],[-7.26609,39.42654],[-7.26693,39.42477],[-7.26771,39.42366],[-7.26923,39.4207],[-7.26996,39.41864],[-7.27103,39.41657],[-7.27074,39.41568],[-7.27047,39.41527],[-7.27128,39.40929],[-7.27124,39.4076],[-7.27159,39.40644],[-7.27141,39.40571],[-7.27172,39.40433],[-7.27241,39.40318],[-7.27124,39.40339],[-7.26926,39.40327],[-7.26745,39.40366],[-7.26665,39.4042],[-7.26617,39.40428],[-7.26458,39.40441],[-7.26311,39.40398],[-7.26226,39.40441],[-7.2637,39.40212],[-7.26502,39.40071],[-7.26899,39.39765],[-7.27095,39.39532],[-7.27212,39.39421],[-7.26637,39.39143],[-7.26408,39.39051],[-7.25925,39.38834],[-7.25718,39.38767],[-7.2503,39.39139],[-7.24901,39.39214],[-7.24764,39.39323],[-7.24645,39.39388],[-7.24591,39.39377],[-7.24552,39.39355],[-7.24491,39.3932],[-7.24454,39.3928],[-7.24353,39.39027],[-7.24314,39.38948],[-7.24246,39.38853],[-7.24226,39.38795],[-7.24107,39.38831],[-7.23963,39.38855],[-7.23819,39.38898],[-7.23747,39.38884],[-7.23533,39.38816],[-7.2343,39.38829],[-7.23369,39.38852],[-7.23229,39.38943],[-7.23091,39.38997],[-7.22778,39.39061],[-7.22633,39.39162],[-7.2246,39.39465],[-7.22225,39.39813],[-7.22121,39.39985],[-7.2201,39.40133],[-7.22422,39.40615],[-7.22673,39.40889],[-7.22355,39.41435],[-7.2243,39.41466],[-7.22639,39.41475],[-7.22883,39.41506],[-7.22963,39.41536],[-7.22933,39.41619],[-7.22913,39.41815],[-7.23008,39.41843],[-7.2321,39.41981],[-7.23288,39.42066],[-7.23504,39.4226],[-7.23563,39.42345],[-7.23578,39.42352],[-7.23652,39.42345],[-7.23754,39.42349],[-7.23844,39.42445],[-7.23893,39.42455],[-7.24005,39.42457],[-7.24048,39.42531],[-7.24055,39.42594],[-7.24036,39.42656],[-7.2404,39.42689],[-7.24175,39.42751],[-7.24583,39.4291],[-7.24702,39.42976],[-7.24767,39.43018],[-7.24966,39.43184],[-7.25119,39.43371],[-7.25194,39.43418],[-7.2524,39.4344],[-7.25277,39.43419],[-7.25326,39.43366]]]}}]}