{"type":"FeatureCollection","features":[{"type":"Feature","properties":{"id":"1100601001"},"geometry":{"type":"Polygon","coordinates":[[[-5.80688,36.75052],[-5.80336,36.75055],[-5.80238,36.7502],[-5.80243,36.74884],[-5.80236,36.74868],[-5.8025,36.74864],[-5.80291,36.74812],[-5.80297,36.74814],[-5.8033,36.74752],[-5.80355,36.74756],[-5.80333,36.74736],[-5.80349,36.74724],[-5.80342,36.74709],[-5.80397,36.74662],[-5.80375,36.74652],[-5.80347,36.7461],[-5.80307,36.74585],[-5.80396,36.74501],[-5.80492,36.7454],[-5.80602,36.7457],[-5.80619,36.74582],[-5.80659,36.74649],[-5.80755,36.74653],[-5.80773,36.74691],[-5.80859,36.74732],[-5.80873,36.7477],[-5.80851,36.74773],[-5.80861,36.74862],[-5.80937,36.74922],[-5.80911,36.7496],[-5.80879,36.74942],[-5.80821,36.74992],[-5.80771,36.74987],[-5.80715,36.75003],[-5.8068,36.74993],[-5.807,36.75007],[-5.80705,36.75024],[-5.80688,36.75052]]]}},{"type":"Feature","properties":{"id":"1100601003"},"geometry":{"type":"Polygon","coordinates":[[[-5.79939,36.7456],[-5.79925,36.74509],[-5.79944,36.74487],[-5.7986,36.74468],[-5.7988,36.74443],[-5.79903,36.74443],[-5.79926,36.74457],[-5.79954,36.74417],[-5.79965,36.74412],[-5.80006,36.74424],[-5.80021,36.74401],[-5.80002,36.74378],[-5.80008,36.74357],[-5.79992,36.74352],[-5.79995,36.74344],[-5.80009,36.74341],[-5.80038,36.74352],[-5.80052,36.74339],[-5.80038,36.7432],[-5.79993,36.74294],[-5.80018,36.74185],[-5.80068,36.74223],[-5.80236,36.74293],[-5.80292,36.74407],[-5.8033,36.74453],[-5.80396,36.74501],[-5.80307,36.74585],[-5.80347,36.7461],[-5.80375,36.74652],[-5.80397,36.74662],[-5.80342,36.74709],[-5.80349,36.74724],[-5.80333,36.74736],[-5.80355,36.74756],[-5.8033,36.74752],[-5.80297,36.74814],[-5.80291,36.74812],[-5.8025,36.74864],[-5.80236,36.74868],[-5.80243,36.74884],[-5.80238,36.7502],[-5.80154,36.75012],[-5.80116,36.75029],[-5.80091,36.75002],[-5.80044,36.74993],[-5.80013,36.75002],[-5.79942,36.75075],[-5.79833,36.74994],[-5.79944,36.74942],[-5.8001,36.74878],[-5.80037,36.74865],[-5.80086,36.74858],[-5.80125,36.74835],[-5.80143,36.74789],[-5.80143,36.74732],[-5.80102,36.74624],[-5.80026,36.74561],[-5.79939,36.7456]]]}},{"type":"Feature","properties":{"id":"1100601004"},"geometry":{"type":"Polygon","coordinates":[[[-5.79457,36.74563],[-5.79571,36.74454],[-5.79563,36.74446],[-5.79674,36.74357],[-5.797,36.74355],[-5.79722,36.74287],[-5.79715,36.74138],[-5.79799,36.74173],[-5.79904,36.74088],[-5.79977,36.74136],[-5.79971,36.74148],[-5.80018,36.74185],[-5.79993,36.74294],[-5.80038,36.7432],[-5.80052,36.74339],[-5.80038,36.74352],[-5.80009,36.74341],[-5.79995,36.74344],[-5.79992,36.74352],[-5.80008,36.74357],[-5.80002,36.74378],[-5.80021,36.74401],[-5.80006,36.74424],[-5.79965,36.74412],[-5.79926,36.74457],[-5.79903,36.74443],[-5.7988,36.74443],[-5.7986,36.74468],[-5.79944,36.74487],[-5.79925,36.74509],[-5.79939,36.7456],[-5.79874,36.74577],[-5.79716,36.7466],[-5.79573,36.74688],[-5.79543,36.74635],[-5.79573,36.74589],[-5.79457,36.74563]]]}},{"type":"Feature","properties":{"id":"1100601005"},"geometry":{"type":"Polygon","coordinates":[[[-5.7944,36.74334],[-5.79571,36.74454],[-5.79452,36.74562],[-5.79422,36.74499],[-5.79347,36.74503],[-5.79319,36.74467],[-5.79339,36.74455],[-5.79379,36.74452],[-5.79259,36.74337],[-5.79234,36.74335],[-5.79213,36.74319],[-5.79241,36.743],[-5.79291,36.74306],[-5.7935,36.74326],[-5.79386,36.74295],[-5.79407,36.74303],[-5.79422,36.74294],[-5.79446,36.74315],[-5.7944,36.74334]]]}},{"type":"Feature","properties":{"id":"1100601006"},"geometry":{"type":"Polygon","coordinates":[[[-5.79563,36.74446],[-5.7944,36.74334],[-5.79446,36.74315],[-5.79422,36.74294],[-5.79407,36.74303],[-5.79386,36.74295],[-5.7935,36.74326],[-5.79291,36.74306],[-5.79241,36.743],[-5.79213,36.74319],[-5.79234,36.74335],[-5.79259,36.74337],[-5.79379,36.74452],[-5.79339,36.74455],[-5.79319,36.74467],[-5.79347,36.74503],[-5.79422,36.74499],[-5.79452,36.74562],[-5.79573,36.74589],[-5.79543,36.74635],[-5.79573,36.74688],[-5.79716,36.7466],[-5.79874,36.74577],[-5.79945,36.74558],[-5.80026,36.74561],[-5.80102,36.74624],[-5.80127,36.74677],[-5.80145,36.74769],[-5.80125,36.74835],[-5.80086,36.74858],[-5.80037,36.74865],[-5.8001,36.74878],[-5.79944,36.74942],[-5.79833,36.74994],[-5.79818,36.74983],[-5.796,36.75082],[-5.7953,36.75122],[-5.79483,36.75097],[-5.79417,36.7509],[-5.79389,36.75073],[-5.79056,36.7517],[-5.79014,36.75176],[-5.78516,36.75174],[-5.78174,36.75114],[-5.78189,36.74925],[-5.78214,36.74885],[-5.78136,36.74683],[-5.7813,36.74631],[-5.78167,36.74535],[-5.78152,36.7451],[-5.78061,36.74465],[-5.78041,36.74444],[-5.77954,36.74253],[-5.78024,36.74187],[-5.78072,36.74175],[-5.7829,36.74053],[-5.7845,36.73985],[-5.78573,36.73857],[-5.78779,36.73669],[-5.78828,36.73606],[-5.78926,36.73547],[-5.78999,36.73597],[-5.79299,36.73747],[-5.79497,36.73838],[-5.79694,36.73914],[-5.79781,36.73998],[-5.79847,36.74014],[-5.79997,36.74117],[-5.79977,36.74136],[-5.79904,36.74088],[-5.79799,36.74173],[-5.79715,36.74138],[-5.79722,36.74287],[-5.797,36.74355],[-5.79674,36.74357],[-5.79563,36.74446]]]}},{"type":"Feature","properties":{"id":"1100602001"},"geometry":{"type":"Polygon","coordinates":[[[-5.81184,36.75092],[-5.81202,36.7511],[-5.81203,36.75128],[-5.81168,36.75155],[-5.81146,36.75148],[-5.81132,36.75176],[-5.80902,36.75091],[-5.80872,36.75107],[-5.80845,36.75096],[-5.80841,36.75084],[-5.80731,36.75076],[-5.80723,36.75103],[-5.80618,36.75085],[-5.80611,36.75108],[-5.80573,36.751],[-5.80578,36.75081],[-5.80556,36.75073],[-5.80452,36.75059],[-5.8042,36.75104],[-5.805,36.75227],[-5.80464,36.75245],[-5.80372,36.75145],[-5.80366,36.75113],[-5.80313,36.75065],[-5.80234,36.75031],[-5.80185,36.75023],[-5.80155,36.75023],[-5.80112,36.75036],[-5.80064,36.74997],[-5.80022,36.75001],[-5.79913,36.7511],[-5.79676,36.75238],[-5.79643,36.75233],[-5.7953,36.75122],[-5.796,36.75082],[-5.79818,36.74983],[-5.79942,36.75075],[-5.80013,36.75002],[-5.80044,36.74993],[-5.80091,36.75002],[-5.80111,36.75028],[-5.80154,36.75012],[-5.80222,36.75016],[-5.80294,36.75035],[-5.80336,36.75055],[-5.80688,36.75052],[-5.80705,36.75024],[-5.807,36.75007],[-5.8068,36.74993],[-5.80715,36.75003],[-5.80771,36.74987],[-5.80821,36.74992],[-5.80879,36.74942],[-5.80911,36.7496],[-5.80917,36.74953],[-5.80937,36.74922],[-5.80861,36.74862],[-5.80857,36.74833],[-5.81092,36.74919],[-5.8108,36.74939],[-5.81102,36.74974],[-5.81159,36.75019],[-5.81124,36.75063],[-5.81184,36.75092]]]}},{"type":"Feature","properties":{"id":"1100602002"},"geometry":{"type":"Polygon","coordinates":[[[-5.81449,36.75168],[-5.81425,36.75138],[-5.81184,36.75092],[-5.81124,36.75063],[-5.81159,36.75019],[-5.81102,36.74974],[-5.8108,36.74939],[-5.81092,36.74919],[-5.80857,36.74833],[-5.80851,36.74773],[-5.80873,36.7477],[-5.80859,36.74732],[-5.80773,36.74691],[-5.80755,36.74653],[-5.80659,36.74649],[-5.80619,36.74582],[-5.80574,36.74562],[-5.80611,36.74557],[-5.80713,36.74569],[-5.81002,36.74545],[-5.81129,36.74523],[-5.81416,36.74438],[-5.8165,36.74412],[-5.81679,36.74366],[-5.81816,36.74313],[-5.81889,36.74221],[-5.81874,36.74085],[-5.81892,36.74015],[-5.81879,36.73942],[-5.82407,36.74092],[-5.82473,36.74171],[-5.82494,36.74238],[-5.82381,36.74508],[-5.82373,36.74574],[-5.82402,36.74667],[-5.82303,36.74732],[-5.82312,36.74776],[-5.823,36.74797],[-5.82269,36.7481],[-5.82299,36.74833],[-5.8245,36.74871],[-5.82435,36.74934],[-5.82444,36.74943],[-5.8239,36.75012],[-5.82309,36.75064],[-5.82274,36.75054],[-5.82153,36.7498],[-5.82114,36.75066],[-5.81985,36.75086],[-5.81769,36.75143],[-5.81634,36.75166],[-5.81449,36.75168]]]}},{"type":"Feature","properties":{"id":"1100602003"},"geometry":{"type":"Polygon","coordinates":[[[-5.81184,36.75092],[-5.81425,36.75138],[-5.81449,36.75168],[-5.81551,36.75224],[-5.81536,36.75263],[-5.81675,36.75313],[-5.81685,36.75325],[-5.81699,36.75361],[-5.81675,36.75367],[-5.81666,36.75388],[-5.81654,36.75465],[-5.81596,36.75469],[-5.81593,36.75505],[-5.81563,36.75516],[-5.81536,36.75544],[-5.81433,36.75443],[-5.81315,36.75352],[-5.81255,36.75284],[-5.81215,36.75213],[-5.81224,36.75184],[-5.81168,36.75155],[-5.81205,36.75123],[-5.81184,36.75092]]]}},{"type":"Feature","properties":{"id":"1100602004"},"geometry":{"type":"Polygon","coordinates":[[[-5.81536,36.75544],[-5.81563,36.75516],[-5.81593,36.75505],[-5.81596,36.75469],[-5.81654,36.75465],[-5.81666,36.75388],[-5.81675,36.75367],[-5.81699,36.75361],[-5.81945,36.7544],[-5.81935,36.75462],[-5.82016,36.75551],[-5.81844,36.75709],[-5.81845,36.75686],[-5.81829,36.75661],[-5.81895,36.75588],[-5.81842,36.75555],[-5.81714,36.75525],[-5.81704,36.75577],[-5.81671,36.75597],[-5.81536,36.75544]]]}},{"type":"Feature","properties":{"id":"1100602005"},"geometry":{"type":"Polygon","coordinates":[[[-5.81536,36.75544],[-5.8163,36.75584],[-5.8168,36.75597],[-5.81704,36.75577],[-5.81714,36.75525],[-5.81842,36.75555],[-5.81895,36.75588],[-5.81829,36.75661],[-5.81845,36.75686],[-5.81844,36.75709],[-5.81763,36.75781],[-5.81697,36.75748],[-5.81648,36.7569],[-5.81455,36.75622],[-5.81281,36.75532],[-5.81258,36.75529],[-5.81366,36.75491],[-5.81379,36.75467],[-5.8137,36.75409],[-5.81378,36.75401],[-5.81536,36.75544]]]}},{"type":"Feature","properties":{"id":"1100602006"},"geometry":{"type":"Polygon","coordinates":[[[-5.82016,36.75551],[-5.81935,36.75462],[-5.81945,36.7544],[-5.81699,36.75361],[-5.81675,36.75313],[-5.81536,36.75263],[-5.81551,36.75224],[-5.81449,36.75168],[-5.81634,36.75166],[-5.81769,36.75143],[-5.81985,36.75086],[-5.82114,36.75066],[-5.82123,36.7521],[-5.82151,36.75302],[-5.82144,36.75419],[-5.82096,36.75484],[-5.82016,36.75551]]]}},{"type":"Feature","properties":{"id":"1100602007"},"geometry":{"type":"Polygon","coordinates":[[[-5.81182,36.75609],[-5.81146,36.75591],[-5.81172,36.75528],[-5.81144,36.75498],[-5.81132,36.75493],[-5.81118,36.75515],[-5.8111,36.75505],[-5.8104,36.75497],[-5.80988,36.75479],[-5.81037,36.75407],[-5.8111,36.75353],[-5.81183,36.7527],[-5.81242,36.75257],[-5.81286,36.75321],[-5.81378,36.75401],[-5.8137,36.75409],[-5.81378,36.75474],[-5.81357,36.75497],[-5.81212,36.75541],[-5.81182,36.75609]]]}},{"type":"Feature","properties":{"id":"1100602008"},"geometry":{"type":"Polygon","coordinates":[[[-5.81146,36.75148],[-5.81224,36.75184],[-5.81215,36.75213],[-5.81242,36.75257],[-5.81183,36.7527],[-5.8111,36.75353],[-5.81037,36.75407],[-5.80988,36.75479],[-5.8104,36.75497],[-5.8111,36.75505],[-5.81118,36.75515],[-5.81132,36.75493],[-5.81144,36.75498],[-5.81172,36.75528],[-5.81146,36.75591],[-5.81171,36.756],[-5.81181,36.75617],[-5.81158,36.75629],[-5.80997,36.75658],[-5.80853,36.75712],[-5.80834,36.75726],[-5.80789,36.75915],[-5.80824,36.76073],[-5.80859,36.76125],[-5.8074,36.76102],[-5.79772,36.75767],[-5.79724,36.75743],[-5.79585,36.75637],[-5.79516,36.7557],[-5.79505,36.75538],[-5.79659,36.75255],[-5.79643,36.75233],[-5.79676,36.75238],[-5.79913,36.7511],[-5.80022,36.75001],[-5.80064,36.74997],[-5.80112,36.75036],[-5.80155,36.75023],[-5.80185,36.75023],[-5.80234,36.75031],[-5.80303,36.75059],[-5.80341,36.75085],[-5.80366,36.75113],[-5.80372,36.75145],[-5.80464,36.75245],[-5.805,36.75227],[-5.8042,36.75104],[-5.80452,36.75059],[-5.80556,36.75073],[-5.80578,36.75081],[-5.80573,36.751],[-5.80611,36.75108],[-5.80618,36.75085],[-5.80723,36.75103],[-5.80731,36.75076],[-5.80841,36.75084],[-5.80845,36.75096],[-5.80872,36.75107],[-5.80902,36.75091],[-5.81111,36.75174],[-5.81132,36.75176],[-5.81146,36.75148]]]}},{"type":"Feature","properties":{"id":"1100602009"},"geometry":{"type":"Polygon","coordinates":[[[-5.8117,36.75626],[-5.81209,36.75547],[-5.81247,36.75604],[-5.81269,36.75697],[-5.81294,36.7575],[-5.81377,36.75806],[-5.81332,36.75892],[-5.81291,36.75954],[-5.81178,36.7607],[-5.81061,36.76018],[-5.80995,36.76007],[-5.80951,36.76013],[-5.80895,36.76045],[-5.80871,36.76081],[-5.80859,36.76123],[-5.80824,36.76073],[-5.80789,36.75915],[-5.80834,36.75726],[-5.80853,36.75712],[-5.80997,36.75658],[-5.8117,36.75626]]]}},{"type":"Feature","properties":{"id":"1100602010"},"geometry":{"type":"Polygon","coordinates":[[[-5.81178,36.7607],[-5.81291,36.75954],[-5.81377,36.75806],[-5.81294,36.7575],[-5.81269,36.75697],[-5.81247,36.75604],[-5.81212,36.75541],[-5.81242,36.75531],[-5.81281,36.75532],[-5.81417,36.75607],[-5.81648,36.7569],[-5.81697,36.75748],[-5.81763,36.75781],[-5.8168,36.75849],[-5.81698,36.75862],[-5.81621,36.75902],[-5.81491,36.76011],[-5.81303,36.76079],[-5.81178,36.7607]]]}},{"type":"Feature","properties":{"id":"1100603001"},"geometry":{"type":"Polygon","coordinates":[[[-5.81178,36.7607],[-5.81303,36.76079],[-5.81491,36.76011],[-5.81621,36.75902],[-5.81698,36.75862],[-5.8168,36.75849],[-5.82096,36.75484],[-5.82144,36.75419],[-5.82147,36.75402],[-5.82151,36.75302],[-5.82123,36.7521],[-5.82111,36.75114],[-5.82125,36.75036],[-5.82153,36.7498],[-5.82274,36.75054],[-5.82309,36.75064],[-5.8239,36.75012],[-5.82444,36.74943],[-5.82435,36.74934],[-5.8245,36.74871],[-5.82299,36.74833],[-5.82269,36.7481],[-5.823,36.74797],[-5.82312,36.74776],[-5.82303,36.74732],[-5.82367,36.74685],[-5.82447,36.74648],[-5.82565,36.74624],[-5.82759,36.74611],[-5.82981,36.74527],[-5.83067,36.74504],[-5.83157,36.74496],[-5.83964,36.74544],[-5.84117,36.74536],[-5.84216,36.74503],[-5.84354,36.74425],[-5.84568,36.74332],[-5.84806,36.74242],[-5.84929,36.74212],[-5.85621,36.74157],[-5.8579,36.74163],[-5.86368,36.7425],[-5.86692,36.74311],[-5.86784,36.74316],[-5.86967,36.74294],[-5.87276,36.74216],[-5.87364,36.74201],[-5.88291,36.74129],[-5.88382,36.74105],[-5.88779,36.73923],[-5.90072,36.7332],[-5.9024,36.73233],[-5.90421,36.73176],[-5.90502,36.73138],[-5.91702,36.72818],[-5.92641,36.7258],[-5.92867,36.72511],[-5.92892,36.72548],[-5.92935,36.72585],[-5.92921,36.72617],[-5.92996,36.72673],[-5.92986,36.72728],[-5.93128,36.72659],[-5.93178,36.72516],[-5.93251,36.72493],[-5.93352,36.72415],[-5.93692,36.72409],[-5.9369,36.72355],[-5.93648,36.72331],[-5.93594,36.72249],[-5.94039,36.72066],[-5.94635,36.72735],[-5.9438,36.72948],[-5.94309,36.72987],[-5.94288,36.73012],[-5.94276,36.7307],[-5.94297,36.73154],[-5.94297,36.732],[-5.94252,36.73278],[-5.94151,36.73385],[-5.94,36.73494],[-5.93876,36.73603],[-5.93626,36.73759],[-5.93176,36.74007],[-5.93003,36.74117],[-5.92846,36.74235],[-5.92472,36.74555],[-5.92306,36.7501],[-5.92215,36.75333],[-5.92193,36.75469],[-5.92157,36.75931],[-5.91999,36.76175],[-5.91828,36.76476],[-5.9182,36.76506],[-5.91822,36.76609],[-5.91903,36.76975],[-5.91991,36.77228],[-5.91955,36.77353],[-5.91953,36.77832],[-5.91988,36.78074],[-5.92024,36.78981],[-5.92062,36.79122],[-5.92067,36.79255],[-5.92089,36.79329],[-5.92132,36.79417],[-5.92143,36.79427],[-5.92279,36.79462],[-5.92262,36.79495],[-5.92225,36.79527],[-5.92019,36.7968],[-5.91826,36.79854],[-5.9164,36.7996],[-5.91628,36.80101],[-5.91605,36.80173],[-5.91519,36.80314],[-5.91439,36.80556],[-5.9132,36.80735],[-5.91278,36.80846],[-5.90978,36.81263],[-5.90915,36.81381],[-5.9075,36.81595],[-5.90457,36.81927],[-5.90387,36.82148],[-5.9005,36.82409],[-5.89987,36.82554],[-5.89773,36.82735],[-5.89741,36.82983],[-5.89364,36.83344],[-5.89132,36.83512],[-5.89118,36.83538],[-5.89138,36.83698],[-5.89153,36.84033],[-5.89105,36.84219],[-5.8906,36.84251],[-5.88879,36.8433],[-5.88968,36.8438],[-5.89035,36.84437],[-5.88883,36.84677],[-5.88432,36.84616],[-5.88373,36.84627],[-5.88195,36.84704],[-5.88096,36.84708],[-5.88029,36.84693],[-5.87884,36.84624],[-5.87241,36.8443],[-5.87075,36.84332],[-5.86754,36.8429],[-5.86629,36.8426],[-5.86582,36.84231],[-5.86553,36.84198],[-5.86397,36.83968],[-5.86329,36.83906],[-5.85969,36.83644],[-5.85909,36.83609],[-5.85869,36.83598],[-5.85642,36.83582],[-5.85585,36.83596],[-5.85316,36.83699],[-5.85108,36.83748],[-5.84902,36.83607],[-5.84847,36.8355],[-5.84658,36.83416],[-5.84588,36.83383],[-5.84499,36.83386],[-5.84297,36.83464],[-5.84236,36.83476],[-5.83811,36.83492],[-5.83487,36.83482],[-5.83415,36.83435],[-5.83344,36.83343],[-5.83246,36.83239],[-5.83094,36.8316],[-5.83054,36.83115],[-5.82928,36.83058],[-5.82801,36.83055],[-5.82739,36.83024],[-5.82718,36.82957],[-5.82717,36.8292],[-5.82731,36.82887],[-5.82788,36.8282],[-5.82849,36.82724],[-5.8277,36.82679],[-5.8274,36.82687],[-5.82666,36.82741],[-5.82489,36.82763],[-5.82389,36.82864],[-5.82346,36.8289],[-5.82125,36.82932],[-5.81951,36.83063],[-5.81816,36.83145],[-5.81672,36.83212],[-5.8151,36.83151],[-5.81238,36.83019],[-5.8122,36.82992],[-5.81218,36.82926],[-5.81235,36.82857],[-5.812,36.82824],[-5.81141,36.82801],[-5.81039,36.8279],[-5.80996,36.8276],[-5.8098,36.82716],[-5.80929,36.82672],[-5.80784,36.82593],[-5.80753,36.82585],[-5.80729,36.8259],[-5.80679,36.82646],[-5.80628,36.82652],[-5.80455,36.82631],[-5.80166,36.8273],[-5.80028,36.82755],[-5.79704,36.82784],[-5.79514,36.82818],[-5.79468,36.82834],[-5.79368,36.82907],[-5.79189,36.83096],[-5.7916,36.83114],[-5.79041,36.83158],[-5.78915,36.83224],[-5.78821,36.83291],[-5.78714,36.83316],[-5.78665,36.83318],[-5.7861,36.83348],[-5.78554,36.83392],[-5.78363,36.83601],[-5.78285,36.83645],[-5.78024,36.83741],[-5.77888,36.83805],[-5.77733,36.83893],[-5.77698,36.83894],[-5.77507,36.83861],[-5.7743,36.83821],[-5.77378,36.83807],[-5.77236,36.83831],[-5.77076,36.8381],[-5.7648,36.83689],[-5.76392,36.83663],[-5.76323,36.83386],[-5.76236,36.83248],[-5.76133,36.83125],[-5.75941,36.8296],[-5.7586,36.82871],[-5.75781,36.82708],[-5.75653,36.82381],[-5.75659,36.82354],[-5.75548,36.82067],[-5.7551,36.81787],[-5.75397,36.81698],[-5.75025,36.81549],[-5.74959,36.81345],[-5.74951,36.81215],[-5.74916,36.81161],[-5.74861,36.81116],[-5.74262,36.80761],[-5.74082,36.80687],[-5.74559,36.80228],[-5.74783,36.80037],[-5.75007,36.79945],[-5.75395,36.79831],[-5.75646,36.79744],[-5.75784,36.7971],[-5.7584,36.79548],[-5.75836,36.79328],[-5.75945,36.79161],[-5.7611,36.79072],[-5.76285,36.79007],[-5.76658,36.78921],[-5.7688,36.78842],[-5.76991,36.78858],[-5.77241,36.78786],[-5.77324,36.78798],[-5.77378,36.78775],[-5.77533,36.78746],[-5.77569,36.78712],[-5.77516,36.78539],[-5.77492,36.7837],[-5.77494,36.783],[-5.77454,36.78216],[-5.77422,36.78095],[-5.77441,36.77984],[-5.77449,36.77817],[-5.77495,36.77694],[-5.77433,36.77489],[-5.7738,36.77424],[-5.77281,36.77345],[-5.7716,36.77182],[-5.77072,36.76892],[-5.7732,36.76897],[-5.77661,36.76945],[-5.77957,36.77004],[-5.78208,36.77102],[-5.7846,36.77099],[-5.78604,36.77011],[-5.78739,36.76942],[-5.78889,36.76768],[-5.79156,36.76223],[-5.79187,36.75801],[-5.79228,36.75494],[-5.79258,36.75371],[-5.79412,36.75087],[-5.79479,36.75095],[-5.79525,36.75116],[-5.79659,36.75255],[-5.79505,36.75538],[-5.79536,36.75598],[-5.79724,36.75743],[-5.79772,36.75767],[-5.8081,36.76121],[-5.80859,36.76125],[-5.80871,36.76081],[-5.80895,36.76045],[-5.80951,36.76013],[-5.80995,36.76007],[-5.81061,36.76018],[-5.81178,36.7607]]]}},{"type":"Feature","properties":{"id":"1100603002"},"geometry":{"type":"Polygon","coordinates":[[[-5.93298,36.72371],[-5.93109,36.72446],[-5.92663,36.72573],[-5.92483,36.72321],[-5.92694,36.72235],[-5.9274,36.72183],[-5.92811,36.72139],[-5.92896,36.72126],[-5.93023,36.72133],[-5.93004,36.72022],[-5.9311,36.72017],[-5.93191,36.72043],[-5.9312,36.72178],[-5.93102,36.72269],[-5.93154,36.72284],[-5.93129,36.72323],[-5.93299,36.72328],[-5.93298,36.72371]]]}},{"type":"Feature","properties":{"id":"1100603003"},"geometry":{"type":"Polygon","coordinates":[[[-5.81879,36.73942],[-5.8184,36.73863],[-5.81777,36.73811],[-5.81738,36.73738],[-5.81639,36.73695],[-5.81559,36.73594],[-5.81462,36.73592],[-5.81405,36.73577],[-5.81301,36.73522],[-5.81059,36.73503],[-5.80954,36.73551],[-5.80817,36.73583],[-5.80647,36.73558],[-5.80314,36.73566],[-5.80177,36.73581],[-5.80086,36.73604],[-5.79879,36.73547],[-5.79732,36.73452],[-5.79547,36.73287],[-5.79542,36.73164],[-5.79564,36.7306],[-5.79627,36.72968],[-5.79861,36.72909],[-5.79979,36.72795],[-5.80101,36.72759],[-5.8026,36.72764],[-5.80353,36.72799],[-5.80421,36.72842],[-5.8053,36.72877],[-5.80759,36.72839],[-5.80917,36.72827],[-5.8115,36.72772],[-5.81255,36.72703],[-5.81334,36.72619],[-5.81388,36.72408],[-5.81359,36.72314],[-5.81282,36.72184],[-5.81361,36.72091],[-5.81377,36.7184],[-5.81441,36.71624],[-5.81436,36.71473],[-5.81418,36.71414],[-5.81374,36.7137],[-5.81307,36.71366],[-5.81264,36.71347],[-5.81231,36.71308],[-5.81149,36.71284],[-5.81098,36.71237],[-5.80979,36.71092],[-5.8097,36.71024],[-5.80973,36.70919],[-5.81002,36.70839],[-5.81035,36.7079],[-5.81111,36.70731],[-5.81163,36.70716],[-5.81209,36.70718],[-5.81321,36.70792],[-5.81429,36.70835],[-5.81447,36.70862],[-5.81469,36.70873],[-5.81575,36.70894],[-5.81686,36.70928],[-5.81721,36.70924],[-5.81937,36.7084],[-5.8209,36.7079],[-5.82216,36.70768],[-5.82261,36.70744],[-5.82454,36.70705],[-5.82535,36.70706],[-5.82603,36.70724],[-5.82856,36.70875],[-5.83008,36.70913],[-5.8322,36.70923],[-5.83395,36.70873],[-5.83471,36.70834],[-5.83552,36.70838],[-5.83628,36.70873],[-5.83708,36.70956],[-5.83837,36.7101],[-5.83956,36.71081],[-5.84086,36.70964],[-5.84186,36.70911],[-5.84247,36.70821],[-5.84221,36.707],[-5.84201,36.70351],[-5.84236,36.70149],[-5.84289,36.70065],[-5.84305,36.70011],[-5.84304,36.69977],[-5.84259,36.69927],[-5.84264,36.6987],[-5.84322,36.69704],[-5.84349,36.69666],[-5.84393,36.69634],[-5.84445,36.69615],[-5.84567,36.69672],[-5.84643,36.69812],[-5.84657,36.69889],[-5.84802,36.7001],[-5.84878,36.70048],[-5.84933,36.70033],[-5.8494,36.7001],[-5.85031,36.70002],[-5.85076,36.69987],[-5.85124,36.69948],[-5.85354,36.69875],[-5.85456,36.6985],[-5.8567,36.69816],[-5.85711,36.69792],[-5.85759,36.6974],[-5.85758,36.6972],[-5.85788,36.69668],[-5.85852,36.69593],[-5.8586,36.69539],[-5.85833,36.69375],[-5.85835,36.69324],[-5.85921,36.69282],[-5.86079,36.69261],[-5.86144,36.69208],[-5.86178,36.69159],[-5.86233,36.69129],[-5.86328,36.69107],[-5.86406,36.69037],[-5.86431,36.68957],[-5.8642,36.68659],[-5.86432,36.68599],[-5.86402,36.68537],[-5.86401,36.68509],[-5.86421,36.68486],[-5.86455,36.68465],[-5.86501,36.6847],[-5.86598,36.68504],[-5.86771,36.685],[-5.86772,36.68438],[-5.86792,36.68406],[-5.86933,36.68317],[-5.87054,36.68263],[-5.87435,36.68158],[-5.87541,36.68073],[-5.87832,36.68029],[-5.87954,36.67997],[-5.87986,36.67978],[-5.88008,36.67907],[-5.88512,36.67563],[-5.88969,36.67353],[-5.89284,36.67345],[-5.89488,36.67676],[-5.89933,36.67586],[-5.90254,36.67508],[-5.90261,36.67514],[-5.90285,36.67508],[-5.91112,36.68333],[-5.91529,36.68734],[-5.91604,36.68788],[-5.91683,36.68812],[-5.91806,36.68831],[-5.91953,36.6901],[-5.92004,36.69118],[-5.92068,36.69374],[-5.92137,36.69429],[-5.92188,36.69454],[-5.92306,36.69485],[-5.92385,36.69497],[-5.92449,36.69523],[-5.92522,36.6959],[-5.92582,36.6968],[-5.92656,36.69744],[-5.92761,36.69806],[-5.92799,36.69855],[-5.92835,36.6996],[-5.92866,36.69999],[-5.92906,36.70034],[-5.92967,36.70068],[-5.93013,36.70116],[-5.93129,36.70371],[-5.93279,36.70619],[-5.93488,36.70866],[-5.93551,36.70985],[-5.93579,36.71129],[-5.93558,36.71323],[-5.93573,36.71391],[-5.94134,36.71954],[-5.9404,36.72032],[-5.94039,36.72066],[-5.93298,36.72371],[-5.93299,36.72328],[-5.93129,36.72323],[-5.93154,36.72284],[-5.93102,36.72269],[-5.9312,36.72178],[-5.93191,36.72043],[-5.9311,36.72017],[-5.93004,36.72022],[-5.93023,36.72133],[-5.92896,36.72126],[-5.92811,36.72139],[-5.9274,36.72183],[-5.92694,36.72235],[-5.92483,36.72321],[-5.92663,36.72573],[-5.91702,36.72818],[-5.90502,36.73138],[-5.90421,36.73176],[-5.9024,36.73233],[-5.90072,36.7332],[-5.88779,36.73923],[-5.88382,36.74105],[-5.88291,36.74129],[-5.87364,36.74201],[-5.87276,36.74216],[-5.86967,36.74294],[-5.86784,36.74316],[-5.86692,36.74311],[-5.86368,36.7425],[-5.8579,36.74163],[-5.85621,36.74157],[-5.84929,36.74212],[-5.84806,36.74242],[-5.84568,36.74332],[-5.84354,36.74425],[-5.84216,36.74503],[-5.84117,36.74536],[-5.83964,36.74544],[-5.83157,36.74496],[-5.83067,36.74504],[-5.82981,36.74527],[-5.82759,36.74611],[-5.82515,36.74631],[-5.82402,36.74667],[-5.8238,36.74613],[-5.82375,36.7455],[-5.82392,36.74469],[-5.82494,36.74238],[-5.82473,36.74171],[-5.82407,36.74092],[-5.81879,36.73942]]]}},{"type":"Feature","properties":{"id":"1100603004"},"geometry":{"type":"Polygon","coordinates":[[[-5.9287,36.72513],[-5.93109,36.72446],[-5.93594,36.72249],[-5.93648,36.72331],[-5.9369,36.72355],[-5.93692,36.72409],[-5.93352,36.72415],[-5.93251,36.72493],[-5.93178,36.72516],[-5.93128,36.72659],[-5.92986,36.72728],[-5.92996,36.72673],[-5.92921,36.72617],[-5.92935,36.72585],[-5.92892,36.72548],[-5.9287,36.72513]]]}},{"type":"Feature","properties":{"id":"1100604001"},"geometry":{"type":"Polygon","coordinates":[[[-5.75209,36.75042],[-5.76582,36.74991],[-5.77007,36.74987],[-5.77357,36.74973],[-5.78557,36.75176],[-5.79014,36.75176],[-5.79056,36.7517],[-5.79389,36.75073],[-5.79412,36.75087],[-5.79258,36.75371],[-5.79236,36.75462],[-5.79177,36.75489],[-5.78999,36.75632],[-5.78717,36.75882],[-5.7793,36.76491],[-5.77337,36.76496],[-5.76586,36.76434],[-5.7659,36.76392],[-5.76576,36.76359],[-5.76401,36.7628],[-5.76261,36.76112],[-5.76222,36.761],[-5.76146,36.76045],[-5.76137,36.76028],[-5.75971,36.75969],[-5.75957,36.75925],[-5.75876,36.75882],[-5.75844,36.7587],[-5.75771,36.75865],[-5.75701,36.75831],[-5.75749,36.75751],[-5.75769,36.75669],[-5.75708,36.75514],[-5.75559,36.75446],[-5.75402,36.75398],[-5.7518,36.75359],[-5.75161,36.75265],[-5.75217,36.7519],[-5.75225,36.75091],[-5.75209,36.75042]]]}},{"type":"Feature","properties":{"id":"1100604002"},"geometry":{"type":"Polygon","coordinates":[[[-5.57521,36.75044],[-5.57025,36.7463],[-5.56538,36.74167],[-5.56437,36.74133],[-5.56309,36.7399],[-5.56251,36.73951],[-5.56174,36.73874],[-5.56157,36.7383],[-5.56149,36.7374],[-5.56072,36.73688],[-5.55937,36.73565],[-5.5589,36.7349],[-5.55856,36.73457],[-5.55789,36.73412],[-5.55684,36.73375],[-5.55494,36.73344],[-5.55428,36.73344],[-5.55337,36.73361],[-5.5524,36.73361],[-5.5475,36.73322],[-5.54432,36.7331],[-5.53981,36.72622],[-5.53938,36.7254],[-5.5388,36.72372],[-5.53817,36.7228],[-5.53715,36.72188],[-5.53607,36.72123],[-5.53381,36.72052],[-5.53366,36.71978],[-5.53251,36.71881],[-5.53181,36.71804],[-5.53258,36.71715],[-5.53274,36.71677],[-5.53271,36.71659],[-5.53154,36.71586],[-5.53109,36.71547],[-5.53068,36.71468],[-5.53076,36.71445],[-5.53278,36.71425],[-5.53282,36.71408],[-5.53194,36.71334],[-5.53196,36.71314],[-5.53252,36.71254],[-5.53203,36.71181],[-5.5321,36.71154],[-5.5323,36.71134],[-5.53365,36.71095],[-5.53405,36.71101],[-5.5346,36.71135],[-5.53481,36.71132],[-5.53604,36.71003],[-5.53642,36.70979],[-5.53972,36.7092],[-5.54021,36.70895],[-5.54056,36.70889],[-5.54288,36.70924],[-5.54344,36.70891],[-5.54367,36.70862],[-5.54377,36.70829],[-5.54371,36.70812],[-5.54333,36.70791],[-5.54131,36.70611],[-5.54036,36.7057],[-5.53966,36.7052],[-5.5395,36.70481],[-5.54,36.70384],[-5.53992,36.70356],[-5.53969,36.70316],[-5.53818,36.70226],[-5.53741,36.70199],[-5.53611,36.70206],[-5.53422,36.70149],[-5.53364,36.70143],[-5.53219,36.7016],[-5.5317,36.70159],[-5.53117,36.70141],[-5.53033,36.70095],[-5.52973,36.70007],[-5.52963,36.69877],[-5.52936,36.69832],[-5.52869,36.6977],[-5.52833,36.69701],[-5.52822,36.6963],[-5.52831,36.69522],[-5.52848,36.69466],[-5.53012,36.69237],[-5.53016,36.69197],[-5.53007,36.69163],[-5.52896,36.69039],[-5.52896,36.69003],[-5.52921,36.68963],[-5.52966,36.68911],[-5.52991,36.68897],[-5.5324,36.68901],[-5.53333,36.68922],[-5.53377,36.68923],[-5.53407,36.68915],[-5.53433,36.68891],[-5.53452,36.68853],[-5.53477,36.68771],[-5.53471,36.68742],[-5.53442,36.68715],[-5.53334,36.68661],[-5.53325,36.68629],[-5.53328,36.68595],[-5.53382,36.6851],[-5.53402,36.68441],[-5.5334,36.68302],[-5.53323,36.68017],[-5.5329,36.67838],[-5.53311,36.6782],[-5.53337,36.67815],[-5.53445,36.67834],[-5.53511,36.67812],[-5.53527,36.67791],[-5.53534,36.67749],[-5.53508,36.67584],[-5.53518,36.6752],[-5.53553,36.67468],[-5.53758,36.67305],[-5.53879,36.67194],[-5.5396,36.67098],[-5.53982,36.67038],[-5.54113,36.67028],[-5.54131,36.67034],[-5.54165,36.67134],[-5.5417,36.67233],[-5.5422,36.67352],[-5.54261,36.67409],[-5.54324,36.6746],[-5.54447,36.67512],[-5.54495,36.67553],[-5.5459,36.67709],[-5.54719,36.67867],[-5.54768,36.679],[-5.54902,36.67965],[-5.55128,36.6804],[-5.55261,36.68071],[-5.55922,36.68178],[-5.56051,36.68224],[-5.56186,36.68252],[-5.56246,36.68256],[-5.56401,36.68302],[-5.5668,36.68367],[-5.56823,36.68327],[-5.57117,36.68383],[-5.5723,36.68389],[-5.57297,36.68383],[-5.57437,36.68422],[-5.57508,36.68456],[-5.57595,36.68529],[-5.57658,36.68543],[-5.57714,36.68589],[-5.57814,36.68616],[-5.57859,36.68672],[-5.57978,36.68738],[-5.58029,36.68802],[-5.58051,36.68872],[-5.58103,36.689],[-5.58317,36.68974],[-5.58415,36.69022],[-5.58468,36.69036],[-5.58558,36.68936],[-5.58597,36.68998],[-5.58771,36.69019],[-5.5888,36.69021],[-5.59065,36.68981],[-5.59208,36.69037],[-5.59334,36.68977],[-5.59576,36.68916],[-5.60098,36.68759],[-5.60271,36.68671],[-5.60388,36.68577],[-5.60469,36.68528],[-5.61222,36.68228],[-5.61569,36.68123],[-5.61812,36.68065],[-5.62193,36.68015],[-5.62799,36.67787],[-5.62919,36.67773],[-5.63295,36.67764],[-5.63551,36.67745],[-5.63765,36.67775],[-5.64133,36.67755],[-5.64425,36.67763],[-5.64517,36.67719],[-5.64589,36.67698],[-5.64762,36.67671],[-5.65093,36.67654],[-5.65391,36.67674],[-5.65607,36.67645],[-5.65695,36.67644],[-5.65729,36.67655],[-5.65876,36.67775],[-5.66021,36.67814],[-5.661,36.67861],[-5.66185,36.67886],[-5.66363,36.68012],[-5.66392,36.68023],[-5.66449,36.68024],[-5.66643,36.68079],[-5.66753,36.68089],[-5.66894,36.6812],[-5.67013,36.68178],[-5.67198,36.68104],[-5.67265,36.68085],[-5.67351,36.6811],[-5.67376,36.68038],[-5.67482,36.67944],[-5.67501,36.67872],[-5.6756,36.67808],[-5.67568,36.67782],[-5.6756,36.67726],[-5.67617,36.67619],[-5.67627,36.67563],[-5.67645,36.67542],[-5.67859,36.67472],[-5.67936,36.67484],[-5.67966,36.67477],[-5.68022,36.6742],[-5.68055,36.67335],[-5.68088,36.67295],[-5.68311,36.67187],[-5.68304,36.67159],[-5.68316,36.67107],[-5.68362,36.67087],[-5.68409,36.67103],[-5.68452,36.67201],[-5.68598,36.6731],[-5.68768,36.67409],[-5.68986,36.67464],[-5.69077,36.67434],[-5.69194,36.67417],[-5.69274,36.67422],[-5.69321,36.67444],[-5.69402,36.67539],[-5.69484,36.67609],[-5.70505,36.68317],[-5.70595,36.68333],[-5.70706,36.68432],[-5.70924,36.68484],[-5.71796,36.68725],[-5.71834,36.68749],[-5.71979,36.68756],[-5.72027,36.68809],[-5.72208,36.68859],[-5.72331,36.68923],[-5.72375,36.68959],[-5.72383,36.69023],[-5.7248,36.69049],[-5.72628,36.69142],[-5.72799,36.69163],[-5.72892,36.69186],[-5.73208,36.69308],[-5.73268,36.69341],[-5.73309,36.69367],[-5.7356,36.69588],[-5.7365,36.69696],[-5.74008,36.69944],[-5.74266,36.70194],[-5.74374,36.70268],[-5.74518,36.70337],[-5.7463,36.70349],[-5.74741,36.70349],[-5.74835,36.70476],[-5.74933,36.70536],[-5.7495,36.7059],[-5.74969,36.70607],[-5.75041,36.70633],[-5.75076,36.70654],[-5.75251,36.70984],[-5.75336,36.71032],[-5.75349,36.71131],[-5.7538,36.71217],[-5.75465,36.7136],[-5.75489,36.71429],[-5.755,36.71468],[-5.75498,36.71585],[-5.7559,36.71672],[-5.75626,36.71731],[-5.75671,36.71777],[-5.75757,36.71824],[-5.75926,36.71948],[-5.76016,36.72036],[-5.76062,36.72091],[-5.76219,36.72352],[-5.76369,36.72441],[-5.76613,36.72609],[-5.76681,36.72687],[-5.76775,36.72753],[-5.76801,36.72807],[-5.76843,36.72843],[-5.76939,36.72868],[-5.77065,36.72887],[-5.77152,36.72879],[-5.77257,36.72915],[-5.77368,36.72903],[-5.77441,36.72911],[-5.77515,36.7295],[-5.77637,36.72994],[-5.77934,36.73173],[-5.78001,36.73222],[-5.78155,36.73257],[-5.78446,36.7329],[-5.78593,36.73319],[-5.78757,36.73378],[-5.78784,36.734],[-5.78835,36.73484],[-5.78926,36.73547],[-5.78828,36.73606],[-5.78779,36.73669],[-5.78573,36.73857],[-5.7845,36.73985],[-5.7829,36.74053],[-5.78072,36.74175],[-5.78024,36.74187],[-5.77954,36.74253],[-5.78041,36.74444],[-5.78061,36.74465],[-5.78152,36.7451],[-5.78167,36.74535],[-5.7813,36.74631],[-5.78136,36.74683],[-5.78214,36.74885],[-5.78189,36.74925],[-5.78174,36.75114],[-5.77357,36.74973],[-5.77007,36.74987],[-5.76582,36.74991],[-5.75209,36.75042],[-5.75119,36.75069],[-5.75077,36.75068],[-5.75002,36.75047],[-5.74913,36.74986],[-5.74859,36.74979],[-5.74827,36.75017],[-5.74771,36.75158],[-5.74565,36.7546],[-5.74527,36.7549],[-5.74453,36.75507],[-5.74186,36.75547],[-5.74024,36.75548],[-5.73755,36.75502],[-5.7353,36.75439],[-5.73197,36.75317],[-5.7298,36.75258],[-5.72573,36.75293],[-5.72308,36.75305],[-5.71911,36.75349],[-5.71811,36.75347],[-5.71685,36.75333],[-5.71594,36.75337],[-5.71468,36.75392],[-5.7134,36.75471],[-5.71088,36.75521],[-5.70823,36.75553],[-5.70669,36.75562],[-5.70327,36.75539],[-5.69915,36.75497],[-5.6963,36.755],[-5.69305,36.7546],[-5.69051,36.75384],[-5.68942,36.75361],[-5.6879,36.75364],[-5.68596,36.75421],[-5.68529,36.7545],[-5.68462,36.75527],[-5.68397,36.75535],[-5.68331,36.75517],[-5.68067,36.75412],[-5.67957,36.75385],[-5.67843,36.75374],[-5.67492,36.75436],[-5.67347,36.75435],[-5.67243,36.7542],[-5.67092,36.75378],[-5.66937,36.75316],[-5.66745,36.75207],[-5.66651,36.75138],[-5.66568,36.75107],[-5.66481,36.75057],[-5.66354,36.74941],[-5.66179,36.74834],[-5.66017,36.7475],[-5.65886,36.7474],[-5.65768,36.74756],[-5.65257,36.74991],[-5.65143,36.74977],[-5.65096,36.74956],[-5.64889,36.74907],[-5.64831,36.74902],[-5.64792,36.74884],[-5.64722,36.74889],[-5.64616,36.74919],[-5.64516,36.74962],[-5.64411,36.74978],[-5.64007,36.74613],[-5.63906,36.74503],[-5.63597,36.74361],[-5.6353,36.7436],[-5.63419,36.74375],[-5.63302,36.74402],[-5.63152,36.74419],[-5.62671,36.74531],[-5.62509,36.74552],[-5.62405,36.74592],[-5.62382,36.74643],[-5.62145,36.74631],[-5.6199,36.74635],[-5.61761,36.74713],[-5.60728,36.75164],[-5.60438,36.7517],[-5.6029,36.75208],[-5.59994,36.75168],[-5.59941,36.75169],[-5.58904,36.75379],[-5.5854,36.75322],[-5.58356,36.75311],[-5.58272,36.75266],[-5.57521,36.75044]]]}},{"type":"Feature","properties":{"id":"1100604003"},"geometry":{"type":"Polygon","coordinates":[[[-5.79971,36.74148],[-5.79997,36.74117],[-5.79847,36.74014],[-5.79781,36.73998],[-5.79694,36.73914],[-5.79497,36.73838],[-5.78999,36.73597],[-5.78835,36.73484],[-5.78784,36.734],[-5.78757,36.73378],[-5.78593,36.73319],[-5.78446,36.7329],[-5.78155,36.73257],[-5.78001,36.73222],[-5.77934,36.73173],[-5.77637,36.72994],[-5.77515,36.7295],[-5.77441,36.72911],[-5.77368,36.72903],[-5.77257,36.72915],[-5.77152,36.72879],[-5.77065,36.72887],[-5.76939,36.72868],[-5.76843,36.72843],[-5.76801,36.72807],[-5.76775,36.72753],[-5.76681,36.72687],[-5.76613,36.72609],[-5.76369,36.72441],[-5.76219,36.72352],[-5.76062,36.72091],[-5.76016,36.72036],[-5.75926,36.71948],[-5.75757,36.71824],[-5.75671,36.71777],[-5.75626,36.71731],[-5.7559,36.71672],[-5.75498,36.71585],[-5.755,36.71468],[-5.75489,36.71429],[-5.75465,36.7136],[-5.7538,36.71217],[-5.75349,36.71131],[-5.75336,36.71032],[-5.75251,36.70984],[-5.75076,36.70654],[-5.75041,36.70633],[-5.74969,36.70607],[-5.7495,36.7059],[-5.74933,36.70536],[-5.74835,36.70476],[-5.74741,36.70349],[-5.7463,36.70349],[-5.74518,36.70337],[-5.74374,36.70268],[-5.74266,36.70194],[-5.74008,36.69944],[-5.7365,36.69696],[-5.7356,36.69588],[-5.73309,36.69367],[-5.73268,36.69341],[-5.73208,36.69308],[-5.72892,36.69186],[-5.72799,36.69163],[-5.72628,36.69142],[-5.7248,36.69049],[-5.72383,36.69023],[-5.72375,36.68959],[-5.72331,36.68923],[-5.72208,36.68859],[-5.72027,36.68809],[-5.71979,36.68756],[-5.71834,36.68749],[-5.71796,36.68725],[-5.70924,36.68484],[-5.70706,36.68432],[-5.70595,36.68333],[-5.70505,36.68317],[-5.69484,36.67609],[-5.69402,36.67539],[-5.69321,36.67444],[-5.69274,36.67422],[-5.69194,36.67417],[-5.69077,36.67434],[-5.68986,36.67464],[-5.68768,36.67409],[-5.68598,36.6731],[-5.68452,36.67201],[-5.68409,36.67103],[-5.68362,36.67087],[-5.68316,36.67107],[-5.68287,36.67042],[-5.6829,36.67028],[-5.68313,36.67014],[-5.68381,36.67016],[-5.68358,36.66967],[-5.68363,36.6692],[-5.68389,36.66901],[-5.68457,36.66908],[-5.68473,36.66888],[-5.68463,36.66856],[-5.68467,36.66831],[-5.68488,36.6682],[-5.68603,36.66813],[-5.68534,36.66745],[-5.68524,36.66657],[-5.68569,36.66645],[-5.68631,36.66588],[-5.68646,36.66542],[-5.68637,36.6649],[-5.6878,36.66267],[-5.68883,36.66049],[-5.6897,36.6603],[-5.69013,36.65994],[-5.6906,36.65933],[-5.69063,36.65909],[-5.69038,36.65857],[-5.69107,36.65731],[-5.69285,36.65719],[-5.69449,36.65749],[-5.69746,36.65769],[-5.69861,36.65788],[-5.69988,36.65839],[-5.70238,36.65982],[-5.70367,36.66],[-5.70407,36.65996],[-5.70589,36.6594],[-5.70683,36.65901],[-5.70873,36.658],[-5.71039,36.65659],[-5.71064,36.65615],[-5.71046,36.65568],[-5.7096,36.65495],[-5.70853,36.65427],[-5.70798,36.65372],[-5.70782,36.65307],[-5.70791,36.6527],[-5.70831,36.65207],[-5.70945,36.65108],[-5.70981,36.65047],[-5.71109,36.64716],[-5.71144,36.6466],[-5.71173,36.64642],[-5.7121,36.6463],[-5.71302,36.64636],[-5.71491,36.64716],[-5.71564,36.64766],[-5.71623,36.64903],[-5.71678,36.64952],[-5.71772,36.64984],[-5.71935,36.65068],[-5.72001,36.65113],[-5.72063,36.65142],[-5.72108,36.65153],[-5.72144,36.6515],[-5.72201,36.65126],[-5.72375,36.64987],[-5.72618,36.64738],[-5.72669,36.64702],[-5.72729,36.64676],[-5.72756,36.64675],[-5.7282,36.64707],[-5.72842,36.6474],[-5.72857,36.6478],[-5.72859,36.64847],[-5.72884,36.64886],[-5.7305,36.64987],[-5.73103,36.65054],[-5.73162,36.65227],[-5.73179,36.65246],[-5.73211,36.65258],[-5.73278,36.65253],[-5.73536,36.65152],[-5.73576,36.65146],[-5.737,36.65161],[-5.73825,36.65196],[-5.73932,36.65186],[-5.74002,36.65194],[-5.74085,36.65226],[-5.74118,36.65256],[-5.74129,36.6528],[-5.74126,36.65306],[-5.74112,36.65328],[-5.73952,36.65445],[-5.7394,36.65469],[-5.7393,36.65506],[-5.73946,36.6564],[-5.73869,36.65768],[-5.73858,36.65803],[-5.73854,36.65848],[-5.73869,36.65896],[-5.73902,36.65936],[-5.73948,36.65963],[-5.74005,36.65974],[-5.74044,36.65957],[-5.74106,36.65886],[-5.74192,36.65872],[-5.74247,36.65854],[-5.74298,36.65819],[-5.74409,36.65707],[-5.74436,36.65648],[-5.74513,36.65548],[-5.74596,36.65497],[-5.7467,36.65486],[-5.74826,36.65483],[-5.75027,36.6549],[-5.7506,36.65504],[-5.75077,36.65524],[-5.75087,36.6556],[-5.75065,36.65691],[-5.75065,36.65757],[-5.75095,36.65904],[-5.75114,36.65927],[-5.75175,36.65948],[-5.75258,36.65961],[-5.75377,36.65939],[-5.75528,36.6585],[-5.75695,36.6572],[-5.75808,36.6565],[-5.76109,36.65487],[-5.762,36.65393],[-5.76276,36.65293],[-5.76339,36.65275],[-5.76395,36.65273],[-5.76623,36.65299],[-5.76699,36.65336],[-5.76712,36.65358],[-5.767,36.65433],[-5.76547,36.65601],[-5.76431,36.65759],[-5.76374,36.65877],[-5.76359,36.65941],[-5.76358,36.66008],[-5.76383,36.66053],[-5.76463,36.66117],[-5.76499,36.66135],[-5.76656,36.66167],[-5.76763,36.6638],[-5.76882,36.66502],[-5.76966,36.66541],[-5.77024,36.66546],[-5.77067,36.66537],[-5.77153,36.66493],[-5.77208,36.66456],[-5.77265,36.66389],[-5.77357,36.66315],[-5.77401,36.66294],[-5.77441,36.66282],[-5.77513,36.66287],[-5.77535,36.66317],[-5.77526,36.66357],[-5.77476,36.66432],[-5.77493,36.66533],[-5.7756,36.66637],[-5.77754,36.6678],[-5.77943,36.66985],[-5.78022,36.67053],[-5.78073,36.67053],[-5.78176,36.66903],[-5.78261,36.66819],[-5.783,36.66809],[-5.78457,36.66817],[-5.78567,36.66837],[-5.78904,36.66954],[-5.78947,36.66884],[-5.79213,36.66901],[-5.79531,36.66886],[-5.79936,36.66887],[-5.80226,36.66899],[-5.80358,36.66892],[-5.80464,36.66855],[-5.81207,36.66858],[-5.8258,36.67055],[-5.82946,36.67096],[-5.84408,36.66848],[-5.84491,36.66824],[-5.85436,36.66947],[-5.85757,36.67033],[-5.85848,36.67076],[-5.85889,36.67126],[-5.85924,36.67226],[-5.85957,36.67281],[-5.86031,36.67335],[-5.86078,36.67352],[-5.86172,36.67364],[-5.86219,36.67376],[-5.86267,36.67402],[-5.86414,36.67434],[-5.8654,36.6753],[-5.86708,36.67609],[-5.87296,36.67788],[-5.87386,36.67789],[-5.87534,36.67757],[-5.87686,36.67772],[-5.87746,36.67762],[-5.8779,36.67741],[-5.87843,36.67739],[-5.88008,36.67907],[-5.87986,36.67978],[-5.87954,36.67997],[-5.87832,36.68029],[-5.87541,36.68073],[-5.87435,36.68158],[-5.87054,36.68263],[-5.86933,36.68317],[-5.86792,36.68406],[-5.86772,36.68438],[-5.86771,36.685],[-5.86598,36.68504],[-5.86501,36.6847],[-5.86455,36.68465],[-5.86421,36.68486],[-5.86401,36.68509],[-5.86402,36.68537],[-5.86432,36.68599],[-5.8642,36.68659],[-5.86431,36.68957],[-5.86406,36.69037],[-5.86328,36.69107],[-5.86233,36.69129],[-5.86178,36.69159],[-5.86144,36.69208],[-5.86079,36.69261],[-5.85921,36.69282],[-5.85835,36.69324],[-5.85833,36.69375],[-5.8586,36.69539],[-5.85852,36.69593],[-5.85788,36.69668],[-5.85758,36.6972],[-5.85759,36.6974],[-5.85711,36.69792],[-5.8567,36.69816],[-5.85456,36.6985],[-5.85354,36.69875],[-5.85124,36.69948],[-5.85076,36.69987],[-5.85031,36.70002],[-5.8494,36.7001],[-5.84933,36.70033],[-5.84878,36.70048],[-5.84802,36.7001],[-5.84657,36.69889],[-5.84643,36.69812],[-5.84567,36.69672],[-5.84445,36.69615],[-5.84393,36.69634],[-5.84349,36.69666],[-5.84322,36.69704],[-5.84264,36.6987],[-5.84259,36.69927],[-5.84304,36.69977],[-5.84305,36.70011],[-5.84289,36.70065],[-5.84236,36.70149],[-5.84201,36.70351],[-5.84221,36.707],[-5.84247,36.70821],[-5.84186,36.70911],[-5.84086,36.70964],[-5.83956,36.71081],[-5.83837,36.7101],[-5.83708,36.70956],[-5.83628,36.70873],[-5.83552,36.70838],[-5.83471,36.70834],[-5.83395,36.70873],[-5.8322,36.70923],[-5.83008,36.70913],[-5.82856,36.70875],[-5.82603,36.70724],[-5.82535,36.70706],[-5.82454,36.70705],[-5.82261,36.70744],[-5.82216,36.70768],[-5.8209,36.7079],[-5.81937,36.7084],[-5.81721,36.70924],[-5.81686,36.70928],[-5.81575,36.70894],[-5.81469,36.70873],[-5.81447,36.70862],[-5.81429,36.70835],[-5.81321,36.70792],[-5.81209,36.70718],[-5.81163,36.70716],[-5.81111,36.70731],[-5.81035,36.7079],[-5.81002,36.70839],[-5.80973,36.70919],[-5.8097,36.71024],[-5.80979,36.71092],[-5.81098,36.71237],[-5.81149,36.71284],[-5.81231,36.71308],[-5.81264,36.71347],[-5.81307,36.71366],[-5.81374,36.7137],[-5.81418,36.71414],[-5.81436,36.71473],[-5.81441,36.71624],[-5.81377,36.7184],[-5.81361,36.72091],[-5.81282,36.72184],[-5.81359,36.72314],[-5.81388,36.72408],[-5.81334,36.72619],[-5.81255,36.72703],[-5.8115,36.72772],[-5.80917,36.72827],[-5.80759,36.72839],[-5.8053,36.72877],[-5.80421,36.72842],[-5.80353,36.72799],[-5.8026,36.72764],[-5.80101,36.72759],[-5.79979,36.72795],[-5.79861,36.72909],[-5.79627,36.72968],[-5.79564,36.7306],[-5.79542,36.73164],[-5.79547,36.73287],[-5.79732,36.73452],[-5.79879,36.73547],[-5.80086,36.73604],[-5.80177,36.73581],[-5.80314,36.73566],[-5.80647,36.73558],[-5.80817,36.73583],[-5.80954,36.73551],[-5.81059,36.73503],[-5.81301,36.73522],[-5.81405,36.73577],[-5.81462,36.73592],[-5.81559,36.73594],[-5.81639,36.73695],[-5.81738,36.73738],[-5.81777,36.73811],[-5.8184,36.73863],[-5.81879,36.73942],[-5.81892,36.74015],[-5.81874,36.74085],[-5.81889,36.74221],[-5.81816,36.74313],[-5.81679,36.74366],[-5.8165,36.74412],[-5.81416,36.74438],[-5.81129,36.74523],[-5.81002,36.74545],[-5.80713,36.74569],[-5.80611,36.74557],[-5.80563,36.74563],[-5.8039,36.74498],[-5.8033,36.74453],[-5.80292,36.74407],[-5.80236,36.74293],[-5.80068,36.74223],[-5.79971,36.74148]]]}},{"type":"Feature","properties":{"id":"1100604004"},"geometry":{"type":"Polygon","coordinates":[[[-5.59999,36.76261],[-5.59895,36.76211],[-5.59506,36.7607],[-5.59258,36.76005],[-5.59145,36.75949],[-5.58297,36.7562],[-5.58021,36.75504],[-5.57816,36.75298],[-5.57521,36.75044],[-5.58272,36.75266],[-5.58356,36.75311],[-5.5854,36.75322],[-5.58904,36.75379],[-5.59941,36.75169],[-5.59994,36.75168],[-5.6029,36.75208],[-5.60438,36.7517],[-5.60728,36.75164],[-5.61761,36.74713],[-5.6199,36.74635],[-5.62145,36.74631],[-5.62382,36.74643],[-5.62405,36.74592],[-5.62509,36.74552],[-5.62671,36.74531],[-5.63152,36.74419],[-5.63302,36.74402],[-5.63419,36.74375],[-5.6353,36.7436],[-5.63597,36.74361],[-5.63906,36.74503],[-5.64007,36.74613],[-5.64411,36.74978],[-5.64516,36.74962],[-5.64616,36.74919],[-5.64722,36.74889],[-5.64792,36.74884],[-5.64831,36.74902],[-5.64889,36.74907],[-5.65096,36.74956],[-5.65143,36.74977],[-5.65257,36.74991],[-5.65768,36.74756],[-5.65886,36.7474],[-5.66017,36.7475],[-5.66179,36.74834],[-5.66354,36.74941],[-5.66481,36.75057],[-5.66568,36.75107],[-5.66651,36.75138],[-5.66745,36.75207],[-5.66937,36.75316],[-5.67092,36.75378],[-5.67243,36.7542],[-5.67347,36.75435],[-5.67492,36.75436],[-5.67843,36.75374],[-5.67957,36.75385],[-5.68067,36.75412],[-5.68331,36.75517],[-5.68397,36.75535],[-5.68462,36.75527],[-5.68529,36.7545],[-5.68596,36.75421],[-5.6879,36.75364],[-5.68942,36.75361],[-5.69051,36.75384],[-5.69305,36.7546],[-5.6963,36.755],[-5.69915,36.75497],[-5.70327,36.75539],[-5.70669,36.75562],[-5.70823,36.75553],[-5.71088,36.75521],[-5.7134,36.75471],[-5.71468,36.75392],[-5.71594,36.75337],[-5.71685,36.75333],[-5.71811,36.75347],[-5.71911,36.75349],[-5.72308,36.75305],[-5.72573,36.75293],[-5.7298,36.75258],[-5.73197,36.75317],[-5.7353,36.75439],[-5.73755,36.75502],[-5.74024,36.75548],[-5.74186,36.75547],[-5.74453,36.75507],[-5.74527,36.7549],[-5.74565,36.7546],[-5.74771,36.75158],[-5.74827,36.75017],[-5.74859,36.74979],[-5.74883,36.74978],[-5.74913,36.74986],[-5.75002,36.75047],[-5.75077,36.75068],[-5.75119,36.75069],[-5.75209,36.75042],[-5.75225,36.75091],[-5.75217,36.7519],[-5.75161,36.75265],[-5.7518,36.75359],[-5.75402,36.75398],[-5.75559,36.75446],[-5.75708,36.75514],[-5.75769,36.75669],[-5.75749,36.75751],[-5.75701,36.75831],[-5.75771,36.75865],[-5.75844,36.7587],[-5.75876,36.75882],[-5.75957,36.75925],[-5.75971,36.75969],[-5.76137,36.76028],[-5.76146,36.76045],[-5.76222,36.761],[-5.76261,36.76112],[-5.76401,36.7628],[-5.76576,36.76359],[-5.7659,36.76392],[-5.76586,36.76434],[-5.77337,36.76496],[-5.7793,36.76491],[-5.78717,36.75882],[-5.78999,36.75632],[-5.79177,36.75489],[-5.79236,36.75462],[-5.79187,36.75801],[-5.79156,36.76223],[-5.78889,36.76768],[-5.78739,36.76942],[-5.78604,36.77011],[-5.7846,36.77099],[-5.78208,36.77102],[-5.77957,36.77004],[-5.77661,36.76945],[-5.7732,36.76897],[-5.77072,36.76892],[-5.7716,36.77182],[-5.77281,36.77345],[-5.7738,36.77424],[-5.77433,36.77489],[-5.77495,36.77694],[-5.77449,36.77817],[-5.77441,36.77984],[-5.77422,36.78095],[-5.77454,36.78216],[-5.77494,36.783],[-5.77492,36.7837],[-5.77516,36.78539],[-5.77569,36.78712],[-5.77533,36.78746],[-5.77378,36.78775],[-5.77324,36.78798],[-5.77241,36.78786],[-5.76991,36.78858],[-5.7688,36.78842],[-5.76658,36.78921],[-5.76285,36.79007],[-5.7611,36.79072],[-5.75945,36.79161],[-5.75836,36.79328],[-5.7584,36.79548],[-5.75784,36.7971],[-5.75646,36.79744],[-5.75395,36.79831],[-5.75007,36.79945],[-5.74783,36.80037],[-5.74559,36.80228],[-5.74082,36.80687],[-5.73141,36.80326],[-5.73063,36.80316],[-5.728,36.8033],[-5.72575,36.8031],[-5.72444,36.80322],[-5.72348,36.80351],[-5.72175,36.80492],[-5.7211,36.80529],[-5.7186,36.80625],[-5.71448,36.80744],[-5.71313,36.80763],[-5.71248,36.80761],[-5.71174,36.80749],[-5.71032,36.80701],[-5.70892,36.80679],[-5.70788,36.80671],[-5.70735,36.80685],[-5.70696,36.80724],[-5.70677,36.80765],[-5.70628,36.80943],[-5.70591,36.81029],[-5.70531,36.81104],[-5.70326,36.81302],[-5.69809,36.81838],[-5.69779,36.81892],[-5.69759,36.81981],[-5.69767,36.82025],[-5.69881,36.82265],[-5.69874,36.82342],[-5.69748,36.8256],[-5.697,36.82689],[-5.69661,36.82825],[-5.69639,36.83038],[-5.69612,36.83152],[-5.6958,36.83216],[-5.6954,36.83265],[-5.69507,36.8329],[-5.69445,36.83316],[-5.69392,36.83322],[-5.69287,36.83317],[-5.6924,36.83303],[-5.6916,36.83257],[-5.69022,36.83075],[-5.6898,36.83046],[-5.68895,36.83038],[-5.68837,36.83048],[-5.68811,36.83066],[-5.68787,36.83104],[-5.68775,36.83195],[-5.68789,36.83282],[-5.68783,36.83352],[-5.68728,36.83468],[-5.68578,36.83724],[-5.68473,36.83852],[-5.68447,36.83865],[-5.6839,36.83866],[-5.68136,36.83842],[-5.68046,36.83853],[-5.67946,36.83923],[-5.67789,36.8412],[-5.67636,36.84371],[-5.67606,36.84475],[-5.6761,36.84514],[-5.67643,36.84594],[-5.67724,36.84717],[-5.67729,36.84746],[-5.67713,36.8481],[-5.67692,36.84847],[-5.67619,36.84908],[-5.67527,36.84936],[-5.6745,36.84943],[-5.67253,36.84928],[-5.67203,36.8493],[-5.67154,36.84946],[-5.67099,36.8498],[-5.6703,36.85054],[-5.6692,36.85209],[-5.66822,36.85125],[-5.66564,36.8486],[-5.66423,36.8481],[-5.66233,36.84135],[-5.6613,36.83826],[-5.65975,36.83215],[-5.65919,36.83054],[-5.65135,36.81998],[-5.64672,36.81349],[-5.6413,36.80244],[-5.6414,36.80113],[-5.64211,36.79626],[-5.6421,36.79509],[-5.64187,36.79367],[-5.64234,36.79252],[-5.64259,36.79127],[-5.64267,36.79025],[-5.6425,36.78916],[-5.64228,36.78883],[-5.64133,36.78814],[-5.63908,36.78722],[-5.63828,36.78678],[-5.63618,36.78521],[-5.6346,36.78454],[-5.63278,36.78362],[-5.63032,36.78224],[-5.62877,36.78114],[-5.62731,36.78046],[-5.62489,36.77967],[-5.62457,36.77948],[-5.62155,36.77718],[-5.61982,36.77603],[-5.614,36.7725],[-5.61238,36.77125],[-5.61053,36.76964],[-5.59999,36.76261]]]}}]}