{"type":"FeatureCollection","features":[{"type":"Feature","properties":{"id":"1100501001"},"geometry":{"type":"Polygon","coordinates":[[[-5.40635,36.8826],[-5.40555,36.88149],[-5.40537,36.88108],[-5.40538,36.88098],[-5.40552,36.88096],[-5.40547,36.88063],[-5.40491,36.87888],[-5.40517,36.8788],[-5.40514,36.87873],[-5.40465,36.87864],[-5.40471,36.8783],[-5.40459,36.87807],[-5.40449,36.87806],[-5.40454,36.8775],[-5.40785,36.87516],[-5.40925,36.8736],[-5.41035,36.87367],[-5.4113,36.87359],[-5.41154,36.87392],[-5.41177,36.87465],[-5.4125,36.87451],[-5.41281,36.87486],[-5.41342,36.87472],[-5.41563,36.87362],[-5.41593,36.87412],[-5.41561,36.87525],[-5.41454,36.87587],[-5.41442,36.87601],[-5.41425,36.87603],[-5.41395,36.87654],[-5.41323,36.87694],[-5.41303,36.87733],[-5.41259,36.87759],[-5.41241,36.87805],[-5.41271,36.87875],[-5.41199,36.87929],[-5.41206,36.87967],[-5.41188,36.88019],[-5.41137,36.88039],[-5.41093,36.88069],[-5.41043,36.88071],[-5.40962,36.88173],[-5.40904,36.88208],[-5.4088,36.88235],[-5.40878,36.88253],[-5.40867,36.88258],[-5.40792,36.88195],[-5.40765,36.88212],[-5.40761,36.88207],[-5.4072,36.88218],[-5.40635,36.8826]]]}},{"type":"Feature","properties":{"id":"1100501003"},"geometry":{"type":"Polygon","coordinates":[[[-5.4033,36.87797],[-5.40459,36.87807],[-5.40471,36.8783],[-5.40468,36.87868],[-5.40514,36.87873],[-5.40517,36.8788],[-5.40491,36.87888],[-5.40547,36.88063],[-5.40552,36.88096],[-5.40538,36.88098],[-5.40537,36.88108],[-5.40555,36.88149],[-5.40635,36.8826],[-5.40575,36.88293],[-5.40438,36.88398],[-5.40459,36.88411],[-5.40491,36.88452],[-5.40485,36.88456],[-5.4021,36.88472],[-5.40052,36.88448],[-5.40031,36.88467],[-5.39971,36.88458],[-5.3988,36.88481],[-5.39819,36.88478],[-5.39689,36.88365],[-5.39624,36.88336],[-5.39589,36.8833],[-5.39557,36.88307],[-5.3954,36.88269],[-5.3961,36.88233],[-5.3959,36.88201],[-5.39597,36.88167],[-5.39587,36.88144],[-5.39615,36.88093],[-5.39655,36.88054],[-5.3975,36.88021],[-5.39802,36.87978],[-5.39868,36.87975],[-5.39888,36.87956],[-5.40013,36.87956],[-5.40055,36.8794],[-5.4012,36.87892],[-5.4016,36.87814],[-5.40171,36.87822],[-5.40225,36.87812],[-5.40242,36.87787],[-5.40268,36.87784],[-5.40285,36.87802],[-5.4033,36.87797]]]}},{"type":"Feature","properties":{"id":"1100501004"},"geometry":{"type":"Polygon","coordinates":[[[-5.40575,36.88293],[-5.4072,36.88218],[-5.40761,36.88207],[-5.40765,36.88212],[-5.40792,36.88195],[-5.40974,36.88358],[-5.41068,36.8846],[-5.41021,36.88505],[-5.40983,36.88518],[-5.40854,36.88669],[-5.40507,36.88618],[-5.40379,36.88614],[-5.40319,36.88601],[-5.40293,36.88587],[-5.40286,36.8854],[-5.40294,36.88471],[-5.40485,36.88456],[-5.40491,36.88452],[-5.40459,36.88411],[-5.40438,36.88398],[-5.40575,36.88293]]]}},{"type":"Feature","properties":{"id":"1100502001"},"geometry":{"type":"Polygon","coordinates":[[[-5.40782,36.93955],[-5.4048,36.9395],[-5.40194,36.93961],[-5.39964,36.93865],[-5.3949,36.93548],[-5.3938,36.93461],[-5.38887,36.93222],[-5.38328,36.92901],[-5.38303,36.92863],[-5.38303,36.92832],[-5.38343,36.9275],[-5.38334,36.92729],[-5.38297,36.92699],[-5.38084,36.92618],[-5.37917,36.92585],[-5.37794,36.92585],[-5.37584,36.92649],[-5.37543,36.92649],[-5.37517,36.92638],[-5.3747,36.92562],[-5.37451,36.92434],[-5.37423,36.92412],[-5.37268,36.92393],[-5.37167,36.92367],[-5.37079,36.92323],[-5.36922,36.92206],[-5.36229,36.91772],[-5.35852,36.9152],[-5.35307,36.91123],[-5.35272,36.91042],[-5.35173,36.90941],[-5.35147,36.90882],[-5.35119,36.90776],[-5.35071,36.90683],[-5.35064,36.90637],[-5.35079,36.90517],[-5.3505,36.90501],[-5.34942,36.90504],[-5.34926,36.90484],[-5.34901,36.90374],[-5.34885,36.90353],[-5.34821,36.90347],[-5.34783,36.90316],[-5.3473,36.90164],[-5.3471,36.90132],[-5.34546,36.90037],[-5.34441,36.9003],[-5.344,36.90016],[-5.34141,36.89824],[-5.34062,36.89791],[-5.33945,36.89723],[-5.33882,36.89703],[-5.33799,36.8962],[-5.33686,36.89541],[-5.33452,36.89433],[-5.33355,36.89362],[-5.3298,36.89171],[-5.32898,36.89119],[-5.32689,36.88929],[-5.32653,36.88907],[-5.3254,36.88885],[-5.3233,36.88814],[-5.32179,36.88678],[-5.32133,36.88651],[-5.31677,36.88448],[-5.31512,36.88412],[-5.31415,36.88335],[-5.31303,36.88224],[-5.31154,36.88165],[-5.30814,36.87939],[-5.30527,36.87703],[-5.30496,36.87662],[-5.30691,36.87608],[-5.30941,36.87515],[-5.31101,36.87479],[-5.31453,36.8744],[-5.31944,36.87354],[-5.32147,36.87337],[-5.32472,36.87328],[-5.32657,36.8728],[-5.32832,36.87256],[-5.33138,36.87269],[-5.33311,36.87264],[-5.33434,36.87273],[-5.33551,36.8727],[-5.33764,36.87246],[-5.34049,36.87247],[-5.34187,36.87229],[-5.343,36.87201],[-5.34471,36.87112],[-5.34746,36.87011],[-5.35377,36.86852],[-5.35774,36.86707],[-5.36045,36.86579],[-5.36687,36.86209],[-5.36766,36.86173],[-5.36927,36.86131],[-5.36947,36.86117],[-5.37016,36.85959],[-5.37171,36.85816],[-5.37202,36.85775],[-5.3724,36.85693],[-5.37267,36.85664],[-5.37332,36.85619],[-5.37428,36.85588],[-5.37458,36.85566],[-5.37487,36.85523],[-5.37556,36.85467],[-5.37569,36.85448],[-5.37544,36.85348],[-5.37556,36.85282],[-5.37642,36.85206],[-5.37673,36.85135],[-5.37716,36.85091],[-5.37793,36.84957],[-5.37845,36.84907],[-5.37921,36.84903],[-5.38145,36.84998],[-5.38179,36.85003],[-5.38246,36.84992],[-5.38275,36.84976],[-5.38348,36.8509],[-5.38473,36.85198],[-5.38562,36.85329],[-5.386,36.85363],[-5.3867,36.85382],[-5.38771,36.85375],[-5.38825,36.8536],[-5.38971,36.85512],[-5.39021,36.85548],[-5.39059,36.856],[-5.39191,36.85719],[-5.3922,36.85764],[-5.39317,36.85841],[-5.3935,36.85852],[-5.39378,36.85847],[-5.39444,36.85742],[-5.39514,36.85672],[-5.39608,36.85641],[-5.39653,36.85641],[-5.39765,36.85666],[-5.39898,36.8574],[-5.39939,36.85752],[-5.39966,36.85751],[-5.40059,36.85685],[-5.40129,36.8565],[-5.40164,36.85646],[-5.40279,36.85683],[-5.40556,36.85687],[-5.40621,36.85723],[-5.40698,36.85843],[-5.40726,36.85855],[-5.40856,36.85859],[-5.40996,36.85831],[-5.41244,36.85922],[-5.41462,36.85939],[-5.41634,36.85969],[-5.41746,36.85964],[-5.41862,36.85944],[-5.41975,36.85912],[-5.42014,36.85916],[-5.42076,36.85988],[-5.42283,36.86018],[-5.42375,36.8599],[-5.4255,36.85862],[-5.42577,36.85827],[-5.42589,36.85785],[-5.42575,36.85725],[-5.42586,36.85697],[-5.42617,36.85676],[-5.42748,36.85648],[-5.42819,36.8558],[-5.42895,36.85557],[-5.42969,36.85466],[-5.43186,36.85373],[-5.43365,36.85312],[-5.43415,36.85305],[-5.43531,36.8533],[-5.43766,36.85279],[-5.44032,36.85364],[-5.44091,36.85375],[-5.44405,36.85368],[-5.44505,36.85333],[-5.44624,36.85322],[-5.44747,36.85295],[-5.44817,36.85266],[-5.45088,36.851],[-5.45233,36.85026],[-5.45344,36.85152],[-5.45388,36.85172],[-5.45436,36.85221],[-5.45577,36.85292],[-5.4577,36.85491],[-5.4581,36.85517],[-5.45853,36.85524],[-5.45933,36.85486],[-5.46043,36.85502],[-5.46092,36.85496],[-5.4616,36.85508],[-5.46222,36.85493],[-5.46301,36.85498],[-5.46366,36.85466],[-5.46395,36.85462],[-5.46597,36.8554],[-5.46696,36.85545],[-5.46779,36.85528],[-5.46825,36.85531],[-5.46917,36.85591],[-5.47002,36.856],[-5.47094,36.85636],[-5.47141,36.85643],[-5.472,36.85637],[-5.47284,36.85661],[-5.47315,36.85655],[-5.47363,36.85695],[-5.47396,36.85695],[-5.47471,36.85651],[-5.47504,36.85641],[-5.4757,36.85636],[-5.47702,36.85676],[-5.4779,36.85676],[-5.47932,36.85692],[-5.48081,36.85754],[-5.48166,36.85763],[-5.4826,36.85727],[-5.48383,36.8565],[-5.48446,36.85629],[-5.48471,36.8564],[-5.48526,36.85642],[-5.48589,36.85682],[-5.48715,36.85695],[-5.48756,36.85717],[-5.48811,36.85697],[-5.48911,36.85704],[-5.48938,36.85695],[-5.48959,36.85644],[-5.48987,36.85634],[-5.4906,36.85645],[-5.49126,36.85636],[-5.49201,36.85645],[-5.49366,36.8564],[-5.49416,36.85614],[-5.49479,36.85606],[-5.49589,36.85563],[-5.49792,36.85556],[-5.49904,36.85512],[-5.49956,36.85504],[-5.50053,36.8553],[-5.50094,36.85527],[-5.50311,36.8545],[-5.50366,36.85441],[-5.50582,36.85537],[-5.50654,36.85552],[-5.50893,36.85566],[-5.50999,36.85558],[-5.51135,36.85471],[-5.51424,36.85355],[-5.51499,36.85353],[-5.51582,36.85324],[-5.51699,36.85298],[-5.51759,36.85252],[-5.51761,36.8521],[-5.51735,36.85166],[-5.51651,36.85068],[-5.51632,36.84933],[-5.5164,36.84813],[-5.51633,36.84681],[-5.51662,36.84494],[-5.51664,36.84421],[-5.51639,36.84219],[-5.51678,36.84178],[-5.51746,36.84152],[-5.51809,36.84152],[-5.51894,36.84095],[-5.51948,36.84046],[-5.51959,36.84013],[-5.52105,36.83896],[-5.5232,36.8359],[-5.52437,36.83698],[-5.52618,36.83937],[-5.52703,36.8409],[-5.52694,36.84598],[-5.52767,36.84875],[-5.52791,36.85357],[-5.52706,36.86077],[-5.52735,36.86608],[-5.52727,36.86684],[-5.52699,36.86753],[-5.52701,36.86936],[-5.52717,36.86959],[-5.52827,36.87034],[-5.52839,36.87059],[-5.52822,36.87197],[-5.52833,36.87296],[-5.52811,36.87356],[-5.52803,36.87442],[-5.52879,36.87657],[-5.5289,36.8783],[-5.53103,36.87928],[-5.53211,36.87993],[-5.53358,36.88377],[-5.53414,36.88691],[-5.53392,36.89333],[-5.53357,36.89373],[-5.53195,36.89669],[-5.53063,36.89852],[-5.5302,36.89895],[-5.52368,36.90395],[-5.52155,36.90592],[-5.52103,36.90617],[-5.52071,36.90615],[-5.51893,36.90796],[-5.51696,36.91024],[-5.51595,36.91156],[-5.51301,36.91476],[-5.5103,36.9168],[-5.50715,36.91817],[-5.50543,36.91902],[-5.5041,36.91986],[-5.50306,36.92033],[-5.49517,36.92336],[-5.4929,36.92384],[-5.49142,36.92434],[-5.48812,36.92515],[-5.48569,36.92595],[-5.48443,36.92603],[-5.47977,36.92579],[-5.47808,36.92583],[-5.47677,36.92611],[-5.47545,36.92654],[-5.47413,36.92677],[-5.47117,36.92706],[-5.46815,36.92716],[-5.46642,36.92711],[-5.46247,36.92872],[-5.45835,36.93008],[-5.45611,36.93094],[-5.4549,36.93128],[-5.44776,36.93273],[-5.4463,36.93312],[-5.4459,36.93328],[-5.44499,36.93387],[-5.44338,36.93516],[-5.44299,36.93529],[-5.44146,36.93543],[-5.43895,36.93529],[-5.43684,36.93576],[-5.43567,36.93594],[-5.43343,36.93576],[-5.43316,36.93566],[-5.43262,36.93587],[-5.43005,36.93735],[-5.42952,36.93754],[-5.42705,36.93802],[-5.42369,36.93902],[-5.42298,36.93912],[-5.42051,36.93884],[-5.41892,36.93878],[-5.4179,36.93894],[-5.41523,36.93985],[-5.41399,36.94036],[-5.41285,36.94066],[-5.41166,36.94008],[-5.40997,36.93974],[-5.40782,36.93955]],[[-5.40867,36.88258],[-5.40904,36.88208],[-5.40962,36.88173],[-5.41043,36.88071],[-5.41093,36.88069],[-5.41137,36.88039],[-5.41188,36.88019],[-5.41206,36.87967],[-5.41199,36.87929],[-5.41271,36.87875],[-5.41241,36.87805],[-5.41259,36.87759],[-5.41303,36.87733],[-5.41323,36.87694],[-5.41395,36.87654],[-5.41425,36.87603],[-5.41442,36.87601],[-5.41454,36.87587],[-5.41561,36.87525],[-5.41593,36.87412],[-5.41563,36.87362],[-5.41342,36.87472],[-5.41281,36.87486],[-5.4125,36.87451],[-5.41177,36.87465],[-5.41154,36.87392],[-5.4113,36.87359],[-5.41035,36.87367],[-5.40925,36.8736],[-5.40785,36.87516],[-5.40454,36.8775],[-5.40449,36.87806],[-5.4033,36.87797],[-5.40285,36.87802],[-5.40268,36.87784],[-5.40242,36.87787],[-5.40225,36.87812],[-5.40171,36.87822],[-5.4016,36.87814],[-5.4012,36.87892],[-5.40055,36.8794],[-5.40013,36.87956],[-5.39888,36.87956],[-5.39868,36.87975],[-5.39802,36.87978],[-5.3975,36.88021],[-5.39655,36.88054],[-5.39615,36.88093],[-5.39587,36.88144],[-5.39597,36.88167],[-5.3959,36.88201],[-5.3961,36.88233],[-5.3954,36.88269],[-5.39539,36.88279],[-5.39557,36.88307],[-5.39589,36.8833],[-5.39624,36.88336],[-5.39689,36.88365],[-5.39819,36.88478],[-5.3988,36.88481],[-5.39971,36.88458],[-5.40031,36.88467],[-5.40052,36.88448],[-5.40187,36.8847],[-5.4029,36.88468],[-5.40288,36.88568],[-5.40293,36.88587],[-5.40319,36.88601],[-5.40379,36.88614],[-5.40507,36.88618],[-5.4066,36.88637],[-5.40854,36.88669],[-5.40983,36.88518],[-5.41021,36.88505],[-5.41068,36.8846],[-5.40867,36.88258]]]}}]}