{"type":"FeatureCollection","features":[{"type":"Feature","properties":{"id":"1102301001"},"geometry":{"type":"Polygon","coordinates":[[[-5.9261,36.45565],[-5.92583,36.45528],[-5.92546,36.45509],[-5.92524,36.45483],[-5.92439,36.45424],[-5.92446,36.45408],[-5.92506,36.45377],[-5.92586,36.45356],[-5.92631,36.45392],[-5.92645,36.45392],[-5.92686,36.45375],[-5.92688,36.45361],[-5.9274,36.45334],[-5.92797,36.45319],[-5.92822,36.45321],[-5.92835,36.45348],[-5.92859,36.45359],[-5.92862,36.45372],[-5.92926,36.45422],[-5.92935,36.45498],[-5.92928,36.45533],[-5.92882,36.45566],[-5.92876,36.4558],[-5.92838,36.45567],[-5.92824,36.45568],[-5.92817,36.45584],[-5.92688,36.45581],[-5.92668,36.45578],[-5.9266,36.45557],[-5.9261,36.45565]]]}},{"type":"Feature","properties":{"id":"1102302001"},"geometry":{"type":"Polygon","coordinates":[[[-5.92677,36.4558],[-5.92642,36.45734],[-5.9271,36.45815],[-5.92746,36.45843],[-5.92762,36.45894],[-5.92795,36.45922],[-5.92849,36.4601],[-5.92829,36.46019],[-5.92837,36.46033],[-5.9277,36.46071],[-5.92802,36.46124],[-5.92812,36.46235],[-5.92807,36.46276],[-5.92769,36.4635],[-5.92757,36.4636],[-5.92712,36.46364],[-5.92693,36.46357],[-5.92683,36.46338],[-5.92696,36.46259],[-5.92658,36.46106],[-5.92631,36.4604],[-5.92569,36.45975],[-5.92391,36.45891],[-5.92381,36.45876],[-5.92382,36.45835],[-5.92337,36.45732],[-5.92344,36.45705],[-5.9238,36.45663],[-5.92413,36.45565],[-5.92429,36.45548],[-5.92458,36.45542],[-5.92532,36.45554],[-5.92576,36.45552],[-5.92616,36.45569],[-5.9266,36.45557],[-5.92668,36.45578],[-5.92677,36.4558]]]}},{"type":"Feature","properties":{"id":"1102303001"},"geometry":{"type":"Polygon","coordinates":[[[-5.93049,36.45594],[-5.92971,36.45644],[-5.92996,36.45732],[-5.92942,36.45758],[-5.92917,36.45744],[-5.9285,36.45767],[-5.92802,36.45774],[-5.92808,36.45813],[-5.92844,36.459],[-5.92857,36.45901],[-5.92905,36.45997],[-5.92873,36.46019],[-5.92834,36.46031],[-5.92829,36.46019],[-5.92849,36.4601],[-5.92795,36.45922],[-5.92762,36.45894],[-5.92746,36.45843],[-5.9271,36.45815],[-5.92642,36.45734],[-5.92677,36.4558],[-5.92817,36.45584],[-5.92824,36.45568],[-5.92838,36.45567],[-5.92884,36.45582],[-5.92999,36.45526],[-5.93043,36.45563],[-5.93049,36.45594]]]}},{"type":"Feature","properties":{"id":"1102304001"},"geometry":{"type":"Polygon","coordinates":[[[-5.92873,36.46019],[-5.92905,36.45997],[-5.92857,36.45901],[-5.92844,36.459],[-5.92808,36.45813],[-5.92802,36.45774],[-5.9285,36.45767],[-5.92917,36.45744],[-5.92942,36.45758],[-5.92996,36.45732],[-5.92971,36.45644],[-5.93052,36.45595],[-5.93079,36.45556],[-5.9311,36.45536],[-5.93203,36.45568],[-5.93251,36.45556],[-5.93334,36.4556],[-5.93375,36.45544],[-5.93416,36.45561],[-5.93482,36.45559],[-5.93494,36.45574],[-5.93511,36.45662],[-5.93552,36.45762],[-5.93586,36.45791],[-5.93589,36.45884],[-5.93391,36.45947],[-5.93332,36.45979],[-5.93191,36.45989],[-5.93167,36.46008],[-5.93082,36.46038],[-5.93003,36.46029],[-5.92968,36.46046],[-5.92941,36.46082],[-5.92873,36.46019]]]}},{"type":"Feature","properties":{"id":"1102305001"},"geometry":{"type":"Polygon","coordinates":[[[-5.92641,36.46335],[-5.92712,36.46364],[-5.92757,36.4636],[-5.92807,36.46276],[-5.92812,36.46235],[-5.92802,36.46124],[-5.9277,36.46071],[-5.92873,36.46019],[-5.92941,36.46082],[-5.92968,36.46046],[-5.93003,36.46029],[-5.93075,36.46039],[-5.9318,36.46186],[-5.93232,36.46183],[-5.93217,36.46262],[-5.93234,36.46281],[-5.93232,36.46292],[-5.93196,36.4634],[-5.93153,36.46359],[-5.93152,36.46397],[-5.93129,36.46423],[-5.93193,36.46443],[-5.93269,36.46437],[-5.93292,36.46453],[-5.93299,36.46492],[-5.93215,36.46536],[-5.93133,36.46561],[-5.93102,36.46511],[-5.92958,36.46569],[-5.92912,36.46564],[-5.92816,36.46515],[-5.92753,36.46522],[-5.92672,36.46627],[-5.92658,36.46588],[-5.92582,36.465],[-5.92582,36.46486],[-5.92629,36.46429],[-5.92641,36.46335]]]}},{"type":"Feature","properties":{"id":"1102305002"},"geometry":{"type":"Polygon","coordinates":[[[-5.92672,36.46627],[-5.92753,36.46522],[-5.92816,36.46515],[-5.92912,36.46564],[-5.92958,36.46569],[-5.93102,36.46511],[-5.93133,36.46561],[-5.93215,36.46536],[-5.93299,36.46492],[-5.9345,36.46485],[-5.93437,36.46597],[-5.93417,36.46653],[-5.93377,36.46702],[-5.93388,36.46705],[-5.9337,36.46729],[-5.93372,36.46744],[-5.93414,36.46761],[-5.93393,36.46844],[-5.93354,36.46879],[-5.9329,36.46987],[-5.93285,36.47013],[-5.93259,36.47045],[-5.93196,36.47044],[-5.93149,36.47068],[-5.93098,36.47138],[-5.93029,36.47147],[-5.92947,36.47027],[-5.92893,36.46818],[-5.92875,36.46789],[-5.92839,36.46789],[-5.92755,36.46816],[-5.92719,36.46819],[-5.92685,36.46811],[-5.92669,36.46745],[-5.9268,36.46711],[-5.92672,36.46627]],[[-5.93141,36.46954],[-5.93165,36.46975],[-5.93183,36.46971],[-5.93193,36.46955],[-5.93178,36.46894],[-5.93182,36.46849],[-5.93172,36.46821],[-5.93133,36.46787],[-5.93158,36.46673],[-5.93138,36.46641],[-5.93107,36.46619],[-5.93057,36.46607],[-5.92989,36.46635],[-5.93099,36.46812],[-5.93141,36.46954]]]}},{"type":"Feature","properties":{"id":"1102305003"},"geometry":{"type":"Polygon","coordinates":[[[-5.93045,36.4661],[-5.93097,36.46613],[-5.93154,36.46662],[-5.93152,36.46732],[-5.93132,36.46773],[-5.93133,36.46787],[-5.93172,36.46821],[-5.93182,36.46849],[-5.93178,36.46894],[-5.93193,36.46955],[-5.93183,36.46971],[-5.93165,36.46975],[-5.93141,36.46954],[-5.93099,36.46812],[-5.92989,36.46635],[-5.93045,36.4661]]]}},{"type":"Feature","properties":{"id":"1102305004"},"geometry":{"type":"Polygon","coordinates":[[[-5.93428,36.46703],[-5.93377,36.46702],[-5.93417,36.46653],[-5.9344,36.46581],[-5.93599,36.46592],[-5.93619,36.46684],[-5.93635,36.46687],[-5.93799,36.46675],[-5.94087,36.46595],[-5.94087,36.4668],[-5.94146,36.46813],[-5.94179,36.46854],[-5.94209,36.46872],[-5.94079,36.47071],[-5.93981,36.47011],[-5.9363,36.46759],[-5.93544,36.46753],[-5.93428,36.46703]]]}},{"type":"Feature","properties":{"id":"1102305005"},"geometry":{"type":"Polygon","coordinates":[[[-5.94079,36.47071],[-5.94209,36.46872],[-5.94179,36.46854],[-5.94146,36.46813],[-5.94087,36.4668],[-5.94087,36.46595],[-5.94189,36.46565],[-5.94232,36.46564],[-5.94349,36.46621],[-5.94899,36.46919],[-5.95104,36.47014],[-5.95095,36.47042],[-5.94857,36.47133],[-5.94771,36.47191],[-5.94717,36.47249],[-5.94616,36.47324],[-5.94546,36.47335],[-5.94485,36.47322],[-5.94079,36.47071]]]}},{"type":"Feature","properties":{"id":"1102306001"},"geometry":{"type":"Polygon","coordinates":[[[-5.89545,36.53536],[-5.89134,36.53254],[-5.88678,36.52919],[-5.88359,36.52539],[-5.87717,36.52174],[-5.87542,36.52085],[-5.86933,36.51915],[-5.86596,36.51703],[-5.86555,36.51706],[-5.86354,36.51566],[-5.86304,36.51477],[-5.86203,36.51408],[-5.85962,36.51136],[-5.85706,36.51035],[-5.8545,36.50833],[-5.85438,36.50805],[-5.85285,36.50625],[-5.8524,36.50586],[-5.84955,36.50403],[-5.84571,36.50133],[-5.84413,36.50008],[-5.84292,36.49934],[-5.84107,36.49856],[-5.84059,36.49799],[-5.83981,36.49743],[-5.83893,36.49715],[-5.83614,36.49531],[-5.83351,36.49297],[-5.82625,36.48722],[-5.82371,36.48535],[-5.82307,36.48471],[-5.81847,36.47857],[-5.81758,36.47532],[-5.81632,36.46926],[-5.81595,36.46777],[-5.81543,36.46635],[-5.81475,36.46315],[-5.81358,36.46122],[-5.80822,36.44563],[-5.80804,36.44476],[-5.80799,36.44191],[-5.80818,36.4394],[-5.80801,36.43771],[-5.80719,36.43462],[-5.8068,36.42996],[-5.80644,36.42886],[-5.80618,36.42837],[-5.80542,36.42746],[-5.80537,36.42725],[-5.80583,36.42671],[-5.80593,36.42606],[-5.80628,36.42522],[-5.80661,36.42491],[-5.80849,36.42379],[-5.80892,36.42317],[-5.80887,36.42287],[-5.8079,36.4214],[-5.80658,36.41983],[-5.80579,36.41911],[-5.8055,36.41902],[-5.8042,36.41923],[-5.80365,36.41901],[-5.80337,36.41878],[-5.80311,36.41823],[-5.80317,36.41751],[-5.80222,36.4167],[-5.80239,36.41558],[-5.80225,36.41522],[-5.80037,36.41418],[-5.79828,36.4128],[-5.79821,36.4126],[-5.79843,36.41173],[-5.79812,36.41104],[-5.79728,36.40988],[-5.79705,36.409],[-5.79718,36.40763],[-5.79709,36.40735],[-5.7956,36.40578],[-5.79534,36.40536],[-5.79567,36.40462],[-5.79621,36.40401],[-5.79628,36.40379],[-5.79613,36.40327],[-5.79517,36.40193],[-5.79497,36.40113],[-5.79465,36.40078],[-5.79444,36.40066],[-5.79327,36.40045],[-5.79301,36.40032],[-5.79241,36.39981],[-5.79225,36.39953],[-5.79228,36.39917],[-5.79243,36.39896],[-5.79343,36.39838],[-5.79351,36.39817],[-5.79332,36.39781],[-5.79236,36.39694],[-5.79235,36.39665],[-5.79316,36.39574],[-5.79359,36.3955],[-5.79472,36.39529],[-5.79483,36.39506],[-5.79467,36.39454],[-5.79386,36.39336],[-5.79363,36.39319],[-5.79301,36.393],[-5.79115,36.393],[-5.79056,36.39283],[-5.79014,36.3924],[-5.78985,36.39163],[-5.7905,36.38999],[-5.79057,36.38908],[-5.7908,36.38848],[-5.79098,36.38829],[-5.79335,36.38741],[-5.79444,36.38689],[-5.79465,36.3867],[-5.79464,36.38631],[-5.79449,36.38618],[-5.79287,36.38604],[-5.79197,36.38608],[-5.79164,36.38591],[-5.79136,36.38548],[-5.79159,36.38497],[-5.79188,36.38478],[-5.79313,36.3846],[-5.79316,36.3835],[-5.79395,36.38212],[-5.79446,36.38181],[-5.79535,36.38166],[-5.79647,36.38059],[-5.79646,36.3803],[-5.79599,36.37932],[-5.79359,36.37616],[-5.79336,36.37565],[-5.79338,36.37508],[-5.79389,36.37389],[-5.79419,36.37352],[-5.79523,36.37296],[-5.79658,36.37246],[-5.79877,36.37102],[-5.7991,36.37067],[-5.79967,36.36971],[-5.79968,36.36947],[-5.79922,36.36841],[-5.79852,36.36734],[-5.8001,36.36774],[-5.8012,36.36841],[-5.80347,36.369],[-5.80321,36.36975],[-5.80333,36.37047],[-5.80348,36.3708],[-5.80388,36.37068],[-5.80439,36.37016],[-5.80502,36.37225],[-5.80635,36.37229],[-5.80729,36.37215],[-5.80784,36.37166],[-5.80864,36.37114],[-5.80964,36.37224],[-5.8104,36.37251],[-5.81087,36.37129],[-5.81282,36.3673],[-5.81571,36.36752],[-5.8189,36.36736],[-5.82229,36.36705],[-5.82484,36.36711],[-5.82822,36.36699],[-5.83105,36.36738],[-5.83584,36.36907],[-5.83701,36.36889],[-5.83772,36.36666],[-5.8382,36.3645],[-5.83894,36.36222],[-5.84066,36.35907],[-5.84233,36.35543],[-5.84281,36.35394],[-5.84333,36.35163],[-5.84299,36.34976],[-5.84168,36.3473],[-5.83784,36.34168],[-5.83508,36.3368],[-5.83568,36.33635],[-5.83645,36.33613],[-5.83804,36.33485],[-5.83867,36.33452],[-5.83934,36.33439],[-5.84075,36.33297],[-5.8406,36.33207],[-5.83998,36.3306],[-5.83999,36.32875],[-5.83911,36.32767],[-5.83766,36.32692],[-5.8364,36.32614],[-5.83535,36.32515],[-5.83451,36.32481],[-5.83206,36.32505],[-5.82984,36.32542],[-5.82454,36.32588],[-5.82265,36.32622],[-5.82073,36.32628],[-5.81866,36.32685],[-5.81699,36.32748],[-5.81533,36.32851],[-5.81247,36.33109],[-5.81084,36.33225],[-5.80896,36.33125],[-5.80709,36.33054],[-5.80536,36.33008],[-5.80379,36.32985],[-5.8028,36.32935],[-5.80367,36.3273],[-5.80429,36.32495],[-5.80452,36.32297],[-5.80437,36.32129],[-5.80373,36.31923],[-5.80241,36.31676],[-5.80106,36.31462],[-5.799,36.31025],[-5.79854,36.30889],[-5.79913,36.30537],[-5.79903,36.30177],[-5.79766,36.29515],[-5.79722,36.29468],[-5.7968,36.29462],[-5.79623,36.29514],[-5.79561,36.29604],[-5.79519,36.29599],[-5.79464,36.29559],[-5.79383,36.29541],[-5.7915,36.29652],[-5.7903,36.29752],[-5.78948,36.29806],[-5.78885,36.298],[-5.78822,36.29771],[-5.78631,36.29846],[-5.7844,36.29892],[-5.78276,36.29919],[-5.77997,36.29945],[-5.77613,36.29949],[-5.77535,36.30033],[-5.77501,36.30203],[-5.77505,36.30268],[-5.77485,36.30357],[-5.77494,36.30425],[-5.77474,36.30486],[-5.7722,36.30285],[-5.7717,36.30225],[-5.77138,36.30163],[-5.77078,36.30136],[-5.76974,36.30124],[-5.76857,36.30131],[-5.76642,36.30196],[-5.76599,36.3015],[-5.76547,36.30121],[-5.76429,36.30117],[-5.76387,36.30071],[-5.76326,36.3005],[-5.76236,36.30059],[-5.76234,36.30007],[-5.76218,36.29977],[-5.76123,36.29986],[-5.76103,36.29955],[-5.76098,36.29922],[-5.76167,36.29885],[-5.76171,36.29852],[-5.76154,36.29813],[-5.76072,36.29782],[-5.75934,36.2976],[-5.7588,36.29742],[-5.75869,36.29715],[-5.76032,36.29644],[-5.76048,36.29607],[-5.76001,36.29594],[-5.75911,36.2963],[-5.75776,36.2966],[-5.75744,36.29605],[-5.75759,36.29509],[-5.75796,36.29436],[-5.7581,36.29377],[-5.75764,36.29356],[-5.757,36.29347],[-5.75532,36.2937],[-5.75481,36.29364],[-5.7542,36.29324],[-5.75344,36.29254],[-5.75264,36.29258],[-5.7525,36.29287],[-5.75293,36.29327],[-5.75346,36.29357],[-5.75405,36.29371],[-5.75416,36.29407],[-5.75467,36.29427],[-5.75536,36.29435],[-5.7559,36.2943],[-5.75692,36.29449],[-5.75697,36.29475],[-5.75655,36.29516],[-5.75658,36.29592],[-5.75646,36.29628],[-5.75615,36.29662],[-5.75575,36.29677],[-5.75481,36.29593],[-5.75438,36.29584],[-5.75312,36.29582],[-5.75261,36.29635],[-5.75273,36.29699],[-5.75218,36.29726],[-5.75208,36.29759],[-5.75218,36.29801],[-5.7526,36.29842],[-5.75305,36.29846],[-5.75378,36.29827],[-5.75451,36.29837],[-5.75517,36.29864],[-5.75582,36.29925],[-5.75653,36.30088],[-5.75656,36.30182],[-5.75602,36.30292],[-5.75536,36.30314],[-5.7547,36.30296],[-5.75295,36.30284],[-5.75228,36.30248],[-5.75157,36.30185],[-5.75117,36.30059],[-5.75044,36.30024],[-5.74985,36.30065],[-5.74977,36.30182],[-5.74861,36.30267],[-5.74748,36.30339],[-5.74543,36.30413],[-5.7443,36.3043],[-5.74366,36.30411],[-5.7433,36.30343],[-5.7431,36.30224],[-5.74257,36.30179],[-5.74166,36.30228],[-5.74158,36.30272],[-5.74166,36.30331],[-5.74162,36.30386],[-5.74124,36.30416],[-5.73904,36.30446],[-5.73809,36.30499],[-5.7378,36.30554],[-5.73682,36.30623],[-5.73506,36.30588],[-5.73442,36.30627],[-5.73418,36.30698],[-5.73374,36.30755],[-5.73288,36.30815],[-5.73175,36.30874],[-5.73074,36.30902],[-5.72961,36.30913],[-5.7288,36.30887],[-5.72792,36.30776],[-5.72638,36.30667],[-5.72536,36.30635],[-5.7243,36.30636],[-5.72317,36.30648],[-5.7223,36.30623],[-5.72144,36.30546],[-5.71986,36.30139],[-5.71965,36.30043],[-5.71847,36.29985],[-5.71745,36.29957],[-5.71642,36.29973],[-5.71526,36.30041],[-5.7121,36.30276],[-5.70862,36.30341],[-5.70722,36.30341],[-5.70651,36.30363],[-5.70565,36.30415],[-5.70522,36.30622],[-5.7056,36.30722],[-5.70712,36.30773],[-5.70761,36.30802],[-5.70758,36.3084],[-5.70714,36.3097],[-5.70726,36.31104],[-5.7068,36.31187],[-5.70633,36.31226],[-5.70619,36.31274],[-5.70672,36.31341],[-5.70631,36.31416],[-5.70607,36.315],[-5.70622,36.31571],[-5.70693,36.31591],[-5.70723,36.31627],[-5.70715,36.317],[-5.70723,36.31758],[-5.70807,36.3184],[-5.71078,36.32245],[-5.71134,36.32389],[-5.7113,36.32445],[-5.71062,36.32581],[-5.71027,36.32699],[-5.71002,36.32884],[-5.70938,36.32958],[-5.70897,36.33029],[-5.70888,36.33097],[-5.70912,36.33221],[-5.70949,36.3331],[-5.70993,36.33485],[-5.70976,36.33548],[-5.70935,36.33615],[-5.70514,36.33941],[-5.70378,36.33918],[-5.68997,36.33426],[-5.68949,36.33417],[-5.68585,36.33405],[-5.68538,36.33391],[-5.68498,36.33361],[-5.68505,36.33353],[-5.68392,36.33247],[-5.68286,36.33177],[-5.68143,36.33119],[-5.68069,36.33112],[-5.67619,36.33126],[-5.67309,36.33149],[-5.67024,36.33158],[-5.66833,36.33178],[-5.66695,36.33206],[-5.66451,36.33276],[-5.66316,36.33263],[-5.66031,36.33132],[-5.65495,36.33151],[-5.64783,36.33193],[-5.64722,36.33133],[-5.64351,36.32868],[-5.6421,36.32731],[-5.64135,36.32679],[-5.64007,36.32615],[-5.6373,36.32434],[-5.6349,36.32333],[-5.62941,36.32281],[-5.62815,36.32222],[-5.61782,36.31835],[-5.61625,36.31748],[-5.61965,36.31228],[-5.62297,36.30757],[-5.62452,36.30513],[-5.62498,36.30361],[-5.62529,36.30301],[-5.62661,36.30159],[-5.62685,36.29894],[-5.6268,36.29797],[-5.62698,36.29709],[-5.62722,36.29655],[-5.62889,36.29568],[-5.63592,36.29255],[-5.63738,36.29119],[-5.63772,36.29064],[-5.63825,36.2889],[-5.64049,36.28555],[-5.64237,36.28439],[-5.64337,36.2835],[-5.64369,36.28305],[-5.64424,36.28155],[-5.64474,36.28059],[-5.64874,36.27637],[-5.65024,36.2746],[-5.64852,36.27155],[-5.64791,36.26999],[-5.64758,36.26942],[-5.64713,36.2691],[-5.64647,36.2689],[-5.64568,36.26881],[-5.64621,36.2682],[-5.64642,36.26754],[-5.64586,36.26768],[-5.64615,36.26721],[-5.64662,36.26683],[-5.64794,36.26466],[-5.64896,36.26224],[-5.65,36.26022],[-5.65215,36.25547],[-5.64963,36.25474],[-5.65385,36.25335],[-5.65434,36.25283],[-5.6557,36.24949],[-5.65673,36.25036],[-5.65855,36.25042],[-5.67001,36.24943],[-5.67176,36.24918],[-5.67976,36.24734],[-5.6845,36.24639],[-5.69138,36.24922],[-5.693,36.24969],[-5.69415,36.2499],[-5.69505,36.24995],[-5.69623,36.251],[-5.6993,36.25458],[-5.70098,36.25215],[-5.70241,36.25069],[-5.70479,36.24903],[-5.70739,36.24749],[-5.70657,36.24613],[-5.70374,36.24212],[-5.70097,36.23787],[-5.70067,36.23751],[-5.69851,36.23639],[-5.69802,36.23504],[-5.69707,36.23146],[-5.69683,36.22967],[-5.6956,36.22331],[-5.69452,36.22195],[-5.69504,36.21837],[-5.69517,36.21609],[-5.69509,36.21509],[-5.70333,36.22197],[-5.71333,36.22938],[-5.7184,36.23285],[-5.72703,36.23841],[-5.73352,36.243],[-5.73627,36.2451],[-5.73981,36.24801],[-5.74395,36.25207],[-5.74715,36.2556],[-5.74815,36.25651],[-5.74925,36.2573],[-5.75028,36.25797],[-5.75941,36.26165],[-5.76616,36.26499],[-5.778,36.259],[-5.78029,36.25793],[-5.7877,36.2541],[-5.79142,36.25202],[-5.79197,36.25273],[-5.79864,36.26007],[-5.80811,36.27024],[-5.81413,36.27559],[-5.82275,36.28352],[-5.82924,36.28973],[-5.83162,36.29174],[-5.83682,36.2964],[-5.83849,36.29829],[-5.84043,36.30074],[-5.84109,36.3014],[-5.84367,36.30374],[-5.85364,36.31196],[-5.85526,36.31299],[-5.85592,36.3137],[-5.85648,36.31453],[-5.85767,36.31702],[-5.85862,36.31758],[-5.85906,36.31851],[-5.85948,36.31894],[-5.86008,36.31934],[-5.86091,36.32046],[-5.86287,36.32221],[-5.86386,36.32327],[-5.86443,36.32407],[-5.86487,36.32528],[-5.86953,36.32829],[-5.87111,36.32998],[-5.87385,36.33236],[-5.87658,36.335],[-5.88304,36.33948],[-5.88726,36.34204],[-5.88967,36.34315],[-5.89722,36.34689],[-5.90188,36.34859],[-5.90611,36.35032],[-5.91175,36.35356],[-5.91527,36.35495],[-5.91744,36.3552],[-5.92132,36.3554],[-5.92243,36.35555],[-5.92427,36.35658],[-5.93196,36.35828],[-5.93927,36.36024],[-5.94739,36.36331],[-5.9548,36.36642],[-5.95617,36.3671],[-5.96276,36.36882],[-5.96854,36.37139],[-5.97581,36.37403],[-5.98378,36.37595],[-5.98697,36.37546],[-5.99194,36.37445],[-5.9937,36.37283],[-5.99822,36.37597],[-5.99964,36.37731],[-6.00317,36.38101],[-6.01189,36.39132],[-6.01483,36.39298],[-6.01601,36.39405],[-6.01686,36.39493],[-6.01979,36.39846],[-6.02342,36.40347],[-6.02501,36.40423],[-6.02809,36.41083],[-6.03011,36.41464],[-6.03182,36.4183],[-6.03471,36.42279],[-6.03582,36.42425],[-6.03776,36.42621],[-6.04064,36.42851],[-6.04314,36.43033],[-6.04586,36.4329],[-6.04853,36.43501],[-6.04916,36.4357],[-6.05445,36.44395],[-6.05464,36.44532],[-6.05661,36.44841],[-6.05996,36.45173],[-6.06143,36.45309],[-6.06465,36.4558],[-6.06815,36.45919],[-6.0691,36.45987],[-6.07052,36.46065],[-6.07131,36.46091],[-6.07217,36.46141],[-6.0709,36.46356],[-6.07052,36.46447],[-6.07074,36.46671],[-6.07074,36.46797],[-6.07092,36.46852],[-6.06322,36.47423],[-6.05534,36.47607],[-6.05,36.47852],[-6.04432,36.48026],[-6.04307,36.48081],[-6.03931,36.48296],[-6.03607,36.48501],[-6.03261,36.48749],[-6.0295,36.48923],[-6.02808,36.48988],[-6.02547,36.49144],[-6.0231,36.49255],[-6.01925,36.49328],[-6.01718,36.49491],[-6.0161,36.49606],[-6.01337,36.4979],[-6.01183,36.49875],[-6.0083,36.50043],[-6.00524,36.50164],[-6.00279,36.50364],[-5.99599,36.50872],[-5.99132,36.51205],[-5.98981,36.51293],[-5.98781,36.51427],[-5.98662,36.51482],[-5.98236,36.5178],[-5.98013,36.51854],[-5.97666,36.52027],[-5.97458,36.52093],[-5.96925,36.52223],[-5.96325,36.52331],[-5.95161,36.52568],[-5.9459,36.5265],[-5.9413,36.52703],[-5.92948,36.52807],[-5.91872,36.5288],[-5.91381,36.53043],[-5.91215,36.53107],[-5.90929,36.53195],[-5.90544,36.53309],[-5.90311,36.53354],[-5.90162,36.53406],[-5.89849,36.53542],[-5.89545,36.53536]],[[-5.94189,36.46565],[-5.93799,36.46675],[-5.93737,36.46685],[-5.93619,36.46684],[-5.93599,36.46592],[-5.9344,36.46581],[-5.9345,36.46485],[-5.93299,36.46496],[-5.93292,36.46453],[-5.93269,36.46437],[-5.93193,36.46443],[-5.93129,36.46423],[-5.93152,36.46397],[-5.93153,36.46359],[-5.93196,36.4634],[-5.93232,36.46292],[-5.93234,36.46281],[-5.93217,36.46262],[-5.93232,36.46183],[-5.9318,36.46186],[-5.93075,36.46039],[-5.93167,36.46008],[-5.93191,36.45989],[-5.93332,36.45979],[-5.93391,36.45947],[-5.93589,36.45884],[-5.93586,36.45791],[-5.93552,36.45762],[-5.93511,36.45662],[-5.93494,36.45574],[-5.93482,36.45559],[-5.93416,36.45561],[-5.93375,36.45544],[-5.93334,36.4556],[-5.93251,36.45556],[-5.93203,36.45568],[-5.9311,36.45536],[-5.93079,36.45556],[-5.93052,36.45595],[-5.93043,36.45563],[-5.92999,36.45526],[-5.92884,36.45582],[-5.92882,36.45566],[-5.92917,36.45544],[-5.92933,36.45521],[-5.92926,36.45422],[-5.92862,36.45372],[-5.92859,36.45359],[-5.92835,36.45348],[-5.92822,36.45321],[-5.92797,36.45319],[-5.9274,36.45334],[-5.92688,36.45361],[-5.92686,36.45375],[-5.92645,36.45392],[-5.92631,36.45392],[-5.92586,36.45356],[-5.92506,36.45377],[-5.92446,36.45408],[-5.92439,36.45424],[-5.92524,36.45483],[-5.92546,36.45509],[-5.92583,36.45528],[-5.9261,36.45565],[-5.92576,36.45552],[-5.92532,36.45554],[-5.92458,36.45542],[-5.92429,36.45548],[-5.92413,36.45565],[-5.9238,36.45663],[-5.92344,36.45705],[-5.92337,36.45732],[-5.92382,36.45835],[-5.92381,36.45876],[-5.92391,36.45891],[-5.9259,36.45989],[-5.92631,36.4604],[-5.92658,36.46106],[-5.92696,36.46259],[-5.92689,36.46349],[-5.92641,36.46335],[-5.92629,36.46429],[-5.92582,36.46486],[-5.92582,36.465],[-5.92642,36.46563],[-5.9268,36.46636],[-5.9268,36.46711],[-5.92669,36.46745],[-5.92678,36.46803],[-5.92719,36.46819],[-5.92859,36.46785],[-5.92875,36.46789],[-5.92893,36.46818],[-5.92947,36.47027],[-5.93029,36.47147],[-5.93098,36.47138],[-5.93149,36.47068],[-5.93196,36.47044],[-5.93259,36.47045],[-5.93285,36.47013],[-5.9329,36.46987],[-5.93354,36.46879],[-5.93393,36.46844],[-5.93414,36.46761],[-5.93372,36.46744],[-5.9337,36.46729],[-5.93388,36.46705],[-5.93408,36.467],[-5.93544,36.46753],[-5.9363,36.46759],[-5.93981,36.47011],[-5.94297,36.47201],[-5.94413,36.47281],[-5.94485,36.47322],[-5.94546,36.47335],[-5.94616,36.47324],[-5.94717,36.47249],[-5.94771,36.47191],[-5.94857,36.47133],[-5.95095,36.47042],[-5.95104,36.47014],[-5.94899,36.46919],[-5.9467,36.4679],[-5.94232,36.46564],[-5.94189,36.46565]]]}}]}