{"type":"FeatureCollection","features":[{"type":"Feature","properties":{"id":"1102701001"},"geometry":{"type":"Polygon","coordinates":[[[-6.21718,36.60863],[-6.2183,36.60937],[-6.21994,36.61033],[-6.21924,36.61086],[-6.21867,36.61113],[-6.21762,36.61135],[-6.21639,36.61126],[-6.21543,36.6109],[-6.2153,36.61081],[-6.21718,36.60863]]]}},{"type":"Feature","properties":{"id":"1102701002"},"geometry":{"type":"Polygon","coordinates":[[[-6.2136,36.60955],[-6.21532,36.60825],[-6.21476,36.60772],[-6.21527,36.60737],[-6.21718,36.60863],[-6.2153,36.61081],[-6.21464,36.61043],[-6.2136,36.60955]]]}},{"type":"Feature","properties":{"id":"1102701003"},"geometry":{"type":"Polygon","coordinates":[[[-6.21718,36.60863],[-6.21811,36.60758],[-6.21835,36.60717],[-6.21964,36.60592],[-6.22241,36.60854],[-6.2206,36.60993],[-6.21994,36.61033],[-6.21718,36.60863]]]}},{"type":"Feature","properties":{"id":"1102701004"},"geometry":{"type":"Polygon","coordinates":[[[-6.22038,36.60509],[-6.21835,36.60717],[-6.21811,36.60758],[-6.21718,36.60863],[-6.21612,36.60799],[-6.21446,36.60676],[-6.214,36.60619],[-6.21547,36.60514],[-6.21854,36.60336],[-6.21897,36.60394],[-6.22038,36.60509]]]}},{"type":"Feature","properties":{"id":"1102701005"},"geometry":{"type":"Polygon","coordinates":[[[-6.22104,36.60719],[-6.22618,36.60438],[-6.22663,36.6044],[-6.22749,36.6054],[-6.2245,36.60701],[-6.22241,36.60854],[-6.22104,36.60719]]]}},{"type":"Feature","properties":{"id":"1102701006"},"geometry":{"type":"Polygon","coordinates":[[[-6.22648,36.60439],[-6.22618,36.60438],[-6.22574,36.60458],[-6.22104,36.60719],[-6.21964,36.60592],[-6.22037,36.60515],[-6.22431,36.60216],[-6.22642,36.60412],[-6.22648,36.60439]]]}},{"type":"Feature","properties":{"id":"1102701007"},"geometry":{"type":"Polygon","coordinates":[[[-6.21854,36.60336],[-6.21936,36.60244],[-6.21983,36.60105],[-6.22136,36.59936],[-6.22388,36.60103],[-6.22349,36.60155],[-6.22402,36.60178],[-6.22433,36.60214],[-6.22046,36.60511],[-6.22037,36.60515],[-6.22028,36.60498],[-6.21897,36.60394],[-6.21854,36.60336]]]}},{"type":"Feature","properties":{"id":"1102701008"},"geometry":{"type":"Polygon","coordinates":[[[-6.22564,36.6034],[-6.22773,36.60175],[-6.23024,36.6042],[-6.22749,36.6054],[-6.22663,36.6044],[-6.22648,36.60439],[-6.22642,36.60412],[-6.22564,36.6034]]]}},{"type":"Feature","properties":{"id":"1102701009"},"geometry":{"type":"Polygon","coordinates":[[[-6.22592,36.59992],[-6.22773,36.60175],[-6.22564,36.6034],[-6.22398,36.60182],[-6.22514,36.60055],[-6.22525,36.60062],[-6.22592,36.59992]]]}},{"type":"Feature","properties":{"id":"1102701010"},"geometry":{"type":"Polygon","coordinates":[[[-6.22972,36.60117],[-6.23079,36.60204],[-6.23249,36.60336],[-6.23024,36.6042],[-6.22847,36.60245],[-6.22972,36.60117]]]}},{"type":"Feature","properties":{"id":"1102701011"},"geometry":{"type":"Polygon","coordinates":[[[-6.22661,36.59905],[-6.22787,36.59983],[-6.2283,36.59997],[-6.22972,36.60117],[-6.22847,36.60245],[-6.22594,36.59998],[-6.22661,36.59905]]]}},{"type":"Feature","properties":{"id":"1102701012"},"geometry":{"type":"Polygon","coordinates":[[[-6.2232,36.59712],[-6.22483,36.59796],[-6.22661,36.59905],[-6.2258,36.60005],[-6.22525,36.60062],[-6.22514,36.60055],[-6.22402,36.60178],[-6.22349,36.60155],[-6.22388,36.60103],[-6.22136,36.59936],[-6.2232,36.59712]]]}},{"type":"Feature","properties":{"id":"1102701013"},"geometry":{"type":"Polygon","coordinates":[[[-6.23439,36.6021],[-6.23526,36.60341],[-6.23437,36.60317],[-6.23393,36.60314],[-6.23354,36.60314],[-6.23249,36.60336],[-6.2313,36.60243],[-6.23266,36.60107],[-6.23377,36.6018],[-6.23405,36.60133],[-6.23439,36.6021]]]}},{"type":"Feature","properties":{"id":"1102701014"},"geometry":{"type":"Polygon","coordinates":[[[-6.22972,36.60117],[-6.23165,36.59913],[-6.23338,36.60029],[-6.2313,36.60243],[-6.22972,36.60117]]]}},{"type":"Feature","properties":{"id":"1102701015"},"geometry":{"type":"Polygon","coordinates":[[[-6.22759,36.59666],[-6.22997,36.59808],[-6.22848,36.5995],[-6.22864,36.59963],[-6.2283,36.59997],[-6.22787,36.59983],[-6.22596,36.59866],[-6.22759,36.59666]]]}},{"type":"Feature","properties":{"id":"1102701016"},"geometry":{"type":"Polygon","coordinates":[[[-6.22483,36.59493],[-6.22559,36.59543],[-6.22648,36.59446],[-6.22702,36.59485],[-6.2268,36.59508],[-6.2274,36.59546],[-6.22702,36.59596],[-6.22786,36.59631],[-6.22596,36.59866],[-6.2232,36.59712],[-6.22483,36.59493]]]}},{"type":"Feature","properties":{"id":"1102701017"},"geometry":{"type":"Polygon","coordinates":[[[-6.23793,36.59889],[-6.23759,36.59942],[-6.23763,36.59984],[-6.23752,36.60011],[-6.23708,36.6008],[-6.23589,36.60188],[-6.23553,36.60232],[-6.23466,36.60246],[-6.23439,36.6021],[-6.23405,36.60133],[-6.23377,36.6018],[-6.23266,36.60107],[-6.23338,36.60029],[-6.23164,36.59913],[-6.23231,36.5985],[-6.23129,36.59769],[-6.23186,36.59725],[-6.23076,36.5964],[-6.23209,36.59527],[-6.23464,36.59694],[-6.23793,36.59889]]]}},{"type":"Feature","properties":{"id":"1102701018"},"geometry":{"type":"Polygon","coordinates":[[[-6.22699,36.59205],[-6.23209,36.59527],[-6.22924,36.59764],[-6.22761,36.59667],[-6.22786,36.59631],[-6.22702,36.59596],[-6.2274,36.59546],[-6.2268,36.59508],[-6.22702,36.59485],[-6.22648,36.59446],[-6.22559,36.59543],[-6.22483,36.59493],[-6.22699,36.59205]]]}},{"type":"Feature","properties":{"id":"1102701019"},"geometry":{"type":"Polygon","coordinates":[[[-6.23567,36.59758],[-6.23668,36.59682],[-6.23715,36.59661],[-6.24016,36.59635],[-6.24066,36.59639],[-6.241,36.5968],[-6.23983,36.59745],[-6.23874,36.59829],[-6.23775,36.59863],[-6.23735,36.59857],[-6.23567,36.59758]]]}},{"type":"Feature","properties":{"id":"1102701020"},"geometry":{"type":"Polygon","coordinates":[[[-6.23763,36.59459],[-6.23509,36.59722],[-6.23351,36.5962],[-6.23539,36.59429],[-6.23575,36.59378],[-6.23603,36.59372],[-6.23763,36.59459]]]}},{"type":"Feature","properties":{"id":"1102701021"},"geometry":{"type":"Polygon","coordinates":[[[-6.23351,36.5962],[-6.23003,36.59397],[-6.23118,36.59295],[-6.23157,36.59319],[-6.23212,36.59336],[-6.23481,36.59318],[-6.23529,36.5933],[-6.2357,36.59356],[-6.23575,36.59378],[-6.2355,36.59415],[-6.23351,36.5962]]]}},{"type":"Feature","properties":{"id":"1102701022"},"geometry":{"type":"Polygon","coordinates":[[[-6.23377,36.59079],[-6.23137,36.59297],[-6.23129,36.59302],[-6.23118,36.59295],[-6.23003,36.59397],[-6.22869,36.59312],[-6.23319,36.58856],[-6.234,36.58907],[-6.234,36.58923],[-6.23442,36.58951],[-6.23463,36.59047],[-6.23448,36.59067],[-6.2341,36.59088],[-6.23377,36.59079]]]}},{"type":"Feature","properties":{"id":"1102701023"},"geometry":{"type":"Polygon","coordinates":[[[-6.24051,36.59522],[-6.24122,36.59399],[-6.24249,36.59469],[-6.24329,36.59554],[-6.241,36.5968],[-6.24007,36.59575],[-6.24051,36.59522]]]}},{"type":"Feature","properties":{"id":"1102701024"},"geometry":{"type":"Polygon","coordinates":[[[-6.24063,36.59493],[-6.24051,36.59522],[-6.24007,36.59575],[-6.23936,36.59536],[-6.23911,36.59541],[-6.23605,36.59366],[-6.23794,36.59342],[-6.23802,36.59361],[-6.23875,36.594],[-6.2398,36.59483],[-6.23998,36.59461],[-6.24063,36.59493]]]}},{"type":"Feature","properties":{"id":"1102701025"},"geometry":{"type":"Polygon","coordinates":[[[-6.23663,36.59214],[-6.23736,36.59238],[-6.23864,36.59328],[-6.23728,36.59355],[-6.23605,36.59366],[-6.23591,36.5935],[-6.23663,36.59214]]]}},{"type":"Feature","properties":{"id":"1102701026"},"geometry":{"type":"Polygon","coordinates":[[[-6.23325,36.59125],[-6.23411,36.59181],[-6.23663,36.59214],[-6.23591,36.5935],[-6.23604,36.5936],[-6.23598,36.59377],[-6.23575,36.59378],[-6.2357,36.59356],[-6.23552,36.59342],[-6.23481,36.59318],[-6.23229,36.59337],[-6.23176,36.59327],[-6.23129,36.59302],[-6.23325,36.59125]]]}},{"type":"Feature","properties":{"id":"1102701027"},"geometry":{"type":"Polygon","coordinates":[[[-6.24039,36.59197],[-6.23759,36.59121],[-6.23663,36.59214],[-6.23529,36.59196],[-6.23569,36.59087],[-6.23448,36.59067],[-6.23463,36.59047],[-6.23442,36.58951],[-6.234,36.58923],[-6.234,36.58907],[-6.23661,36.5864],[-6.2364,36.58615],[-6.23429,36.58504],[-6.23531,36.58504],[-6.23607,36.58493],[-6.23922,36.58178],[-6.24657,36.57484],[-6.24846,36.57294],[-6.24899,36.57228],[-6.24938,36.57228],[-6.24946,36.57234],[-6.24939,36.57266],[-6.24446,36.57718],[-6.23756,36.58371],[-6.23822,36.58448],[-6.23876,36.58483],[-6.24044,36.58551],[-6.2415,36.58575],[-6.24332,36.58568],[-6.24348,36.58619],[-6.24246,36.58702],[-6.24233,36.5887],[-6.2413,36.59127],[-6.24106,36.59153],[-6.24039,36.59197]]]}},{"type":"Feature","properties":{"id":"1102701028"},"geometry":{"type":"Polygon","coordinates":[[[-6.23663,36.59214],[-6.23759,36.59121],[-6.24039,36.59197],[-6.23948,36.59275],[-6.23864,36.59328],[-6.23736,36.59238],[-6.23663,36.59214]]]}},{"type":"Feature","properties":{"id":"1102701029"},"geometry":{"type":"Polygon","coordinates":[[[-6.24309,36.59566],[-6.24464,36.59668],[-6.24588,36.59716],[-6.2453,36.59778],[-6.24282,36.5989],[-6.24237,36.59888],[-6.24053,36.59918],[-6.23995,36.59917],[-6.23793,36.59889],[-6.23759,36.59864],[-6.23795,36.5986],[-6.23874,36.59829],[-6.23987,36.59743],[-6.24309,36.59566]]]}},{"type":"Feature","properties":{"id":"1102701030"},"geometry":{"type":"Polygon","coordinates":[[[-6.22699,36.59205],[-6.23229,36.58679],[-6.23239,36.58686],[-6.23424,36.58505],[-6.2364,36.58615],[-6.23661,36.5864],[-6.234,36.58907],[-6.23319,36.58856],[-6.22869,36.59312],[-6.22699,36.59205]]]}},{"type":"Feature","properties":{"id":"1102701031"},"geometry":{"type":"Polygon","coordinates":[[[-6.23325,36.59125],[-6.23377,36.59079],[-6.2341,36.59088],[-6.23455,36.59063],[-6.23569,36.59087],[-6.23529,36.59196],[-6.23411,36.59181],[-6.23325,36.59125]]]}},{"type":"Feature","properties":{"id":"1102701032"},"geometry":{"type":"Polygon","coordinates":[[[-6.24122,36.59399],[-6.24063,36.59493],[-6.23998,36.59461],[-6.2398,36.59483],[-6.23875,36.594],[-6.23802,36.59361],[-6.23794,36.59342],[-6.23887,36.59318],[-6.24039,36.59197],[-6.24096,36.59228],[-6.2424,36.59257],[-6.24122,36.59399]]]}},{"type":"Feature","properties":{"id":"1102701033"},"geometry":{"type":"Polygon","coordinates":[[[-6.2283,36.59997],[-6.22864,36.59963],[-6.22848,36.5995],[-6.22997,36.59808],[-6.22924,36.59764],[-6.23076,36.5964],[-6.23186,36.59725],[-6.23129,36.59769],[-6.23231,36.5985],[-6.22972,36.60117],[-6.2283,36.59997]]]}},{"type":"Feature","properties":{"id":"1102701034"},"geometry":{"type":"Polygon","coordinates":[[[-6.24066,36.59639],[-6.2395,36.59635],[-6.23715,36.59661],[-6.23668,36.59682],[-6.23567,36.59758],[-6.23509,36.59722],[-6.23763,36.59459],[-6.23911,36.59541],[-6.23936,36.59536],[-6.24007,36.59575],[-6.24066,36.59639]]]}},{"type":"Feature","properties":{"id":"1102701035"},"geometry":{"type":"Polygon","coordinates":[[[-6.21527,36.60737],[-6.21476,36.60772],[-6.21532,36.60825],[-6.2136,36.60955],[-6.21328,36.60913],[-6.21307,36.60863],[-6.21297,36.60786],[-6.21338,36.60693],[-6.214,36.60619],[-6.2143,36.60662],[-6.21527,36.60737]]]}},{"type":"Feature","properties":{"id":"1102701036"},"geometry":{"type":"Polygon","coordinates":[[[-6.24122,36.59399],[-6.2424,36.59257],[-6.24411,36.59297],[-6.24564,36.59371],[-6.2461,36.59414],[-6.24329,36.59554],[-6.24249,36.59469],[-6.24122,36.59399]]]}},{"type":"Feature","properties":{"id":"1102702001"},"geometry":{"type":"Polygon","coordinates":[[[-6.2515,36.59666],[-6.25211,36.59548],[-6.25155,36.5952],[-6.25236,36.59416],[-6.25207,36.59402],[-6.25305,36.59282],[-6.25374,36.59285],[-6.25531,36.59105],[-6.25398,36.5904],[-6.25325,36.59023],[-6.25407,36.58946],[-6.25705,36.58761],[-6.25808,36.58647],[-6.25771,36.58636],[-6.25523,36.58479],[-6.25631,36.58346],[-6.25656,36.58268],[-6.25784,36.5823],[-6.25817,36.58208],[-6.25957,36.58256],[-6.26012,36.58261],[-6.26165,36.5819],[-6.26156,36.5815],[-6.2617,36.58071],[-6.26244,36.58083],[-6.26339,36.58079],[-6.2641,36.58046],[-6.26449,36.5799],[-6.2647,36.57978],[-6.26568,36.57971],[-6.26593,36.57983],[-6.26692,36.58092],[-6.26776,36.58148],[-6.26789,36.58236],[-6.26837,36.58328],[-6.26884,36.58331],[-6.26907,36.58342],[-6.26945,36.58383],[-6.27134,36.58986],[-6.27216,36.59173],[-6.27331,36.59366],[-6.27173,36.59434],[-6.27165,36.59441],[-6.27184,36.59494],[-6.2715,36.59497],[-6.27134,36.5951],[-6.26984,36.59481],[-6.26734,36.59488],[-6.26658,36.59464],[-6.26651,36.59478],[-6.26669,36.5949],[-6.26643,36.59485],[-6.26622,36.59569],[-6.26556,36.59557],[-6.26409,36.59767],[-6.26063,36.59594],[-6.25943,36.5971],[-6.25787,36.59887],[-6.25771,36.59894],[-6.25652,36.59843],[-6.256,36.59842],[-6.2553,36.59981],[-6.25487,36.60098],[-6.25596,36.60117],[-6.25527,36.6023],[-6.25074,36.60038],[-6.25185,36.59877],[-6.25193,36.59862],[-6.25186,36.59859],[-6.25268,36.59732],[-6.25201,36.59688],[-6.2515,36.59666]]]}},{"type":"Feature","properties":{"id":"1102702002"},"geometry":{"type":"Polygon","coordinates":[[[-6.25527,36.6023],[-6.25596,36.60117],[-6.25487,36.60098],[-6.2553,36.59981],[-6.256,36.59842],[-6.25652,36.59843],[-6.25771,36.59894],[-6.25787,36.59887],[-6.25943,36.5971],[-6.26063,36.59594],[-6.26409,36.59767],[-6.2637,36.59822],[-6.26633,36.5995],[-6.26662,36.5996],[-6.26872,36.59965],[-6.26874,36.60079],[-6.26863,36.60138],[-6.26823,36.60243],[-6.26784,36.60305],[-6.26753,36.60409],[-6.26294,36.60287],[-6.26169,36.60287],[-6.25974,36.6027],[-6.25623,36.60269],[-6.25527,36.6023]]]}},{"type":"Feature","properties":{"id":"1102702003"},"geometry":{"type":"Polygon","coordinates":[[[-6.2617,36.58071],[-6.26156,36.5815],[-6.26165,36.5819],[-6.26012,36.58261],[-6.25957,36.58256],[-6.25817,36.58208],[-6.25784,36.5823],[-6.25656,36.58268],[-6.25631,36.58346],[-6.25523,36.58479],[-6.25771,36.58636],[-6.25808,36.58647],[-6.25705,36.58761],[-6.25407,36.58946],[-6.25325,36.59023],[-6.25398,36.5904],[-6.25531,36.59105],[-6.25374,36.59285],[-6.25305,36.59282],[-6.25207,36.59402],[-6.25236,36.59416],[-6.25155,36.5952],[-6.25211,36.59548],[-6.2515,36.59666],[-6.2511,36.59657],[-6.24957,36.59589],[-6.24756,36.59524],[-6.24668,36.59466],[-6.24564,36.59371],[-6.24411,36.59297],[-6.24096,36.59228],[-6.24039,36.59197],[-6.24106,36.59153],[-6.2413,36.59127],[-6.24233,36.5887],[-6.24246,36.58702],[-6.24348,36.58619],[-6.24332,36.58568],[-6.24529,36.58544],[-6.2468,36.58463],[-6.2497,36.58344],[-6.25018,36.58307],[-6.25027,36.58287],[-6.25022,36.58208],[-6.25033,36.58162],[-6.24871,36.58123],[-6.24897,36.58066],[-6.24968,36.58019],[-6.24985,36.57978],[-6.25002,36.5798],[-6.24986,36.58028],[-6.24911,36.58073],[-6.24899,36.58115],[-6.25035,36.58144],[-6.25121,36.57934],[-6.25079,36.57924],[-6.25032,36.57954],[-6.25021,36.57945],[-6.25069,36.57907],[-6.25342,36.57825],[-6.25502,36.57868],[-6.2548,36.57921],[-6.25361,36.5789],[-6.25254,36.58147],[-6.25365,36.58177],[-6.25652,36.58173],[-6.25774,36.58127],[-6.25647,36.57906],[-6.25582,36.57929],[-6.25566,36.57884],[-6.25618,36.57898],[-6.25654,36.57814],[-6.25412,36.57747],[-6.25394,36.57733],[-6.25395,36.57713],[-6.25434,36.57712],[-6.25479,36.57737],[-6.26025,36.57887],[-6.26098,36.57969],[-6.26153,36.58068],[-6.2617,36.58071]]]}},{"type":"Feature","properties":{"id":"1102702004"},"geometry":{"type":"Polygon","coordinates":[[[-6.25147,36.60756],[-6.25003,36.60705],[-6.24854,36.60683],[-6.24604,36.60672],[-6.24453,36.60678],[-6.24354,36.60664],[-6.24273,36.60638],[-6.24099,36.60602],[-6.23742,36.60465],[-6.23603,36.60391],[-6.23526,36.60341],[-6.23466,36.60246],[-6.23553,36.60232],[-6.23589,36.60188],[-6.23708,36.6008],[-6.23752,36.60011],[-6.23763,36.59984],[-6.23759,36.59942],[-6.23793,36.59889],[-6.23995,36.59917],[-6.24053,36.59918],[-6.24237,36.59888],[-6.24282,36.5989],[-6.2455,36.59958],[-6.24882,36.60001],[-6.2511,36.60048],[-6.25288,36.60133],[-6.25626,36.60269],[-6.25672,36.6031],[-6.25694,36.60354],[-6.25778,36.60404],[-6.25936,36.60456],[-6.26162,36.60604],[-6.2631,36.60657],[-6.26152,36.6093],[-6.2605,36.60863],[-6.25884,36.60711],[-6.25816,36.60691],[-6.25707,36.60693],[-6.25674,36.60683],[-6.25626,36.60645],[-6.25542,36.60618],[-6.25393,36.60598],[-6.25252,36.60536],[-6.25188,36.60608],[-6.25171,36.60643],[-6.25147,36.60756]]]}},{"type":"Feature","properties":{"id":"1102702005"},"geometry":{"type":"Polygon","coordinates":[[[-6.28308,36.62592],[-6.282,36.62506],[-6.28167,36.62414],[-6.28205,36.62241],[-6.2814,36.62224],[-6.28086,36.62197],[-6.28025,36.62117],[-6.27662,36.61583],[-6.27659,36.61519],[-6.27687,36.61478],[-6.27918,36.61281],[-6.27969,36.61227],[-6.28002,36.61151],[-6.28034,36.61134],[-6.28099,36.6119],[-6.28299,36.61252],[-6.2858,36.61409],[-6.28692,36.61202],[-6.28761,36.61104],[-6.28946,36.61233],[-6.29055,36.61287],[-6.29208,36.6133],[-6.29218,36.61346],[-6.29243,36.61359],[-6.29307,36.61377],[-6.29355,36.61364],[-6.29501,36.61423],[-6.29679,36.61607],[-6.29779,36.61678],[-6.29896,36.61745],[-6.29975,36.61934],[-6.30119,36.6235],[-6.30184,36.62611],[-6.30344,36.63096],[-6.30374,36.63158],[-6.29972,36.6301],[-6.29926,36.63007],[-6.29815,36.62958],[-6.29718,36.62941],[-6.2957,36.62849],[-6.29133,36.62801],[-6.29042,36.62756],[-6.28923,36.62738],[-6.28781,36.62681],[-6.2848,36.62667],[-6.28424,36.6263],[-6.28308,36.62592]]]}},{"type":"Feature","properties":{"id":"1102702006"},"geometry":{"type":"Polygon","coordinates":[[[-6.28099,36.6119],[-6.27774,36.60899],[-6.27596,36.6082],[-6.27479,36.60752],[-6.27454,36.60724],[-6.27413,36.60639],[-6.27302,36.60561],[-6.27438,36.60399],[-6.27543,36.60311],[-6.27679,36.60224],[-6.27825,36.60161],[-6.27958,36.60323],[-6.28107,36.6047],[-6.28364,36.60661],[-6.28489,36.60771],[-6.28539,36.60865],[-6.28635,36.60979],[-6.28761,36.61104],[-6.28692,36.61202],[-6.2858,36.61409],[-6.28299,36.61252],[-6.28099,36.6119]]]}},{"type":"Feature","properties":{"id":"1102702007"},"geometry":{"type":"Polygon","coordinates":[[[-6.24309,36.59566],[-6.2461,36.59414],[-6.24668,36.59466],[-6.24756,36.59524],[-6.24588,36.59716],[-6.24464,36.59668],[-6.24309,36.59566]]]}},{"type":"Feature","properties":{"id":"1102702008"},"geometry":{"type":"Polygon","coordinates":[[[-6.26753,36.60409],[-6.26784,36.60305],[-6.26823,36.60243],[-6.26863,36.60138],[-6.26874,36.60079],[-6.26872,36.59965],[-6.26662,36.5996],[-6.2637,36.59822],[-6.26556,36.59557],[-6.26622,36.59569],[-6.26643,36.59485],[-6.26669,36.5949],[-6.26651,36.59478],[-6.26658,36.59464],[-6.26734,36.59488],[-6.26984,36.59481],[-6.27134,36.5951],[-6.2715,36.59497],[-6.27184,36.59494],[-6.27165,36.59441],[-6.27173,36.59434],[-6.27331,36.59366],[-6.27415,36.59488],[-6.27622,36.59887],[-6.27692,36.59994],[-6.27825,36.60161],[-6.27679,36.60224],[-6.27543,36.60311],[-6.27438,36.60399],[-6.27302,36.60561],[-6.27175,36.60491],[-6.27048,36.6046],[-6.26922,36.60463],[-6.26753,36.60409]]]}},{"type":"Feature","properties":{"id":"1102702009"},"geometry":{"type":"Polygon","coordinates":[[[-6.2816,36.62589],[-6.27966,36.62447],[-6.27741,36.62226],[-6.27554,36.62084],[-6.27547,36.6203],[-6.27467,36.6198],[-6.27302,36.61822],[-6.27195,36.61746],[-6.26726,36.61513],[-6.25147,36.60756],[-6.25171,36.60643],[-6.25188,36.60608],[-6.25252,36.60536],[-6.25393,36.60598],[-6.25542,36.60618],[-6.25626,36.60645],[-6.25674,36.60683],[-6.25707,36.60693],[-6.25816,36.60691],[-6.25884,36.60711],[-6.2605,36.60863],[-6.26152,36.6093],[-6.2631,36.60657],[-6.26162,36.60604],[-6.25936,36.60456],[-6.25778,36.60404],[-6.25694,36.60354],[-6.25672,36.6031],[-6.25626,36.60269],[-6.25974,36.6027],[-6.26306,36.6029],[-6.2671,36.60396],[-6.26907,36.6046],[-6.27048,36.6046],[-6.27181,36.60493],[-6.27389,36.60617],[-6.27418,36.60646],[-6.27454,36.60724],[-6.27479,36.60752],[-6.27596,36.6082],[-6.27774,36.60899],[-6.28034,36.61134],[-6.28002,36.61151],[-6.27969,36.61227],[-6.27918,36.61281],[-6.27687,36.61478],[-6.27659,36.61519],[-6.27656,36.61562],[-6.27762,36.61733],[-6.28086,36.62197],[-6.2814,36.62224],[-6.28205,36.62241],[-6.28167,36.62414],[-6.282,36.62506],[-6.28308,36.62592],[-6.2816,36.62589]]]}},{"type":"Feature","properties":{"id":"1102702010"},"geometry":{"type":"Polygon","coordinates":[[[-6.24282,36.5989],[-6.2453,36.59778],[-6.24635,36.59669],[-6.24756,36.59524],[-6.24957,36.59589],[-6.2511,36.59657],[-6.25171,36.59673],[-6.25268,36.59732],[-6.25186,36.59859],[-6.25193,36.59862],[-6.25185,36.59877],[-6.25074,36.60038],[-6.24882,36.60001],[-6.2455,36.59958],[-6.24282,36.5989]]]}},{"type":"Feature","properties":{"id":"1102703001"},"geometry":{"type":"Polygon","coordinates":[[[-6.23163,36.60919],[-6.23169,36.60927],[-6.23144,36.61015],[-6.23102,36.61114],[-6.23053,36.61105],[-6.22993,36.61122],[-6.22877,36.60957],[-6.22825,36.60814],[-6.22943,36.60731],[-6.23069,36.608],[-6.23038,36.60887],[-6.23163,36.60919]]]}},{"type":"Feature","properties":{"id":"1102703002"},"geometry":{"type":"Polygon","coordinates":[[[-6.22323,36.60796],[-6.2245,36.60701],[-6.22745,36.60542],[-6.22766,36.60579],[-6.22788,36.60717],[-6.22827,36.6082],[-6.2277,36.60881],[-6.22624,36.60998],[-6.22323,36.60796]]]}},{"type":"Feature","properties":{"id":"1102703003"},"geometry":{"type":"Polygon","coordinates":[[[-6.20704,36.62031],[-6.20661,36.62066],[-6.20327,36.62449],[-6.2003,36.62819],[-6.19941,36.6288],[-6.19805,36.63042],[-6.19751,36.63083],[-6.19568,36.63133],[-6.1952,36.6317],[-6.19491,36.6324],[-6.1966,36.63413],[-6.19679,36.63456],[-6.19677,36.63508],[-6.19634,36.63566],[-6.19571,36.63621],[-6.19079,36.63879],[-6.18892,36.63961],[-6.1856,36.64074],[-6.18341,36.64229],[-6.18213,36.64306],[-6.1785,36.64467],[-6.17767,36.64406],[-6.17758,36.64377],[-6.17564,36.64265],[-6.17472,36.64194],[-6.17271,36.64099],[-6.16516,36.63994],[-6.16104,36.63927],[-6.15987,36.64025],[-6.15771,36.63902],[-6.15582,36.63768],[-6.15414,36.63633],[-6.15331,36.63546],[-6.15194,36.63374],[-6.15115,36.63221],[-6.14918,36.63061],[-6.14896,36.63031],[-6.14839,36.62913],[-6.14837,36.62862],[-6.14847,36.62833],[-6.14834,36.62804],[-6.14691,36.62666],[-6.14676,36.626],[-6.14639,36.62525],[-6.14591,36.62468],[-6.14524,36.62431],[-6.1447,36.62341],[-6.1437,36.62303],[-6.14317,36.62266],[-6.14262,36.62205],[-6.13992,36.61513],[-6.14178,36.61428],[-6.14002,36.6051],[-6.14046,36.60543],[-6.14114,36.60563],[-6.14211,36.60548],[-6.14297,36.60506],[-6.14323,36.6048],[-6.14391,36.60213],[-6.1441,36.60202],[-6.1447,36.60205],[-6.14609,36.60257],[-6.14718,36.60341],[-6.14758,36.60359],[-6.14841,36.60369],[-6.14886,36.6036],[-6.14947,36.60309],[-6.15057,36.60148],[-6.15181,36.60058],[-6.1529,36.60029],[-6.1532,36.60011],[-6.15494,36.60044],[-6.15876,36.60138],[-6.16074,36.60152],[-6.16227,36.60127],[-6.16617,36.60014],[-6.1704,36.5993],[-6.17569,36.59848],[-6.18084,36.59823],[-6.18625,36.59742],[-6.19129,36.59697],[-6.19331,36.59589],[-6.19526,36.59377],[-6.19634,36.59304],[-6.19761,36.59344],[-6.19939,36.59584],[-6.20345,36.5998],[-6.20529,36.60069],[-6.20784,36.60122],[-6.2122,36.60029],[-6.21642,36.59982],[-6.2205,36.60031],[-6.21983,36.60105],[-6.21936,36.60244],[-6.21863,36.6033],[-6.21547,36.60514],[-6.214,36.60619],[-6.21338,36.60693],[-6.21297,36.60786],[-6.21295,36.60823],[-6.21328,36.60913],[-6.21408,36.61001],[-6.2153,36.61081],[-6.2092,36.61771],[-6.20704,36.62031]]]}},{"type":"Feature","properties":{"id":"1102703004"},"geometry":{"type":"Polygon","coordinates":[[[-6.24789,36.62214],[-6.24948,36.62471],[-6.25241,36.63045],[-6.25473,36.63453],[-6.25719,36.63824],[-6.2623,36.64543],[-6.26405,36.64705],[-6.27317,36.66114],[-6.27569,36.66481],[-6.28116,36.67344],[-6.2902,36.68597],[-6.29529,36.69319],[-6.30802,36.70874],[-6.3094,36.71014],[-6.31234,36.71261],[-6.31405,36.71428],[-6.31422,36.71433],[-6.31281,36.71479],[-6.3112,36.71557],[-6.30913,36.71622],[-6.30809,36.71677],[-6.30559,36.71786],[-6.30368,36.71892],[-6.30177,36.71754],[-6.30125,36.71725],[-6.30078,36.71711],[-6.29804,36.71665],[-6.2945,36.71573],[-6.292,36.71498],[-6.29116,36.71484],[-6.28935,36.71472],[-6.28697,36.71421],[-6.2841,36.71385],[-6.28244,36.71344],[-6.28159,36.71273],[-6.2805,36.71133],[-6.27897,36.7101],[-6.27833,36.70976],[-6.27705,36.70927],[-6.27309,36.70813],[-6.27186,36.70786],[-6.27075,36.70774],[-6.26318,36.70731],[-6.26146,36.70699],[-6.26028,36.70697],[-6.25922,36.70706],[-6.2585,36.70689],[-6.25727,36.70638],[-6.25578,36.7061],[-6.25443,36.70472],[-6.25383,36.70396],[-6.25067,36.70255],[-6.25007,36.70218],[-6.24782,36.7003],[-6.24754,36.69959],[-6.24714,36.69925],[-6.23966,36.69371],[-6.23948,36.69348],[-6.23957,36.69291],[-6.23946,36.69094],[-6.23975,36.68917],[-6.23952,36.68718],[-6.23958,36.6848],[-6.23943,36.68439],[-6.23914,36.68405],[-6.23797,36.6836],[-6.23743,36.68321],[-6.23655,36.68179],[-6.23508,36.68035],[-6.23407,36.67968],[-6.23364,36.67875],[-6.23316,36.67808],[-6.22967,36.67423],[-6.22897,36.67361],[-6.2322,36.67276],[-6.23239,36.67192],[-6.23257,36.67157],[-6.23256,36.67128],[-6.23329,36.66929],[-6.23388,36.66722],[-6.2346,36.66164],[-6.23475,36.66114],[-6.23633,36.65809],[-6.23643,36.65635],[-6.23612,36.65507],[-6.23527,36.65281],[-6.23514,36.651],[-6.23491,36.6497],[-6.23438,36.64831],[-6.23321,36.64588],[-6.23243,36.64459],[-6.23202,36.64345],[-6.23087,36.64151],[-6.23048,36.641],[-6.22823,36.63887],[-6.22802,36.63854],[-6.22739,36.63675],[-6.22737,36.63641],[-6.22988,36.63591],[-6.23094,36.63584],[-6.23201,36.63601],[-6.2335,36.63672],[-6.23501,36.63787],[-6.23564,36.63885],[-6.23847,36.63959],[-6.23884,36.63971],[-6.23908,36.63991],[-6.23997,36.64248],[-6.24027,36.64225],[-6.24103,36.64094],[-6.24097,36.6407],[-6.2413,36.6396],[-6.24133,36.63914],[-6.24131,36.6388],[-6.24031,36.63734],[-6.24,36.63661],[-6.24006,36.63588],[-6.24016,36.63565],[-6.24054,36.63537],[-6.23991,36.63439],[-6.23992,36.63385],[-6.24015,36.63307],[-6.24023,36.63236],[-6.24081,36.63152],[-6.24088,36.63126],[-6.2414,36.63085],[-6.24163,36.63032],[-6.24148,36.62976],[-6.24094,36.62871],[-6.24037,36.6283],[-6.24041,36.62794],[-6.24095,36.62647],[-6.24481,36.6243],[-6.24458,36.62402],[-6.24789,36.62214]]]}},{"type":"Feature","properties":{"id":"1102703005"},"geometry":{"type":"Polygon","coordinates":[[[-6.2305,36.61238],[-6.22993,36.61122],[-6.23053,36.61105],[-6.23144,36.61126],[-6.23158,36.611],[-6.23311,36.61142],[-6.23241,36.61291],[-6.2305,36.61238]]]}},{"type":"Feature","properties":{"id":"1102703006"},"geometry":{"type":"Polygon","coordinates":[[[-6.19941,36.6288],[-6.2003,36.62819],[-6.20327,36.62449],[-6.20661,36.62066],[-6.20704,36.62031],[-6.20896,36.62115],[-6.21022,36.62146],[-6.21015,36.62431],[-6.20965,36.62639],[-6.20956,36.62861],[-6.20987,36.62902],[-6.20984,36.62943],[-6.21142,36.62952],[-6.21136,36.63095],[-6.21155,36.63111],[-6.20008,36.63016],[-6.19981,36.6301],[-6.19942,36.62979],[-6.19934,36.62927],[-6.19941,36.6288]]]}},{"type":"Feature","properties":{"id":"1102703007"},"geometry":{"type":"Polygon","coordinates":[[[-6.24593,36.60673],[-6.24854,36.60683],[-6.25003,36.60705],[-6.25206,36.60779],[-6.25331,36.6085],[-6.25906,36.61118],[-6.27195,36.61746],[-6.27302,36.61822],[-6.27467,36.6198],[-6.27547,36.6203],[-6.27554,36.62084],[-6.27741,36.62226],[-6.27966,36.62447],[-6.28162,36.6259],[-6.28005,36.62593],[-6.27736,36.62612],[-6.27706,36.62657],[-6.27611,36.62681],[-6.27477,36.6268],[-6.27369,36.62641],[-6.26957,36.62544],[-6.26824,36.62478],[-6.26733,36.62447],[-6.26566,36.62425],[-6.26465,36.62373],[-6.26412,36.62322],[-6.26202,36.62236],[-6.26262,36.62159],[-6.26128,36.62041],[-6.26002,36.61951],[-6.255,36.61616],[-6.25362,36.61556],[-6.25157,36.61442],[-6.25021,36.61363],[-6.24715,36.61156],[-6.24592,36.6109],[-6.24485,36.61013],[-6.24305,36.60931],[-6.24418,36.60766],[-6.24505,36.60707],[-6.24593,36.60673]]]}},{"type":"Feature","properties":{"id":"1102703008"},"geometry":{"type":"Polygon","coordinates":[[[-6.21304,36.61341],[-6.2153,36.61081],[-6.21592,36.61113],[-6.21639,36.61126],[-6.21762,36.61135],[-6.21834,36.61122],[-6.2182,36.61278],[-6.21799,36.6138],[-6.21758,36.61496],[-6.21655,36.61482],[-6.21427,36.61402],[-6.21304,36.61341]]]}},{"type":"Feature","properties":{"id":"1102703009"},"geometry":{"type":"Polygon","coordinates":[[[-6.21155,36.63111],[-6.21136,36.63095],[-6.21142,36.62952],[-6.20984,36.62943],[-6.20987,36.62902],[-6.20956,36.62861],[-6.20965,36.62639],[-6.21015,36.62431],[-6.21022,36.62146],[-6.21239,36.62214],[-6.21441,36.62254],[-6.21532,36.62282],[-6.21511,36.623],[-6.21345,36.62622],[-6.21278,36.62995],[-6.2127,36.63091],[-6.2124,36.63119],[-6.21155,36.63111]]]}},{"type":"Feature","properties":{"id":"1102703010"},"geometry":{"type":"Polygon","coordinates":[[[-6.21529,36.6228],[-6.21533,36.6224],[-6.2159,36.62058],[-6.21669,36.61866],[-6.21697,36.61769],[-6.21722,36.61608],[-6.21799,36.6138],[-6.2182,36.61278],[-6.21834,36.61122],[-6.21924,36.61086],[-6.22323,36.60796],[-6.22624,36.60998],[-6.2277,36.60881],[-6.22827,36.6082],[-6.2286,36.60926],[-6.22991,36.61118],[-6.2305,36.61238],[-6.23048,36.61261],[-6.23091,36.61349],[-6.23112,36.6143],[-6.23117,36.61656],[-6.23188,36.61734],[-6.23196,36.61731],[-6.23219,36.61782],[-6.2322,36.61842],[-6.23151,36.61945],[-6.23004,36.62242],[-6.22851,36.6246],[-6.22785,36.62528],[-6.22739,36.62555],[-6.22723,36.62784],[-6.22543,36.62734],[-6.2242,36.62724],[-6.22321,36.62703],[-6.22008,36.62588],[-6.2195,36.62557],[-6.21804,36.62432],[-6.21529,36.6228]]]}},{"type":"Feature","properties":{"id":"1102703011"},"geometry":{"type":"Polygon","coordinates":[[[-6.23169,36.60927],[-6.23144,36.6088],[-6.23264,36.60795],[-6.23267,36.60739],[-6.23276,36.60732],[-6.2329,36.60739],[-6.23312,36.60737],[-6.23299,36.60738],[-6.2348,36.60634],[-6.23434,36.60557],[-6.23534,36.6069],[-6.23972,36.61136],[-6.23804,36.61259],[-6.23539,36.61597],[-6.23424,36.61667],[-6.23188,36.61734],[-6.23117,36.61656],[-6.23112,36.6143],[-6.23091,36.61349],[-6.23048,36.61261],[-6.2305,36.61238],[-6.23241,36.61291],[-6.23311,36.61142],[-6.23158,36.611],[-6.23144,36.61126],[-6.23102,36.61113],[-6.23144,36.61015],[-6.23169,36.60927]]]}},{"type":"Feature","properties":{"id":"1102703012"},"geometry":{"type":"Polygon","coordinates":[[[-6.23196,36.61731],[-6.23424,36.61667],[-6.23539,36.61597],[-6.23804,36.61259],[-6.23972,36.61136],[-6.24449,36.61592],[-6.24537,36.61696],[-6.24635,36.61832],[-6.24789,36.62214],[-6.24458,36.62402],[-6.24481,36.6243],[-6.24095,36.62647],[-6.24041,36.62794],[-6.24037,36.6283],[-6.24094,36.62871],[-6.24148,36.62976],[-6.24163,36.63032],[-6.2414,36.63085],[-6.24088,36.63126],[-6.24081,36.63152],[-6.24023,36.63236],[-6.24015,36.63307],[-6.23992,36.63385],[-6.23991,36.63439],[-6.24054,36.63537],[-6.24016,36.63565],[-6.24006,36.63588],[-6.24,36.63661],[-6.24031,36.63734],[-6.24131,36.6388],[-6.24133,36.63914],[-6.2413,36.6396],[-6.24097,36.6407],[-6.24103,36.64094],[-6.24027,36.64225],[-6.23997,36.64248],[-6.23908,36.63991],[-6.23884,36.63971],[-6.23847,36.63959],[-6.23564,36.63885],[-6.23501,36.63787],[-6.2335,36.63672],[-6.23201,36.63601],[-6.23094,36.63584],[-6.22988,36.63591],[-6.22737,36.63641],[-6.22739,36.63675],[-6.22802,36.63854],[-6.22823,36.63887],[-6.23048,36.641],[-6.23087,36.64151],[-6.23202,36.64345],[-6.23243,36.64459],[-6.23321,36.64588],[-6.23478,36.64923],[-6.23514,36.651],[-6.23527,36.65281],[-6.23612,36.65507],[-6.23643,36.65635],[-6.23643,36.65716],[-6.23633,36.65809],[-6.23475,36.66114],[-6.2346,36.66164],[-6.23388,36.66722],[-6.23329,36.66929],[-6.23256,36.67128],[-6.23257,36.67157],[-6.23239,36.67192],[-6.2322,36.67276],[-6.22779,36.6739],[-6.22771,36.67384],[-6.22748,36.6739],[-6.22491,36.67192],[-6.22086,36.66965],[-6.21839,36.66875],[-6.21775,36.6684],[-6.21417,36.66692],[-6.2141,36.66676],[-6.21091,36.66517],[-6.20992,36.6646],[-6.20958,36.66488],[-6.20867,36.66437],[-6.20794,36.66385],[-6.20774,36.66314],[-6.20671,36.66244],[-6.20585,36.66199],[-6.20684,36.66113],[-6.20628,36.66048],[-6.20528,36.66092],[-6.205,36.66055],[-6.20417,36.661],[-6.20218,36.65941],[-6.20442,36.65762],[-6.20247,36.65658],[-6.19954,36.65645],[-6.19918,36.65621],[-6.19854,36.65715],[-6.19831,36.65704],[-6.19824,36.65715],[-6.1971,36.65659],[-6.19603,36.65673],[-6.19661,36.65572],[-6.19531,36.6562],[-6.19436,36.65676],[-6.19093,36.65454],[-6.19,36.65411],[-6.19097,36.65246],[-6.18996,36.65174],[-6.18832,36.65085],[-6.18801,36.65111],[-6.18772,36.65161],[-6.18465,36.65084],[-6.18536,36.64968],[-6.1859,36.64853],[-6.18406,36.64774],[-6.17969,36.64544],[-6.17871,36.64458],[-6.18213,36.64306],[-6.18341,36.64229],[-6.1856,36.64074],[-6.18892,36.63961],[-6.19079,36.63879],[-6.19571,36.63621],[-6.19634,36.63566],[-6.19677,36.63508],[-6.19679,36.63456],[-6.1966,36.63413],[-6.19491,36.6324],[-6.1952,36.6317],[-6.19568,36.63133],[-6.19751,36.63083],[-6.19805,36.63042],[-6.19941,36.6288],[-6.19934,36.62927],[-6.19942,36.62979],[-6.19981,36.6301],[-6.20008,36.63016],[-6.2124,36.63119],[-6.2127,36.63091],[-6.21278,36.62995],[-6.21345,36.62622],[-6.21511,36.623],[-6.21532,36.62282],[-6.21804,36.62432],[-6.2195,36.62557],[-6.22008,36.62588],[-6.22321,36.62703],[-6.2242,36.62724],[-6.22543,36.62734],[-6.22723,36.62784],[-6.22739,36.62555],[-6.22785,36.62528],[-6.22851,36.6246],[-6.23015,36.62225],[-6.23151,36.61945],[-6.2322,36.61842],[-6.23219,36.61782],[-6.23196,36.61731]]]}},{"type":"Feature","properties":{"id":"1102703013"},"geometry":{"type":"Polygon","coordinates":[[[-6.21758,36.61496],[-6.21722,36.61608],[-6.21697,36.61769],[-6.21669,36.61866],[-6.2159,36.62058],[-6.21533,36.6224],[-6.21529,36.6228],[-6.21441,36.62254],[-6.21239,36.62214],[-6.2113,36.62176],[-6.20896,36.62115],[-6.20701,36.62028],[-6.21304,36.61341],[-6.21427,36.61402],[-6.21655,36.61482],[-6.21758,36.61496]]]}},{"type":"Feature","properties":{"id":"1102703014"},"geometry":{"type":"Polygon","coordinates":[[[-6.24789,36.62214],[-6.24635,36.61832],[-6.24537,36.61696],[-6.24449,36.61592],[-6.241,36.61266],[-6.23534,36.6069],[-6.2329,36.6037],[-6.23249,36.60336],[-6.23354,36.60314],[-6.23437,36.60317],[-6.23488,36.60328],[-6.23526,36.60341],[-6.23742,36.60465],[-6.24099,36.60602],[-6.24273,36.60638],[-6.24354,36.60664],[-6.24453,36.60678],[-6.24593,36.60673],[-6.24505,36.60707],[-6.24418,36.60766],[-6.24305,36.60931],[-6.24485,36.61013],[-6.24592,36.6109],[-6.24715,36.61156],[-6.25021,36.61363],[-6.25157,36.61442],[-6.25362,36.61556],[-6.255,36.61616],[-6.26128,36.62041],[-6.26262,36.62159],[-6.26202,36.62236],[-6.26412,36.62322],[-6.26465,36.62373],[-6.26566,36.62425],[-6.26733,36.62447],[-6.26824,36.62478],[-6.26957,36.62544],[-6.27369,36.62641],[-6.27477,36.6268],[-6.27611,36.62681],[-6.27706,36.62657],[-6.27736,36.62612],[-6.2816,36.62589],[-6.28308,36.62592],[-6.28424,36.6263],[-6.2848,36.62667],[-6.28517,36.62673],[-6.28557,36.62667],[-6.28781,36.62681],[-6.28923,36.62738],[-6.29042,36.62756],[-6.29133,36.62801],[-6.2957,36.62849],[-6.29718,36.62941],[-6.29815,36.62958],[-6.29926,36.63007],[-6.29972,36.6301],[-6.30374,36.63158],[-6.30484,36.6338],[-6.30627,36.6362],[-6.30641,36.63679],[-6.30626,36.6372],[-6.30342,36.64118],[-6.30181,36.64335],[-6.30107,36.64408],[-6.30086,36.64464],[-6.30052,36.64833],[-6.30031,36.64872],[-6.29988,36.6492],[-6.29793,36.65063],[-6.29668,36.65122],[-6.29621,36.65178],[-6.29618,36.65245],[-6.2966,36.6532],[-6.2969,36.65351],[-6.29825,36.6545],[-6.29916,36.65531],[-6.30014,36.6566],[-6.30129,36.65768],[-6.30204,36.65818],[-6.30313,36.65871],[-6.30359,36.65883],[-6.3053,36.65894],[-6.30585,36.65909],[-6.30666,36.65947],[-6.30721,36.65956],[-6.30788,36.65998],[-6.30898,36.66011],[-6.31005,36.66057],[-6.31069,36.66063],[-6.3108,36.66136],[-6.31143,36.66174],[-6.31148,36.66187],[-6.31115,36.6626],[-6.31128,36.66344],[-6.31145,36.6638],[-6.31181,36.66424],[-6.31325,36.66509],[-6.31372,36.66555],[-6.31343,36.66602],[-6.31331,36.66659],[-6.31363,36.66676],[-6.31336,36.66758],[-6.31279,36.66836],[-6.31207,36.6685],[-6.31026,36.6685],[-6.30804,36.66814],[-6.30781,36.66822],[-6.30763,36.66842],[-6.30738,36.67108],[-6.30743,36.67159],[-6.3078,36.67338],[-6.30812,36.67401],[-6.3084,36.67491],[-6.30845,36.67696],[-6.30862,36.67814],[-6.30886,36.67858],[-6.311,36.68148],[-6.3119,36.68237],[-6.3132,36.6834],[-6.31505,36.68512],[-6.31432,36.6938],[-6.31434,36.69448],[-6.31479,36.69547],[-6.31581,36.69682],[-6.31814,36.69918],[-6.32142,36.70159],[-6.32332,36.70279],[-6.32308,36.70315],[-6.32189,36.704],[-6.3204,36.70591],[-6.31852,36.70865],[-6.31711,36.70988],[-6.31553,36.71151],[-6.31642,36.71293],[-6.31602,36.71332],[-6.31466,36.71418],[-6.31422,36.71433],[-6.31405,36.71428],[-6.31234,36.71261],[-6.3094,36.71014],[-6.30802,36.70874],[-6.29529,36.69319],[-6.2902,36.68597],[-6.28116,36.67344],[-6.27569,36.66481],[-6.27317,36.66114],[-6.26405,36.64705],[-6.2623,36.64543],[-6.25719,36.63824],[-6.25473,36.63453],[-6.25241,36.63045],[-6.24948,36.62471],[-6.24789,36.62214]]]}},{"type":"Feature","properties":{"id":"1102703015"},"geometry":{"type":"Polygon","coordinates":[[[-6.23434,36.60557],[-6.2348,36.60634],[-6.23299,36.60738],[-6.23312,36.60737],[-6.2329,36.60739],[-6.23276,36.60732],[-6.23267,36.60739],[-6.23264,36.60795],[-6.23144,36.6088],[-6.23163,36.60919],[-6.23038,36.60887],[-6.23069,36.608],[-6.22943,36.60731],[-6.22825,36.60814],[-6.22788,36.60717],[-6.22766,36.60579],[-6.22745,36.60542],[-6.22974,36.60439],[-6.23249,36.60336],[-6.2329,36.6037],[-6.23434,36.60557]]]}},{"type":"Feature","properties":{"id":"1102704001"},"geometry":{"type":"Polygon","coordinates":[[[-6.20873,36.57636],[-6.2095,36.57636],[-6.21037,36.57664],[-6.21385,36.57902],[-6.21498,36.58052],[-6.21796,36.58404],[-6.22153,36.58203],[-6.22558,36.57807],[-6.22729,36.57674],[-6.22946,36.57898],[-6.23019,36.58033],[-6.23086,36.58115],[-6.23142,36.58155],[-6.2391,36.5741],[-6.23931,36.57423],[-6.23567,36.57774],[-6.2378,36.5792],[-6.23843,36.5792],[-6.24007,36.5777],[-6.24019,36.57777],[-6.23282,36.58491],[-6.23314,36.58506],[-6.23424,36.58505],[-6.23239,36.58686],[-6.23229,36.58679],[-6.22672,36.59232],[-6.2232,36.59712],[-6.222,36.59865],[-6.2205,36.60031],[-6.21642,36.59982],[-6.2122,36.60029],[-6.20784,36.60122],[-6.20529,36.60069],[-6.20345,36.5998],[-6.19939,36.59584],[-6.19761,36.59344],[-6.19634,36.59304],[-6.19526,36.59377],[-6.19331,36.59589],[-6.19129,36.59697],[-6.18625,36.59742],[-6.18084,36.59823],[-6.17569,36.59848],[-6.1704,36.5993],[-6.16617,36.60014],[-6.16227,36.60127],[-6.16074,36.60152],[-6.15876,36.60138],[-6.15494,36.60044],[-6.1532,36.60011],[-6.15334,36.59997],[-6.15294,36.59892],[-6.15303,36.59846],[-6.15365,36.59799],[-6.15682,36.59634],[-6.15727,36.59588],[-6.15736,36.59507],[-6.1568,36.59407],[-6.15643,36.59258],[-6.156,36.59183],[-6.1538,36.5899],[-6.1524,36.58908],[-6.15123,36.58815],[-6.15099,36.58784],[-6.15085,36.58724],[-6.15092,36.58692],[-6.15127,36.58635],[-6.15244,36.58495],[-6.15234,36.5842],[-6.15109,36.58296],[-6.15085,36.58226],[-6.15085,36.58097],[-6.15106,36.57986],[-6.15125,36.5792],[-6.15153,36.57867],[-6.15178,36.5784],[-6.15211,36.57825],[-6.15292,36.57818],[-6.15327,36.57823],[-6.15387,36.57844],[-6.15422,36.57875],[-6.15472,36.57947],[-6.15514,36.58062],[-6.15539,36.58083],[-6.15594,36.58106],[-6.15643,36.58113],[-6.15802,36.58077],[-6.15873,36.58041],[-6.15969,36.5797],[-6.16287,36.57649],[-6.16463,36.57373],[-6.16655,36.57159],[-6.16777,36.57066],[-6.16853,36.57046],[-6.17048,36.57023],[-6.17114,36.57002],[-6.17168,36.56952],[-6.1718,36.56913],[-6.17167,36.56846],[-6.17118,36.56779],[-6.17012,36.56711],[-6.16897,36.56666],[-6.16766,36.5664],[-6.16609,36.56632],[-6.1647,36.56657],[-6.1634,36.567],[-6.16232,36.56716],[-6.16198,36.56714],[-6.16141,36.56693],[-6.16118,36.56672],[-6.16099,36.56642],[-6.16068,36.56534],[-6.16065,36.56434],[-6.16098,36.56316],[-6.16126,36.56259],[-6.16242,36.56133],[-6.16441,36.56025],[-6.16615,36.55964],[-6.16799,36.55937],[-6.16879,36.55938],[-6.17073,36.55973],[-6.17556,36.56103],[-6.17857,36.56227],[-6.17933,36.56269],[-6.18009,36.56352],[-6.18028,36.56416],[-6.17975,36.56625],[-6.17846,36.56936],[-6.17856,36.57017],[-6.17898,36.57066],[-6.17935,36.57074],[-6.18082,36.57045],[-6.18225,36.56977],[-6.18503,36.56796],[-6.18751,36.56684],[-6.1877,36.56667],[-6.18879,36.5663],[-6.19209,36.56558],[-6.19381,36.56509],[-6.19689,36.56375],[-6.19763,36.5636],[-6.19821,36.56358],[-6.19872,36.56381],[-6.19895,36.564],[-6.19934,36.56468],[-6.19878,36.56573],[-6.1975,36.56685],[-6.1946,36.56901],[-6.19249,36.57102],[-6.19042,36.57397],[-6.18905,36.57558],[-6.18807,36.57721],[-6.18799,36.57778],[-6.18824,36.57836],[-6.18908,36.57893],[-6.19333,36.58063],[-6.19435,36.58096],[-6.19532,36.58116],[-6.19646,36.58123],[-6.19702,36.58122],[-6.19846,36.5809],[-6.20054,36.58025],[-6.20344,36.5792],[-6.20803,36.57697],[-6.20873,36.57636]]]}},{"type":"Feature","properties":{"id":"1102704002"},"geometry":{"type":"Polygon","coordinates":[[[-6.20873,36.57636],[-6.21227,36.57304],[-6.21249,36.57267],[-6.21261,36.57218],[-6.21259,36.57181],[-6.21217,36.57099],[-6.21151,36.57036],[-6.211,36.56968],[-6.20977,36.56728],[-6.20882,36.56609],[-6.20763,36.5638],[-6.20668,36.56149],[-6.20622,36.55826],[-6.20648,36.55484],[-6.20665,36.55337],[-6.20766,36.54781],[-6.20859,36.54537],[-6.21353,36.5353],[-6.2142,36.53406],[-6.21651,36.53068],[-6.2174,36.52986],[-6.21949,36.52844],[-6.22115,36.52776],[-6.22463,36.52744],[-6.22763,36.52754],[-6.22959,36.52783],[-6.23283,36.52871],[-6.23345,36.52896],[-6.2335,36.52928],[-6.23361,36.53213],[-6.23341,36.53371],[-6.23304,36.5348],[-6.23257,36.53573],[-6.23141,36.53771],[-6.22953,36.54136],[-6.22601,36.55113],[-6.22573,36.55227],[-6.22469,36.55805],[-6.2238,36.56203],[-6.22421,36.56803],[-6.22055,36.56852],[-6.22008,36.56868],[-6.21928,36.56933],[-6.21743,36.5714],[-6.21802,36.57293],[-6.21837,36.57472],[-6.21947,36.57451],[-6.22171,36.58063],[-6.22246,36.58113],[-6.22153,36.58203],[-6.21796,36.58404],[-6.21498,36.58052],[-6.21385,36.57902],[-6.21037,36.57664],[-6.2095,36.57636],[-6.20873,36.57636]]]}},{"type":"Feature","properties":{"id":"1102704003"},"geometry":{"type":"Polygon","coordinates":[[[-6.21955,36.57486],[-6.22217,36.5743],[-6.2229,36.57661],[-6.22659,36.57576],[-6.22729,36.57674],[-6.22558,36.57807],[-6.22246,36.58113],[-6.22171,36.58063],[-6.21955,36.57486]]]}},{"type":"Feature","properties":{"id":"1102704004"},"geometry":{"type":"Polygon","coordinates":[[[-6.21955,36.57486],[-6.21947,36.57451],[-6.21837,36.57472],[-6.21802,36.57293],[-6.21743,36.5714],[-6.21928,36.56933],[-6.22008,36.56868],[-6.22055,36.56852],[-6.22421,36.56803],[-6.22453,36.5703],[-6.22494,36.57188],[-6.22579,36.57426],[-6.22659,36.57576],[-6.2229,36.57661],[-6.22217,36.5743],[-6.21955,36.57486]]]}}]}