{"type":"FeatureCollection","features":[{"type":"Feature","properties":{"id":"1103401001"},"geometry":{"type":"Polygon","coordinates":[[[-5.2257,36.89254],[-5.22555,36.89241],[-5.22529,36.89154],[-5.2246,36.89079],[-5.22399,36.89099],[-5.22288,36.89181],[-5.21992,36.8916],[-5.21878,36.89162],[-5.21771,36.89061],[-5.21759,36.8897],[-5.21766,36.88878],[-5.21731,36.88845],[-5.21641,36.8885],[-5.21525,36.88917],[-5.21495,36.88887],[-5.21408,36.88843],[-5.21334,36.88715],[-5.2129,36.88696],[-5.2109,36.88841],[-5.20449,36.88849],[-5.20373,36.88839],[-5.19579,36.88469],[-5.19583,36.88305],[-5.19438,36.882],[-5.19555,36.88145],[-5.19344,36.88061],[-5.19327,36.87962],[-5.19486,36.87906],[-5.1925,36.87765],[-5.19365,36.87656],[-5.19108,36.87447],[-5.19196,36.87213],[-5.18934,36.87187],[-5.18801,36.87186],[-5.187,36.87127],[-5.18729,36.87012],[-5.1884,36.86895],[-5.18943,36.86828],[-5.18947,36.86805],[-5.18803,36.86751],[-5.18759,36.86713],[-5.18658,36.86677],[-5.18604,36.86672],[-5.18392,36.8673],[-5.18353,36.867],[-5.18353,36.8666],[-5.18398,36.86638],[-5.18427,36.86571],[-5.18408,36.86392],[-5.18304,36.86405],[-5.18135,36.86488],[-5.18093,36.86489],[-5.18061,36.86536],[-5.18025,36.86546],[-5.17983,36.86524],[-5.17978,36.86394],[-5.17953,36.86344],[-5.17969,36.86317],[-5.17993,36.86311],[-5.18081,36.86328],[-5.1809,36.8626],[-5.17994,36.86222],[-5.17843,36.86214],[-5.17756,36.86135],[-5.17617,36.8604],[-5.17606,36.86015],[-5.17633,36.86006],[-5.17717,36.86017],[-5.17905,36.86073],[-5.18106,36.86054],[-5.18143,36.86042],[-5.18148,36.86005],[-5.18131,36.85975],[-5.18177,36.85879],[-5.18149,36.85846],[-5.18158,36.85829],[-5.18186,36.85813],[-5.18212,36.85731],[-5.18234,36.85711],[-5.18359,36.85667],[-5.18427,36.85603],[-5.18469,36.85609],[-5.18463,36.85662],[-5.18486,36.85701],[-5.18574,36.85713],[-5.18665,36.85678],[-5.18769,36.85622],[-5.18848,36.85596],[-5.18893,36.85548],[-5.1896,36.85572],[-5.19006,36.85573],[-5.1905,36.85535],[-5.19079,36.85494],[-5.19099,36.85414],[-5.19119,36.85389],[-5.19203,36.85387],[-5.19246,36.85349],[-5.19264,36.85318],[-5.1937,36.85284],[-5.19393,36.85247],[-5.19386,36.85185],[-5.19408,36.85159],[-5.19407,36.85075],[-5.19465,36.85024],[-5.19521,36.84998],[-5.19532,36.84969],[-5.19524,36.8487],[-5.1969,36.84684],[-5.19597,36.84579],[-5.19644,36.8449],[-5.19676,36.84463],[-5.19723,36.84441],[-5.19799,36.84419],[-5.19921,36.8422],[-5.19962,36.84143],[-5.19968,36.84109],[-5.20098,36.8403],[-5.20075,36.83973],[-5.20091,36.8395],[-5.2015,36.83914],[-5.20193,36.83846],[-5.20635,36.83922],[-5.20974,36.83956],[-5.21162,36.84007],[-5.21405,36.84024],[-5.21556,36.84054],[-5.21658,36.84113],[-5.21802,36.84139],[-5.22086,36.84219],[-5.22201,36.84272],[-5.22134,36.84443],[-5.22122,36.84517],[-5.22148,36.84586],[-5.22178,36.84622],[-5.22216,36.84696],[-5.22222,36.84727],[-5.22206,36.84812],[-5.22212,36.85021],[-5.22321,36.85105],[-5.22361,36.8516],[-5.22354,36.85232],[-5.22393,36.85266],[-5.22497,36.85445],[-5.225,36.85591],[-5.22537,36.85657],[-5.22563,36.85678],[-5.22713,36.85744],[-5.22817,36.85856],[-5.22953,36.859],[-5.22982,36.85922],[-5.23039,36.86023],[-5.23109,36.86117],[-5.23186,36.86111],[-5.23243,36.86118],[-5.23429,36.8617],[-5.23541,36.8618],[-5.23658,36.86211],[-5.23974,36.86198],[-5.24046,36.86211],[-5.2413,36.86195],[-5.24234,36.86239],[-5.24346,36.86252],[-5.24402,36.86277],[-5.2445,36.86315],[-5.245,36.86377],[-5.24541,36.8647],[-5.24702,36.86546],[-5.24924,36.86623],[-5.2498,36.86569],[-5.25105,36.86636],[-5.25796,36.87055],[-5.2663,36.87533],[-5.2667,36.87573],[-5.26978,36.88421],[-5.26791,36.88425],[-5.26554,36.8847],[-5.25909,36.88719],[-5.24883,36.89147],[-5.24739,36.89193],[-5.24529,36.89218],[-5.24251,36.89282],[-5.24154,36.89284],[-5.2385,36.89253],[-5.2346,36.89244],[-5.23139,36.89285],[-5.22817,36.89292],[-5.22695,36.89279],[-5.2257,36.89254]]]}},{"type":"Feature","properties":{"id":"1103401002"},"geometry":{"type":"Polygon","coordinates":[[[-5.20193,36.83846],[-5.2015,36.83914],[-5.20091,36.8395],[-5.20075,36.83973],[-5.20098,36.8403],[-5.19968,36.84109],[-5.19962,36.84143],[-5.19921,36.8422],[-5.19799,36.84419],[-5.19723,36.84441],[-5.19676,36.84463],[-5.19644,36.8449],[-5.19597,36.84579],[-5.1969,36.84684],[-5.19524,36.8487],[-5.19532,36.84969],[-5.19521,36.84998],[-5.19465,36.85024],[-5.19407,36.85075],[-5.19408,36.85159],[-5.19386,36.85185],[-5.19393,36.85247],[-5.1937,36.85284],[-5.19264,36.85318],[-5.19246,36.85349],[-5.19203,36.85387],[-5.19119,36.85389],[-5.19099,36.85414],[-5.19079,36.85494],[-5.1905,36.85535],[-5.19006,36.85573],[-5.1896,36.85572],[-5.18893,36.85548],[-5.18848,36.85596],[-5.18769,36.85622],[-5.18665,36.85678],[-5.18574,36.85713],[-5.18486,36.85701],[-5.18463,36.85662],[-5.18469,36.85609],[-5.18427,36.85603],[-5.18359,36.85667],[-5.18234,36.85711],[-5.18212,36.85731],[-5.18186,36.85813],[-5.18158,36.85829],[-5.18149,36.85846],[-5.18177,36.85879],[-5.18131,36.85975],[-5.18148,36.86005],[-5.18143,36.86042],[-5.18106,36.86054],[-5.17905,36.86073],[-5.17717,36.86017],[-5.17633,36.86006],[-5.17606,36.86015],[-5.17617,36.8604],[-5.17756,36.86135],[-5.17843,36.86214],[-5.17994,36.86222],[-5.1809,36.8626],[-5.18081,36.86328],[-5.17993,36.86311],[-5.17969,36.86317],[-5.17953,36.86344],[-5.17978,36.86394],[-5.17983,36.86524],[-5.18025,36.86546],[-5.18061,36.86536],[-5.18093,36.86489],[-5.18135,36.86488],[-5.18304,36.86405],[-5.18408,36.86392],[-5.18427,36.86571],[-5.18398,36.86638],[-5.18353,36.8666],[-5.18353,36.867],[-5.18392,36.8673],[-5.18604,36.86672],[-5.18658,36.86677],[-5.18759,36.86713],[-5.18803,36.86751],[-5.18947,36.86805],[-5.18943,36.86828],[-5.1884,36.86895],[-5.18729,36.87012],[-5.187,36.87127],[-5.18801,36.87186],[-5.18934,36.87187],[-5.19196,36.87213],[-5.19108,36.87447],[-5.19365,36.87656],[-5.1925,36.87765],[-5.19486,36.87906],[-5.19327,36.87962],[-5.19344,36.88061],[-5.19555,36.88145],[-5.19438,36.882],[-5.19583,36.88305],[-5.19579,36.88469],[-5.20373,36.88839],[-5.20449,36.88849],[-5.2109,36.88841],[-5.2129,36.88696],[-5.21334,36.88715],[-5.21408,36.88843],[-5.21495,36.88887],[-5.21525,36.88917],[-5.21641,36.8885],[-5.21731,36.88845],[-5.21766,36.88878],[-5.21759,36.8897],[-5.21771,36.89061],[-5.21878,36.89162],[-5.21992,36.8916],[-5.22288,36.89181],[-5.22399,36.89099],[-5.2246,36.89079],[-5.22529,36.89154],[-5.22555,36.89241],[-5.2257,36.89254],[-5.22477,36.89247],[-5.22422,36.89257],[-5.22335,36.89328],[-5.22252,36.89353],[-5.22054,36.89391],[-5.21981,36.89415],[-5.21887,36.89454],[-5.2161,36.89604],[-5.21562,36.89639],[-5.21423,36.89815],[-5.21341,36.89936],[-5.21117,36.90177],[-5.21007,36.90358],[-5.20887,36.9067],[-5.20789,36.90994],[-5.20675,36.91307],[-5.20582,36.91432],[-5.20507,36.91564],[-5.20512,36.91594],[-5.20552,36.91676],[-5.20491,36.91786],[-5.2048,36.91855],[-5.20409,36.91997],[-5.20522,36.92038],[-5.20537,36.9205],[-5.20539,36.92085],[-5.2046,36.92401],[-5.20413,36.92511],[-5.20365,36.9259],[-5.20286,36.92673],[-5.20127,36.92798],[-5.20063,36.92841],[-5.19905,36.92549],[-5.19815,36.92268],[-5.19664,36.92],[-5.19649,36.91924],[-5.19686,36.91528],[-5.19673,36.9123],[-5.19623,36.90785],[-5.19676,36.90632],[-5.19657,36.90401],[-5.19667,36.90233],[-5.19658,36.90193],[-5.19424,36.89647],[-5.19419,36.8962],[-5.19446,36.89544],[-5.19446,36.8946],[-5.19432,36.89405],[-5.19408,36.89366],[-5.19297,36.89286],[-5.19189,36.89227],[-5.19164,36.89198],[-5.19025,36.88935],[-5.18997,36.88914],[-5.18914,36.8889],[-5.18818,36.8884],[-5.18789,36.88815],[-5.18771,36.88775],[-5.18608,36.88697],[-5.18429,36.88711],[-5.17798,36.88709],[-5.17239,36.88654],[-5.17074,36.88612],[-5.16572,36.88562],[-5.15858,36.88868],[-5.15725,36.88948],[-5.15533,36.89105],[-5.15271,36.89257],[-5.1516,36.89332],[-5.14953,36.89509],[-5.14808,36.89561],[-5.14775,36.89582],[-5.14751,36.89613],[-5.14733,36.89679],[-5.14716,36.89797],[-5.14568,36.89792],[-5.14498,36.89798],[-5.14401,36.89823],[-5.14304,36.89817],[-5.14278,36.89827],[-5.14169,36.89969],[-5.14134,36.89996],[-5.13895,36.9011],[-5.13686,36.90172],[-5.13601,36.90168],[-5.13465,36.90147],[-5.13416,36.90157],[-5.13323,36.90242],[-5.13231,36.90253],[-5.13143,36.90289],[-5.13113,36.90317],[-5.1316,36.90477],[-5.13061,36.90531],[-5.12889,36.9059],[-5.12762,36.90623],[-5.12446,36.90645],[-5.12326,36.90695],[-5.12191,36.90714],[-5.12097,36.9072],[-5.11915,36.90665],[-5.11882,36.90669],[-5.11776,36.90702],[-5.11663,36.90764],[-5.11382,36.90989],[-5.11563,36.9128],[-5.11603,36.91391],[-5.11624,36.91506],[-5.11616,36.91593],[-5.11595,36.91656],[-5.1154,36.91694],[-5.11426,36.9174],[-5.11376,36.91704],[-5.11073,36.91335],[-5.10859,36.91109],[-5.10764,36.91171],[-5.10682,36.91266],[-5.10362,36.91399],[-5.1015,36.91504],[-5.09821,36.91754],[-5.09518,36.91897],[-5.09178,36.92104],[-5.09225,36.91789],[-5.09293,36.91169],[-5.0901,36.90887],[-5.08677,36.90509],[-5.09009,36.90345],[-5.09138,36.9027],[-5.09362,36.90075],[-5.09674,36.9008],[-5.09907,36.90093],[-5.09969,36.90085],[-5.10133,36.90024],[-5.10283,36.89944],[-5.10508,36.89794],[-5.10297,36.89611],[-5.1026,36.89556],[-5.10228,36.89474],[-5.10222,36.89369],[-5.10239,36.89331],[-5.10321,36.89261],[-5.10259,36.89174],[-5.10726,36.89006],[-5.10983,36.8894],[-5.11221,36.88178],[-5.11176,36.88048],[-5.11178,36.879],[-5.11242,36.87647],[-5.11249,36.87383],[-5.11387,36.87321],[-5.11601,36.8718],[-5.11666,36.87116],[-5.11727,36.87027],[-5.11773,36.86944],[-5.11852,36.86722],[-5.12001,36.86005],[-5.12051,36.85884],[-5.12109,36.85779],[-5.12417,36.85305],[-5.12522,36.85222],[-5.12551,36.85182],[-5.12759,36.84723],[-5.12956,36.84433],[-5.13018,36.84283],[-5.13215,36.8406],[-5.13282,36.83961],[-5.1333,36.8391],[-5.13408,36.83856],[-5.13459,36.83837],[-5.13776,36.83804],[-5.13889,36.8378],[-5.14177,36.83683],[-5.14494,36.83523],[-5.1475,36.83346],[-5.14871,36.83306],[-5.15024,36.83264],[-5.15273,36.83227],[-5.15341,36.83226],[-5.15427,36.83208],[-5.15527,36.83173],[-5.15647,36.8312],[-5.15768,36.83053],[-5.15894,36.8297],[-5.16144,36.82761],[-5.16334,36.82638],[-5.16411,36.82601],[-5.1648,36.82581],[-5.16697,36.8254],[-5.16803,36.82496],[-5.17041,36.82355],[-5.17092,36.82383],[-5.17159,36.82349],[-5.17227,36.82351],[-5.17353,36.82398],[-5.17494,36.82469],[-5.17569,36.82526],[-5.17932,36.82863],[-5.1811,36.82777],[-5.18204,36.82778],[-5.18265,36.82789],[-5.18594,36.82773],[-5.18667,36.82796],[-5.18799,36.82876],[-5.18909,36.83082],[-5.18959,36.83147],[-5.19233,36.83373],[-5.19556,36.83526],[-5.19762,36.83588],[-5.19835,36.83622],[-5.19865,36.8365],[-5.19918,36.83736],[-5.1995,36.83765],[-5.19989,36.83779],[-5.20065,36.83767],[-5.20092,36.83773],[-5.20129,36.83814],[-5.20193,36.83846]]]}}]}