{"type":"FeatureCollection","features":[{"type":"Feature","properties":{"id":"1104101001"},"geometry":{"type":"Polygon","coordinates":[[[-5.64176,36.86074],[-5.64194,36.86087],[-5.64189,36.86098],[-5.64261,36.86141],[-5.64288,36.86197],[-5.64377,36.86253],[-5.64425,36.86326],[-5.64444,36.86381],[-5.64523,36.86447],[-5.64535,36.86442],[-5.64496,36.8647],[-5.64624,36.86538],[-5.65027,36.86916],[-5.64989,36.86928],[-5.64901,36.86997],[-5.64745,36.87092],[-5.64626,36.87178],[-5.64573,36.8724],[-5.64526,36.87347],[-5.64498,36.87363],[-5.64448,36.87361],[-5.64412,36.87257],[-5.64353,36.87224],[-5.64228,36.87195],[-5.64214,36.87164],[-5.64216,36.87098],[-5.64133,36.86936],[-5.64149,36.86908],[-5.64189,36.86882],[-5.64205,36.86856],[-5.64171,36.86784],[-5.64186,36.8673],[-5.64222,36.86703],[-5.64252,36.86653],[-5.6416,36.86537],[-5.64187,36.86494],[-5.64093,36.86401],[-5.64062,36.864],[-5.64039,36.8638],[-5.63994,36.86313],[-5.63951,36.86285],[-5.63981,36.8625],[-5.63899,36.86187],[-5.63908,36.86181],[-5.63902,36.86173],[-5.63921,36.86162],[-5.63959,36.86185],[-5.64065,36.86098],[-5.64137,36.86098],[-5.64176,36.86074]]]}},{"type":"Feature","properties":{"id":"1104101002"},"geometry":{"type":"Polygon","coordinates":[[[-5.63944,36.85871],[-5.64105,36.85992],[-5.64185,36.86069],[-5.64137,36.86098],[-5.64065,36.86098],[-5.63959,36.86185],[-5.63921,36.86162],[-5.63902,36.86173],[-5.63908,36.86181],[-5.6389,36.8618],[-5.6385,36.86233],[-5.63825,36.86248],[-5.63783,36.86251],[-5.63701,36.86318],[-5.63682,36.86321],[-5.63642,36.863],[-5.63591,36.86306],[-5.63469,36.86282],[-5.63448,36.86212],[-5.63487,36.86121],[-5.63559,36.86002],[-5.63515,36.85957],[-5.63432,36.85934],[-5.63381,36.85927],[-5.63334,36.85945],[-5.6329,36.86025],[-5.63251,36.86037],[-5.6307,36.85977],[-5.629,36.85956],[-5.62771,36.85928],[-5.62637,36.85958],[-5.62607,36.86025],[-5.6258,36.86053],[-5.62494,36.86063],[-5.62364,36.8613],[-5.62334,36.86131],[-5.6228,36.86116],[-5.62267,36.861],[-5.62202,36.86082],[-5.62163,36.86056],[-5.6245,36.85874],[-5.62766,36.85739],[-5.62796,36.85706],[-5.628,36.85683],[-5.62842,36.85693],[-5.62859,36.85713],[-5.62902,36.85724],[-5.63162,36.85744],[-5.63336,36.85743],[-5.63395,36.85754],[-5.63874,36.85922],[-5.63944,36.85871]]]}},{"type":"Feature","properties":{"id":"1104101003"},"geometry":{"type":"Polygon","coordinates":[[[-5.6584,36.96717],[-5.65292,36.96],[-5.65077,36.95598],[-5.64967,36.95432],[-5.64763,36.95401],[-5.64691,36.95398],[-5.64537,36.95353],[-5.64173,36.95194],[-5.63882,36.95168],[-5.63537,36.95113],[-5.63283,36.9506],[-5.63249,36.95067],[-5.6306,36.95168],[-5.62614,36.95444],[-5.62586,36.95405],[-5.62563,36.95274],[-5.62535,36.95218],[-5.62293,36.94941],[-5.62208,36.94793],[-5.61925,36.9417],[-5.61854,36.94049],[-5.61809,36.94016],[-5.61763,36.94017],[-5.6173,36.94033],[-5.61571,36.94191],[-5.61549,36.94225],[-5.61522,36.94245],[-5.61486,36.94255],[-5.61443,36.94254],[-5.61347,36.94225],[-5.61221,36.94204],[-5.61263,36.94156],[-5.6124,36.94123],[-5.61025,36.94142],[-5.60965,36.94246],[-5.60868,36.94357],[-5.60821,36.94404],[-5.60748,36.9445],[-5.60735,36.9447],[-5.60729,36.94507],[-5.60779,36.94606],[-5.607,36.94742],[-5.60691,36.94781],[-5.60714,36.94937],[-5.60707,36.94972],[-5.60667,36.95044],[-5.60628,36.95079],[-5.60589,36.95085],[-5.60303,36.94941],[-5.60194,36.94909],[-5.60154,36.94882],[-5.60115,36.94833],[-5.60087,36.94821],[-5.60005,36.94815],[-5.59965,36.94799],[-5.59925,36.94773],[-5.59823,36.94658],[-5.59699,36.9459],[-5.59556,36.94488],[-5.59492,36.94467],[-5.59404,36.94457],[-5.59318,36.9448],[-5.59194,36.94553],[-5.58998,36.94652],[-5.58815,36.94689],[-5.58711,36.94701],[-5.58677,36.94441],[-5.587,36.93982],[-5.58691,36.93628],[-5.58639,36.93313],[-5.58635,36.93011],[-5.58569,36.92283],[-5.58585,36.92146],[-5.58457,36.91759],[-5.58369,36.91546],[-5.5834,36.91509],[-5.58211,36.91429],[-5.58087,36.91372],[-5.57925,36.9127],[-5.57586,36.91116],[-5.56966,36.90896],[-5.5668,36.90828],[-5.56537,36.90803],[-5.56404,36.90763],[-5.54732,36.89894],[-5.53901,36.89539],[-5.53382,36.89345],[-5.53392,36.89333],[-5.53399,36.89217],[-5.53414,36.88691],[-5.53358,36.88377],[-5.53211,36.87993],[-5.53103,36.87928],[-5.5289,36.8783],[-5.52879,36.87657],[-5.52803,36.87442],[-5.52811,36.87356],[-5.52833,36.87296],[-5.52822,36.87197],[-5.52839,36.87059],[-5.52827,36.87034],[-5.52717,36.86959],[-5.52701,36.86936],[-5.52695,36.8689],[-5.52699,36.86753],[-5.52727,36.86684],[-5.52735,36.86608],[-5.52706,36.86077],[-5.52791,36.85357],[-5.52767,36.84875],[-5.52694,36.84598],[-5.52703,36.8409],[-5.52618,36.83937],[-5.52437,36.83698],[-5.5232,36.8359],[-5.52481,36.83592],[-5.52568,36.83578],[-5.52947,36.83486],[-5.53575,36.83288],[-5.53805,36.83191],[-5.54204,36.82941],[-5.54547,36.82775],[-5.54555,36.8275],[-5.54543,36.8267],[-5.54558,36.82613],[-5.54758,36.82658],[-5.54855,36.82646],[-5.5488,36.8263],[-5.54949,36.82535],[-5.54988,36.82509],[-5.55077,36.82474],[-5.55163,36.82465],[-5.5519,36.8244],[-5.55242,36.82415],[-5.55369,36.82398],[-5.55405,36.82376],[-5.55454,36.82225],[-5.5547,36.82201],[-5.55541,36.82131],[-5.55633,36.8206],[-5.55697,36.82046],[-5.55765,36.82061],[-5.55816,36.82052],[-5.55634,36.81931],[-5.55605,36.81891],[-5.55577,36.81779],[-5.55458,36.81488],[-5.55344,36.81123],[-5.55302,36.80941],[-5.553,36.80861],[-5.55311,36.80813],[-5.5527,36.80715],[-5.55283,36.80681],[-5.5532,36.80643],[-5.55333,36.80602],[-5.55371,36.80541],[-5.55351,36.80439],[-5.55328,36.80397],[-5.55355,36.80216],[-5.55344,36.80196],[-5.55324,36.80189],[-5.5536,36.80162],[-5.55369,36.80136],[-5.55371,36.80093],[-5.55349,36.80028],[-5.55365,36.79988],[-5.55339,36.79945],[-5.55313,36.79761],[-5.55394,36.79617],[-5.55414,36.79504],[-5.5546,36.79437],[-5.55562,36.79395],[-5.55669,36.79305],[-5.55745,36.79284],[-5.55774,36.79262],[-5.55824,36.79195],[-5.55863,36.79177],[-5.56353,36.79387],[-5.56803,36.79127],[-5.5666,36.78897],[-5.56693,36.78877],[-5.56744,36.7887],[-5.56816,36.78875],[-5.56868,36.78841],[-5.57098,36.78889],[-5.57499,36.7889],[-5.57553,36.78898],[-5.57661,36.78936],[-5.57748,36.78993],[-5.5776,36.78992],[-5.57994,36.78894],[-5.58007,36.78882],[-5.58001,36.78847],[-5.58014,36.78818],[-5.58052,36.78797],[-5.58255,36.7872],[-5.58398,36.78507],[-5.58727,36.77919],[-5.58876,36.77778],[-5.59092,36.77511],[-5.59214,36.77386],[-5.59343,36.77236],[-5.59445,36.77103],[-5.59531,36.76979],[-5.59656,36.76726],[-5.59835,36.76402],[-5.59884,36.76343],[-5.59999,36.76261],[-5.61053,36.76964],[-5.61238,36.77125],[-5.614,36.7725],[-5.61982,36.77603],[-5.62155,36.77718],[-5.62457,36.77948],[-5.62489,36.77967],[-5.62731,36.78046],[-5.62877,36.78114],[-5.63032,36.78224],[-5.63278,36.78362],[-5.6346,36.78454],[-5.63618,36.78521],[-5.63828,36.78678],[-5.63908,36.78722],[-5.64133,36.78814],[-5.64228,36.78883],[-5.6425,36.78916],[-5.64267,36.79025],[-5.64259,36.79127],[-5.64234,36.79252],[-5.64187,36.79367],[-5.6421,36.79509],[-5.64211,36.79626],[-5.6414,36.80113],[-5.6413,36.80244],[-5.64672,36.81349],[-5.65135,36.81998],[-5.65919,36.83054],[-5.65975,36.83215],[-5.6613,36.83826],[-5.66233,36.84135],[-5.66423,36.8481],[-5.66564,36.8486],[-5.66822,36.85125],[-5.6692,36.85209],[-5.66822,36.8537],[-5.66779,36.85472],[-5.66708,36.85519],[-5.66633,36.85548],[-5.6645,36.85582],[-5.66413,36.85596],[-5.66395,36.85614],[-5.66382,36.85648],[-5.66388,36.85685],[-5.66406,36.85714],[-5.66612,36.85856],[-5.66634,36.85892],[-5.66647,36.85967],[-5.66593,36.86092],[-5.66492,36.86219],[-5.6638,36.86302],[-5.66305,36.86399],[-5.66276,36.86504],[-5.66273,36.866],[-5.66371,36.8665],[-5.66699,36.87141],[-5.6684,36.87322],[-5.67412,36.88184],[-5.7052,36.90345],[-5.70682,36.90415],[-5.70829,36.90459],[-5.71404,36.90672],[-5.71667,36.90823],[-5.72076,36.91086],[-5.72224,36.91157],[-5.72294,36.91171],[-5.72324,36.91227],[-5.72377,36.91289],[-5.72496,36.91319],[-5.72692,36.91334],[-5.72823,36.91394],[-5.73112,36.91507],[-5.73319,36.91617],[-5.7351,36.91753],[-5.73618,36.91804],[-5.73631,36.91822],[-5.73389,36.91916],[-5.73293,36.91975],[-5.73153,36.92004],[-5.7304,36.92046],[-5.7293,36.92117],[-5.72638,36.92156],[-5.72586,36.92153],[-5.72382,36.9211],[-5.71857,36.91977],[-5.71701,36.91952],[-5.71578,36.92039],[-5.71461,36.92029],[-5.71377,36.92039],[-5.71109,36.92167],[-5.70874,36.9225],[-5.7069,36.92367],[-5.70584,36.9246],[-5.70449,36.92527],[-5.7032,36.9256],[-5.70298,36.92628],[-5.70277,36.92797],[-5.69823,36.93311],[-5.69618,36.93528],[-5.69613,36.93691],[-5.69598,36.93788],[-5.69534,36.94027],[-5.69474,36.94188],[-5.69388,36.94471],[-5.69368,36.94577],[-5.69359,36.94809],[-5.6937,36.94909],[-5.69445,36.95034],[-5.69469,36.95133],[-5.69556,36.95314],[-5.69548,36.95379],[-5.69494,36.95522],[-5.69478,36.9563],[-5.69461,36.95678],[-5.69244,36.95898],[-5.6902,36.96091],[-5.68914,36.96148],[-5.68682,36.9625],[-5.6858,36.96226],[-5.68402,36.96389],[-5.68241,36.96499],[-5.68181,36.96555],[-5.67938,36.96844],[-5.67714,36.96997],[-5.67455,36.97048],[-5.67406,36.97064],[-5.6724,36.97171],[-5.67141,36.97261],[-5.66852,36.97566],[-5.66795,36.97595],[-5.66757,36.97599],[-5.66647,36.97586],[-5.66612,36.97574],[-5.6584,36.96717]],[[-5.64793,36.86702],[-5.64837,36.86678],[-5.6488,36.86613],[-5.64741,36.86439],[-5.64731,36.86406],[-5.64902,36.86399],[-5.64977,36.86371],[-5.64945,36.86299],[-5.64932,36.86281],[-5.64916,36.86279],[-5.6491,36.86191],[-5.65021,36.86179],[-5.65099,36.86159],[-5.65212,36.86183],[-5.65237,36.86199],[-5.65241,36.86213],[-5.65327,36.86263],[-5.65605,36.86406],[-5.65686,36.86342],[-5.65711,36.86305],[-5.65702,36.86252],[-5.65729,36.86221],[-5.65734,36.86201],[-5.65719,36.86196],[-5.65739,36.86148],[-5.65767,36.8614],[-5.65921,36.86008],[-5.6602,36.85983],[-5.66147,36.8561],[-5.66174,36.8556],[-5.66197,36.85539],[-5.66208,36.85512],[-5.66195,36.85483],[-5.66209,36.85478],[-5.66188,36.85468],[-5.66144,36.85464],[-5.66093,36.8547],[-5.66073,36.85484],[-5.65908,36.85532],[-5.658,36.85504],[-5.65671,36.85528],[-5.65648,36.85522],[-5.65664,36.85452],[-5.65297,36.85359],[-5.65073,36.85316],[-5.64816,36.85313],[-5.6444,36.85339],[-5.64418,36.85327],[-5.64274,36.85327],[-5.64079,36.85295],[-5.63813,36.85222],[-5.63564,36.85203],[-5.63398,36.85231],[-5.63273,36.85281],[-5.63306,36.85328],[-5.63522,36.85467],[-5.6367,36.85581],[-5.63758,36.85718],[-5.63843,36.85797],[-5.63941,36.85865],[-5.63944,36.85871],[-5.63874,36.85922],[-5.63395,36.85754],[-5.63336,36.85743],[-5.63162,36.85744],[-5.62902,36.85724],[-5.62859,36.85713],[-5.62842,36.85693],[-5.628,36.85683],[-5.62796,36.85706],[-5.62766,36.85739],[-5.6245,36.85874],[-5.62163,36.86056],[-5.62202,36.86082],[-5.62267,36.861],[-5.6228,36.86116],[-5.62334,36.86131],[-5.62364,36.8613],[-5.62494,36.86063],[-5.6258,36.86053],[-5.62607,36.86025],[-5.62637,36.85958],[-5.62771,36.85928],[-5.629,36.85956],[-5.6307,36.85977],[-5.63251,36.86037],[-5.6329,36.86025],[-5.63334,36.85945],[-5.63381,36.85927],[-5.63515,36.85957],[-5.63559,36.86002],[-5.63487,36.86121],[-5.63448,36.86212],[-5.63469,36.86282],[-5.63481,36.86289],[-5.63549,36.86293],[-5.63591,36.86306],[-5.63642,36.863],[-5.63682,36.86321],[-5.63701,36.86318],[-5.63783,36.86251],[-5.63825,36.86248],[-5.6385,36.86233],[-5.6389,36.8618],[-5.63908,36.86181],[-5.63899,36.86187],[-5.63981,36.8625],[-5.63951,36.86285],[-5.63994,36.86313],[-5.64039,36.8638],[-5.64062,36.864],[-5.64093,36.86401],[-5.64187,36.86494],[-5.6416,36.86537],[-5.64252,36.86653],[-5.64222,36.86703],[-5.64186,36.8673],[-5.64171,36.86784],[-5.64205,36.86856],[-5.64189,36.86882],[-5.64149,36.86908],[-5.64133,36.86936],[-5.64216,36.87098],[-5.64214,36.87164],[-5.64228,36.87195],[-5.64353,36.87224],[-5.64412,36.87257],[-5.64448,36.87361],[-5.64498,36.87363],[-5.64526,36.87347],[-5.64573,36.8724],[-5.64626,36.87178],[-5.64745,36.87092],[-5.64901,36.86997],[-5.64989,36.86928],[-5.65027,36.86916],[-5.64793,36.86702]]]}},{"type":"Feature","properties":{"id":"1104102001"},"geometry":{"type":"Polygon","coordinates":[[[-5.64261,36.86141],[-5.64299,36.86111],[-5.64442,36.86034],[-5.64527,36.86139],[-5.6456,36.86261],[-5.64567,36.86328],[-5.64561,36.86418],[-5.64543,36.86438],[-5.64523,36.86447],[-5.64444,36.86381],[-5.64399,36.8628],[-5.64377,36.86253],[-5.64288,36.86197],[-5.64261,36.86141]]]}},{"type":"Feature","properties":{"id":"1104102002"},"geometry":{"type":"Polygon","coordinates":[[[-5.6443,36.85333],[-5.64413,36.85595],[-5.64358,36.85614],[-5.64326,36.85636],[-5.64253,36.85713],[-5.64215,36.85735],[-5.64056,36.85824],[-5.63941,36.85865],[-5.63843,36.85797],[-5.63758,36.85718],[-5.6367,36.85581],[-5.63522,36.85467],[-5.63306,36.85328],[-5.63273,36.85281],[-5.63398,36.85231],[-5.63564,36.85203],[-5.63619,36.85204],[-5.63813,36.85222],[-5.64079,36.85295],[-5.6422,36.85323],[-5.64418,36.85327],[-5.6443,36.85333]]]}},{"type":"Feature","properties":{"id":"1104102003"},"geometry":{"type":"Polygon","coordinates":[[[-5.64176,36.86074],[-5.64185,36.86069],[-5.6418,36.86058],[-5.63941,36.85865],[-5.64056,36.85824],[-5.64252,36.85713],[-5.64403,36.85806],[-5.64453,36.8585],[-5.64549,36.85801],[-5.64581,36.85845],[-5.64389,36.85943],[-5.64194,36.86087],[-5.64176,36.86074]]]}},{"type":"Feature","properties":{"id":"1104102004"},"geometry":{"type":"Polygon","coordinates":[[[-5.64442,36.86034],[-5.64629,36.85934],[-5.64675,36.85906],[-5.64735,36.85845],[-5.64753,36.85844],[-5.64843,36.85942],[-5.64916,36.85984],[-5.65036,36.86084],[-5.65099,36.86159],[-5.65021,36.86179],[-5.64912,36.86191],[-5.64698,36.86165],[-5.6469,36.8618],[-5.64662,36.86179],[-5.64651,36.86157],[-5.64535,36.86134],[-5.64527,36.86139],[-5.64442,36.86034]]]}},{"type":"Feature","properties":{"id":"1104102005"},"geometry":{"type":"Polygon","coordinates":[[[-5.64496,36.8647],[-5.64561,36.86418],[-5.64567,36.86328],[-5.6456,36.86261],[-5.64524,36.86141],[-5.64535,36.86134],[-5.64651,36.86157],[-5.64662,36.86179],[-5.6469,36.8618],[-5.64698,36.86165],[-5.64912,36.86191],[-5.64916,36.86279],[-5.64932,36.86281],[-5.64945,36.86299],[-5.64977,36.86371],[-5.64902,36.86399],[-5.64731,36.86406],[-5.64741,36.86439],[-5.6488,36.86613],[-5.64837,36.86678],[-5.64793,36.86702],[-5.64624,36.86538],[-5.64501,36.86474],[-5.64496,36.8647]]]}},{"type":"Feature","properties":{"id":"1104102006"},"geometry":{"type":"Polygon","coordinates":[[[-5.64189,36.86098],[-5.64389,36.85943],[-5.64581,36.85845],[-5.64549,36.85801],[-5.64453,36.8585],[-5.64403,36.85806],[-5.64253,36.85713],[-5.64326,36.85636],[-5.64358,36.85614],[-5.64413,36.85595],[-5.6443,36.85333],[-5.6444,36.85339],[-5.64816,36.85313],[-5.65073,36.85316],[-5.65297,36.85359],[-5.65664,36.85452],[-5.65648,36.85522],[-5.65569,36.85533],[-5.65286,36.85608],[-5.64975,36.85673],[-5.6491,36.85698],[-5.6476,36.8582],[-5.64744,36.85837],[-5.64753,36.85844],[-5.64735,36.85845],[-5.64675,36.85906],[-5.64299,36.86111],[-5.64261,36.86141],[-5.64189,36.86098]]]}},{"type":"Feature","properties":{"id":"1104102007"},"geometry":{"type":"Polygon","coordinates":[[[-5.65099,36.86159],[-5.65036,36.86084],[-5.64916,36.85984],[-5.64843,36.85942],[-5.64744,36.85837],[-5.6491,36.85698],[-5.64975,36.85673],[-5.65286,36.85608],[-5.65569,36.85533],[-5.65648,36.85522],[-5.65671,36.85528],[-5.658,36.85504],[-5.65908,36.85532],[-5.66073,36.85484],[-5.66093,36.8547],[-5.66144,36.85464],[-5.66188,36.85468],[-5.66209,36.85478],[-5.66195,36.85483],[-5.66208,36.85512],[-5.66197,36.85539],[-5.66174,36.8556],[-5.66147,36.8561],[-5.6602,36.85983],[-5.65921,36.86008],[-5.65767,36.8614],[-5.65739,36.86148],[-5.65719,36.86196],[-5.65734,36.86201],[-5.65729,36.86221],[-5.65702,36.86252],[-5.65711,36.86305],[-5.65686,36.86342],[-5.65605,36.86406],[-5.65327,36.86263],[-5.65241,36.86213],[-5.65237,36.86199],[-5.65212,36.86183],[-5.65099,36.86159]]]}}]}