{"type":"FeatureCollection","features":[{"type":"Feature","properties":{"id":"1200401001"},"geometry":{"type":"Polygon","coordinates":[[[0.26911,40.34482],[0.25902,40.33906],[0.25723,40.33782],[0.25585,40.33343],[0.23826,40.32079],[0.23388,40.31532],[0.23348,40.31469],[0.23305,40.31432],[0.22671,40.30635],[0.22627,40.30594],[0.22591,40.30509],[0.22541,40.30471],[0.22571,40.3043],[0.22555,40.30419],[0.22557,40.3041],[0.2242,40.30357],[0.22397,40.30421],[0.22409,40.30428],[0.2239,40.30443],[0.22414,40.30462],[0.22393,40.30479],[0.22377,40.30468],[0.22326,40.30497],[0.22194,40.30674],[0.2205,40.30896],[0.2197,40.30963],[0.21916,40.31041],[0.21795,40.31136],[0.21745,40.31202],[0.2173,40.31248],[0.21675,40.31296],[0.2166,40.31323],[0.21653,40.31402],[0.21617,40.31437],[0.21517,40.31494],[0.21454,40.31598],[0.21309,40.31697],[0.21304,40.31726],[0.21266,40.31755],[0.21238,40.31801],[0.20559,40.32516],[0.19445,40.33568],[0.18073,40.34321],[0.18084,40.34333],[0.16491,40.35977],[0.16973,40.36777],[0.16789,40.37058],[0.1693,40.37305],[0.16921,40.37309],[0.17058,40.37331],[0.17167,40.3736],[0.17253,40.37567],[0.17278,40.37602],[0.17355,40.37695],[0.17597,40.37907],[0.17741,40.38084],[0.18458,40.3857],[0.18585,40.38908],[0.18667,40.39091],[0.18701,40.39136],[0.18953,40.39342],[0.21534,40.37802],[0.23779,40.36499],[0.2421,40.36258],[0.25301,40.35559],[0.26911,40.34482]]]}},{"type":"Feature","properties":{"id":"1200401002"},"geometry":{"type":"Polygon","coordinates":[[[0.30276,40.32346],[0.30064,40.31525],[0.29846,40.30969],[0.2962,40.30718],[0.29818,40.30429],[0.30243,40.30028],[0.30959,40.29073],[0.32105,40.27733],[0.32124,40.27698],[0.30426,40.27651],[0.30343,40.27611],[0.30235,40.27539],[0.30024,40.27349],[0.29925,40.27208],[0.29816,40.27097],[0.29621,40.26797],[0.29385,40.26732],[0.29312,40.26741],[0.29211,40.26721],[0.29155,40.26726],[0.29139,40.26701],[0.29098,40.26696],[0.29024,40.2667],[0.28955,40.26623],[0.28977,40.26604],[0.28761,40.26469],[0.28714,40.26459],[0.28716,40.26486],[0.28759,40.26516],[0.2874,40.26554],[0.28747,40.26599],[0.28769,40.26632],[0.28821,40.2664],[0.28831,40.2667],[0.28801,40.26707],[0.28664,40.2678],[0.28609,40.26834],[0.285,40.26878],[0.28384,40.26869],[0.28216,40.2684],[0.28099,40.26786],[0.27965,40.26765],[0.27767,40.26772],[0.27646,40.26749],[0.2748,40.26669],[0.27398,40.26692],[0.27311,40.26817],[0.27218,40.26815],[0.27191,40.26767],[0.27142,40.26741],[0.27115,40.26696],[0.27135,40.26628],[0.27132,40.26565],[0.27189,40.26524],[0.27232,40.26465],[0.2735,40.2643],[0.2745,40.2632],[0.27549,40.26173],[0.27807,40.25985],[0.27601,40.25771],[0.27478,40.25563],[0.27447,40.25468],[0.27446,40.25343],[0.27178,40.25263],[0.27051,40.25307],[0.26861,40.25325],[0.26749,40.25307],[0.26723,40.25226],[0.26776,40.25144],[0.26686,40.25127],[0.26264,40.25117],[0.26299,40.2518],[0.26347,40.25306],[0.26343,40.25471],[0.26239,40.25513],[0.26164,40.25498],[0.26151,40.25462],[0.26101,40.2541],[0.26138,40.25359],[0.26087,40.25327],[0.25912,40.25267],[0.25857,40.2517],[0.2595,40.25033],[0.25893,40.24999],[0.25746,40.24979],[0.25664,40.24982],[0.25561,40.24727],[0.26227,40.24734],[0.26643,40.24749],[0.26556,40.24602],[0.26463,40.24524],[0.26281,40.24263],[0.26254,40.24063],[0.26325,40.23976],[0.26169,40.23805],[0.26189,40.23743],[0.26231,40.23699],[0.26192,40.23658],[0.26182,40.23627],[0.26139,40.23592],[0.26119,40.23451],[0.26092,40.2339],[0.26083,40.23325],[0.2611,40.23317],[0.26103,40.23263],[0.26116,40.23239],[0.2608,40.23187],[0.26008,40.2302],[0.2603,40.22992],[0.25972,40.22894],[0.25931,40.2276],[0.25991,40.22716],[0.26031,40.22666],[0.26021,40.22628],[0.25917,40.22532],[0.25823,40.22483],[0.2577,40.22428],[0.25812,40.224],[0.25741,40.22345],[0.25759,40.22332],[0.25681,40.2225],[0.25643,40.22188],[0.25676,40.22158],[0.25593,40.22051],[0.25626,40.22034],[0.25627,40.22014],[0.25547,40.21907],[0.25446,40.21804],[0.25358,40.2168],[0.25246,40.21565],[0.25407,40.2146],[0.25196,40.21359],[0.2508,40.21278],[0.24976,40.21186],[0.24851,40.21281],[0.24625,40.21414],[0.24443,40.21493],[0.23623,40.21889],[0.2305,40.22343],[0.21692,40.22987],[0.21908,40.23175],[0.2221,40.23475],[0.22492,40.23862],[0.23114,40.2439],[0.23222,40.24528],[0.23274,40.24654],[0.23371,40.24962],[0.23605,40.25534],[0.23936,40.26256],[0.23992,40.26427],[0.24075,40.2683],[0.24081,40.26983],[0.24062,40.27071],[0.24016,40.27159],[0.23929,40.27257],[0.23848,40.27314],[0.23767,40.27355],[0.23359,40.27479],[0.23208,40.27547],[0.22717,40.27926],[0.22604,40.28036],[0.22527,40.28153],[0.22481,40.28266],[0.22464,40.28341],[0.22459,40.28457],[0.22679,40.29731],[0.22744,40.29809],[0.22778,40.29906],[0.22636,40.29978],[0.22582,40.30025],[0.22527,40.30121],[0.2242,40.30357],[0.22557,40.3041],[0.22555,40.30419],[0.22571,40.3043],[0.22541,40.30471],[0.22591,40.30509],[0.22627,40.30594],[0.22671,40.30635],[0.23305,40.31432],[0.23348,40.31469],[0.23388,40.31532],[0.23826,40.32079],[0.25585,40.33343],[0.25723,40.33782],[0.25902,40.33906],[0.26911,40.34482],[0.28616,40.33342],[0.29154,40.3296],[0.30131,40.3233],[0.30276,40.32346]]]}},{"type":"Feature","properties":{"id":"1200402001"},"geometry":{"type":"Polygon","coordinates":[[[0.22397,40.30421],[0.22527,40.30121],[0.22582,40.30025],[0.22636,40.29978],[0.22778,40.29906],[0.22744,40.29809],[0.22679,40.29731],[0.22459,40.28457],[0.22464,40.28341],[0.22481,40.28266],[0.22527,40.28153],[0.22604,40.28036],[0.22717,40.27926],[0.23208,40.27547],[0.23359,40.27479],[0.23767,40.27355],[0.23848,40.27314],[0.23929,40.27257],[0.24016,40.27159],[0.24062,40.27071],[0.24081,40.26983],[0.24075,40.2683],[0.23992,40.26427],[0.23936,40.26256],[0.23605,40.25534],[0.23371,40.24962],[0.23274,40.24654],[0.23222,40.24528],[0.23114,40.2439],[0.22492,40.23862],[0.2221,40.23475],[0.21908,40.23175],[0.21692,40.22987],[0.21467,40.23092],[0.20665,40.23417],[0.19528,40.23582],[0.18802,40.23368],[0.17928,40.2315],[0.17093,40.22164],[0.16605,40.21969],[0.15831,40.22114],[0.15797,40.22114],[0.15719,40.22137],[0.15644,40.22171],[0.1547,40.22266],[0.15381,40.22343],[0.15445,40.22354],[0.15502,40.22392],[0.15532,40.2246],[0.15549,40.22591],[0.15772,40.22824],[0.15856,40.22953],[0.15973,40.23056],[0.16,40.231],[0.16007,40.23147],[0.16041,40.23147],[0.17447,40.25688],[0.17681,40.26531],[0.17566,40.27736],[0.17393,40.27883],[0.17217,40.28691],[0.17405,40.29042],[0.18004,40.29419],[0.1808,40.2992],[0.18021,40.30338],[0.17391,40.3108],[0.16588,40.32783],[0.17145,40.33342],[0.18073,40.34321],[0.19445,40.33568],[0.20559,40.32516],[0.21238,40.31801],[0.21266,40.31755],[0.21304,40.31726],[0.21309,40.31697],[0.21454,40.31598],[0.21517,40.31494],[0.21617,40.31437],[0.21653,40.31402],[0.2166,40.31323],[0.21675,40.31296],[0.2173,40.31248],[0.21745,40.31202],[0.21795,40.31136],[0.21916,40.31041],[0.2197,40.30963],[0.2205,40.30896],[0.22194,40.30674],[0.22326,40.30497],[0.22377,40.30468],[0.22393,40.30479],[0.22414,40.30462],[0.2239,40.30443],[0.22409,40.30428],[0.22397,40.30421]]]}},{"type":"Feature","properties":{"id":"1200402002"},"geometry":{"type":"Polygon","coordinates":[[[0.32261,40.27435],[0.32227,40.27436],[0.32193,40.27402],[0.32169,40.27394],[0.32168,40.27376],[0.32096,40.2738],[0.32087,40.2734],[0.321,40.27319],[0.32062,40.27283],[0.32023,40.27272],[0.32,40.27282],[0.31986,40.27274],[0.31982,40.27242],[0.31992,40.2722],[0.31982,40.27203],[0.31936,40.27189],[0.31915,40.27158],[0.31886,40.2715],[0.3185,40.27122],[0.31799,40.27118],[0.31784,40.27074],[0.31759,40.27063],[0.31669,40.27051],[0.31608,40.27068],[0.31589,40.27065],[0.31577,40.2705],[0.31576,40.27023],[0.3152,40.26985],[0.31484,40.26979],[0.31458,40.26956],[0.31423,40.26955],[0.31358,40.26937],[0.31311,40.2696],[0.31273,40.26947],[0.3127,40.26933],[0.31228,40.26911],[0.31118,40.26903],[0.3113,40.26882],[0.31099,40.26875],[0.31089,40.26857],[0.31066,40.26845],[0.31084,40.26821],[0.3104,40.26799],[0.3103,40.26767],[0.3094,40.26695],[0.30939,40.26683],[0.30899,40.26672],[0.3083,40.26545],[0.30776,40.26516],[0.30796,40.26497],[0.30793,40.26484],[0.30774,40.26477],[0.3078,40.26463],[0.30758,40.26442],[0.30735,40.26371],[0.30618,40.26311],[0.30614,40.26297],[0.30639,40.26265],[0.30566,40.26197],[0.30559,40.26175],[0.3057,40.26144],[0.30556,40.26114],[0.30539,40.26108],[0.30513,40.26122],[0.30495,40.2611],[0.305,40.26094],[0.30456,40.26047],[0.30449,40.26006],[0.30392,40.26023],[0.30382,40.26013],[0.30421,40.25986],[0.30398,40.25959],[0.3037,40.25956],[0.30357,40.25938],[0.30315,40.2595],[0.30293,40.25933],[0.30215,40.25904],[0.30186,40.25909],[0.3017,40.25889],[0.30109,40.2588],[0.30084,40.2589],[0.30044,40.25878],[0.3,40.25892],[0.29984,40.25889],[0.29955,40.25862],[0.29816,40.25875],[0.29757,40.25869],[0.29698,40.25846],[0.29664,40.25803],[0.29648,40.25797],[0.29636,40.25827],[0.29614,40.25837],[0.29575,40.25822],[0.29556,40.25768],[0.29518,40.25744],[0.29449,40.25725],[0.29452,40.25714],[0.29476,40.25702],[0.29376,40.25607],[0.29355,40.25593],[0.29334,40.25592],[0.29309,40.25561],[0.29225,40.2552],[0.29207,40.25497],[0.29163,40.25493],[0.29137,40.25474],[0.29088,40.25463],[0.29052,40.25433],[0.29026,40.25433],[0.29017,40.25422],[0.28988,40.25416],[0.2893,40.25376],[0.28911,40.25339],[0.28901,40.25255],[0.28885,40.2524],[0.28862,40.25243],[0.28849,40.25257],[0.28844,40.25291],[0.28727,40.25285],[0.28716,40.25275],[0.28718,40.25238],[0.28686,40.25209],[0.28697,40.25171],[0.2873,40.2514],[0.2875,40.25136],[0.2881,40.25151],[0.28809,40.25136],[0.28713,40.25092],[0.28691,40.25071],[0.28679,40.25026],[0.28687,40.24977],[0.2866,40.24943],[0.28655,40.24895],[0.2863,40.24841],[0.28549,40.24773],[0.28462,40.24751],[0.28427,40.24682],[0.28378,40.24662],[0.28364,40.24636],[0.28304,40.24577],[0.28263,40.24568],[0.28124,40.24501],[0.28076,40.24504],[0.28047,40.24488],[0.2794,40.24479],[0.27859,40.2442],[0.27817,40.24349],[0.27791,40.24249],[0.27725,40.24161],[0.27588,40.23878],[0.27593,40.23848],[0.27565,40.23783],[0.27595,40.23768],[0.27636,40.23782],[0.27657,40.23768],[0.27664,40.23745],[0.2765,40.23719],[0.27575,40.23677],[0.27547,40.23667],[0.27551,40.23692],[0.2743,40.23624],[0.27371,40.23611],[0.27301,40.23534],[0.27287,40.23504],[0.27282,40.23457],[0.27254,40.23414],[0.27249,40.23309],[0.27266,40.23246],[0.27316,40.23193],[0.27307,40.23163],[0.27335,40.2311],[0.27327,40.2306],[0.27279,40.22973],[0.27306,40.22909],[0.2731,40.2284],[0.27302,40.22825],[0.27215,40.22765],[0.27168,40.22755],[0.27155,40.22727],[0.27154,40.22671],[0.27184,40.22638],[0.27156,40.22603],[0.2716,40.22585],[0.27191,40.22554],[0.2718,40.22473],[0.27123,40.22422],[0.27108,40.22396],[0.27109,40.22349],[0.27062,40.22303],[0.2704,40.22259],[0.27065,40.22217],[0.27006,40.22218],[0.26973,40.22134],[0.26953,40.22117],[0.26954,40.2208],[0.26849,40.21978],[0.26817,40.21933],[0.26783,40.21826],[0.26779,40.2177],[0.26704,40.21595],[0.2667,40.21483],[0.26631,40.21423],[0.26557,40.21217],[0.26527,40.21101],[0.26545,40.21058],[0.26537,40.21036],[0.26509,40.21024],[0.26405,40.21055],[0.26357,40.21057],[0.26343,40.21032],[0.26396,40.21028],[0.26433,40.20998],[0.26474,40.20993],[0.26505,40.20964],[0.26501,40.2095],[0.26453,40.20908],[0.26426,40.20856],[0.26388,40.20829],[0.26269,40.20783],[0.26028,40.20716],[0.25997,40.20701],[0.25753,40.20457],[0.25584,40.20346],[0.25505,40.2044],[0.25375,40.20886],[0.24976,40.21186],[0.2508,40.21278],[0.25196,40.21359],[0.25407,40.2146],[0.25246,40.21565],[0.25358,40.2168],[0.25446,40.21804],[0.25547,40.21907],[0.25627,40.22014],[0.25626,40.22034],[0.25593,40.22051],[0.25676,40.22158],[0.25643,40.22188],[0.25681,40.2225],[0.25759,40.22332],[0.25741,40.22345],[0.25812,40.224],[0.2577,40.22428],[0.25823,40.22483],[0.25917,40.22532],[0.26021,40.22628],[0.26031,40.22666],[0.25991,40.22716],[0.25931,40.2276],[0.25972,40.22894],[0.2603,40.22992],[0.26008,40.2302],[0.2608,40.23187],[0.26116,40.23239],[0.26103,40.23263],[0.2611,40.23317],[0.26083,40.23325],[0.26092,40.2339],[0.26119,40.23451],[0.26139,40.23592],[0.26182,40.23627],[0.26192,40.23658],[0.26231,40.23699],[0.26189,40.23743],[0.26169,40.23805],[0.26325,40.23976],[0.26254,40.24063],[0.26281,40.24263],[0.26463,40.24524],[0.26556,40.24602],[0.26643,40.24749],[0.26227,40.24734],[0.25561,40.24727],[0.25664,40.24982],[0.25746,40.24979],[0.25893,40.24999],[0.2595,40.25033],[0.25857,40.2517],[0.25912,40.25267],[0.26087,40.25327],[0.26138,40.25359],[0.26101,40.2541],[0.26151,40.25462],[0.26164,40.25498],[0.26239,40.25513],[0.26343,40.25471],[0.26347,40.25306],[0.26299,40.2518],[0.26264,40.25117],[0.26686,40.25127],[0.26776,40.25144],[0.26723,40.25226],[0.26749,40.25307],[0.26861,40.25325],[0.27051,40.25307],[0.27178,40.25263],[0.27446,40.25343],[0.27447,40.25468],[0.27478,40.25563],[0.27601,40.25771],[0.27807,40.25985],[0.27549,40.26173],[0.2745,40.2632],[0.2735,40.2643],[0.27232,40.26465],[0.27189,40.26524],[0.27132,40.26565],[0.27135,40.26628],[0.27115,40.26696],[0.27142,40.26741],[0.27191,40.26767],[0.27218,40.26815],[0.27311,40.26817],[0.27398,40.26692],[0.2748,40.26669],[0.27646,40.26749],[0.27767,40.26772],[0.27965,40.26765],[0.28099,40.26786],[0.28216,40.2684],[0.28384,40.26869],[0.285,40.26878],[0.28609,40.26834],[0.28664,40.2678],[0.28801,40.26707],[0.28831,40.2667],[0.28821,40.2664],[0.28769,40.26632],[0.28747,40.26599],[0.2874,40.26554],[0.28759,40.26516],[0.28716,40.26486],[0.28714,40.26459],[0.28761,40.26469],[0.28977,40.26604],[0.28955,40.26623],[0.29024,40.2667],[0.29098,40.26696],[0.29139,40.26701],[0.29155,40.26726],[0.29211,40.26721],[0.29312,40.26741],[0.29385,40.26732],[0.29621,40.26797],[0.29816,40.27097],[0.29925,40.27208],[0.30024,40.27349],[0.30235,40.27539],[0.30343,40.27611],[0.30426,40.27651],[0.32124,40.27698],[0.32142,40.27662],[0.32196,40.27608],[0.32261,40.27435]]]}}]}