{"type":"FeatureCollection","features":[{"type":"Feature","properties":{"id":"1203201001"},"geometry":{"type":"Polygon","coordinates":[[[-0.08192,39.89083],[-0.08139,39.89058],[-0.08186,39.88982],[-0.08263,39.88932],[-0.08371,39.88912],[-0.08378,39.8889],[-0.0849,39.88791],[-0.08498,39.88788],[-0.08624,39.88898],[-0.08239,39.89068],[-0.08192,39.89083]]]}},{"type":"Feature","properties":{"id":"1203201002"},"geometry":{"type":"Polygon","coordinates":[[[-0.07443,39.88612],[-0.07642,39.88482],[-0.07992,39.88694],[-0.08373,39.8889],[-0.08371,39.88912],[-0.08271,39.88932],[-0.08247,39.88916],[-0.08125,39.88902],[-0.08019,39.88871],[-0.08029,39.88854],[-0.07975,39.88824],[-0.07893,39.8878],[-0.07865,39.88807],[-0.07656,39.88671],[-0.07625,39.88703],[-0.07443,39.88612]]]}},{"type":"Feature","properties":{"id":"1203201003"},"geometry":{"type":"Polygon","coordinates":[[[-0.07984,39.88689],[-0.08151,39.88534],[-0.08225,39.88603],[-0.08388,39.88704],[-0.08498,39.88788],[-0.08378,39.88894],[-0.07984,39.88689]]]}},{"type":"Feature","properties":{"id":"1203201004"},"geometry":{"type":"Polygon","coordinates":[[[-0.03724,39.9232],[-0.03466,39.92266],[-0.0333,39.92203],[-0.03241,39.92147],[-0.03156,39.92113],[-0.03002,39.92063],[-0.02829,39.92037],[-0.02359,39.91861],[-0.02246,39.91835],[-0.0218,39.91854],[-0.02119,39.91845],[-0.02069,39.91823],[-0.01913,39.91714],[-0.0163,39.91585],[-0.01523,39.91507],[-0.01366,39.91413],[-0.01282,39.91348],[-0.01132,39.91201],[-0.01052,39.91146],[-0.0101,39.91104],[-0.01161,39.90917],[-0.01382,39.90671],[-0.01531,39.90563],[-0.01837,39.90366],[-0.02071,39.90279],[-0.0221,39.90217],[-0.02607,39.89942],[-0.02707,39.89864],[-0.02904,39.89683],[-0.03122,39.89547],[-0.03547,39.89231],[-0.03703,39.89089],[-0.03842,39.88911],[-0.04015,39.88715],[-0.04304,39.88466],[-0.0461,39.88277],[-0.04763,39.88164],[-0.04894,39.88049],[-0.05199,39.87819],[-0.04973,39.8799],[-0.05043,39.88051],[-0.05278,39.87883],[-0.05322,39.87922],[-0.05401,39.87952],[-0.05441,39.87946],[-0.0551,39.87919],[-0.05592,39.87922],[-0.0568,39.87986],[-0.05728,39.88001],[-0.05778,39.88001],[-0.05813,39.87981],[-0.05856,39.87972],[-0.05899,39.87975],[-0.05937,39.87995],[-0.05988,39.88051],[-0.06087,39.88213],[-0.06186,39.88304],[-0.06181,39.88378],[-0.06189,39.88405],[-0.06219,39.88431],[-0.06272,39.88426],[-0.06361,39.88393],[-0.06401,39.88399],[-0.06422,39.88415],[-0.06386,39.88539],[-0.06413,39.88623],[-0.06449,39.88664],[-0.06606,39.88736],[-0.06695,39.88729],[-0.06766,39.8869],[-0.06807,39.88641],[-0.06879,39.8858],[-0.06956,39.88541],[-0.07036,39.88521],[-0.07157,39.88564],[-0.07203,39.8861],[-0.07288,39.88653],[-0.07332,39.88691],[-0.07371,39.88747],[-0.07403,39.88766],[-0.07441,39.88777],[-0.07443,39.88612],[-0.07625,39.88703],[-0.07656,39.88671],[-0.07865,39.88807],[-0.07893,39.8878],[-0.07975,39.88824],[-0.08029,39.88854],[-0.08019,39.88871],[-0.08125,39.88902],[-0.08259,39.88921],[-0.08271,39.88932],[-0.08238,39.88943],[-0.08186,39.88982],[-0.08139,39.89058],[-0.08182,39.89079],[-0.08179,39.89118],[-0.08035,39.89127],[-0.07985,39.89122],[-0.07861,39.89078],[-0.07733,39.89207],[-0.0805,39.89399],[-0.07958,39.89505],[-0.07892,39.8963],[-0.07891,39.89728],[-0.07868,39.89833],[-0.0777,39.89942],[-0.07913,39.89943],[-0.08304,39.89887],[-0.08452,39.89857],[-0.08453,39.89923],[-0.08517,39.90033],[-0.08669,39.90132],[-0.08776,39.90166],[-0.08889,39.9018],[-0.09079,39.90175],[-0.09487,39.90318],[-0.0953,39.90369],[-0.09562,39.90385],[-0.09625,39.90395],[-0.09624,39.90409],[-0.09474,39.90635],[-0.09258,39.90761],[-0.09084,39.90911],[-0.09164,39.90976],[-0.09223,39.91192],[-0.09189,39.91192],[-0.09046,39.91143],[-0.09012,39.91144],[-0.09059,39.91319],[-0.08837,39.91548],[-0.08746,39.91489],[-0.08678,39.91545],[-0.08777,39.91764],[-0.08366,39.92094],[-0.08069,39.92093],[-0.07873,39.9218],[-0.07382,39.92436],[-0.07161,39.92617],[-0.06879,39.92751],[-0.0664,39.92879],[-0.06487,39.92902],[-0.06278,39.93044],[-0.06197,39.93233],[-0.06108,39.9329],[-0.05941,39.93155],[-0.05688,39.92973],[-0.05584,39.92922],[-0.05515,39.92897],[-0.05019,39.92776],[-0.04487,39.92625],[-0.04398,39.92587],[-0.04353,39.92557],[-0.04227,39.92505],[-0.04131,39.9244],[-0.04067,39.92412],[-0.03724,39.9232]]]}},{"type":"Feature","properties":{"id":"1203201005"},"geometry":{"type":"Polygon","coordinates":[[[-0.07858,39.88615],[-0.0802,39.88459],[-0.07957,39.88417],[-0.08124,39.88388],[-0.08184,39.88503],[-0.07984,39.88689],[-0.07858,39.88615]]]}},{"type":"Feature","properties":{"id":"1203201006"},"geometry":{"type":"Polygon","coordinates":[[[-0.0782,39.87805],[-0.08124,39.88388],[-0.07957,39.88417],[-0.0802,39.88459],[-0.07858,39.88615],[-0.07642,39.88482],[-0.07442,39.88613],[-0.06952,39.88373],[-0.07626,39.8786],[-0.0769,39.8784],[-0.07756,39.87801],[-0.0782,39.87805]]]}},{"type":"Feature","properties":{"id":"1203202001"},"geometry":{"type":"Polygon","coordinates":[[[-0.0874,39.89154],[-0.0844,39.89093],[-0.08292,39.89045],[-0.0863,39.88895],[-0.08762,39.89121],[-0.0874,39.89154]]]}},{"type":"Feature","properties":{"id":"1203202002"},"geometry":{"type":"Polygon","coordinates":[[[-0.07892,39.8963],[-0.07958,39.89505],[-0.0805,39.89399],[-0.07733,39.89207],[-0.07861,39.89078],[-0.07985,39.89122],[-0.08035,39.89127],[-0.08179,39.89118],[-0.08182,39.89079],[-0.08205,39.8908],[-0.08292,39.89045],[-0.0844,39.89093],[-0.0874,39.89154],[-0.08686,39.89202],[-0.0856,39.89249],[-0.08502,39.89159],[-0.08166,39.89309],[-0.08152,39.89519],[-0.08304,39.89887],[-0.07913,39.89943],[-0.0777,39.89942],[-0.07868,39.89833],[-0.07891,39.89728],[-0.07892,39.8963]]]}},{"type":"Feature","properties":{"id":"1203202003"},"geometry":{"type":"Polygon","coordinates":[[[-0.08303,39.89885],[-0.08152,39.89519],[-0.08166,39.89309],[-0.08502,39.89159],[-0.0856,39.89249],[-0.08686,39.89202],[-0.0874,39.89154],[-0.08871,39.89195],[-0.08671,39.89277],[-0.08709,39.8933],[-0.08467,39.89434],[-0.08391,39.89439],[-0.08467,39.898],[-0.08452,39.89857],[-0.08303,39.89885]]]}},{"type":"Feature","properties":{"id":"1203202004"},"geometry":{"type":"Polygon","coordinates":[[[-0.08467,39.89434],[-0.08709,39.8933],[-0.08671,39.89277],[-0.08871,39.89195],[-0.09094,39.89266],[-0.09431,39.89423],[-0.09329,39.89498],[-0.0911,39.89603],[-0.08461,39.89815],[-0.08467,39.898],[-0.08391,39.89439],[-0.08467,39.89434]]]}},{"type":"Feature","properties":{"id":"1203203001"},"geometry":{"type":"Polygon","coordinates":[[[-0.08624,39.88898],[-0.08449,39.88747],[-0.08622,39.88572],[-0.08776,39.88584],[-0.08755,39.88641],[-0.08696,39.88716],[-0.0868,39.88783],[-0.08692,39.88849],[-0.08643,39.88888],[-0.08624,39.88898]]]}},{"type":"Feature","properties":{"id":"1203203002"},"geometry":{"type":"Polygon","coordinates":[[[-0.08151,39.88534],[-0.08184,39.88503],[-0.08236,39.8855],[-0.08371,39.88586],[-0.08563,39.88569],[-0.08622,39.88572],[-0.08449,39.88747],[-0.08225,39.88603],[-0.08151,39.88534]]]}},{"type":"Feature","properties":{"id":"1203203003"},"geometry":{"type":"Polygon","coordinates":[[[-0.08776,39.88584],[-0.09019,39.88606],[-0.09164,39.88523],[-0.08996,39.88477],[-0.09025,39.88419],[-0.09483,39.88563],[-0.0899,39.8875],[-0.08692,39.88849],[-0.0868,39.88783],[-0.08696,39.88716],[-0.08755,39.88641],[-0.08776,39.88584]]]}},{"type":"Feature","properties":{"id":"1203203004"},"geometry":{"type":"Polygon","coordinates":[[[-0.08109,39.88211],[-0.08276,39.88097],[-0.0832,39.88134],[-0.08304,39.8815],[-0.08536,39.88364],[-0.08669,39.88522],[-0.08622,39.88572],[-0.08481,39.88577],[-0.08372,39.88495],[-0.08255,39.88381],[-0.08109,39.88211]]]}},{"type":"Feature","properties":{"id":"1203203005"},"geometry":{"type":"Polygon","coordinates":[[[-0.08184,39.88503],[-0.0805,39.88247],[-0.08107,39.88209],[-0.08255,39.88381],[-0.08372,39.88495],[-0.08481,39.88577],[-0.08395,39.88587],[-0.08283,39.88565],[-0.08236,39.8855],[-0.08184,39.88503]]]}},{"type":"Feature","properties":{"id":"1203203006"},"geometry":{"type":"Polygon","coordinates":[[[-0.09019,39.88606],[-0.08622,39.88572],[-0.08669,39.88522],[-0.08536,39.88364],[-0.08304,39.8815],[-0.0832,39.88134],[-0.08112,39.87924],[-0.08201,39.87837],[-0.08275,39.87787],[-0.08371,39.87734],[-0.0841,39.87737],[-0.08505,39.87685],[-0.08585,39.87763],[-0.08646,39.87805],[-0.087,39.87888],[-0.08594,39.87986],[-0.08606,39.88119],[-0.08802,39.8822],[-0.08895,39.88137],[-0.0901,39.88217],[-0.08834,39.88373],[-0.09025,39.88419],[-0.08996,39.88477],[-0.09164,39.88523],[-0.09019,39.88606]]]}},{"type":"Feature","properties":{"id":"1203204001"},"geometry":{"type":"Polygon","coordinates":[[[-0.0874,39.89154],[-0.08762,39.89121],[-0.08632,39.88906],[-0.0863,39.88895],[-0.08643,39.88888],[-0.0869,39.88902],[-0.08776,39.88896],[-0.08908,39.89011],[-0.08978,39.89088],[-0.08869,39.89195],[-0.0874,39.89154]]]}},{"type":"Feature","properties":{"id":"1203204002"},"geometry":{"type":"Polygon","coordinates":[[[-0.08908,39.89011],[-0.08776,39.88896],[-0.0869,39.88902],[-0.08643,39.88888],[-0.08695,39.88848],[-0.08937,39.88769],[-0.09111,39.8899],[-0.08908,39.89011]]]}},{"type":"Feature","properties":{"id":"1203204003"},"geometry":{"type":"Polygon","coordinates":[[[-0.08453,39.89923],[-0.08461,39.89815],[-0.0911,39.89603],[-0.09207,39.89561],[-0.09329,39.89498],[-0.09431,39.89423],[-0.09094,39.89266],[-0.08869,39.89195],[-0.08978,39.89088],[-0.08906,39.89014],[-0.08936,39.89004],[-0.09111,39.8899],[-0.09163,39.89059],[-0.09367,39.8904],[-0.09339,39.88971],[-0.0944,39.88963],[-0.09527,39.8893],[-0.09439,39.8878],[-0.09618,39.88709],[-0.09509,39.88584],[-0.09521,39.8858],[-0.0946,39.88551],[-0.09025,39.88419],[-0.08834,39.88373],[-0.097,39.87602],[-0.0987,39.87389],[-0.09984,39.87328],[-0.10051,39.87266],[-0.09963,39.87204],[-0.0982,39.8704],[-0.09783,39.87019],[-0.09535,39.86811],[-0.09513,39.86753],[-0.09257,39.86522],[-0.09161,39.86403],[-0.09035,39.86285],[-0.08982,39.86265],[-0.08932,39.86232],[-0.08871,39.86164],[-0.091,39.86012],[-0.09284,39.85849],[-0.09184,39.85754],[-0.09234,39.85713],[-0.09876,39.85255],[-0.10266,39.85063],[-0.10301,39.85053],[-0.10364,39.84993],[-0.10427,39.8491],[-0.10559,39.84653],[-0.11762,39.85356],[-0.1206,39.85512],[-0.12315,39.85629],[-0.12408,39.85686],[-0.12534,39.85785],[-0.12547,39.858],[-0.12556,39.8584],[-0.1259,39.85852],[-0.12862,39.86051],[-0.12886,39.86147],[-0.12908,39.86193],[-0.13012,39.86258],[-0.13263,39.86449],[-0.133,39.8647],[-0.13373,39.86489],[-0.13528,39.86498],[-0.13631,39.86542],[-0.13789,39.86647],[-0.13645,39.86737],[-0.13547,39.86782],[-0.13257,39.86949],[-0.13054,39.87074],[-0.12996,39.87128],[-0.12761,39.87438],[-0.1257,39.87524],[-0.12395,39.8758],[-0.1195,39.87679],[-0.11476,39.87971],[-0.11317,39.88045],[-0.11202,39.88111],[-0.11054,39.88242],[-0.10919,39.88337],[-0.10941,39.88355],[-0.10945,39.88372],[-0.10907,39.88434],[-0.10917,39.88467],[-0.109,39.88576],[-0.10857,39.88764],[-0.10809,39.88913],[-0.10772,39.88964],[-0.10665,39.89062],[-0.1063,39.89088],[-0.10548,39.89121],[-0.10472,39.89194],[-0.1035,39.89391],[-0.10231,39.89528],[-0.10209,39.89566],[-0.10467,39.8965],[-0.10354,39.89796],[-0.10224,39.89883],[-0.10128,39.89922],[-0.09754,39.90149],[-0.09611,39.90205],[-0.09561,39.90204],[-0.0955,39.90221],[-0.09566,39.90309],[-0.09629,39.90374],[-0.09628,39.90403],[-0.09624,39.90409],[-0.09625,39.90395],[-0.09562,39.90385],[-0.0953,39.90369],[-0.09487,39.90318],[-0.09079,39.90175],[-0.08889,39.9018],[-0.08776,39.90166],[-0.08669,39.90132],[-0.08517,39.90033],[-0.08453,39.89923]]]}},{"type":"Feature","properties":{"id":"1203204004"},"geometry":{"type":"Polygon","coordinates":[[[-0.09163,39.89059],[-0.08937,39.88769],[-0.09227,39.88662],[-0.09276,39.88839],[-0.09367,39.8904],[-0.09163,39.89059]]]}},{"type":"Feature","properties":{"id":"1203204005"},"geometry":{"type":"Polygon","coordinates":[[[-0.09227,39.88662],[-0.09483,39.88563],[-0.09521,39.8858],[-0.09509,39.88584],[-0.09618,39.88709],[-0.09439,39.8878],[-0.09527,39.8893],[-0.0944,39.88963],[-0.09339,39.88971],[-0.09276,39.88839],[-0.09227,39.88662]]]}},{"type":"Feature","properties":{"id":"1203205001"},"geometry":{"type":"Polygon","coordinates":[[[-0.05199,39.87819],[-0.05935,39.87333],[-0.0602,39.87259],[-0.06159,39.87186],[-0.06368,39.87038],[-0.06626,39.86823],[-0.06764,39.86658],[-0.06905,39.86433],[-0.06872,39.86387],[-0.06646,39.86185],[-0.06623,39.86143],[-0.06628,39.85888],[-0.06696,39.85776],[-0.0672,39.85775],[-0.06733,39.85795],[-0.06687,39.85905],[-0.06696,39.86145],[-0.06804,39.86264],[-0.06905,39.8614],[-0.06942,39.86127],[-0.06958,39.86142],[-0.06942,39.86182],[-0.06862,39.86277],[-0.06866,39.86297],[-0.07074,39.86472],[-0.07141,39.8647],[-0.07243,39.86438],[-0.07336,39.86397],[-0.07416,39.86345],[-0.07467,39.86299],[-0.07507,39.86244],[-0.07044,39.85953],[-0.06974,39.85927],[-0.06888,39.85919],[-0.0687,39.85907],[-0.0689,39.85885],[-0.06917,39.8588],[-0.07028,39.85891],[-0.07593,39.86244],[-0.0763,39.86248],[-0.07186,39.86591],[-0.0782,39.87805],[-0.07756,39.87801],[-0.0769,39.8784],[-0.07626,39.8786],[-0.06952,39.88373],[-0.07442,39.88613],[-0.07441,39.88777],[-0.07371,39.88747],[-0.07332,39.88691],[-0.07288,39.88653],[-0.07203,39.8861],[-0.07157,39.88564],[-0.07036,39.88521],[-0.06956,39.88541],[-0.06879,39.8858],[-0.06807,39.88641],[-0.06766,39.8869],[-0.06695,39.88729],[-0.06606,39.88736],[-0.06502,39.88692],[-0.06449,39.88664],[-0.06413,39.88623],[-0.06396,39.88578],[-0.06386,39.88539],[-0.06422,39.88415],[-0.06401,39.88399],[-0.06361,39.88393],[-0.06272,39.88426],[-0.06219,39.88431],[-0.06189,39.88405],[-0.06181,39.88378],[-0.06186,39.88304],[-0.06087,39.88213],[-0.05988,39.88051],[-0.05937,39.87995],[-0.05899,39.87975],[-0.05856,39.87972],[-0.05813,39.87981],[-0.05778,39.88001],[-0.05728,39.88001],[-0.0568,39.87986],[-0.05592,39.87922],[-0.0551,39.87919],[-0.05441,39.87946],[-0.05401,39.87952],[-0.05322,39.87922],[-0.05278,39.87883],[-0.05043,39.88051],[-0.04973,39.8799],[-0.05199,39.87819]]]}},{"type":"Feature","properties":{"id":"1203205002"},"geometry":{"type":"Polygon","coordinates":[[[-0.0805,39.88247],[-0.07186,39.86591],[-0.07498,39.86356],[-0.07811,39.86527],[-0.08033,39.86673],[-0.08501,39.87095],[-0.08605,39.87154],[-0.08695,39.87229],[-0.08715,39.87391],[-0.08568,39.87523],[-0.08554,39.87563],[-0.08483,39.87654],[-0.08505,39.87685],[-0.0841,39.87737],[-0.08371,39.87734],[-0.08275,39.87787],[-0.08201,39.87837],[-0.08112,39.87924],[-0.08279,39.88095],[-0.0805,39.88247]]]}},{"type":"Feature","properties":{"id":"1203205003"},"geometry":{"type":"Polygon","coordinates":[[[-0.0863,39.88136],[-0.08602,39.88107],[-0.08588,39.88],[-0.08612,39.87967],[-0.087,39.87888],[-0.08646,39.87805],[-0.08585,39.87763],[-0.08483,39.87654],[-0.08554,39.87563],[-0.08568,39.87523],[-0.08715,39.87391],[-0.08695,39.87229],[-0.08605,39.87154],[-0.08501,39.87095],[-0.08033,39.86673],[-0.07811,39.86527],[-0.07496,39.86355],[-0.07599,39.86264],[-0.07673,39.86232],[-0.07814,39.86143],[-0.07993,39.85998],[-0.08401,39.85631],[-0.08884,39.85085],[-0.09085,39.84801],[-0.09647,39.84131],[-0.10559,39.84653],[-0.10427,39.8491],[-0.10364,39.84993],[-0.10301,39.85053],[-0.10266,39.85063],[-0.09876,39.85255],[-0.09234,39.85713],[-0.09184,39.85754],[-0.09284,39.85849],[-0.091,39.86012],[-0.08871,39.86164],[-0.08932,39.86232],[-0.08982,39.86265],[-0.09035,39.86285],[-0.09161,39.86403],[-0.09257,39.86522],[-0.09513,39.86753],[-0.09535,39.86811],[-0.09783,39.87019],[-0.0982,39.8704],[-0.09963,39.87204],[-0.10051,39.87266],[-0.09984,39.87328],[-0.0987,39.87389],[-0.097,39.87602],[-0.0901,39.88217],[-0.08895,39.88137],[-0.08802,39.8822],[-0.0863,39.88136]]]}}]}