{"type":"FeatureCollection","features":[{"type":"Feature","properties":{"id":"1208201001"},"geometry":{"type":"Polygon","coordinates":[[[-0.15297,39.85177],[-0.1572,39.85417],[-0.15643,39.85501],[-0.15519,39.85432],[-0.15506,39.85445],[-0.154,39.85384],[-0.15323,39.85458],[-0.15151,39.85595],[-0.15043,39.8552],[-0.15132,39.85432],[-0.15297,39.85177]]]}},{"type":"Feature","properties":{"id":"1208201002"},"geometry":{"type":"Polygon","coordinates":[[[-0.16972,39.8959],[-0.16958,39.89487],[-0.16923,39.89421],[-0.16864,39.89356],[-0.16837,39.89302],[-0.16883,39.89302],[-0.1672,39.89141],[-0.16658,39.89028],[-0.16485,39.88941],[-0.16395,39.88863],[-0.16272,39.88822],[-0.16158,39.88692],[-0.16017,39.88628],[-0.15946,39.88575],[-0.15885,39.88509],[-0.1573,39.8844],[-0.15284,39.88299],[-0.15129,39.88272],[-0.15069,39.88252],[-0.14946,39.88171],[-0.14834,39.88026],[-0.14778,39.87981],[-0.14698,39.87935],[-0.14644,39.87881],[-0.1459,39.87807],[-0.14501,39.87747],[-0.14437,39.87691],[-0.1437,39.87559],[-0.14267,39.87238],[-0.14238,39.87187],[-0.14034,39.86985],[-0.13888,39.868],[-0.13735,39.86674],[-0.13789,39.86647],[-0.13631,39.86542],[-0.13559,39.8651],[-0.13501,39.86495],[-0.13373,39.86489],[-0.133,39.8647],[-0.13234,39.8643],[-0.13101,39.86323],[-0.12908,39.86193],[-0.12886,39.86147],[-0.12862,39.86051],[-0.1259,39.85852],[-0.12556,39.8584],[-0.12547,39.858],[-0.12518,39.85769],[-0.12354,39.85649],[-0.1206,39.85512],[-0.11594,39.85262],[-0.11108,39.84971],[-0.09647,39.84131],[-0.09877,39.83824],[-0.09972,39.83655],[-0.10059,39.83555],[-0.10257,39.83344],[-0.10324,39.83301],[-0.10359,39.83232],[-0.10496,39.83113],[-0.10552,39.83078],[-0.10631,39.83001],[-0.10741,39.82921],[-0.10744,39.82878],[-0.10781,39.82859],[-0.10823,39.82807],[-0.10813,39.82758],[-0.10876,39.82736],[-0.10877,39.82709],[-0.10901,39.8267],[-0.11086,39.82434],[-0.11173,39.82346],[-0.11205,39.82294],[-0.11457,39.81999],[-0.11762,39.81669],[-0.11817,39.81624],[-0.11962,39.81391],[-0.1222,39.81068],[-0.12343,39.80888],[-0.12617,39.80968],[-0.13052,39.81158],[-0.132,39.8124],[-0.14031,39.8165],[-0.14139,39.81678],[-0.14809,39.81908],[-0.15292,39.8206],[-0.15371,39.82096],[-0.15455,39.81975],[-0.15948,39.8154],[-0.16014,39.81465],[-0.16101,39.81387],[-0.16162,39.81364],[-0.1624,39.81289],[-0.16307,39.81188],[-0.16416,39.80949],[-0.1709,39.81328],[-0.17177,39.81357],[-0.17212,39.81359],[-0.17128,39.81605],[-0.17189,39.81629],[-0.17432,39.81684],[-0.1724,39.83194],[-0.17519,39.83343],[-0.1761,39.83401],[-0.17809,39.83494],[-0.1805,39.83687],[-0.18325,39.83853],[-0.18752,39.84157],[-0.1905,39.84353],[-0.19208,39.8449],[-0.19568,39.84731],[-0.20193,39.8513],[-0.20506,39.85295],[-0.20564,39.85338],[-0.20697,39.85501],[-0.20945,39.85542],[-0.21086,39.85505],[-0.21264,39.85521],[-0.21353,39.85534],[-0.21461,39.85601],[-0.21521,39.8565],[-0.21573,39.85799],[-0.21599,39.86074],[-0.21785,39.86152],[-0.21884,39.86182],[-0.22307,39.86242],[-0.22673,39.86064],[-0.22762,39.8606],[-0.22832,39.86086],[-0.22926,39.86105],[-0.23049,39.86112],[-0.23598,39.86102],[-0.22897,39.86712],[-0.21932,39.87624],[-0.21641,39.87932],[-0.21125,39.88547],[-0.20845,39.88836],[-0.20427,39.89146],[-0.20265,39.89287],[-0.19839,39.8975],[-0.19723,39.89889],[-0.19475,39.89668],[-0.19356,39.89546],[-0.19014,39.89559],[-0.1885,39.89553],[-0.18752,39.89557],[-0.18374,39.89507],[-0.18235,39.89511],[-0.17944,39.89502],[-0.17484,39.89567],[-0.17286,39.89585],[-0.16972,39.8959]],[[-0.20785,39.87393],[-0.20972,39.87311],[-0.21065,39.87085],[-0.21112,39.87033],[-0.21301,39.86867],[-0.21314,39.86633],[-0.2134,39.86585],[-0.21384,39.86537],[-0.21463,39.86478],[-0.21522,39.86452],[-0.21292,39.86225],[-0.21149,39.86216],[-0.20928,39.86163],[-0.20885,39.86169],[-0.20649,39.86256],[-0.20619,39.86258],[-0.20566,39.86244],[-0.20504,39.86214],[-0.20483,39.86215],[-0.20421,39.86251],[-0.20234,39.86154],[-0.2006,39.8609],[-0.199,39.86051],[-0.19791,39.85991],[-0.19663,39.85857],[-0.19621,39.85784],[-0.19606,39.85727],[-0.19624,39.85503],[-0.19704,39.8531],[-0.19701,39.85281],[-0.19659,39.85248],[-0.19666,39.85201],[-0.19591,39.85179],[-0.19506,39.85181],[-0.1924,39.85154],[-0.18927,39.85051],[-0.18887,39.85047],[-0.18682,39.85179],[-0.1859,39.85215],[-0.18364,39.85281],[-0.18141,39.85312],[-0.17984,39.85277],[-0.17781,39.85205],[-0.17512,39.85092],[-0.17478,39.85138],[-0.17382,39.85125],[-0.17203,39.85319],[-0.17505,39.85491],[-0.17626,39.85548],[-0.17649,39.85573],[-0.17491,39.85758],[-0.1745,39.85784],[-0.17437,39.85826],[-0.17356,39.85843],[-0.17282,39.85946],[-0.17177,39.86047],[-0.16971,39.86091],[-0.17007,39.86132],[-0.17157,39.86232],[-0.17196,39.86296],[-0.17324,39.86357],[-0.17372,39.86413],[-0.17441,39.86467],[-0.17713,39.86613],[-0.17962,39.86723],[-0.18031,39.86786],[-0.18093,39.86817],[-0.18227,39.86867],[-0.18553,39.86934],[-0.18667,39.86991],[-0.18753,39.87043],[-0.1889,39.87194],[-0.19036,39.87328],[-0.19432,39.87543],[-0.19634,39.87725],[-0.1977,39.8768],[-0.19829,39.87676],[-0.20101,39.87757],[-0.20204,39.87712],[-0.20246,39.8771],[-0.20511,39.87579],[-0.2069,39.87449],[-0.20785,39.87393]],[[-0.16105,39.85966],[-0.1625,39.85677],[-0.16259,39.8568],[-0.16269,39.8567],[-0.16278,39.85649],[-0.16266,39.85645],[-0.16272,39.85633],[-0.1642,39.85651],[-0.16672,39.85652],[-0.16905,39.85674],[-0.16911,39.85659],[-0.16821,39.85636],[-0.16371,39.85451],[-0.16554,39.85073],[-0.16595,39.84903],[-0.16549,39.84887],[-0.16608,39.84863],[-0.16623,39.84842],[-0.16609,39.84816],[-0.1642,39.84704],[-0.16291,39.84644],[-0.16128,39.84543],[-0.16084,39.84607],[-0.16017,39.84568],[-0.15964,39.84663],[-0.15911,39.84708],[-0.15893,39.84742],[-0.15833,39.84804],[-0.15754,39.84853],[-0.15672,39.84807],[-0.15636,39.84847],[-0.15624,39.84841],[-0.15479,39.84997],[-0.15397,39.84962],[-0.15322,39.85187],[-0.15297,39.85177],[-0.15132,39.85432],[-0.15043,39.8552],[-0.15151,39.85595],[-0.15409,39.85385],[-0.15501,39.85439],[-0.15223,39.85715],[-0.15256,39.85737],[-0.15284,39.85799],[-0.1545,39.85893],[-0.15519,39.85856],[-0.15578,39.85789],[-0.15856,39.85932],[-0.15924,39.85868],[-0.16105,39.85966]]]}},{"type":"Feature","properties":{"id":"1208201003"},"geometry":{"type":"Polygon","coordinates":[[[-0.15501,39.85439],[-0.15506,39.85445],[-0.15519,39.85432],[-0.15643,39.85501],[-0.15587,39.8556],[-0.15987,39.85774],[-0.15978,39.85785],[-0.16141,39.85891],[-0.16105,39.85966],[-0.15924,39.85868],[-0.15856,39.85932],[-0.15578,39.85789],[-0.15519,39.85856],[-0.1545,39.85893],[-0.15284,39.85799],[-0.15256,39.85737],[-0.15223,39.85715],[-0.15501,39.85439]]]}},{"type":"Feature","properties":{"id":"1208201004"},"geometry":{"type":"Polygon","coordinates":[[[-0.15587,39.8556],[-0.15752,39.85381],[-0.15983,39.85518],[-0.16015,39.85479],[-0.16151,39.85543],[-0.16106,39.856],[-0.16278,39.85649],[-0.16259,39.8568],[-0.1625,39.85677],[-0.16141,39.85891],[-0.15978,39.85785],[-0.15987,39.85774],[-0.15587,39.8556]]]}},{"type":"Feature","properties":{"id":"1208202001"},"geometry":{"type":"Polygon","coordinates":[[[-0.15432,39.85248],[-0.15608,39.85071],[-0.15715,39.85128],[-0.15779,39.85179],[-0.15837,39.85286],[-0.1572,39.85417],[-0.15432,39.85248]]]}},{"type":"Feature","properties":{"id":"1208202002"},"geometry":{"type":"Polygon","coordinates":[[[-0.16104,39.85072],[-0.16477,39.85233],[-0.16371,39.85451],[-0.16821,39.85636],[-0.16911,39.85659],[-0.16905,39.85674],[-0.16672,39.85652],[-0.1642,39.85651],[-0.16272,39.85633],[-0.16266,39.85645],[-0.16106,39.856],[-0.16151,39.85543],[-0.16015,39.85479],[-0.15983,39.85518],[-0.15752,39.85381],[-0.16002,39.85119],[-0.16104,39.85072]]]}},{"type":"Feature","properties":{"id":"1208202003"},"geometry":{"type":"Polygon","coordinates":[[[-0.15753,39.84853],[-0.15749,39.84858],[-0.1579,39.84878],[-0.1561,39.85071],[-0.15707,39.85124],[-0.15608,39.85071],[-0.15432,39.85248],[-0.15328,39.85192],[-0.15322,39.85187],[-0.15397,39.84962],[-0.15479,39.84997],[-0.15624,39.84841],[-0.15636,39.84847],[-0.15672,39.84807],[-0.15753,39.84853]]]}},{"type":"Feature","properties":{"id":"1208202004"},"geometry":{"type":"Polygon","coordinates":[[[-0.16477,39.85233],[-0.16104,39.85072],[-0.16064,39.85088],[-0.15949,39.84759],[-0.15855,39.8482],[-0.1579,39.84878],[-0.15749,39.84858],[-0.15833,39.84804],[-0.15893,39.84742],[-0.15911,39.84708],[-0.15964,39.84663],[-0.16017,39.84568],[-0.16084,39.84607],[-0.16128,39.84543],[-0.16291,39.84644],[-0.1642,39.84704],[-0.16609,39.84816],[-0.16623,39.84842],[-0.16608,39.84863],[-0.16549,39.84887],[-0.16595,39.84903],[-0.16554,39.85073],[-0.16477,39.85233]]]}},{"type":"Feature","properties":{"id":"1208202005"},"geometry":{"type":"Polygon","coordinates":[[[-0.15707,39.85124],[-0.1561,39.85071],[-0.1582,39.84848],[-0.15949,39.84759],[-0.16064,39.85088],[-0.16002,39.85119],[-0.15837,39.85286],[-0.15779,39.85179],[-0.15707,39.85124]]]}}]}