{"type":"FeatureCollection","features":[{"type":"Feature","properties":{"id":"1290101001"},"geometry":{"type":"Polygon","coordinates":[[[-0.10936,39.90427],[-0.10607,39.90384],[-0.10323,39.90389],[-0.10234,39.90414],[-0.10119,39.90295],[-0.10067,39.90278],[-0.0991,39.90286],[-0.09828,39.90307],[-0.09646,39.90376],[-0.09628,39.90403],[-0.09629,39.90374],[-0.09566,39.90309],[-0.0955,39.90221],[-0.09561,39.90204],[-0.09611,39.90205],[-0.09754,39.90149],[-0.10128,39.89922],[-0.10224,39.89883],[-0.10337,39.89811],[-0.1037,39.89778],[-0.10467,39.8965],[-0.10209,39.89566],[-0.10231,39.89528],[-0.1035,39.89391],[-0.10454,39.89216],[-0.10476,39.89236],[-0.10606,39.89305],[-0.10817,39.894],[-0.11214,39.89533],[-0.11123,39.89675],[-0.11009,39.89899],[-0.11685,39.89966],[-0.1183,39.89887],[-0.1192,39.89779],[-0.1207,39.89827],[-0.11685,39.90448],[-0.11596,39.90689],[-0.11531,39.90658],[-0.11387,39.90557],[-0.10936,39.90427]]]}},{"type":"Feature","properties":{"id":"1290101002"},"geometry":{"type":"Polygon","coordinates":[[[-0.11596,39.90689],[-0.11685,39.90448],[-0.1207,39.89827],[-0.11803,39.89734],[-0.11778,39.8976],[-0.11462,39.89647],[-0.11442,39.89676],[-0.11388,39.89656],[-0.11415,39.89619],[-0.11384,39.89601],[-0.11389,39.89592],[-0.10817,39.894],[-0.10606,39.89305],[-0.10476,39.89236],[-0.10454,39.89216],[-0.10548,39.89121],[-0.1063,39.89088],[-0.10665,39.89062],[-0.10772,39.88964],[-0.10809,39.88913],[-0.10857,39.88764],[-0.109,39.88576],[-0.10917,39.88467],[-0.10907,39.88434],[-0.10945,39.88372],[-0.10941,39.88355],[-0.10919,39.88337],[-0.11054,39.88242],[-0.11202,39.88111],[-0.11317,39.88045],[-0.11476,39.87971],[-0.1195,39.87679],[-0.12395,39.8758],[-0.1257,39.87524],[-0.12761,39.87438],[-0.12996,39.87128],[-0.13054,39.87074],[-0.13547,39.86782],[-0.13645,39.86737],[-0.13735,39.86674],[-0.13888,39.868],[-0.14034,39.86985],[-0.14238,39.87187],[-0.14267,39.87238],[-0.1437,39.87559],[-0.14437,39.87691],[-0.14501,39.87747],[-0.1459,39.87807],[-0.14644,39.87881],[-0.14698,39.87935],[-0.14778,39.87981],[-0.14834,39.88026],[-0.14946,39.88171],[-0.15069,39.88252],[-0.15129,39.88272],[-0.15284,39.88299],[-0.1573,39.8844],[-0.15885,39.88509],[-0.15946,39.88575],[-0.16017,39.88628],[-0.16158,39.88692],[-0.16272,39.88822],[-0.16395,39.88863],[-0.16485,39.88941],[-0.16658,39.89028],[-0.1672,39.89141],[-0.16883,39.89302],[-0.16731,39.89308],[-0.16657,39.89344],[-0.16454,39.89348],[-0.16183,39.89388],[-0.16054,39.89399],[-0.15786,39.89354],[-0.15721,39.89376],[-0.15667,39.89379],[-0.15566,39.89401],[-0.15257,39.89436],[-0.15073,39.89318],[-0.14877,39.89211],[-0.14775,39.8918],[-0.1464,39.89277],[-0.14575,39.89337],[-0.14413,39.89517],[-0.13837,39.89831],[-0.13703,39.89883],[-0.13613,39.89952],[-0.13424,39.90065],[-0.13314,39.90244],[-0.13313,39.90287],[-0.13245,39.90396],[-0.13198,39.90462],[-0.13106,39.90551],[-0.13064,39.90576],[-0.13042,39.90611],[-0.12816,39.90625],[-0.12741,39.90618],[-0.12588,39.90651],[-0.12517,39.90652],[-0.12364,39.90688],[-0.12309,39.9069],[-0.1217,39.9067],[-0.12086,39.90669],[-0.11913,39.90681],[-0.11798,39.90712],[-0.11596,39.90689]]]}},{"type":"Feature","properties":{"id":"1290101003"},"geometry":{"type":"Polygon","coordinates":[[[-0.11214,39.89533],[-0.11389,39.89592],[-0.11384,39.89601],[-0.11415,39.89619],[-0.11388,39.89656],[-0.11442,39.89676],[-0.11462,39.89647],[-0.11778,39.8976],[-0.11803,39.89734],[-0.1192,39.89779],[-0.1183,39.89887],[-0.11685,39.89966],[-0.11009,39.89899],[-0.11123,39.89675],[-0.11214,39.89533]]]}}]}