{"type":"FeatureCollection","features":[{"type":"Feature","properties":{"id":"1302001001"},"geometry":{"type":"Polygon","coordinates":[[[-4.04841,38.80306],[-4.04656,38.80281],[-4.04503,38.80273],[-4.04247,38.80344],[-4.03952,38.8039],[-4.03767,38.80437],[-4.0364,38.80457],[-4.03271,38.80436],[-4.02771,38.80101],[-4.02547,38.80129],[-4.02279,38.8018],[-4.01864,38.8002],[-4.0145,38.80093],[-4.01312,38.80098],[-4.01211,38.80067],[-4.01009,38.80133],[-4.00124,38.79918],[-4.00075,38.79876],[-3.99621,38.79609],[-3.99563,38.79505],[-3.99526,38.79405],[-3.99464,38.79159],[-3.99411,38.79064],[-3.99486,38.78768],[-3.99438,38.78409],[-3.99448,38.78219],[-3.99374,38.77925],[-3.99018,38.77658],[-3.98721,38.77559],[-3.98456,38.77498],[-3.98094,38.7738],[-3.97837,38.77308],[-3.97603,38.77251],[-3.97462,38.77236],[-3.97343,38.77233],[-3.97149,38.77302],[-3.96838,38.77362],[-3.96558,38.77383],[-3.95595,38.774],[-3.95087,38.77372],[-3.94982,38.77376],[-3.94576,38.77424],[-3.9448,38.77107],[-3.94406,38.77034],[-3.94095,38.76789],[-3.93643,38.76665],[-3.93528,38.76658],[-3.93323,38.76671],[-3.92817,38.76506],[-3.92717,38.76447],[-3.92696,38.76419],[-3.92693,38.7638],[-3.92753,38.76211],[-3.92661,38.75995],[-3.92832,38.75612],[-3.92732,38.75365],[-3.92765,38.7507],[-3.9256,38.7495],[-3.92666,38.7481],[-3.9278,38.74541],[-3.92745,38.74502],[-3.92603,38.74259],[-3.92516,38.7406],[-3.92553,38.7387],[-3.92766,38.73681],[-3.92391,38.73457],[-3.92292,38.73442],[-3.91979,38.73242],[-3.91954,38.73166],[-3.91953,38.72995],[-3.92033,38.72734],[-3.9202,38.72677],[-3.92029,38.72533],[-3.92047,38.72468],[-3.92992,38.72748],[-3.93709,38.73021],[-3.94005,38.73154],[-3.94268,38.73212],[-3.94859,38.73169],[-3.96282,38.73135],[-3.96828,38.73158],[-3.97416,38.73292],[-3.98044,38.73457],[-3.98336,38.73476],[-3.98657,38.73541],[-3.98971,38.73553],[-3.99313,38.73614],[-3.9987,38.73858],[-4.00145,38.73891],[-4.00434,38.73903],[-4.00675,38.73936],[-4.01174,38.74047],[-4.01432,38.74038],[-4.01781,38.74054],[-4.02158,38.74054],[-4.02548,38.73987],[-4.0297,38.73968],[-4.03373,38.7401],[-4.037,38.74104],[-4.04002,38.74131],[-4.04285,38.74138],[-4.04567,38.74136],[-4.04843,38.7409],[-4.05115,38.74001],[-4.05436,38.73965],[-4.05766,38.73854],[-4.06072,38.73721],[-4.06303,38.73581],[-4.0643,38.7344],[-4.06673,38.73205],[-4.06631,38.73167],[-4.06624,38.73135],[-4.06697,38.73033],[-4.06741,38.73015],[-4.06783,38.72976],[-4.06873,38.72962],[-4.06882,38.72915],[-4.06909,38.72889],[-4.06942,38.72881],[-4.06983,38.72891],[-4.07012,38.7288],[-4.0703,38.72856],[-4.07035,38.72817],[-4.07063,38.72782],[-4.07105,38.72774],[-4.07235,38.72722],[-4.07249,38.72696],[-4.0731,38.72656],[-4.07462,38.72663],[-4.07578,38.72628],[-4.07592,38.72637],[-4.07575,38.72712],[-4.07607,38.72794],[-4.07637,38.72838],[-4.07802,38.73017],[-4.07598,38.73006],[-4.07598,38.72977],[-4.07449,38.72985],[-4.07408,38.73126],[-4.07675,38.73137],[-4.07658,38.73171],[-4.07655,38.73208],[-4.07889,38.7322],[-4.07611,38.75359],[-4.07451,38.76499],[-4.07262,38.78016],[-4.07215,38.78308],[-4.06864,38.80015],[-4.06561,38.80355],[-4.06547,38.80422],[-4.06556,38.80535],[-4.05956,38.80511],[-4.05334,38.80404],[-4.04841,38.80306]]]}},{"type":"Feature","properties":{"id":"1302001002"},"geometry":{"type":"Polygon","coordinates":[[[-4.07608,38.72794],[-4.07759,38.72749],[-4.07913,38.72736],[-4.08045,38.72774],[-4.08252,38.72774],[-4.08246,38.73003],[-4.08318,38.72998],[-4.08314,38.73054],[-4.08348,38.73062],[-4.08349,38.73081],[-4.08649,38.73181],[-4.0855,38.73512],[-4.08779,38.73634],[-4.09182,38.73814],[-4.09585,38.74017],[-4.09848,38.74229],[-4.1003,38.74457],[-4.10163,38.74704],[-4.1032,38.74883],[-4.10636,38.75162],[-4.10928,38.75451],[-4.11156,38.75776],[-4.11357,38.76037],[-4.11243,38.76055],[-4.10991,38.76226],[-4.10888,38.76281],[-4.10586,38.7656],[-4.0981,38.77081],[-4.09506,38.77228],[-4.09303,38.77337],[-4.09208,38.77402],[-4.09011,38.77608],[-4.08782,38.77818],[-4.08659,38.78056],[-4.08517,38.78047],[-4.08424,38.78103],[-4.08017,38.78429],[-4.0771,38.78519],[-4.07528,38.78968],[-4.07408,38.79216],[-4.06988,38.79883],[-4.06864,38.80015],[-4.07215,38.78308],[-4.07262,38.78016],[-4.07451,38.76499],[-4.07611,38.75359],[-4.07889,38.7322],[-4.07655,38.73208],[-4.07658,38.73171],[-4.07675,38.73137],[-4.07408,38.73126],[-4.07449,38.72985],[-4.07598,38.72977],[-4.07598,38.73006],[-4.07802,38.73017],[-4.07637,38.72838],[-4.07608,38.72794]]]}},{"type":"Feature","properties":{"id":"1302002001"},"geometry":{"type":"Polygon","coordinates":[[[-3.92047,38.72468],[-3.92188,38.72066],[-3.92203,38.71974],[-3.92207,38.71815],[-3.92244,38.71682],[-3.92245,38.71533],[-3.92379,38.71306],[-3.92433,38.7124],[-3.92461,38.71222],[-3.92585,38.71201],[-3.92728,38.71155],[-3.92784,38.71123],[-3.92947,38.71116],[-3.93077,38.71134],[-3.93135,38.71127],[-3.93206,38.71101],[-3.93261,38.71102],[-3.93406,38.71077],[-3.93552,38.71002],[-3.93588,38.70869],[-3.93616,38.70688],[-3.93655,38.70691],[-3.93751,38.70679],[-3.93937,38.706],[-3.94145,38.70501],[-3.94201,38.70459],[-3.9423,38.70413],[-3.9427,38.70334],[-3.94282,38.7028],[-3.94142,38.70033],[-3.94209,38.69933],[-3.94337,38.69676],[-3.94375,38.69569],[-3.94387,38.69491],[-3.94611,38.69394],[-3.9479,38.69198],[-3.94891,38.69218],[-3.95708,38.69181],[-3.95761,38.69051],[-3.95959,38.69083],[-3.96281,38.6906],[-3.96492,38.69082],[-3.96893,38.69092],[-3.9731,38.6909],[-3.97537,38.69229],[-3.9808,38.6897],[-3.98175,38.6899],[-3.98737,38.69019],[-3.9974,38.69143],[-4.00018,38.69252],[-4.00311,38.69167],[-4.01006,38.69109],[-4.01056,38.6896],[-4.01136,38.68934],[-4.01585,38.68963],[-4.01888,38.68969],[-4.02045,38.68986],[-4.02572,38.68944],[-4.02693,38.68948],[-4.02984,38.69066],[-4.03178,38.69018],[-4.03401,38.69007],[-4.03815,38.69086],[-4.03938,38.69119],[-4.0428,38.69244],[-4.04258,38.69379],[-4.04547,38.6963],[-4.04572,38.69777],[-4.05242,38.69963],[-4.0553,38.70089],[-4.05848,38.70057],[-4.05914,38.70094],[-4.06032,38.70115],[-4.06273,38.7012],[-4.06435,38.70022],[-4.06623,38.69983],[-4.06809,38.69908],[-4.06962,38.69935],[-4.07048,38.69927],[-4.07222,38.69938],[-4.07287,38.69931],[-4.07365,38.6991],[-4.0756,38.6981],[-4.07738,38.69802],[-4.07818,38.69821],[-4.08177,38.69996],[-4.08627,38.69894],[-4.09674,38.70575],[-4.09828,38.70639],[-4.08977,38.71602],[-4.08708,38.71879],[-4.08542,38.71786],[-4.08373,38.71967],[-4.08428,38.71997],[-4.08305,38.72132],[-4.08268,38.72159],[-4.08257,38.72202],[-4.08254,38.72389],[-4.08262,38.72398],[-4.0808,38.726],[-4.08083,38.72683],[-4.08025,38.72702],[-4.08045,38.72774],[-4.07921,38.72737],[-4.0781,38.7274],[-4.07608,38.72794],[-4.07575,38.72712],[-4.07592,38.72637],[-4.07578,38.72628],[-4.07462,38.72663],[-4.0731,38.72656],[-4.07249,38.72696],[-4.07235,38.72722],[-4.07105,38.72774],[-4.07063,38.72782],[-4.07035,38.72817],[-4.0703,38.72856],[-4.07012,38.7288],[-4.06983,38.72891],[-4.06942,38.72881],[-4.06909,38.72889],[-4.06882,38.72915],[-4.06873,38.72962],[-4.06783,38.72976],[-4.06741,38.73015],[-4.06697,38.73033],[-4.06624,38.73135],[-4.06631,38.73167],[-4.06673,38.73205],[-4.0643,38.7344],[-4.06303,38.73581],[-4.06072,38.73721],[-4.05766,38.73854],[-4.05436,38.73965],[-4.05115,38.74001],[-4.04843,38.7409],[-4.04567,38.74136],[-4.04002,38.74131],[-4.037,38.74104],[-4.03373,38.7401],[-4.0297,38.73968],[-4.02548,38.73987],[-4.02158,38.74054],[-4.01781,38.74054],[-4.01432,38.74038],[-4.01174,38.74047],[-4.00675,38.73936],[-4.00434,38.73903],[-4.00145,38.73891],[-3.9987,38.73858],[-3.99313,38.73614],[-3.98971,38.73553],[-3.98657,38.73541],[-3.98336,38.73476],[-3.98044,38.73457],[-3.97416,38.73292],[-3.96828,38.73158],[-3.96282,38.73135],[-3.94859,38.73169],[-3.94268,38.73212],[-3.94005,38.73154],[-3.93709,38.73021],[-3.92992,38.72748],[-3.92047,38.72468]]]}},{"type":"Feature","properties":{"id":"1302002002"},"geometry":{"type":"Polygon","coordinates":[[[-4.08045,38.72773],[-4.08025,38.72702],[-4.08083,38.72683],[-4.0808,38.726],[-4.08262,38.72398],[-4.08254,38.72389],[-4.08257,38.72202],[-4.08268,38.72159],[-4.08305,38.72132],[-4.08428,38.71997],[-4.08373,38.71967],[-4.08542,38.71786],[-4.08708,38.71879],[-4.08977,38.71602],[-4.09828,38.70639],[-4.10022,38.7072],[-4.10421,38.70934],[-4.10863,38.70984],[-4.11754,38.70906],[-4.11838,38.70884],[-4.12318,38.70801],[-4.12342,38.70936],[-4.12352,38.7109],[-4.12414,38.7129],[-4.12444,38.71433],[-4.12321,38.72127],[-4.12366,38.72341],[-4.12385,38.72616],[-4.12426,38.7276],[-4.12472,38.72866],[-4.12567,38.73025],[-4.12614,38.73065],[-4.1277,38.73147],[-4.12704,38.73308],[-4.12865,38.73516],[-4.12767,38.73618],[-4.12782,38.73862],[-4.12669,38.74056],[-4.12613,38.74239],[-4.12614,38.74419],[-4.12629,38.74516],[-4.12382,38.74761],[-4.12332,38.74849],[-4.12217,38.75013],[-4.12178,38.751],[-4.1203,38.75358],[-4.12067,38.75482],[-4.11947,38.75497],[-4.11987,38.75588],[-4.11611,38.75841],[-4.11377,38.76034],[-4.11357,38.76037],[-4.11156,38.75776],[-4.10928,38.75451],[-4.10636,38.75162],[-4.1032,38.74883],[-4.10163,38.74704],[-4.1003,38.74457],[-4.09848,38.74229],[-4.09585,38.74017],[-4.09182,38.73814],[-4.08779,38.73634],[-4.0855,38.73512],[-4.08649,38.73181],[-4.08349,38.73081],[-4.08348,38.73062],[-4.08314,38.73054],[-4.08318,38.72998],[-4.08246,38.73003],[-4.08252,38.72774],[-4.08045,38.72773]]]}}]}