{"type":"FeatureCollection","features":[{"type":"Feature","properties":{"id":"1303201001"},"geometry":{"type":"Polygon","coordinates":[[[-2.97718,38.8541],[-2.97832,38.85266],[-2.98015,38.8506],[-2.9807,38.85031],[-2.98156,38.85004],[-2.98189,38.84977],[-2.98206,38.84843],[-2.98247,38.8478],[-2.98497,38.84609],[-2.98777,38.84484],[-2.98938,38.84396],[-2.98919,38.84377],[-2.98966,38.84163],[-2.99017,38.84148],[-2.99012,38.84195],[-2.98972,38.84295],[-2.99016,38.8431],[-2.99097,38.84242],[-2.99139,38.84237],[-2.9914,38.84225],[-2.99157,38.8423],[-2.99174,38.84202],[-2.99225,38.84208],[-2.99221,38.84264],[-2.99281,38.84281],[-2.9926,38.84221],[-2.99274,38.84167],[-2.99309,38.84169],[-2.99342,38.8412],[-2.99464,38.8422],[-2.99565,38.8426],[-2.99714,38.84365],[-2.99904,38.84462],[-2.99949,38.84502],[-3.00002,38.84581],[-3.00025,38.84594],[-3.00211,38.84652],[-3.0035,38.84666],[-3.00419,38.84706],[-3.00603,38.84768],[-3.00635,38.84792],[-3.00647,38.84826],[-3.00671,38.84851],[-3.00709,38.84878],[-3.00841,38.84928],[-3.01043,38.85044],[-3.01078,38.85085],[-3.01101,38.85133],[-3.01113,38.85295],[-3.01171,38.85327],[-3.01222,38.8538],[-3.01289,38.8539],[-3.00919,38.85495],[-3.00741,38.85573],[-3.00649,38.85626],[-3.00435,38.85833],[-3.00388,38.85865],[-3.00333,38.85892],[-3.00196,38.85938],[-2.99547,38.86333],[-2.97736,38.87388],[-2.97418,38.8685],[-2.97391,38.86573],[-2.97422,38.86498],[-2.97669,38.86222],[-2.97677,38.86118],[-2.97624,38.85886],[-2.97696,38.85453],[-2.97718,38.8541]]]}},{"type":"Feature","properties":{"id":"1303201002"},"geometry":{"type":"Polygon","coordinates":[[[-2.94345,38.85163],[-2.95277,38.8481],[-2.95398,38.84811],[-2.95524,38.84686],[-2.95958,38.84171],[-2.96134,38.83848],[-2.96212,38.83777],[-2.96331,38.83548],[-2.96546,38.83353],[-2.96949,38.83082],[-2.97032,38.83044],[-2.97171,38.82952],[-2.97237,38.82871],[-2.97472,38.82643],[-2.97526,38.82606],[-2.9765,38.82569],[-2.97986,38.82417],[-2.98093,38.82383],[-2.98441,38.8246],[-2.98511,38.82459],[-2.98612,38.82437],[-2.98752,38.82393],[-2.989,38.82365],[-2.99248,38.82278],[-2.99375,38.82231],[-2.99466,38.82136],[-2.99515,38.82113],[-2.99555,38.82111],[-2.9967,38.82129],[-2.99895,38.82205],[-3.0006,38.82238],[-3.00148,38.8228],[-3.00489,38.8254],[-3.00544,38.82597],[-3.00612,38.82739],[-3.0061,38.82832],[-3.0066,38.82911],[-3.0109,38.8302],[-3.01188,38.83055],[-3.01372,38.83161],[-3.01433,38.83215],[-3.01518,38.83272],[-3.01747,38.83396],[-3.01906,38.8352],[-3.01982,38.83553],[-3.02176,38.83698],[-3.02369,38.83759],[-3.02463,38.83802],[-3.02603,38.83902],[-3.02659,38.83972],[-3.02754,38.8415],[-3.02892,38.84303],[-3.02809,38.84297],[-3.02579,38.84377],[-3.02499,38.84385],[-3.02416,38.84415],[-3.02333,38.84546],[-3.02263,38.84601],[-3.02245,38.84696],[-3.02089,38.8483],[-3.0201,38.84913],[-3.014,38.85351],[-3.01289,38.8539],[-3.01222,38.8538],[-3.01171,38.85327],[-3.01113,38.85295],[-3.01104,38.85144],[-3.01057,38.85054],[-3.00841,38.84928],[-3.00709,38.84878],[-3.00647,38.84826],[-3.00635,38.84792],[-3.0061,38.84771],[-3.00419,38.84706],[-3.0035,38.84666],[-3.00211,38.84652],[-3.00025,38.84594],[-3.00002,38.84581],[-2.99949,38.84502],[-2.99904,38.84462],[-2.99714,38.84365],[-2.99565,38.8426],[-2.99464,38.8422],[-2.99342,38.8412],[-2.99309,38.84169],[-2.99274,38.84167],[-2.9926,38.84221],[-2.99281,38.84281],[-2.99221,38.84264],[-2.99225,38.84208],[-2.99174,38.84202],[-2.99157,38.8423],[-2.9914,38.84225],[-2.99139,38.84237],[-2.99097,38.84242],[-2.99016,38.8431],[-2.98972,38.84295],[-2.99012,38.84195],[-2.99017,38.84148],[-2.98966,38.84163],[-2.98919,38.84377],[-2.98938,38.84396],[-2.98777,38.84484],[-2.98497,38.84609],[-2.98247,38.8478],[-2.98206,38.84843],[-2.98189,38.84977],[-2.98161,38.85002],[-2.98057,38.85037],[-2.98009,38.85066],[-2.97747,38.85368],[-2.97697,38.85449],[-2.97624,38.85886],[-2.97677,38.86118],[-2.97669,38.86222],[-2.97422,38.86498],[-2.97391,38.86573],[-2.97418,38.8685],[-2.97733,38.8739],[-2.9693,38.87348],[-2.9654,38.87312],[-2.96115,38.873],[-2.95419,38.87195],[-2.94718,38.87163],[-2.9446,38.86814],[-2.94417,38.86721],[-2.94315,38.8646],[-2.94202,38.86097],[-2.94051,38.85682],[-2.94064,38.85611],[-2.94188,38.85249],[-2.94345,38.85163]]]}}]}