{"type":"FeatureCollection","features":[{"type":"Feature","properties":{"id":"1303401001"},"geometry":{"type":"Polygon","coordinates":[[[-3.92849,38.98634],[-3.92817,38.985],[-3.9283,38.98436],[-3.9287,38.98382],[-3.93152,38.98308],[-3.92986,38.98528],[-3.92849,38.98634]]]}},{"type":"Feature","properties":{"id":"1303401002"},"geometry":{"type":"Polygon","coordinates":[[[-3.92854,38.98373],[-3.92849,38.98335],[-3.92876,38.98297],[-3.93228,38.98134],[-3.93281,38.98162],[-3.93152,38.98308],[-3.92874,38.98382],[-3.92854,38.98373]]]}},{"type":"Feature","properties":{"id":"1303401003"},"geometry":{"type":"Polygon","coordinates":[[[-3.92805,38.98218],[-3.92911,38.98194],[-3.92964,38.98191],[-3.92991,38.98202],[-3.93106,38.98071],[-3.93228,38.98134],[-3.92876,38.98297],[-3.92859,38.98315],[-3.92805,38.98218]]]}},{"type":"Feature","properties":{"id":"1303401004"},"geometry":{"type":"Polygon","coordinates":[[[-3.92735,38.9799],[-3.92885,38.97991],[-3.93019,38.98028],[-3.93106,38.98071],[-3.92991,38.98202],[-3.92964,38.98191],[-3.92911,38.98194],[-3.92805,38.98218],[-3.92735,38.9799]]]}},{"type":"Feature","properties":{"id":"1303401005"},"geometry":{"type":"Polygon","coordinates":[[[-3.91938,38.97735],[-3.92022,38.97755],[-3.92383,38.979],[-3.92735,38.9799],[-3.92695,38.98008],[-3.92519,38.98168],[-3.92134,38.97931],[-3.91965,38.97775],[-3.91938,38.97735]]]}},{"type":"Feature","properties":{"id":"1303401006"},"geometry":{"type":"Polygon","coordinates":[[[-3.93275,38.98159],[-3.93019,38.98028],[-3.92885,38.97991],[-3.92735,38.9799],[-3.92745,38.97931],[-3.92789,38.97873],[-3.92871,38.97932],[-3.929,38.97943],[-3.92823,38.97784],[-3.92673,38.97394],[-3.93501,38.97323],[-3.93629,38.97321],[-3.93923,38.97472],[-3.9352,38.97863],[-3.93275,38.98159]]]}},{"type":"Feature","properties":{"id":"1303401007"},"geometry":{"type":"Polygon","coordinates":[[[-3.92783,38.9788],[-3.92762,38.97868],[-3.92472,38.97798],[-3.92315,38.97782],[-3.92362,38.9768],[-3.92461,38.97557],[-3.92615,38.97406],[-3.9267,38.97388],[-3.92823,38.97784],[-3.929,38.97943],[-3.92871,38.97932],[-3.92789,38.97873],[-3.92783,38.9788]]]}},{"type":"Feature","properties":{"id":"1303401008"},"geometry":{"type":"Polygon","coordinates":[[[-3.92081,38.97778],[-3.92084,38.97766],[-3.92117,38.97765],[-3.92472,38.97798],[-3.92762,38.97868],[-3.92783,38.9788],[-3.92745,38.97931],[-3.92735,38.9799],[-3.92383,38.979],[-3.92081,38.97778]]]}},{"type":"Feature","properties":{"id":"1303401009"},"geometry":{"type":"Polygon","coordinates":[[[-3.93935,38.97479],[-3.93645,38.97326],[-3.93571,38.97318],[-3.93573,38.97305],[-3.93606,38.97288],[-3.93593,38.97252],[-3.93519,38.96708],[-3.93768,38.96697],[-3.93944,38.96727],[-3.94126,38.96798],[-3.94319,38.96911],[-3.94326,38.96904],[-3.94334,38.96908],[-3.94363,38.96876],[-3.94454,38.96935],[-3.94331,38.9708],[-3.9429,38.97111],[-3.93941,38.97473],[-3.93935,38.97479]]]}},{"type":"Feature","properties":{"id":"1303401010"},"geometry":{"type":"Polygon","coordinates":[[[-3.92081,38.97778],[-3.92022,38.97755],[-3.91772,38.97699],[-3.91406,38.97598],[-3.90821,38.97457],[-3.90869,38.97368],[-3.90888,38.97303],[-3.91007,38.97335],[-3.91019,38.97292],[-3.91003,38.97007],[-3.91129,38.96758],[-3.91289,38.96833],[-3.91684,38.96561],[-3.91685,38.965],[-3.91851,38.96434],[-3.91856,38.96262],[-3.91897,38.96128],[-3.91898,38.95988],[-3.91916,38.95847],[-3.91914,38.9577],[-3.91852,38.95399],[-3.9186,38.95328],[-3.92036,38.95748],[-3.9267,38.97388],[-3.92615,38.97406],[-3.92461,38.97557],[-3.92362,38.9768],[-3.92315,38.97782],[-3.92117,38.97765],[-3.92084,38.97766],[-3.92081,38.97778]]]}},{"type":"Feature","properties":{"id":"1303401011"},"geometry":{"type":"Polygon","coordinates":[[[-3.92673,38.97394],[-3.92435,38.96783],[-3.93002,38.96743],[-3.9304,38.96709],[-3.93079,38.96699],[-3.93118,38.96706],[-3.93149,38.96729],[-3.93519,38.96708],[-3.93593,38.97252],[-3.93606,38.97288],[-3.93597,38.97299],[-3.93573,38.97305],[-3.93571,38.97318],[-3.92673,38.97394]]]}},{"type":"Feature","properties":{"id":"1303402001"},"geometry":{"type":"Polygon","coordinates":[[[-3.92848,38.98642],[-3.92986,38.98528],[-3.93031,38.98571],[-3.93139,38.98645],[-3.93049,38.98873],[-3.92941,38.98941],[-3.92818,38.98976],[-3.92848,38.98642]]]}},{"type":"Feature","properties":{"id":"1303402002"},"geometry":{"type":"Polygon","coordinates":[[[-3.92986,38.98528],[-3.93177,38.98272],[-3.93226,38.98221],[-3.93251,38.98277],[-3.93215,38.98452],[-3.93178,38.98548],[-3.93192,38.98556],[-3.93139,38.98645],[-3.93031,38.98571],[-3.92986,38.98528]]]}},{"type":"Feature","properties":{"id":"1303402003"},"geometry":{"type":"Polygon","coordinates":[[[-3.93226,38.98221],[-3.93281,38.98162],[-3.9338,38.98228],[-3.93412,38.98294],[-3.93427,38.98456],[-3.93211,38.98464],[-3.93251,38.98277],[-3.93226,38.98221]]]}},{"type":"Feature","properties":{"id":"1303402004"},"geometry":{"type":"Polygon","coordinates":[[[-3.93357,38.98207],[-3.93275,38.98159],[-3.9352,38.97863],[-3.93578,38.97806],[-3.93614,38.97825],[-3.93712,38.9779],[-3.93869,38.97751],[-3.94103,38.97719],[-3.94196,38.98047],[-3.93958,38.98083],[-3.93806,38.98122],[-3.93776,38.98148],[-3.9355,38.98191],[-3.93498,38.98391],[-3.93426,38.98394],[-3.93412,38.98294],[-3.93393,38.98247],[-3.93357,38.98207]]]}},{"type":"Feature","properties":{"id":"1303402005"},"geometry":{"type":"Polygon","coordinates":[[[-3.94029,38.98469],[-3.93776,38.98148],[-3.93806,38.98122],[-3.94097,38.98057],[-3.94247,38.98043],[-3.94667,38.97981],[-3.94711,38.97966],[-3.94804,38.97912],[-3.94829,38.98049],[-3.94873,38.98064],[-3.94822,38.98141],[-3.94661,38.98073],[-3.94563,38.98224],[-3.94574,38.98438],[-3.9437,38.98412],[-3.943,38.98455],[-3.94241,38.98413],[-3.94084,38.98442],[-3.94029,38.98469]]]}},{"type":"Feature","properties":{"id":"1303402006"},"geometry":{"type":"Polygon","coordinates":[[[-3.93498,38.98391],[-3.9355,38.98191],[-3.93776,38.98148],[-3.93948,38.98368],[-3.93864,38.98409],[-3.9381,38.98389],[-3.93725,38.98398],[-3.93711,38.98384],[-3.93498,38.98391]]]}},{"type":"Feature","properties":{"id":"1303402007"},"geometry":{"type":"Polygon","coordinates":[[[-3.93385,38.98764],[-3.93421,38.98636],[-3.93426,38.98394],[-3.93711,38.98384],[-3.93725,38.98398],[-3.9381,38.98389],[-3.93864,38.98409],[-3.93948,38.98368],[-3.94029,38.98469],[-3.93951,38.98507],[-3.93931,38.98482],[-3.9377,38.98562],[-3.9371,38.98574],[-3.9366,38.98616],[-3.93518,38.98775],[-3.93461,38.98806],[-3.93385,38.98764]]]}},{"type":"Feature","properties":{"id":"1303402008"},"geometry":{"type":"Polygon","coordinates":[[[-3.9334,38.98875],[-3.93385,38.98764],[-3.93461,38.98806],[-3.93518,38.98775],[-3.9366,38.98616],[-3.9371,38.98574],[-3.93751,38.98568],[-3.9386,38.98705],[-3.9405,38.98611],[-3.94071,38.98616],[-3.93965,38.98912],[-3.94105,38.98944],[-3.93956,38.99388],[-3.9334,38.98875]]]}},{"type":"Feature","properties":{"id":"1303402009"},"geometry":{"type":"Polygon","coordinates":[[[-3.93411,38.98691],[-3.93178,38.98548],[-3.93211,38.98464],[-3.93426,38.98456],[-3.93411,38.98691]]]}},{"type":"Feature","properties":{"id":"1303402010"},"geometry":{"type":"Polygon","coordinates":[[[-3.93053,38.9886],[-3.93111,38.98705],[-3.93192,38.98556],[-3.93298,38.98621],[-3.93163,38.98936],[-3.93155,38.98942],[-3.93053,38.9886]]]}},{"type":"Feature","properties":{"id":"1303402011"},"geometry":{"type":"Polygon","coordinates":[[[-3.93155,38.98942],[-3.93163,38.98936],[-3.93298,38.98621],[-3.93411,38.98691],[-3.93271,38.99035],[-3.93155,38.98942]]]}},{"type":"Feature","properties":{"id":"1303402012"},"geometry":{"type":"Polygon","coordinates":[[[-3.92971,38.9911],[-3.93022,38.98945],[-3.93053,38.9886],[-3.93271,38.99035],[-3.93205,38.99186],[-3.92971,38.9911]]]}},{"type":"Feature","properties":{"id":"1303402013"},"geometry":{"type":"Polygon","coordinates":[[[-3.92808,38.99105],[-3.92818,38.98976],[-3.92941,38.98941],[-3.93046,38.98874],[-3.92971,38.9911],[-3.92808,38.99105]]]}},{"type":"Feature","properties":{"id":"1303402014"},"geometry":{"type":"Polygon","coordinates":[[[-3.92892,38.99343],[-3.92971,38.9911],[-3.93205,38.99186],[-3.9313,38.99358],[-3.93083,38.99417],[-3.92988,38.99365],[-3.92892,38.99343]]]}},{"type":"Feature","properties":{"id":"1303402015"},"geometry":{"type":"Polygon","coordinates":[[[-3.92798,38.99592],[-3.92892,38.99343],[-3.92988,38.99365],[-3.93083,38.99417],[-3.92923,38.99588],[-3.92895,38.99596],[-3.92798,38.99592]]]}},{"type":"Feature","properties":{"id":"1303402016"},"geometry":{"type":"Polygon","coordinates":[[[-3.92802,38.99213],[-3.9293,38.99239],[-3.9281,38.99555],[-3.9279,38.99548],[-3.92783,38.99529],[-3.92802,38.99213]]]}},{"type":"Feature","properties":{"id":"1303402017"},"geometry":{"type":"Polygon","coordinates":[[[-3.92802,38.99213],[-3.92808,38.99105],[-3.92971,38.9911],[-3.9293,38.99239],[-3.92802,38.99213]]]}},{"type":"Feature","properties":{"id":"1303402018"},"geometry":{"type":"Polygon","coordinates":[[[-3.94103,38.9772],[-3.94601,38.97641],[-3.94667,38.97804],[-3.94787,38.97783],[-3.94848,38.97888],[-3.94673,38.97979],[-3.94196,38.98047],[-3.94103,38.9772]]]}},{"type":"Feature","properties":{"id":"1303402019"},"geometry":{"type":"Polygon","coordinates":[[[-3.93578,38.97806],[-3.93922,38.97472],[-3.93935,38.97479],[-3.93941,38.97473],[-3.9429,38.97111],[-3.94326,38.97133],[-3.94393,38.97195],[-3.94464,38.97403],[-3.94515,38.9746],[-3.94598,38.97641],[-3.93869,38.97751],[-3.93712,38.9779],[-3.93614,38.97825],[-3.93578,38.97806]]]}},{"type":"Feature","properties":{"id":"1303402020"},"geometry":{"type":"Polygon","coordinates":[[[-3.93751,38.98568],[-3.93931,38.98482],[-3.93951,38.98507],[-3.94084,38.98442],[-3.94241,38.98413],[-3.943,38.98455],[-3.9437,38.98412],[-3.94559,38.98439],[-3.94466,38.98474],[-3.9441,38.98514],[-3.94319,38.98711],[-3.94246,38.98925],[-3.94089,38.98944],[-3.93965,38.98912],[-3.94071,38.98616],[-3.9405,38.98611],[-3.9386,38.98705],[-3.93751,38.98568]]]}},{"type":"Feature","properties":{"id":"1303402021"},"geometry":{"type":"Polygon","coordinates":[[[-3.93126,38.99363],[-3.9334,38.98875],[-3.93959,38.9939],[-3.93868,38.99643],[-3.9329,38.9949],[-3.93126,38.99363]]]}},{"type":"Feature","properties":{"id":"1303402022"},"geometry":{"type":"Polygon","coordinates":[[[-3.92705,39.00314],[-3.92962,39.00333],[-3.93018,39.00143],[-3.9303,38.99868],[-3.93453,38.99969],[-3.93755,38.99997],[-3.93796,38.99836],[-3.93151,38.99662],[-3.93217,38.99514],[-3.93039,38.99466],[-3.93126,38.99363],[-3.9329,38.9949],[-3.93868,38.99643],[-3.93957,38.99387],[-3.95497,39.00701],[-3.93766,39.01748],[-3.93138,39.02071],[-3.92693,39.02287],[-3.92517,39.02352],[-3.92494,39.01161],[-3.92705,39.00314]]]}},{"type":"Feature","properties":{"id":"1303402023"},"geometry":{"type":"Polygon","coordinates":[[[-3.92705,39.00314],[-3.92771,39.00098],[-3.92765,39.0004],[-3.92798,38.99592],[-3.92895,38.99596],[-3.92923,38.99588],[-3.93039,38.99466],[-3.93217,38.99514],[-3.93151,38.99662],[-3.93796,38.99836],[-3.93755,38.99997],[-3.93453,38.99969],[-3.9303,38.99868],[-3.93018,39.00143],[-3.92962,39.00333],[-3.92705,39.00314]]]}},{"type":"Feature","properties":{"id":"1303403001"},"geometry":{"type":"Polygon","coordinates":[[[-3.92638,38.98812],[-3.92737,38.98732],[-3.92848,38.98642],[-3.92817,38.98987],[-3.92726,38.99002],[-3.92638,38.98812]]]}},{"type":"Feature","properties":{"id":"1303403002"},"geometry":{"type":"Polygon","coordinates":[[[-3.92333,38.99128],[-3.92592,38.98856],[-3.92638,38.98812],[-3.92726,38.99002],[-3.92537,38.99051],[-3.92333,38.99128]]]}},{"type":"Feature","properties":{"id":"1303403003"},"geometry":{"type":"Polygon","coordinates":[[[-3.92259,38.99253],[-3.92239,38.99224],[-3.92333,38.99128],[-3.92564,38.99043],[-3.92817,38.98987],[-3.92808,38.99109],[-3.92738,38.99115],[-3.92517,38.99161],[-3.9238,38.99201],[-3.92259,38.99253]]]}},{"type":"Feature","properties":{"id":"1303403004"},"geometry":{"type":"Polygon","coordinates":[[[-3.92259,38.99253],[-3.9238,38.99201],[-3.92477,38.99171],[-3.92738,38.99115],[-3.92808,38.99109],[-3.92783,38.99529],[-3.9279,38.99548],[-3.9281,38.99555],[-3.92796,38.99605],[-3.92717,38.99574],[-3.92447,38.99424],[-3.92259,38.99253]]]}},{"type":"Feature","properties":{"id":"1303403005"},"geometry":{"type":"Polygon","coordinates":[[[-3.91883,38.99988],[-3.91722,38.99695],[-3.91879,38.99576],[-3.91982,38.99479],[-3.9176,38.99145],[-3.91767,38.99111],[-3.91988,38.99197],[-3.92171,38.99449],[-3.92224,38.99508],[-3.92265,38.99538],[-3.92279,38.99572],[-3.92244,38.99613],[-3.92292,38.99689],[-3.92359,38.99637],[-3.92377,38.99637],[-3.92644,38.99897],[-3.92549,39.00081],[-3.92771,39.00098],[-3.92711,39.00293],[-3.92449,39.00271],[-3.92319,39.00385],[-3.9228,39.00461],[-3.92175,39.00041],[-3.92111,38.99922],[-3.91883,38.99988]]]}},{"type":"Feature","properties":{"id":"1303403006"},"geometry":{"type":"Polygon","coordinates":[[[-3.92103,38.99363],[-3.92251,38.99246],[-3.92447,38.99424],[-3.92717,38.99574],[-3.92796,38.99605],[-3.92766,39.00095],[-3.92549,39.00081],[-3.92644,38.99897],[-3.92377,38.99637],[-3.92359,38.99637],[-3.92292,38.99689],[-3.92244,38.99613],[-3.92279,38.99572],[-3.92276,38.99556],[-3.92171,38.99449],[-3.92103,38.99363]]]}},{"type":"Feature","properties":{"id":"1303404001"},"geometry":{"type":"Polygon","coordinates":[[[-3.92513,38.98474],[-3.92727,38.98421],[-3.92854,38.98373],[-3.9287,38.98382],[-3.9283,38.98436],[-3.92817,38.985],[-3.92844,38.986],[-3.92726,38.98612],[-3.92627,38.98611],[-3.92559,38.98624],[-3.92513,38.98474]]]}},{"type":"Feature","properties":{"id":"1303404002"},"geometry":{"type":"Polygon","coordinates":[[[-3.92559,38.98624],[-3.92627,38.98611],[-3.92726,38.98612],[-3.92844,38.986],[-3.92849,38.98636],[-3.92592,38.98856],[-3.92569,38.98803],[-3.92559,38.98624]]]}},{"type":"Feature","properties":{"id":"1303404003"},"geometry":{"type":"Polygon","coordinates":[[[-3.92384,38.98514],[-3.92501,38.98485],[-3.92513,38.98474],[-3.92559,38.98624],[-3.92569,38.98803],[-3.92592,38.98856],[-3.92477,38.98983],[-3.92433,38.98902],[-3.92421,38.98856],[-3.9239,38.98647],[-3.92409,38.98596],[-3.92384,38.98514]]]}},{"type":"Feature","properties":{"id":"1303404004"},"geometry":{"type":"Polygon","coordinates":[[[-3.92376,38.98914],[-3.92316,38.98768],[-3.9218,38.98567],[-3.92384,38.98514],[-3.92409,38.98596],[-3.9239,38.98647],[-3.92421,38.98856],[-3.92433,38.98902],[-3.92477,38.98983],[-3.9244,38.99018],[-3.92407,38.98968],[-3.92414,38.98964],[-3.92394,38.98917],[-3.92376,38.98914]]]}},{"type":"Feature","properties":{"id":"1303404005"},"geometry":{"type":"Polygon","coordinates":[[[-3.92355,38.98865],[-3.92376,38.98914],[-3.92394,38.98917],[-3.92414,38.98964],[-3.92407,38.98968],[-3.9244,38.99018],[-3.92239,38.99224],[-3.92181,38.99092],[-3.92157,38.98922],[-3.92355,38.98865]]]}},{"type":"Feature","properties":{"id":"1303404006"},"geometry":{"type":"Polygon","coordinates":[[[-3.89732,38.99252],[-3.90693,38.9897],[-3.91725,38.9868],[-3.9218,38.98567],[-3.92316,38.98768],[-3.92355,38.98865],[-3.92157,38.98922],[-3.92181,38.99092],[-3.92251,38.99246],[-3.92103,38.99363],[-3.91988,38.99197],[-3.91767,38.99111],[-3.9176,38.99145],[-3.91982,38.99479],[-3.91879,38.99576],[-3.91722,38.99695],[-3.91725,38.99701],[-3.91228,38.99155],[-3.90972,38.99236],[-3.90911,38.99248],[-3.90845,38.99274],[-3.90534,38.99435],[-3.90128,38.99546],[-3.89853,38.99577],[-3.89754,38.99369],[-3.89753,38.99326],[-3.89732,38.99252]]]}},{"type":"Feature","properties":{"id":"1303404007"},"geometry":{"type":"Polygon","coordinates":[[[-3.92567,38.98305],[-3.9259,38.98272],[-3.92524,38.9819],[-3.92519,38.98168],[-3.92695,38.98008],[-3.92735,38.9799],[-3.92792,38.98188],[-3.92859,38.98315],[-3.92846,38.9835],[-3.92854,38.98373],[-3.92727,38.98421],[-3.92677,38.98431],[-3.92653,38.98334],[-3.92567,38.98305]]]}},{"type":"Feature","properties":{"id":"1303404008"},"geometry":{"type":"Polygon","coordinates":[[[-3.9242,38.9842],[-3.92519,38.98404],[-3.92567,38.98305],[-3.92653,38.98334],[-3.92677,38.98431],[-3.92451,38.98496],[-3.9242,38.9842]]]}},{"type":"Feature","properties":{"id":"1303404009"},"geometry":{"type":"Polygon","coordinates":[[[-3.9242,38.9842],[-3.92451,38.98496],[-3.9218,38.98567],[-3.92151,38.98467],[-3.9242,38.9842]]]}},{"type":"Feature","properties":{"id":"1303404010"},"geometry":{"type":"Polygon","coordinates":[[[-3.91434,38.98469],[-3.91744,38.97886],[-3.91794,38.97843],[-3.91827,38.98057],[-3.91848,38.98114],[-3.91907,38.98199],[-3.92087,38.98344],[-3.91999,38.98435],[-3.91992,38.98474],[-3.92008,38.98575],[-3.91993,38.98609],[-3.91497,38.98744],[-3.91422,38.98635],[-3.91411,38.98537],[-3.91434,38.98469]]]}},{"type":"Feature","properties":{"id":"1303404011"},"geometry":{"type":"Polygon","coordinates":[[[-3.91827,38.98057],[-3.91768,38.97698],[-3.91938,38.97735],[-3.91965,38.97775],[-3.92134,38.97931],[-3.92519,38.98168],[-3.92494,38.98178],[-3.92413,38.98249],[-3.92367,38.98269],[-3.92284,38.98285],[-3.92149,38.98295],[-3.92087,38.98344],[-3.91907,38.98199],[-3.91848,38.98114],[-3.91827,38.98057]]]}},{"type":"Feature","properties":{"id":"1303404012"},"geometry":{"type":"Polygon","coordinates":[[[-3.92087,38.98344],[-3.92149,38.98295],[-3.92284,38.98285],[-3.92367,38.98269],[-3.92413,38.98249],[-3.92494,38.98178],[-3.92519,38.98168],[-3.92524,38.9819],[-3.9259,38.98272],[-3.92519,38.98404],[-3.92151,38.98467],[-3.9218,38.98567],[-3.91993,38.98609],[-3.92008,38.98575],[-3.91992,38.98474],[-3.91999,38.98435],[-3.92087,38.98344]]]}},{"type":"Feature","properties":{"id":"1303404013"},"geometry":{"type":"Polygon","coordinates":[[[-3.90932,38.97759],[-3.90969,38.97868],[-3.91123,38.9815],[-3.91259,38.97888],[-3.91677,38.98012],[-3.91434,38.98469],[-3.91411,38.98537],[-3.91422,38.98635],[-3.91497,38.98744],[-3.90218,38.99106],[-3.89577,38.99299],[-3.89692,38.99231],[-3.89715,38.99198],[-3.89721,38.99168],[-3.89763,38.9913],[-3.8983,38.99096],[-3.89948,38.99103],[-3.9,38.99077],[-3.90069,38.99005],[-3.90171,38.98818],[-3.90246,38.98579],[-3.90361,38.98384],[-3.90444,38.98272],[-3.90667,38.98019],[-3.90805,38.97893],[-3.90932,38.97759]]]}},{"type":"Feature","properties":{"id":"1303404014"},"geometry":{"type":"Polygon","coordinates":[[[-3.90932,38.97759],[-3.91012,38.97667],[-3.911,38.97528],[-3.91406,38.97598],[-3.91768,38.97698],[-3.91794,38.97843],[-3.91744,38.97886],[-3.91677,38.98012],[-3.91259,38.97888],[-3.91123,38.9815],[-3.90969,38.97868],[-3.90932,38.97759]]]}},{"type":"Feature","properties":{"id":"1303405001"},"geometry":{"type":"Polygon","coordinates":[[[-3.91058,39.05841],[-3.91013,39.058],[-3.90907,39.05654],[-3.9077,39.05727],[-3.90696,39.0575],[-3.90695,39.05699],[-3.90624,39.05727],[-3.90539,39.0568],[-3.90472,39.05628],[-3.90279,39.05654],[-3.90191,39.05657],[-3.89818,39.05581],[-3.89765,39.05561],[-3.89606,39.05459],[-3.89473,39.05349],[-3.892,39.05017],[-3.88957,39.04461],[-3.88789,39.04147],[-3.88641,39.03926],[-3.88515,39.03708],[-3.8837,39.03543],[-3.88248,39.03374],[-3.8823,39.03311],[-3.88238,39.03238],[-3.88182,39.03024],[-3.88212,39.02811],[-3.8825,39.02676],[-3.88382,39.0236],[-3.88547,39.02033],[-3.88573,39.01947],[-3.88614,39.01698],[-3.88597,39.01329],[-3.88656,39.00921],[-3.88728,39.00805],[-3.88782,39.00632],[-3.88807,39.00486],[-3.88779,39.0014],[-3.887,38.9987],[-3.88596,38.99695],[-3.88523,38.9948],[-3.8853,38.99353],[-3.88632,38.99166],[-3.88675,38.99025],[-3.88679,38.98955],[-3.88662,38.98773],[-3.88863,38.98707],[-3.88842,38.98584],[-3.88836,38.98464],[-3.88842,38.98436],[-3.88858,38.98423],[-3.8899,38.98358],[-3.89121,38.98316],[-3.8917,38.98291],[-3.8938,38.98152],[-3.89595,38.97968],[-3.899,38.97795],[-3.89959,38.97781],[-3.9065,38.97777],[-3.90675,38.97713],[-3.90821,38.97457],[-3.911,38.97528],[-3.91012,38.97667],[-3.90805,38.97893],[-3.90667,38.98019],[-3.90444,38.98272],[-3.90361,38.98384],[-3.90246,38.98579],[-3.90171,38.98818],[-3.90069,38.99005],[-3.9,38.99077],[-3.89948,38.99103],[-3.8983,38.99096],[-3.89763,38.9913],[-3.89721,38.99168],[-3.89715,38.99198],[-3.89692,38.99231],[-3.89577,38.99299],[-3.89732,38.99252],[-3.89753,38.99326],[-3.89754,38.99369],[-3.89853,38.99577],[-3.89993,38.99566],[-3.90128,38.99546],[-3.90534,38.99435],[-3.90845,38.99274],[-3.90911,38.99248],[-3.90972,38.99236],[-3.91228,38.99155],[-3.91725,38.99702],[-3.91883,38.99988],[-3.92111,38.99922],[-3.92175,39.00041],[-3.9228,39.00461],[-3.92319,39.00385],[-3.92449,39.00271],[-3.92711,39.00293],[-3.92494,39.01161],[-3.92517,39.02352],[-3.92693,39.02287],[-3.93138,39.02071],[-3.93766,39.01748],[-3.95497,39.00701],[-3.93957,38.99387],[-3.94105,38.98944],[-3.94246,38.98925],[-3.94319,38.98711],[-3.9441,38.98514],[-3.94466,38.98474],[-3.94574,38.98438],[-3.94563,38.98224],[-3.94661,38.98073],[-3.94822,38.98141],[-3.94873,38.98064],[-3.94829,38.98049],[-3.94804,38.97912],[-3.94848,38.97888],[-3.94787,38.97783],[-3.94667,38.97804],[-3.94515,38.9746],[-3.94464,38.97403],[-3.94393,38.97195],[-3.9429,38.97111],[-3.94331,38.9708],[-3.94454,38.96935],[-3.94363,38.96876],[-3.94334,38.96908],[-3.94326,38.96904],[-3.94319,38.96911],[-3.94126,38.96798],[-3.94034,38.96756],[-3.93944,38.96727],[-3.93768,38.96697],[-3.93149,38.96729],[-3.93118,38.96706],[-3.93079,38.96699],[-3.9304,38.96709],[-3.93002,38.96743],[-3.92435,38.96783],[-3.92036,38.95748],[-3.9186,38.95328],[-3.91883,38.95101],[-3.91867,38.94905],[-3.9187,38.9481],[-3.9193,38.94418],[-3.91766,38.94145],[-3.91373,38.93749],[-3.91698,38.92998],[-3.91464,38.9291],[-3.91367,38.92844],[-3.91223,38.92767],[-3.91013,38.92682],[-3.9084,38.92598],[-3.9071,38.92523],[-3.90228,38.92339],[-3.89874,38.92059],[-3.89112,38.91357],[-3.8906,38.91294],[-3.89008,38.91191],[-3.88863,38.91025],[-3.88674,38.91064],[-3.8798,38.9108],[-3.8789,38.9108],[-3.87815,38.91066],[-3.87686,38.91078],[-3.87325,38.91178],[-3.87314,38.91113],[-3.87316,38.9098],[-3.87388,38.90231],[-3.87372,38.90189],[-3.87275,38.90071],[-3.87192,38.89815],[-3.8714,38.89743],[-3.87124,38.89696],[-3.87163,38.89526],[-3.86964,38.89466],[-3.8688,38.89325],[-3.86963,38.89173],[-3.86922,38.89142],[-3.86856,38.89155],[-3.86692,38.89159],[-3.86603,38.89138],[-3.86567,38.8908],[-3.86666,38.88965],[-3.86538,38.88895],[-3.86636,38.88671],[-3.86695,38.88583],[-3.86756,38.88517],[-3.86841,38.88468],[-3.86975,38.88457],[-3.86931,38.8841],[-3.86961,38.88373],[-3.86977,38.88309],[-3.87115,38.8827],[-3.86918,38.88124],[-3.86972,38.8792],[-3.87093,38.87764],[-3.87278,38.87677],[-3.87512,38.8755],[-3.87581,38.87476],[-3.87601,38.87354],[-3.87603,38.87314],[-3.87582,38.87251],[-3.87548,38.87199],[-3.87532,38.87143],[-3.87613,38.87068],[-3.87713,38.87029],[-3.87911,38.86906],[-3.88416,38.86917],[-3.89455,38.86771],[-3.89834,38.86695],[-3.90034,38.86665],[-3.90479,38.86627],[-3.9087,38.86609],[-3.91101,38.86559],[-3.91128,38.86632],[-3.91174,38.86591],[-3.91444,38.86446],[-3.9162,38.86322],[-3.91688,38.86285],[-3.92001,38.86358],[-3.92035,38.86316],[-3.9208,38.86337],[-3.92072,38.86404],[-3.92142,38.86424],[-3.92173,38.86447],[-3.92228,38.86529],[-3.92272,38.86539],[-3.92475,38.86462],[-3.9251,38.86511],[-3.92552,38.86524],[-3.92687,38.86609],[-3.92747,38.86614],[-3.92783,38.86641],[-3.92813,38.86688],[-3.9282,38.86738],[-3.92797,38.86786],[-3.92681,38.86956],[-3.92637,38.87063],[-3.92639,38.87097],[-3.92679,38.87111],[-3.92863,38.87112],[-3.92946,38.87122],[-3.93072,38.87097],[-3.93148,38.87097],[-3.93279,38.87063],[-3.93441,38.87039],[-3.93494,38.87044],[-3.9363,38.8712],[-3.93672,38.87129],[-3.93862,38.87112],[-3.93964,38.87137],[-3.94032,38.87066],[-3.94057,38.87013],[-3.94144,38.87012],[-3.94123,38.86952],[-3.94217,38.86858],[-3.9425,38.86843],[-3.94312,38.86861],[-3.9443,38.87016],[-3.94556,38.87278],[-3.94592,38.87306],[-3.94637,38.8721],[-3.9466,38.87131],[-3.94734,38.87122],[-3.94823,38.87191],[-3.9485,38.87228],[-3.94843,38.87284],[-3.94916,38.87291],[-3.94965,38.87196],[-3.95055,38.87142],[-3.95408,38.87419],[-3.95468,38.87399],[-3.95522,38.87486],[-3.95591,38.87487],[-3.95708,38.87525],[-3.96073,38.87579],[-3.96197,38.87464],[-3.96297,38.87341],[-3.96355,38.87291],[-3.96404,38.87392],[-3.9642,38.87517],[-3.96502,38.87473],[-3.96585,38.87492],[-3.96573,38.87437],[-3.96514,38.87355],[-3.96514,38.87329],[-3.96783,38.87345],[-3.96928,38.8709],[-3.97291,38.87086],[-3.97592,38.87223],[-3.97839,38.87279],[-3.98009,38.87175],[-3.98123,38.87067],[-3.98111,38.87024],[-3.97624,38.86481],[-3.97474,38.86337],[-3.97342,38.8616],[-3.97678,38.8582],[-3.97894,38.8552],[-3.97648,38.85332],[-3.97379,38.85191],[-3.97292,38.85129],[-3.97343,38.8509],[-3.9734,38.84963],[-3.97438,38.84912],[-3.9736,38.84816],[-3.9736,38.848],[-3.97391,38.84778],[-3.9755,38.84564],[-3.97637,38.84559],[-3.9784,38.84584],[-3.97875,38.84574],[-3.98371,38.84268],[-3.98531,38.84213],[-3.98608,38.84196],[-3.98773,38.84217],[-3.98929,38.84313],[-3.99122,38.84232],[-3.995,38.8437],[-3.99669,38.8444],[-3.99727,38.84479],[-3.99779,38.84542],[-3.99897,38.8473],[-4.00374,38.84665],[-4.0042,38.84679],[-4.00514,38.84797],[-4.00558,38.85143],[-4.00496,38.85355],[-4.00466,38.85678],[-4.00374,38.86055],[-4.00411,38.86318],[-4.00423,38.86605],[-4.00449,38.86721],[-4.00438,38.86848],[-4.00554,38.8693],[-4.00581,38.8696],[-4.00612,38.87045],[-4.00774,38.87125],[-4.00865,38.87194],[-4.01014,38.87249],[-4.0105,38.87359],[-4.01096,38.87377],[-4.01115,38.87396],[-4.01173,38.87497],[-4.01292,38.87785],[-4.01319,38.8794],[-4.01222,38.88161],[-4.01222,38.88218],[-4.01248,38.88285],[-4.01471,38.8856],[-4.01651,38.88655],[-4.01842,38.88778],[-4.01986,38.88839],[-4.02037,38.88908],[-4.02095,38.89026],[-4.0214,38.89138],[-4.02226,38.89465],[-4.02277,38.89518],[-4.02271,38.89621],[-4.02292,38.89692],[-4.02371,38.89776],[-4.02388,38.89833],[-4.02442,38.89896],[-4.0251,38.89942],[-4.02594,38.89961],[-4.02488,38.902],[-4.02357,38.90369],[-4.02377,38.90508],[-4.02341,38.90639],[-4.02296,38.90676],[-4.02096,38.9078],[-4.02172,38.90834],[-4.02219,38.90833],[-4.0226,38.90846],[-4.0229,38.90879],[-4.02303,38.90926],[-4.02295,38.90968],[-4.02261,38.91018],[-4.02206,38.91055],[-4.02139,38.91074],[-4.02035,38.9109],[-4.01832,38.91087],[-4.01871,38.91248],[-4.01662,38.91391],[-4.01484,38.91489],[-4.01369,38.91424],[-4.01301,38.91361],[-4.01133,38.91135],[-4.01048,38.91168],[-4.00852,38.91344],[-4.00625,38.9161],[-4.00435,38.91614],[-4.00388,38.91649],[-4.00518,38.91693],[-4.00494,38.91747],[-4.00411,38.91746],[-4.0015,38.91714],[-4.00083,38.91867],[-4.00004,38.91858],[-3.99947,38.91864],[-3.9988,38.91859],[-3.99814,38.91845],[-3.99733,38.91821],[-3.99662,38.9178],[-3.99156,38.91619],[-3.99169,38.91573],[-3.99162,38.91476],[-3.99239,38.91413],[-3.99217,38.91119],[-3.99118,38.91251],[-3.98987,38.91209],[-3.9896,38.91243],[-3.98813,38.91291],[-3.98773,38.91296],[-3.98695,38.91278],[-3.98487,38.91255],[-3.98285,38.91274],[-3.98084,38.91446],[-3.9796,38.91585],[-3.97662,38.91785],[-3.97375,38.91867],[-3.97179,38.91953],[-3.971,38.91975],[-3.97004,38.91993],[-3.96906,38.91998],[-3.96669,38.91987],[-3.95705,38.92318],[-3.95667,38.92409],[-3.95534,38.926],[-3.95494,38.9273],[-3.95465,38.92778],[-3.95348,38.92899],[-3.95287,38.92938],[-3.95444,38.92986],[-3.95705,38.93043],[-3.95923,38.93078],[-3.96103,38.93142],[-3.96228,38.93175],[-3.96465,38.93198],[-3.96383,38.93353],[-3.96335,38.93409],[-3.96278,38.93545],[-3.96238,38.93703],[-3.96112,38.93935],[-3.96078,38.94013],[-3.96017,38.94232],[-3.95877,38.94511],[-3.95887,38.94528],[-3.96068,38.94626],[-3.96234,38.94732],[-3.96413,38.94866],[-3.96564,38.94958],[-3.96646,38.94989],[-3.96719,38.95043],[-3.96623,38.95145],[-3.96708,38.95161],[-3.96884,38.95152],[-3.97014,38.9514],[-3.97127,38.95101],[-3.97244,38.95119],[-3.97448,38.9509],[-3.97561,38.95141],[-3.97639,38.95166],[-3.97998,38.95231],[-3.98084,38.95283],[-3.98136,38.95305],[-3.98189,38.9531],[-3.98285,38.95419],[-3.98319,38.95445],[-3.98393,38.95475],[-3.98495,38.95558],[-3.98567,38.95592],[-3.9868,38.95575],[-3.98726,38.95584],[-3.98841,38.9566],[-3.98896,38.95677],[-3.98959,38.95682],[-3.99022,38.95707],[-3.99052,38.95708],[-3.99168,38.95755],[-3.99226,38.95782],[-3.9937,38.9592],[-3.99391,38.95922],[-3.99509,38.95835],[-3.9944,38.95698],[-3.99439,38.9568],[-3.99458,38.95663],[-3.99494,38.95682],[-3.99634,38.95696],[-3.997,38.95728],[-3.99765,38.95775],[-3.99898,38.9572],[-4.00013,38.95655],[-4.00131,38.95607],[-4.00214,38.95639],[-4.00383,38.95656],[-4.00431,38.95676],[-4.00483,38.95686],[-4.00529,38.95685],[-4.0085,38.95742],[-4.00955,38.95747],[-4.00993,38.95734],[-4.01198,38.95543],[-4.01274,38.95449],[-4.01356,38.95404],[-4.0146,38.95362],[-4.01557,38.9535],[-4.01843,38.95346],[-4.01939,38.95356],[-4.02149,38.95434],[-4.02167,38.95062],[-4.02177,38.94981],[-4.02214,38.9488],[-4.02109,38.94649],[-4.0203,38.94614],[-4.01995,38.94551],[-4.02015,38.94489],[-4.02006,38.94436],[-4.01976,38.94375],[-4.01983,38.94124],[-4.02022,38.93867],[-4.02003,38.93793],[-4.01994,38.93632],[-4.02048,38.93474],[-4.02039,38.9341],[-4.01996,38.93337],[-4.01948,38.9329],[-4.01889,38.93202],[-4.0186,38.93099],[-4.01769,38.92868],[-4.01771,38.92812],[-4.01794,38.92776],[-4.01843,38.92739],[-4.0185,38.92688],[-4.01839,38.92605],[-4.0189,38.92547],[-4.0199,38.925],[-4.02231,38.92452],[-4.02472,38.92462],[-4.02723,38.9251],[-4.02831,38.92509],[-4.03074,38.92444],[-4.03216,38.92366],[-4.03296,38.92191],[-4.03286,38.92146],[-4.0324,38.92084],[-4.03122,38.91978],[-4.03069,38.919],[-4.03049,38.91828],[-4.03066,38.9175],[-4.03107,38.91695],[-4.03166,38.91659],[-4.03249,38.91634],[-4.0352,38.91658],[-4.03728,38.91709],[-4.03841,38.91709],[-4.03906,38.91721],[-4.03902,38.91902],[-4.03843,38.92149],[-4.03955,38.92482],[-4.04117,38.92615],[-4.04171,38.92633],[-4.04277,38.92639],[-4.04395,38.92673],[-4.04527,38.92739],[-4.04655,38.92837],[-4.04716,38.92859],[-4.04774,38.93019],[-4.0483,38.93077],[-4.04919,38.9345],[-4.05053,38.93397],[-4.05112,38.93388],[-4.05203,38.93432],[-4.05416,38.93452],[-4.05484,38.93448],[-4.06258,38.93347],[-4.06316,38.93333],[-4.06388,38.93297],[-4.06461,38.93284],[-4.06573,38.93286],[-4.06642,38.93297],[-4.06697,38.93317],[-4.06963,38.9351],[-4.07086,38.93621],[-4.07278,38.93732],[-4.07493,38.93907],[-4.07596,38.94053],[-4.07711,38.94149],[-4.07915,38.94224],[-4.08009,38.94277],[-4.08065,38.94327],[-4.08085,38.94388],[-4.08075,38.94447],[-4.08039,38.94511],[-4.07909,38.94661],[-4.07904,38.94819],[-4.07913,38.94931],[-4.07905,38.95013],[-4.07819,38.95266],[-4.07733,38.95477],[-4.07732,38.95537],[-4.07843,38.95722],[-4.07819,38.95884],[-4.07836,38.96099],[-4.07862,38.96153],[-4.07999,38.96284],[-4.08062,38.9638],[-4.08249,38.96549],[-4.08342,38.9668],[-4.08386,38.96781],[-4.08409,38.96855],[-4.08429,38.97119],[-4.08453,38.97283],[-4.08459,38.97469],[-4.08359,38.97455],[-4.08276,38.97763],[-4.08351,38.97844],[-4.08368,38.97995],[-4.08094,38.98041],[-4.08159,38.98356],[-4.08182,38.98416],[-4.08224,38.98473],[-4.08383,38.98631],[-4.08399,38.98665],[-4.08356,38.988],[-4.08339,38.98817],[-4.08281,38.9884],[-4.07796,38.98929],[-4.0774,38.9895],[-4.07654,38.99033],[-4.0761,38.99056],[-4.07531,38.99068],[-4.07348,38.99133],[-4.07294,38.99382],[-4.0711,38.99374],[-4.07103,38.99439],[-4.07121,38.99561],[-4.07097,38.99612],[-4.07009,38.99711],[-4.07001,38.99827],[-4.06957,38.9996],[-4.06964,39.0002],[-4.06984,39.0007],[-4.071,39.00231],[-4.07232,39.00347],[-4.07295,39.0038],[-4.07392,39.00405],[-4.07705,39.00527],[-4.07884,39.00567],[-4.07985,39.006],[-4.08186,39.00723],[-4.08321,39.0079],[-4.08646,39.00916],[-4.08759,39.00999],[-4.0883,39.01036],[-4.09165,39.01141],[-4.09201,39.01177],[-4.09199,39.01288],[-4.0911,39.01921],[-4.0906,39.02116],[-4.09024,39.02202],[-4.08819,39.0233],[-4.08545,39.02474],[-4.08386,39.02585],[-4.08326,39.02647],[-4.08117,39.02933],[-4.07747,39.02893],[-4.07164,39.02874],[-4.0705,39.02805],[-4.06945,39.02764],[-4.06855,39.02769],[-4.06562,39.0283],[-4.06493,39.02824],[-4.06455,39.02808],[-4.06423,39.02781],[-4.06367,39.02678],[-4.0633,39.02647],[-4.06192,39.02567],[-4.06025,39.025],[-4.06008,39.0246],[-4.05996,39.02248],[-4.05971,39.02057],[-4.05967,39.01869],[-4.05788,39.01665],[-4.05572,39.01286],[-4.05544,39.01177],[-4.05489,39.01136],[-4.05444,39.01122],[-4.0541,39.01124],[-4.05316,39.01151],[-4.04937,39.01338],[-4.04902,39.01252],[-4.04808,39.01232],[-4.04656,39.01215],[-4.04608,39.01444],[-4.04561,39.01575],[-4.04422,39.01751],[-4.04313,39.01855],[-4.04225,39.01911],[-4.0417,39.0179],[-4.04071,39.01657],[-4.04001,39.01607],[-4.03839,39.01523],[-4.03394,39.01333],[-4.02964,39.012],[-4.0267,39.01144],[-4.02628,39.01128],[-4.02548,39.01127],[-4.02431,39.01167],[-4.02381,39.0121],[-4.0226,39.0142],[-4.02172,39.01505],[-4.01907,39.01667],[-4.01246,39.01939],[-4.01153,39.01987],[-4.01085,39.02043],[-4.01025,39.02267],[-4.01018,39.02332],[-4.01033,39.02582],[-4.01096,39.02993],[-4.01212,39.03476],[-4.01324,39.0371],[-4.01347,39.03813],[-4.01409,39.03872],[-4.01675,39.04054],[-4.01771,39.04131],[-4.02051,39.04088],[-4.02186,39.04078],[-4.02343,39.0413],[-4.02602,39.04161],[-4.02884,39.04085],[-4.03048,39.04007],[-4.03206,39.03902],[-4.03433,39.03709],[-4.03524,39.0361],[-4.03784,39.03291],[-4.03914,39.03008],[-4.03956,39.03006],[-4.04059,39.03024],[-4.04308,39.03101],[-4.04395,39.03156],[-4.04448,39.03227],[-4.04491,39.03307],[-4.04584,39.03671],[-4.04705,39.03799],[-4.04773,39.03848],[-4.04761,39.04049],[-4.04722,39.04296],[-4.04671,39.04434],[-4.04557,39.04875],[-4.04507,39.05139],[-4.04397,39.05935],[-4.04378,39.06154],[-4.04363,39.06724],[-4.04416,39.07372],[-4.04446,39.08106],[-4.04272,39.08103],[-4.0409,39.08113],[-4.03936,39.08104],[-4.03499,39.0799],[-4.03304,39.07953],[-4.02753,39.07801],[-4.01972,39.0751],[-4.01638,39.074],[-4.01459,39.07406],[-4.01355,39.0736],[-4.01252,39.07333],[-4.01067,39.07318],[-4.00904,39.07277],[-4.00691,39.07295],[-4.00608,39.07294],[-4.00544,39.07282],[-4.00449,39.07254],[-4.00348,39.07202],[-4.00263,39.07114],[-4.00002,39.06891],[-3.99831,39.06904],[-3.99769,39.06899],[-3.99496,39.06821],[-3.9911,39.0659],[-3.98925,39.065],[-3.98809,39.06498],[-3.98714,39.06509],[-3.98564,39.06561],[-3.98382,39.06694],[-3.98304,39.0673],[-3.9817,39.06765],[-3.97951,39.06767],[-3.97721,39.06744],[-3.9763,39.06724],[-3.9745,39.06665],[-3.97361,39.06651],[-3.96451,39.066],[-3.96122,39.06655],[-3.95515,39.06701],[-3.95138,39.06705],[-3.94971,39.06698],[-3.94788,39.06666],[-3.94657,39.06656],[-3.94294,39.0667],[-3.94147,39.06642],[-3.93819,39.06599],[-3.93439,39.0656],[-3.93235,39.06523],[-3.93094,39.06519],[-3.92915,39.06563],[-3.92812,39.06602],[-3.92772,39.06627],[-3.92699,39.06695],[-3.9268,39.06737],[-3.92415,39.06882],[-3.92148,39.0658],[-3.923,39.06275],[-3.92363,39.05894],[-3.92422,39.05721],[-3.92495,39.05619],[-3.92508,39.05525],[-3.92436,39.05526],[-3.92381,39.05439],[-3.92316,39.0546],[-3.92085,39.05602],[-3.91948,39.05714],[-3.91768,39.05883],[-3.91658,39.05959],[-3.91576,39.05994],[-3.91526,39.05999],[-3.91058,39.05841]]]}}]}