{"type":"FeatureCollection","features":[{"type":"Feature","properties":{"id":"1303301001"},"geometry":{"type":"Polygon","coordinates":[[[-3.22177,38.54642],[-3.22282,38.54625],[-3.22593,38.54553],[-3.2283,38.54521],[-3.22981,38.54445],[-3.23345,38.54372],[-3.23562,38.54318],[-3.23682,38.5434],[-3.23722,38.54336],[-3.23878,38.54282],[-3.24025,38.54254],[-3.24347,38.54174],[-3.24384,38.54153],[-3.24461,38.54082],[-3.24514,38.54052],[-3.24653,38.53992],[-3.24828,38.53933],[-3.24895,38.5392],[-3.25207,38.53906],[-3.25593,38.53797],[-3.25883,38.53789],[-3.26046,38.53836],[-3.26176,38.53858],[-3.26367,38.5384],[-3.26685,38.53878],[-3.26794,38.53872],[-3.26971,38.53921],[-3.27068,38.53918],[-3.27188,38.53931],[-3.27236,38.53924],[-3.27291,38.53898],[-3.27303,38.53902],[-3.27323,38.53827],[-3.27516,38.53865],[-3.27754,38.53849],[-3.27881,38.53904],[-3.27936,38.53845],[-3.27984,38.53899],[-3.28,38.54009],[-3.28039,38.541],[-3.2811,38.54119],[-3.28208,38.54096],[-3.28347,38.54102],[-3.28512,38.54093],[-3.28839,38.54012],[-3.29134,38.53968],[-3.29423,38.53957],[-3.29508,38.53981],[-3.29647,38.54045],[-3.29735,38.5406],[-3.30213,38.53998],[-3.30658,38.54006],[-3.3114,38.53935],[-3.31597,38.53933],[-3.31767,38.53913],[-3.31972,38.53868],[-3.32113,38.53859],[-3.32289,38.53797],[-3.32429,38.53781],[-3.32705,38.53729],[-3.3341,38.5341],[-3.33639,38.53349],[-3.33642,38.53475],[-3.33702,38.53724],[-3.33714,38.53813],[-3.33703,38.53878],[-3.33635,38.54009],[-3.3357,38.54103],[-3.33539,38.54173],[-3.33526,38.543],[-3.33529,38.54379],[-3.33588,38.54677],[-3.33694,38.54928],[-3.33199,38.55795],[-3.33105,38.56386],[-3.32677,38.56896],[-3.32279,38.56966],[-3.32175,38.57011],[-3.32064,38.57089],[-3.31965,38.57192],[-3.31785,38.57337],[-3.31492,38.57446],[-3.314,38.57493],[-3.3122,38.57706],[-3.31108,38.57805],[-3.31032,38.57929],[-3.30885,38.58209],[-3.30663,38.58231],[-3.30536,38.58254],[-3.30396,38.583],[-3.30239,38.58333],[-3.30042,38.58354],[-3.29408,38.58346],[-3.29202,38.58367],[-3.28598,38.58287],[-3.28482,38.5826],[-3.2837,38.58259],[-3.27997,38.58326],[-3.26935,38.58454],[-3.26779,38.58491],[-3.25818,38.58221],[-3.2456,38.5765],[-3.24235,38.57445],[-3.23834,38.57254],[-3.2317,38.56972],[-3.22839,38.56477],[-3.22192,38.55298],[-3.22177,38.54642]]]}},{"type":"Feature","properties":{"id":"1303301002"},"geometry":{"type":"Polygon","coordinates":[[[-3.30526,38.47928],[-3.30702,38.47993],[-3.30747,38.47999],[-3.30798,38.47994],[-3.3103,38.4805],[-3.31283,38.47961],[-3.31326,38.47955],[-3.3182,38.47966],[-3.32025,38.47988],[-3.3208,38.48],[-3.32515,38.48179],[-3.32649,38.48212],[-3.33455,38.48071],[-3.33535,38.4805],[-3.33687,38.48589],[-3.33734,38.48825],[-3.33741,38.48903],[-3.33719,38.49116],[-3.3369,38.49177],[-3.3359,38.49272],[-3.33485,38.49341],[-3.33531,38.49371],[-3.33622,38.49461],[-3.33676,38.49538],[-3.33755,38.4972],[-3.33785,38.49879],[-3.33772,38.5001],[-3.33731,38.50206],[-3.33606,38.50553],[-3.33557,38.50646],[-3.33541,38.5071],[-3.3353,38.50879],[-3.3347,38.51177],[-3.33419,38.51318],[-3.33355,38.51591],[-3.33354,38.51656],[-3.33477,38.51855],[-3.33569,38.52057],[-3.33574,38.52131],[-3.33522,38.52704],[-3.33518,38.52861],[-3.33526,38.52941],[-3.33578,38.5308],[-3.33639,38.53349],[-3.3341,38.5341],[-3.32705,38.53729],[-3.32429,38.53781],[-3.32289,38.53797],[-3.32113,38.53859],[-3.31972,38.53868],[-3.31767,38.53913],[-3.31597,38.53933],[-3.3114,38.53935],[-3.30658,38.54006],[-3.30213,38.53998],[-3.29735,38.5406],[-3.29647,38.54045],[-3.29508,38.53981],[-3.29423,38.53957],[-3.29134,38.53968],[-3.28839,38.54012],[-3.28512,38.54093],[-3.28347,38.54102],[-3.28208,38.54096],[-3.2811,38.54119],[-3.28039,38.541],[-3.28,38.54009],[-3.27984,38.53899],[-3.27936,38.53845],[-3.27881,38.53904],[-3.27754,38.53849],[-3.27516,38.53865],[-3.27323,38.53827],[-3.27303,38.53902],[-3.27291,38.53898],[-3.27236,38.53924],[-3.27188,38.53931],[-3.27068,38.53918],[-3.26971,38.53921],[-3.26794,38.53872],[-3.26685,38.53878],[-3.26367,38.5384],[-3.26176,38.53858],[-3.26046,38.53836],[-3.25883,38.53789],[-3.25571,38.53799],[-3.25207,38.53906],[-3.24895,38.5392],[-3.24828,38.53933],[-3.24653,38.53992],[-3.24514,38.54052],[-3.24461,38.54082],[-3.24384,38.54153],[-3.24347,38.54174],[-3.24025,38.54254],[-3.23878,38.54282],[-3.23722,38.54336],[-3.23682,38.5434],[-3.23562,38.54318],[-3.23345,38.54372],[-3.22981,38.54445],[-3.2283,38.54521],[-3.22593,38.54553],[-3.22282,38.54625],[-3.22177,38.54642],[-3.22141,38.53001],[-3.22417,38.51943],[-3.23053,38.51141],[-3.23157,38.50999],[-3.23504,38.50461],[-3.24136,38.50128],[-3.24146,38.50069],[-3.24239,38.4999],[-3.24508,38.49959],[-3.24663,38.49961],[-3.24711,38.49948],[-3.2474,38.4993],[-3.24749,38.49899],[-3.24735,38.49852],[-3.24656,38.49783],[-3.24648,38.4976],[-3.24688,38.49712],[-3.24846,38.49575],[-3.24878,38.49566],[-3.24916,38.496],[-3.24948,38.49608],[-3.24973,38.49591],[-3.25012,38.49474],[-3.25075,38.49432],[-3.25092,38.4939],[-3.25119,38.49374],[-3.25469,38.49359],[-3.25523,38.49377],[-3.2559,38.49459],[-3.25643,38.49488],[-3.25717,38.49501],[-3.25913,38.49478],[-3.25966,38.49458],[-3.26012,38.49429],[-3.26051,38.4939],[-3.26127,38.49345],[-3.26227,38.49302],[-3.26353,38.49265],[-3.26429,38.49259],[-3.26508,38.49264],[-3.26518,38.49173],[-3.26559,38.49112],[-3.26772,38.48971],[-3.26883,38.48923],[-3.26977,38.48905],[-3.2703,38.48883],[-3.27101,38.48826],[-3.27191,38.48806],[-3.27338,38.48792],[-3.27391,38.48772],[-3.2752,38.48679],[-3.27547,38.48633],[-3.27628,38.48572],[-3.27818,38.48471],[-3.27912,38.4845],[-3.28125,38.48526],[-3.28212,38.48545],[-3.28273,38.48546],[-3.28374,38.48539],[-3.28784,38.4846],[-3.28847,38.48431],[-3.28941,38.48367],[-3.2906,38.48322],[-3.29102,38.48291],[-3.29127,38.48238],[-3.29127,38.48156],[-3.29138,38.48115],[-3.2917,38.48085],[-3.29224,38.48055],[-3.29257,38.48011],[-3.29282,38.47999],[-3.29335,38.48002],[-3.29367,38.47995],[-3.29448,38.47938],[-3.29496,38.47922],[-3.29622,38.47901],[-3.29653,38.47882],[-3.29687,38.47814],[-3.29717,38.47806],[-3.29777,38.47814],[-3.29912,38.47862],[-3.30007,38.47842],[-3.30159,38.47849],[-3.30307,38.47839],[-3.30341,38.47847],[-3.30443,38.47919],[-3.30526,38.47928]]]}}]}