{"type":"FeatureCollection","features":[{"type":"Feature","properties":{"id":"1303801001"},"geometry":{"type":"Polygon","coordinates":[[[-4.82977,38.78277],[-4.83138,38.78277],[-4.8393,38.78341],[-4.8416,38.78341],[-4.84325,38.78352],[-4.84865,38.78425],[-4.85232,38.78489],[-4.85309,38.7852],[-4.8543,38.78543],[-4.85496,38.78508],[-4.85519,38.78345],[-4.85515,38.78303],[-4.85378,38.78078],[-4.8529,38.77804],[-4.85286,38.77723],[-4.85339,38.77551],[-4.85333,38.77491],[-4.8529,38.77439],[-4.85148,38.77318],[-4.84797,38.7704],[-4.84698,38.76927],[-4.84691,38.76872],[-4.84704,38.76793],[-4.84807,38.7665],[-4.84862,38.76541],[-4.84897,38.76364],[-4.84915,38.76171],[-4.85005,38.75953],[-4.85063,38.7571],[-4.85104,38.75502],[-4.8511,38.75336],[-4.85152,38.75058],[-4.85142,38.74871],[-4.85109,38.74798],[-4.85027,38.74704],[-4.85024,38.74596],[-4.84976,38.74453],[-4.84991,38.74278],[-4.84987,38.74145],[-4.8496,38.74056],[-4.84958,38.73958],[-4.84977,38.73706],[-4.84938,38.73586],[-4.84949,38.73551],[-4.84938,38.73513],[-4.84851,38.73372],[-4.84859,38.73303],[-4.84842,38.73254],[-4.84803,38.73199],[-4.84791,38.73128],[-4.84794,38.72932],[-4.84857,38.72675],[-4.84988,38.72416],[-4.85128,38.71956],[-4.85125,38.71808],[-4.85161,38.71113],[-4.85352,38.70662],[-4.85389,38.70483],[-4.85511,38.70234],[-4.85714,38.69738],[-4.85811,38.69584],[-4.86888,38.68093],[-4.87697,38.68609],[-4.87664,38.68874],[-4.87935,38.69107],[-4.88052,38.6919],[-4.88183,38.69267],[-4.88633,38.69492],[-4.89097,38.69769],[-4.89255,38.6991],[-4.89393,38.70008],[-4.8951,38.70067],[-4.89947,38.70239],[-4.90032,38.70262],[-4.90108,38.70179],[-4.90213,38.70195],[-4.90333,38.70199],[-4.90669,38.70163],[-4.9098,38.70066],[-4.91206,38.70134],[-4.91803,38.70203],[-4.92092,38.70297],[-4.92322,38.70295],[-4.92389,38.70302],[-4.9262,38.70376],[-4.92236,38.70932],[-4.92099,38.71107],[-4.91656,38.71775],[-4.91387,38.72234],[-4.91183,38.72628],[-4.91069,38.72806],[-4.90809,38.73264],[-4.90586,38.73537],[-4.90436,38.73764],[-4.90137,38.74261],[-4.9006,38.74434],[-4.90124,38.74532],[-4.90239,38.74661],[-4.90297,38.74703],[-4.90579,38.74849],[-4.90977,38.75111],[-4.9113,38.75186],[-4.91376,38.75267],[-4.9146,38.75263],[-4.91508,38.75279],[-4.91664,38.75427],[-4.91714,38.75455],[-4.91872,38.755],[-4.92223,38.75563],[-4.92582,38.75657],[-4.92746,38.75706],[-4.92969,38.75788],[-4.93191,38.75884],[-4.93373,38.75996],[-4.93551,38.76123],[-4.93657,38.76217],[-4.93692,38.76296],[-4.93653,38.765],[-4.93669,38.76572],[-4.93705,38.76603],[-4.93924,38.76708],[-4.94237,38.76838],[-4.94424,38.76902],[-4.94768,38.77069],[-4.94888,38.77114],[-4.95042,38.77159],[-4.953,38.77206],[-4.95793,38.77254],[-4.95962,38.77289],[-4.96298,38.77462],[-4.96479,38.77516],[-4.96821,38.77601],[-4.96634,38.77863],[-4.96534,38.78041],[-4.96417,38.78222],[-4.96327,38.78389],[-4.96124,38.78845],[-4.96082,38.78977],[-4.96074,38.79078],[-4.96095,38.79655],[-4.95774,38.80362],[-4.95775,38.80394],[-4.95685,38.80317],[-4.95597,38.80277],[-4.95376,38.80198],[-4.95064,38.80136],[-4.94676,38.8004],[-4.945,38.80014],[-4.94286,38.80019],[-4.93942,38.80094],[-4.93395,38.80094],[-4.93056,38.80048],[-4.92871,38.80105],[-4.92571,38.80154],[-4.92017,38.80195],[-4.9186,38.80194],[-4.91278,38.80119],[-4.9123,38.8012],[-4.91067,38.80158],[-4.90816,38.80192],[-4.90611,38.80189],[-4.90422,38.80165],[-4.90291,38.80133],[-4.90187,38.80122],[-4.89784,38.8004],[-4.8926,38.79876],[-4.89131,38.79849],[-4.89066,38.79847],[-4.88968,38.79858],[-4.88785,38.79909],[-4.88382,38.79949],[-4.88261,38.79979],[-4.87893,38.79911],[-4.87515,38.79863],[-4.8727,38.79818],[-4.872,38.7978],[-4.86957,38.79716],[-4.86701,38.79668],[-4.86693,38.79683],[-4.86652,38.7968],[-4.86312,38.79606],[-4.85934,38.79452],[-4.85846,38.79421],[-4.85754,38.79408],[-4.85605,38.79358],[-4.85432,38.79266],[-4.84932,38.79098],[-4.84795,38.79047],[-4.84696,38.78993],[-4.846,38.78955],[-4.84207,38.78889],[-4.83614,38.78688],[-4.83278,38.78501],[-4.82977,38.78277]]]}},{"type":"Feature","properties":{"id":"1303801002"},"geometry":{"type":"Polygon","coordinates":[[[-4.8535,38.88291],[-4.85431,38.88262],[-4.85788,38.8802],[-4.8543,38.8795],[-4.8507,38.87816],[-4.84872,38.8776],[-4.84618,38.87589],[-4.8458,38.87498],[-4.84557,38.87474],[-4.84361,38.87382],[-4.84011,38.87515],[-4.83997,38.87533],[-4.83971,38.87709],[-4.83901,38.87836],[-4.8389,38.88008],[-4.83442,38.88025],[-4.8333,38.88014],[-4.82809,38.87856],[-4.82585,38.87818],[-4.8221,38.87785],[-4.81783,38.87722],[-4.81647,38.8772],[-4.81436,38.87741],[-4.81375,38.87731],[-4.81193,38.87642],[-4.80918,38.87451],[-4.80694,38.87461],[-4.80691,38.87494],[-4.80226,38.87749],[-4.7994,38.87755],[-4.79762,38.87887],[-4.79435,38.87906],[-4.79355,38.88077],[-4.79103,38.88172],[-4.78902,38.88173],[-4.78703,38.88164],[-4.78617,38.88171],[-4.78319,38.88281],[-4.78132,38.88297],[-4.77947,38.88333],[-4.7727,38.88512],[-4.77217,38.88421],[-4.77184,38.88335],[-4.77169,38.8825],[-4.77116,38.88171],[-4.77006,38.88069],[-4.77214,38.87822],[-4.77148,38.87682],[-4.77085,38.87513],[-4.77329,38.87244],[-4.77101,38.87139],[-4.76909,38.87027],[-4.76705,38.86844],[-4.76399,38.86826],[-4.76217,38.86827],[-4.76137,38.8675],[-4.76057,38.86748],[-4.75965,38.86676],[-4.75841,38.86612],[-4.75551,38.86489],[-4.75751,38.86255],[-4.75865,38.86152],[-4.7604,38.86038],[-4.76179,38.85969],[-4.76431,38.85912],[-4.76498,38.85871],[-4.76778,38.8563],[-4.76846,38.85564],[-4.76907,38.85467],[-4.76959,38.8532],[-4.7714,38.85075],[-4.77219,38.85013],[-4.77552,38.84854],[-4.77801,38.84655],[-4.77922,38.84518],[-4.77983,38.84427],[-4.78096,38.8437],[-4.78192,38.84337],[-4.78249,38.84293],[-4.78319,38.84224],[-4.78398,38.84099],[-4.78484,38.83991],[-4.78669,38.83834],[-4.78701,38.83692],[-4.78747,38.83644],[-4.79233,38.8335],[-4.79338,38.83261],[-4.79518,38.83177],[-4.79704,38.83118],[-4.80138,38.82891],[-4.80394,38.82722],[-4.80704,38.82545],[-4.80868,38.82423],[-4.80952,38.82341],[-4.81002,38.82271],[-4.81053,38.82039],[-4.811,38.81969],[-4.81183,38.81897],[-4.81268,38.81847],[-4.81403,38.81799],[-4.81667,38.81513],[-4.81764,38.81428],[-4.81905,38.81249],[-4.8198,38.81089],[-4.81964,38.80884],[-4.82006,38.80788],[-4.81994,38.80718],[-4.82001,38.80693],[-4.82052,38.80639],[-4.82172,38.80438],[-4.8234,38.80239],[-4.8243,38.80101],[-4.82511,38.7995],[-4.82698,38.79753],[-4.82757,38.79394],[-4.82858,38.79146],[-4.82919,38.79051],[-4.82973,38.78837],[-4.82985,38.78681],[-4.82946,38.78405],[-4.82953,38.78327],[-4.82977,38.78277],[-4.83278,38.78501],[-4.83614,38.78688],[-4.84207,38.78889],[-4.846,38.78955],[-4.84696,38.78993],[-4.84795,38.79047],[-4.84932,38.79098],[-4.85432,38.79266],[-4.85605,38.79358],[-4.85754,38.79408],[-4.85846,38.79421],[-4.85934,38.79452],[-4.86312,38.79606],[-4.86652,38.7968],[-4.86693,38.79683],[-4.86701,38.79668],[-4.86957,38.79716],[-4.872,38.7978],[-4.8727,38.79818],[-4.87515,38.79863],[-4.87893,38.79911],[-4.88261,38.79979],[-4.88382,38.79949],[-4.88785,38.79909],[-4.88968,38.79858],[-4.89066,38.79847],[-4.89131,38.79849],[-4.8926,38.79876],[-4.89784,38.8004],[-4.90187,38.80122],[-4.90291,38.80133],[-4.90422,38.80165],[-4.90611,38.80189],[-4.90816,38.80192],[-4.91067,38.80158],[-4.9123,38.8012],[-4.91278,38.80119],[-4.9186,38.80194],[-4.92017,38.80195],[-4.92571,38.80154],[-4.92871,38.80105],[-4.93056,38.80048],[-4.93395,38.80094],[-4.93942,38.80094],[-4.94286,38.80019],[-4.945,38.80014],[-4.94676,38.8004],[-4.95064,38.80136],[-4.95376,38.80198],[-4.95597,38.80277],[-4.95685,38.80317],[-4.95775,38.80394],[-4.95774,38.80362],[-4.95778,38.80556],[-4.95823,38.80897],[-4.9587,38.81034],[-4.95752,38.81413],[-4.95668,38.81794],[-4.95476,38.8229],[-4.95428,38.82698],[-4.95363,38.82996],[-4.9507,38.83643],[-4.94882,38.84015],[-4.9468,38.84366],[-4.94452,38.84713],[-4.94418,38.84808],[-4.94367,38.851],[-4.9436,38.8517],[-4.94367,38.85315],[-4.94348,38.85438],[-4.93997,38.85833],[-4.93742,38.86163],[-4.93458,38.86483],[-4.93266,38.86616],[-4.93063,38.86781],[-4.9295,38.86858],[-4.92798,38.86993],[-4.92766,38.87035],[-4.92672,38.87231],[-4.92576,38.87397],[-4.92508,38.8756],[-4.92426,38.8768],[-4.92227,38.87844],[-4.9192,38.88022],[-4.91877,38.88061],[-4.91772,38.88235],[-4.91713,38.88388],[-4.91658,38.88494],[-4.91494,38.88744],[-4.91264,38.88731],[-4.90952,38.88746],[-4.90733,38.88774],[-4.90407,38.88837],[-4.90169,38.88899],[-4.90032,38.88908],[-4.89932,38.88898],[-4.89573,38.88764],[-4.89514,38.88752],[-4.89452,38.88728],[-4.89029,38.88656],[-4.88972,38.88654],[-4.886,38.88685],[-4.88532,38.88673],[-4.8847,38.88684],[-4.88387,38.88726],[-4.88299,38.88751],[-4.87954,38.88786],[-4.8791,38.88782],[-4.87868,38.88765],[-4.87706,38.88666],[-4.87661,38.88654],[-4.87505,38.88653],[-4.87122,38.8867],[-4.86573,38.88709],[-4.86387,38.88643],[-4.86265,38.88587],[-4.85997,38.88494],[-4.8587,38.88493],[-4.85781,38.8848],[-4.85573,38.88378],[-4.85497,38.88309],[-4.8543,38.88326],[-4.8535,38.88291]]]}}]}