{"type":"FeatureCollection","features":[{"type":"Feature","properties":{"id":"1303101001"},"geometry":{"type":"Polygon","coordinates":[[[-3.79049,39.01817],[-3.80144,39.01857],[-3.80463,39.0186],[-3.80584,39.01847],[-3.80703,39.01818],[-3.80888,39.01733],[-3.81264,39.01492],[-3.81418,39.01408],[-3.8154,39.0157],[-3.81574,39.01563],[-3.81614,39.01689],[-3.81652,39.01878],[-3.81629,39.01953],[-3.81591,39.01973],[-3.81453,39.02285],[-3.81339,39.02454],[-3.8121,39.0273],[-3.81021,39.03014],[-3.80702,39.03399],[-3.80238,39.04096],[-3.80081,39.04261],[-3.79915,39.04391],[-3.79662,39.04677],[-3.79511,39.04974],[-3.79464,39.05152],[-3.79616,39.0644],[-3.79623,39.06525],[-3.79614,39.06586],[-3.79604,39.06624],[-3.79365,39.06898],[-3.79195,39.07251],[-3.79171,39.07538],[-3.79046,39.07719],[-3.78973,39.07559],[-3.78886,39.07447],[-3.78723,39.07282],[-3.78652,39.07085],[-3.78633,39.06959],[-3.78562,39.0696],[-3.78473,39.06697],[-3.78585,39.06665],[-3.78638,39.06631],[-3.78641,39.06585],[-3.786,39.06487],[-3.78546,39.06397],[-3.78304,39.06103],[-3.78324,39.06075],[-3.78322,39.0604],[-3.78287,39.0598],[-3.78308,39.05942],[-3.78379,39.05909],[-3.78468,39.05831],[-3.78588,39.05776],[-3.78593,39.05756],[-3.78563,39.05642],[-3.7855,39.05528],[-3.78558,39.05487],[-3.78632,39.05478],[-3.7866,39.05464],[-3.78707,39.05462],[-3.78718,39.0545],[-3.78701,39.05338],[-3.78683,39.05299],[-3.78766,39.05252],[-3.79012,39.05154],[-3.78988,39.05087],[-3.78724,39.05116],[-3.78686,39.04971],[-3.78548,39.04993],[-3.78479,39.04876],[-3.78258,39.0489],[-3.78178,39.04823],[-3.78165,39.04763],[-3.78167,39.04689],[-3.78405,39.04502],[-3.78407,39.04477],[-3.78338,39.04355],[-3.78267,39.04275],[-3.78138,39.0417],[-3.78104,39.04161],[-3.78036,39.04163],[-3.77677,39.0424],[-3.7764,39.04238],[-3.7778,39.0405],[-3.77857,39.03986],[-3.78211,39.03785],[-3.78187,39.03666],[-3.78193,39.03596],[-3.78293,39.0343],[-3.78391,39.03214],[-3.78495,39.02923],[-3.78615,39.02653],[-3.78687,39.02552],[-3.78707,39.02456],[-3.78833,39.02316],[-3.78903,39.02213],[-3.79049,39.01817]]]}},{"type":"Feature","properties":{"id":"1303101002"},"geometry":{"type":"Polygon","coordinates":[[[-3.79046,39.07719],[-3.79171,39.07538],[-3.79195,39.07251],[-3.79365,39.06898],[-3.79604,39.06624],[-3.79614,39.06586],[-3.79623,39.06525],[-3.79616,39.0644],[-3.79464,39.05152],[-3.79511,39.04974],[-3.79662,39.04677],[-3.79915,39.04391],[-3.80081,39.04261],[-3.80238,39.04096],[-3.80702,39.03399],[-3.81021,39.03014],[-3.8121,39.0273],[-3.81339,39.02454],[-3.81453,39.02285],[-3.81591,39.01973],[-3.81629,39.01953],[-3.81652,39.01878],[-3.81677,39.01874],[-3.81745,39.01818],[-3.8177,39.01771],[-3.82055,39.01592],[-3.82155,39.01558],[-3.82167,39.01566],[-3.82111,39.01652],[-3.82047,39.01791],[-3.82188,39.01806],[-3.82335,39.01838],[-3.82546,39.01839],[-3.82645,39.01854],[-3.83118,39.01799],[-3.832,39.0177],[-3.83352,39.01686],[-3.83433,39.01662],[-3.83753,39.0163],[-3.83925,39.01634],[-3.84051,39.01624],[-3.84202,39.01602],[-3.84331,39.01598],[-3.84498,39.01572],[-3.84707,39.01532],[-3.84981,39.01443],[-3.85163,39.01398],[-3.85504,39.01341],[-3.85626,39.0131],[-3.85791,39.01285],[-3.86142,39.01212],[-3.86459,39.01175],[-3.86585,39.01145],[-3.86662,39.01141],[-3.86937,39.01171],[-3.86974,39.01191],[-3.87398,39.01273],[-3.87627,39.01266],[-3.87895,39.01212],[-3.87965,39.01178],[-3.88023,39.01131],[-3.8817,39.01038],[-3.88251,39.00997],[-3.88347,39.00965],[-3.88452,39.0093],[-3.88484,39.00933],[-3.88597,39.00911],[-3.88618,39.00897],[-3.88656,39.00921],[-3.88597,39.01329],[-3.88614,39.01698],[-3.88573,39.01947],[-3.88547,39.02033],[-3.88382,39.0236],[-3.8825,39.02676],[-3.88212,39.02811],[-3.88182,39.03024],[-3.88238,39.03238],[-3.8823,39.03311],[-3.88248,39.03374],[-3.8837,39.03543],[-3.88515,39.03708],[-3.88641,39.03926],[-3.88789,39.04147],[-3.88957,39.04461],[-3.892,39.05017],[-3.89473,39.05349],[-3.89606,39.05459],[-3.89765,39.05561],[-3.89818,39.05581],[-3.90191,39.05657],[-3.90279,39.05654],[-3.90472,39.05628],[-3.90539,39.0568],[-3.90624,39.05727],[-3.90695,39.05699],[-3.90696,39.0575],[-3.9077,39.05727],[-3.90907,39.05654],[-3.91013,39.058],[-3.91058,39.05841],[-3.90919,39.06004],[-3.90616,39.06045],[-3.90525,39.06085],[-3.90369,39.06188],[-3.90139,39.06456],[-3.89978,39.0662],[-3.89828,39.0671],[-3.89737,39.06741],[-3.89623,39.06761],[-3.89504,39.06765],[-3.89368,39.06734],[-3.89104,39.06587],[-3.88894,39.06436],[-3.8872,39.06328],[-3.88618,39.06296],[-3.88527,39.06288],[-3.88458,39.063],[-3.88137,39.06482],[-3.87982,39.06642],[-3.87902,39.06711],[-3.87703,39.06842],[-3.8763,39.0688],[-3.87379,39.06967],[-3.87208,39.07002],[-3.87083,39.06999],[-3.86912,39.06972],[-3.86664,39.06909],[-3.86393,39.06862],[-3.86252,39.06852],[-3.86163,39.06873],[-3.85842,39.07037],[-3.85759,39.0712],[-3.85677,39.07239],[-3.85622,39.07297],[-3.85565,39.07331],[-3.85475,39.07344],[-3.85428,39.0734],[-3.85372,39.07358],[-3.8531,39.0741],[-3.85185,39.07489],[-3.85071,39.07541],[-3.84448,39.07677],[-3.84287,39.0769],[-3.84318,39.07791],[-3.84368,39.08243],[-3.84228,39.08399],[-3.83953,39.08618],[-3.83899,39.08675],[-3.83863,39.08762],[-3.83787,39.08814],[-3.8374,39.08782],[-3.83613,39.08831],[-3.83564,39.08831],[-3.82763,39.08513],[-3.82725,39.08546],[-3.82528,39.08876],[-3.82886,39.09039],[-3.83407,39.09313],[-3.8364,39.09425],[-3.83776,39.09482],[-3.84302,39.09639],[-3.84701,39.09801],[-3.84945,39.09951],[-3.85007,39.09943],[-3.85518,39.10396],[-3.85758,39.10516],[-3.85889,39.10564],[-3.86208,39.10717],[-3.863,39.10772],[-3.86492,39.10845],[-3.86641,39.10928],[-3.86712,39.10984],[-3.86864,39.11143],[-3.87002,39.11255],[-3.87096,39.11364],[-3.87178,39.11435],[-3.87363,39.11529],[-3.87467,39.11593],[-3.87663,39.11679],[-3.87734,39.11727],[-3.87804,39.11806],[-3.8808,39.1192],[-3.88002,39.12137],[-3.87777,39.12458],[-3.87261,39.13049],[-3.87202,39.13136],[-3.87182,39.13179],[-3.87147,39.13343],[-3.87118,39.13659],[-3.87091,39.13774],[-3.87027,39.13968],[-3.8694,39.14135],[-3.86771,39.14598],[-3.86361,39.14166],[-3.86141,39.13901],[-3.8589,39.13672],[-3.85711,39.13432],[-3.85149,39.12797],[-3.84822,39.12497],[-3.84631,39.12254],[-3.84286,39.11928],[-3.841,39.11715],[-3.84015,39.11633],[-3.83726,39.11401],[-3.83558,39.1131],[-3.8326,39.11108],[-3.83082,39.11001],[-3.8281,39.10867],[-3.82377,39.10699],[-3.82256,39.10629],[-3.82351,39.10509],[-3.81774,39.10294],[-3.81765,39.10447],[-3.81641,39.10425],[-3.81617,39.10401],[-3.81592,39.10326],[-3.81532,39.10245],[-3.81414,39.10225],[-3.81286,39.10223],[-3.81257,39.10207],[-3.81302,39.10149],[-3.81365,39.10094],[-3.81416,39.10067],[-3.81686,39.10049],[-3.81702,39.10098],[-3.81733,39.10122],[-3.81963,39.10165],[-3.82001,39.10156],[-3.82083,39.10087],[-3.81994,39.09957],[-3.81943,39.0994],[-3.8173,39.09932],[-3.81773,39.09857],[-3.81797,39.09704],[-3.81658,39.0972],[-3.8161,39.09734],[-3.81563,39.09768],[-3.81342,39.09978],[-3.81223,39.09909],[-3.81204,39.09874],[-3.81209,39.09715],[-3.81193,39.09268],[-3.81177,39.09131],[-3.81136,39.09072],[-3.80985,39.08937],[-3.80898,39.08832],[-3.80663,39.0858],[-3.80626,39.08529],[-3.80608,39.08483],[-3.80583,39.0846],[-3.80533,39.08445],[-3.80441,39.08479],[-3.80343,39.08493],[-3.8029,39.08483],[-3.80314,39.08382],[-3.80165,39.08375],[-3.80022,39.08403],[-3.79998,39.08677],[-3.79972,39.08725],[-3.79742,39.08532],[-3.79616,39.08447],[-3.79423,39.08289],[-3.79418,39.0826],[-3.79461,39.08207],[-3.79487,39.08112],[-3.7929,39.08083],[-3.79237,39.07838],[-3.79215,39.07821],[-3.79145,39.07819],[-3.79089,39.07829],[-3.79046,39.07719]]]}},{"type":"Feature","properties":{"id":"1303101003"},"geometry":{"type":"Polygon","coordinates":[[[-3.79049,39.01817],[-3.79093,39.01646],[-3.79121,39.01433],[-3.79152,39.01348],[-3.79213,39.01231],[-3.79302,39.00966],[-3.79196,39.00967],[-3.79178,39.00826],[-3.7918,39.00734],[-3.791,39.00452],[-3.79082,39.0034],[-3.79142,39.00318],[-3.79227,39.00329],[-3.79244,39.00153],[-3.79575,39.00017],[-3.79575,38.99948],[-3.79542,38.99869],[-3.79495,38.99811],[-3.79443,38.99778],[-3.79408,38.99734],[-3.79419,38.99718],[-3.79599,38.99679],[-3.79892,38.99456],[-3.79923,38.99422],[-3.79932,38.99383],[-3.79928,38.99325],[-3.79893,38.99213],[-3.79824,38.99086],[-3.79676,38.98701],[-3.7958,38.9854],[-3.79551,38.98501],[-3.79499,38.98465],[-3.79296,38.98387],[-3.796,38.98254],[-3.79736,38.98215],[-3.79988,38.98229],[-3.80253,38.98264],[-3.80294,38.98255],[-3.80462,38.98168],[-3.80527,38.98145],[-3.80791,38.98171],[-3.80857,38.98167],[-3.80964,38.98141],[-3.81085,38.98125],[-3.81262,38.98083],[-3.81452,38.98007],[-3.81829,38.97955],[-3.81916,38.97953],[-3.82044,38.97975],[-3.82018,38.98128],[-3.81994,38.982],[-3.8193,38.9833],[-3.81806,38.98635],[-3.82235,38.98645],[-3.82343,38.98812],[-3.82423,38.98915],[-3.82669,38.99162],[-3.82816,38.99281],[-3.82964,38.99365],[-3.83226,38.99477],[-3.83354,38.99519],[-3.83552,38.99575],[-3.84007,38.99677],[-3.84053,38.9961],[-3.84364,38.99654],[-3.8455,38.99712],[-3.84994,38.99973],[-3.8551,39.00221],[-3.85719,39.00343],[-3.85857,39.00457],[-3.85911,39.00483],[-3.86018,39.00509],[-3.86323,39.00488],[-3.86772,39.00492],[-3.87608,39.00554],[-3.87789,39.00586],[-3.88184,39.00683],[-3.88339,39.00744],[-3.88503,39.00823],[-3.88618,39.00897],[-3.88597,39.00911],[-3.88484,39.00933],[-3.88452,39.0093],[-3.88251,39.00997],[-3.88127,39.01062],[-3.87965,39.01178],[-3.87895,39.01212],[-3.87627,39.01266],[-3.87398,39.01273],[-3.86974,39.01191],[-3.86937,39.01171],[-3.86662,39.01141],[-3.86585,39.01145],[-3.86459,39.01175],[-3.86142,39.01212],[-3.85791,39.01285],[-3.85626,39.0131],[-3.85504,39.01341],[-3.85163,39.01398],[-3.84981,39.01443],[-3.84707,39.01532],[-3.84498,39.01572],[-3.84331,39.01598],[-3.84202,39.01602],[-3.84051,39.01624],[-3.83925,39.01634],[-3.83753,39.0163],[-3.83433,39.01662],[-3.83339,39.01692],[-3.832,39.0177],[-3.83134,39.01796],[-3.82878,39.01822],[-3.82691,39.01852],[-3.82645,39.01854],[-3.82546,39.01839],[-3.82335,39.01838],[-3.82188,39.01806],[-3.82047,39.01791],[-3.82111,39.01652],[-3.82167,39.01566],[-3.82155,39.01558],[-3.82055,39.01592],[-3.8177,39.01771],[-3.81745,39.01818],[-3.81677,39.01874],[-3.81651,39.01878],[-3.81614,39.01689],[-3.81574,39.01563],[-3.8154,39.0157],[-3.81418,39.01408],[-3.81264,39.01492],[-3.80888,39.01733],[-3.80703,39.01818],[-3.80584,39.01847],[-3.80463,39.0186],[-3.80144,39.01857],[-3.79049,39.01817]]]}}]}