{"type":"FeatureCollection","features":[{"type":"Feature","properties":{"id":"1306501001"},"geometry":{"type":"Polygon","coordinates":[[[-4.26673,39.16421],[-4.26535,39.1639],[-4.26391,39.16405],[-4.2635,39.16392],[-4.262,39.16375],[-4.26077,39.16378],[-4.25883,39.16368],[-4.2535,39.16373],[-4.25108,39.16279],[-4.24934,39.16246],[-4.24697,39.16138],[-4.24511,39.16074],[-4.24161,39.15916],[-4.23863,39.15802],[-4.2371,39.15768],[-4.23605,39.15729],[-4.23507,39.15653],[-4.23418,39.156],[-4.23347,39.15516],[-4.23278,39.1546],[-4.2323,39.15405],[-4.23082,39.15213],[-4.2301,39.15104],[-4.229,39.15002],[-4.22798,39.14928],[-4.22495,39.14835],[-4.22324,39.14828],[-4.22305,39.14814],[-4.22133,39.14748],[-4.2198,39.14716],[-4.21849,39.147],[-4.21617,39.14693],[-4.21358,39.147],[-4.20914,39.14694],[-4.20538,39.14764],[-4.20337,39.1479],[-4.19891,39.14921],[-4.1954,39.14999],[-4.19352,39.15008],[-4.19171,39.15006],[-4.18996,39.14981],[-4.18896,39.14937],[-4.18813,39.14845],[-4.18647,39.14702],[-4.18373,39.14597],[-4.18128,39.14569],[-4.18056,39.14569],[-4.17918,39.14539],[-4.17601,39.14519],[-4.16673,39.14431],[-4.16486,39.14425],[-4.16386,39.14441],[-4.16179,39.14503],[-4.16184,39.1451],[-4.16041,39.14561],[-4.15929,39.14621],[-4.15803,39.14668],[-4.15562,39.14703],[-4.15482,39.14704],[-4.15485,39.14653],[-4.15502,39.1461],[-4.15397,39.146],[-4.15409,39.14298],[-4.15534,39.13991],[-4.15702,39.13774],[-4.1571,39.13719],[-4.15665,39.13591],[-4.15689,39.13502],[-4.15752,39.13427],[-4.15821,39.13313],[-4.15855,39.13238],[-4.15877,39.13144],[-4.15882,39.13015],[-4.15857,39.12971],[-4.158,39.12803],[-4.15809,39.12709],[-4.15795,39.1266],[-4.15788,39.12548],[-4.16003,39.12441],[-4.16404,39.12197],[-4.16465,39.12171],[-4.16595,39.12138],[-4.16714,39.12122],[-4.17187,39.12023],[-4.17351,39.11996],[-4.17422,39.12081],[-4.17474,39.12111],[-4.17874,39.12165],[-4.18673,39.12352],[-4.18763,39.1239],[-4.18836,39.1244],[-4.19257,39.12598],[-4.19305,39.12595],[-4.19493,39.12538],[-4.19625,39.12535],[-4.20215,39.12646],[-4.20328,39.12624],[-4.20877,39.12442],[-4.20931,39.12487],[-4.21273,39.12357],[-4.21339,39.12341],[-4.21696,39.12305],[-4.21968,39.1231],[-4.22166,39.12334],[-4.22662,39.12323],[-4.22879,39.12361],[-4.23136,39.12543],[-4.2334,39.12709],[-4.23422,39.12798],[-4.23627,39.1295],[-4.23673,39.13284],[-4.23667,39.13369],[-4.23629,39.13557],[-4.23604,39.13749],[-4.23625,39.13956],[-4.23673,39.14028],[-4.23718,39.14076],[-4.23834,39.14162],[-4.24167,39.14377],[-4.24313,39.14453],[-4.24737,39.14646],[-4.2486,39.14688],[-4.25119,39.14749],[-4.25375,39.14772],[-4.25808,39.14867],[-4.25991,39.14896],[-4.2638,39.1491],[-4.26499,39.14895],[-4.26948,39.14941],[-4.27194,39.14945],[-4.27735,39.14982],[-4.27924,39.14975],[-4.28001,39.14963],[-4.2812,39.14922],[-4.28221,39.14899],[-4.28467,39.1486],[-4.28985,39.1496],[-4.2929,39.15034],[-4.29146,39.15297],[-4.29079,39.15361],[-4.28951,39.15408],[-4.28911,39.15445],[-4.28878,39.15505],[-4.28834,39.15653],[-4.28783,39.15735],[-4.28715,39.15813],[-4.28627,39.15871],[-4.28296,39.16033],[-4.27948,39.16273],[-4.27709,39.16384],[-4.27592,39.16468],[-4.27289,39.16499],[-4.26932,39.165],[-4.26774,39.16458],[-4.26673,39.16421]]]}},{"type":"Feature","properties":{"id":"1306501002"},"geometry":{"type":"Polygon","coordinates":[[[-4.09266,39.16994],[-4.09079,39.16686],[-4.09035,39.16647],[-4.08784,39.16316],[-4.08615,39.16075],[-4.08243,39.15491],[-4.08145,39.15288],[-4.08584,39.15185],[-4.10302,39.14851],[-4.10973,39.1473],[-4.116,39.14519],[-4.12229,39.14358],[-4.12513,39.14272],[-4.1267,39.1431],[-4.12909,39.14425],[-4.1361,39.14726],[-4.13752,39.14756],[-4.13813,39.14761],[-4.13932,39.14755],[-4.14117,39.14721],[-4.14211,39.14731],[-4.1438,39.14768],[-4.1443,39.14767],[-4.14772,39.147],[-4.14981,39.14678],[-4.15093,39.14678],[-4.15118,39.14691],[-4.15562,39.14703],[-4.15803,39.14668],[-4.15929,39.14621],[-4.16041,39.14561],[-4.16184,39.1451],[-4.16179,39.14503],[-4.16245,39.14479],[-4.16386,39.14441],[-4.1653,39.14424],[-4.17115,39.1447],[-4.17601,39.14519],[-4.17918,39.14539],[-4.18056,39.14569],[-4.18128,39.14569],[-4.18373,39.14597],[-4.18647,39.14702],[-4.18813,39.14845],[-4.18896,39.14937],[-4.18996,39.14981],[-4.19171,39.15006],[-4.19352,39.15008],[-4.1954,39.14999],[-4.19891,39.14921],[-4.20337,39.1479],[-4.20538,39.14764],[-4.20914,39.14694],[-4.21358,39.147],[-4.21617,39.14693],[-4.21849,39.147],[-4.2198,39.14716],[-4.22133,39.14748],[-4.22305,39.14814],[-4.22324,39.14828],[-4.22495,39.14835],[-4.22798,39.14928],[-4.229,39.15002],[-4.2301,39.15104],[-4.23082,39.15213],[-4.2323,39.15405],[-4.23278,39.1546],[-4.23347,39.15516],[-4.23418,39.156],[-4.23507,39.15653],[-4.23605,39.15729],[-4.2371,39.15768],[-4.23863,39.15802],[-4.24161,39.15916],[-4.24511,39.16074],[-4.24697,39.16138],[-4.24934,39.16246],[-4.25108,39.16279],[-4.2535,39.16373],[-4.25883,39.16368],[-4.26077,39.16378],[-4.262,39.16375],[-4.2635,39.16392],[-4.26391,39.16405],[-4.26535,39.1639],[-4.26673,39.16421],[-4.26774,39.16458],[-4.26932,39.165],[-4.27015,39.16504],[-4.27289,39.16499],[-4.27592,39.16468],[-4.27478,39.16648],[-4.27438,39.16851],[-4.27429,39.17011],[-4.27435,39.17098],[-4.27455,39.17202],[-4.27458,39.17297],[-4.27485,39.17389],[-4.27494,39.17577],[-4.27464,39.1765],[-4.27452,39.17719],[-4.27374,39.17867],[-4.27299,39.17976],[-4.27243,39.18035],[-4.27192,39.18045],[-4.27127,39.18015],[-4.27024,39.17931],[-4.26917,39.17715],[-4.26839,39.17523],[-4.26719,39.17358],[-4.26657,39.17293],[-4.266,39.17253],[-4.26537,39.17233],[-4.26436,39.17176],[-4.26333,39.17109],[-4.26243,39.17084],[-4.26061,39.17006],[-4.25956,39.16989],[-4.2586,39.16956],[-4.25781,39.16913],[-4.2573,39.16862],[-4.25674,39.16781],[-4.25144,39.1747],[-4.25056,39.17562],[-4.24931,39.17669],[-4.24755,39.17914],[-4.24576,39.18084],[-4.24322,39.183],[-4.24205,39.18377],[-4.24173,39.1846],[-4.24157,39.18546],[-4.24105,39.18649],[-4.24111,39.1874],[-4.24096,39.1883],[-4.24071,39.18903],[-4.24021,39.18982],[-4.2393,39.19181],[-4.23861,39.19273],[-4.23783,39.19335],[-4.23811,39.19445],[-4.23799,39.19499],[-4.23686,39.19626],[-4.2346,39.19585],[-4.23337,39.19552],[-4.23192,39.19553],[-4.22934,39.19529],[-4.22532,39.19448],[-4.22399,39.19403],[-4.22213,39.19361],[-4.22087,39.19349],[-4.21922,39.19386],[-4.21786,39.19399],[-4.2167,39.19371],[-4.21488,39.19365],[-4.2148,39.19345],[-4.21247,39.19322],[-4.21108,39.19311],[-4.20941,39.19314],[-4.20681,39.19301],[-4.20299,39.19359],[-4.20166,39.19365],[-4.19719,39.19468],[-4.19543,39.19486],[-4.1947,39.19501],[-4.19357,39.19552],[-4.19283,39.19623],[-4.1929,39.19608],[-4.1908,39.19636],[-4.18664,39.19613],[-4.18531,39.19601],[-4.18377,39.19568],[-4.18239,39.19506],[-4.18081,39.19406],[-4.17841,39.19343],[-4.1772,39.19324],[-4.17604,39.19293],[-4.17466,39.19278],[-4.17315,39.19239],[-4.16971,39.19196],[-4.16622,39.19185],[-4.16502,39.19193],[-4.16103,39.19193],[-4.15561,39.19112],[-4.15329,39.19101],[-4.15354,39.19081],[-4.15282,39.19089],[-4.15028,39.19064],[-4.14963,39.19041],[-4.14863,39.19025],[-4.14568,39.18866],[-4.145,39.18802],[-4.1424,39.18675],[-4.14152,39.18648],[-4.13793,39.18507],[-4.1356,39.18409],[-4.13451,39.18354],[-4.13266,39.18284],[-4.13036,39.18211],[-4.12926,39.18161],[-4.12813,39.18082],[-4.12735,39.18045],[-4.12651,39.18023],[-4.12378,39.17996],[-4.12139,39.17953],[-4.12057,39.17913],[-4.11963,39.17895],[-4.11899,39.17863],[-4.11773,39.17761],[-4.11688,39.17727],[-4.11591,39.17711],[-4.11486,39.17675],[-4.11381,39.17605],[-4.11119,39.17516],[-4.11038,39.17479],[-4.10691,39.17372],[-4.10525,39.1734],[-4.10445,39.17316],[-4.10378,39.1731],[-4.10206,39.17273],[-4.09877,39.17185],[-4.0965,39.17108],[-4.09266,39.16994]]]}},{"type":"Feature","properties":{"id":"1306501003"},"geometry":{"type":"Polygon","coordinates":[[[-4.09266,39.16994],[-4.0965,39.17108],[-4.09877,39.17185],[-4.10206,39.17273],[-4.10378,39.1731],[-4.10445,39.17316],[-4.10525,39.1734],[-4.10691,39.17372],[-4.11038,39.17479],[-4.11119,39.17516],[-4.11381,39.17605],[-4.11486,39.17675],[-4.11591,39.17711],[-4.11688,39.17727],[-4.11773,39.17761],[-4.11899,39.17863],[-4.11963,39.17895],[-4.12057,39.17913],[-4.12139,39.17953],[-4.12378,39.17996],[-4.12651,39.18023],[-4.12735,39.18045],[-4.12813,39.18082],[-4.12926,39.18161],[-4.13036,39.18211],[-4.13266,39.18284],[-4.13451,39.18354],[-4.1356,39.18409],[-4.13793,39.18507],[-4.14152,39.18648],[-4.1424,39.18675],[-4.145,39.18802],[-4.14568,39.18866],[-4.14863,39.19025],[-4.14963,39.19041],[-4.15028,39.19064],[-4.15282,39.19089],[-4.15354,39.19081],[-4.15329,39.19101],[-4.15561,39.19112],[-4.16103,39.19193],[-4.16502,39.19193],[-4.16622,39.19185],[-4.16971,39.19196],[-4.17315,39.19239],[-4.17466,39.19278],[-4.17604,39.19293],[-4.1772,39.19324],[-4.17841,39.19343],[-4.18081,39.19406],[-4.18239,39.19506],[-4.18377,39.19568],[-4.18531,39.19601],[-4.18664,39.19613],[-4.1908,39.19636],[-4.1929,39.19608],[-4.19283,39.19623],[-4.19357,39.19552],[-4.1947,39.19501],[-4.19543,39.19486],[-4.19719,39.19468],[-4.20166,39.19365],[-4.20299,39.19359],[-4.20681,39.19301],[-4.20941,39.19314],[-4.21108,39.19311],[-4.21247,39.19322],[-4.2148,39.19345],[-4.21488,39.19365],[-4.2167,39.19371],[-4.21786,39.19399],[-4.21922,39.19386],[-4.22087,39.19349],[-4.22213,39.19361],[-4.22399,39.19403],[-4.22532,39.19448],[-4.22934,39.19529],[-4.23192,39.19553],[-4.23337,39.19552],[-4.2346,39.19585],[-4.23686,39.19626],[-4.23541,39.19857],[-4.2346,39.20085],[-4.23367,39.20213],[-4.23465,39.20275],[-4.23523,39.20333],[-4.2366,39.20535],[-4.23721,39.20607],[-4.24066,39.20891],[-4.24138,39.20968],[-4.24269,39.21188],[-4.23943,39.21363],[-4.23515,39.21527],[-4.23326,39.21619],[-4.23207,39.2175],[-4.2305,39.21882],[-4.22952,39.21935],[-4.2273,39.22004],[-4.22368,39.22238],[-4.22557,39.22407],[-4.22688,39.22506],[-4.23251,39.22891],[-4.23752,39.23277],[-4.23978,39.23473],[-4.2403,39.23546],[-4.24228,39.23688],[-4.24264,39.23727],[-4.24271,39.23767],[-4.24312,39.23792],[-4.2436,39.23803],[-4.24414,39.23799],[-4.24489,39.23786],[-4.24565,39.23759],[-4.24644,39.23723],[-4.2481,39.23598],[-4.25009,39.23469],[-4.25151,39.23433],[-4.25401,39.23335],[-4.25536,39.23305],[-4.25696,39.23302],[-4.25888,39.23275],[-4.26083,39.23232],[-4.26069,39.2332],[-4.2607,39.23393],[-4.26123,39.23712],[-4.26209,39.23912],[-4.26222,39.24038],[-4.2628,39.24273],[-4.26392,39.24387],[-4.26617,39.24387],[-4.27272,39.24412],[-4.28371,39.24399],[-4.28356,39.24452],[-4.28353,39.24604],[-4.28456,39.24848],[-4.28464,39.24917],[-4.28244,39.25322],[-4.28213,39.25438],[-4.28165,39.25532],[-4.28034,39.25667],[-4.27905,39.25868],[-4.27796,39.26011],[-4.28077,39.26163],[-4.28206,39.26243],[-4.28454,39.26474],[-4.28334,39.26511],[-4.28181,39.26574],[-4.2798,39.26677],[-4.2779,39.26743],[-4.27431,39.26825],[-4.27089,39.26857],[-4.26631,39.26925],[-4.26124,39.27091],[-4.2341,39.27899],[-4.21584,39.28395],[-4.20273,39.28786],[-4.19935,39.28864],[-4.19521,39.28927],[-4.18879,39.29122],[-4.18667,39.29213],[-4.18448,39.29285],[-4.17572,39.29548],[-4.17441,39.28591],[-4.17286,39.28452],[-4.16712,39.27699],[-4.14266,39.27386],[-4.13885,39.26762],[-4.13932,39.25822],[-4.13925,39.25774],[-4.13887,39.25703],[-4.1384,39.25651],[-4.13794,39.25625],[-4.13354,39.25478],[-4.12945,39.23735],[-4.12761,39.23094],[-4.11799,39.22201],[-4.11757,39.21461],[-4.1114,39.20958],[-4.10498,39.20586],[-4.10539,39.19947],[-4.10753,39.19639],[-4.10325,39.19212],[-4.10136,39.18485],[-4.09266,39.16994]]]}},{"type":"Feature","properties":{"id":"1306501004"},"geometry":{"type":"Polygon","coordinates":[[[-4.15409,39.14298],[-4.15397,39.146],[-4.15502,39.1461],[-4.15481,39.14699],[-4.15118,39.14691],[-4.15093,39.14678],[-4.14981,39.14678],[-4.14772,39.147],[-4.14596,39.1474],[-4.1443,39.14767],[-4.1438,39.14768],[-4.14146,39.14722],[-4.14098,39.14721],[-4.13932,39.14755],[-4.13845,39.14762],[-4.13752,39.14756],[-4.1361,39.14726],[-4.12909,39.14425],[-4.1267,39.1431],[-4.12513,39.14272],[-4.12229,39.14358],[-4.116,39.14519],[-4.10973,39.1473],[-4.10302,39.14851],[-4.08584,39.15185],[-4.08145,39.15288],[-4.08622,39.14619],[-4.08769,39.14428],[-4.08866,39.14317],[-4.09108,39.14078],[-4.09277,39.13932],[-4.09299,39.13902],[-4.09375,39.13666],[-4.09462,39.13449],[-4.09504,39.13393],[-4.09565,39.13357],[-4.0986,39.13372],[-4.09861,39.13491],[-4.10146,39.13584],[-4.10399,39.13636],[-4.10542,39.13695],[-4.10684,39.13779],[-4.10823,39.13783],[-4.11014,39.13763],[-4.11124,39.13769],[-4.11327,39.138],[-4.11403,39.1379],[-4.11638,39.13738],[-4.1215,39.13602],[-4.12319,39.13545],[-4.12719,39.13367],[-4.13106,39.1315],[-4.13378,39.13037],[-4.15604,39.12623],[-4.15788,39.12548],[-4.15795,39.1266],[-4.15809,39.12709],[-4.158,39.12803],[-4.15857,39.12971],[-4.15882,39.13015],[-4.15877,39.13144],[-4.15855,39.13238],[-4.15821,39.13313],[-4.15752,39.13427],[-4.15689,39.13502],[-4.15665,39.13591],[-4.1571,39.13719],[-4.15702,39.13774],[-4.15534,39.13991],[-4.15409,39.14298]]]}}]}