{"type":"FeatureCollection","features":[{"type":"Feature","properties":{"id":"1309701001"},"geometry":{"type":"Polygon","coordinates":[[[-3.4499,39.27891],[-3.43547,39.25636],[-3.4345,39.25469],[-3.43285,39.25095],[-3.43097,39.24612],[-3.42728,39.24227],[-3.42454,39.24037],[-3.42432,39.23996],[-3.42388,39.23808],[-3.42196,39.23616],[-3.42059,39.23452],[-3.41769,39.22774],[-3.4172,39.22802],[-3.41294,39.21834],[-3.4133,39.218],[-3.41345,39.2177],[-3.41339,39.21727],[-3.40826,39.20563],[-3.40697,39.20466],[-3.40567,39.20212],[-3.40509,39.20022],[-3.40419,39.19845],[-3.40274,39.19452],[-3.40303,39.19368],[-3.40292,39.1927],[-3.40063,39.18669],[-3.40052,39.18612],[-3.40053,39.18544],[-3.40128,39.18179],[-3.40116,39.18009],[-3.40119,39.17819],[-3.40146,39.17703],[-3.40259,39.17423],[-3.40253,39.171],[-3.40289,39.16678],[-3.40286,39.16584],[-3.40201,39.16132],[-3.40203,39.16083],[-3.40034,39.15648],[-3.39935,39.15449],[-3.39572,39.15108],[-3.39415,39.14989],[-3.39323,39.1494],[-3.39025,39.14727],[-3.38899,39.14625],[-3.38711,39.1445],[-3.38416,39.142],[-3.38378,39.14128],[-3.38607,39.14185],[-3.38748,39.14197],[-3.39253,39.14283],[-3.39291,39.14284],[-3.394,39.14264],[-3.39598,39.14269],[-3.39686,39.14284],[-3.39847,39.14294],[-3.40006,39.14295],[-3.40087,39.14313],[-3.40274,39.14377],[-3.40367,39.14379],[-3.41281,39.14321],[-3.41292,39.14125],[-3.41522,39.14128],[-3.42002,39.14351],[-3.42383,39.14353],[-3.42343,39.14407],[-3.42571,39.14491],[-3.42506,39.14536],[-3.42465,39.14534],[-3.4246,39.1455],[-3.42421,39.14565],[-3.42571,39.14799],[-3.42718,39.14923],[-3.42775,39.14988],[-3.43138,39.15274],[-3.43514,39.15595],[-3.44186,39.15905],[-3.44986,39.16517],[-3.45233,39.16679],[-3.45272,39.16723],[-3.4545,39.1677],[-3.45508,39.168],[-3.46089,39.17467],[-3.46618,39.18035],[-3.46748,39.18194],[-3.46892,39.18321],[-3.47175,39.18627],[-3.47323,39.18813],[-3.47272,39.18863],[-3.46648,39.19888],[-3.46532,39.19974],[-3.46429,39.20087],[-3.46099,39.20535],[-3.45921,39.2084],[-3.45738,39.21039],[-3.45634,39.21238],[-3.45455,39.21434],[-3.45425,39.21486],[-3.45353,39.21664],[-3.45017,39.22218],[-3.45477,39.22565],[-3.46136,39.22988],[-3.46271,39.23051],[-3.46349,39.23293],[-3.46457,39.23457],[-3.4684,39.23741],[-3.46957,39.23861],[-3.47098,39.24209],[-3.47187,39.24523],[-3.47331,39.2493],[-3.47358,39.25488],[-3.47326,39.25825],[-3.47391,39.26179],[-3.47375,39.2631],[-3.47357,39.26365],[-3.47307,39.26413],[-3.4706,39.2657],[-3.47004,39.26623],[-3.46912,39.2674],[-3.46738,39.2685],[-3.46626,39.26952],[-3.46531,39.2714],[-3.46437,39.27436],[-3.46427,39.27709],[-3.46406,39.27765],[-3.46314,39.27936],[-3.46057,39.27904],[-3.45935,39.279],[-3.45788,39.27853],[-3.45491,39.27859],[-3.45215,39.27846],[-3.45154,39.2785],[-3.4499,39.27891]]]}},{"type":"Feature","properties":{"id":"1309701002"},"geometry":{"type":"Polygon","coordinates":[[[-3.44337,39.27802],[-3.44329,39.27749],[-3.44204,39.27486],[-3.44157,39.2742],[-3.43957,39.27421],[-3.43736,39.27406],[-3.43608,39.27371],[-3.4343,39.273],[-3.43129,39.27029],[-3.42493,39.26574],[-3.42311,39.2646],[-3.42283,39.26431],[-3.42255,39.26273],[-3.42004,39.26005],[-3.41716,39.26001],[-3.40831,39.25392],[-3.4072,39.25147],[-3.40563,39.25117],[-3.40623,39.25002],[-3.40599,39.2474],[-3.4084,39.24581],[-3.40822,39.24091],[-3.41524,39.23035],[-3.41604,39.22952],[-3.4172,39.22802],[-3.41769,39.22774],[-3.42059,39.23452],[-3.42196,39.23616],[-3.42388,39.23808],[-3.42432,39.23996],[-3.42454,39.24037],[-3.42728,39.24227],[-3.43097,39.24612],[-3.43285,39.25095],[-3.4345,39.25469],[-3.43547,39.25636],[-3.4499,39.27891],[-3.44878,39.27919],[-3.44812,39.27926],[-3.4473,39.2792],[-3.44565,39.2789],[-3.44453,39.27857],[-3.44337,39.27802]]]}}]}