{"type":"FeatureCollection","features":[{"type":"Feature","properties":{"id":"1400701001"},"geometry":{"type":"Polygon","coordinates":[[[-4.32351,37.61653],[-4.32361,37.6162],[-4.32327,37.61592],[-4.32307,37.6151],[-4.32308,37.61413],[-4.32366,37.61412],[-4.32445,37.61426],[-4.32452,37.61383],[-4.32527,37.61428],[-4.32564,37.6141],[-4.32643,37.61396],[-4.32721,37.6139],[-4.3278,37.61402],[-4.32885,37.61367],[-4.32884,37.61379],[-4.32922,37.61383],[-4.32931,37.61474],[-4.32907,37.61507],[-4.32906,37.61564],[-4.32777,37.6157],[-4.32774,37.61605],[-4.32669,37.61599],[-4.32659,37.61657],[-4.32591,37.61647],[-4.32599,37.61746],[-4.32442,37.61734],[-4.3236,37.61676],[-4.32351,37.61653]]]}},{"type":"Feature","properties":{"id":"1400701002"},"geometry":{"type":"Polygon","coordinates":[[[-4.3273,37.62133],[-4.32439,37.61734],[-4.32599,37.61746],[-4.32591,37.61647],[-4.32659,37.61657],[-4.32669,37.61599],[-4.32774,37.61605],[-4.32777,37.6157],[-4.32906,37.61564],[-4.32991,37.6155],[-4.33019,37.61604],[-4.32958,37.61628],[-4.33023,37.61715],[-4.33093,37.6177],[-4.33006,37.61812],[-4.32938,37.62002],[-4.32904,37.62046],[-4.32857,37.62079],[-4.3273,37.62133]]]}},{"type":"Feature","properties":{"id":"1400702001"},"geometry":{"type":"Polygon","coordinates":[[[-4.33019,37.61604],[-4.32991,37.6155],[-4.32906,37.61564],[-4.32907,37.61507],[-4.32931,37.61474],[-4.32933,37.61435],[-4.32922,37.61383],[-4.32884,37.61379],[-4.32885,37.61367],[-4.3296,37.61368],[-4.33155,37.61303],[-4.33166,37.61287],[-4.33203,37.61276],[-4.33212,37.61303],[-4.33191,37.61345],[-4.3321,37.61392],[-4.33381,37.6141],[-4.33378,37.61457],[-4.33388,37.61489],[-4.33423,37.61473],[-4.33457,37.61555],[-4.33323,37.61679],[-4.331,37.61776],[-4.33023,37.61715],[-4.32958,37.61628],[-4.33019,37.61604]]]}},{"type":"Feature","properties":{"id":"1400703001"},"geometry":{"type":"Polygon","coordinates":[[[-4.32327,37.61592],[-4.32361,37.6162],[-4.32351,37.61653],[-4.3236,37.61676],[-4.32433,37.61724],[-4.32489,37.61804],[-4.32219,37.6198],[-4.32102,37.61874],[-4.32228,37.6179],[-4.32234,37.61773],[-4.32276,37.61741],[-4.3233,37.61649],[-4.32303,37.61638],[-4.32327,37.61592]]]}},{"type":"Feature","properties":{"id":"1400703002"},"geometry":{"type":"Polygon","coordinates":[[[-4.31732,37.61843],[-4.32122,37.61603],[-4.32254,37.61571],[-4.32324,37.61575],[-4.32327,37.61592],[-4.32303,37.61638],[-4.3233,37.61649],[-4.32276,37.61741],[-4.32234,37.61773],[-4.32228,37.6179],[-4.32102,37.61874],[-4.32219,37.6198],[-4.32006,37.62122],[-4.31732,37.61843]]]}},{"type":"Feature","properties":{"id":"1400703003"},"geometry":{"type":"Polygon","coordinates":[[[-4.32324,37.61575],[-4.32254,37.61571],[-4.32236,37.6154],[-4.32111,37.61509],[-4.32104,37.61462],[-4.32144,37.61386],[-4.32141,37.61324],[-4.32112,37.61216],[-4.32269,37.61091],[-4.32315,37.6104],[-4.32323,37.61134],[-4.32406,37.6112],[-4.32542,37.61142],[-4.32575,37.61113],[-4.3265,37.61083],[-4.3276,37.61067],[-4.32802,37.61047],[-4.32858,37.61068],[-4.32877,37.61109],[-4.32649,37.61168],[-4.32613,37.61168],[-4.32538,37.61249],[-4.32507,37.61297],[-4.32507,37.61336],[-4.32518,37.61367],[-4.32554,37.61414],[-4.32527,37.61428],[-4.32452,37.61383],[-4.32445,37.61426],[-4.32366,37.61412],[-4.32308,37.61413],[-4.32307,37.6151],[-4.32324,37.61575]]]}},{"type":"Feature","properties":{"id":"1400703004"},"geometry":{"type":"Polygon","coordinates":[[[-4.28454,37.81846],[-4.28596,37.81526],[-4.28608,37.81457],[-4.28604,37.81405],[-4.28591,37.81379],[-4.2844,37.81258],[-4.28412,37.8122],[-4.28419,37.81135],[-4.28528,37.80884],[-4.28596,37.80756],[-4.28616,37.80697],[-4.28617,37.80448],[-4.28731,37.80254],[-4.28764,37.80151],[-4.28755,37.80049],[-4.28674,37.79898],[-4.28674,37.79654],[-4.28657,37.79618],[-4.28627,37.79593],[-4.28514,37.79548],[-4.28262,37.79514],[-4.27931,37.79406],[-4.27698,37.79212],[-4.27165,37.78597],[-4.27195,37.78527],[-4.26847,37.7814],[-4.26806,37.78169],[-4.26662,37.77984],[-4.26573,37.77825],[-4.26428,37.77512],[-4.26404,37.77435],[-4.26399,37.7735],[-4.26645,37.77319],[-4.26679,37.76981],[-4.26663,37.76874],[-4.26538,37.76726],[-4.26376,37.76471],[-4.26367,37.76417],[-4.26348,37.76377],[-4.26246,37.76248],[-4.26034,37.76117],[-4.25826,37.76007],[-4.25769,37.75971],[-4.25743,37.75937],[-4.25726,37.75892],[-4.25707,37.75752],[-4.25709,37.75699],[-4.25647,37.756],[-4.25626,37.75543],[-4.25641,37.75418],[-4.25624,37.75358],[-4.25563,37.75259],[-4.25536,37.75194],[-4.2551,37.74992],[-4.25485,37.74955],[-4.25444,37.74922],[-4.25181,37.74831],[-4.25049,37.74795],[-4.25007,37.74765],[-4.24972,37.74726],[-4.24961,37.74663],[-4.24966,37.74625],[-4.25016,37.74517],[-4.2501,37.74471],[-4.2495,37.74404],[-4.24765,37.7436],[-4.2467,37.74291],[-4.24429,37.74143],[-4.24351,37.74069],[-4.24137,37.73942],[-4.23987,37.73865],[-4.23924,37.7385],[-4.23878,37.7385],[-4.2376,37.73884],[-4.23635,37.73898],[-4.23471,37.7389],[-4.23521,37.73621],[-4.23552,37.73525],[-4.23665,37.73345],[-4.23712,37.73159],[-4.23767,37.73039],[-4.23845,37.72921],[-4.23934,37.72757],[-4.23951,37.72701],[-4.23955,37.72561],[-4.23926,37.72347],[-4.23848,37.7198],[-4.23816,37.71963],[-4.23744,37.71952],[-4.23431,37.71932],[-4.23191,37.719],[-4.22621,37.71771],[-4.2227,37.71651],[-4.21947,37.71519],[-4.2174,37.71451],[-4.21484,37.71382],[-4.21129,37.71215],[-4.20783,37.71082],[-4.20536,37.71015],[-4.20254,37.7092],[-4.19893,37.70833],[-4.19784,37.70825],[-4.19676,37.70837],[-4.19486,37.70893],[-4.19419,37.70899],[-4.19364,37.70885],[-4.19009,37.70675],[-4.18902,37.70644],[-4.18764,37.7064],[-4.18696,37.70662],[-4.18584,37.70678],[-4.18464,37.7067],[-4.18351,37.70704],[-4.18307,37.70674],[-4.18252,37.70615],[-4.18227,37.70571],[-4.18176,37.70272],[-4.18157,37.70221],[-4.18073,37.70091],[-4.1805,37.70039],[-4.1803,37.69933],[-4.18007,37.69902],[-4.17965,37.69871],[-4.17842,37.69808],[-4.1775,37.69733],[-4.17723,37.6966],[-4.17687,37.69614],[-4.17288,37.69212],[-4.17264,37.6917],[-4.17236,37.69055],[-4.17185,37.68972],[-4.16605,37.68378],[-4.16539,37.68304],[-4.16437,37.68151],[-4.1654,37.68094],[-4.16609,37.68068],[-4.16809,37.67947],[-4.17282,37.6783],[-4.17542,37.67738],[-4.17804,37.67566],[-4.18072,37.6744],[-4.18134,37.67399],[-4.18214,37.67321],[-4.18536,37.67112],[-4.18765,37.67003],[-4.19005,37.66798],[-4.19178,37.66675],[-4.19405,37.66405],[-4.19609,37.66281],[-4.1974,37.66181],[-4.19841,37.66071],[-4.20038,37.65887],[-4.20214,37.65692],[-4.20608,37.6536],[-4.21069,37.65077],[-4.21328,37.64891],[-4.21403,37.64806],[-4.2142,37.6472],[-4.21483,37.64674],[-4.2197,37.64434],[-4.22044,37.6439],[-4.22213,37.64245],[-4.22323,37.64179],[-4.22608,37.64075],[-4.22787,37.63978],[-4.2281,37.63954],[-4.22776,37.63917],[-4.2259,37.63836],[-4.22563,37.63806],[-4.22546,37.63768],[-4.2259,37.63566],[-4.22589,37.63525],[-4.22559,37.63471],[-4.22493,37.63408],[-4.22441,37.63341],[-4.22416,37.63287],[-4.22404,37.6323],[-4.22422,37.63138],[-4.22403,37.63102],[-4.22357,37.63071],[-4.22279,37.63053],[-4.22194,37.63049],[-4.2214,37.63033],[-4.22074,37.62993],[-4.22021,37.62949],[-4.21969,37.6285],[-4.21844,37.62762],[-4.21825,37.62736],[-4.21818,37.62654],[-4.21918,37.62675],[-4.21966,37.62701],[-4.22027,37.62718],[-4.22095,37.62723],[-4.22384,37.62675],[-4.22447,37.62632],[-4.22503,37.62579],[-4.22544,37.62522],[-4.22614,37.62487],[-4.22758,37.62352],[-4.22891,37.62281],[-4.23126,37.62264],[-4.23459,37.62007],[-4.23568,37.61953],[-4.2378,37.61887],[-4.24486,37.61698],[-4.24677,37.61631],[-4.24835,37.61563],[-4.24864,37.61525],[-4.24909,37.61368],[-4.24906,37.61341],[-4.2508,37.61237],[-4.25089,37.61212],[-4.2506,37.61039],[-4.25066,37.60986],[-4.25147,37.60874],[-4.2574,37.60541],[-4.26005,37.60455],[-4.26117,37.60435],[-4.26376,37.60455],[-4.26405,37.6045],[-4.26606,37.60372],[-4.26838,37.60305],[-4.26959,37.60258],[-4.2732,37.60053],[-4.27489,37.59981],[-4.27973,37.59808],[-4.28118,37.59747],[-4.28617,37.59505],[-4.28983,37.59353],[-4.29333,37.59238],[-4.29492,37.591],[-4.29702,37.58841],[-4.29776,37.58643],[-4.2979,37.58538],[-4.29871,37.5832],[-4.29913,37.58231],[-4.30014,37.58094],[-4.30121,37.58],[-4.30272,37.57901],[-4.30572,37.57738],[-4.30782,37.57551],[-4.30933,37.57494],[-4.31008,37.57441],[-4.31044,37.57401],[-4.31475,37.57265],[-4.31614,37.57212],[-4.31793,37.57184],[-4.31918,37.57189],[-4.31998,37.5718],[-4.32071,37.57154],[-4.32155,37.57111],[-4.32357,37.57044],[-4.32402,37.57019],[-4.32456,37.56955],[-4.32474,37.56948],[-4.3265,37.56978],[-4.32781,37.5698],[-4.32957,37.56909],[-4.33141,37.56887],[-4.33278,37.56891],[-4.33548,37.56802],[-4.33657,37.5678],[-4.3386,37.56747],[-4.34212,37.56711],[-4.34283,37.56678],[-4.34503,37.56547],[-4.34858,37.56303],[-4.34943,37.56232],[-4.35042,37.56234],[-4.35149,37.56263],[-4.35346,37.56301],[-4.35452,37.56306],[-4.35502,37.56321],[-4.35529,37.56343],[-4.35723,37.56606],[-4.35931,37.56923],[-4.35942,37.57011],[-4.35914,37.57423],[-4.35892,37.57555],[-4.35875,37.57604],[-4.35699,37.57822],[-4.3584,37.57889],[-4.35884,37.57893],[-4.3635,37.57841],[-4.36543,37.57839],[-4.36624,37.57814],[-4.36746,37.57761],[-4.3687,37.57728],[-4.37044,37.57694],[-4.37302,37.57671],[-4.3736,37.57691],[-4.37636,37.57866],[-4.37726,37.57901],[-4.38007,37.57955],[-4.38201,37.57979],[-4.38549,37.5799],[-4.38755,37.57933],[-4.38565,37.57764],[-4.38514,37.57694],[-4.38422,37.57355],[-4.38428,37.57215],[-4.38409,37.57177],[-4.3832,37.57082],[-4.38288,37.57029],[-4.38277,37.56958],[-4.3829,37.56793],[-4.38308,37.56733],[-4.3843,37.56585],[-4.38473,37.56157],[-4.38445,37.55996],[-4.38243,37.55688],[-4.38164,37.55615],[-4.3802,37.55524],[-4.38017,37.555],[-4.38041,37.55342],[-4.38063,37.55309],[-4.38106,37.55286],[-4.38321,37.55219],[-4.38369,37.55186],[-4.38421,37.55129],[-4.38479,37.5499],[-4.38552,37.54899],[-4.38765,37.54763],[-4.38813,37.54715],[-4.38857,37.54641],[-4.38894,37.54514],[-4.38905,37.54434],[-4.38869,37.54134],[-4.38822,37.5393],[-4.38912,37.53931],[-4.38979,37.53956],[-4.39025,37.5399],[-4.39133,37.54121],[-4.39276,37.54342],[-4.39374,37.54443],[-4.39511,37.54623],[-4.39554,37.54666],[-4.39718,37.54734],[-4.399,37.54924],[-4.40051,37.55061],[-4.40152,37.55106],[-4.4018,37.55128],[-4.40201,37.55181],[-4.40239,37.55211],[-4.40303,37.5524],[-4.40455,37.55272],[-4.40478,37.55302],[-4.40513,37.55452],[-4.40529,37.55479],[-4.40581,37.55504],[-4.40741,37.55535],[-4.40888,37.55544],[-4.41009,37.55564],[-4.41076,37.55566],[-4.41148,37.55555],[-4.41163,37.55603],[-4.41165,37.55665],[-4.41146,37.55701],[-4.41113,37.55719],[-4.41052,37.55785],[-4.41037,37.55846],[-4.41046,37.56079],[-4.41026,37.56121],[-4.40996,37.5615],[-4.40986,37.56197],[-4.41043,37.56381],[-4.41038,37.56415],[-4.4095,37.56481],[-4.40846,37.56592],[-4.40809,37.56609],[-4.40686,37.56618],[-4.40639,37.56639],[-4.40482,37.56765],[-4.40457,37.56799],[-4.4044,37.56851],[-4.40323,37.5701],[-4.40268,37.57102],[-4.40202,37.57238],[-4.40176,37.57318],[-4.40221,37.57559],[-4.40277,37.57754],[-4.40273,37.57782],[-4.4018,37.5783],[-4.4011,37.57849],[-4.39827,37.57857],[-4.39655,37.57884],[-4.3946,37.57958],[-4.39233,37.58148],[-4.3916,37.58193],[-4.39114,37.58251],[-4.3908,37.58279],[-4.38956,37.58342],[-4.38877,37.58405],[-4.38851,37.58453],[-4.39005,37.58473],[-4.39054,37.58494],[-4.39074,37.58527],[-4.39109,37.58553],[-4.39201,37.58593],[-4.39271,37.58657],[-4.39452,37.58768],[-4.39531,37.58785],[-4.39626,37.58783],[-4.39676,37.58799],[-4.39711,37.58833],[-4.39733,37.58878],[-4.3973,37.58916],[-4.39744,37.58954],[-4.39762,37.58974],[-4.39795,37.58976],[-4.39907,37.58958],[-4.39939,37.58943],[-4.39969,37.58941],[-4.39998,37.58956],[-4.4005,37.59008],[-4.40089,37.59022],[-4.40119,37.59018],[-4.40152,37.58993],[-4.40159,37.5896],[-4.40181,37.5895],[-4.4028,37.58975],[-4.4032,37.59006],[-4.4036,37.59014],[-4.40387,37.58995],[-4.40395,37.58943],[-4.40428,37.58911],[-4.40476,37.58908],[-4.40507,37.58919],[-4.40636,37.59004],[-4.40768,37.59058],[-4.40833,37.59108],[-4.40956,37.59228],[-4.41004,37.59303],[-4.41072,37.59372],[-4.41111,37.59458],[-4.41148,37.59476],[-4.4124,37.59491],[-4.41299,37.59536],[-4.41394,37.59644],[-4.41424,37.59762],[-4.41446,37.59796],[-4.41602,37.59879],[-4.41724,37.59965],[-4.41869,37.59997],[-4.41865,37.6002],[-4.41839,37.60046],[-4.41801,37.6006],[-4.418,37.6009],[-4.41933,37.60339],[-4.42037,37.60441],[-4.42094,37.60638],[-4.42125,37.60662],[-4.42138,37.60687],[-4.42071,37.60742],[-4.42077,37.60787],[-4.42107,37.60853],[-4.42218,37.60975],[-4.42279,37.61003],[-4.42334,37.61053],[-4.42422,37.61181],[-4.42511,37.61245],[-4.42537,37.61285],[-4.42556,37.61378],[-4.42516,37.61425],[-4.42524,37.61458],[-4.42567,37.6152],[-4.42579,37.61554],[-4.42605,37.61572],[-4.42648,37.61633],[-4.42646,37.61666],[-4.42623,37.61716],[-4.42596,37.61729],[-4.42588,37.61756],[-4.42669,37.61791],[-4.42664,37.61806],[-4.42604,37.61831],[-4.42609,37.61854],[-4.42594,37.61876],[-4.42552,37.61881],[-4.4253,37.61893],[-4.42568,37.62202],[-4.4246,37.62259],[-4.42409,37.62259],[-4.42396,37.62271],[-4.42411,37.62292],[-4.42449,37.62303],[-4.42447,37.62357],[-4.42464,37.62419],[-4.42468,37.62655],[-4.42491,37.62695],[-4.42471,37.62777],[-4.42489,37.62853],[-4.42493,37.63012],[-4.42461,37.63092],[-4.42425,37.63149],[-4.4238,37.63175],[-4.42295,37.6318],[-4.42257,37.63196],[-4.42201,37.63202],[-4.42169,37.63223],[-4.42147,37.63294],[-4.42117,37.63317],[-4.42108,37.63348],[-4.42057,37.63386],[-4.42036,37.6343],[-4.42004,37.63469],[-4.41905,37.63519],[-4.41888,37.63544],[-4.41854,37.63552],[-4.41821,37.63571],[-4.41808,37.63589],[-4.41769,37.63603],[-4.41701,37.63601],[-4.41673,37.63609],[-4.41703,37.63667],[-4.41703,37.63693],[-4.41643,37.63695],[-4.41598,37.63734],[-4.41509,37.63739],[-4.414,37.63827],[-4.41278,37.63835],[-4.4121,37.63868],[-4.41083,37.63905],[-4.41047,37.63946],[-4.41055,37.63973],[-4.41086,37.63993],[-4.41087,37.64012],[-4.41059,37.64021],[-4.40948,37.64013],[-4.40912,37.64038],[-4.40896,37.64101],[-4.40875,37.64132],[-4.40802,37.64159],[-4.40773,37.64212],[-4.40635,37.64242],[-4.40608,37.64278],[-4.40598,37.64339],[-4.40606,37.64374],[-4.40565,37.64392],[-4.40424,37.64403],[-4.40395,37.64432],[-4.4038,37.64511],[-4.4035,37.64535],[-4.40333,37.64566],[-4.40347,37.64586],[-4.4038,37.64605],[-4.40396,37.64634],[-4.40372,37.64658],[-4.40273,37.64658],[-4.40229,37.64687],[-4.40196,37.64735],[-4.40206,37.64757],[-4.40231,37.6478],[-4.40224,37.64831],[-4.40246,37.6491],[-4.40242,37.65026],[-4.40206,37.65083],[-4.40162,37.65126],[-4.4013,37.65234],[-4.40077,37.65285],[-4.40112,37.65428],[-4.40049,37.65518],[-4.40021,37.65591],[-4.40019,37.65686],[-4.39938,37.65862],[-4.39972,37.66068],[-4.39919,37.66155],[-4.39906,37.6622],[-4.39876,37.66254],[-4.39872,37.66275],[-4.39906,37.6633],[-4.39905,37.66356],[-4.39879,37.66413],[-4.39872,37.66476],[-4.39881,37.66545],[-4.39892,37.66576],[-4.39923,37.66607],[-4.40003,37.6674],[-4.40033,37.66773],[-4.40175,37.66869],[-4.40273,37.6688],[-4.40331,37.66914],[-4.40382,37.66967],[-4.40467,37.67129],[-4.40605,37.67291],[-4.4066,37.67428],[-4.40759,37.67464],[-4.40781,37.67481],[-4.40779,37.67509],[-4.40754,37.67543],[-4.40685,37.67579],[-4.40684,37.67638],[-4.40725,37.67648],[-4.40572,37.67959],[-4.40543,37.67992],[-4.40358,37.68097],[-4.40289,37.68156],[-4.40062,37.68453],[-4.39745,37.68956],[-4.39466,37.6896],[-4.39297,37.68942],[-4.39286,37.69081],[-4.39265,37.69116],[-4.39117,37.69254],[-4.39039,37.6935],[-4.39017,37.69531],[-4.39621,37.69488],[-4.39648,37.69705],[-4.39761,37.69925],[-4.39678,37.70063],[-4.39625,37.70185],[-4.3957,37.70462],[-4.39635,37.70493],[-4.39786,37.70597],[-4.39782,37.70613],[-4.39748,37.70667],[-4.39573,37.71038],[-4.39464,37.71227],[-4.39264,37.71149],[-4.3888,37.71832],[-4.38861,37.72019],[-4.38774,37.72526],[-4.38741,37.72796],[-4.38742,37.72964],[-4.38591,37.72983],[-4.38355,37.7327],[-4.38231,37.73445],[-4.37922,37.73976],[-4.3779,37.74243],[-4.37633,37.74522],[-4.37626,37.74562],[-4.37657,37.74696],[-4.37745,37.74942],[-4.37787,37.75187],[-4.37781,37.7528],[-4.37711,37.75621],[-4.377,37.7572],[-4.37705,37.7578],[-4.37777,37.75827],[-4.38071,37.75928],[-4.38262,37.76079],[-4.38317,37.7614],[-4.38352,37.76611],[-4.38131,37.76609],[-4.37849,37.76573],[-4.37524,37.76552],[-4.37468,37.76565],[-4.37415,37.76593],[-4.37362,37.76632],[-4.3649,37.77713],[-4.36427,37.77842],[-4.36357,37.77892],[-4.36095,37.78041],[-4.3598,37.78136],[-4.35946,37.78202],[-4.35934,37.78254],[-4.35966,37.78456],[-4.3595,37.78502],[-4.35919,37.78536],[-4.35885,37.7856],[-4.35789,37.78565],[-4.35487,37.78486],[-4.35326,37.78465],[-4.35218,37.78457],[-4.35114,37.78486],[-4.35062,37.78526],[-4.35029,37.78568],[-4.34906,37.78812],[-4.34785,37.78991],[-4.34684,37.79095],[-4.345,37.79231],[-4.34013,37.79527],[-4.33836,37.79619],[-4.33702,37.79678],[-4.33559,37.79765],[-4.33407,37.79873],[-4.32771,37.80406],[-4.32646,37.80584],[-4.32324,37.80837],[-4.32181,37.80939],[-4.31861,37.81133],[-4.31425,37.81293],[-4.31208,37.81395],[-4.30698,37.81717],[-4.3055,37.81828],[-4.30453,37.81883],[-4.30238,37.81988],[-4.30124,37.82011],[-4.29624,37.81973],[-4.2937,37.8194],[-4.29247,37.81939],[-4.29081,37.81907],[-4.28899,37.81883],[-4.28454,37.81846]],[[-4.31452,37.62226],[-4.32383,37.62315],[-4.3273,37.62133],[-4.32857,37.62079],[-4.32904,37.62046],[-4.32938,37.62002],[-4.33016,37.61803],[-4.33093,37.6177],[-4.331,37.61776],[-4.33323,37.61679],[-4.33492,37.61528],[-4.33578,37.61484],[-4.33521,37.61478],[-4.33486,37.61454],[-4.33586,37.61379],[-4.33577,37.61348],[-4.33558,37.61332],[-4.33566,37.61315],[-4.33542,37.61289],[-4.33469,37.6127],[-4.33459,37.6112],[-4.33414,37.61097],[-4.33298,37.6108],[-4.33181,37.61119],[-4.33101,37.61118],[-4.33051,37.61089],[-4.32977,37.6108],[-4.32915,37.61093],[-4.32878,37.61111],[-4.32858,37.61068],[-4.32802,37.61047],[-4.3276,37.61067],[-4.3265,37.61083],[-4.32598,37.61102],[-4.32542,37.61142],[-4.32406,37.6112],[-4.32323,37.61134],[-4.32315,37.6104],[-4.32269,37.61091],[-4.32112,37.61216],[-4.32126,37.61268],[-4.32028,37.61305],[-4.31691,37.61336],[-4.31549,37.61383],[-4.31632,37.61478],[-4.31606,37.61502],[-4.31579,37.61553],[-4.31568,37.6155],[-4.31519,37.61691],[-4.31557,37.61704],[-4.31496,37.61861],[-4.3146,37.61924],[-4.31447,37.61911],[-4.31443,37.6192],[-4.31454,37.61931],[-4.31411,37.6196],[-4.31432,37.61974],[-4.31247,37.62075],[-4.31111,37.62161],[-4.31106,37.62073],[-4.31048,37.62097],[-4.30969,37.62114],[-4.30963,37.62095],[-4.30912,37.6209],[-4.30867,37.62301],[-4.30829,37.6231],[-4.30986,37.62489],[-4.31452,37.62226]],[[-4.2344,37.67085],[-4.23249,37.67108],[-4.23257,37.67173],[-4.23281,37.67205],[-4.2342,37.67251],[-4.23476,37.67262],[-4.23577,37.67312],[-4.2363,37.67325],[-4.23817,37.67295],[-4.23972,37.67189],[-4.24078,37.67092],[-4.24073,37.67048],[-4.24106,37.66888],[-4.24059,37.66792],[-4.24057,37.66757],[-4.24079,37.66702],[-4.24078,37.66627],[-4.24089,37.66609],[-4.23991,37.66608],[-4.23975,37.66671],[-4.23836,37.6665],[-4.23753,37.66659],[-4.2374,37.66622],[-4.23703,37.66632],[-4.23683,37.66606],[-4.23612,37.66624],[-4.23644,37.66688],[-4.23677,37.66697],[-4.23715,37.66811],[-4.23713,37.66839],[-4.23685,37.66863],[-4.23686,37.67049],[-4.2363,37.67054],[-4.2357,37.67],[-4.23497,37.67001],[-4.23424,37.67021],[-4.2344,37.67085]]]}},{"type":"Feature","properties":{"id":"1400703005"},"geometry":{"type":"Polygon","coordinates":[[[-4.31794,37.62256],[-4.32489,37.61804],[-4.3273,37.62133],[-4.32383,37.62315],[-4.31794,37.62256]]]}},{"type":"Feature","properties":{"id":"1400703006"},"geometry":{"type":"Polygon","coordinates":[[[-4.3146,37.61924],[-4.31496,37.61861],[-4.31557,37.61704],[-4.31519,37.61691],[-4.31568,37.6155],[-4.31579,37.61553],[-4.31606,37.61502],[-4.31632,37.61478],[-4.31549,37.61383],[-4.31691,37.61336],[-4.32028,37.61305],[-4.32126,37.61268],[-4.32144,37.61386],[-4.32104,37.61462],[-4.32111,37.61509],[-4.32236,37.6154],[-4.32255,37.61571],[-4.32122,37.61603],[-4.31512,37.61978],[-4.3146,37.61924]]]}},{"type":"Feature","properties":{"id":"1400703007"},"geometry":{"type":"Polygon","coordinates":[[[-4.31447,37.61911],[-4.31512,37.61978],[-4.31732,37.61843],[-4.32006,37.62122],[-4.31793,37.62257],[-4.31452,37.62226],[-4.30986,37.62489],[-4.30829,37.6231],[-4.30867,37.62301],[-4.30912,37.6209],[-4.30963,37.62095],[-4.30969,37.62114],[-4.31048,37.62097],[-4.31106,37.62073],[-4.31111,37.62161],[-4.31247,37.62075],[-4.31432,37.61974],[-4.31411,37.6196],[-4.31454,37.61931],[-4.31443,37.6192],[-4.31447,37.61911]]]}},{"type":"Feature","properties":{"id":"1400704001"},"geometry":{"type":"Polygon","coordinates":[[[-4.32554,37.61414],[-4.32518,37.61367],[-4.32507,37.61297],[-4.32515,37.61276],[-4.32608,37.61174],[-4.3271,37.61203],[-4.32753,37.6118],[-4.32869,37.61164],[-4.3291,37.61151],[-4.32954,37.6115],[-4.33119,37.61173],[-4.33205,37.61168],[-4.33231,37.61176],[-4.33237,37.61191],[-4.33228,37.61265],[-4.33166,37.61287],[-4.33155,37.61303],[-4.3296,37.61368],[-4.32889,37.61365],[-4.3278,37.61402],[-4.32721,37.6139],[-4.32554,37.61414]]]}},{"type":"Feature","properties":{"id":"1400704002"},"geometry":{"type":"Polygon","coordinates":[[[-4.33211,37.61304],[-4.33203,37.61276],[-4.33228,37.61265],[-4.33235,37.61239],[-4.33237,37.61191],[-4.33219,37.6117],[-4.33119,37.61173],[-4.32954,37.6115],[-4.3291,37.61151],[-4.32869,37.61164],[-4.32753,37.6118],[-4.3271,37.61203],[-4.32608,37.61174],[-4.32726,37.61151],[-4.32977,37.6108],[-4.33051,37.61089],[-4.33101,37.61118],[-4.33136,37.61121],[-4.33221,37.61109],[-4.33298,37.6108],[-4.33414,37.61097],[-4.33459,37.6112],[-4.33469,37.6127],[-4.33542,37.61289],[-4.33566,37.61315],[-4.33558,37.61332],[-4.33577,37.61348],[-4.33586,37.61379],[-4.33486,37.61454],[-4.33521,37.61478],[-4.33578,37.61484],[-4.33539,37.615],[-4.33457,37.61555],[-4.33423,37.61473],[-4.33388,37.61489],[-4.33378,37.61457],[-4.33381,37.6141],[-4.3321,37.61392],[-4.33191,37.61345],[-4.33211,37.61304]]]}},{"type":"Feature","properties":{"id":"1400705001"},"geometry":{"type":"Polygon","coordinates":[[[-4.2344,37.67085],[-4.23424,37.67021],[-4.23497,37.67001],[-4.2357,37.67],[-4.2363,37.67054],[-4.23686,37.67049],[-4.23685,37.66863],[-4.23713,37.66839],[-4.23715,37.66811],[-4.23677,37.66697],[-4.23644,37.66688],[-4.23612,37.66624],[-4.23683,37.66606],[-4.23703,37.66632],[-4.2374,37.66622],[-4.23753,37.66659],[-4.23836,37.6665],[-4.23975,37.66671],[-4.23991,37.66608],[-4.24089,37.66609],[-4.24078,37.66627],[-4.24079,37.66702],[-4.24057,37.66757],[-4.24059,37.66792],[-4.24106,37.66888],[-4.24073,37.67048],[-4.24078,37.67092],[-4.23972,37.67189],[-4.23817,37.67295],[-4.2363,37.67325],[-4.23577,37.67312],[-4.23476,37.67262],[-4.2342,37.67251],[-4.23281,37.67205],[-4.23257,37.67173],[-4.23249,37.67108],[-4.2344,37.67085]]]}}]}