{"type":"FeatureCollection","features":[{"type":"Feature","properties":{"id":"1402501001"},"geometry":{"type":"Polygon","coordinates":[[[-4.53402,37.65967],[-4.53532,37.66028],[-4.53601,37.66047],[-4.53634,37.66076],[-4.53725,37.66276],[-4.53803,37.66356],[-4.53905,37.66418],[-4.53997,37.6646],[-4.54111,37.66544],[-4.54156,37.66624],[-4.54195,37.66745],[-4.54231,37.66814],[-4.5429,37.66999],[-4.54383,37.6715],[-4.54448,37.672],[-4.54462,37.67236],[-4.5457,37.67342],[-4.54575,37.67373],[-4.54737,37.67534],[-4.54816,37.67635],[-4.5493,37.67734],[-4.5496,37.6781],[-4.55058,37.67952],[-4.55102,37.67994],[-4.55121,37.68053],[-4.55143,37.68072],[-4.55206,37.68098],[-4.55225,37.68146],[-4.5522,37.68216],[-4.55248,37.68222],[-4.55272,37.68202],[-4.55301,37.68209],[-4.55318,37.68223],[-4.55304,37.68242],[-4.55351,37.68274],[-4.55381,37.68263],[-4.55403,37.68298],[-4.55408,37.68329],[-4.55467,37.68328],[-4.55517,37.68339],[-4.55515,37.68377],[-4.5549,37.68419],[-4.55412,37.6837],[-4.5533,37.68423],[-4.55274,37.68479],[-4.55224,37.68619],[-4.55322,37.68662],[-4.55277,37.68756],[-4.55494,37.6896],[-4.55543,37.68971],[-4.55585,37.68997],[-4.55608,37.69056],[-4.55605,37.69083],[-4.55564,37.69119],[-4.55564,37.69138],[-4.55586,37.69152],[-4.55646,37.69168],[-4.55819,37.69197],[-4.55868,37.69242],[-4.5587,37.69328],[-4.55901,37.69376],[-4.55881,37.69434],[-4.55894,37.69489],[-4.55871,37.69527],[-4.55881,37.69594],[-4.55828,37.69626],[-4.55826,37.69681],[-4.55893,37.69707],[-4.55914,37.6973],[-4.55946,37.69802],[-4.55979,37.69816],[-4.56088,37.69984],[-4.56094,37.70092],[-4.56129,37.70114],[-4.56003,37.70378],[-4.56073,37.70552],[-4.56161,37.70715],[-4.56228,37.70872],[-4.56081,37.71005],[-4.55943,37.71158],[-4.55735,37.71261],[-4.55408,37.71369],[-4.55042,37.71406],[-4.54797,37.71487],[-4.54685,37.71513],[-4.54579,37.71516],[-4.54489,37.71368],[-4.54122,37.71361],[-4.53467,37.71742],[-4.53358,37.71793],[-4.5321,37.71972],[-4.53173,37.72047],[-4.53148,37.72055],[-4.53117,37.72038],[-4.53036,37.71948],[-4.52946,37.71947],[-4.52759,37.71955],[-4.52313,37.71992],[-4.52285,37.72003],[-4.52288,37.72077],[-4.51944,37.71957],[-4.51803,37.71882],[-4.51782,37.71886],[-4.51761,37.71924],[-4.51738,37.72053],[-4.51684,37.72181],[-4.51608,37.72066],[-4.51446,37.71913],[-4.5137,37.71806],[-4.51334,37.71705],[-4.51339,37.7163],[-4.51284,37.71587],[-4.51285,37.71548],[-4.51345,37.71457],[-4.51423,37.71406],[-4.51613,37.71313],[-4.51694,37.71221],[-4.51728,37.71131],[-4.51557,37.71083],[-4.51521,37.71062],[-4.51498,37.71041],[-4.51479,37.70987],[-4.51578,37.70872],[-4.51615,37.70791],[-4.5164,37.70758],[-4.5168,37.70732],[-4.51872,37.70694],[-4.51903,37.70673],[-4.5192,37.70641],[-4.51925,37.70591],[-4.51905,37.70544],[-4.51857,37.70491],[-4.51792,37.70451],[-4.51734,37.7043],[-4.51674,37.70429],[-4.51624,37.70447],[-4.51523,37.70565],[-4.51467,37.70583],[-4.51382,37.70571],[-4.51362,37.70537],[-4.51361,37.70497],[-4.51485,37.70393],[-4.51494,37.70363],[-4.51455,37.70345],[-4.5128,37.70367],[-4.51228,37.70362],[-4.51196,37.70372],[-4.51153,37.70464],[-4.5109,37.70499],[-4.51068,37.70496],[-4.51041,37.70422],[-4.51076,37.70367],[-4.51113,37.70337],[-4.51113,37.70319],[-4.51047,37.70281],[-4.50962,37.70348],[-4.50938,37.70357],[-4.50922,37.70351],[-4.50904,37.70319],[-4.50912,37.7028],[-4.50992,37.70163],[-4.51021,37.70141],[-4.5109,37.70134],[-4.51208,37.7015],[-4.51476,37.70073],[-4.5141,37.69914],[-4.51185,37.70007],[-4.51078,37.69944],[-4.51023,37.69897],[-4.51011,37.69875],[-4.51006,37.69833],[-4.51077,37.69689],[-4.51071,37.69645],[-4.51008,37.69499],[-4.51004,37.69418],[-4.51014,37.69399],[-4.51074,37.69369],[-4.51205,37.69331],[-4.51267,37.69304],[-4.51183,37.69186],[-4.51211,37.69142],[-4.51289,37.69062],[-4.51355,37.69007],[-4.5148,37.68935],[-4.51386,37.68199],[-4.51329,37.67901],[-4.51235,37.67797],[-4.51281,37.67696],[-4.51327,37.67663],[-4.52033,37.67259],[-4.52097,37.672],[-4.52467,37.66955],[-4.52697,37.66852],[-4.52786,37.66788],[-4.52857,37.66718],[-4.52882,37.66673],[-4.52985,37.66579],[-4.53067,37.6654],[-4.53404,37.66441],[-4.5344,37.66421],[-4.5346,37.6639],[-4.53459,37.66331],[-4.5339,37.66179],[-4.53402,37.65967]]]}},{"type":"Feature","properties":{"id":"1402502001"},"geometry":{"type":"Polygon","coordinates":[[[-4.55517,37.68339],[-4.55467,37.68328],[-4.55408,37.68329],[-4.55403,37.68298],[-4.55381,37.68263],[-4.55351,37.68274],[-4.55304,37.68242],[-4.55318,37.68223],[-4.55301,37.68209],[-4.55272,37.68202],[-4.55248,37.68222],[-4.5522,37.68216],[-4.55225,37.68146],[-4.55206,37.68098],[-4.55143,37.68072],[-4.55121,37.68053],[-4.55099,37.67987],[-4.55213,37.67917],[-4.55307,37.67878],[-4.55332,37.67872],[-4.5538,37.67921],[-4.55437,37.67884],[-4.55474,37.67923],[-4.5547,37.67938],[-4.55498,37.67941],[-4.55523,37.67932],[-4.55547,37.67946],[-4.55547,37.67985],[-4.55575,37.68015],[-4.55602,37.68006],[-4.55607,37.68026],[-4.55511,37.68136],[-4.55476,37.68192],[-4.55521,37.68288],[-4.55538,37.68297],[-4.55517,37.68339]]]}},{"type":"Feature","properties":{"id":"1402503001"},"geometry":{"type":"Polygon","coordinates":[[[-4.55517,37.68339],[-4.55538,37.68297],[-4.55521,37.68288],[-4.55476,37.68192],[-4.55511,37.68136],[-4.55607,37.68026],[-4.55602,37.68006],[-4.55575,37.68015],[-4.55547,37.67985],[-4.55547,37.67946],[-4.55523,37.67932],[-4.55498,37.67941],[-4.5547,37.67938],[-4.55474,37.67923],[-4.55437,37.67884],[-4.5538,37.67921],[-4.55332,37.67872],[-4.55213,37.67917],[-4.55099,37.67987],[-4.55102,37.67994],[-4.55058,37.67952],[-4.5496,37.6781],[-4.5493,37.67734],[-4.54816,37.67635],[-4.54737,37.67534],[-4.54575,37.67373],[-4.5457,37.67342],[-4.54462,37.67236],[-4.54448,37.672],[-4.54383,37.6715],[-4.5429,37.66999],[-4.54231,37.66814],[-4.54195,37.66745],[-4.54156,37.66624],[-4.54111,37.66544],[-4.53997,37.6646],[-4.53905,37.66418],[-4.53803,37.66356],[-4.53725,37.66276],[-4.53634,37.66076],[-4.53601,37.66047],[-4.53532,37.66028],[-4.53402,37.65967],[-4.53431,37.65635],[-4.53428,37.6557],[-4.53368,37.65472],[-4.53361,37.65416],[-4.53377,37.65328],[-4.53456,37.65196],[-4.53588,37.65078],[-4.53632,37.65026],[-4.53652,37.6498],[-4.53648,37.64938],[-4.53526,37.64776],[-4.53485,37.64682],[-4.53505,37.64646],[-4.53546,37.64607],[-4.53759,37.64483],[-4.53827,37.64429],[-4.53866,37.6438],[-4.5411,37.63912],[-4.54381,37.63485],[-4.5447,37.63365],[-4.54771,37.63058],[-4.55006,37.62753],[-4.55174,37.62553],[-4.55847,37.61888],[-4.56101,37.61684],[-4.56269,37.61597],[-4.56403,37.61535],[-4.56675,37.61452],[-4.56772,37.6143],[-4.56808,37.61434],[-4.56843,37.61469],[-4.5695,37.615],[-4.57007,37.61504],[-4.57055,37.61522],[-4.571,37.6156],[-4.57133,37.61571],[-4.57221,37.61561],[-4.57252,37.61566],[-4.57261,37.61577],[-4.57244,37.61626],[-4.57249,37.61641],[-4.57372,37.61657],[-4.57457,37.61728],[-4.57542,37.61729],[-4.57584,37.61742],[-4.5762,37.61761],[-4.57671,37.61816],[-4.57726,37.61843],[-4.57761,37.61853],[-4.57873,37.61847],[-4.57905,37.61852],[-4.5801,37.62003],[-4.58087,37.62084],[-4.58136,37.62116],[-4.58235,37.62112],[-4.58265,37.62122],[-4.58333,37.62182],[-4.58396,37.62184],[-4.58431,37.62222],[-4.58457,37.62228],[-4.58511,37.62281],[-4.58536,37.62286],[-4.58565,37.62277],[-4.58603,37.62305],[-4.58645,37.62309],[-4.58701,37.62289],[-4.58781,37.62388],[-4.58922,37.62507],[-4.58974,37.6254],[-4.59024,37.62559],[-4.59184,37.62575],[-4.59252,37.62594],[-4.59325,37.62648],[-4.59329,37.62695],[-4.59349,37.62726],[-4.5939,37.62752],[-4.59554,37.62796],[-4.59502,37.62846],[-4.59333,37.63098],[-4.59248,37.63193],[-4.59196,37.63273],[-4.59192,37.63327],[-4.59214,37.63362],[-4.59257,37.63399],[-4.59351,37.63466],[-4.59536,37.63625],[-4.59647,37.63691],[-4.5973,37.63762],[-4.59792,37.63858],[-4.598,37.63924],[-4.59746,37.64058],[-4.59584,37.64308],[-4.59466,37.64534],[-4.5938,37.64787],[-4.59366,37.64874],[-4.59368,37.6497],[-4.59416,37.65148],[-4.59417,37.65667],[-4.59443,37.65732],[-4.59566,37.65888],[-4.59619,37.65982],[-4.59641,37.6605],[-4.59662,37.66285],[-4.59664,37.66473],[-4.59658,37.66619],[-4.59637,37.66681],[-4.59642,37.66747],[-4.59911,37.67079],[-4.59983,37.67266],[-4.60051,37.67345],[-4.60122,37.67401],[-4.60237,37.67468],[-4.60387,37.67584],[-4.60514,37.67706],[-4.60577,37.67784],[-4.60424,37.67877],[-4.60178,37.67968],[-4.5972,37.68166],[-4.59655,37.68182],[-4.59561,37.68173],[-4.59269,37.68093],[-4.59184,37.68102],[-4.58908,37.68216],[-4.58909,37.68252],[-4.58688,37.68344],[-4.58783,37.69107],[-4.5876,37.69162],[-4.58585,37.69447],[-4.57752,37.69319],[-4.57735,37.69213],[-4.57698,37.69128],[-4.57663,37.69004],[-4.57658,37.68893],[-4.57669,37.6882],[-4.57621,37.68792],[-4.57542,37.68768],[-4.57453,37.68766],[-4.57261,37.68784],[-4.57154,37.68904],[-4.57041,37.68911],[-4.56953,37.69006],[-4.5631,37.69806],[-4.56188,37.69999],[-4.56129,37.70114],[-4.56094,37.70092],[-4.56088,37.69984],[-4.55979,37.69816],[-4.55946,37.69802],[-4.55914,37.6973],[-4.55893,37.69707],[-4.55826,37.69681],[-4.55828,37.69626],[-4.55881,37.69594],[-4.55871,37.69527],[-4.55894,37.69489],[-4.55881,37.69434],[-4.55901,37.69376],[-4.5587,37.69328],[-4.55868,37.69242],[-4.55819,37.69197],[-4.55646,37.69168],[-4.55586,37.69152],[-4.55564,37.69138],[-4.55564,37.69119],[-4.55605,37.69083],[-4.55608,37.69056],[-4.55585,37.68997],[-4.55543,37.68971],[-4.55494,37.6896],[-4.55277,37.68756],[-4.55322,37.68662],[-4.55224,37.68619],[-4.55274,37.68479],[-4.5533,37.68423],[-4.55412,37.6837],[-4.5549,37.68419],[-4.55515,37.68377],[-4.55517,37.68339]]]}}]}