{"type":"FeatureCollection","features":[{"type":"Feature","properties":{"id":"1402201001"},"geometry":{"type":"Polygon","coordinates":[[[-4.34943,37.56232],[-4.34878,37.56084],[-4.34861,37.56026],[-4.34857,37.55956],[-4.34807,37.55924],[-4.34795,37.5585],[-4.34745,37.55805],[-4.3465,37.55628],[-4.34594,37.55457],[-4.34599,37.55415],[-4.34635,37.55321],[-4.3468,37.55266],[-4.34804,37.55193],[-4.35035,37.55036],[-4.35057,37.55012],[-4.35114,37.54742],[-4.35182,37.54488],[-4.35263,37.54017],[-4.35333,37.53746],[-4.35399,37.53616],[-4.35518,37.53487],[-4.35857,37.53222],[-4.36111,37.53129],[-4.36213,37.53082],[-4.36353,37.53035],[-4.36722,37.5296],[-4.36773,37.52943],[-4.37148,37.52693],[-4.3748,37.52509],[-4.37543,37.52487],[-4.37564,37.5252],[-4.38026,37.52951],[-4.3846,37.53297],[-4.38587,37.53617],[-4.38626,37.53688],[-4.38769,37.53839],[-4.38802,37.53886],[-4.38822,37.5393],[-4.38869,37.54134],[-4.38905,37.54434],[-4.38894,37.54514],[-4.38857,37.54641],[-4.38813,37.54715],[-4.38765,37.54763],[-4.38552,37.54899],[-4.38479,37.5499],[-4.38421,37.55129],[-4.38369,37.55186],[-4.38321,37.55219],[-4.38106,37.55286],[-4.38063,37.55309],[-4.38041,37.55342],[-4.38017,37.555],[-4.3802,37.55524],[-4.38164,37.55615],[-4.38243,37.55688],[-4.38445,37.55996],[-4.38473,37.56157],[-4.3843,37.56585],[-4.38308,37.56733],[-4.3829,37.56793],[-4.38277,37.56958],[-4.38288,37.57029],[-4.3832,37.57082],[-4.38409,37.57177],[-4.38428,37.57215],[-4.38422,37.57355],[-4.38514,37.57694],[-4.38565,37.57764],[-4.38755,37.57933],[-4.38549,37.5799],[-4.38201,37.57979],[-4.38007,37.57955],[-4.37726,37.57901],[-4.37636,37.57866],[-4.3736,37.57691],[-4.37302,37.57671],[-4.37044,37.57694],[-4.3687,37.57728],[-4.36746,37.57761],[-4.36624,37.57814],[-4.36543,37.57839],[-4.3635,37.57841],[-4.35884,37.57893],[-4.3584,37.57889],[-4.35699,37.57822],[-4.35875,37.57604],[-4.35892,37.57555],[-4.35914,37.57423],[-4.35942,37.57011],[-4.35931,37.56923],[-4.35723,37.56606],[-4.35529,37.56343],[-4.35502,37.56321],[-4.35452,37.56306],[-4.35346,37.56301],[-4.35149,37.56263],[-4.35042,37.56234],[-4.34943,37.56232]],[[-4.36011,37.55575],[-4.36105,37.55425],[-4.36141,37.55397],[-4.36207,37.55365],[-4.36211,37.55346],[-4.3619,37.5527],[-4.36236,37.55233],[-4.36205,37.55222],[-4.36192,37.55184],[-4.36141,37.55173],[-4.3603,37.55209],[-4.36023,37.55221],[-4.35898,37.55243],[-4.35895,37.55226],[-4.35749,37.55289],[-4.35765,37.55312],[-4.3578,37.55305],[-4.35795,37.55332],[-4.35785,37.55347],[-4.35791,37.55359],[-4.35802,37.55358],[-4.35807,37.55405],[-4.35793,37.55443],[-4.35799,37.55482],[-4.35781,37.55519],[-4.3575,37.55532],[-4.35662,37.55538],[-4.35604,37.55448],[-4.35621,37.55423],[-4.35525,37.55368],[-4.35504,37.55242],[-4.35477,37.55173],[-4.35462,37.55174],[-4.35457,37.55145],[-4.35337,37.55163],[-4.35344,37.55283],[-4.35299,37.5529],[-4.35317,37.55411],[-4.35323,37.55437],[-4.35341,37.55435],[-4.35347,37.55452],[-4.35357,37.55446],[-4.35373,37.55474],[-4.35407,37.55476],[-4.35408,37.55493],[-4.35386,37.55506],[-4.35374,37.55501],[-4.35332,37.55532],[-4.35349,37.5555],[-4.35328,37.55563],[-4.35344,37.55566],[-4.35366,37.55553],[-4.35377,37.55562],[-4.35409,37.55557],[-4.35484,37.55587],[-4.35476,37.55598],[-4.35512,37.55604],[-4.3552,37.55598],[-4.35601,37.55635],[-4.35665,37.55634],[-4.35706,37.55682],[-4.35682,37.55696],[-4.35708,37.55713],[-4.35728,37.55714],[-4.35754,37.5574],[-4.35758,37.55761],[-4.35821,37.55829],[-4.35807,37.55849],[-4.35859,37.5589],[-4.35855,37.55903],[-4.35866,37.55918],[-4.35921,37.55903],[-4.35947,37.55854],[-4.3605,37.55894],[-4.3601,37.55821],[-4.35985,37.55797],[-4.35962,37.55736],[-4.36001,37.55671],[-4.36011,37.55575]]]}},{"type":"Feature","properties":{"id":"1402201002"},"geometry":{"type":"Polygon","coordinates":[[[-4.35662,37.55538],[-4.3556,37.5554],[-4.35512,37.55604],[-4.35476,37.55598],[-4.35484,37.55587],[-4.35409,37.55557],[-4.35377,37.55562],[-4.35366,37.55553],[-4.35344,37.55566],[-4.35328,37.55563],[-4.35349,37.5555],[-4.35332,37.55532],[-4.35374,37.55501],[-4.35386,37.55506],[-4.35408,37.55493],[-4.35407,37.55476],[-4.35373,37.55474],[-4.35357,37.55446],[-4.35347,37.55452],[-4.35341,37.55435],[-4.35323,37.55437],[-4.35317,37.55411],[-4.35299,37.5529],[-4.35344,37.55283],[-4.35337,37.55163],[-4.35457,37.55145],[-4.35462,37.55174],[-4.35477,37.55173],[-4.35504,37.55242],[-4.35525,37.55368],[-4.35621,37.55423],[-4.35604,37.55448],[-4.35662,37.55538]]]}},{"type":"Feature","properties":{"id":"1402202001"},"geometry":{"type":"Polygon","coordinates":[[[-4.35783,37.55513],[-4.35799,37.55482],[-4.35793,37.55443],[-4.35807,37.55405],[-4.35806,37.55376],[-4.35802,37.55358],[-4.35791,37.55359],[-4.35785,37.55347],[-4.35795,37.55332],[-4.3578,37.55305],[-4.35765,37.55312],[-4.35749,37.55289],[-4.35895,37.55226],[-4.35898,37.55243],[-4.36023,37.55221],[-4.3603,37.55209],[-4.36141,37.55173],[-4.36192,37.55184],[-4.36205,37.55222],[-4.36236,37.55233],[-4.3619,37.5527],[-4.36211,37.55346],[-4.36207,37.55365],[-4.36141,37.55397],[-4.36105,37.55425],[-4.36011,37.55575],[-4.36023,37.55482],[-4.36,37.55508],[-4.35948,37.55531],[-4.35929,37.55505],[-4.35783,37.55513]]]}},{"type":"Feature","properties":{"id":"1402202002"},"geometry":{"type":"Polygon","coordinates":[[[-4.35521,37.55598],[-4.3556,37.5554],[-4.35715,37.55539],[-4.3575,37.55532],[-4.35783,37.55513],[-4.35929,37.55505],[-4.35948,37.55531],[-4.36,37.55508],[-4.36023,37.55482],[-4.36001,37.55671],[-4.35962,37.55736],[-4.35985,37.55797],[-4.3601,37.55821],[-4.36048,37.55896],[-4.35947,37.55854],[-4.35921,37.55903],[-4.35866,37.55918],[-4.35855,37.55903],[-4.35859,37.5589],[-4.35807,37.55849],[-4.35821,37.55829],[-4.35758,37.55761],[-4.35754,37.5574],[-4.35728,37.55714],[-4.35708,37.55713],[-4.35682,37.55696],[-4.35706,37.55682],[-4.35665,37.55634],[-4.35601,37.55635],[-4.35521,37.55598]]]}}]}