{"type":"FeatureCollection","features":[{"type":"Feature","properties":{"id":"1404201001"},"geometry":{"type":"Polygon","coordinates":[[[-4.63902,37.58646],[-4.639,37.58616],[-4.63771,37.58596],[-4.638,37.58538],[-4.63839,37.58516],[-4.63894,37.58522],[-4.63885,37.58358],[-4.6403,37.58401],[-4.64144,37.58492],[-4.64029,37.58573],[-4.63947,37.58694],[-4.63902,37.58646]]]}},{"type":"Feature","properties":{"id":"1404201002"},"geometry":{"type":"Polygon","coordinates":[[[-4.63862,37.58863],[-4.63928,37.58723],[-4.64015,37.58587],[-4.64204,37.58453],[-4.64248,37.58502],[-4.64348,37.58577],[-4.64324,37.58605],[-4.64345,37.58618],[-4.6434,37.58633],[-4.64368,37.58644],[-4.64333,37.58695],[-4.64268,37.58757],[-4.6428,37.58775],[-4.64247,37.58798],[-4.64187,37.58767],[-4.64137,37.5869],[-4.64081,37.5871],[-4.63989,37.58763],[-4.64009,37.58797],[-4.63975,37.58825],[-4.63954,37.58864],[-4.63862,37.58863]]]}},{"type":"Feature","properties":{"id":"1404201003"},"geometry":{"type":"Polygon","coordinates":[[[-4.63954,37.58864],[-4.63975,37.58825],[-4.64009,37.58797],[-4.63989,37.58763],[-4.64081,37.5871],[-4.64137,37.5869],[-4.64187,37.58767],[-4.64247,37.58798],[-4.6428,37.58775],[-4.64375,37.58741],[-4.64402,37.58773],[-4.64353,37.58809],[-4.64337,37.58869],[-4.64257,37.58808],[-4.64203,37.58878],[-4.64113,37.58956],[-4.64039,37.589],[-4.63954,37.58864]]]}},{"type":"Feature","properties":{"id":"1404202001"},"geometry":{"type":"Polygon","coordinates":[[[-4.63734,37.58968],[-4.63599,37.58936],[-4.63613,37.58896],[-4.63615,37.58839],[-4.63727,37.58705],[-4.63808,37.58664],[-4.63907,37.58646],[-4.63947,37.58694],[-4.63848,37.58893],[-4.63836,37.58967],[-4.63815,37.59019],[-4.63734,37.58968]]]}},{"type":"Feature","properties":{"id":"1404202002"},"geometry":{"type":"Polygon","coordinates":[[[-4.63522,37.58593],[-4.63603,37.58599],[-4.63606,37.58556],[-4.63757,37.58518],[-4.638,37.58538],[-4.63771,37.58596],[-4.639,37.58616],[-4.63902,37.58649],[-4.63808,37.58664],[-4.63727,37.58705],[-4.63615,37.58839],[-4.63587,37.58756],[-4.63609,37.58733],[-4.6356,37.58733],[-4.63522,37.58593]]]}},{"type":"Feature","properties":{"id":"1404202003"},"geometry":{"type":"Polygon","coordinates":[[[-4.63281,37.58082],[-4.63236,37.58064],[-4.6334,37.57884],[-4.63418,37.57775],[-4.63609,37.57826],[-4.63578,37.57898],[-4.63696,37.57929],[-4.6371,37.57901],[-4.63752,37.57912],[-4.63781,37.5784],[-4.63802,37.57839],[-4.63811,37.57853],[-4.63878,37.5784],[-4.63896,37.57922],[-4.63947,37.57918],[-4.63947,37.58],[-4.63962,37.58065],[-4.63922,37.581],[-4.63889,37.58312],[-4.63883,37.5841],[-4.63894,37.58522],[-4.63839,37.58516],[-4.638,37.58538],[-4.63753,37.58519],[-4.63606,37.58556],[-4.63613,37.58479],[-4.63665,37.58237],[-4.6372,37.58143],[-4.63705,37.5811],[-4.63467,37.58014],[-4.63405,37.58002],[-4.63372,37.58071],[-4.63281,37.58082]]]}},{"type":"Feature","properties":{"id":"1404202004"},"geometry":{"type":"Polygon","coordinates":[[[-4.63522,37.58593],[-4.63427,37.58536],[-4.63326,37.58523],[-4.63246,37.58541],[-4.63297,37.58322],[-4.6321,37.58306],[-4.63226,37.58226],[-4.63281,37.58082],[-4.63372,37.58071],[-4.63405,37.58002],[-4.63467,37.58014],[-4.63705,37.5811],[-4.63721,37.58138],[-4.63665,37.58237],[-4.63649,37.58298],[-4.6361,37.58501],[-4.63603,37.58599],[-4.63522,37.58593]]]}},{"type":"Feature","properties":{"id":"1404203001"},"geometry":{"type":"Polygon","coordinates":[[[-4.63885,37.58358],[-4.63917,37.5814],[-4.64045,37.58175],[-4.64216,37.58245],[-4.6438,37.58272],[-4.64204,37.58453],[-4.64144,37.58492],[-4.6403,37.58401],[-4.63885,37.58358]]]}},{"type":"Feature","properties":{"id":"1404203002"},"geometry":{"type":"Polygon","coordinates":[[[-4.64204,37.58453],[-4.6438,37.58272],[-4.64449,37.58086],[-4.64545,37.57917],[-4.64629,37.57981],[-4.64655,37.5796],[-4.64682,37.57969],[-4.64642,37.58041],[-4.64661,37.58047],[-4.64688,37.58097],[-4.64735,37.58083],[-4.64779,37.58165],[-4.64683,37.58194],[-4.64655,37.58211],[-4.64572,37.58203],[-4.64497,37.58257],[-4.64512,37.58271],[-4.64473,37.58308],[-4.64502,37.58331],[-4.64482,37.58373],[-4.64433,37.58419],[-4.64405,37.58411],[-4.64329,37.58469],[-4.64311,37.58465],[-4.64288,37.58473],[-4.64251,37.58504],[-4.64204,37.58453]]]}},{"type":"Feature","properties":{"id":"1404203003"},"geometry":{"type":"Polygon","coordinates":[[[-4.63917,37.5814],[-4.63922,37.581],[-4.63962,37.58065],[-4.63947,37.58],[-4.63947,37.57918],[-4.64005,37.57859],[-4.64022,37.57808],[-4.64087,37.57717],[-4.64102,37.5766],[-4.64129,37.57617],[-4.64231,37.57659],[-4.64196,37.57738],[-4.64297,37.57775],[-4.64301,37.57787],[-4.64252,37.57871],[-4.64286,37.57883],[-4.64306,37.57866],[-4.6448,37.57877],[-4.64568,37.57909],[-4.64551,37.57907],[-4.64449,37.58086],[-4.6438,37.58272],[-4.64216,37.58245],[-4.64045,37.58175],[-4.63917,37.5814]]]}},{"type":"Feature","properties":{"id":"1404203004"},"geometry":{"type":"Polygon","coordinates":[[[-4.64772,37.58167],[-4.64779,37.58165],[-4.64735,37.58083],[-4.64688,37.58097],[-4.64661,37.58047],[-4.64642,37.58041],[-4.64682,37.57969],[-4.64655,37.5796],[-4.64629,37.57981],[-4.64545,37.57917],[-4.64551,37.57907],[-4.64565,37.57911],[-4.64909,37.57642],[-4.64951,37.57599],[-4.6495,37.57541],[-4.65029,37.57192],[-4.65032,37.57114],[-4.65008,37.56857],[-4.65194,37.57027],[-4.65708,37.57468],[-4.65861,37.57707],[-4.65476,37.57872],[-4.65232,37.57928],[-4.65263,37.57961],[-4.65116,37.58018],[-4.65041,37.58077],[-4.6498,37.58088],[-4.64985,37.58118],[-4.6494,37.58155],[-4.64858,37.58193],[-4.64804,37.58213],[-4.64772,37.58167]]]}},{"type":"Feature","properties":{"id":"1404203005"},"geometry":{"type":"Polygon","coordinates":[[[-4.64301,37.57787],[-4.64347,37.57803],[-4.64346,37.57838],[-4.64478,37.57846],[-4.64525,37.57767],[-4.64555,37.57776],[-4.64618,37.57662],[-4.64546,37.57638],[-4.64577,37.57584],[-4.64637,37.57604],[-4.64658,37.57563],[-4.64725,37.57587],[-4.64752,37.57542],[-4.64909,37.57642],[-4.64568,37.57909],[-4.6448,37.57877],[-4.64306,37.57866],[-4.64286,37.57883],[-4.64252,37.57871],[-4.64301,37.57787]]]}},{"type":"Feature","properties":{"id":"1404204001"},"geometry":{"type":"Polygon","coordinates":[[[-4.6357,37.59126],[-4.63569,37.5908],[-4.63611,37.59063],[-4.63734,37.58968],[-4.63815,37.59019],[-4.63862,37.58863],[-4.63943,37.5886],[-4.63982,37.58873],[-4.64054,37.58909],[-4.64113,37.58956],[-4.64203,37.58878],[-4.64257,37.58808],[-4.64337,37.58869],[-4.64349,37.58943],[-4.64284,37.58979],[-4.64263,37.58958],[-4.64235,37.58986],[-4.64172,37.58964],[-4.64141,37.58996],[-4.64153,37.59091],[-4.64127,37.59119],[-4.6412,37.59193],[-4.64075,37.592],[-4.64033,37.59195],[-4.64034,37.59179],[-4.64025,37.59178],[-4.63998,37.59122],[-4.63973,37.59101],[-4.63936,37.59088],[-4.6389,37.59049],[-4.63814,37.59062],[-4.63755,37.59115],[-4.63699,37.59077],[-4.63585,37.59132],[-4.6357,37.59126]]]}},{"type":"Feature","properties":{"id":"1404204002"},"geometry":{"type":"Polygon","coordinates":[[[-4.59554,37.62796],[-4.5939,37.62752],[-4.59349,37.62726],[-4.59329,37.62695],[-4.59325,37.62648],[-4.59252,37.62594],[-4.59184,37.62575],[-4.59066,37.62567],[-4.59176,37.62492],[-4.59264,37.6246],[-4.59324,37.62422],[-4.59371,37.62374],[-4.59399,37.62308],[-4.59422,37.62168],[-4.5941,37.6168],[-4.59465,37.61603],[-4.5946,37.61549],[-4.59414,37.61433],[-4.594,37.61355],[-4.59401,37.61274],[-4.59421,37.61124],[-4.59414,37.6108],[-4.59017,37.60899],[-4.58637,37.60713],[-4.58374,37.60537],[-4.58283,37.60502],[-4.58073,37.60475],[-4.58019,37.60458],[-4.57927,37.60398],[-4.57559,37.60097],[-4.57486,37.60018],[-4.57411,37.5992],[-4.57374,37.59817],[-4.57267,37.59655],[-4.57191,37.59267],[-4.57314,37.59071],[-4.57366,37.58928],[-4.5753,37.58387],[-4.57547,37.5826],[-4.57585,37.58154],[-4.57719,37.57991],[-4.57773,37.57953],[-4.57889,37.57903],[-4.58099,37.57734],[-4.58163,37.57669],[-4.58229,37.57572],[-4.58285,37.57518],[-4.58468,37.57418],[-4.58743,37.57531],[-4.58872,37.57598],[-4.59042,37.57718],[-4.59123,37.57795],[-4.59213,37.57839],[-4.59457,37.57938],[-4.5967,37.57994],[-4.59786,37.58011],[-4.60025,37.58015],[-4.60087,37.57978],[-4.60245,37.57918],[-4.60291,37.57921],[-4.6039,37.57948],[-4.60823,37.57912],[-4.61207,37.57926],[-4.61305,37.579],[-4.6138,37.57846],[-4.61466,37.57805],[-4.61551,37.57788],[-4.61645,37.57783],[-4.61779,37.57818],[-4.61863,37.57806],[-4.61931,37.57793],[-4.62036,37.5771],[-4.62089,37.57716],[-4.62042,37.57657],[-4.61975,37.57602],[-4.61925,37.57538],[-4.61884,37.57458],[-4.61741,37.57307],[-4.61615,37.57276],[-4.6114,37.56998],[-4.61083,37.56949],[-4.6099,37.56842],[-4.60898,37.56787],[-4.60708,37.56726],[-4.60476,37.56687],[-4.60286,37.56623],[-4.60118,37.56589],[-4.60061,37.56543],[-4.6006,37.56504],[-4.60118,37.56433],[-4.60127,37.56394],[-4.59906,37.56027],[-4.59836,37.55853],[-4.59747,37.55751],[-4.59536,37.55565],[-4.59256,37.55357],[-4.59142,37.55283],[-4.59032,37.55185],[-4.58867,37.55],[-4.58732,37.54883],[-4.58658,37.5487],[-4.58639,37.54806],[-4.58568,37.54754],[-4.5853,37.54738],[-4.5847,37.54733],[-4.58389,37.54709],[-4.58282,37.54599],[-4.58169,37.54548],[-4.58105,37.54493],[-4.58058,37.54427],[-4.58036,37.54366],[-4.57976,37.54314],[-4.57841,37.54241],[-4.57791,37.54199],[-4.57748,37.54117],[-4.57627,37.54012],[-4.57549,37.53966],[-4.57272,37.53948],[-4.5719,37.53837],[-4.57171,37.53793],[-4.57165,37.53662],[-4.57083,37.53574],[-4.57057,37.53497],[-4.5701,37.53436],[-4.56686,37.53137],[-4.56533,37.53034],[-4.5647,37.53012],[-4.56393,37.52994],[-4.56165,37.52974],[-4.5607,37.52939],[-4.55985,37.52882],[-4.55933,37.52752],[-4.55916,37.5273],[-4.5587,37.52714],[-4.55796,37.52715],[-4.55637,37.52767],[-4.55335,37.5271],[-4.55231,37.52728],[-4.5513,37.5276],[-4.54888,37.52817],[-4.54943,37.52766],[-4.55045,37.52717],[-4.55062,37.52701],[-4.55068,37.52667],[-4.55114,37.52618],[-4.55119,37.52593],[-4.55188,37.52541],[-4.55211,37.52459],[-4.55236,37.52437],[-4.55282,37.52426],[-4.55372,37.52425],[-4.55405,37.52406],[-4.55442,37.52344],[-4.55607,37.52263],[-4.55658,37.52218],[-4.5568,37.52172],[-4.55681,37.52114],[-4.55698,37.52064],[-4.55728,37.5203],[-4.55924,37.51935],[-4.56003,37.51924],[-4.56044,37.51888],[-4.56081,37.51872],[-4.56096,37.51853],[-4.56103,37.51801],[-4.56143,37.51766],[-4.56186,37.51743],[-4.56301,37.51636],[-4.56403,37.516],[-4.56524,37.5157],[-4.56672,37.51511],[-4.5679,37.5149],[-4.56875,37.51459],[-4.56942,37.51447],[-4.56984,37.51459],[-4.57012,37.51452],[-4.57052,37.51425],[-4.571,37.51413],[-4.57144,37.51365],[-4.5718,37.51279],[-4.57241,37.51218],[-4.57318,37.51197],[-4.57333,37.51181],[-4.57314,37.51043],[-4.57317,37.50989],[-4.57369,37.51005],[-4.57463,37.51008],[-4.57564,37.50999],[-4.57725,37.50944],[-4.57994,37.50842],[-4.58126,37.50765],[-4.58238,37.50667],[-4.58354,37.50609],[-4.58447,37.50596],[-4.58507,37.50611],[-4.5853,37.50644],[-4.58545,37.50759],[-4.58595,37.50832],[-4.5869,37.50901],[-4.58781,37.50937],[-4.58917,37.50952],[-4.59005,37.50982],[-4.59178,37.51062],[-4.59287,37.51094],[-4.59411,37.51113],[-4.59517,37.51153],[-4.59607,37.512],[-4.59701,37.51312],[-4.59785,37.51391],[-4.59512,37.5151],[-4.59468,37.51553],[-4.59482,37.51579],[-4.59597,37.51641],[-4.59624,37.51694],[-4.59629,37.51854],[-4.59664,37.51908],[-4.59778,37.52009],[-4.59781,37.52071],[-4.59804,37.52133],[-4.59853,37.5217],[-4.59958,37.52212],[-4.60092,37.52234],[-4.60143,37.52258],[-4.60179,37.52365],[-4.60219,37.52398],[-4.60322,37.52427],[-4.60387,37.52466],[-4.60465,37.52495],[-4.60546,37.52503],[-4.60686,37.52558],[-4.60761,37.52562],[-4.60835,37.52589],[-4.6091,37.52794],[-4.60963,37.52819],[-4.61033,37.52822],[-4.61098,37.52798],[-4.6114,37.52746],[-4.61152,37.52708],[-4.61144,37.52635],[-4.61171,37.526],[-4.61218,37.52593],[-4.61274,37.52601],[-4.61327,37.52633],[-4.61454,37.52831],[-4.61525,37.52901],[-4.61603,37.5294],[-4.6173,37.52949],[-4.61817,37.53],[-4.61833,37.5308],[-4.61863,37.53117],[-4.61912,37.53151],[-4.61873,37.53221],[-4.61886,37.53271],[-4.61944,37.533],[-4.62015,37.53307],[-4.62054,37.53287],[-4.62086,37.53237],[-4.62136,37.5323],[-4.62202,37.53251],[-4.62224,37.53286],[-4.62175,37.53335],[-4.62157,37.53384],[-4.62178,37.53425],[-4.62218,37.53439],[-4.62326,37.53432],[-4.62372,37.53447],[-4.62548,37.53583],[-4.62589,37.53591],[-4.62624,37.53579],[-4.62711,37.53465],[-4.62788,37.53337],[-4.62823,37.53343],[-4.62857,37.53366],[-4.62857,37.53405],[-4.62942,37.53537],[-4.6301,37.53603],[-4.63061,37.53613],[-4.63106,37.53599],[-4.63159,37.53562],[-4.63229,37.53558],[-4.63341,37.53583],[-4.63381,37.53576],[-4.63441,37.53524],[-4.6352,37.53521],[-4.63574,37.53557],[-4.63609,37.53617],[-4.63661,37.53646],[-4.6371,37.53651],[-4.63783,37.53644],[-4.63803,37.53611],[-4.63793,37.53579],[-4.63727,37.5353],[-4.63686,37.53484],[-4.63825,37.53416],[-4.63944,37.53416],[-4.64057,37.5344],[-4.64092,37.53474],[-4.64143,37.53579],[-4.6418,37.53614],[-4.64247,37.53622],[-4.643,37.536],[-4.64375,37.53542],[-4.64465,37.53395],[-4.64532,37.53364],[-4.6464,37.53365],[-4.64697,37.53393],[-4.64772,37.53535],[-4.64802,37.53562],[-4.6484,37.53555],[-4.64869,37.53467],[-4.64904,37.53463],[-4.64934,37.53483],[-4.65024,37.53631],[-4.65084,37.53665],[-4.65195,37.53689],[-4.65246,37.53678],[-4.654,37.53599],[-4.65635,37.53434],[-4.65749,37.53386],[-4.65884,37.53469],[-4.65878,37.53674],[-4.65913,37.54078],[-4.65934,37.54149],[-4.65967,37.54176],[-4.66053,37.54191],[-4.66154,37.54192],[-4.66268,37.54208],[-4.66372,37.54251],[-4.6643,37.54261],[-4.66496,37.5424],[-4.66519,37.54207],[-4.66447,37.54056],[-4.66474,37.54036],[-4.66515,37.54043],[-4.66623,37.54122],[-4.6665,37.54076],[-4.66605,37.53987],[-4.66604,37.53957],[-4.66519,37.53871],[-4.66554,37.53861],[-4.66587,37.53867],[-4.66689,37.53957],[-4.66731,37.53962],[-4.66759,37.53948],[-4.6668,37.53729],[-4.66704,37.53708],[-4.66751,37.53707],[-4.6678,37.53727],[-4.66863,37.53845],[-4.66922,37.53872],[-4.66932,37.53851],[-4.66929,37.53797],[-4.66954,37.53773],[-4.66992,37.53789],[-4.67024,37.53824],[-4.67048,37.53962],[-4.67075,37.53969],[-4.6713,37.53953],[-4.67124,37.53811],[-4.67211,37.53754],[-4.67232,37.53713],[-4.67149,37.53599],[-4.67097,37.53554],[-4.67036,37.53522],[-4.67015,37.53495],[-4.66996,37.53426],[-4.66901,37.53329],[-4.66918,37.5329],[-4.66962,37.53257],[-4.67083,37.53216],[-4.67209,37.53157],[-4.67297,37.53096],[-4.67423,37.52969],[-4.6752,37.53059],[-4.67619,37.53176],[-4.67719,37.5338],[-4.67766,37.53585],[-4.67829,37.53537],[-4.67852,37.53486],[-4.67866,37.53409],[-4.67982,37.53122],[-4.68011,37.53009],[-4.68177,37.52648],[-4.68284,37.52458],[-4.68341,37.52288],[-4.68379,37.52209],[-4.68426,37.52157],[-4.68478,37.52138],[-4.68724,37.52118],[-4.68897,37.52086],[-4.69088,37.52072],[-4.69188,37.5208],[-4.69348,37.52122],[-4.69592,37.5217],[-4.69895,37.52199],[-4.69951,37.52235],[-4.70016,37.52349],[-4.70083,37.5239],[-4.70268,37.52435],[-4.70523,37.52616],[-4.70854,37.52942],[-4.70927,37.5303],[-4.70946,37.53075],[-4.70945,37.53111],[-4.70921,37.53162],[-4.70913,37.53209],[-4.70932,37.53236],[-4.71053,37.53274],[-4.71093,37.53313],[-4.711,37.53354],[-4.71093,37.53434],[-4.71059,37.53542],[-4.71074,37.53594],[-4.71096,37.53596],[-4.71134,37.53583],[-4.71785,37.53272],[-4.71747,37.53185],[-4.71756,37.53158],[-4.72351,37.53026],[-4.72393,37.53029],[-4.72627,37.53133],[-4.72757,37.53201],[-4.72903,37.53307],[-4.72965,37.53369],[-4.73035,37.53488],[-4.73366,37.53944],[-4.73264,37.5429],[-4.73235,37.54429],[-4.7328,37.54565],[-4.73344,37.54656],[-4.73635,37.54987],[-4.73815,37.55079],[-4.73901,37.55157],[-4.74141,37.55441],[-4.74229,37.55584],[-4.74681,37.56056],[-4.747,37.56122],[-4.7469,37.56171],[-4.74637,37.56201],[-4.74643,37.56242],[-4.745,37.56302],[-4.74083,37.56338],[-4.74017,37.56355],[-4.73587,37.56552],[-4.73413,37.56552],[-4.73255,37.56595],[-4.73212,37.56629],[-4.73177,37.56685],[-4.73174,37.56736],[-4.73188,37.56792],[-4.73237,37.56914],[-4.73251,37.56979],[-4.73239,37.57051],[-4.73153,37.57292],[-4.73143,37.57395],[-4.73226,37.57722],[-4.73229,37.57769],[-4.732,37.57783],[-4.73121,37.57794],[-4.73083,37.57819],[-4.73054,37.57881],[-4.73055,37.57976],[-4.73039,37.58051],[-4.73012,37.58091],[-4.72842,37.58217],[-4.7273,37.58275],[-4.72656,37.58334],[-4.72627,37.58398],[-4.7262,37.58453],[-4.72643,37.58562],[-4.72686,37.58653],[-4.72717,37.58757],[-4.7276,37.59248],[-4.72797,37.5941],[-4.7293,37.59623],[-4.73081,37.59717],[-4.73132,37.59766],[-4.73241,37.59927],[-4.73299,37.59995],[-4.7349,37.60153],[-4.73449,37.60201],[-4.73317,37.60311],[-4.73277,37.60332],[-4.73104,37.60375],[-4.72862,37.60404],[-4.72653,37.60452],[-4.72468,37.60471],[-4.72366,37.6049],[-4.72249,37.60539],[-4.72209,37.6056],[-4.72058,37.60695],[-4.7196,37.60768],[-4.71626,37.60961],[-4.7151,37.61037],[-4.71233,37.61265],[-4.71031,37.61377],[-4.70901,37.61405],[-4.7085,37.61405],[-4.70748,37.61378],[-4.70569,37.61376],[-4.70409,37.61326],[-4.70336,37.61312],[-4.70282,37.61314],[-4.7013,37.61346],[-4.70062,37.61345],[-4.69854,37.61274],[-4.69754,37.61269],[-4.69619,37.61284],[-4.6949,37.61374],[-4.69408,37.61455],[-4.69355,37.61478],[-4.6921,37.61515],[-4.69023,37.61686],[-4.68846,37.61782],[-4.68781,37.61833],[-4.68659,37.61997],[-4.68595,37.6206],[-4.68525,37.62107],[-4.68451,37.62141],[-4.6837,37.62165],[-4.68174,37.62194],[-4.68136,37.62214],[-4.68074,37.62285],[-4.68057,37.62489],[-4.68042,37.62557],[-4.68016,37.62613],[-4.67977,37.62669],[-4.67866,37.62786],[-4.67842,37.62843],[-4.67748,37.62926],[-4.67712,37.62984],[-4.67678,37.63014],[-4.67503,37.63117],[-4.67433,37.6317],[-4.67411,37.63211],[-4.67395,37.63219],[-4.67341,37.63203],[-4.67319,37.63212],[-4.67239,37.63286],[-4.67186,37.63306],[-4.67044,37.63311],[-4.66957,37.63324],[-4.66892,37.63321],[-4.66759,37.63294],[-4.66499,37.63266],[-4.66305,37.63335],[-4.66116,37.63367],[-4.6596,37.63353],[-4.6588,37.63359],[-4.65643,37.63415],[-4.65468,37.63403],[-4.65206,37.63401],[-4.65105,37.63415],[-4.64977,37.63453],[-4.64899,37.63507],[-4.64827,37.63533],[-4.64772,37.63574],[-4.64716,37.63633],[-4.64657,37.63666],[-4.64608,37.63671],[-4.64412,37.63645],[-4.64233,37.63605],[-4.64039,37.6355],[-4.63678,37.63489],[-4.6355,37.63478],[-4.63371,37.63425],[-4.63273,37.63417],[-4.63133,37.63423],[-4.62778,37.63481],[-4.62671,37.63478],[-4.62582,37.63459],[-4.62523,37.6343],[-4.62403,37.63324],[-4.6231,37.63266],[-4.62142,37.63186],[-4.62031,37.63148],[-4.61931,37.63134],[-4.61829,37.63133],[-4.61499,37.63203],[-4.61331,37.63206],[-4.60985,37.63095],[-4.60874,37.63072],[-4.60648,37.63059],[-4.60578,37.63043],[-4.60486,37.62981],[-4.6044,37.62962],[-4.6025,37.62961],[-4.60217,37.62953],[-4.60017,37.62811],[-4.59817,37.62743],[-4.59726,37.62732],[-4.59653,37.62739],[-4.59592,37.62761],[-4.59554,37.62796]],[[-4.6357,37.59126],[-4.63585,37.59132],[-4.63699,37.59077],[-4.63755,37.59115],[-4.63814,37.59062],[-4.6389,37.59049],[-4.63936,37.59088],[-4.63973,37.59101],[-4.63998,37.59122],[-4.64025,37.59178],[-4.64034,37.59179],[-4.64033,37.59195],[-4.64075,37.592],[-4.6412,37.59193],[-4.64127,37.59119],[-4.64153,37.59091],[-4.64141,37.58996],[-4.64172,37.58964],[-4.64235,37.58986],[-4.64263,37.58958],[-4.64284,37.58979],[-4.64349,37.58943],[-4.64337,37.58869],[-4.64353,37.58809],[-4.64402,37.58773],[-4.64375,37.58741],[-4.6428,37.58775],[-4.64268,37.58757],[-4.64333,37.58695],[-4.64368,37.58644],[-4.6434,37.58633],[-4.64345,37.58618],[-4.64324,37.58605],[-4.64348,37.58577],[-4.64251,37.58504],[-4.64288,37.58473],[-4.64311,37.58465],[-4.64329,37.58469],[-4.64405,37.58411],[-4.64433,37.58419],[-4.64482,37.58373],[-4.64502,37.58331],[-4.64473,37.58308],[-4.64512,37.58271],[-4.64497,37.58257],[-4.64572,37.58203],[-4.64655,37.58211],[-4.64683,37.58194],[-4.64772,37.58167],[-4.64804,37.58213],[-4.64858,37.58193],[-4.6494,37.58155],[-4.64985,37.58118],[-4.6498,37.58088],[-4.65041,37.58077],[-4.65116,37.58018],[-4.65263,37.57961],[-4.65232,37.57928],[-4.65476,37.57872],[-4.65861,37.57707],[-4.65708,37.57468],[-4.65194,37.57027],[-4.65008,37.56857],[-4.65032,37.57114],[-4.65029,37.57192],[-4.6495,37.57541],[-4.64951,37.57599],[-4.64907,37.5764],[-4.64752,37.57542],[-4.64725,37.57587],[-4.64658,37.57563],[-4.64637,37.57604],[-4.64577,37.57584],[-4.64546,37.57638],[-4.64618,37.57662],[-4.64555,37.57776],[-4.64525,37.57767],[-4.64478,37.57846],[-4.64346,37.57838],[-4.64347,37.57803],[-4.643,37.57786],[-4.64297,37.57775],[-4.64196,37.57738],[-4.64231,37.57659],[-4.64129,37.57617],[-4.64102,37.5766],[-4.64087,37.57717],[-4.64022,37.57808],[-4.64005,37.57859],[-4.63941,37.57922],[-4.63896,37.57922],[-4.63878,37.5784],[-4.63811,37.57853],[-4.63802,37.57839],[-4.63781,37.5784],[-4.63752,37.57912],[-4.6371,37.57901],[-4.63696,37.57929],[-4.63578,37.57898],[-4.63609,37.57826],[-4.63418,37.57775],[-4.6334,37.57884],[-4.63236,37.58064],[-4.63281,37.58082],[-4.63248,37.58154],[-4.63214,37.58307],[-4.63158,37.58456],[-4.63082,37.58549],[-4.62935,37.5866],[-4.62814,37.58769],[-4.62763,37.58847],[-4.62787,37.58854],[-4.62657,37.59059],[-4.62781,37.59066],[-4.62781,37.59115],[-4.62986,37.59118],[-4.63012,37.59085],[-4.6309,37.59069],[-4.63094,37.59106],[-4.6318,37.59103],[-4.63235,37.59131],[-4.6333,37.59155],[-4.6335,37.59249],[-4.63273,37.59316],[-4.63263,37.59376],[-4.63244,37.59404],[-4.63001,37.59487],[-4.63011,37.595],[-4.629,37.59568],[-4.62921,37.59592],[-4.62828,37.59633],[-4.62764,37.59642],[-4.62734,37.59668],[-4.62611,37.5972],[-4.62521,37.59773],[-4.62548,37.59792],[-4.62592,37.59769],[-4.62767,37.5971],[-4.62824,37.59771],[-4.62953,37.5968],[-4.63047,37.59594],[-4.63102,37.5962],[-4.63129,37.59592],[-4.63078,37.59561],[-4.63096,37.59546],[-4.63256,37.59479],[-4.63277,37.59531],[-4.63246,37.59562],[-4.63209,37.59645],[-4.63163,37.5968],[-4.63176,37.59698],[-4.63238,37.59708],[-4.63293,37.59646],[-4.6334,37.59655],[-4.63339,37.59683],[-4.63437,37.59661],[-4.63507,37.59737],[-4.63596,37.59737],[-4.63591,37.59704],[-4.6355,37.59618],[-4.63602,37.59611],[-4.63608,37.59458],[-4.63593,37.59369],[-4.63573,37.59378],[-4.63512,37.59371],[-4.63535,37.59317],[-4.6357,37.59126]]]}},{"type":"Feature","properties":{"id":"1404204003"},"geometry":{"type":"Polygon","coordinates":[[[-4.63151,37.59022],[-4.63167,37.58886],[-4.63304,37.58895],[-4.63462,37.58956],[-4.63469,37.5895],[-4.63589,37.58956],[-4.63599,37.58936],[-4.63734,37.58968],[-4.63611,37.59063],[-4.63569,37.5908],[-4.63568,37.5912],[-4.63276,37.59036],[-4.63151,37.59022]]]}},{"type":"Feature","properties":{"id":"1404204004"},"geometry":{"type":"Polygon","coordinates":[[[-4.63012,37.59085],[-4.63084,37.5903],[-4.63118,37.59023],[-4.63212,37.59024],[-4.63568,37.5912],[-4.63535,37.59317],[-4.63512,37.59371],[-4.63573,37.59378],[-4.63593,37.59369],[-4.63608,37.59458],[-4.63602,37.59611],[-4.6355,37.59618],[-4.63591,37.59704],[-4.63596,37.59737],[-4.63507,37.59737],[-4.63437,37.59661],[-4.63339,37.59683],[-4.6334,37.59655],[-4.63293,37.59646],[-4.63238,37.59708],[-4.63176,37.59698],[-4.63163,37.5968],[-4.63209,37.59645],[-4.63246,37.59562],[-4.63277,37.59531],[-4.63256,37.59479],[-4.63096,37.59546],[-4.63078,37.59561],[-4.63129,37.59592],[-4.63102,37.5962],[-4.63047,37.59594],[-4.62953,37.5968],[-4.62824,37.59771],[-4.62767,37.5971],[-4.62592,37.59769],[-4.62548,37.59792],[-4.62521,37.59773],[-4.62611,37.5972],[-4.62734,37.59668],[-4.62764,37.59642],[-4.62828,37.59633],[-4.62921,37.59592],[-4.629,37.59568],[-4.63011,37.595],[-4.63001,37.59487],[-4.63244,37.59404],[-4.63263,37.59376],[-4.63273,37.59316],[-4.6335,37.59249],[-4.6333,37.59155],[-4.63235,37.59131],[-4.6318,37.59103],[-4.63094,37.59106],[-4.6309,37.59069],[-4.63012,37.59085]]]}},{"type":"Feature","properties":{"id":"1404204005"},"geometry":{"type":"Polygon","coordinates":[[[-4.62787,37.58854],[-4.62802,37.58845],[-4.62925,37.58874],[-4.63167,37.58886],[-4.63151,37.59022],[-4.63084,37.5903],[-4.63004,37.59091],[-4.62986,37.59118],[-4.62781,37.59115],[-4.62781,37.59066],[-4.62657,37.59059],[-4.62787,37.58854]]]}},{"type":"Feature","properties":{"id":"1404205001"},"geometry":{"type":"MultiPolygon","coordinates":[[[[-4.55151,37.57471],[-4.54975,37.57225],[-4.54878,37.57151],[-4.5477,37.57105],[-4.54687,37.5709],[-4.54474,37.57075],[-4.5439,37.57051],[-4.54244,37.56965],[-4.54035,37.56858],[-4.53868,37.56758],[-4.53338,37.56418],[-4.52987,37.56177],[-4.52907,37.56084],[-4.52894,37.56034],[-4.52961,37.55698],[-4.52981,37.55363],[-4.53253,37.55177],[-4.53363,37.55089],[-4.53431,37.55007],[-4.53467,37.5495],[-4.53541,37.54742],[-4.53663,37.54351],[-4.53766,37.54134],[-4.5382,37.54049],[-4.53995,37.53839],[-4.54148,37.53609],[-4.54392,37.53309],[-4.54611,37.53008],[-4.54653,37.52985],[-4.5473,37.52964],[-4.54793,37.52935],[-4.54888,37.52817],[-4.5513,37.5276],[-4.55231,37.52728],[-4.55335,37.5271],[-4.55637,37.52767],[-4.55796,37.52715],[-4.5587,37.52714],[-4.55916,37.5273],[-4.55933,37.52752],[-4.55985,37.52882],[-4.5607,37.52939],[-4.56165,37.52974],[-4.56393,37.52994],[-4.5647,37.53012],[-4.56533,37.53034],[-4.56686,37.53137],[-4.5701,37.53436],[-4.57057,37.53497],[-4.57083,37.53574],[-4.57165,37.53662],[-4.57171,37.53793],[-4.5719,37.53837],[-4.57272,37.53948],[-4.57549,37.53966],[-4.57627,37.54012],[-4.57748,37.54117],[-4.57791,37.54199],[-4.57841,37.54241],[-4.57976,37.54314],[-4.58036,37.54366],[-4.58058,37.54427],[-4.58105,37.54493],[-4.58169,37.54548],[-4.58282,37.54599],[-4.58389,37.54709],[-4.5847,37.54733],[-4.5853,37.54738],[-4.58568,37.54754],[-4.58639,37.54806],[-4.58658,37.5487],[-4.58732,37.54883],[-4.58867,37.55],[-4.59032,37.55185],[-4.59142,37.55283],[-4.59256,37.55357],[-4.59536,37.55565],[-4.59747,37.55751],[-4.59836,37.55853],[-4.59906,37.56027],[-4.60127,37.56394],[-4.60118,37.56433],[-4.6006,37.56504],[-4.60061,37.56543],[-4.60118,37.56589],[-4.60286,37.56623],[-4.60476,37.56687],[-4.60708,37.56726],[-4.60898,37.56787],[-4.6099,37.56842],[-4.61083,37.56949],[-4.6114,37.56998],[-4.61615,37.57276],[-4.61741,37.57307],[-4.61884,37.57458],[-4.61925,37.57538],[-4.61975,37.57602],[-4.62042,37.57657],[-4.62089,37.57716],[-4.62036,37.5771],[-4.61931,37.57793],[-4.61863,37.57806],[-4.61779,37.57818],[-4.61645,37.57783],[-4.61551,37.57788],[-4.61466,37.57805],[-4.6138,37.57846],[-4.61305,37.579],[-4.61207,37.57926],[-4.60823,37.57912],[-4.6039,37.57948],[-4.60291,37.57921],[-4.60245,37.57918],[-4.60087,37.57978],[-4.60025,37.58015],[-4.59786,37.58011],[-4.5967,37.57994],[-4.59457,37.57938],[-4.59213,37.57839],[-4.59123,37.57795],[-4.59042,37.57718],[-4.58872,37.57598],[-4.58743,37.57531],[-4.58468,37.57418],[-4.58285,37.57518],[-4.58229,37.57572],[-4.58163,37.57669],[-4.58099,37.57734],[-4.57889,37.57903],[-4.57773,37.57953],[-4.57719,37.57991],[-4.57585,37.58154],[-4.57547,37.5826],[-4.5753,37.58387],[-4.57366,37.58928],[-4.57314,37.59071],[-4.57191,37.59267],[-4.57111,37.58835],[-4.57037,37.58699],[-4.56933,37.58603],[-4.5653,37.58315],[-4.56341,37.58161],[-4.56151,37.58042],[-4.55929,37.5792],[-4.55491,37.57738],[-4.5533,37.57644],[-4.55239,37.57568],[-4.55151,37.57471]]],[[[-4.63593,37.58952],[-4.63469,37.5895],[-4.63462,37.58956],[-4.63304,37.58895],[-4.62925,37.58874],[-4.62802,37.58845],[-4.62787,37.58854],[-4.62763,37.58847],[-4.62814,37.58769],[-4.62848,37.58736],[-4.63082,37.58549],[-4.63126,37.585],[-4.63178,37.58415],[-4.63214,37.58307],[-4.63297,37.58322],[-4.63246,37.58541],[-4.63326,37.58523],[-4.63435,37.58538],[-4.63522,37.58593],[-4.6356,37.58733],[-4.63609,37.58733],[-4.63587,37.58756],[-4.63615,37.58839],[-4.63613,37.58896],[-4.63593,37.58952]]]]}}]}