{"type":"FeatureCollection","features":[{"type":"Feature","properties":{"id":"1405601001"},"geometry":{"type":"Polygon","coordinates":[[[-4.80808,37.39918],[-4.80625,37.39849],[-4.80246,37.39588],[-4.80113,37.39517],[-4.80052,37.39492],[-4.79686,37.39433],[-4.79631,37.39389],[-4.79465,37.39205],[-4.79387,37.39147],[-4.79355,37.39108],[-4.79333,37.39056],[-4.79285,37.39012],[-4.7923,37.38975],[-4.79139,37.3896],[-4.79079,37.38937],[-4.79008,37.38933],[-4.78878,37.38899],[-4.78788,37.38842],[-4.78678,37.38753],[-4.7862,37.38686],[-4.78578,37.38681],[-4.78521,37.38645],[-4.78493,37.3867],[-4.78447,37.38741],[-4.78446,37.38758],[-4.78484,37.38792],[-4.78406,37.38827],[-4.78349,37.38826],[-4.78332,37.38834],[-4.78315,37.38851],[-4.78299,37.3891],[-4.78262,37.38892],[-4.78203,37.38882],[-4.77971,37.38755],[-4.77891,37.38693],[-4.77875,37.38636],[-4.77806,37.38628],[-4.77782,37.38689],[-4.77744,37.38685],[-4.77718,37.38672],[-4.77694,37.38612],[-4.77563,37.38535],[-4.77533,37.38489],[-4.77537,37.38376],[-4.77524,37.38342],[-4.77453,37.38251],[-4.77458,37.38182],[-4.77497,37.38125],[-4.77688,37.38198],[-4.77844,37.38064],[-4.77848,37.38034],[-4.77879,37.38016],[-4.77929,37.37889],[-4.77916,37.37844],[-4.77919,37.3781],[-4.77945,37.37782],[-4.78013,37.3774],[-4.78042,37.37704],[-4.78074,37.37692],[-4.78107,37.37643],[-4.78111,37.3761],[-4.78092,37.37592],[-4.7807,37.37592],[-4.78012,37.37617],[-4.7796,37.37611],[-4.77951,37.37445],[-4.77924,37.37402],[-4.77885,37.37368],[-4.77814,37.37346],[-4.77762,37.37352],[-4.77713,37.37374],[-4.77605,37.37323],[-4.77521,37.37316],[-4.77477,37.37295],[-4.77421,37.37252],[-4.77371,37.37279],[-4.77349,37.37259],[-4.77083,37.37381],[-4.77009,37.3724],[-4.76946,37.37285],[-4.76862,37.3732],[-4.76698,37.37425],[-4.76656,37.37433],[-4.76622,37.37425],[-4.76545,37.37435],[-4.76515,37.37449],[-4.76515,37.37476],[-4.76478,37.37482],[-4.76473,37.37497],[-4.76479,37.37507],[-4.76471,37.37511],[-4.76497,37.37546],[-4.76461,37.37551],[-4.76398,37.37588],[-4.76393,37.376],[-4.76372,37.37608],[-4.7635,37.37656],[-4.76291,37.3766],[-4.76231,37.3763],[-4.76157,37.37562],[-4.76119,37.37502],[-4.76067,37.37334],[-4.76046,37.37292],[-4.7599,37.37296],[-4.75943,37.37319],[-4.75896,37.37327],[-4.75787,37.37387],[-4.75626,37.37498],[-4.75418,37.37671],[-4.75424,37.37592],[-4.75406,37.37541],[-4.75357,37.37471],[-4.75354,37.37433],[-4.75385,37.37352],[-4.75332,37.37233],[-4.7534,37.37195],[-4.75428,37.37032],[-4.75579,37.36815],[-4.7573,37.36737],[-4.7582,37.36672],[-4.75941,37.36601],[-4.75989,37.36496],[-4.75978,37.36392],[-4.7594,37.3633],[-4.75755,37.36257],[-4.75554,37.36127],[-4.75413,37.36055],[-4.75307,37.36014],[-4.75164,37.35925],[-4.75089,37.3585],[-4.75019,37.35815],[-4.74884,37.35775],[-4.74814,37.35737],[-4.74756,37.35696],[-4.74719,37.35654],[-4.74685,37.35587],[-4.747,37.35544],[-4.74732,37.35502],[-4.74787,37.35456],[-4.74941,37.35414],[-4.75108,37.35263],[-4.75213,37.35219],[-4.75389,37.3518],[-4.75459,37.35137],[-4.75535,37.34934],[-4.75554,37.34852],[-4.75535,37.3483],[-4.75623,37.34889],[-4.75711,37.34925],[-4.75949,37.34981],[-4.76168,37.35016],[-4.76377,37.35075],[-4.7649,37.35065],[-4.7658,37.35113],[-4.76646,37.34946],[-4.76696,37.34728],[-4.76724,37.34523],[-4.7676,37.34067],[-4.768,37.33892],[-4.7685,37.33745],[-4.76999,37.33705],[-4.77186,37.33681],[-4.7731,37.33626],[-4.77341,37.33588],[-4.77428,37.33527],[-4.77472,37.33482],[-4.77525,37.33343],[-4.77565,37.33304],[-4.77664,37.33349],[-4.77739,37.33398],[-4.77753,37.33429],[-4.7774,37.33517],[-4.77751,37.33537],[-4.77782,37.33546],[-4.77964,37.3355],[-4.78009,37.33541],[-4.78149,37.33178],[-4.78223,37.3285],[-4.78274,37.32935],[-4.78329,37.33002],[-4.78654,37.33244],[-4.78701,37.33295],[-4.7879,37.33457],[-4.78863,37.33546],[-4.7893,37.33606],[-4.79136,37.33737],[-4.79993,37.34449],[-4.80057,37.34468],[-4.80137,37.34514],[-4.80362,37.34689],[-4.80622,37.34831],[-4.80765,37.34919],[-4.80923,37.35033],[-4.81819,37.35525],[-4.82213,37.35819],[-4.82318,37.36085],[-4.82346,37.36182],[-4.82361,37.3632],[-4.82354,37.36378],[-4.82295,37.36503],[-4.82289,37.36559],[-4.823,37.36668],[-4.82361,37.36876],[-4.82089,37.36962],[-4.81994,37.37001],[-4.81861,37.37074],[-4.81516,37.37227],[-4.81473,37.37261],[-4.81453,37.37298],[-4.81452,37.37343],[-4.81466,37.37427],[-4.81503,37.37546],[-4.81507,37.37606],[-4.81499,37.37655],[-4.81474,37.37702],[-4.81469,37.37753],[-4.8152,37.37793],[-4.81651,37.37766],[-4.81693,37.37766],[-4.81806,37.37805],[-4.81888,37.37799],[-4.81978,37.37836],[-4.82031,37.37846],[-4.8235,37.37842],[-4.82443,37.37853],[-4.82602,37.37908],[-4.82544,37.37983],[-4.82508,37.38051],[-4.82501,37.3811],[-4.82523,37.38252],[-4.8252,37.38335],[-4.8276,37.38228],[-4.82805,37.38231],[-4.82874,37.38328],[-4.83015,37.3841],[-4.83053,37.38453],[-4.83084,37.38498],[-4.83115,37.38629],[-4.83115,37.38729],[-4.83104,37.38818],[-4.83078,37.3891],[-4.83073,37.38985],[-4.83097,37.3904],[-4.83128,37.3908],[-4.83233,37.39158],[-4.83541,37.39508],[-4.83781,37.39835],[-4.8398,37.39952],[-4.84052,37.39976],[-4.84108,37.39976],[-4.84339,37.39948],[-4.84382,37.39959],[-4.84395,37.3999],[-4.84368,37.40098],[-4.84321,37.40177],[-4.84135,37.40339],[-4.84089,37.40402],[-4.84101,37.40424],[-4.84177,37.40469],[-4.84097,37.40488],[-4.8404,37.40445],[-4.83858,37.40361],[-4.83788,37.40342],[-4.83728,37.40343],[-4.83542,37.40303],[-4.83491,37.40306],[-4.83388,37.40333],[-4.83287,37.40373],[-4.83228,37.40385],[-4.83112,37.40391],[-4.82897,37.40379],[-4.82543,37.40272],[-4.82443,37.4023],[-4.82236,37.40181],[-4.81988,37.40187],[-4.81799,37.40173],[-4.81644,37.40181],[-4.81562,37.40155],[-4.81511,37.40122],[-4.8139,37.40111],[-4.81339,37.40092],[-4.81213,37.40029],[-4.81029,37.39967],[-4.8093,37.39904],[-4.8081,37.3991],[-4.80808,37.39918]]]}},{"type":"Feature","properties":{"id":"1405601002"},"geometry":{"type":"Polygon","coordinates":[[[-4.77587,37.39238],[-4.77633,37.3899],[-4.77668,37.38991],[-4.77668,37.38982],[-4.77764,37.38985],[-4.77856,37.38956],[-4.77887,37.38954],[-4.77879,37.38739],[-4.77923,37.38745],[-4.77936,37.38731],[-4.78203,37.38882],[-4.78262,37.38892],[-4.78333,37.38926],[-4.78427,37.38958],[-4.78479,37.39007],[-4.7847,37.39058],[-4.78428,37.39077],[-4.78346,37.39059],[-4.7825,37.39089],[-4.78221,37.39092],[-4.78184,37.39079],[-4.78125,37.39079],[-4.78012,37.39107],[-4.77808,37.3913],[-4.77747,37.39189],[-4.7767,37.39312],[-4.77621,37.39355],[-4.77548,37.39291],[-4.77586,37.39269],[-4.77606,37.39244],[-4.77587,37.39238]]]}},{"type":"Feature","properties":{"id":"1405601003"},"geometry":{"type":"MultiPolygon","coordinates":[[[[-4.79283,37.40624],[-4.79149,37.4054],[-4.79088,37.40526],[-4.78721,37.40521],[-4.78652,37.40525],[-4.78598,37.40549],[-4.78513,37.40614],[-4.78477,37.40627],[-4.78421,37.4068],[-4.78263,37.40696],[-4.78118,37.4069],[-4.78019,37.40653],[-4.7794,37.40577],[-4.7789,37.40548],[-4.77649,37.40476],[-4.77538,37.40427],[-4.77503,37.40409],[-4.77427,37.40342],[-4.77416,37.40279],[-4.77414,37.40126],[-4.77447,37.40022],[-4.7744,37.40022],[-4.77434,37.39952],[-4.77384,37.3987],[-4.7736,37.39775],[-4.77406,37.39713],[-4.77475,37.39657],[-4.77526,37.39577],[-4.77556,37.39479],[-4.77621,37.39355],[-4.7767,37.39312],[-4.77747,37.39189],[-4.77808,37.3913],[-4.78012,37.39107],[-4.78125,37.39079],[-4.78184,37.39079],[-4.78221,37.39092],[-4.78346,37.39059],[-4.78428,37.39077],[-4.7847,37.39058],[-4.78479,37.39007],[-4.78454,37.3898],[-4.78427,37.38958],[-4.78299,37.3891],[-4.78315,37.38851],[-4.78332,37.38834],[-4.78349,37.38826],[-4.78406,37.38827],[-4.78484,37.38792],[-4.78446,37.38758],[-4.78447,37.38741],[-4.78493,37.3867],[-4.78521,37.38645],[-4.78578,37.38681],[-4.7862,37.38686],[-4.78678,37.38753],[-4.78788,37.38842],[-4.78878,37.38899],[-4.79008,37.38933],[-4.79079,37.38937],[-4.79139,37.3896],[-4.7923,37.38975],[-4.79285,37.39012],[-4.79333,37.39056],[-4.79355,37.39108],[-4.79387,37.39147],[-4.79465,37.39205],[-4.79631,37.39389],[-4.79686,37.39433],[-4.80052,37.39492],[-4.80113,37.39517],[-4.80246,37.39588],[-4.80625,37.39849],[-4.80808,37.39918],[-4.80787,37.40014],[-4.80758,37.40043],[-4.80648,37.40112],[-4.80463,37.40207],[-4.80418,37.40242],[-4.80338,37.40267],[-4.8031,37.40288],[-4.80291,37.40335],[-4.80364,37.40391],[-4.80474,37.40441],[-4.80312,37.40452],[-4.80249,37.40475],[-4.80117,37.40558],[-4.80057,37.40584],[-4.7995,37.40655],[-4.79916,37.40666],[-4.79759,37.40654],[-4.79612,37.40614],[-4.79587,37.40623],[-4.79517,37.40683],[-4.79474,37.40696],[-4.79429,37.4069],[-4.79283,37.40624]]],[[[-4.77371,37.37727],[-4.7732,37.37719],[-4.77164,37.37757],[-4.77135,37.37787],[-4.77138,37.37805],[-4.7706,37.37895],[-4.77015,37.37921],[-4.76845,37.3799],[-4.76631,37.38098],[-4.76469,37.3815],[-4.76429,37.38072],[-4.76442,37.38049],[-4.76391,37.37939],[-4.76372,37.37935],[-4.7636,37.37906],[-4.76373,37.37863],[-4.76362,37.37741],[-4.76346,37.37744],[-4.7632,37.3777],[-4.76311,37.37767],[-4.76296,37.37791],[-4.76317,37.37826],[-4.76321,37.37866],[-4.76271,37.37933],[-4.76259,37.37936],[-4.76203,37.37891],[-4.76159,37.37881],[-4.76135,37.3786],[-4.76075,37.37852],[-4.76099,37.37681],[-4.76223,37.37624],[-4.76291,37.3766],[-4.7635,37.37656],[-4.76372,37.37608],[-4.76393,37.376],[-4.76398,37.37588],[-4.76461,37.37551],[-4.76497,37.37546],[-4.76471,37.37511],[-4.76479,37.37507],[-4.76473,37.37497],[-4.76478,37.37482],[-4.76515,37.37476],[-4.76515,37.37449],[-4.76545,37.37435],[-4.76622,37.37425],[-4.76656,37.37433],[-4.76698,37.37425],[-4.76862,37.3732],[-4.76946,37.37285],[-4.77009,37.3724],[-4.77083,37.37381],[-4.77349,37.37259],[-4.77371,37.37279],[-4.77421,37.37252],[-4.77477,37.37295],[-4.77521,37.37316],[-4.77605,37.37323],[-4.77713,37.37374],[-4.77762,37.37352],[-4.77834,37.37348],[-4.77885,37.37368],[-4.77924,37.37402],[-4.77951,37.37445],[-4.7796,37.37611],[-4.78012,37.37617],[-4.7807,37.37592],[-4.78092,37.37592],[-4.78111,37.3761],[-4.78107,37.37643],[-4.78074,37.37692],[-4.78042,37.37704],[-4.78013,37.3774],[-4.77945,37.37782],[-4.77919,37.3781],[-4.77916,37.37844],[-4.77929,37.37889],[-4.77879,37.38016],[-4.77848,37.38034],[-4.77844,37.38064],[-4.77688,37.38198],[-4.77539,37.38138],[-4.7757,37.38082],[-4.77632,37.38007],[-4.77627,37.37946],[-4.77601,37.37892],[-4.77508,37.37794],[-4.77465,37.37765],[-4.77371,37.37727]]]]}},{"type":"Feature","properties":{"id":"1405602001"},"geometry":{"type":"Polygon","coordinates":[[[-4.77668,37.38991],[-4.77602,37.38988],[-4.77652,37.38951],[-4.7762,37.38937],[-4.77623,37.38788],[-4.77609,37.38744],[-4.77455,37.38723],[-4.77366,37.38738],[-4.77324,37.38699],[-4.77252,37.38659],[-4.77192,37.38637],[-4.77047,37.38476],[-4.7699,37.38395],[-4.76958,37.38297],[-4.76912,37.38259],[-4.76909,37.38246],[-4.76952,37.38215],[-4.76944,37.38204],[-4.76962,37.38184],[-4.76956,37.37948],[-4.7706,37.37895],[-4.77138,37.37805],[-4.77135,37.37787],[-4.77164,37.37757],[-4.7732,37.37719],[-4.77371,37.37727],[-4.77465,37.37765],[-4.77508,37.37794],[-4.77601,37.37892],[-4.77627,37.37946],[-4.77632,37.38007],[-4.7757,37.38082],[-4.77539,37.38138],[-4.77497,37.38125],[-4.77458,37.38182],[-4.77453,37.38251],[-4.77524,37.38342],[-4.77537,37.38376],[-4.77533,37.38489],[-4.77563,37.38535],[-4.77694,37.38612],[-4.77718,37.38672],[-4.77744,37.38685],[-4.77782,37.38689],[-4.77806,37.38628],[-4.77875,37.38636],[-4.77891,37.38693],[-4.77936,37.38731],[-4.77923,37.38745],[-4.77879,37.38739],[-4.77887,37.38954],[-4.77856,37.38956],[-4.77764,37.38985],[-4.77668,37.38982],[-4.77668,37.38991]]]}},{"type":"Feature","properties":{"id":"1405602002"},"geometry":{"type":"Polygon","coordinates":[[[-4.77073,37.39034],[-4.77061,37.39016],[-4.77148,37.38989],[-4.77446,37.38923],[-4.77624,37.38901],[-4.7762,37.38937],[-4.77652,37.38951],[-4.77602,37.38988],[-4.77633,37.3899],[-4.77604,37.39116],[-4.77494,37.39081],[-4.77367,37.39182],[-4.77177,37.39043],[-4.77073,37.39034]]]}},{"type":"Feature","properties":{"id":"1405602003"},"geometry":{"type":"Polygon","coordinates":[[[-4.7678,37.39367],[-4.76831,37.39294],[-4.76938,37.39213],[-4.76985,37.39123],[-4.77073,37.39034],[-4.77177,37.39043],[-4.77367,37.39182],[-4.77494,37.39081],[-4.77604,37.39116],[-4.77587,37.39238],[-4.77606,37.39244],[-4.77586,37.39269],[-4.77548,37.39291],[-4.77621,37.39355],[-4.77573,37.39441],[-4.77539,37.39441],[-4.77467,37.39501],[-4.77247,37.39496],[-4.77144,37.39456],[-4.77078,37.39403],[-4.77055,37.39396],[-4.76935,37.39421],[-4.76882,37.3942],[-4.7678,37.39367]]]}},{"type":"Feature","properties":{"id":"1405603001"},"geometry":{"type":"Polygon","coordinates":[[[-4.77366,37.38738],[-4.77455,37.38723],[-4.77609,37.38744],[-4.77623,37.38788],[-4.77624,37.38901],[-4.77417,37.38927],[-4.77281,37.38955],[-4.77073,37.39013],[-4.77101,37.38916],[-4.77251,37.38869],[-4.77289,37.38836],[-4.77366,37.38738]]]}},{"type":"Feature","properties":{"id":"1405603002"},"geometry":{"type":"Polygon","coordinates":[[[-4.76394,37.39312],[-4.76392,37.39291],[-4.76426,37.39285],[-4.76965,37.39041],[-4.77055,37.39015],[-4.77073,37.39034],[-4.76985,37.39123],[-4.76938,37.39213],[-4.76831,37.39294],[-4.76812,37.39318],[-4.76726,37.39322],[-4.76532,37.39294],[-4.76394,37.39312]]]}},{"type":"Feature","properties":{"id":"1405603003"},"geometry":{"type":"Polygon","coordinates":[[[-4.76586,37.38853],[-4.76519,37.38535],[-4.76871,37.38577],[-4.76851,37.38884],[-4.76586,37.38853]]]}},{"type":"Feature","properties":{"id":"1405603004"},"geometry":{"type":"Polygon","coordinates":[[[-4.76843,37.39095],[-4.76878,37.38346],[-4.76889,37.38327],[-4.7689,37.38264],[-4.76866,37.38251],[-4.7685,37.38195],[-4.76874,37.38118],[-4.76783,37.3802],[-4.76956,37.37948],[-4.76962,37.38184],[-4.76944,37.38204],[-4.76952,37.38215],[-4.76909,37.38246],[-4.76912,37.38259],[-4.76958,37.38297],[-4.7699,37.38395],[-4.77047,37.38476],[-4.77192,37.38637],[-4.77252,37.38659],[-4.77324,37.38699],[-4.77366,37.38738],[-4.77289,37.38836],[-4.77251,37.38869],[-4.77101,37.38916],[-4.77073,37.39013],[-4.76965,37.39041],[-4.76843,37.39095]]]}},{"type":"Feature","properties":{"id":"1405603005"},"geometry":{"type":"Polygon","coordinates":[[[-4.76519,37.38535],[-4.76492,37.38409],[-4.7652,37.38363],[-4.76526,37.3829],[-4.76473,37.38149],[-4.76631,37.38098],[-4.76783,37.3802],[-4.76874,37.38118],[-4.7685,37.38195],[-4.76866,37.38251],[-4.7689,37.38264],[-4.76889,37.38327],[-4.76878,37.38346],[-4.76871,37.38577],[-4.76519,37.38535]]]}},{"type":"Feature","properties":{"id":"1405604001"},"geometry":{"type":"Polygon","coordinates":[[[-4.76652,37.39178],[-4.76586,37.38853],[-4.76851,37.38884],[-4.76843,37.39095],[-4.76652,37.39178]]]}},{"type":"Feature","properties":{"id":"1405604002"},"geometry":{"type":"Polygon","coordinates":[[[-4.76356,37.39066],[-4.76626,37.39049],[-4.76652,37.39178],[-4.76426,37.39285],[-4.76397,37.3929],[-4.76356,37.39066]]]}},{"type":"Feature","properties":{"id":"1405604003"},"geometry":{"type":"Polygon","coordinates":[[[-4.76159,37.38714],[-4.7659,37.38873],[-4.76626,37.39049],[-4.76246,37.39073],[-4.76239,37.39033],[-4.76034,37.39044],[-4.76034,37.38933],[-4.76195,37.38932],[-4.76159,37.38714]]]}},{"type":"Feature","properties":{"id":"1405604004"},"geometry":{"type":"Polygon","coordinates":[[[-4.76159,37.38714],[-4.75966,37.38553],[-4.75824,37.38476],[-4.75783,37.38419],[-4.75741,37.38401],[-4.75731,37.38384],[-4.75817,37.38382],[-4.76005,37.38358],[-4.76107,37.38369],[-4.76207,37.38303],[-4.76228,37.38256],[-4.76308,37.38196],[-4.7636,37.38173],[-4.76399,37.38173],[-4.76473,37.38149],[-4.76526,37.3829],[-4.7652,37.38363],[-4.76492,37.38409],[-4.7659,37.38873],[-4.76159,37.38714]]]}},{"type":"Feature","properties":{"id":"1405604005"},"geometry":{"type":"Polygon","coordinates":[[[-4.75559,37.39127],[-4.75577,37.39108],[-4.75732,37.39113],[-4.76356,37.39066],[-4.76394,37.39312],[-4.76008,37.39381],[-4.75622,37.39151],[-4.75559,37.39127]]]}},{"type":"Feature","properties":{"id":"1405604006"},"geometry":{"type":"Polygon","coordinates":[[[-4.75577,37.39108],[-4.75549,37.39099],[-4.7551,37.38981],[-4.75233,37.38489],[-4.75303,37.38431],[-4.75395,37.38395],[-4.75432,37.38347],[-4.75475,37.38339],[-4.75497,37.38339],[-4.75635,37.38409],[-4.75693,37.38421],[-4.75729,37.38454],[-4.75834,37.38481],[-4.75879,37.38502],[-4.75966,37.38553],[-4.76159,37.38714],[-4.76195,37.38932],[-4.76034,37.38933],[-4.76034,37.39044],[-4.76239,37.39033],[-4.76247,37.39078],[-4.75732,37.39113],[-4.75577,37.39108]]]}},{"type":"Feature","properties":{"id":"1405605001"},"geometry":{"type":"Polygon","coordinates":[[[-4.6922,37.4273],[-4.69222,37.42458],[-4.69138,37.4217],[-4.69059,37.41944],[-4.69044,37.41818],[-4.69069,37.41677],[-4.69143,37.41545],[-4.69261,37.41405],[-4.69467,37.41207],[-4.69795,37.40866],[-4.70229,37.40443],[-4.70344,37.40349],[-4.70471,37.40274],[-4.70652,37.40207],[-4.70803,37.40172],[-4.71119,37.40153],[-4.72303,37.40212],[-4.72366,37.40268],[-4.72917,37.40161],[-4.73034,37.40142],[-4.73093,37.40144],[-4.73346,37.40227],[-4.73507,37.40244],[-4.73712,37.40203],[-4.73781,37.40197],[-4.74483,37.39979],[-4.74529,37.40042],[-4.74591,37.4007],[-4.74789,37.4006],[-4.74891,37.3992],[-4.75002,37.39811],[-4.75057,37.39825],[-4.752,37.39745],[-4.7544,37.39988],[-4.75655,37.39879],[-4.75615,37.39769],[-4.75659,37.39746],[-4.76012,37.39607],[-4.76178,37.39554],[-4.76288,37.39643],[-4.76308,37.39599],[-4.7622,37.39518],[-4.76187,37.39531],[-4.76149,37.39515],[-4.76045,37.39425],[-4.76008,37.39381],[-4.76532,37.39294],[-4.76726,37.39322],[-4.76812,37.39318],[-4.7678,37.39367],[-4.76853,37.3941],[-4.76882,37.3942],[-4.76935,37.39421],[-4.77055,37.39396],[-4.77078,37.39403],[-4.77144,37.39456],[-4.77247,37.39496],[-4.77467,37.39501],[-4.77539,37.39441],[-4.77573,37.39441],[-4.77526,37.39577],[-4.77475,37.39657],[-4.77406,37.39713],[-4.7736,37.39775],[-4.77384,37.3987],[-4.77434,37.39952],[-4.7744,37.40022],[-4.77447,37.40022],[-4.77414,37.40126],[-4.77416,37.40279],[-4.77427,37.40342],[-4.77503,37.40409],[-4.77538,37.40427],[-4.77649,37.40476],[-4.7789,37.40548],[-4.7794,37.40577],[-4.78019,37.40653],[-4.78118,37.4069],[-4.78263,37.40696],[-4.78421,37.4068],[-4.78477,37.40627],[-4.78513,37.40614],[-4.78598,37.40549],[-4.78652,37.40525],[-4.78844,37.40519],[-4.79088,37.40526],[-4.79149,37.4054],[-4.79283,37.40624],[-4.79429,37.4069],[-4.79474,37.40696],[-4.79517,37.40683],[-4.79587,37.40623],[-4.79612,37.40614],[-4.79759,37.40654],[-4.79916,37.40666],[-4.7995,37.40655],[-4.80057,37.40584],[-4.80117,37.40558],[-4.80249,37.40475],[-4.80312,37.40452],[-4.80474,37.40441],[-4.80364,37.40391],[-4.80291,37.40335],[-4.8031,37.40288],[-4.80338,37.40267],[-4.80418,37.40242],[-4.80463,37.40207],[-4.80648,37.40112],[-4.80758,37.40043],[-4.80787,37.40014],[-4.8081,37.3991],[-4.8093,37.39904],[-4.81029,37.39967],[-4.81213,37.40029],[-4.81339,37.40092],[-4.8139,37.40111],[-4.81511,37.40122],[-4.81609,37.40174],[-4.81644,37.40181],[-4.81799,37.40173],[-4.81988,37.40187],[-4.82236,37.40181],[-4.82443,37.4023],[-4.82543,37.40272],[-4.82897,37.40379],[-4.83112,37.40391],[-4.83228,37.40385],[-4.83287,37.40373],[-4.83388,37.40333],[-4.83491,37.40306],[-4.83542,37.40303],[-4.83728,37.40343],[-4.83788,37.40342],[-4.83858,37.40361],[-4.8404,37.40445],[-4.84097,37.40488],[-4.84177,37.40469],[-4.84224,37.40497],[-4.84375,37.40368],[-4.84432,37.40347],[-4.84486,37.40347],[-4.84521,37.40358],[-4.84583,37.40443],[-4.84676,37.40781],[-4.84719,37.40874],[-4.84749,37.40913],[-4.84799,37.40952],[-4.84981,37.41066],[-4.84923,37.41105],[-4.84805,37.41209],[-4.84738,37.41251],[-4.84568,37.41333],[-4.84425,37.41368],[-4.84328,37.41402],[-4.84277,37.41436],[-4.84119,37.41605],[-4.84091,37.41674],[-4.84134,37.41766],[-4.84124,37.41793],[-4.84033,37.41861],[-4.83955,37.41949],[-4.8392,37.42039],[-4.83807,37.42225],[-4.83764,37.42324],[-4.83686,37.42416],[-4.83643,37.42445],[-4.83582,37.42472],[-4.83463,37.42502],[-4.83456,37.42551],[-4.83724,37.43324],[-4.8373,37.43374],[-4.83694,37.435],[-4.83713,37.43772],[-4.83683,37.44116],[-4.83663,37.44194],[-4.83601,37.44324],[-4.83344,37.44785],[-4.83097,37.45122],[-4.82987,37.45255],[-4.82872,37.45373],[-4.82285,37.45862],[-4.82112,37.46033],[-4.81972,37.46189],[-4.8191,37.46217],[-4.81835,37.46271],[-4.81718,37.46397],[-4.81486,37.46768],[-4.81335,37.46978],[-4.8111,37.47202],[-4.81021,37.4727],[-4.80485,37.47755],[-4.80375,37.47808],[-4.80163,37.47846],[-4.8008,37.47906],[-4.79996,37.47936],[-4.79735,37.47966],[-4.79627,37.4809],[-4.79565,37.4813],[-4.79476,37.48175],[-4.79199,37.48265],[-4.79288,37.48086],[-4.79323,37.47988],[-4.79365,37.478],[-4.79402,37.4774],[-4.79454,37.47687],[-4.79529,37.47642],[-4.79607,37.47617],[-4.79645,37.47594],[-4.79768,37.47397],[-4.79853,37.47297],[-4.79383,37.47186],[-4.7939,37.47151],[-4.79424,37.47115],[-4.79525,37.47091],[-4.79515,37.46968],[-4.79394,37.46939],[-4.79318,37.46891],[-4.79301,37.46862],[-4.79292,37.46748],[-4.79273,37.46718],[-4.79155,37.46678],[-4.79037,37.46564],[-4.78993,37.46543],[-4.78868,37.46514],[-4.78757,37.46429],[-4.78718,37.46409],[-4.78664,37.46405],[-4.78614,37.46424],[-4.78546,37.46463],[-4.78413,37.46563],[-4.78347,37.46579],[-4.78266,37.46581],[-4.78173,37.466],[-4.78043,37.46676],[-4.78015,37.46679],[-4.77965,37.46668],[-4.77926,37.46644],[-4.77899,37.46548],[-4.7788,37.46527],[-4.77745,37.46506],[-4.77663,37.46505],[-4.77649,37.46405],[-4.77567,37.4639],[-4.77527,37.46444],[-4.77431,37.46652],[-4.77361,37.46672],[-4.77336,37.46665],[-4.77263,37.46619],[-4.77085,37.46613],[-4.76852,37.46663],[-4.76723,37.4666],[-4.76689,37.46652],[-4.76659,37.4661],[-4.76639,37.46599],[-4.76531,37.46586],[-4.76461,37.46547],[-4.76435,37.46545],[-4.76313,37.4657],[-4.76254,37.46616],[-4.76213,37.46624],[-4.75997,37.46574],[-4.75943,37.46572],[-4.75893,37.46581],[-4.7585,37.46633],[-4.75827,37.46641],[-4.75711,37.46634],[-4.75634,37.46669],[-4.7551,37.46702],[-4.75366,37.4678],[-4.75313,37.46793],[-4.75179,37.46863],[-4.7514,37.46873],[-4.75095,37.4686],[-4.75063,37.46839],[-4.74898,37.46801],[-4.74866,37.4677],[-4.74772,37.46582],[-4.74711,37.46515],[-4.74311,37.46505],[-4.74256,37.46469],[-4.74238,37.46416],[-4.74235,37.4635],[-4.74242,37.46255],[-4.74291,37.46007],[-4.74293,37.45934],[-4.74279,37.4588],[-4.74254,37.45846],[-4.74205,37.45822],[-4.74149,37.45811],[-4.74086,37.4581],[-4.74039,37.45828],[-4.73989,37.45877],[-4.73954,37.45895],[-4.73915,37.45901],[-4.73858,37.45947],[-4.73793,37.45934],[-4.73737,37.4591],[-4.73633,37.45851],[-4.73583,37.4585],[-4.73544,37.45867],[-4.73534,37.45893],[-4.73574,37.45976],[-4.73577,37.46003],[-4.73534,37.46036],[-4.735,37.46109],[-4.73455,37.46106],[-4.73413,37.4609],[-4.73333,37.46028],[-4.73125,37.45815],[-4.73059,37.45772],[-4.72982,37.45744],[-4.72875,37.45731],[-4.72844,37.45743],[-4.72813,37.45804],[-4.72766,37.45846],[-4.72696,37.45891],[-4.72503,37.45979],[-4.7246,37.46017],[-4.72405,37.46125],[-4.72241,37.46122],[-4.72218,37.46042],[-4.72179,37.46],[-4.72117,37.45968],[-4.71957,37.45925],[-4.7195,37.45765],[-4.71759,37.45699],[-4.71735,37.45676],[-4.71728,37.45571],[-4.71709,37.45517],[-4.71629,37.45429],[-4.71613,37.45391],[-4.71621,37.45333],[-4.71701,37.45177],[-4.71526,37.45108],[-4.71423,37.4508],[-4.7136,37.45238],[-4.71228,37.45221],[-4.71198,37.45087],[-4.71082,37.45092],[-4.71051,37.45238],[-4.7084,37.4529],[-4.70755,37.45185],[-4.70683,37.45191],[-4.70684,37.45308],[-4.70501,37.4532],[-4.70221,37.4529],[-4.70215,37.45257],[-4.70255,37.45167],[-4.70406,37.45004],[-4.70443,37.44919],[-4.70461,37.4483],[-4.70461,37.4461],[-4.70559,37.44322],[-4.70562,37.44156],[-4.70575,37.44091],[-4.70665,37.43907],[-4.70605,37.43821],[-4.70439,37.43656],[-4.70568,37.43621],[-4.70391,37.43461],[-4.70328,37.43501],[-4.70244,37.43633],[-4.70181,37.43622],[-4.70027,37.43549],[-4.70001,37.43694],[-4.69595,37.43782],[-4.69355,37.43823],[-4.6922,37.4364],[-4.69166,37.43541],[-4.69102,37.43353],[-4.6899,37.43311],[-4.69013,37.43233],[-4.69168,37.4293],[-4.69176,37.42806],[-4.6922,37.4273]]]}},{"type":"Feature","properties":{"id":"1405605002"},"geometry":{"type":"Polygon","coordinates":[[[-4.75292,37.39838],[-4.75394,37.39798],[-4.75407,37.39756],[-4.75463,37.39722],[-4.75458,37.39712],[-4.7558,37.39672],[-4.75588,37.39686],[-4.75956,37.39568],[-4.75937,37.39524],[-4.75957,37.39513],[-4.75964,37.39484],[-4.76045,37.39425],[-4.76166,37.39524],[-4.76187,37.39531],[-4.7622,37.39518],[-4.76308,37.39599],[-4.76288,37.39643],[-4.76178,37.39554],[-4.76012,37.39607],[-4.75659,37.39746],[-4.75615,37.39769],[-4.75655,37.39879],[-4.7544,37.39988],[-4.75292,37.39838]]]}},{"type":"Feature","properties":{"id":"1405605003"},"geometry":{"type":"Polygon","coordinates":[[[-4.68268,37.40303],[-4.6826,37.4],[-4.68299,37.39888],[-4.68258,37.39784],[-4.68277,37.39667],[-4.68264,37.3961],[-4.68298,37.39523],[-4.68088,37.39352],[-4.68028,37.3926],[-4.67899,37.38932],[-4.67855,37.38883],[-4.67792,37.38786],[-4.67716,37.38613],[-4.67711,37.38572],[-4.67769,37.38416],[-4.67717,37.38224],[-4.67706,37.38129],[-4.67734,37.37904],[-4.67731,37.37831],[-4.67698,37.37746],[-4.67675,37.37522],[-4.67685,37.37459],[-4.6774,37.37343],[-4.67751,37.37246],[-4.67775,37.37172],[-4.67929,37.36995],[-4.67946,37.36952],[-4.6796,37.36841],[-4.67978,37.36818],[-4.6806,37.36781],[-4.68155,37.36699],[-4.68167,37.36644],[-4.68132,37.36518],[-4.68128,37.36445],[-4.68141,37.36323],[-4.68112,37.36233],[-4.68069,37.36173],[-4.68051,37.36116],[-4.68047,37.36015],[-4.68194,37.35879],[-4.68348,37.35627],[-4.68632,37.3522],[-4.68674,37.35199],[-4.68845,37.35173],[-4.69001,37.351],[-4.69289,37.35044],[-4.69369,37.35035],[-4.69642,37.35058],[-4.69724,37.35062],[-4.69779,37.35056],[-4.69832,37.35039],[-4.69904,37.34991],[-4.70008,37.34895],[-4.70064,37.34864],[-4.70163,37.34837],[-4.70353,37.34827],[-4.70333,37.34911],[-4.70332,37.35009],[-4.70356,37.35051],[-4.70393,37.35079],[-4.7046,37.35102],[-4.70709,37.35091],[-4.71325,37.35257],[-4.71434,37.35313],[-4.71517,37.35384],[-4.71599,37.35481],[-4.71676,37.35649],[-4.71676,37.35775],[-4.71689,37.35815],[-4.71721,37.35839],[-4.71766,37.35853],[-4.71867,37.3585],[-4.71961,37.35828],[-4.72083,37.35778],[-4.72208,37.35701],[-4.72305,37.35618],[-4.72377,37.35542],[-4.72436,37.35452],[-4.72491,37.35342],[-4.72535,37.35176],[-4.72331,37.3508],[-4.72241,37.35023],[-4.72147,37.34936],[-4.72141,37.34891],[-4.72161,37.34805],[-4.72211,37.34711],[-4.72261,37.34643],[-4.7237,37.34575],[-4.72588,37.3448],[-4.72789,37.34455],[-4.72942,37.34425],[-4.73077,37.3441],[-4.73145,37.34414],[-4.73245,37.3436],[-4.73295,37.34278],[-4.73292,37.34252],[-4.73242,37.34231],[-4.73055,37.34197],[-4.72681,37.342],[-4.72606,37.34183],[-4.72593,37.34156],[-4.72596,37.33955],[-4.72632,37.33824],[-4.72681,37.33782],[-4.72786,37.33728],[-4.72837,37.33655],[-4.72875,37.33569],[-4.72922,37.33533],[-4.73009,37.33531],[-4.73116,37.33465],[-4.73181,37.33436],[-4.73257,37.33417],[-4.73511,37.33406],[-4.73589,37.3337],[-4.73729,37.33363],[-4.73785,37.33351],[-4.73849,37.33323],[-4.74113,37.33266],[-4.74423,37.33165],[-4.74578,37.33147],[-4.74605,37.33123],[-4.74641,37.33108],[-4.74686,37.33111],[-4.74766,37.33157],[-4.7486,37.33182],[-4.74873,37.33091],[-4.74906,37.33095],[-4.75039,37.33146],[-4.75112,37.33141],[-4.75152,37.33153],[-4.75183,37.33183],[-4.75274,37.33312],[-4.75475,37.33265],[-4.75632,37.33286],[-4.7572,37.3335],[-4.75847,37.33383],[-4.7588,37.3341],[-4.7596,37.33534],[-4.76043,37.33614],[-4.76117,37.33649],[-4.76259,37.33678],[-4.76336,37.3376],[-4.76406,37.33783],[-4.76487,37.3379],[-4.76647,37.33782],[-4.76745,37.33773],[-4.7685,37.33745],[-4.768,37.33892],[-4.7676,37.34067],[-4.76724,37.34523],[-4.76696,37.34728],[-4.76646,37.34946],[-4.7658,37.35113],[-4.7649,37.35065],[-4.76377,37.35075],[-4.76168,37.35016],[-4.75949,37.34981],[-4.75711,37.34925],[-4.75623,37.34889],[-4.75535,37.3483],[-4.75554,37.34852],[-4.75535,37.34934],[-4.75459,37.35137],[-4.75389,37.3518],[-4.75213,37.35219],[-4.75108,37.35263],[-4.74941,37.35414],[-4.74787,37.35456],[-4.74732,37.35502],[-4.74688,37.35579],[-4.74638,37.35636],[-4.74664,37.35977],[-4.74653,37.36196],[-4.74597,37.36357],[-4.74429,37.36971],[-4.74481,37.37113],[-4.74513,37.37171],[-4.74615,37.37236],[-4.74643,37.37267],[-4.74658,37.37307],[-4.74645,37.37587],[-4.74514,37.37703],[-4.74282,37.37841],[-4.74245,37.37888],[-4.74238,37.37924],[-4.7425,37.37957],[-4.74324,37.38035],[-4.74333,37.381],[-4.74315,37.38139],[-4.74444,37.38401],[-4.74502,37.38545],[-4.74512,37.38591],[-4.74485,37.38704],[-4.74518,37.38731],[-4.748,37.3889],[-4.74872,37.38919],[-4.75566,37.3912],[-4.75559,37.39127],[-4.75622,37.39151],[-4.76008,37.39381],[-4.76048,37.39423],[-4.75964,37.39484],[-4.75957,37.39513],[-4.75939,37.39524],[-4.75889,37.39414],[-4.75593,37.39502],[-4.75379,37.3958],[-4.75294,37.39646],[-4.75184,37.39712],[-4.75094,37.39751],[-4.75002,37.39811],[-4.74891,37.3992],[-4.74789,37.4006],[-4.74591,37.4007],[-4.74529,37.40042],[-4.74483,37.39979],[-4.73781,37.40197],[-4.73712,37.40203],[-4.73507,37.40244],[-4.73346,37.40227],[-4.73093,37.40144],[-4.73034,37.40142],[-4.72917,37.40161],[-4.72366,37.40268],[-4.72303,37.40212],[-4.71119,37.40153],[-4.70803,37.40172],[-4.70652,37.40207],[-4.70471,37.40274],[-4.70344,37.40349],[-4.70229,37.40443],[-4.69795,37.40866],[-4.69467,37.41207],[-4.69261,37.41405],[-4.69143,37.41545],[-4.69069,37.41677],[-4.69044,37.41818],[-4.69059,37.41944],[-4.69138,37.4217],[-4.69222,37.42458],[-4.69216,37.4271],[-4.69154,37.42519],[-4.69078,37.42343],[-4.69019,37.42236],[-4.68958,37.42156],[-4.68779,37.4201],[-4.68695,37.41909],[-4.6854,37.41644],[-4.68412,37.41491],[-4.68363,37.41406],[-4.68326,37.41316],[-4.68274,37.41064],[-4.6826,37.40972],[-4.68266,37.40916],[-4.68249,37.4085],[-4.68284,37.40692],[-4.68213,37.4058],[-4.68215,37.40536],[-4.68262,37.40364],[-4.68268,37.40303]]]}},{"type":"Feature","properties":{"id":"1405605004"},"geometry":{"type":"Polygon","coordinates":[[[-4.74688,37.35579],[-4.74719,37.35654],[-4.74756,37.35696],[-4.74814,37.35737],[-4.74884,37.35775],[-4.75019,37.35815],[-4.75089,37.3585],[-4.75164,37.35925],[-4.75307,37.36014],[-4.75413,37.36055],[-4.75554,37.36127],[-4.75755,37.36257],[-4.7594,37.3633],[-4.75963,37.36358],[-4.75978,37.36392],[-4.75989,37.36496],[-4.75941,37.36601],[-4.7582,37.36672],[-4.7573,37.36737],[-4.75579,37.36815],[-4.75374,37.37121],[-4.75332,37.37233],[-4.75385,37.37352],[-4.75354,37.37433],[-4.75357,37.37471],[-4.75406,37.37541],[-4.75424,37.37592],[-4.75418,37.37671],[-4.75626,37.37498],[-4.75787,37.37387],[-4.75896,37.37327],[-4.75943,37.37319],[-4.7599,37.37296],[-4.76046,37.37292],[-4.76067,37.37334],[-4.76119,37.37502],[-4.76165,37.37573],[-4.76223,37.37624],[-4.76099,37.37681],[-4.76075,37.37852],[-4.76135,37.3786],[-4.76159,37.37881],[-4.76203,37.37891],[-4.76259,37.37936],[-4.76271,37.37933],[-4.76321,37.37866],[-4.76317,37.37826],[-4.76296,37.37791],[-4.76311,37.37767],[-4.7632,37.3777],[-4.76346,37.37744],[-4.76362,37.37741],[-4.76373,37.37863],[-4.7636,37.37906],[-4.76372,37.37935],[-4.76391,37.37939],[-4.76442,37.38049],[-4.76429,37.38072],[-4.76469,37.3815],[-4.76399,37.38173],[-4.7636,37.38173],[-4.76308,37.38196],[-4.76228,37.38256],[-4.76207,37.38303],[-4.76107,37.38369],[-4.76005,37.38358],[-4.75817,37.38382],[-4.75731,37.38384],[-4.75741,37.38401],[-4.75783,37.38419],[-4.75834,37.38481],[-4.75729,37.38454],[-4.75693,37.38421],[-4.75635,37.38409],[-4.75497,37.38339],[-4.75432,37.38347],[-4.75395,37.38395],[-4.75303,37.38431],[-4.75233,37.38489],[-4.7551,37.38981],[-4.75549,37.39099],[-4.75577,37.39108],[-4.75566,37.3912],[-4.74872,37.38919],[-4.748,37.3889],[-4.74518,37.38731],[-4.74485,37.38704],[-4.74512,37.38591],[-4.74502,37.38545],[-4.74444,37.38401],[-4.74315,37.38139],[-4.74333,37.381],[-4.74324,37.38035],[-4.7425,37.37957],[-4.74238,37.37924],[-4.74245,37.37888],[-4.74282,37.37841],[-4.74514,37.37703],[-4.74645,37.37587],[-4.74658,37.37307],[-4.74643,37.37267],[-4.74615,37.37236],[-4.74513,37.37171],[-4.74481,37.37113],[-4.74429,37.36971],[-4.74597,37.36357],[-4.74653,37.36196],[-4.74664,37.35977],[-4.74638,37.35636],[-4.74688,37.35579]]]}},{"type":"Feature","properties":{"id":"1405605005"},"geometry":{"type":"Polygon","coordinates":[[[-4.75889,37.39414],[-4.75956,37.39568],[-4.75588,37.39686],[-4.7558,37.39672],[-4.75458,37.39712],[-4.75463,37.39722],[-4.75407,37.39756],[-4.75394,37.39798],[-4.75292,37.39838],[-4.752,37.39745],[-4.75057,37.39825],[-4.75002,37.39811],[-4.75094,37.39751],[-4.75184,37.39712],[-4.75294,37.39646],[-4.75379,37.3958],[-4.75593,37.39502],[-4.75889,37.39414]]]}}]}