{"type":"FeatureCollection","features":[{"type":"Feature","properties":{"id":"1500801001"},"geometry":{"type":"Polygon","coordinates":[[[-8.21022,43.32768],[-8.20996,43.32717],[-8.20932,43.32645],[-8.20736,43.32538],[-8.20608,43.32447],[-8.2057,43.32398],[-8.20625,43.32382],[-8.20659,43.32384],[-8.20779,43.32362],[-8.20838,43.3234],[-8.20867,43.32297],[-8.20944,43.32283],[-8.20968,43.32225],[-8.21028,43.32151],[-8.21081,43.32115],[-8.21146,43.321],[-8.21318,43.32133],[-8.21446,43.32287],[-8.21546,43.32379],[-8.2155,43.32396],[-8.2173,43.32458],[-8.21863,43.32472],[-8.21949,43.32469],[-8.22125,43.32417],[-8.22343,43.32315],[-8.2238,43.32316],[-8.224,43.32325],[-8.2242,43.32348],[-8.22451,43.32424],[-8.22499,43.32437],[-8.22571,43.32414],[-8.22629,43.32426],[-8.22639,43.32443],[-8.22635,43.32477],[-8.22592,43.3253],[-8.22636,43.32565],[-8.22659,43.32599],[-8.22659,43.32624],[-8.22656,43.32638],[-8.22587,43.32695],[-8.22585,43.32709],[-8.22618,43.32755],[-8.22603,43.32805],[-8.22612,43.32827],[-8.22665,43.32875],[-8.22776,43.32933],[-8.22882,43.32951],[-8.2297,43.32987],[-8.23048,43.32995],[-8.23147,43.33032],[-8.23258,43.331],[-8.23337,43.3319],[-8.23387,43.33159],[-8.23429,43.33114],[-8.23471,43.33014],[-8.23434,43.32934],[-8.2344,43.32871],[-8.23416,43.32845],[-8.23418,43.32819],[-8.23406,43.32805],[-8.23405,43.32715],[-8.23531,43.32704],[-8.23621,43.32712],[-8.23881,43.32786],[-8.23992,43.32831],[-8.24076,43.32879],[-8.24172,43.3297],[-8.24234,43.32827],[-8.24301,43.3273],[-8.24354,43.3268],[-8.24432,43.32681],[-8.24478,43.32708],[-8.24495,43.32728],[-8.24526,43.32668],[-8.24554,43.32636],[-8.24577,43.32629],[-8.24709,43.32696],[-8.24776,43.32695],[-8.24772,43.3275],[-8.2482,43.32804],[-8.24836,43.32879],[-8.24845,43.32881],[-8.24951,43.32861],[-8.25008,43.328],[-8.25079,43.32772],[-8.25141,43.32794],[-8.25175,43.32792],[-8.25264,43.32813],[-8.25348,43.32872],[-8.25519,43.32932],[-8.25774,43.32893],[-8.25842,43.32889],[-8.25877,43.32898],[-8.25928,43.3295],[-8.25934,43.32982],[-8.25907,43.33071],[-8.25877,43.33105],[-8.25853,43.3316],[-8.25853,43.33213],[-8.25879,43.33236],[-8.25936,43.33256],[-8.25938,43.33275],[-8.26043,43.33366],[-8.25984,43.33377],[-8.25948,43.33375],[-8.25807,43.33343],[-8.25739,43.33591],[-8.25739,43.33777],[-8.2561,43.34071],[-8.25575,43.34186],[-8.25476,43.34377],[-8.25231,43.34474],[-8.25208,43.3447],[-8.25166,43.34507],[-8.24603,43.34647],[-8.24452,43.3488],[-8.24433,43.3487],[-8.24428,43.34838],[-8.24406,43.34808],[-8.24334,43.34798],[-8.2429,43.34754],[-8.24284,43.34702],[-8.24245,43.34686],[-8.24219,43.34647],[-8.24211,43.34589],[-8.24202,43.34573],[-8.2418,43.34565],[-8.24162,43.34526],[-8.24166,43.34499],[-8.242,43.34448],[-8.24215,43.34384],[-8.24187,43.34346],[-8.24137,43.34325],[-8.23472,43.34263],[-8.23351,43.3427],[-8.2333,43.34294],[-8.2327,43.34285],[-8.23266,43.34266],[-8.23237,43.34272],[-8.23224,43.34303],[-8.23157,43.34319],[-8.23095,43.34299],[-8.23071,43.34308],[-8.2304,43.34292],[-8.23023,43.34249],[-8.22967,43.34219],[-8.22941,43.34227],[-8.22925,43.34243],[-8.22893,43.3424],[-8.22869,43.34223],[-8.22893,43.34134],[-8.22855,43.34059],[-8.22807,43.34043],[-8.22788,43.33994],[-8.22731,43.33926],[-8.22632,43.33905],[-8.22612,43.33893],[-8.2261,43.33795],[-8.2263,43.33723],[-8.22601,43.33698],[-8.22487,43.33634],[-8.22471,43.33576],[-8.22501,43.33428],[-8.22489,43.33355],[-8.22365,43.33294],[-8.22203,43.33264],[-8.2198,43.33263],[-8.21864,43.33271],[-8.21802,43.33246],[-8.21796,43.33172],[-8.21764,43.33117],[-8.21654,43.33116],[-8.21594,43.33106],[-8.21543,43.3309],[-8.21397,43.33007],[-8.21367,43.33005],[-8.21344,43.33019],[-8.21307,43.33064],[-8.21274,43.3307],[-8.21222,43.32962],[-8.21084,43.32764],[-8.21072,43.32753],[-8.21047,43.32754],[-8.21022,43.32768]]]}},{"type":"Feature","properties":{"id":"1500801002"},"geometry":{"type":"Polygon","coordinates":[[[-8.26459,43.33332],[-8.26232,43.33327],[-8.26137,43.33337],[-8.26043,43.33366],[-8.25938,43.33275],[-8.25936,43.33256],[-8.25879,43.33236],[-8.25853,43.33213],[-8.25846,43.33192],[-8.25862,43.33134],[-8.25926,43.33028],[-8.25934,43.32964],[-8.25901,43.32917],[-8.25877,43.32898],[-8.25842,43.32889],[-8.25688,43.32901],[-8.25519,43.32932],[-8.25324,43.32768],[-8.25332,43.32766],[-8.25311,43.32669],[-8.25351,43.32524],[-8.25334,43.3247],[-8.25243,43.32368],[-8.25242,43.32339],[-8.25274,43.32259],[-8.25263,43.32176],[-8.25206,43.32027],[-8.25204,43.31833],[-8.25246,43.31772],[-8.25308,43.31715],[-8.25554,43.31616],[-8.25823,43.31524],[-8.25901,43.31515],[-8.26003,43.31531],[-8.26136,43.31573],[-8.26225,43.31631],[-8.26248,43.31407],[-8.26268,43.31374],[-8.26355,43.31316],[-8.26548,43.31235],[-8.26635,43.31217],[-8.26766,43.31206],[-8.26877,43.31219],[-8.26959,43.31243],[-8.26991,43.31205],[-8.27035,43.31184],[-8.27119,43.31121],[-8.27178,43.31063],[-8.2714,43.31013],[-8.26857,43.30825],[-8.26718,43.30657],[-8.26651,43.30592],[-8.26575,43.30554],[-8.2654,43.30532],[-8.26532,43.30514],[-8.2649,43.30491],[-8.26706,43.30438],[-8.26822,43.30436],[-8.26957,43.30418],[-8.27077,43.30421],[-8.27239,43.30453],[-8.27474,43.3058],[-8.27657,43.30831],[-8.27737,43.30872],[-8.2795,43.31022],[-8.28021,43.31054],[-8.28096,43.3111],[-8.28153,43.31138],[-8.28109,43.31164],[-8.28395,43.31373],[-8.28611,43.31586],[-8.28197,43.32345],[-8.28034,43.32777],[-8.26635,43.33332],[-8.26565,43.33343],[-8.26459,43.33332]]]}},{"type":"Feature","properties":{"id":"1500802001"},"geometry":{"type":"Polygon","coordinates":[[[-8.2057,43.32398],[-8.20554,43.32376],[-8.20527,43.3225],[-8.20513,43.32101],[-8.20529,43.3199],[-8.20555,43.31957],[-8.20594,43.31922],[-8.20713,43.31862],[-8.20858,43.3181],[-8.211,43.317],[-8.2119,43.31624],[-8.21245,43.31527],[-8.2129,43.31319],[-8.21238,43.31152],[-8.21221,43.30966],[-8.21251,43.30818],[-8.21497,43.30417],[-8.21548,43.3036],[-8.21619,43.30238],[-8.21736,43.29994],[-8.21814,43.2998],[-8.22128,43.29957],[-8.22202,43.2999],[-8.22231,43.30066],[-8.22249,43.30079],[-8.22337,43.3007],[-8.22394,43.30083],[-8.22549,43.30146],[-8.2261,43.30194],[-8.2264,43.30202],[-8.22712,43.30189],[-8.22834,43.3019],[-8.22865,43.30181],[-8.22984,43.30108],[-8.23154,43.3015],[-8.23215,43.30175],[-8.23361,43.30179],[-8.23393,43.30172],[-8.23504,43.30193],[-8.23502,43.30307],[-8.23525,43.30371],[-8.23538,43.30485],[-8.23515,43.30669],[-8.23525,43.30814],[-8.23514,43.31032],[-8.23499,43.3112],[-8.23516,43.31179],[-8.23505,43.31338],[-8.23532,43.31551],[-8.23519,43.31612],[-8.23526,43.31665],[-8.23488,43.31694],[-8.23479,43.31721],[-8.23484,43.31739],[-8.23538,43.31781],[-8.23517,43.31823],[-8.2349,43.31843],[-8.23469,43.31876],[-8.23469,43.31886],[-8.23542,43.31929],[-8.23478,43.31989],[-8.23477,43.32076],[-8.23432,43.32173],[-8.23447,43.32236],[-8.23385,43.32318],[-8.23338,43.32404],[-8.2332,43.32554],[-8.23272,43.327],[-8.2327,43.32933],[-8.23254,43.32992],[-8.23215,43.33071],[-8.23147,43.33032],[-8.23048,43.32995],[-8.2297,43.32987],[-8.22882,43.32951],[-8.22776,43.32933],[-8.22644,43.32857],[-8.22612,43.32827],[-8.22603,43.32805],[-8.22618,43.32755],[-8.22585,43.32709],[-8.22596,43.32682],[-8.22656,43.32638],[-8.22659,43.32624],[-8.22659,43.32599],[-8.22636,43.32565],[-8.22592,43.3253],[-8.22635,43.32477],[-8.22639,43.32443],[-8.22629,43.32426],[-8.22589,43.32416],[-8.22499,43.32437],[-8.22451,43.32424],[-8.2242,43.32348],[-8.2238,43.32316],[-8.22343,43.32315],[-8.22125,43.32417],[-8.21949,43.32469],[-8.21771,43.32467],[-8.21671,43.32441],[-8.2155,43.32396],[-8.21546,43.32379],[-8.21446,43.32287],[-8.21318,43.32133],[-8.21146,43.321],[-8.21081,43.32115],[-8.21028,43.32151],[-8.20968,43.32225],[-8.20944,43.32283],[-8.20867,43.32297],[-8.20838,43.3234],[-8.20779,43.32362],[-8.20659,43.32384],[-8.20625,43.32382],[-8.2057,43.32398]]]}},{"type":"Feature","properties":{"id":"1500803001"},"geometry":{"type":"Polygon","coordinates":[[[-8.23215,43.33071],[-8.23254,43.32992],[-8.2327,43.32933],[-8.23272,43.327],[-8.2332,43.32554],[-8.23338,43.32404],[-8.23385,43.32318],[-8.23447,43.32236],[-8.23432,43.32173],[-8.23477,43.32076],[-8.23478,43.31989],[-8.23542,43.31929],[-8.23469,43.31886],[-8.23469,43.31876],[-8.2349,43.31843],[-8.23517,43.31823],[-8.23538,43.31781],[-8.23484,43.31739],[-8.23479,43.31721],[-8.23488,43.31694],[-8.23526,43.31665],[-8.23519,43.31612],[-8.23532,43.31551],[-8.23505,43.31338],[-8.23516,43.31179],[-8.23499,43.3112],[-8.23514,43.31032],[-8.23525,43.30814],[-8.23515,43.30669],[-8.23538,43.30485],[-8.23525,43.30371],[-8.23502,43.30307],[-8.23504,43.30196],[-8.23848,43.30227],[-8.2394,43.30216],[-8.24072,43.30168],[-8.24136,43.30095],[-8.24221,43.29959],[-8.24366,43.29795],[-8.24436,43.29803],[-8.24714,43.29867],[-8.24812,43.29909],[-8.24866,43.29876],[-8.2498,43.2983],[-8.25237,43.29773],[-8.25404,43.29766],[-8.2544,43.29736],[-8.25661,43.29614],[-8.25786,43.29534],[-8.25973,43.29339],[-8.26004,43.29295],[-8.26171,43.29224],[-8.26163,43.29176],[-8.26209,43.29093],[-8.26203,43.29046],[-8.26178,43.28986],[-8.2609,43.28852],[-8.26029,43.28803],[-8.25942,43.28773],[-8.26004,43.28763],[-8.26127,43.28762],[-8.2625,43.28783],[-8.26309,43.28785],[-8.26445,43.28838],[-8.26467,43.28723],[-8.26502,43.28646],[-8.26578,43.28544],[-8.26785,43.28587],[-8.27051,43.28381],[-8.27792,43.28826],[-8.28476,43.29115],[-8.28629,43.29503],[-8.28796,43.2978],[-8.28637,43.30458],[-8.28978,43.31031],[-8.28774,43.30773],[-8.28153,43.31138],[-8.28096,43.3111],[-8.28021,43.31054],[-8.2795,43.31022],[-8.27737,43.30872],[-8.27657,43.30831],[-8.27474,43.3058],[-8.27239,43.30453],[-8.27077,43.30421],[-8.26957,43.30418],[-8.26822,43.30436],[-8.26706,43.30438],[-8.26506,43.30485],[-8.2649,43.30491],[-8.26532,43.30514],[-8.2654,43.30532],[-8.26575,43.30554],[-8.26651,43.30592],[-8.26718,43.30657],[-8.26857,43.30825],[-8.2714,43.31013],[-8.27178,43.31063],[-8.27119,43.31121],[-8.27035,43.31184],[-8.26991,43.31205],[-8.26959,43.31243],[-8.26877,43.31219],[-8.26766,43.31206],[-8.26635,43.31217],[-8.26505,43.31249],[-8.26355,43.31316],[-8.26286,43.31357],[-8.26248,43.31407],[-8.26225,43.31631],[-8.26153,43.31582],[-8.26084,43.31553],[-8.25948,43.3152],[-8.25901,43.31515],[-8.25837,43.31522],[-8.25554,43.31616],[-8.25308,43.31715],[-8.25246,43.31772],[-8.25204,43.31833],[-8.25203,43.31993],[-8.2527,43.32218],[-8.25274,43.32259],[-8.25242,43.32339],[-8.25243,43.32368],[-8.25334,43.3247],[-8.25351,43.32524],[-8.25311,43.32669],[-8.25332,43.32766],[-8.25324,43.32768],[-8.25422,43.32842],[-8.25514,43.32928],[-8.25348,43.32872],[-8.25264,43.32813],[-8.25175,43.32792],[-8.25141,43.32794],[-8.25079,43.32772],[-8.25008,43.328],[-8.24951,43.32861],[-8.24836,43.32879],[-8.2482,43.32804],[-8.24772,43.3275],[-8.24776,43.32695],[-8.24709,43.32696],[-8.24592,43.32635],[-8.24566,43.32629],[-8.24526,43.32668],[-8.24495,43.32728],[-8.24478,43.32708],[-8.24432,43.32681],[-8.24354,43.3268],[-8.24301,43.3273],[-8.24234,43.32827],[-8.24172,43.3297],[-8.24076,43.32879],[-8.23992,43.32831],[-8.23881,43.32786],[-8.23621,43.32712],[-8.23531,43.32704],[-8.23405,43.32715],[-8.23406,43.32805],[-8.23418,43.32819],[-8.23416,43.32845],[-8.2344,43.32871],[-8.23434,43.32934],[-8.23471,43.33014],[-8.23429,43.33114],[-8.23387,43.33159],[-8.23337,43.3319],[-8.23258,43.331],[-8.23215,43.33071]]]}},{"type":"Feature","properties":{"id":"1500803002"},"geometry":{"type":"Polygon","coordinates":[[[-8.23504,43.30196],[-8.23393,43.30172],[-8.23361,43.30179],[-8.23215,43.30175],[-8.23154,43.3015],[-8.22984,43.30108],[-8.23043,43.30076],[-8.23096,43.30068],[-8.23123,43.30121],[-8.23146,43.30119],[-8.23475,43.29549],[-8.23059,43.28543],[-8.23152,43.28256],[-8.24063,43.27715],[-8.25049,43.2761],[-8.25882,43.27945],[-8.26045,43.28435],[-8.26578,43.28544],[-8.26502,43.28646],[-8.26467,43.28723],[-8.26445,43.28838],[-8.26309,43.28785],[-8.2625,43.28783],[-8.26127,43.28762],[-8.26004,43.28763],[-8.25942,43.28773],[-8.26029,43.28803],[-8.2609,43.28852],[-8.26178,43.28986],[-8.26203,43.29046],[-8.26209,43.29093],[-8.26163,43.29176],[-8.26171,43.29224],[-8.26004,43.29295],[-8.25973,43.29339],[-8.25786,43.29534],[-8.25661,43.29614],[-8.2544,43.29736],[-8.25404,43.29766],[-8.25237,43.29773],[-8.2498,43.2983],[-8.24866,43.29876],[-8.24812,43.29909],[-8.24714,43.29867],[-8.24436,43.29803],[-8.24366,43.29795],[-8.24221,43.29959],[-8.24136,43.30095],[-8.24072,43.30168],[-8.2394,43.30216],[-8.23848,43.30227],[-8.23504,43.30196]]]}}]}