{"type":"FeatureCollection","features":[{"type":"Feature","properties":{"id":"1501201001"},"geometry":{"type":"Polygon","coordinates":[[[-8.4059,42.83115],[-8.40588,42.83071],[-8.40613,42.83013],[-8.40637,42.82907],[-8.40605,42.82829],[-8.40535,42.82774],[-8.40526,42.82744],[-8.4054,42.82554],[-8.40588,42.82377],[-8.40621,42.82304],[-8.40638,42.82156],[-8.40681,42.82001],[-8.40589,42.81775],[-8.40331,42.81719],[-8.39847,42.81717],[-8.39368,42.82088],[-8.3924,42.82015],[-8.39633,42.81324],[-8.39794,42.8093],[-8.39583,42.80498],[-8.39255,42.80315],[-8.38707,42.80065],[-8.3833,42.79764],[-8.38391,42.78962],[-8.38503,42.78979],[-8.3854,42.78971],[-8.38664,42.78915],[-8.38734,42.78898],[-8.38809,42.78901],[-8.38855,42.78914],[-8.38957,42.78971],[-8.39085,42.78998],[-8.39127,42.78988],[-8.39245,42.78934],[-8.39264,42.78915],[-8.39442,42.79019],[-8.39508,42.79005],[-8.39593,42.79002],[-8.39618,42.79018],[-8.39643,42.7906],[-8.39678,42.79082],[-8.39851,42.79143],[-8.39886,42.79168],[-8.39911,42.79198],[-8.39949,42.79289],[-8.40197,42.79342],[-8.40252,42.79361],[-8.40468,42.7915],[-8.4048,42.79025],[-8.40694,42.78878],[-8.40868,42.78779],[-8.4091,42.78816],[-8.41402,42.78964],[-8.41917,42.7922],[-8.42141,42.79309],[-8.42428,42.79464],[-8.42736,42.79595],[-8.42864,42.79659],[-8.4342,42.79862],[-8.43908,42.80133],[-8.44282,42.80273],[-8.44582,42.80408],[-8.45079,42.81208],[-8.45037,42.82048],[-8.44961,42.8277],[-8.44599,42.8292],[-8.44176,42.83219],[-8.43572,42.83501],[-8.42613,42.83562],[-8.42197,42.83503],[-8.41819,42.83294],[-8.41691,42.83174],[-8.41481,42.83116],[-8.4059,42.83115]]]}},{"type":"Feature","properties":{"id":"1501201002"},"geometry":{"type":"Polygon","coordinates":[[[-8.4093,42.88478],[-8.3986,42.88226],[-8.39829,42.87843],[-8.3991,42.87661],[-8.39738,42.87548],[-8.39496,42.8752],[-8.39384,42.87209],[-8.39271,42.86996],[-8.39524,42.86963],[-8.39494,42.86816],[-8.39811,42.86733],[-8.39992,42.86316],[-8.39967,42.8626],[-8.40343,42.85958],[-8.40297,42.85854],[-8.40238,42.85756],[-8.40138,42.85638],[-8.40739,42.85178],[-8.40861,42.84986],[-8.40541,42.84651],[-8.40549,42.84619],[-8.40692,42.84447],[-8.40686,42.84323],[-8.4058,42.84077],[-8.40717,42.83836],[-8.40538,42.83691],[-8.406,42.83651],[-8.40544,42.83581],[-8.40572,42.83336],[-8.40566,42.83216],[-8.4059,42.83115],[-8.41481,42.83116],[-8.41691,42.83174],[-8.41819,42.83294],[-8.42197,42.83503],[-8.42613,42.83562],[-8.43572,42.83501],[-8.44176,42.83219],[-8.44599,42.8292],[-8.44961,42.8277],[-8.45037,42.82048],[-8.45874,42.8203],[-8.46171,42.81968],[-8.46555,42.81683],[-8.47052,42.81607],[-8.4776,42.81426],[-8.48028,42.8142],[-8.48063,42.81427],[-8.48098,42.81448],[-8.48123,42.81472],[-8.48114,42.81532],[-8.4813,42.81552],[-8.48208,42.81585],[-8.48319,42.81704],[-8.48414,42.81774],[-8.48481,42.81853],[-8.48508,42.81864],[-8.48587,42.81928],[-8.48626,42.82003],[-8.48677,42.82039],[-8.48714,42.82137],[-8.48761,42.82211],[-8.4876,42.82309],[-8.48806,42.82431],[-8.48824,42.82455],[-8.48854,42.82467],[-8.48825,42.82478],[-8.48631,42.82466],[-8.48568,42.82654],[-8.48494,42.82748],[-8.48488,42.82838],[-8.48468,42.82854],[-8.48383,42.82889],[-8.48331,42.8299],[-8.48348,42.83023],[-8.48343,42.83044],[-8.48127,42.83336],[-8.47919,42.83574],[-8.47772,42.83611],[-8.47763,42.83865],[-8.47554,42.83853],[-8.47477,42.83858],[-8.47417,42.83871],[-8.46608,42.84421],[-8.46657,42.8462],[-8.46758,42.8481],[-8.46782,42.85176],[-8.47126,42.85427],[-8.47172,42.85857],[-8.47305,42.86193],[-8.47357,42.86798],[-8.46667,42.87089],[-8.46306,42.87169],[-8.45857,42.87308],[-8.44939,42.87494],[-8.44724,42.87332],[-8.4416,42.87769],[-8.44022,42.88045],[-8.43603,42.88052],[-8.43368,42.88069],[-8.42999,42.88138],[-8.42662,42.88172],[-8.41945,42.88396],[-8.41594,42.88431],[-8.4093,42.88478]]]}},{"type":"Feature","properties":{"id":"1501201004"},"geometry":{"type":"Polygon","coordinates":[[[-8.45037,42.82048],[-8.45079,42.81208],[-8.44582,42.80408],[-8.44758,42.8024],[-8.45009,42.80042],[-8.45176,42.79937],[-8.45564,42.7943],[-8.45741,42.79066],[-8.45902,42.79019],[-8.46067,42.78914],[-8.46139,42.78839],[-8.46186,42.78763],[-8.46359,42.78557],[-8.46392,42.78501],[-8.46541,42.78404],[-8.46664,42.78453],[-8.46816,42.78605],[-8.46825,42.78649],[-8.46797,42.78715],[-8.46858,42.78786],[-8.46781,42.78851],[-8.46954,42.7896],[-8.47104,42.79033],[-8.47185,42.79103],[-8.47207,42.79205],[-8.47389,42.79241],[-8.47467,42.79242],[-8.47593,42.79209],[-8.47807,42.79204],[-8.48032,42.79224],[-8.48232,42.79268],[-8.4811,42.79336],[-8.47945,42.79525],[-8.47921,42.79751],[-8.47948,42.7985],[-8.47941,42.80016],[-8.48,42.80132],[-8.47966,42.80401],[-8.47905,42.80504],[-8.47869,42.80622],[-8.47945,42.80691],[-8.47908,42.80862],[-8.47636,42.81246],[-8.4776,42.81426],[-8.47052,42.81607],[-8.46555,42.81683],[-8.46171,42.81968],[-8.45874,42.8203],[-8.45037,42.82048]]]}},{"type":"Feature","properties":{"id":"1501201005"},"geometry":{"type":"Polygon","coordinates":[[[-8.33272,42.80181],[-8.33345,42.80146],[-8.33375,42.80108],[-8.33394,42.80058],[-8.33394,42.79993],[-8.3334,42.79835],[-8.33188,42.79573],[-8.33174,42.79525],[-8.3318,42.79478],[-8.332,42.79441],[-8.33245,42.79421],[-8.33288,42.79414],[-8.33353,42.79419],[-8.33433,42.79444],[-8.33575,42.79462],[-8.33672,42.79455],[-8.3378,42.79428],[-8.34051,42.79321],[-8.3438,42.79145],[-8.34485,42.79066],[-8.34819,42.78883],[-8.34857,42.7885],[-8.34874,42.7881],[-8.34875,42.78775],[-8.34831,42.78663],[-8.34794,42.78482],[-8.34818,42.7839],[-8.3511,42.7817],[-8.35374,42.77923],[-8.35406,42.77903],[-8.35509,42.7788],[-8.35575,42.779],[-8.35712,42.78023],[-8.35794,42.78068],[-8.36104,42.78347],[-8.36137,42.78361],[-8.36381,42.78381],[-8.36596,42.78416],[-8.36779,42.78465],[-8.36846,42.78515],[-8.36928,42.78544],[-8.37015,42.78533],[-8.37098,42.78504],[-8.37255,42.7843],[-8.37299,42.78426],[-8.37345,42.78434],[-8.37518,42.78514],[-8.37563,42.78527],[-8.37602,42.78521],[-8.37804,42.7843],[-8.37925,42.78409],[-8.38009,42.7841],[-8.38173,42.78448],[-8.38355,42.7853],[-8.384,42.78619],[-8.38409,42.78667],[-8.38403,42.78717],[-8.38367,42.78807],[-8.38314,42.78889],[-8.38313,42.78926],[-8.38329,42.7895],[-8.38391,42.78962],[-8.3833,42.79764],[-8.38707,42.80065],[-8.39255,42.80315],[-8.39583,42.80498],[-8.39794,42.8093],[-8.39633,42.81324],[-8.3924,42.82015],[-8.39016,42.81863],[-8.388,42.81688],[-8.38832,42.81593],[-8.38889,42.81543],[-8.38682,42.81401],[-8.38595,42.81355],[-8.38338,42.81451],[-8.3824,42.81251],[-8.37877,42.81358],[-8.37772,42.81234],[-8.37694,42.81261],[-8.37659,42.81227],[-8.37574,42.81288],[-8.3751,42.81255],[-8.37614,42.81168],[-8.3749,42.81057],[-8.37404,42.81071],[-8.37213,42.81127],[-8.37082,42.81123],[-8.36986,42.81096],[-8.36922,42.81125],[-8.36844,42.81123],[-8.36706,42.81093],[-8.36664,42.81074],[-8.36629,42.81037],[-8.36439,42.81225],[-8.36423,42.81406],[-8.3633,42.81553],[-8.36046,42.81515],[-8.35935,42.8151],[-8.35765,42.81467],[-8.35743,42.81336],[-8.35675,42.81112],[-8.35473,42.81189],[-8.353,42.81152],[-8.35008,42.81114],[-8.34985,42.81299],[-8.34887,42.81558],[-8.34822,42.8158],[-8.34805,42.81638],[-8.34789,42.8165],[-8.34725,42.81642],[-8.34664,42.81655],[-8.34501,42.81722],[-8.34473,42.81715],[-8.34465,42.81681],[-8.34481,42.81619],[-8.34469,42.81484],[-8.34414,42.81436],[-8.34353,42.81431],[-8.3429,42.81442],[-8.34054,42.81515],[-8.34004,42.81501],[-8.3398,42.81519],[-8.33913,42.81529],[-8.33784,42.81518],[-8.33746,42.81495],[-8.33729,42.81465],[-8.33721,42.81027],[-8.33766,42.81004],[-8.33726,42.80958],[-8.33814,42.80806],[-8.34045,42.80629],[-8.33939,42.80572],[-8.33927,42.80412],[-8.33588,42.80343],[-8.33584,42.8024],[-8.33272,42.80181]]]}}]}