{"type":"FeatureCollection","features":[{"type":"Feature","properties":{"id":"1501401001"},"geometry":{"type":"Polygon","coordinates":[[[-8.89563,43.21756],[-8.89355,43.21308],[-8.89344,43.21066],[-8.89325,43.20999],[-8.89329,43.20937],[-8.89392,43.20888],[-8.89442,43.20863],[-8.89547,43.20766],[-8.8978,43.20586],[-8.90103,43.20429],[-8.90299,43.2035],[-8.90518,43.203],[-8.90701,43.20142],[-8.90796,43.1997],[-8.90873,43.19798],[-8.90841,43.19625],[-8.90838,43.19381],[-8.90861,43.19292],[-8.90868,43.19204],[-8.90968,43.19054],[-8.90985,43.18965],[-8.91064,43.18862],[-8.91347,43.18672],[-8.91511,43.18534],[-8.91636,43.18478],[-8.91701,43.18402],[-8.91783,43.1833],[-8.91932,43.18253],[-8.92087,43.18135],[-8.92208,43.18057],[-8.9223,43.18056],[-8.92266,43.18137],[-8.92368,43.18188],[-8.92527,43.18301],[-8.92612,43.18282],[-8.92756,43.18292],[-8.92698,43.18388],[-8.92839,43.18397],[-8.92988,43.18494],[-8.93325,43.18565],[-8.93424,43.18568],[-8.93418,43.18898],[-8.93685,43.19599],[-8.93717,43.19769],[-8.93688,43.20113],[-8.93692,43.2031],[-8.93707,43.20367],[-8.93651,43.2042],[-8.93703,43.20486],[-8.93694,43.206],[-8.93665,43.20732],[-8.93387,43.21302],[-8.93237,43.21478],[-8.93153,43.2168],[-8.93168,43.2184],[-8.93318,43.21992],[-8.9342,43.22232],[-8.93378,43.22253],[-8.93296,43.22338],[-8.93211,43.22445],[-8.93121,43.22606],[-8.93018,43.227],[-8.92651,43.22949],[-8.9242,43.23147],[-8.92292,43.23384],[-8.92153,43.23563],[-8.92095,43.23666],[-8.92053,43.23816],[-8.92052,43.23927],[-8.92022,43.24053],[-8.91974,43.24176],[-8.91886,43.24288],[-8.918,43.24353],[-8.91704,43.24381],[-8.91556,43.24336],[-8.91406,43.24203],[-8.91302,43.24132],[-8.91199,43.24089],[-8.91054,43.24062],[-8.90888,43.24069],[-8.90753,43.24101],[-8.90592,43.24184],[-8.90464,43.24213],[-8.90354,43.24222],[-8.9009,43.24195],[-8.89994,43.2416],[-8.89898,43.24104],[-8.89808,43.24024],[-8.89758,43.23948],[-8.89679,43.23856],[-8.89623,43.23671],[-8.8958,43.23621],[-8.89478,43.2358],[-8.89313,43.23551],[-8.8926,43.23531],[-8.89266,43.23488],[-8.89305,43.23427],[-8.89318,43.23246],[-8.89346,43.23147],[-8.89384,43.23103],[-8.89462,43.23045],[-8.89527,43.23066],[-8.89812,43.23249],[-8.89913,43.23283],[-8.90023,43.23259],[-8.90236,43.23131],[-8.90324,43.23065],[-8.90395,43.22983],[-8.90409,43.22939],[-8.90353,43.22865],[-8.90255,43.22766],[-8.90169,43.22703],[-8.90074,43.22614],[-8.90065,43.22549],[-8.90029,43.22493],[-8.89897,43.22398],[-8.89869,43.22344],[-8.89826,43.22028],[-8.8973,43.21908],[-8.89641,43.21775],[-8.89592,43.21756],[-8.89563,43.21756]]]}},{"type":"Feature","properties":{"id":"1501401002"},"geometry":{"type":"Polygon","coordinates":[[[-8.9342,43.22232],[-8.93318,43.21992],[-8.93168,43.2184],[-8.93153,43.2168],[-8.93237,43.21478],[-8.93387,43.21302],[-8.93665,43.20732],[-8.93694,43.206],[-8.93703,43.20486],[-8.93651,43.2042],[-8.93707,43.20367],[-8.93692,43.2031],[-8.93688,43.20113],[-8.93717,43.19769],[-8.93685,43.19599],[-8.93418,43.18898],[-8.93424,43.18568],[-8.94001,43.18586],[-8.946,43.17483],[-8.94909,43.17269],[-8.9499,43.1697],[-8.9506,43.16792],[-8.95305,43.16789],[-8.95421,43.16839],[-8.95524,43.16858],[-8.95659,43.16864],[-8.95753,43.16885],[-8.95839,43.16994],[-8.96017,43.17056],[-8.96017,43.17174],[-8.96402,43.17324],[-8.96609,43.17467],[-8.96743,43.17506],[-8.96916,43.17623],[-8.97192,43.17605],[-8.98077,43.18071],[-8.98135,43.18126],[-8.98404,43.18132],[-8.99318,43.18902],[-8.98895,43.19367],[-8.9724,43.20705],[-8.98525,43.21778],[-8.98862,43.21817],[-8.99097,43.21941],[-8.9906,43.21962],[-8.99043,43.21997],[-8.99019,43.22017],[-8.98921,43.22025],[-8.9882,43.22078],[-8.9877,43.22067],[-8.98752,43.22109],[-8.98693,43.2212],[-8.98697,43.22138],[-8.98683,43.22159],[-8.98603,43.22193],[-8.98551,43.22192],[-8.98529,43.22203],[-8.98531,43.22213],[-8.98565,43.22226],[-8.98666,43.2224],[-8.98716,43.22291],[-8.98719,43.22309],[-8.98701,43.22341],[-8.98705,43.22362],[-8.98669,43.2239],[-8.98686,43.22427],[-8.98681,43.22462],[-8.98622,43.2264],[-8.98594,43.22652],[-8.98545,43.22649],[-8.985,43.22689],[-8.98429,43.22643],[-8.9843,43.22664],[-8.98414,43.22689],[-8.98378,43.22676],[-8.98344,43.22633],[-8.98328,43.22646],[-8.98334,43.22687],[-8.98325,43.22703],[-8.98298,43.22698],[-8.98289,43.22689],[-8.98278,43.2276],[-8.98285,43.22794],[-8.9826,43.22826],[-8.98219,43.22849],[-8.98181,43.22855],[-8.98119,43.22921],[-8.98053,43.22893],[-8.98003,43.22897],[-8.97944,43.22869],[-8.97943,43.22723],[-8.97829,43.22685],[-8.9781,43.22711],[-8.97784,43.22722],[-8.97761,43.22712],[-8.97739,43.22639],[-8.97641,43.22617],[-8.97613,43.22579],[-8.9755,43.22564],[-8.97555,43.22544],[-8.97536,43.22527],[-8.97503,43.22518],[-8.97442,43.22537],[-8.97391,43.22531],[-8.9726,43.22438],[-8.97244,43.22412],[-8.97196,43.22397],[-8.97115,43.22406],[-8.97064,43.22454],[-8.96975,43.22498],[-8.96915,43.22509],[-8.96869,43.22499],[-8.96793,43.22465],[-8.96767,43.22466],[-8.9666,43.22527],[-8.9666,43.22552],[-8.96679,43.22563],[-8.96704,43.22613],[-8.96705,43.22639],[-8.96683,43.22647],[-8.96718,43.22668],[-8.96711,43.2269],[-8.96763,43.22721],[-8.96752,43.2281],[-8.96727,43.22834],[-8.9668,43.22856],[-8.96593,43.22838],[-8.96549,43.22808],[-8.96503,43.22821],[-8.9647,43.22816],[-8.96447,43.22778],[-8.96431,43.22828],[-8.96391,43.22862],[-8.96363,43.22867],[-8.96339,43.22861],[-8.96307,43.22889],[-8.96256,43.22853],[-8.96147,43.22856],[-8.96098,43.22828],[-8.96071,43.22836],[-8.96058,43.22852],[-8.9603,43.22843],[-8.96011,43.22787],[-8.95973,43.22828],[-8.95898,43.22855],[-8.95881,43.22872],[-8.95819,43.22853],[-8.95765,43.22873],[-8.95707,43.22859],[-8.9569,43.2282],[-8.95663,43.2281],[-8.95663,43.2284],[-8.95647,43.22858],[-8.95558,43.22824],[-8.95461,43.22869],[-8.95432,43.22935],[-8.95459,43.22986],[-8.95437,43.2303],[-8.95444,43.23068],[-8.95417,43.23063],[-8.95399,43.23037],[-8.95382,43.23078],[-8.95352,43.23077],[-8.95172,43.22988],[-8.95149,43.22943],[-8.95128,43.22834],[-8.94908,43.22818],[-8.94755,43.22771],[-8.94704,43.2277],[-8.9464,43.22829],[-8.94591,43.22818],[-8.94482,43.22756],[-8.9446,43.22702],[-8.94428,43.22679],[-8.94348,43.2267],[-8.94398,43.22576],[-8.9461,43.22265],[-8.94616,43.22199],[-8.94581,43.22126],[-8.94488,43.22077],[-8.94379,43.22036],[-8.94253,43.22029],[-8.94172,43.22036],[-8.93908,43.22137],[-8.93628,43.22152],[-8.935,43.22191],[-8.9342,43.22232]]]}},{"type":"Feature","properties":{"id":"1501402001"},"geometry":{"type":"Polygon","coordinates":[[[-8.88584,43.15813],[-8.88671,43.15813],[-8.88752,43.15866],[-8.88826,43.15899],[-8.88999,43.15921],[-8.89112,43.15838],[-8.89214,43.15781],[-8.89144,43.15776],[-8.89107,43.15739],[-8.89342,43.15732],[-8.89405,43.15746],[-8.89625,43.1587],[-8.89739,43.15875],[-8.8983,43.15947],[-8.90298,43.15775],[-8.90596,43.15622],[-8.90678,43.15609],[-8.9079,43.15464],[-8.90848,43.15348],[-8.90915,43.15176],[-8.91,43.15067],[-8.91038,43.1504],[-8.9125,43.14988],[-8.91301,43.14964],[-8.91472,43.14819],[-8.91477,43.1487],[-8.9156,43.15086],[-8.91593,43.15125],[-8.91785,43.15215],[-8.91953,43.15238],[-8.92141,43.15419],[-8.92638,43.15559],[-8.93002,43.15791],[-8.92973,43.15891],[-8.92978,43.1602],[-8.92961,43.16133],[-8.92912,43.16235],[-8.92929,43.16368],[-8.93091,43.16373],[-8.9317,43.16389],[-8.93279,43.16435],[-8.93362,43.16495],[-8.9334,43.16502],[-8.93308,43.16533],[-8.93277,43.16667],[-8.93243,43.16746],[-8.93137,43.16897],[-8.93106,43.16973],[-8.93078,43.17007],[-8.92959,43.1707],[-8.92922,43.17113],[-8.92939,43.17217],[-8.92922,43.17322],[-8.92896,43.17363],[-8.92799,43.17419],[-8.92783,43.17467],[-8.92804,43.17482],[-8.92795,43.17517],[-8.92721,43.17596],[-8.9271,43.1763],[-8.9272,43.17667],[-8.92701,43.177],[-8.92723,43.17753],[-8.92667,43.17782],[-8.92616,43.17789],[-8.92562,43.17861],[-8.92422,43.1796],[-8.92253,43.17989],[-8.92214,43.18023],[-8.9223,43.18056],[-8.92196,43.18063],[-8.92087,43.18135],[-8.91932,43.18253],[-8.91783,43.1833],[-8.91701,43.18402],[-8.91636,43.18478],[-8.91511,43.18534],[-8.91347,43.18672],[-8.91064,43.18862],[-8.90985,43.18965],[-8.90968,43.19054],[-8.90868,43.19204],[-8.90861,43.19292],[-8.90838,43.19381],[-8.90841,43.19625],[-8.90873,43.19798],[-8.90796,43.1997],[-8.90701,43.20142],[-8.90518,43.203],[-8.90299,43.2035],[-8.90103,43.20429],[-8.8978,43.20586],[-8.89547,43.20766],[-8.89442,43.20863],[-8.89392,43.20888],[-8.89329,43.20937],[-8.89325,43.20999],[-8.89344,43.21066],[-8.89255,43.20873],[-8.88955,43.20618],[-8.88565,43.20363],[-8.88385,43.20331],[-8.88013,43.20308],[-8.87975,43.20184],[-8.87861,43.19538],[-8.87818,43.19152],[-8.87823,43.18803],[-8.8779,43.18048],[-8.87839,43.17901],[-8.87841,43.17764],[-8.87931,43.17622],[-8.87971,43.1749],[-8.88021,43.17411],[-8.88368,43.16963],[-8.88518,43.16611],[-8.88497,43.16174],[-8.88584,43.15813]]]}},{"type":"Feature","properties":{"id":"1501402002"},"geometry":{"type":"Polygon","coordinates":[[[-8.85167,43.23576],[-8.851,43.23561],[-8.85004,43.23623],[-8.84955,43.23627],[-8.84892,43.23612],[-8.84751,43.23549],[-8.84696,43.23497],[-8.84656,43.2342],[-8.84622,43.234],[-8.84575,43.23402],[-8.84531,43.2343],[-8.84475,43.23449],[-8.84436,43.23479],[-8.84412,43.23526],[-8.84302,43.23655],[-8.84259,43.23686],[-8.84118,43.23694],[-8.8398,43.2366],[-8.83885,43.23612],[-8.83845,43.23568],[-8.83811,43.23503],[-8.83805,43.23466],[-8.8387,43.23327],[-8.83838,43.23258],[-8.8373,43.23199],[-8.83312,43.23081],[-8.83228,43.23021],[-8.83175,43.23012],[-8.82912,43.23083],[-8.8288,43.23105],[-8.82672,43.2318],[-8.82552,43.23202],[-8.82468,43.23204],[-8.82419,43.23188],[-8.82311,43.23087],[-8.82251,43.22999],[-8.82227,43.22981],[-8.82027,43.22939],[-8.81968,43.22906],[-8.8189,43.22823],[-8.81756,43.22797],[-8.81737,43.22775],[-8.8174,43.22733],[-8.81785,43.22689],[-8.81941,43.22591],[-8.81927,43.22562],[-8.81865,43.22545],[-8.81727,43.22532],[-8.81699,43.22506],[-8.81582,43.22485],[-8.81544,43.22462],[-8.81529,43.22406],[-8.81549,43.22359],[-8.81625,43.22286],[-8.81802,43.22231],[-8.81831,43.22217],[-8.81873,43.22176],[-8.81915,43.22061],[-8.8191,43.21977],[-8.81931,43.21899],[-8.81905,43.21826],[-8.81925,43.21779],[-8.81988,43.21731],[-8.82109,43.21689],[-8.82201,43.21647],[-8.82364,43.21601],[-8.82435,43.21555],[-8.82552,43.21551],[-8.82572,43.21546],[-8.82624,43.21498],[-8.82644,43.21491],[-8.82709,43.21495],[-8.82732,43.21484],[-8.82845,43.2137],[-8.82872,43.21308],[-8.82905,43.21128],[-8.82942,43.2106],[-8.83107,43.20913],[-8.83126,43.20854],[-8.83103,43.20735],[-8.83239,43.20454],[-8.83304,43.20409],[-8.8346,43.20197],[-8.83522,43.20055],[-8.83519,43.19963],[-8.83497,43.19854],[-8.83518,43.19813],[-8.83628,43.19681],[-8.83655,43.19589],[-8.83641,43.19521],[-8.8359,43.19477],[-8.8358,43.19431],[-8.83685,43.19222],[-8.837,43.19069],[-8.83667,43.18968],[-8.83588,43.18841],[-8.83429,43.18675],[-8.83432,43.18051],[-8.83332,43.17481],[-8.83362,43.17337],[-8.83178,43.17247],[-8.83055,43.16951],[-8.82771,43.17007],[-8.82738,43.16813],[-8.82742,43.16645],[-8.82715,43.16614],[-8.82783,43.16495],[-8.82807,43.16481],[-8.82872,43.16468],[-8.82978,43.16476],[-8.82917,43.16422],[-8.82834,43.1612],[-8.8274,43.1585],[-8.8269,43.15742],[-8.82619,43.15655],[-8.82525,43.1532],[-8.82432,43.15151],[-8.82344,43.1495],[-8.82215,43.14896],[-8.82135,43.1481],[-8.82217,43.14704],[-8.82306,43.14667],[-8.82331,43.14642],[-8.82324,43.14608],[-8.82253,43.14565],[-8.82243,43.14475],[-8.82224,43.14461],[-8.82142,43.14435],[-8.82066,43.14386],[-8.81785,43.14132],[-8.81763,43.14104],[-8.81745,43.14047],[-8.81687,43.14032],[-8.81562,43.13957],[-8.81524,43.13921],[-8.8151,43.13883],[-8.81591,43.13834],[-8.8163,43.13788],[-8.81652,43.13723],[-8.8165,43.13669],[-8.81635,43.13637],[-8.81642,43.13572],[-8.81669,43.13528],[-8.817,43.13506],[-8.81747,43.13493],[-8.81867,43.13491],[-8.82103,43.13605],[-8.82283,43.13731],[-8.82396,43.13743],[-8.82479,43.13766],[-8.82547,43.13767],[-8.82578,43.13778],[-8.82687,43.13852],[-8.82815,43.13906],[-8.83058,43.13945],[-8.83208,43.13953],[-8.83852,43.13788],[-8.84129,43.14247],[-8.84226,43.14239],[-8.84761,43.14315],[-8.8509,43.14443],[-8.85375,43.1453],[-8.86079,43.14936],[-8.86143,43.14962],[-8.86554,43.15066],[-8.86823,43.15081],[-8.87467,43.15256],[-8.87437,43.15392],[-8.87575,43.15521],[-8.87707,43.15453],[-8.87754,43.15484],[-8.88012,43.15556],[-8.87993,43.15603],[-8.87977,43.15702],[-8.88372,43.15696],[-8.884,43.1573],[-8.88516,43.15769],[-8.88535,43.15789],[-8.88584,43.15813],[-8.88497,43.16174],[-8.88518,43.16611],[-8.88368,43.16963],[-8.88021,43.17411],[-8.87971,43.1749],[-8.87931,43.17622],[-8.87841,43.17764],[-8.87839,43.17901],[-8.8779,43.18048],[-8.87823,43.18803],[-8.87818,43.19152],[-8.87861,43.19538],[-8.87912,43.19852],[-8.87975,43.20184],[-8.88013,43.20308],[-8.88385,43.20331],[-8.88565,43.20363],[-8.88955,43.20618],[-8.89255,43.20873],[-8.89344,43.21066],[-8.89355,43.21308],[-8.89563,43.21756],[-8.89506,43.21757],[-8.89143,43.21811],[-8.89067,43.21847],[-8.89038,43.21922],[-8.8905,43.21993],[-8.89037,43.22064],[-8.89009,43.22133],[-8.88766,43.22378],[-8.88373,43.22299],[-8.88144,43.22316],[-8.87967,43.22393],[-8.87834,43.22441],[-8.87788,43.22467],[-8.87744,43.2252],[-8.87605,43.22832],[-8.87487,43.22809],[-8.87261,43.22726],[-8.87219,43.22699],[-8.87182,43.22755],[-8.87041,43.22835],[-8.86894,43.22985],[-8.86859,43.23047],[-8.86853,43.23098],[-8.8687,43.23182],[-8.86931,43.23255],[-8.86973,43.23328],[-8.87028,43.23505],[-8.8704,43.23644],[-8.87158,43.23812],[-8.87177,43.23864],[-8.87152,43.23924],[-8.87085,43.23994],[-8.87011,43.2403],[-8.86913,43.24048],[-8.86821,43.2408],[-8.8671,43.24133],[-8.8659,43.24176],[-8.86457,43.24255],[-8.86279,43.24385],[-8.86132,43.24469],[-8.85937,43.2443],[-8.859,43.24315],[-8.85755,43.24111],[-8.85713,43.24015],[-8.85671,43.23966],[-8.85618,43.23948],[-8.85546,43.23906],[-8.85475,43.23829],[-8.85389,43.23776],[-8.85232,43.23624],[-8.85167,43.23576]]]}}]}