{"type":"FeatureCollection","features":[{"type":"Feature","properties":{"id":"1502101001"},"geometry":{"type":"Polygon","coordinates":[[[-8.33898,43.23862],[-8.33917,43.23791],[-8.33814,43.23666],[-8.33797,43.23629],[-8.338,43.23584],[-8.33755,43.23522],[-8.33753,43.23501],[-8.3376,43.2347],[-8.33784,43.23443],[-8.33873,43.23399],[-8.33932,43.2333],[-8.34037,43.23274],[-8.34067,43.23248],[-8.34109,43.23181],[-8.34123,43.23075],[-8.34104,43.23035],[-8.34066,43.22995],[-8.34015,43.22892],[-8.34013,43.22756],[-8.35048,43.2257],[-8.3523,43.2255],[-8.35287,43.22576],[-8.35369,43.22636],[-8.35589,43.22748],[-8.35558,43.22953],[-8.3556,43.23021],[-8.35614,43.23097],[-8.35641,43.23204],[-8.35539,43.23337],[-8.35519,43.23434],[-8.35515,43.2354],[-8.35533,43.2358],[-8.35592,43.23644],[-8.35488,43.23644],[-8.3528,43.23723],[-8.35224,43.23763],[-8.35065,43.23838],[-8.34765,43.23912],[-8.34419,43.2394],[-8.34251,43.23896],[-8.34054,43.23858],[-8.33898,43.23862]]]}},{"type":"Feature","properties":{"id":"1502101002"},"geometry":{"type":"Polygon","coordinates":[[[-8.3531,43.21527],[-8.35319,43.21478],[-8.35379,43.21351],[-8.3551,43.21265],[-8.35638,43.20788],[-8.35475,43.20665],[-8.35389,43.20615],[-8.34844,43.204],[-8.34695,43.20331],[-8.34569,43.20293],[-8.34682,43.20044],[-8.347,43.19985],[-8.34704,43.19925],[-8.34643,43.19432],[-8.3442,43.18621],[-8.34362,43.18017],[-8.34526,43.17293],[-8.3462,43.16996],[-8.34709,43.16838],[-8.34697,43.16737],[-8.34776,43.16644],[-8.34872,43.16506],[-8.34989,43.16412],[-8.35003,43.16386],[-8.35004,43.16347],[-8.34984,43.16309],[-8.34994,43.16295],[-8.34966,43.16265],[-8.34984,43.16181],[-8.34981,43.16081],[-8.3496,43.16038],[-8.34942,43.16029],[-8.34928,43.15694],[-8.34849,43.15601],[-8.3485,43.15553],[-8.3494,43.15467],[-8.34969,43.15461],[-8.35055,43.15466],[-8.35231,43.15439],[-8.35272,43.15424],[-8.35378,43.15344],[-8.3556,43.15265],[-8.3563,43.15224],[-8.35773,43.15183],[-8.35778,43.15329],[-8.3587,43.15435],[-8.35884,43.15479],[-8.35877,43.15529],[-8.35838,43.1563],[-8.35859,43.15685],[-8.3584,43.1603],[-8.3604,43.16105],[-8.36922,43.16668],[-8.3752,43.16993],[-8.40132,43.16729],[-8.4091,43.16629],[-8.39768,43.19332],[-8.39643,43.21428],[-8.39864,43.21636],[-8.39765,43.2167],[-8.39449,43.2169],[-8.39325,43.21657],[-8.39004,43.21521],[-8.38653,43.21466],[-8.38506,43.2147],[-8.3822,43.21495],[-8.37926,43.21601],[-8.37468,43.2192],[-8.37373,43.21952],[-8.37263,43.21951],[-8.37168,43.21924],[-8.37065,43.21907],[-8.36728,43.21895],[-8.36436,43.21823],[-8.36319,43.21758],[-8.36276,43.2171],[-8.36232,43.21683],[-8.36057,43.21618],[-8.35969,43.21569],[-8.35779,43.21525],[-8.35706,43.21492],[-8.35567,43.21454],[-8.35479,43.21464],[-8.3531,43.21527]]]}},{"type":"Feature","properties":{"id":"1502101003"},"geometry":{"type":"Polygon","coordinates":[[[-8.36694,43.23492],[-8.36591,43.23485],[-8.36406,43.23524],[-8.36051,43.23553],[-8.35818,43.23623],[-8.35641,43.23645],[-8.35592,43.23644],[-8.3552,43.23559],[-8.35519,43.23434],[-8.35539,43.23337],[-8.35641,43.23204],[-8.35614,43.23097],[-8.3556,43.23021],[-8.35558,43.22953],[-8.35589,43.22748],[-8.35369,43.22636],[-8.35287,43.22576],[-8.3523,43.2255],[-8.35274,43.22545],[-8.35354,43.22265],[-8.35334,43.22219],[-8.34939,43.21784],[-8.34997,43.21753],[-8.3504,43.21752],[-8.35089,43.21737],[-8.35119,43.21704],[-8.35147,43.21641],[-8.35218,43.21643],[-8.35306,43.21555],[-8.3531,43.21527],[-8.35479,43.21464],[-8.35567,43.21454],[-8.35706,43.21492],[-8.35779,43.21525],[-8.35969,43.21569],[-8.36057,43.21618],[-8.36232,43.21683],[-8.36276,43.2171],[-8.36319,43.21758],[-8.36436,43.21823],[-8.36728,43.21895],[-8.37065,43.21907],[-8.37168,43.21924],[-8.37263,43.21951],[-8.37373,43.21952],[-8.37468,43.2192],[-8.37926,43.21601],[-8.3822,43.21495],[-8.38506,43.2147],[-8.38653,43.21466],[-8.39004,43.21521],[-8.39325,43.21657],[-8.39449,43.2169],[-8.39765,43.2167],[-8.39864,43.21636],[-8.40789,43.2251],[-8.40106,43.22515],[-8.40056,43.22662],[-8.39886,43.2284],[-8.39748,43.2295],[-8.39712,43.23003],[-8.39695,43.23014],[-8.39596,43.23037],[-8.39534,43.23088],[-8.39456,43.23103],[-8.39423,43.2312],[-8.39364,43.2316],[-8.39282,43.23288],[-8.39136,43.2341],[-8.38986,43.23489],[-8.38874,43.23509],[-8.38817,43.2356],[-8.38762,43.23562],[-8.38697,43.23532],[-8.38567,43.23427],[-8.38515,43.23372],[-8.38438,43.23333],[-8.38251,43.23293],[-8.38122,43.23146],[-8.38009,43.2311],[-8.37933,43.23055],[-8.37914,43.23054],[-8.37891,43.23063],[-8.37826,43.23057],[-8.3774,43.23126],[-8.37686,43.23145],[-8.37567,43.2315],[-8.375,43.23172],[-8.37452,43.23225],[-8.37417,43.2325],[-8.37386,43.23259],[-8.37346,43.23252],[-8.37275,43.23212],[-8.37222,43.23198],[-8.37178,43.23203],[-8.37152,43.2322],[-8.37147,43.23243],[-8.37128,43.23251],[-8.37067,43.23254],[-8.37037,43.23243],[-8.37011,43.23248],[-8.3698,43.23294],[-8.3696,43.23307],[-8.3685,43.23342],[-8.36819,43.23361],[-8.36765,43.23456],[-8.36708,43.23476],[-8.36694,43.23492]]]}},{"type":"Feature","properties":{"id":"1502102001"},"geometry":{"type":"Polygon","coordinates":[[[-8.28718,43.25675],[-8.28621,43.25471],[-8.28533,43.2547],[-8.2851,43.25459],[-8.28507,43.25444],[-8.28543,43.25423],[-8.28522,43.25371],[-8.28531,43.25348],[-8.28549,43.25335],[-8.2862,43.25333],[-8.2865,43.25318],[-8.28671,43.25288],[-8.28667,43.25255],[-8.28633,43.25206],[-8.28696,43.2516],[-8.28773,43.25141],[-8.28793,43.25128],[-8.28793,43.25117],[-8.28726,43.25098],[-8.28726,43.25084],[-8.28749,43.25086],[-8.28759,43.25072],[-8.287,43.25036],[-8.28691,43.25015],[-8.28708,43.25001],[-8.28755,43.24998],[-8.2878,43.2501],[-8.28816,43.2505],[-8.28832,43.25053],[-8.28845,43.25038],[-8.28849,43.25004],[-8.28957,43.24971],[-8.28976,43.24941],[-8.28971,43.2492],[-8.28911,43.2493],[-8.28855,43.24952],[-8.28831,43.24946],[-8.28897,43.24904],[-8.28913,43.24874],[-8.28919,43.24699],[-8.28882,43.2466],[-8.28965,43.24609],[-8.29013,43.24547],[-8.29088,43.24525],[-8.29119,43.24481],[-8.29187,43.24451],[-8.29209,43.24373],[-8.29202,43.24283],[-8.29267,43.24258],[-8.29256,43.2424],[-8.29214,43.24216],[-8.29311,43.24148],[-8.29348,43.24183],[-8.29371,43.24185],[-8.2939,43.24133],[-8.29479,43.24139],[-8.2946,43.24058],[-8.29491,43.24046],[-8.29535,43.24068],[-8.29579,43.24065],[-8.29597,43.24022],[-8.29632,43.24015],[-8.2967,43.23984],[-8.29699,43.23947],[-8.29714,43.23903],[-8.29705,43.23873],[-8.29675,43.23843],[-8.29677,43.23825],[-8.29769,43.23798],[-8.29752,43.23723],[-8.29853,43.23647],[-8.29862,43.23596],[-8.29888,43.23583],[-8.29931,43.23586],[-8.29967,43.23561],[-8.30079,43.23583],[-8.30167,43.23462],[-8.30188,43.23442],[-8.30222,43.23432],[-8.30407,43.23461],[-8.30483,43.23458],[-8.30541,43.23433],[-8.30581,43.23429],[-8.30654,43.2338],[-8.30844,43.23283],[-8.3104,43.23243],[-8.31153,43.23184],[-8.31312,43.23133],[-8.3133,43.23111],[-8.31328,43.23082],[-8.31421,43.2311],[-8.31464,43.23052],[-8.3154,43.23028],[-8.31631,43.2303],[-8.31657,43.22919],[-8.31678,43.2289],[-8.31671,43.22855],[-8.31701,43.22832],[-8.31759,43.22807],[-8.31814,43.22768],[-8.32,43.22732],[-8.32096,43.2267],[-8.32133,43.22663],[-8.32204,43.22678],[-8.32242,43.22667],[-8.3236,43.22582],[-8.3238,43.22546],[-8.32686,43.22591],[-8.32843,43.226],[-8.3343,43.22807],[-8.33833,43.22782],[-8.34013,43.22756],[-8.34015,43.22892],[-8.34066,43.22995],[-8.34104,43.23035],[-8.34123,43.23075],[-8.34109,43.23181],[-8.34067,43.23248],[-8.34037,43.23274],[-8.33932,43.2333],[-8.33873,43.23399],[-8.33784,43.23443],[-8.3376,43.2347],[-8.33753,43.23501],[-8.33755,43.23522],[-8.338,43.23584],[-8.33797,43.23629],[-8.33814,43.23666],[-8.33917,43.23791],[-8.33898,43.23862],[-8.33635,43.2391],[-8.33488,43.23958],[-8.33432,43.23985],[-8.33279,43.2402],[-8.33144,43.24077],[-8.32991,43.24156],[-8.32898,43.24227],[-8.32843,43.24258],[-8.32794,43.24271],[-8.32756,43.24308],[-8.32479,43.24038],[-8.31535,43.2495],[-8.31495,43.25004],[-8.31032,43.25465],[-8.30661,43.25506],[-8.30079,43.25488],[-8.28792,43.25671],[-8.28739,43.25684],[-8.28718,43.25675]]]}},{"type":"Feature","properties":{"id":"1502102002"},"geometry":{"type":"Polygon","coordinates":[[[-8.34931,43.26322],[-8.34694,43.25851],[-8.3495,43.25707],[-8.34808,43.25001],[-8.34777,43.24931],[-8.34386,43.25067],[-8.34232,43.25036],[-8.33227,43.24766],[-8.32756,43.24308],[-8.32794,43.24271],[-8.32843,43.24258],[-8.32898,43.24227],[-8.32991,43.24156],[-8.33144,43.24077],[-8.33279,43.2402],[-8.33432,43.23985],[-8.33488,43.23958],[-8.33635,43.2391],[-8.33775,43.2388],[-8.33898,43.23862],[-8.34054,43.23858],[-8.34251,43.23896],[-8.34419,43.2394],[-8.34765,43.23912],[-8.35065,43.23838],[-8.35224,43.23763],[-8.3528,43.23723],[-8.35488,43.23644],[-8.35641,43.23645],[-8.35818,43.23623],[-8.36051,43.23553],[-8.36406,43.23524],[-8.36591,43.23485],[-8.36694,43.23492],[-8.36694,43.23509],[-8.36952,43.2356],[-8.37785,43.23836],[-8.38109,43.2417],[-8.3724,43.2494],[-8.34931,43.26322]]]}}]}