{"type":"FeatureCollection","features":[{"type":"Feature","properties":{"id":"1503701001"},"geometry":{"type":"Polygon","coordinates":[[[-9.26491,42.91543],[-9.26495,42.91507],[-9.26472,42.91486],[-9.26472,42.91424],[-9.26451,42.91412],[-9.26467,42.91381],[-9.26395,42.91344],[-9.26378,42.91306],[-9.26383,42.91284],[-9.26363,42.91279],[-9.26317,42.91287],[-9.26311,42.91277],[-9.26332,42.9125],[-9.2633,42.91236],[-9.26355,42.91217],[-9.26329,42.91196],[-9.26324,42.91172],[-9.26296,42.91155],[-9.2625,42.91167],[-9.26234,42.91157],[-9.26223,42.91164],[-9.26206,42.91161],[-9.2619,42.91121],[-9.26221,42.91105],[-9.26198,42.91084],[-9.26207,42.9107],[-9.26175,42.91036],[-9.26171,42.90999],[-9.2615,42.90993],[-9.26144,42.90973],[-9.26148,42.90929],[-9.26211,42.90861],[-9.26151,42.90823],[-9.26143,42.90805],[-9.2618,42.90802],[-9.26211,42.90824],[-9.26242,42.90814],[-9.26252,42.90801],[-9.26348,42.90785],[-9.26461,42.90677],[-9.26481,42.90669],[-9.26511,42.90678],[-9.26528,42.90715],[-9.26624,42.9068],[-9.26974,42.90717],[-9.27548,42.90633],[-9.27526,42.90787],[-9.27544,42.90974],[-9.27564,42.91041],[-9.27595,42.91076],[-9.27609,42.91078],[-9.27653,42.91055],[-9.27726,42.91052],[-9.27748,42.91092],[-9.27801,42.91096],[-9.27822,42.91108],[-9.27836,42.91104],[-9.27863,42.91113],[-9.27871,42.91095],[-9.27893,42.91101],[-9.27897,42.91113],[-9.26903,42.91496],[-9.26826,42.91486],[-9.26712,42.91553],[-9.26491,42.91543]]]}},{"type":"Feature","properties":{"id":"1503701002"},"geometry":{"type":"Polygon","coordinates":[[[-9.26108,42.90596],[-9.26239,42.90598],[-9.26239,42.90589],[-9.2625,42.90586],[-9.26299,42.90593],[-9.26343,42.90568],[-9.26402,42.90553],[-9.26409,42.90523],[-9.26553,42.90464],[-9.26626,42.90398],[-9.26687,42.90368],[-9.2673,42.90306],[-9.2678,42.90278],[-9.27391,42.90156],[-9.27874,42.89988],[-9.27841,42.90021],[-9.2785,42.90036],[-9.27839,42.90176],[-9.27814,42.90218],[-9.27794,42.90227],[-9.2779,42.90252],[-9.27761,42.90271],[-9.27742,42.90345],[-9.277,42.90389],[-9.27725,42.90414],[-9.27738,42.90453],[-9.27708,42.90496],[-9.27585,42.90587],[-9.2758,42.90607],[-9.27548,42.90633],[-9.26974,42.90717],[-9.26624,42.9068],[-9.26528,42.90715],[-9.26511,42.90678],[-9.26481,42.90669],[-9.26461,42.90677],[-9.26348,42.90785],[-9.26268,42.90801],[-9.26252,42.90801],[-9.2624,42.90665],[-9.26223,42.90662],[-9.26121,42.90677],[-9.26079,42.9069],[-9.26038,42.90715],[-9.26021,42.90714],[-9.25971,42.90764],[-9.25964,42.90787],[-9.25883,42.90848],[-9.2585,42.90861],[-9.25826,42.90846],[-9.2585,42.90804],[-9.26108,42.90596]]]}},{"type":"Feature","properties":{"id":"1503701003"},"geometry":{"type":"Polygon","coordinates":[[[-9.26108,42.90596],[-9.26189,42.90526],[-9.26175,42.90493],[-9.2611,42.90493],[-9.26024,42.90421],[-9.26029,42.9039],[-9.25999,42.90376],[-9.26013,42.90342],[-9.26007,42.90312],[-9.2603,42.90302],[-9.26038,42.90262],[-9.26064,42.90277],[-9.26067,42.90246],[-9.26104,42.90229],[-9.26118,42.90234],[-9.26126,42.90212],[-9.26141,42.90216],[-9.26136,42.90195],[-9.26095,42.90164],[-9.26117,42.90131],[-9.26137,42.9012],[-9.26193,42.90153],[-9.26209,42.90153],[-9.26244,42.90133],[-9.26241,42.90071],[-9.26274,42.9001],[-9.26246,42.89986],[-9.2623,42.89904],[-9.26245,42.89845],[-9.2622,42.89788],[-9.26258,42.89765],[-9.26273,42.89706],[-9.26256,42.89671],[-9.26275,42.89654],[-9.26253,42.89618],[-9.26262,42.8961],[-9.26255,42.89565],[-9.26265,42.89554],[-9.26278,42.89563],[-9.26301,42.89543],[-9.26273,42.89478],[-9.26254,42.89461],[-9.26272,42.89437],[-9.2626,42.89396],[-9.26279,42.89411],[-9.26284,42.89377],[-9.26328,42.89316],[-9.26363,42.89295],[-9.26434,42.89299],[-9.26459,42.89292],[-9.26487,42.8927],[-9.2648,42.89177],[-9.265,42.89146],[-9.26499,42.89127],[-9.26538,42.89081],[-9.26577,42.89064],[-9.26571,42.8905],[-9.26594,42.89009],[-9.26591,42.88998],[-9.26569,42.88988],[-9.2658,42.88952],[-9.26609,42.88941],[-9.26637,42.88915],[-9.26626,42.88878],[-9.2657,42.88864],[-9.26591,42.88832],[-9.26619,42.88836],[-9.26629,42.88802],[-9.26648,42.88783],[-9.26638,42.88776],[-9.26651,42.88736],[-9.2664,42.8869],[-9.26668,42.88654],[-9.26672,42.8866],[-9.26695,42.88654],[-9.26706,42.88635],[-9.26747,42.88632],[-9.26692,42.88571],[-9.26695,42.8856],[-9.26746,42.88584],[-9.26754,42.88565],[-9.26782,42.88555],[-9.26797,42.88521],[-9.26785,42.88505],[-9.26797,42.88486],[-9.26764,42.8848],[-9.26803,42.88459],[-9.26783,42.88442],[-9.2676,42.88391],[-9.26766,42.8838],[-9.26802,42.8839],[-9.26851,42.88379],[-9.26873,42.88348],[-9.2691,42.88339],[-9.269,42.88315],[-9.2693,42.88271],[-9.26953,42.88256],[-9.26948,42.88232],[-9.26979,42.8819],[-9.27,42.88129],[-9.26998,42.88071],[-9.27015,42.88038],[-9.27061,42.88019],[-9.27077,42.88038],[-9.27096,42.88038],[-9.27119,42.88014],[-9.27169,42.88019],[-9.27215,42.87998],[-9.27262,42.8799],[-9.27279,42.88008],[-9.27342,42.87988],[-9.27348,42.88],[-9.27386,42.8801],[-9.27436,42.88065],[-9.27417,42.88102],[-9.2745,42.88166],[-9.27496,42.88203],[-9.2743,42.8827],[-9.27475,42.88275],[-9.27487,42.88323],[-9.27513,42.88333],[-9.27519,42.8835],[-9.27499,42.88388],[-9.27516,42.88449],[-9.27488,42.88476],[-9.27488,42.88511],[-9.27477,42.88516],[-9.27489,42.88558],[-9.27526,42.88576],[-9.27517,42.88619],[-9.27547,42.88623],[-9.27589,42.8866],[-9.27565,42.8873],[-9.27591,42.88756],[-9.27615,42.88757],[-9.27652,42.88788],[-9.27655,42.8881],[-9.27691,42.88823],[-9.27694,42.8884],[-9.27774,42.88841],[-9.2779,42.88865],[-9.27825,42.88832],[-9.27831,42.88865],[-9.27858,42.8888],[-9.27869,42.88849],[-9.2789,42.8885],[-9.27875,42.88877],[-9.27879,42.88891],[-9.27926,42.88882],[-9.27936,42.88901],[-9.2797,42.88884],[-9.27978,42.88898],[-9.28047,42.88902],[-9.28041,42.88926],[-9.28072,42.8892],[-9.28092,42.88935],[-9.28153,42.88948],[-9.28164,42.88987],[-9.2816,42.89017],[-9.28184,42.89031],[-9.28194,42.89117],[-9.28171,42.89189],[-9.28173,42.89228],[-9.28199,42.89246],[-9.28197,42.89268],[-9.28237,42.89289],[-9.28221,42.89334],[-9.28224,42.89397],[-9.28124,42.89437],[-9.28091,42.89429],[-9.2808,42.89436],[-9.28091,42.89464],[-9.28075,42.89494],[-9.28042,42.89518],[-9.28036,42.89541],[-9.28009,42.89556],[-9.27986,42.89625],[-9.27936,42.89637],[-9.2794,42.89682],[-9.27962,42.89678],[-9.27978,42.89696],[-9.27985,42.89745],[-9.27981,42.89757],[-9.27943,42.89758],[-9.27954,42.89795],[-9.27903,42.89866],[-9.27899,42.89907],[-9.2788,42.89924],[-9.27874,42.89988],[-9.27391,42.90156],[-9.2678,42.90278],[-9.2673,42.90306],[-9.26687,42.90368],[-9.26626,42.90398],[-9.26553,42.90464],[-9.26409,42.90523],[-9.26402,42.90553],[-9.26343,42.90568],[-9.26299,42.90593],[-9.2625,42.90586],[-9.26239,42.90589],[-9.26239,42.90598],[-9.26108,42.90596]]]}},{"type":"Feature","properties":{"id":"1503701004"},"geometry":{"type":"Polygon","coordinates":[[[-9.23643,42.92753],[-9.23664,42.92767],[-9.23689,42.92754],[-9.23687,42.9274],[-9.23711,42.92742],[-9.23717,42.92709],[-9.23752,42.92699],[-9.23816,42.92719],[-9.23823,42.92706],[-9.23857,42.92713],[-9.23862,42.9274],[-9.23884,42.92739],[-9.23899,42.9276],[-9.23922,42.92752],[-9.23994,42.92754],[-9.2399,42.92737],[-9.24018,42.92731],[-9.2403,42.92715],[-9.2406,42.92712],[-9.24082,42.92762],[-9.24114,42.92762],[-9.24121,42.92785],[-9.24144,42.92796],[-9.2421,42.92807],[-9.24246,42.92794],[-9.24277,42.92758],[-9.24339,42.92738],[-9.24355,42.92719],[-9.24385,42.92718],[-9.24384,42.9267],[-9.24555,42.92608],[-9.24587,42.92599],[-9.24608,42.92622],[-9.24629,42.92613],[-9.24683,42.92614],[-9.24679,42.92607],[-9.24715,42.92581],[-9.24741,42.92581],[-9.24752,42.92566],[-9.2481,42.92561],[-9.24843,42.92574],[-9.24902,42.9257],[-9.24922,42.92555],[-9.24948,42.92554],[-9.24971,42.92573],[-9.25117,42.92556],[-9.25345,42.92489],[-9.25528,42.9242],[-9.25662,42.92366],[-9.25928,42.92227],[-9.26217,42.92018],[-9.26349,42.91888],[-9.2639,42.91755],[-9.26486,42.91604],[-9.26491,42.91543],[-9.26712,42.91553],[-9.26826,42.91486],[-9.26903,42.91496],[-9.27897,42.91113],[-9.27914,42.91152],[-9.27946,42.91166],[-9.2795,42.91195],[-9.27938,42.91209],[-9.2795,42.91237],[-9.27927,42.91268],[-9.27934,42.91305],[-9.27944,42.91307],[-9.27967,42.91287],[-9.27989,42.91301],[-9.27974,42.91321],[-9.27986,42.91347],[-9.27979,42.91362],[-9.27997,42.91359],[-9.28035,42.91322],[-9.28051,42.91322],[-9.28067,42.91339],[-9.28058,42.91363],[-9.28098,42.91414],[-9.281,42.9147],[-9.28145,42.91492],[-9.28155,42.91536],[-9.28141,42.91548],[-9.28144,42.91571],[-9.28113,42.9161],[-9.28119,42.91634],[-9.2811,42.91638],[-9.28098,42.91725],[-9.28183,42.91821],[-9.28218,42.91835],[-9.28254,42.91832],[-9.28271,42.91842],[-9.28268,42.91858],[-9.28251,42.91866],[-9.28283,42.91901],[-9.2829,42.91932],[-9.28344,42.91975],[-9.2837,42.9202],[-9.28385,42.92026],[-9.28404,42.92019],[-9.28407,42.92007],[-9.28428,42.92003],[-9.28468,42.92014],[-9.28592,42.91987],[-9.28653,42.92003],[-9.28685,42.91998],[-9.28747,42.91979],[-9.28753,42.91964],[-9.28788,42.91956],[-9.28876,42.9198],[-9.28894,42.92002],[-9.28927,42.91995],[-9.28945,42.92009],[-9.28978,42.9201],[-9.29014,42.91999],[-9.29038,42.92033],[-9.29062,42.92025],[-9.2907,42.91988],[-9.2911,42.91966],[-9.29149,42.91956],[-9.29186,42.91959],[-9.29212,42.91971],[-9.29257,42.92014],[-9.29334,42.92035],[-9.29389,42.921],[-9.29415,42.92104],[-9.29494,42.922],[-9.29562,42.9224],[-9.29624,42.92238],[-9.29648,42.92217],[-9.29674,42.92208],[-9.29703,42.92186],[-9.29709,42.9215],[-9.29793,42.92156],[-9.29824,42.92179],[-9.29841,42.92215],[-9.29833,42.92246],[-9.29848,42.92301],[-9.29833,42.92335],[-9.29809,42.92348],[-9.29756,42.92345],[-9.29705,42.92369],[-9.29695,42.92385],[-9.29729,42.92412],[-9.29718,42.92496],[-9.29673,42.9254],[-9.29604,42.92582],[-9.29607,42.92635],[-9.29574,42.92671],[-9.2956,42.92706],[-9.29542,42.92727],[-9.29389,42.92795],[-9.29386,42.92834],[-9.2937,42.92847],[-9.29361,42.92941],[-9.29325,42.92978],[-9.29303,42.9298],[-9.29285,42.92992],[-9.29275,42.93043],[-9.29297,42.9307],[-9.29297,42.93111],[-9.29255,42.93144],[-9.29214,42.93149],[-9.29193,42.93141],[-9.29172,42.93152],[-9.29172,42.93207],[-9.29219,42.93252],[-9.29232,42.93309],[-9.29223,42.93372],[-9.29206,42.93406],[-9.29221,42.93433],[-9.29222,42.9347],[-9.29207,42.93481],[-9.29213,42.93495],[-9.29242,42.93511],[-9.29247,42.9357],[-9.29241,42.93592],[-9.29205,42.93624],[-9.29215,42.93643],[-9.29202,42.93655],[-9.29167,42.93661],[-9.29068,42.93642],[-9.29045,42.93649],[-9.29,42.93706],[-9.29019,42.9377],[-9.2907,42.93767],[-9.29109,42.93805],[-9.29155,42.93806],[-9.29185,42.93824],[-9.29207,42.93854],[-9.29212,42.93879],[-9.29258,42.93903],[-9.29302,42.93966],[-9.2928,42.93988],[-9.29196,42.93997],[-9.29178,42.93987],[-9.29163,42.93952],[-9.29141,42.93933],[-9.2907,42.93885],[-9.29058,42.93887],[-9.29043,42.939],[-9.29035,42.93965],[-9.28981,42.94044],[-9.28944,42.94063],[-9.28932,42.94251],[-9.28948,42.94299],[-9.28922,42.94332],[-9.28913,42.94364],[-9.28869,42.94389],[-9.28841,42.94394],[-9.28807,42.94432],[-9.28763,42.94448],[-9.28743,42.94449],[-9.28704,42.94423],[-9.28672,42.9438],[-9.28618,42.94361],[-9.28619,42.94335],[-9.28601,42.94297],[-9.28576,42.94299],[-9.2854,42.94273],[-9.285,42.94263],[-9.28351,42.94282],[-9.28271,42.94321],[-9.28213,42.9441],[-9.28238,42.94426],[-9.28238,42.94477],[-9.28249,42.94501],[-9.28242,42.94514],[-9.28258,42.94541],[-9.28249,42.94584],[-9.28261,42.94609],[-9.28223,42.94632],[-9.28203,42.94613],[-9.28171,42.94631],[-9.28197,42.94653],[-9.28202,42.94675],[-9.28258,42.94688],[-9.28289,42.94861],[-9.27892,42.94947],[-9.27289,42.95093],[-9.25762,42.95047],[-9.24578,42.94887],[-9.242,42.94685],[-9.24038,42.93912],[-9.23643,42.92753]]]}},{"type":"Feature","properties":{"id":"1503701005"},"geometry":{"type":"Polygon","coordinates":[[[-9.22149,42.94282],[-9.2222,42.94283],[-9.22257,42.94273],[-9.2231,42.94224],[-9.22307,42.94167],[-9.22372,42.94158],[-9.22438,42.94119],[-9.22506,42.94112],[-9.22549,42.94084],[-9.2256,42.94063],[-9.22615,42.94076],[-9.2264,42.94102],[-9.22672,42.94059],[-9.22665,42.94012],[-9.22723,42.93964],[-9.22742,42.9397],[-9.2275,42.93956],[-9.22778,42.93949],[-9.22809,42.93954],[-9.22817,42.93972],[-9.22854,42.93985],[-9.22859,42.93994],[-9.22832,42.94027],[-9.22864,42.94054],[-9.2293,42.94156],[-9.22971,42.94167],[-9.2327,42.94106],[-9.23312,42.94092],[-9.23351,42.94061],[-9.23358,42.94039],[-9.23269,42.93935],[-9.23268,42.9392],[-9.2333,42.93912],[-9.23351,42.93885],[-9.2336,42.93856],[-9.23336,42.93838],[-9.23315,42.93772],[-9.23366,42.93736],[-9.23399,42.93744],[-9.23408,42.93734],[-9.23396,42.93688],[-9.23433,42.93629],[-9.23407,42.93626],[-9.23364,42.93601],[-9.23326,42.93556],[-9.23325,42.93537],[-9.23299,42.93525],[-9.23313,42.93455],[-9.23316,42.93347],[-9.23266,42.93362],[-9.23256,42.9335],[-9.23168,42.93351],[-9.2317,42.93319],[-9.23209,42.93292],[-9.23221,42.93256],[-9.23221,42.93221],[-9.23235,42.93192],[-9.23215,42.93173],[-9.23213,42.9315],[-9.23264,42.93118],[-9.23265,42.931],[-9.23286,42.93089],[-9.2335,42.93092],[-9.23362,42.93076],[-9.23339,42.93021],[-9.23318,42.93015],[-9.23277,42.92952],[-9.23254,42.9294],[-9.23263,42.92918],[-9.23249,42.92878],[-9.23263,42.92817],[-9.23285,42.928],[-9.23296,42.92752],[-9.23349,42.92695],[-9.23344,42.9268],[-9.23391,42.92664],[-9.23421,42.92631],[-9.23446,42.92623],[-9.23459,42.92636],[-9.23479,42.92629],[-9.23549,42.92648],[-9.23565,42.92673],[-9.23572,42.92723],[-9.236,42.92738],[-9.23608,42.92761],[-9.23626,42.92769],[-9.23643,42.92753],[-9.24038,42.93912],[-9.242,42.94685],[-9.24578,42.94887],[-9.25762,42.95047],[-9.27289,42.95093],[-9.27892,42.94947],[-9.28289,42.94861],[-9.28305,42.94903],[-9.28293,42.94959],[-9.28312,42.9496],[-9.28333,42.94948],[-9.2839,42.94968],[-9.28415,42.95034],[-9.28401,42.95061],[-9.28377,42.95072],[-9.28346,42.95074],[-9.28324,42.95089],[-9.28321,42.95113],[-9.28337,42.9515],[-9.28437,42.95174],[-9.28444,42.95199],[-9.28493,42.95231],[-9.28495,42.95265],[-9.28463,42.95402],[-9.28471,42.95422],[-9.28433,42.95509],[-9.28448,42.95549],[-9.28432,42.95561],[-9.2837,42.95571],[-9.28268,42.95577],[-9.28159,42.95526],[-9.28135,42.95531],[-9.2812,42.9555],[-9.28114,42.95605],[-9.28101,42.95621],[-9.28071,42.95629],[-9.28053,42.95667],[-9.28018,42.95659],[-9.27988,42.95635],[-9.2797,42.95647],[-9.27944,42.95632],[-9.2792,42.95633],[-9.27881,42.95657],[-9.27875,42.95719],[-9.27858,42.95736],[-9.27865,42.95819],[-9.2784,42.95812],[-9.27761,42.95863],[-9.27762,42.95918],[-9.27743,42.9593],[-9.2774,42.95946],[-9.27749,42.95959],[-9.27697,42.96051],[-9.27703,42.96086],[-9.27717,42.96106],[-9.27744,42.96119],[-9.27739,42.96138],[-9.27749,42.96154],[-9.27727,42.962],[-9.27708,42.962],[-9.27691,42.96238],[-9.27638,42.96271],[-9.27622,42.96232],[-9.27599,42.96208],[-9.27579,42.96208],[-9.27564,42.96221],[-9.27535,42.96204],[-9.27493,42.96214],[-9.27416,42.9617],[-9.27397,42.96178],[-9.27351,42.96229],[-9.27283,42.96217],[-9.27265,42.96233],[-9.27167,42.96252],[-9.27127,42.96268],[-9.27012,42.96343],[-9.2678,42.96584],[-9.26623,42.96724],[-9.26542,42.96845],[-9.26495,42.96879],[-9.26428,42.96964],[-9.264,42.96989],[-9.26352,42.97008],[-9.26281,42.9708],[-9.26287,42.97097],[-9.26305,42.97108],[-9.26301,42.97138],[-9.2625,42.97218],[-9.26247,42.97305],[-9.262,42.97371],[-9.26203,42.97399],[-9.26156,42.9748],[-9.26125,42.97564],[-9.261,42.97593],[-9.25704,42.97643],[-9.2485,42.97716],[-9.24691,42.97638],[-9.24695,42.97459],[-9.24578,42.97403],[-9.24479,42.9691],[-9.2383,42.96849],[-9.23783,42.96599],[-9.23816,42.96388],[-9.2378,42.96213],[-9.23729,42.96047],[-9.23697,42.96012],[-9.23653,42.95929],[-9.23474,42.95867],[-9.23238,42.95808],[-9.22215,42.95853],[-9.22242,42.95002],[-9.22095,42.94766],[-9.22149,42.94282]]]}}]}