{"type":"FeatureCollection","features":[{"type":"Feature","properties":{"id":"1503401001"},"geometry":{"type":"Polygon","coordinates":[[[-9.10699,43.06052],[-9.10772,43.05471],[-9.10764,43.05113],[-9.10089,43.04939],[-9.09833,43.0469],[-9.09593,43.04426],[-9.0956,43.04368],[-9.09483,43.04367],[-9.09161,43.04461],[-9.09083,43.04469],[-9.09005,43.04328],[-9.08956,43.04174],[-9.08873,43.03838],[-9.08668,43.03228],[-9.08216,43.03141],[-9.07934,43.03318],[-9.07813,43.0343],[-9.0769,43.03612],[-9.07361,43.03793],[-9.0727,43.03911],[-9.07151,43.04192],[-9.07063,43.04187],[-9.06743,43.04134],[-9.06435,43.04052],[-9.06342,43.04076],[-9.05941,43.04259],[-9.05758,43.03952],[-9.05655,43.03744],[-9.05546,43.03386],[-9.05545,43.03001],[-9.05382,43.02723],[-9.055,43.02388],[-9.05647,43.02246],[-9.05897,43.02054],[-9.05591,43.01908],[-9.05232,43.0177],[-9.04855,43.01816],[-9.04669,43.01799],[-9.04604,43.01774],[-9.04239,43.01681],[-9.03867,43.01513],[-9.04465,43.00945],[-9.05189,43.00396],[-9.05969,42.99885],[-9.06114,42.99645],[-9.06053,42.99078],[-9.06342,42.98866],[-9.06336,42.98582],[-9.06451,42.98458],[-9.06993,42.98174],[-9.07071,42.97784],[-9.0727,42.9746],[-9.07758,42.97092],[-9.08307,42.96844],[-9.08826,42.96657],[-9.09702,42.97326],[-9.10988,42.98273],[-9.11079,42.98312],[-9.11188,42.98326],[-9.11266,42.98312],[-9.11327,42.98365],[-9.11339,42.98445],[-9.11309,42.98489],[-9.11309,42.98565],[-9.11936,42.984],[-9.12584,42.99365],[-9.12651,42.99512],[-9.12645,42.99627],[-9.12687,42.99737],[-9.12609,42.99848],[-9.1267,42.99932],[-9.12772,42.99981],[-9.12851,43.00101],[-9.12996,43.00207],[-9.13045,43.00335],[-9.12978,43.00384],[-9.1296,43.00482],[-9.13021,43.00526],[-9.13699,43.01438],[-9.13736,43.01526],[-9.13814,43.0157],[-9.13857,43.01663],[-9.13941,43.01717],[-9.14002,43.01774],[-9.1408,43.01809],[-9.14099,43.01871],[-9.14087,43.0192],[-9.14032,43.01969],[-9.14033,43.02031],[-9.14099,43.02111],[-9.14093,43.02155],[-9.14136,43.02217],[-9.14148,43.02288],[-9.14179,43.02354],[-9.13583,43.02387],[-9.13717,43.03274],[-9.13613,43.03338],[-9.1356,43.03425],[-9.13529,43.0344],[-9.13405,43.03467],[-9.13366,43.03502],[-9.13341,43.03544],[-9.13321,43.03631],[-9.13318,43.03735],[-9.13329,43.03765],[-9.13354,43.03787],[-9.13402,43.03809],[-9.13442,43.03847],[-9.13463,43.03933],[-9.13475,43.04073],[-9.13515,43.04264],[-9.13487,43.04373],[-9.13508,43.04436],[-9.13626,43.0458],[-9.13687,43.04635],[-9.13703,43.04671],[-9.13694,43.04711],[-9.13656,43.0474],[-9.136,43.04758],[-9.1345,43.04765],[-9.13297,43.0485],[-9.1328,43.0488],[-9.1328,43.04944],[-9.13264,43.05007],[-9.13234,43.05051],[-9.13142,43.05067],[-9.1304,43.05047],[-9.1298,43.05047],[-9.12929,43.05065],[-9.12854,43.05171],[-9.12797,43.05186],[-9.12671,43.05176],[-9.12591,43.05159],[-9.12542,43.05132],[-9.12488,43.05038],[-9.12445,43.05016],[-9.1238,43.05017],[-9.12054,43.05083],[-9.12032,43.05096],[-9.11999,43.05128],[-9.11977,43.05185],[-9.11984,43.05265],[-9.11908,43.05303],[-9.11891,43.05326],[-9.11865,43.05542],[-9.11942,43.05607],[-9.11945,43.05636],[-9.11914,43.05684],[-9.11835,43.05729],[-9.11755,43.05761],[-9.11704,43.05798],[-9.1168,43.05859],[-9.11605,43.05945],[-9.116,43.05983],[-9.11626,43.06003],[-9.11726,43.06024],[-9.11735,43.06037],[-9.11727,43.06073],[-9.11643,43.06192],[-9.11603,43.06217],[-9.11548,43.06225],[-9.11493,43.06294],[-9.11419,43.0631],[-9.11378,43.06289],[-9.11368,43.0626],[-9.11393,43.06183],[-9.11387,43.0616],[-9.11363,43.06142],[-9.11293,43.06118],[-9.11217,43.06019],[-9.11103,43.05955],[-9.10786,43.0595],[-9.10753,43.05969],[-9.10699,43.06052]]]}},{"type":"Feature","properties":{"id":"1503401002"},"geometry":{"type":"Polygon","coordinates":[[[-9.0926,42.938],[-9.09288,42.93774],[-9.09306,42.93738],[-9.09323,42.93637],[-9.09358,42.93547],[-9.09383,42.9351],[-9.09464,42.93442],[-9.09643,42.93351],[-9.0997,42.93133],[-9.10056,42.93063],[-9.10112,42.9293],[-9.10105,42.92833],[-9.10134,42.92707],[-9.10122,42.92656],[-9.10098,42.92638],[-9.10034,42.92538],[-9.09906,42.92388],[-9.09892,42.92335],[-9.09895,42.92317],[-9.0992,42.923],[-9.09985,42.92287],[-9.10065,42.92291],[-9.10096,42.92284],[-9.10132,42.92241],[-9.10131,42.92149],[-9.10216,42.92014],[-9.10222,42.91972],[-9.10211,42.91937],[-9.10116,42.91795],[-9.10111,42.91762],[-9.10145,42.91668],[-9.10196,42.91626],[-9.10236,42.91578],[-9.10364,42.91518],[-9.10452,42.91488],[-9.10779,42.91423],[-9.10825,42.91404],[-9.10837,42.9138],[-9.10876,42.91368],[-9.10931,42.91385],[-9.11139,42.91533],[-9.11192,42.91499],[-9.11334,42.91451],[-9.11445,42.91464],[-9.11557,42.91426],[-9.11624,42.91363],[-9.11671,42.91258],[-9.11725,42.91254],[-9.1176,42.91262],[-9.11854,42.91252],[-9.12012,42.91223],[-9.12142,42.9123],[-9.12343,42.91212],[-9.12377,42.912],[-9.12425,42.91159],[-9.12434,42.91125],[-9.12365,42.90966],[-9.1237,42.90836],[-9.12388,42.90765],[-9.12387,42.90657],[-9.12396,42.90603],[-9.12412,42.90578],[-9.12445,42.90563],[-9.12581,42.90544],[-9.12647,42.90571],[-9.12756,42.90638],[-9.12801,42.90593],[-9.1278,42.90537],[-9.12784,42.90517],[-9.12874,42.90472],[-9.12897,42.90504],[-9.12865,42.90661],[-9.12876,42.90687],[-9.12896,42.90701],[-9.12977,42.90721],[-9.12997,42.90736],[-9.13014,42.90785],[-9.13067,42.90829],[-9.13151,42.9094],[-9.13183,42.90957],[-9.13209,42.90955],[-9.1324,42.90935],[-9.13257,42.90946],[-9.13286,42.91015],[-9.13334,42.91055],[-9.13362,42.91071],[-9.13404,42.91074],[-9.13484,42.91055],[-9.1359,42.91044],[-9.1365,42.91073],[-9.13713,42.91061],[-9.13749,42.91069],[-9.13801,42.9104],[-9.14059,42.91315],[-9.13852,42.91932],[-9.13886,42.92394],[-9.13767,42.9277],[-9.13655,42.93247],[-9.1366,42.93575],[-9.13109,42.93695],[-9.12491,42.93876],[-9.11933,42.94088],[-9.11657,42.94265],[-9.11105,42.94482],[-9.10474,42.9456],[-9.10051,42.94567],[-9.09321,42.94322],[-9.09271,42.94274],[-9.09271,42.94211],[-9.09327,42.94175],[-9.09335,42.9409],[-9.09326,42.9392],[-9.0926,42.938]]]}},{"type":"Feature","properties":{"id":"1503402001"},"geometry":{"type":"Polygon","coordinates":[[[-9.00398,43.0055],[-9.00046,43.00095],[-8.99916,42.99882],[-9.00075,42.99586],[-9.00201,42.99415],[-9.00231,42.99397],[-9.00275,42.99395],[-9.00371,42.99453],[-9.0042,42.99466],[-9.00468,42.99459],[-9.00499,42.99442],[-9.00546,42.99393],[-9.00661,42.99214],[-9.00755,42.99118],[-9.00759,42.99099],[-9.00724,42.99026],[-9.00739,42.98972],[-9.00873,42.9888],[-9.00985,42.98825],[-9.01126,42.98778],[-9.00764,42.97698],[-9.02056,42.97602],[-9.02053,42.97328],[-9.02036,42.97253],[-9.01798,42.96974],[-9.01758,42.96911],[-9.0173,42.96831],[-9.01672,42.96739],[-9.01549,42.96666],[-9.0153,42.96639],[-9.01517,42.9649],[-9.01535,42.96423],[-9.01591,42.96321],[-9.01671,42.96264],[-9.01772,42.96239],[-9.01988,42.96262],[-9.02142,42.96225],[-9.02272,42.96151],[-9.02518,42.96079],[-9.03,42.96054],[-9.03144,42.96015],[-9.03184,42.95984],[-9.03201,42.95939],[-9.03206,42.95767],[-9.03306,42.95651],[-9.03421,42.9562],[-9.03457,42.95632],[-9.03479,42.95661],[-9.03512,42.9593],[-9.03608,42.96011],[-9.03716,42.9605],[-9.03772,42.96037],[-9.03893,42.95975],[-9.03948,42.95971],[-9.04035,42.95985],[-9.04129,42.96012],[-9.04241,42.96085],[-9.04309,42.96117],[-9.04381,42.96126],[-9.04446,42.96123],[-9.04491,42.96138],[-9.04583,42.96202],[-9.04903,42.96358],[-9.05,42.96375],[-9.05065,42.96381],[-9.05223,42.9631],[-9.05314,42.96295],[-9.05482,42.96319],[-9.0557,42.96367],[-9.05656,42.96438],[-9.0569,42.96511],[-9.05725,42.96546],[-9.05749,42.9661],[-9.05868,42.96675],[-9.05931,42.96665],[-9.06108,42.96513],[-9.06094,42.96413],[-9.06027,42.96322],[-9.06017,42.96261],[-9.06032,42.96242],[-9.06318,42.96454],[-9.06355,42.9644],[-9.06499,42.96569],[-9.06541,42.96573],[-9.06592,42.96631],[-9.06634,42.96754],[-9.06764,42.96771],[-9.07122,42.9705],[-9.07521,42.97271],[-9.0727,42.9746],[-9.07071,42.97784],[-9.06993,42.98174],[-9.06451,42.98458],[-9.06336,42.98582],[-9.06342,42.98866],[-9.06053,42.99078],[-9.06114,42.99645],[-9.05969,42.99885],[-9.05189,43.00396],[-9.04465,43.00945],[-9.03867,43.01513],[-9.03564,43.01514],[-9.02777,43.01273],[-9.02143,43.01121],[-9.01828,43.01075],[-9.01554,43.01005],[-9.01362,43.00926],[-9.01149,43.00791],[-9.00816,43.00613],[-9.00398,43.0055]]]}},{"type":"Feature","properties":{"id":"1503402002"},"geometry":{"type":"Polygon","coordinates":[[[-9.14179,43.02354],[-9.14148,43.02288],[-9.14136,43.02217],[-9.14093,43.02155],[-9.14099,43.02111],[-9.14033,43.02031],[-9.14032,43.01969],[-9.14087,43.0192],[-9.14099,43.01871],[-9.1408,43.01809],[-9.14002,43.01774],[-9.13941,43.01717],[-9.13857,43.01663],[-9.13814,43.0157],[-9.13736,43.01526],[-9.13699,43.01438],[-9.13021,43.00526],[-9.1296,43.00482],[-9.12978,43.00384],[-9.13045,43.00335],[-9.12996,43.00207],[-9.12851,43.00101],[-9.12772,42.99981],[-9.1267,42.99932],[-9.12609,42.99848],[-9.12687,42.99737],[-9.12645,42.99627],[-9.12651,42.99512],[-9.12584,42.99365],[-9.11936,42.984],[-9.11309,42.98565],[-9.11309,42.98489],[-9.11339,42.98445],[-9.11327,42.98365],[-9.11266,42.98312],[-9.11188,42.98326],[-9.11079,42.98312],[-9.10988,42.98273],[-9.09702,42.97326],[-9.08826,42.96657],[-9.08307,42.96844],[-9.07758,42.97092],[-9.07521,42.97271],[-9.07122,42.9705],[-9.06764,42.96771],[-9.06634,42.96754],[-9.06592,42.96631],[-9.06541,42.96573],[-9.06499,42.96569],[-9.06355,42.9644],[-9.06318,42.96454],[-9.06032,42.96242],[-9.0607,42.96218],[-9.06149,42.96204],[-9.0625,42.96167],[-9.06399,42.96098],[-9.06448,42.96088],[-9.06541,42.96093],[-9.06579,42.96083],[-9.06779,42.95961],[-9.06928,42.95927],[-9.07099,42.9587],[-9.07145,42.95845],[-9.07176,42.95818],[-9.07225,42.9562],[-9.07262,42.95575],[-9.07352,42.95566],[-9.07385,42.95579],[-9.07438,42.9563],[-9.07542,42.9568],[-9.07577,42.95684],[-9.07626,42.95674],[-9.07752,42.95622],[-9.07786,42.95592],[-9.07809,42.95554],[-9.07819,42.95442],[-9.0787,42.9535],[-9.07981,42.94932],[-9.08073,42.94837],[-9.08099,42.94824],[-9.08127,42.94822],[-9.08158,42.94831],[-9.08239,42.94871],[-9.08309,42.94875],[-9.08339,42.94854],[-9.08355,42.94803],[-9.08303,42.94703],[-9.08246,42.94506],[-9.08148,42.94344],[-9.08068,42.94133],[-9.08056,42.94028],[-9.0806,42.9399],[-9.08112,42.93874],[-9.08154,42.93821],[-9.0827,42.93743],[-9.08291,42.93683],[-9.08223,42.93508],[-9.0822,42.93485],[-9.08232,42.93463],[-9.08272,42.93449],[-9.08334,42.93456],[-9.08511,42.93573],[-9.08639,42.93616],[-9.08699,42.93655],[-9.08853,42.93687],[-9.09183,42.93798],[-9.0926,42.938],[-9.09326,42.9392],[-9.09335,42.9409],[-9.09327,42.94175],[-9.09271,42.94211],[-9.09271,42.94274],[-9.09321,42.94322],[-9.10051,42.94567],[-9.10474,42.9456],[-9.11105,42.94482],[-9.11657,42.94265],[-9.11933,42.94088],[-9.12491,42.93876],[-9.13109,42.93695],[-9.1366,42.93575],[-9.13662,42.93704],[-9.14103,42.94286],[-9.14255,42.94853],[-9.14559,42.94963],[-9.15247,42.95351],[-9.15636,42.95515],[-9.1574,42.95585],[-9.15731,42.95623],[-9.15776,42.95704],[-9.15761,42.95786],[-9.157,42.95844],[-9.15558,42.95895],[-9.15689,42.95972],[-9.15701,42.96001],[-9.15679,42.96056],[-9.15677,42.96108],[-9.15688,42.96131],[-9.15934,42.9646],[-9.15996,42.9661],[-9.16057,42.9668],[-9.16058,42.96733],[-9.16145,42.96898],[-9.16154,42.96991],[-9.16183,42.97063],[-9.16202,42.97225],[-9.1625,42.97352],[-9.16303,42.97411],[-9.16428,42.9771],[-9.15462,42.98525],[-9.15679,42.98579],[-9.15806,42.98647],[-9.15848,42.98692],[-9.15872,42.98741],[-9.15925,42.98931],[-9.15931,42.99118],[-9.15947,42.9915],[-9.16042,42.99185],[-9.16071,42.99211],[-9.16164,42.99391],[-9.16235,42.99476],[-9.16246,42.9955],[-9.16296,42.99617],[-9.16313,42.99691],[-9.16396,42.99792],[-9.16388,42.99862],[-9.16346,42.99907],[-9.16356,42.99956],[-9.16386,42.99999],[-9.16381,43.00009],[-9.16486,43.00096],[-9.16497,43.00152],[-9.1693,43.0045],[-9.17225,43.00609],[-9.17395,43.00654],[-9.17615,43.00747],[-9.17735,43.00927],[-9.18315,43.00899],[-9.18309,43.00978],[-9.18298,43.00987],[-9.18213,43.00987],[-9.18196,43.01],[-9.1818,43.01035],[-9.18207,43.0128],[-9.18113,43.01443],[-9.18059,43.01584],[-9.1802,43.01697],[-9.17984,43.01893],[-9.17936,43.01974],[-9.17811,43.02114],[-9.17715,43.02276],[-9.17695,43.02323],[-9.17683,43.02618],[-9.17669,43.02664],[-9.17632,43.027],[-9.17529,43.02769],[-9.17495,43.02806],[-9.17498,43.02886],[-9.17522,43.02967],[-9.17509,43.02993],[-9.17454,43.03021],[-9.17392,43.03028],[-9.17306,43.03017],[-9.16901,43.02862],[-9.16663,43.02845],[-9.16604,43.02832],[-9.1655,43.02795],[-9.16367,43.02456],[-9.16279,43.02324],[-9.16238,43.02293],[-9.1618,43.0228],[-9.16098,43.02287],[-9.16035,43.02318],[-9.15964,43.02397],[-9.15946,43.02401],[-9.15859,43.02376],[-9.15832,43.02301],[-9.15781,43.02272],[-9.15624,43.02233],[-9.15523,43.0223],[-9.15385,43.02243],[-9.15254,43.0229],[-9.15171,43.02299],[-9.14179,43.02354]]]}}]}