{"type":"FeatureCollection","features":[{"type":"Feature","properties":{"id":"1503101001"},"geometry":{"type":"Polygon","coordinates":[[[-8.36453,43.31306],[-8.36335,43.31272],[-8.36167,43.31246],[-8.35771,43.31216],[-8.35648,43.31097],[-8.35515,43.31081],[-8.3544,43.31018],[-8.35378,43.30945],[-8.35365,43.309],[-8.3537,43.30858],[-8.3542,43.3079],[-8.35548,43.30733],[-8.35657,43.30751],[-8.35724,43.30778],[-8.35748,43.30763],[-8.35851,43.30603],[-8.35854,43.30574],[-8.35836,43.30542],[-8.35748,43.30454],[-8.35729,43.30405],[-8.35812,43.30324],[-8.35751,43.30218],[-8.35746,43.30166],[-8.35764,43.30149],[-8.35834,43.30126],[-8.35868,43.30093],[-8.35919,43.30004],[-8.35984,43.29931],[-8.36036,43.29898],[-8.36093,43.29789],[-8.36183,43.29738],[-8.3629,43.29568],[-8.36367,43.29499],[-8.36395,43.29487],[-8.36579,43.29474],[-8.36608,43.29462],[-8.36629,43.29442],[-8.36606,43.29404],[-8.36657,43.29379],[-8.3683,43.29158],[-8.37013,43.29544],[-8.37082,43.29776],[-8.37485,43.29946],[-8.37699,43.29988],[-8.38008,43.30359],[-8.37759,43.30489],[-8.37677,43.30583],[-8.37578,43.30821],[-8.3761,43.30833],[-8.37699,43.30711],[-8.37833,43.30765],[-8.37866,43.30824],[-8.37851,43.30889],[-8.37926,43.30906],[-8.37966,43.30954],[-8.37945,43.30979],[-8.3783,43.31026],[-8.37627,43.31143],[-8.37531,43.31154],[-8.37418,43.312],[-8.374,43.31224],[-8.37426,43.31273],[-8.37441,43.31361],[-8.3726,43.31392],[-8.36917,43.31376],[-8.36691,43.31347],[-8.36513,43.31304],[-8.36453,43.31306]]]}},{"type":"Feature","properties":{"id":"1503101002"},"geometry":{"type":"Polygon","coordinates":[[[-8.36453,43.31306],[-8.36513,43.31304],[-8.36691,43.31347],[-8.36835,43.31368],[-8.3726,43.31392],[-8.37254,43.3141],[-8.37116,43.3142],[-8.36935,43.31463],[-8.36804,43.31462],[-8.36747,43.31473],[-8.36733,43.31538],[-8.36603,43.3158],[-8.36462,43.31458],[-8.36445,43.31429],[-8.36453,43.31306]]]}},{"type":"Feature","properties":{"id":"1503101003"},"geometry":{"type":"Polygon","coordinates":[[[-8.36603,43.3158],[-8.36733,43.31538],[-8.36744,43.31487],[-8.36812,43.31481],[-8.36801,43.31518],[-8.36823,43.31535],[-8.36874,43.3154],[-8.36878,43.31518],[-8.37027,43.31536],[-8.37006,43.31619],[-8.37062,43.31627],[-8.37125,43.31426],[-8.37136,43.31417],[-8.37179,43.3141],[-8.37254,43.3141],[-8.37127,43.31821],[-8.37027,43.31792],[-8.36984,43.31798],[-8.36935,43.31788],[-8.36839,43.31757],[-8.36792,43.31727],[-8.36778,43.31689],[-8.36635,43.3161],[-8.36603,43.3158]]]}},{"type":"Feature","properties":{"id":"1503101004"},"geometry":{"type":"Polygon","coordinates":[[[-8.37088,43.31871],[-8.37143,43.31833],[-8.37124,43.31819],[-8.3726,43.31392],[-8.37441,43.31361],[-8.37569,43.31355],[-8.37304,43.31732],[-8.37249,43.31923],[-8.37088,43.31871]]]}},{"type":"Feature","properties":{"id":"1503101005"},"geometry":{"type":"Polygon","coordinates":[[[-8.35962,43.31228],[-8.36167,43.31246],[-8.36335,43.31272],[-8.36453,43.31306],[-8.36445,43.31429],[-8.36462,43.31458],[-8.36635,43.3161],[-8.36778,43.31689],[-8.36792,43.31727],[-8.36839,43.31757],[-8.36984,43.31798],[-8.37027,43.31792],[-8.37127,43.31821],[-8.37143,43.31833],[-8.37088,43.31871],[-8.36513,43.31681],[-8.36349,43.31615],[-8.36235,43.31519],[-8.36078,43.31328],[-8.35962,43.31228]]]}},{"type":"Feature","properties":{"id":"1503101006"},"geometry":{"type":"Polygon","coordinates":[[[-8.36744,43.31487],[-8.36747,43.31473],[-8.36804,43.31462],[-8.36935,43.31463],[-8.37136,43.31417],[-8.37114,43.31442],[-8.37062,43.31627],[-8.37006,43.31619],[-8.37027,43.31536],[-8.36878,43.31518],[-8.36874,43.3154],[-8.36823,43.31535],[-8.36801,43.31518],[-8.36812,43.31481],[-8.36744,43.31487]]]}},{"type":"Feature","properties":{"id":"1503101007"},"geometry":{"type":"Polygon","coordinates":[[[-8.36774,43.32149],[-8.3651,43.32067],[-8.36265,43.32038],[-8.3618,43.32001],[-8.36137,43.31945],[-8.36061,43.31797],[-8.36018,43.31653],[-8.36013,43.31497],[-8.3586,43.31271],[-8.35771,43.31216],[-8.35962,43.31228],[-8.36078,43.31328],[-8.36235,43.31519],[-8.36349,43.31615],[-8.36513,43.31681],[-8.37088,43.31871],[-8.36774,43.32149]]]}},{"type":"Feature","properties":{"id":"1503102001"},"geometry":{"type":"Polygon","coordinates":[[[-8.37426,43.32505],[-8.37679,43.32295],[-8.3777,43.32191],[-8.37815,43.32157],[-8.37824,43.32122],[-8.38131,43.32261],[-8.38143,43.32281],[-8.38148,43.32375],[-8.38185,43.32444],[-8.3821,43.32459],[-8.3836,43.32499],[-8.38414,43.32492],[-8.38459,43.32521],[-8.38472,43.32542],[-8.38466,43.3257],[-8.38382,43.32609],[-8.3815,43.32648],[-8.3814,43.32621],[-8.38027,43.32635],[-8.37562,43.32791],[-8.37463,43.32568],[-8.37426,43.32505]]]}},{"type":"Feature","properties":{"id":"1503102002"},"geometry":{"type":"Polygon","coordinates":[[[-8.38354,43.32291],[-8.38393,43.32126],[-8.38321,43.32102],[-8.38294,43.3204],[-8.38236,43.31996],[-8.38199,43.31934],[-8.38144,43.31905],[-8.38114,43.31872],[-8.38075,43.31852],[-8.38102,43.31824],[-8.38076,43.31763],[-8.38127,43.31704],[-8.38147,43.3165],[-8.38219,43.31608],[-8.38087,43.31563],[-8.38139,43.31434],[-8.38116,43.31411],[-8.38173,43.31322],[-8.38324,43.31343],[-8.38367,43.31675],[-8.38379,43.31704],[-8.38519,43.31688],[-8.38535,43.31792],[-8.3857,43.31791],[-8.38601,43.31824],[-8.38648,43.31834],[-8.38665,43.31853],[-8.38661,43.31877],[-8.38774,43.31848],[-8.39066,43.31891],[-8.39105,43.31918],[-8.39159,43.31977],[-8.39245,43.32009],[-8.39263,43.32248],[-8.39292,43.32378],[-8.39122,43.32265],[-8.39029,43.32244],[-8.38915,43.32194],[-8.38782,43.32169],[-8.38731,43.32175],[-8.38669,43.32203],[-8.38645,43.32196],[-8.38605,43.32205],[-8.3849,43.323],[-8.38449,43.32279],[-8.38418,43.32243],[-8.38404,43.32248],[-8.38373,43.32292],[-8.38354,43.32291]]]}},{"type":"Feature","properties":{"id":"1503102003"},"geometry":{"type":"Polygon","coordinates":[[[-8.37441,43.31361],[-8.37426,43.31273],[-8.374,43.31224],[-8.37418,43.312],[-8.37531,43.31154],[-8.37627,43.31143],[-8.3783,43.31026],[-8.37945,43.30979],[-8.37966,43.30954],[-8.37926,43.30906],[-8.37851,43.30889],[-8.37866,43.30824],[-8.37833,43.30765],[-8.37699,43.30711],[-8.3761,43.30833],[-8.37578,43.30821],[-8.37677,43.30583],[-8.37759,43.30489],[-8.37947,43.30391],[-8.3805,43.30525],[-8.38069,43.30537],[-8.38052,43.30598],[-8.38069,43.30625],[-8.381,43.3065],[-8.38135,43.30659],[-8.38213,43.30659],[-8.38247,43.30672],[-8.38286,43.307],[-8.38315,43.30751],[-8.38326,43.30802],[-8.3827,43.31001],[-8.3814,43.31006],[-8.38076,43.3106],[-8.37983,43.3109],[-8.37972,43.31116],[-8.37932,43.31145],[-8.3774,43.31223],[-8.37602,43.31291],[-8.37562,43.31356],[-8.37441,43.31361]]]}},{"type":"Feature","properties":{"id":"1503102004"},"geometry":{"type":"Polygon","coordinates":[[[-8.39093,43.30343],[-8.39426,43.30199],[-8.39837,43.30166],[-8.40399,43.30101],[-8.40818,43.301],[-8.41115,43.30053],[-8.41518,43.29952],[-8.41648,43.30102],[-8.41547,43.30122],[-8.41554,43.30135],[-8.4151,43.30124],[-8.41505,43.30205],[-8.41516,43.30275],[-8.41543,43.3039],[-8.41572,43.30431],[-8.41495,43.30432],[-8.41451,43.3046],[-8.41431,43.3049],[-8.4141,43.3053],[-8.414,43.30595],[-8.41426,43.30688],[-8.41464,43.30747],[-8.41511,43.30787],[-8.41683,43.30875],[-8.41844,43.30932],[-8.42041,43.30944],[-8.42057,43.30979],[-8.41944,43.31178],[-8.41944,43.31245],[-8.41986,43.31325],[-8.4163,43.31403],[-8.41593,43.31418],[-8.41564,43.31446],[-8.41567,43.31473],[-8.41607,43.31517],[-8.41729,43.31607],[-8.41774,43.31663],[-8.4158,43.31818],[-8.41447,43.31956],[-8.41479,43.32015],[-8.41484,43.3206],[-8.41461,43.32123],[-8.41415,43.32161],[-8.41335,43.32192],[-8.41278,43.32196],[-8.41153,43.32241],[-8.41066,43.32244],[-8.40996,43.32262],[-8.40948,43.32221],[-8.40448,43.32241],[-8.39871,43.32163],[-8.39322,43.32376],[-8.39292,43.32378],[-8.39263,43.32248],[-8.39245,43.32009],[-8.39159,43.31977],[-8.39105,43.31918],[-8.39066,43.31891],[-8.38774,43.31848],[-8.38661,43.31877],[-8.38665,43.31853],[-8.38648,43.31834],[-8.38601,43.31824],[-8.3857,43.31791],[-8.38535,43.31792],[-8.38519,43.31688],[-8.38379,43.31704],[-8.38367,43.31675],[-8.38324,43.31343],[-8.38531,43.31374],[-8.38729,43.31431],[-8.38845,43.31307],[-8.38906,43.31287],[-8.38912,43.3127],[-8.38992,43.3126],[-8.38974,43.31206],[-8.38899,43.3119],[-8.38839,43.31147],[-8.38802,43.31133],[-8.39093,43.30343]]]}},{"type":"Feature","properties":{"id":"1503102005"},"geometry":{"type":"Polygon","coordinates":[[[-8.37824,43.32122],[-8.37873,43.32047],[-8.37898,43.31961],[-8.38044,43.31766],[-8.38053,43.31658],[-8.38087,43.31563],[-8.38219,43.31608],[-8.38147,43.3165],[-8.38127,43.31704],[-8.38076,43.31763],[-8.38102,43.31824],[-8.38075,43.31852],[-8.38114,43.31872],[-8.38144,43.31905],[-8.38199,43.31934],[-8.38236,43.31996],[-8.38294,43.3204],[-8.38321,43.32102],[-8.38393,43.32126],[-8.38368,43.32232],[-8.38259,43.3222],[-8.38272,43.32478],[-8.3821,43.32459],[-8.38164,43.32417],[-8.38148,43.32375],[-8.38143,43.32281],[-8.38131,43.32261],[-8.37824,43.32122]]]}},{"type":"Feature","properties":{"id":"1503102006"},"geometry":{"type":"Polygon","coordinates":[[[-8.38324,43.31343],[-8.38262,43.31153],[-8.3827,43.31001],[-8.38327,43.30785],[-8.38286,43.307],[-8.38247,43.30672],[-8.38213,43.30659],[-8.38135,43.30659],[-8.381,43.3065],[-8.38069,43.30625],[-8.38052,43.30598],[-8.38069,43.30537],[-8.3815,43.30553],[-8.38191,43.30605],[-8.38212,43.30598],[-8.38277,43.30604],[-8.38324,43.30598],[-8.38363,43.30582],[-8.38389,43.30584],[-8.38485,43.3047],[-8.38695,43.30419],[-8.39093,43.30343],[-8.38802,43.31133],[-8.38839,43.31147],[-8.38899,43.3119],[-8.38974,43.31206],[-8.38992,43.3126],[-8.38912,43.3127],[-8.38906,43.31287],[-8.38845,43.31307],[-8.38729,43.31431],[-8.38531,43.31374],[-8.38324,43.31343]]]}},{"type":"Feature","properties":{"id":"1503102007"},"geometry":{"type":"Polygon","coordinates":[[[-8.37562,43.32791],[-8.38027,43.32635],[-8.3814,43.32621],[-8.3815,43.32648],[-8.38382,43.32609],[-8.38466,43.3257],[-8.38472,43.32542],[-8.38459,43.32521],[-8.38414,43.32492],[-8.38454,43.3248],[-8.38525,43.32492],[-8.38614,43.32623],[-8.38221,43.32877],[-8.37855,43.33024],[-8.37811,43.3301],[-8.37649,43.32891],[-8.37562,43.32791]]]}},{"type":"Feature","properties":{"id":"1503102008"},"geometry":{"type":"Polygon","coordinates":[[[-8.37426,43.32505],[-8.37267,43.32345],[-8.37066,43.32274],[-8.36971,43.32251],[-8.3686,43.32176],[-8.36774,43.32149],[-8.37088,43.31871],[-8.37249,43.31923],[-8.37304,43.31732],[-8.37569,43.31355],[-8.37562,43.31356],[-8.37602,43.31291],[-8.3774,43.31223],[-8.37932,43.31145],[-8.37972,43.31116],[-8.37983,43.3109],[-8.38076,43.3106],[-8.3814,43.31006],[-8.3827,43.31001],[-8.38262,43.31153],[-8.38324,43.31343],[-8.38173,43.31322],[-8.38125,43.31393],[-8.38116,43.31411],[-8.38139,43.31434],[-8.38053,43.31658],[-8.38044,43.31766],[-8.37898,43.31961],[-8.37873,43.32047],[-8.37824,43.32122],[-8.37815,43.32157],[-8.3777,43.32191],[-8.37679,43.32295],[-8.37426,43.32505]]]}},{"type":"Feature","properties":{"id":"1503102009"},"geometry":{"type":"Polygon","coordinates":[[[-8.38454,43.3248],[-8.3836,43.32499],[-8.38272,43.32478],[-8.38259,43.3222],[-8.38368,43.32232],[-8.38354,43.32291],[-8.38373,43.32292],[-8.38404,43.32248],[-8.38418,43.32243],[-8.38449,43.32279],[-8.3849,43.323],[-8.38605,43.32205],[-8.38645,43.32196],[-8.38669,43.32203],[-8.38731,43.32175],[-8.38782,43.32169],[-8.38915,43.32194],[-8.39029,43.32244],[-8.39122,43.32265],[-8.39291,43.32378],[-8.38964,43.32398],[-8.38614,43.32623],[-8.38525,43.32492],[-8.38454,43.3248]]]}},{"type":"Feature","properties":{"id":"1503103001"},"geometry":{"type":"Polygon","coordinates":[[[-8.38277,43.30604],[-8.38191,43.30605],[-8.3815,43.30553],[-8.38069,43.30537],[-8.3805,43.30525],[-8.37947,43.30391],[-8.38008,43.30359],[-8.37699,43.29988],[-8.37485,43.29946],[-8.37082,43.29776],[-8.37013,43.29544],[-8.3683,43.29158],[-8.36849,43.29124],[-8.36858,43.29066],[-8.36934,43.29019],[-8.36956,43.28995],[-8.36978,43.28904],[-8.37061,43.28803],[-8.37086,43.28783],[-8.37161,43.28782],[-8.3733,43.287],[-8.37418,43.28608],[-8.3765,43.28647],[-8.37807,43.28535],[-8.37956,43.28622],[-8.38261,43.28669],[-8.38545,43.28678],[-8.38753,43.28604],[-8.39054,43.28519],[-8.39232,43.28327],[-8.39408,43.28256],[-8.39575,43.28166],[-8.39839,43.28137],[-8.39928,43.28202],[-8.40227,43.28145],[-8.40581,43.28129],[-8.4061,43.28112],[-8.40658,43.28178],[-8.40658,43.283],[-8.40682,43.28444],[-8.40679,43.28528],[-8.40732,43.28655],[-8.40779,43.28836],[-8.40875,43.28976],[-8.40927,43.29095],[-8.41036,43.29258],[-8.41329,43.29625],[-8.41389,43.29714],[-8.41489,43.299],[-8.41501,43.29956],[-8.41115,43.30053],[-8.40818,43.301],[-8.40399,43.30101],[-8.39837,43.30166],[-8.39426,43.30199],[-8.39093,43.30343],[-8.38695,43.30419],[-8.38485,43.3047],[-8.38389,43.30584],[-8.38363,43.30582],[-8.38324,43.30598],[-8.38277,43.30604]]]}},{"type":"Feature","properties":{"id":"1503103002"},"geometry":{"type":"Polygon","coordinates":[[[-8.37418,43.28608],[-8.37446,43.28507],[-8.37421,43.28463],[-8.37403,43.28392],[-8.37357,43.28345],[-8.37352,43.28325],[-8.37381,43.28311],[-8.37392,43.28282],[-8.37433,43.28278],[-8.37426,43.28264],[-8.37454,43.28259],[-8.37464,43.28232],[-8.37378,43.28171],[-8.37353,43.28127],[-8.37327,43.28112],[-8.37357,43.2808],[-8.37321,43.28054],[-8.37385,43.28012],[-8.37402,43.28018],[-8.37426,43.2801],[-8.37427,43.27989],[-8.37457,43.27975],[-8.37488,43.27973],[-8.37505,43.27952],[-8.37538,43.27956],[-8.37565,43.27917],[-8.37591,43.27925],[-8.37703,43.279],[-8.37713,43.27859],[-8.37742,43.27844],[-8.37763,43.27797],[-8.37784,43.27776],[-8.37768,43.27752],[-8.37773,43.27689],[-8.37752,43.2766],[-8.37118,43.27001],[-8.37233,43.25163],[-8.37808,43.25326],[-8.38118,43.25561],[-8.38836,43.25888],[-8.3916,43.26052],[-8.38949,43.26261],[-8.38744,43.26554],[-8.38716,43.26782],[-8.38944,43.26814],[-8.39139,43.26905],[-8.39409,43.2708],[-8.39561,43.2709],[-8.39983,43.26962],[-8.40332,43.26883],[-8.40639,43.26834],[-8.40797,43.26657],[-8.4093,43.26526],[-8.40887,43.26369],[-8.40879,43.26303],[-8.40988,43.26208],[-8.41011,43.26052],[-8.4105,43.25997],[-8.41039,43.25929],[-8.41064,43.25867],[-8.41036,43.2579],[-8.4112,43.25693],[-8.41349,43.25648],[-8.41589,43.25571],[-8.41681,43.25506],[-8.41745,43.2536],[-8.41788,43.25292],[-8.41843,43.2527],[-8.41867,43.25281],[-8.41923,43.25342],[-8.4214,43.25279],[-8.42195,43.25256],[-8.42236,43.25195],[-8.42314,43.25143],[-8.42411,43.25108],[-8.42438,43.25028],[-8.4238,43.25016],[-8.42252,43.25019],[-8.42184,43.24935],[-8.42292,43.24895],[-8.42375,43.24897],[-8.42653,43.24808],[-8.42798,43.24833],[-8.42938,43.2483],[-8.44476,43.23869],[-8.47039,43.25406],[-8.47025,43.25647],[-8.44316,43.27298],[-8.43965,43.2748],[-8.43727,43.27499],[-8.43579,43.27475],[-8.43495,43.27472],[-8.43209,43.27417],[-8.42964,43.27482],[-8.42285,43.27583],[-8.42009,43.27649],[-8.41875,43.27663],[-8.41782,43.27683],[-8.41615,43.27683],[-8.41412,43.27624],[-8.41353,43.27551],[-8.41267,43.27517],[-8.41195,43.27528],[-8.4108,43.27526],[-8.4102,43.27551],[-8.40896,43.27687],[-8.40773,43.27716],[-8.40665,43.27782],[-8.40669,43.27827],[-8.40629,43.27966],[-8.4061,43.28112],[-8.40581,43.28129],[-8.40227,43.28145],[-8.39928,43.28202],[-8.39839,43.28137],[-8.39575,43.28166],[-8.39408,43.28256],[-8.39232,43.28327],[-8.39054,43.28519],[-8.38753,43.28604],[-8.38545,43.28678],[-8.38261,43.28669],[-8.37956,43.28622],[-8.37807,43.28535],[-8.3765,43.28647],[-8.37418,43.28608]]]}},{"type":"Feature","properties":{"id":"1503103003"},"geometry":{"type":"Polygon","coordinates":[[[-8.38118,43.25561],[-8.37808,43.25326],[-8.37233,43.25163],[-8.3724,43.2494],[-8.38109,43.2417],[-8.37785,43.23836],[-8.36952,43.2356],[-8.36694,43.23509],[-8.36708,43.23476],[-8.36765,43.23456],[-8.36785,43.23435],[-8.368,43.23382],[-8.36819,43.23361],[-8.3685,43.23342],[-8.3696,43.23307],[-8.3698,43.23294],[-8.37011,43.23248],[-8.37037,43.23243],[-8.37067,43.23254],[-8.37128,43.23251],[-8.37147,43.23243],[-8.37152,43.2322],[-8.37178,43.23203],[-8.37222,43.23198],[-8.37275,43.23212],[-8.37346,43.23252],[-8.37386,43.23259],[-8.37417,43.2325],[-8.37452,43.23225],[-8.375,43.23172],[-8.37567,43.2315],[-8.37686,43.23145],[-8.3774,43.23126],[-8.37826,43.23057],[-8.37891,43.23063],[-8.37933,43.23055],[-8.38009,43.2311],[-8.38122,43.23146],[-8.38251,43.23293],[-8.38438,43.23333],[-8.38515,43.23372],[-8.38567,43.23427],[-8.38697,43.23532],[-8.38762,43.23562],[-8.38817,43.2356],[-8.38874,43.23509],[-8.38986,43.23489],[-8.39136,43.2341],[-8.39282,43.23288],[-8.39364,43.2316],[-8.39423,43.2312],[-8.39456,43.23103],[-8.39534,43.23088],[-8.39596,43.23037],[-8.39695,43.23014],[-8.39712,43.23003],[-8.39748,43.2295],[-8.39886,43.2284],[-8.40056,43.22662],[-8.40106,43.22515],[-8.40789,43.2251],[-8.44267,43.2265],[-8.43626,43.23362],[-8.44476,43.23869],[-8.42938,43.2483],[-8.42798,43.24833],[-8.42653,43.24808],[-8.42375,43.24897],[-8.42292,43.24895],[-8.42184,43.24935],[-8.42252,43.25019],[-8.4238,43.25016],[-8.42438,43.25028],[-8.42411,43.25108],[-8.42314,43.25143],[-8.42236,43.25195],[-8.42195,43.25256],[-8.4214,43.25279],[-8.41923,43.25342],[-8.41867,43.25281],[-8.41843,43.2527],[-8.41788,43.25292],[-8.41745,43.2536],[-8.41681,43.25506],[-8.41589,43.25571],[-8.41349,43.25648],[-8.4112,43.25693],[-8.41036,43.2579],[-8.41064,43.25867],[-8.41039,43.25929],[-8.4105,43.25997],[-8.41011,43.26052],[-8.40988,43.26208],[-8.40879,43.26303],[-8.40887,43.26369],[-8.4093,43.26526],[-8.40797,43.26657],[-8.40639,43.26834],[-8.40332,43.26883],[-8.39983,43.26962],[-8.39561,43.2709],[-8.39409,43.2708],[-8.39139,43.26905],[-8.38944,43.26814],[-8.38716,43.26782],[-8.38744,43.26554],[-8.38949,43.26261],[-8.3916,43.26052],[-8.38836,43.25888],[-8.38118,43.25561]]]}},{"type":"Feature","properties":{"id":"1503103004"},"geometry":{"type":"Polygon","coordinates":[[[-8.41501,43.29956],[-8.41489,43.299],[-8.41389,43.29714],[-8.41329,43.29625],[-8.41036,43.29258],[-8.40927,43.29095],[-8.40875,43.28976],[-8.40779,43.28836],[-8.40732,43.28655],[-8.40679,43.28528],[-8.40682,43.28444],[-8.40658,43.283],[-8.40658,43.28178],[-8.4061,43.28112],[-8.40629,43.27966],[-8.40669,43.27827],[-8.40665,43.27782],[-8.40773,43.27716],[-8.40896,43.27687],[-8.4102,43.27551],[-8.4108,43.27526],[-8.41195,43.27528],[-8.41267,43.27517],[-8.41353,43.27551],[-8.41412,43.27624],[-8.41615,43.27683],[-8.41782,43.27683],[-8.41875,43.27663],[-8.42009,43.27649],[-8.42285,43.27583],[-8.42964,43.27482],[-8.43209,43.27417],[-8.43495,43.27472],[-8.43579,43.27475],[-8.43727,43.27499],[-8.43965,43.2748],[-8.44205,43.27362],[-8.44314,43.27296],[-8.44303,43.27305],[-8.44711,43.27732],[-8.43892,43.28396],[-8.43798,43.28739],[-8.44716,43.29511],[-8.41648,43.30102],[-8.41518,43.29952],[-8.41501,43.29956]]]}}]}