{"type":"FeatureCollection","features":[{"type":"Feature","properties":{"id":"1504901001"},"geometry":{"type":"Polygon","coordinates":[[[-7.96275,43.54365],[-7.96367,43.54362],[-7.96412,43.5438],[-7.9641,43.54406],[-7.96428,43.5442],[-7.96655,43.54491],[-7.96745,43.54529],[-7.96804,43.54513],[-7.96834,43.54483],[-7.96932,43.54471],[-7.97108,43.54417],[-7.97256,43.54424],[-7.97325,43.54376],[-7.97372,43.54364],[-7.97611,43.54374],[-7.97728,43.54351],[-7.97972,43.54247],[-7.98087,43.54179],[-7.98119,43.54099],[-7.98209,43.53989],[-7.98343,43.53877],[-7.98394,43.53852],[-7.98467,43.53793],[-7.98495,43.53692],[-7.98469,43.53572],[-7.985,43.53452],[-7.99958,43.52714],[-8.00516,43.52421],[-8.0073,43.52295],[-8.0098,43.52672],[-8.01304,43.53083],[-8.01413,43.53249],[-8.01974,43.53098],[-8.02142,43.53184],[-8.02923,43.5353],[-8.02913,43.53607],[-8.02863,43.53764],[-8.0276,43.53986],[-8.02651,43.54354],[-8.02528,43.54892],[-8.02528,43.54948],[-8.02747,43.55268],[-8.02859,43.55468],[-8.02784,43.55873],[-8.02778,43.56066],[-8.02505,43.56269],[-8.02433,43.5634],[-8.02141,43.5658],[-8.02072,43.56666],[-8.02042,43.56742],[-8.0202,43.56856],[-8.02003,43.5704],[-8.02049,43.57381],[-8.02023,43.57414],[-8.02025,43.57543],[-8.02007,43.57548],[-8.01991,43.57581],[-8.01995,43.57745],[-8.01984,43.57754],[-8.01903,43.57754],[-8.01866,43.57696],[-8.01835,43.57694],[-8.01751,43.57754],[-8.01703,43.57757],[-8.01614,43.57732],[-8.01559,43.57774],[-8.01508,43.57772],[-8.01454,43.57733],[-8.01427,43.57732],[-8.01382,43.57777],[-8.01377,43.57807],[-8.01024,43.57494],[-8.00551,43.57378],[-8.00116,43.57092],[-7.99783,43.56923],[-7.99719,43.56863],[-7.99563,43.56805],[-7.99561,43.56716],[-7.99467,43.56607],[-7.99416,43.56591],[-7.99286,43.56442],[-7.99116,43.56143],[-7.98869,43.5601],[-7.98563,43.55997],[-7.98471,43.55962],[-7.9832,43.55864],[-7.97979,43.5557],[-7.9753,43.55458],[-7.97427,43.55416],[-7.97239,43.55271],[-7.97094,43.55062],[-7.97028,43.54989],[-7.96741,43.54861],[-7.96586,43.54735],[-7.96275,43.54365]]]}},{"type":"Feature","properties":{"id":"1504901002"},"geometry":{"type":"Polygon","coordinates":[[[-7.91649,43.56618],[-7.91721,43.56485],[-7.91897,43.56242],[-7.91851,43.56179],[-7.91919,43.55954],[-7.91932,43.55821],[-7.91953,43.55748],[-7.92001,43.55691],[-7.92037,43.55669],[-7.9242,43.55505],[-7.92451,43.55483],[-7.9249,43.55279],[-7.92509,43.55247],[-7.92569,43.55214],[-7.92801,43.55141],[-7.92918,43.5515],[-7.93055,43.55143],[-7.93299,43.55116],[-7.93507,43.55061],[-7.93777,43.54936],[-7.93963,43.54826],[-7.94214,43.5464],[-7.94213,43.54761],[-7.94573,43.54895],[-7.94695,43.54864],[-7.9474,43.54832],[-7.94867,43.54823],[-7.94934,43.54795],[-7.9504,43.54794],[-7.95112,43.54765],[-7.95145,43.54762],[-7.95199,43.5482],[-7.95253,43.54853],[-7.95289,43.54861],[-7.95342,43.54859],[-7.95404,43.54842],[-7.95526,43.54779],[-7.95556,43.54728],[-7.95558,43.54663],[-7.95525,43.54627],[-7.9558,43.54589],[-7.95564,43.54546],[-7.95566,43.54512],[-7.95605,43.54477],[-7.95662,43.54468],[-7.95679,43.54449],[-7.95743,43.54421],[-7.95797,43.54382],[-7.95974,43.54338],[-7.96072,43.54342],[-7.96218,43.54371],[-7.96275,43.54365],[-7.96586,43.54735],[-7.96741,43.54861],[-7.97028,43.54989],[-7.97094,43.55062],[-7.97239,43.55271],[-7.97427,43.55416],[-7.9753,43.55458],[-7.97979,43.5557],[-7.9832,43.55864],[-7.98471,43.55962],[-7.98563,43.55997],[-7.98869,43.5601],[-7.99116,43.56143],[-7.99286,43.56442],[-7.99416,43.56591],[-7.99467,43.56607],[-7.99561,43.56716],[-7.99563,43.56805],[-7.99719,43.56863],[-7.99783,43.56923],[-8.00116,43.57092],[-8.00551,43.57378],[-8.01024,43.57494],[-8.01377,43.57807],[-8.01363,43.57951],[-8.01228,43.58052],[-8.01214,43.58078],[-8.01233,43.58131],[-8.01234,43.58197],[-8.01266,43.58215],[-8.01285,43.58254],[-8.01323,43.58288],[-8.01327,43.58334],[-8.01304,43.58397],[-8.01251,43.58447],[-8.01258,43.5856],[-8.0128,43.58569],[-8.01528,43.58547],[-8.01581,43.58569],[-8.01688,43.5867],[-8.01816,43.58748],[-8.01918,43.58796],[-8.02023,43.58822],[-8.02343,43.58844],[-8.02455,43.58879],[-8.02505,43.58885],[-8.02661,43.5887],[-8.02835,43.58814],[-8.02891,43.58815],[-8.03675,43.58994],[-8.0195,43.60089],[-8.01395,43.59724],[-8.00763,43.59268],[-7.99568,43.59793],[-7.98812,43.59694],[-7.98266,43.59218],[-7.97265,43.59177],[-7.9648,43.58758],[-7.96069,43.59089],[-7.94023,43.59199],[-7.9363,43.58981],[-7.93415,43.58958],[-7.93376,43.58966],[-7.93205,43.59065],[-7.93085,43.59076],[-7.92847,43.59118],[-7.92757,43.5915],[-7.92743,43.59118],[-7.92684,43.59073],[-7.92657,43.59035],[-7.92658,43.59015],[-7.92721,43.58822],[-7.92802,43.58713],[-7.92803,43.58602],[-7.92824,43.58557],[-7.9282,43.58533],[-7.92784,43.58497],[-7.92685,43.58434],[-7.92667,43.58409],[-7.9264,43.58246],[-7.92616,43.58214],[-7.92541,43.58201],[-7.92364,43.58191],[-7.92345,43.5817],[-7.92339,43.58102],[-7.92313,43.58051],[-7.9234,43.5803],[-7.92286,43.57938],[-7.92334,43.57752],[-7.92385,43.57661],[-7.92352,43.57555],[-7.92325,43.57399],[-7.92235,43.57349],[-7.92209,43.57308],[-7.9221,43.57274],[-7.92248,43.57216],[-7.9225,43.57192],[-7.9221,43.57113],[-7.92153,43.57123],[-7.92034,43.57041],[-7.91961,43.56926],[-7.91844,43.56772],[-7.91821,43.56647],[-7.91649,43.56618]]]}}]}