{"type":"FeatureCollection","features":[{"type":"Feature","properties":{"id":"1504301001"},"geometry":{"type":"Polygon","coordinates":[[[-8.81564,43.32329],[-8.81413,43.32317],[-8.81283,43.3234],[-8.81216,43.32364],[-8.812,43.32385],[-8.81219,43.32419],[-8.81177,43.32446],[-8.81047,43.32494],[-8.8098,43.32536],[-8.80899,43.32633],[-8.80885,43.32675],[-8.80867,43.32682],[-8.80835,43.32672],[-8.80818,43.32647],[-8.808,43.32653],[-8.80768,43.32648],[-8.80726,43.32674],[-8.80671,43.32659],[-8.80657,43.32506],[-8.80619,43.32484],[-8.80623,43.32452],[-8.80646,43.3242],[-8.80691,43.32401],[-8.80696,43.3238],[-8.80554,43.32289],[-8.8058,43.32273],[-8.80648,43.3231],[-8.80673,43.32291],[-8.80775,43.3236],[-8.80837,43.32358],[-8.80851,43.32307],[-8.80875,43.32306],[-8.80874,43.32364],[-8.8096,43.32377],[-8.81038,43.32283],[-8.81026,43.32283],[-8.81028,43.32273],[-8.81003,43.3227],[-8.80935,43.32344],[-8.80887,43.32339],[-8.80915,43.32334],[-8.80956,43.32288],[-8.80962,43.3226],[-8.80889,43.32242],[-8.80854,43.32184],[-8.80801,43.32189],[-8.80779,43.32182],[-8.80765,43.32155],[-8.80724,43.32143],[-8.80715,43.32126],[-8.80668,43.3212],[-8.80586,43.32092],[-8.80554,43.32064],[-8.80547,43.32028],[-8.8057,43.31985],[-8.80595,43.31962],[-8.80563,43.3193],[-8.80532,43.31837],[-8.80507,43.31817],[-8.80532,43.31762],[-8.80481,43.31752],[-8.80451,43.31736],[-8.80425,43.31748],[-8.80411,43.31783],[-8.80387,43.31785],[-8.80393,43.31695],[-8.8042,43.31608],[-8.80413,43.31597],[-8.80393,43.31597],[-8.80354,43.31576],[-8.80349,43.31561],[-8.8037,43.31505],[-8.80346,43.31475],[-8.80325,43.31479],[-8.80292,43.31527],[-8.80259,43.31529],[-8.80237,43.31508],[-8.80238,43.3149],[-8.80313,43.31391],[-8.80326,43.31329],[-8.80287,43.31325],[-8.80248,43.31301],[-8.80363,43.31245],[-8.80467,43.31219],[-8.80574,43.31219],[-8.80651,43.31244],[-8.80899,43.31287],[-8.81051,43.31345],[-8.81128,43.31418],[-8.81207,43.31522],[-8.81298,43.31597],[-8.81372,43.31633],[-8.81469,43.31754],[-8.81554,43.31782],[-8.81665,43.31803],[-8.81662,43.31817],[-8.81738,43.31837],[-8.81766,43.31836],[-8.81851,43.31884],[-8.81902,43.31879],[-8.81944,43.3202],[-8.81927,43.32034],[-8.81967,43.32058],[-8.81997,43.32045],[-8.82033,43.32045],[-8.82083,43.32087],[-8.8213,43.32103],[-8.82124,43.32167],[-8.8201,43.3239],[-8.82027,43.32451],[-8.82004,43.32666],[-8.81936,43.32779],[-8.81908,43.32773],[-8.81896,43.32757],[-8.81906,43.32732],[-8.8188,43.32726],[-8.8184,43.32682],[-8.8184,43.32666],[-8.81811,43.32654],[-8.81807,43.32645],[-8.81819,43.32633],[-8.81806,43.32583],[-8.81823,43.32579],[-8.81827,43.32569],[-8.81793,43.3254],[-8.81754,43.32541],[-8.8173,43.32506],[-8.8173,43.32483],[-8.81753,43.32435],[-8.81743,43.32404],[-8.81686,43.32367],[-8.81564,43.32329]]]}},{"type":"Feature","properties":{"id":"1504301003"},"geometry":{"type":"MultiPolygon","coordinates":[[[[-8.83836,43.34571],[-8.83848,43.34536],[-8.83823,43.34516],[-8.83821,43.34488],[-8.83726,43.34469],[-8.83686,43.34472],[-8.83666,43.34491],[-8.83651,43.34485],[-8.83647,43.34463],[-8.83569,43.34459],[-8.83533,43.34478],[-8.8351,43.34472],[-8.83467,43.3449],[-8.83454,43.34489],[-8.83428,43.34462],[-8.83389,43.3447],[-8.83363,43.3446],[-8.83314,43.34476],[-8.83292,43.34466],[-8.83283,43.3445],[-8.83245,43.34446],[-8.83221,43.34431],[-8.83226,43.3441],[-8.83182,43.34394],[-8.83156,43.34373],[-8.83181,43.34309],[-8.83209,43.34274],[-8.83184,43.34247],[-8.83121,43.34235],[-8.83086,43.3419],[-8.83029,43.34187],[-8.82998,43.34175],[-8.82981,43.34137],[-8.83,43.34108],[-8.82993,43.34096],[-8.82949,43.34081],[-8.82908,43.34033],[-8.82916,43.34023],[-8.82885,43.33991],[-8.82923,43.33916],[-8.82902,43.33864],[-8.82925,43.33799],[-8.82967,43.33771],[-8.82936,43.3375],[-8.82865,43.33762],[-8.82845,43.33749],[-8.82839,43.33684],[-8.82821,43.33654],[-8.82824,43.33613],[-8.82873,43.33569],[-8.82877,43.33543],[-8.8287,43.33528],[-8.82806,43.33498],[-8.82831,43.3345],[-8.82853,43.33445],[-8.82863,43.33396],[-8.82945,43.33333],[-8.82916,43.33298],[-8.82919,43.33245],[-8.82878,43.33203],[-8.82871,43.3315],[-8.82887,43.33093],[-8.82938,43.33046],[-8.82959,43.32939],[-8.8293,43.32885],[-8.82701,43.32752],[-8.82674,43.32754],[-8.82525,43.32873],[-8.82503,43.32868],[-8.82444,43.32889],[-8.824,43.32942],[-8.82353,43.32939],[-8.82328,43.32908],[-8.8228,43.32913],[-8.82254,43.32875],[-8.82226,43.32865],[-8.82208,43.32818],[-8.82167,43.32814],[-8.82149,43.3282],[-8.82131,43.32849],[-8.8211,43.32854],[-8.82079,43.32846],[-8.81973,43.32864],[-8.81941,43.32849],[-8.81936,43.32828],[-8.81967,43.328],[-8.81968,43.32785],[-8.81936,43.32779],[-8.82004,43.32666],[-8.82027,43.32451],[-8.8201,43.3239],[-8.82124,43.32167],[-8.8213,43.32103],[-8.82083,43.32087],[-8.82033,43.32045],[-8.81997,43.32045],[-8.81967,43.32058],[-8.81927,43.32034],[-8.81944,43.3202],[-8.81902,43.31879],[-8.81851,43.31884],[-8.81766,43.31836],[-8.81738,43.31837],[-8.81662,43.31817],[-8.81665,43.31803],[-8.81554,43.31782],[-8.81469,43.31754],[-8.81372,43.31633],[-8.81298,43.31597],[-8.81207,43.31522],[-8.81128,43.31418],[-8.81051,43.31345],[-8.80899,43.31287],[-8.80651,43.31244],[-8.80574,43.31219],[-8.80467,43.31219],[-8.80363,43.31245],[-8.80191,43.31326],[-8.80172,43.3132],[-8.80137,43.31344],[-8.80071,43.31368],[-8.80047,43.31349],[-8.80022,43.31287],[-8.80001,43.31274],[-8.79953,43.31274],[-8.79946,43.31262],[-8.7995,43.3116],[-8.79933,43.31101],[-8.79873,43.31142],[-8.79854,43.31139],[-8.79813,43.31113],[-8.79808,43.31066],[-8.7978,43.31075],[-8.80018,43.3076],[-8.80255,43.30703],[-8.80444,43.30609],[-8.80553,43.30631],[-8.80662,43.30617],[-8.808,43.30639],[-8.80879,43.30603],[-8.80879,43.30574],[-8.80939,43.30538],[-8.81216,43.30596],[-8.81246,43.30632],[-8.81404,43.30618],[-8.81563,43.30539],[-8.81692,43.30329],[-8.8198,43.29903],[-8.82258,43.29643],[-8.82447,43.29492],[-8.82615,43.29333],[-8.82877,43.2917],[-8.82894,43.29194],[-8.82966,43.29181],[-8.83044,43.29179],[-8.83065,43.29198],[-8.8306,43.2922],[-8.83111,43.29213],[-8.83141,43.29186],[-8.83212,43.29226],[-8.83257,43.29212],[-8.8331,43.29259],[-8.83379,43.29282],[-8.83426,43.2931],[-8.83443,43.29372],[-8.83489,43.29437],[-8.83871,43.29436],[-8.84037,43.29487],[-8.84151,43.29477],[-8.84226,43.29397],[-8.84485,43.29704],[-8.84673,43.29755],[-8.84742,43.29849],[-8.8496,43.2985],[-8.85089,43.29821],[-8.85336,43.29872],[-8.85138,43.30002],[-8.85009,43.30132],[-8.8489,43.30283],[-8.84869,43.30399],[-8.848,43.30551],[-8.84819,43.30746],[-8.84958,43.30782],[-8.84977,43.30833],[-8.85066,43.30869],[-8.85116,43.3092],[-8.85076,43.3097],[-8.85085,43.31137],[-8.85125,43.31231],[-8.85214,43.31303],[-8.85303,43.31303],[-8.85333,43.31231],[-8.85422,43.31253],[-8.85481,43.31202],[-8.85551,43.31166],[-8.856,43.31202],[-8.8556,43.3134],[-8.85679,43.31376],[-8.8558,43.3147],[-8.85718,43.31571],[-8.85748,43.318],[-8.85724,43.31827],[-8.85695,43.31908],[-8.85711,43.3202],[-8.85653,43.32073],[-8.85637,43.32103],[-8.85607,43.32122],[-8.85557,43.32105],[-8.85502,43.32038],[-8.85475,43.32028],[-8.85434,43.31985],[-8.85437,43.3193],[-8.85415,43.31897],[-8.85281,43.32002],[-8.85264,43.32001],[-8.85251,43.31979],[-8.85219,43.31993],[-8.85178,43.31995],[-8.8512,43.31978],[-8.85076,43.32014],[-8.85021,43.32015],[-8.84992,43.31973],[-8.84918,43.31948],[-8.84896,43.31917],[-8.84857,43.31916],[-8.84826,43.31884],[-8.84794,43.31902],[-8.84736,43.3191],[-8.84681,43.31905],[-8.84597,43.31978],[-8.84573,43.32056],[-8.84585,43.32098],[-8.84684,43.32142],[-8.84751,43.32194],[-8.84841,43.32293],[-8.84923,43.32353],[-8.8495,43.32362],[-8.84956,43.32424],[-8.84938,43.32457],[-8.8495,43.3249],[-8.84902,43.32536],[-8.84894,43.32557],[-8.84907,43.32574],[-8.84934,43.32575],[-8.84943,43.32599],[-8.84934,43.32675],[-8.84967,43.32682],[-8.8496,43.32735],[-8.85013,43.32748],[-8.85018,43.3276],[-8.85038,43.32763],[-8.8502,43.32784],[-8.84969,43.32791],[-8.84955,43.32804],[-8.84914,43.32812],[-8.84906,43.32834],[-8.84934,43.3287],[-8.84914,43.32944],[-8.84899,43.3295],[-8.84905,43.32979],[-8.84871,43.32983],[-8.84864,43.3296],[-8.8483,43.32943],[-8.84775,43.32884],[-8.8475,43.32873],[-8.84743,43.3289],[-8.84761,43.32927],[-8.84766,43.32988],[-8.84742,43.33052],[-8.84755,43.33123],[-8.8479,43.33128],[-8.84802,43.33139],[-8.84769,43.33166],[-8.84726,43.33282],[-8.84722,43.33332],[-8.84816,43.3338],[-8.84871,43.33376],[-8.84912,43.33419],[-8.84907,43.3348],[-8.84944,43.33519],[-8.84929,43.33599],[-8.8494,43.33616],[-8.84927,43.33616],[-8.84927,43.33634],[-8.84951,43.33677],[-8.84947,43.33695],[-8.8493,43.3373],[-8.84878,43.33735],[-8.84866,43.33772],[-8.84846,43.33785],[-8.84851,43.33818],[-8.84817,43.3383],[-8.84805,43.33861],[-8.8478,43.33877],[-8.84785,43.33896],[-8.84765,43.33917],[-8.8474,43.3392],[-8.84733,43.3394],[-8.84688,43.33953],[-8.84684,43.33966],[-8.84641,43.33995],[-8.84616,43.33985],[-8.84604,43.33961],[-8.84613,43.33927],[-8.84598,43.33924],[-8.84581,43.33936],[-8.84571,43.3396],[-8.84551,43.33959],[-8.84521,43.33917],[-8.84506,43.3393],[-8.84524,43.33974],[-8.84452,43.34033],[-8.84439,43.34128],[-8.84396,43.34217],[-8.84352,43.34228],[-8.84244,43.342],[-8.84237,43.34185],[-8.84247,43.34155],[-8.84237,43.34128],[-8.84211,43.34158],[-8.84218,43.34228],[-8.84191,43.34271],[-8.84198,43.34292],[-8.8417,43.34371],[-8.84182,43.34417],[-8.84238,43.34453],[-8.84293,43.34455],[-8.84306,43.34474],[-8.84345,43.34486],[-8.84341,43.3455],[-8.84259,43.34591],[-8.84235,43.3459],[-8.84212,43.34576],[-8.84207,43.34554],[-8.84166,43.34546],[-8.84149,43.34534],[-8.84122,43.34539],[-8.84092,43.34555],[-8.84062,43.34594],[-8.84036,43.3461],[-8.8403,43.34643],[-8.83957,43.34672],[-8.83907,43.34665],[-8.83886,43.34649],[-8.83882,43.34632],[-8.83853,43.34612],[-8.83836,43.34571]]],[[[-8.83852,43.36297],[-8.83815,43.36289],[-8.83807,43.36265],[-8.83771,43.36263],[-8.83705,43.36208],[-8.83658,43.36206],[-8.83651,43.36144],[-8.83622,43.36097],[-8.83641,43.36066],[-8.83616,43.36009],[-8.83632,43.3599],[-8.83624,43.35975],[-8.83598,43.35982],[-8.83576,43.35969],[-8.83575,43.35954],[-8.8359,43.35943],[-8.83616,43.35943],[-8.836,43.35879],[-8.83617,43.35866],[-8.83614,43.35852],[-8.83593,43.35837],[-8.83589,43.35783],[-8.83615,43.35769],[-8.83595,43.3575],[-8.83609,43.35735],[-8.83629,43.35727],[-8.83649,43.3575],[-8.83647,43.35764],[-8.8368,43.35762],[-8.83668,43.3578],[-8.83691,43.35786],[-8.83699,43.35809],[-8.83683,43.35837],[-8.83702,43.35857],[-8.83735,43.35862],[-8.83758,43.35836],[-8.83793,43.35833],[-8.83797,43.35819],[-8.83823,43.35807],[-8.8381,43.35794],[-8.8378,43.35787],[-8.83772,43.35772],[-8.83842,43.35766],[-8.83853,43.35726],[-8.8387,43.35719],[-8.83874,43.35705],[-8.83908,43.35702],[-8.83918,43.35689],[-8.83957,43.35674],[-8.8401,43.35666],[-8.84006,43.35625],[-8.84026,43.35616],[-8.84146,43.35634],[-8.84166,43.35623],[-8.84163,43.35591],[-8.84187,43.35572],[-8.84229,43.35587],[-8.84273,43.35573],[-8.8431,43.35583],[-8.84313,43.35572],[-8.84338,43.35567],[-8.84379,43.35521],[-8.84435,43.35522],[-8.84464,43.35512],[-8.84499,43.35512],[-8.84525,43.35485],[-8.84551,43.35474],[-8.84579,43.35475],[-8.84603,43.35489],[-8.84615,43.35525],[-8.84694,43.35535],[-8.84715,43.35575],[-8.8471,43.35597],[-8.84682,43.35607],[-8.84685,43.35616],[-8.84712,43.35622],[-8.84709,43.35641],[-8.84736,43.35654],[-8.8476,43.35681],[-8.84754,43.35692],[-8.84735,43.35695],[-8.84771,43.35753],[-8.84763,43.35787],[-8.84703,43.35856],[-8.84742,43.3589],[-8.84729,43.35912],[-8.84768,43.35918],[-8.84798,43.3595],[-8.84849,43.35944],[-8.84874,43.35952],[-8.84878,43.35988],[-8.84923,43.36012],[-8.84921,43.3603],[-8.84945,43.36041],[-8.84957,43.36076],[-8.84993,43.36094],[-8.84997,43.36132],[-8.85011,43.3615],[-8.85001,43.36168],[-8.8494,43.3619],[-8.84934,43.36203],[-8.8488,43.36207],[-8.84848,43.3622],[-8.84817,43.3622],[-8.84786,43.36206],[-8.8475,43.36214],[-8.84716,43.36201],[-8.84706,43.36232],[-8.84663,43.36261],[-8.84634,43.36258],[-8.84587,43.36279],[-8.84561,43.3628],[-8.84506,43.36212],[-8.84512,43.36185],[-8.84488,43.36154],[-8.84476,43.36154],[-8.84459,43.36171],[-8.8444,43.36172],[-8.84412,43.3615],[-8.84388,43.36112],[-8.84365,43.36116],[-8.84361,43.36128],[-8.84417,43.36191],[-8.8433,43.36226],[-8.84218,43.36218],[-8.84219,43.36235],[-8.84189,43.36248],[-8.84197,43.36276],[-8.84153,43.36298],[-8.8414,43.36279],[-8.84087,43.36277],[-8.84083,43.36264],[-8.84048,43.3627],[-8.84018,43.3626],[-8.84002,43.3627],[-8.84006,43.36286],[-8.83997,43.36293],[-8.83955,43.36291],[-8.83938,43.36319],[-8.83909,43.36323],[-8.83896,43.36313],[-8.83852,43.3631],[-8.83852,43.36297]]],[[[-8.83384,43.36229],[-8.83359,43.3622],[-8.83333,43.36224],[-8.83318,43.36214],[-8.83316,43.36184],[-8.83243,43.36207],[-8.83227,43.36198],[-8.83236,43.3617],[-8.8319,43.36145],[-8.83201,43.36096],[-8.83167,43.36084],[-8.83154,43.36035],[-8.83163,43.36005],[-8.83134,43.35981],[-8.83135,43.35957],[-8.83094,43.35867],[-8.83099,43.35843],[-8.83086,43.3582],[-8.83096,43.35787],[-8.8306,43.35758],[-8.83093,43.3573],[-8.83114,43.35694],[-8.83133,43.35685],[-8.83175,43.35687],[-8.83163,43.35666],[-8.83175,43.35633],[-8.83232,43.35613],[-8.83265,43.35611],[-8.83352,43.35626],[-8.83378,43.35649],[-8.83411,43.35653],[-8.83439,43.35646],[-8.83452,43.35651],[-8.83492,43.35634],[-8.83525,43.35639],[-8.83542,43.3565],[-8.83564,43.35647],[-8.8356,43.35664],[-8.83583,43.35679],[-8.83609,43.35666],[-8.83619,43.35685],[-8.83572,43.35754],[-8.83579,43.3578],[-8.83567,43.3582],[-8.83566,43.35915],[-8.83535,43.36006],[-8.8347,43.36098],[-8.83461,43.36132],[-8.8344,43.36146],[-8.83414,43.36186],[-8.83411,43.36206],[-8.83391,43.36211],[-8.83384,43.36229]]],[[[-8.83425,43.35625],[-8.83316,43.35599],[-8.83295,43.35582],[-8.83244,43.35571],[-8.83214,43.35546],[-8.83201,43.35518],[-8.83205,43.35459],[-8.83182,43.35453],[-8.83172,43.35438],[-8.83189,43.35421],[-8.83165,43.35411],[-8.83148,43.3535],[-8.83186,43.35262],[-8.83206,43.3525],[-8.83237,43.35249],[-8.83263,43.3526],[-8.83302,43.3525],[-8.8334,43.35268],[-8.83408,43.35277],[-8.83424,43.35262],[-8.83461,43.35256],[-8.83483,43.35278],[-8.83475,43.35332],[-8.83506,43.35344],[-8.83509,43.35365],[-8.83535,43.35362],[-8.83545,43.35347],[-8.83573,43.35354],[-8.83586,43.35382],[-8.8354,43.35417],[-8.83555,43.3543],[-8.83543,43.35447],[-8.83552,43.35463],[-8.83576,43.35478],[-8.83534,43.35519],[-8.83533,43.35535],[-8.83505,43.35547],[-8.83556,43.35568],[-8.8355,43.35608],[-8.83484,43.35622],[-8.83458,43.35608],[-8.83425,43.35625]]]]}},{"type":"Feature","properties":{"id":"1504301005"},"geometry":{"type":"Polygon","coordinates":[[[-8.85748,43.318],[-8.85718,43.31571],[-8.8558,43.3147],[-8.85679,43.31376],[-8.8556,43.3134],[-8.856,43.31202],[-8.85551,43.31166],[-8.85481,43.31202],[-8.85422,43.31253],[-8.85333,43.31231],[-8.85303,43.31303],[-8.85214,43.31303],[-8.85125,43.31231],[-8.85085,43.31137],[-8.85076,43.3097],[-8.85116,43.3092],[-8.85066,43.30869],[-8.84977,43.30833],[-8.84958,43.30782],[-8.84819,43.30746],[-8.848,43.30551],[-8.84869,43.30399],[-8.8489,43.30283],[-8.85009,43.30132],[-8.85138,43.30002],[-8.85336,43.29872],[-8.85089,43.29821],[-8.8496,43.2985],[-8.84742,43.29849],[-8.84673,43.29755],[-8.84485,43.29704],[-8.84226,43.29397],[-8.84287,43.29332],[-8.84412,43.29259],[-8.84542,43.29153],[-8.85627,43.291],[-8.85628,43.29074],[-8.85717,43.29063],[-8.85751,43.29074],[-8.85795,43.29136],[-8.85826,43.29159],[-8.85908,43.29171],[-8.86832,43.29122],[-8.88827,43.29229],[-8.88972,43.29499],[-8.89405,43.30031],[-8.90691,43.30628],[-8.90696,43.30663],[-8.90855,43.30743],[-8.90916,43.30796],[-8.90928,43.30811],[-8.90941,43.30893],[-8.90959,43.30922],[-8.91027,43.30953],[-8.91048,43.30985],[-8.91064,43.31094],[-8.91021,43.31209],[-8.90999,43.31227],[-8.90988,43.31255],[-8.90995,43.31281],[-8.91037,43.31327],[-8.91138,43.31362],[-8.91208,43.31412],[-8.91232,43.31461],[-8.91181,43.31508],[-8.91173,43.31529],[-8.91186,43.3158],[-8.91177,43.31606],[-8.91183,43.31629],[-8.91222,43.31641],[-8.91251,43.31694],[-8.91302,43.31724],[-8.91319,43.31804],[-8.91268,43.31859],[-8.91143,43.31883],[-8.91125,43.31896],[-8.91128,43.3192],[-8.91163,43.31949],[-8.91205,43.3205],[-8.91145,43.32095],[-8.91139,43.32118],[-8.91113,43.3213],[-8.91082,43.32131],[-8.91028,43.32104],[-8.91012,43.32114],[-8.90968,43.32101],[-8.90899,43.32121],[-8.90868,43.32074],[-8.90814,43.32123],[-8.9078,43.32117],[-8.90722,43.32142],[-8.90688,43.32131],[-8.90658,43.32133],[-8.90608,43.32152],[-8.90551,43.32147],[-8.90466,43.3217],[-8.90401,43.32133],[-8.90347,43.32155],[-8.90319,43.32156],[-8.90234,43.3213],[-8.90212,43.32141],[-8.90148,43.32133],[-8.90147,43.32109],[-8.90097,43.32105],[-8.90014,43.32077],[-8.89961,43.32046],[-8.89923,43.32038],[-8.89912,43.32016],[-8.896,43.31904],[-8.89605,43.31935],[-8.89588,43.31962],[-8.89547,43.31945],[-8.89511,43.31886],[-8.89465,43.3187],[-8.89367,43.31872],[-8.89335,43.31887],[-8.89297,43.31924],[-8.89234,43.31948],[-8.89189,43.31983],[-8.89075,43.32008],[-8.89022,43.32005],[-8.88976,43.3204],[-8.88883,43.32042],[-8.88472,43.31991],[-8.88304,43.31899],[-8.88241,43.3183],[-8.88153,43.31773],[-8.88127,43.3172],[-8.88131,43.31655],[-8.88077,43.31543],[-8.88055,43.31528],[-8.88043,43.31451],[-8.88021,43.31433],[-8.87982,43.31331],[-8.87962,43.31321],[-8.87921,43.31327],[-8.8791,43.31318],[-8.87852,43.31332],[-8.87821,43.31328],[-8.87792,43.31306],[-8.87637,43.31249],[-8.87579,43.31242],[-8.87539,43.31244],[-8.87459,43.31277],[-8.87435,43.31314],[-8.87425,43.31344],[-8.87463,43.31413],[-8.8746,43.3143],[-8.8741,43.31431],[-8.8739,43.31475],[-8.87398,43.31502],[-8.87447,43.31556],[-8.87444,43.31573],[-8.87419,43.31567],[-8.874,43.31545],[-8.87379,43.31548],[-8.87372,43.31655],[-8.8736,43.31685],[-8.87297,43.31687],[-8.87292,43.31703],[-8.87366,43.31819],[-8.87373,43.31849],[-8.87392,43.32004],[-8.87357,43.32121],[-8.87316,43.32168],[-8.87234,43.322],[-8.87189,43.32233],[-8.87163,43.32231],[-8.8712,43.32248],[-8.87076,43.32282],[-8.87051,43.3228],[-8.86979,43.32249],[-8.86894,43.3225],[-8.86777,43.32236],[-8.86688,43.32195],[-8.8664,43.32185],[-8.86552,43.32212],[-8.86507,43.3221],[-8.86479,43.3219],[-8.86449,43.32148],[-8.86397,43.32132],[-8.86349,43.32068],[-8.86355,43.3204],[-8.86377,43.32022],[-8.86388,43.31956],[-8.86415,43.31913],[-8.86401,43.31812],[-8.86282,43.3174],[-8.86226,43.3172],[-8.85993,43.31661],[-8.85897,43.31654],[-8.85861,43.31674],[-8.85874,43.31729],[-8.85798,43.31744],[-8.85748,43.318]]]}},{"type":"Feature","properties":{"id":"1504302001"},"geometry":{"type":"Polygon","coordinates":[[[-8.76741,43.29993],[-8.76825,43.29938],[-8.76942,43.29878],[-8.77141,43.2983],[-8.77233,43.29773],[-8.77115,43.29715],[-8.77075,43.29589],[-8.77208,43.29435],[-8.7742,43.29281],[-8.77566,43.29089],[-8.77685,43.28877],[-8.77594,43.28722],[-8.77462,43.28568],[-8.77238,43.2848],[-8.77397,43.28346],[-8.7749,43.28162],[-8.77464,43.28027],[-8.77465,43.27854],[-8.77386,43.2767],[-8.77228,43.27516],[-8.77269,43.27275],[-8.7723,43.2713],[-8.77362,43.27053],[-8.77547,43.27034],[-8.77574,43.26976],[-8.77468,43.2687],[-8.77706,43.26861],[-8.77799,43.26755],[-8.77839,43.26591],[-8.7789,43.26293],[-8.78042,43.26355],[-8.7819,43.26394],[-8.78719,43.2648],[-8.79047,43.2658],[-8.79705,43.26638],[-8.80058,43.26688],[-8.80549,43.26706],[-8.80622,43.26736],[-8.8082,43.26786],[-8.80904,43.2683],[-8.81031,43.26861],[-8.81173,43.26876],[-8.81261,43.26898],[-8.8134,43.26935],[-8.8154,43.26889],[-8.81645,43.26875],[-8.81795,43.26918],[-8.81957,43.26951],[-8.82124,43.27008],[-8.82367,43.27061],[-8.82595,43.27081],[-8.83025,43.27202],[-8.83066,43.27365],[-8.83069,43.27541],[-8.83054,43.27625],[-8.83174,43.27838],[-8.83019,43.28258],[-8.82953,43.28298],[-8.82945,43.2851],[-8.83039,43.28663],[-8.82872,43.28838],[-8.82825,43.28963],[-8.82802,43.29061],[-8.82877,43.2917],[-8.82615,43.29333],[-8.82447,43.29492],[-8.82258,43.29643],[-8.8198,43.29903],[-8.81692,43.30329],[-8.81563,43.30539],[-8.81404,43.30618],[-8.81246,43.30632],[-8.81216,43.30596],[-8.80939,43.30538],[-8.80879,43.30574],[-8.80879,43.30603],[-8.808,43.30639],[-8.80662,43.30617],[-8.80553,43.30631],[-8.80444,43.30609],[-8.80255,43.30703],[-8.80018,43.3076],[-8.7978,43.31075],[-8.79767,43.3108],[-8.79763,43.31129],[-8.79738,43.31161],[-8.7972,43.31169],[-8.79688,43.31165],[-8.7965,43.31128],[-8.7961,43.31108],[-8.79592,43.31029],[-8.79545,43.31015],[-8.7952,43.30989],[-8.79495,43.31008],[-8.79476,43.31082],[-8.79431,43.3109],[-8.79372,43.31066],[-8.79355,43.31075],[-8.79332,43.31116],[-8.79311,43.31116],[-8.79274,43.31045],[-8.79281,43.31025],[-8.79265,43.31023],[-8.79236,43.30943],[-8.79218,43.30935],[-8.79189,43.30965],[-8.79148,43.30931],[-8.79143,43.30969],[-8.79115,43.30998],[-8.79081,43.31006],[-8.79079,43.30966],[-8.79039,43.309],[-8.78972,43.30871],[-8.78965,43.3085],[-8.78914,43.30838],[-8.7888,43.30847],[-8.78867,43.30833],[-8.78903,43.30769],[-8.78896,43.30739],[-8.78906,43.30721],[-8.7888,43.30698],[-8.78916,43.30594],[-8.78869,43.30608],[-8.78846,43.30523],[-8.78695,43.30463],[-8.78601,43.30389],[-8.78517,43.30357],[-8.78506,43.30366],[-8.78432,43.30355],[-8.78398,43.3036],[-8.78383,43.30302],[-8.78371,43.30293],[-8.78205,43.30334],[-8.78137,43.30371],[-8.78107,43.30375],[-8.78087,43.30367],[-8.78063,43.30318],[-8.78031,43.30307],[-8.78,43.30184],[-8.77976,43.30185],[-8.77933,43.30205],[-8.77923,43.302],[-8.7792,43.30169],[-8.77901,43.30153],[-8.77858,43.30148],[-8.77845,43.30117],[-8.77825,43.30116],[-8.77768,43.30147],[-8.77748,43.30098],[-8.77719,43.30089],[-8.77722,43.30053],[-8.77659,43.30026],[-8.77653,43.30003],[-8.77583,43.29981],[-8.77489,43.29978],[-8.77436,43.30031],[-8.77436,43.29999],[-8.7742,43.30006],[-8.77396,43.30002],[-8.77378,43.29985],[-8.77356,43.29981],[-8.77316,43.30003],[-8.77275,43.29986],[-8.77271,43.29961],[-8.77227,43.29955],[-8.77185,43.29959],[-8.77101,43.2999],[-8.7708,43.30035],[-8.77044,43.3004],[-8.76993,43.30033],[-8.76978,43.30037],[-8.76974,43.30052],[-8.76938,43.30064],[-8.76903,43.30059],[-8.76878,43.30041],[-8.76857,43.29984],[-8.76826,43.29979],[-8.76741,43.29993]]]}},{"type":"Feature","properties":{"id":"1504302002"},"geometry":{"type":"Polygon","coordinates":[[[-8.73112,43.29582],[-8.73145,43.29462],[-8.73293,43.28653],[-8.73048,43.28017],[-8.73212,43.27721],[-8.73402,43.27641],[-8.7374,43.26852],[-8.7527,43.25601],[-8.75668,43.254],[-8.75649,43.25298],[-8.75977,43.25272],[-8.76073,43.25167],[-8.76389,43.25384],[-8.76507,43.25505],[-8.76693,43.25672],[-8.77432,43.26129],[-8.77674,43.26204],[-8.7789,43.26293],[-8.77839,43.26591],[-8.77799,43.26755],[-8.77706,43.26861],[-8.77468,43.2687],[-8.77574,43.26976],[-8.77547,43.27034],[-8.77362,43.27053],[-8.7723,43.2713],[-8.77269,43.27275],[-8.77228,43.27516],[-8.77386,43.2767],[-8.77465,43.27854],[-8.77464,43.28027],[-8.7749,43.28162],[-8.77397,43.28346],[-8.77238,43.2848],[-8.77462,43.28568],[-8.77594,43.28722],[-8.77685,43.28877],[-8.77566,43.29089],[-8.7742,43.29281],[-8.77208,43.29435],[-8.77075,43.29589],[-8.77115,43.29715],[-8.77233,43.29773],[-8.77141,43.2983],[-8.76942,43.29878],[-8.76734,43.29996],[-8.767,43.30105],[-8.76704,43.30159],[-8.76687,43.30164],[-8.76678,43.30156],[-8.76644,43.30155],[-8.76609,43.30188],[-8.76497,43.30146],[-8.76505,43.30189],[-8.76488,43.30187],[-8.76454,43.30204],[-8.76323,43.30214],[-8.76309,43.30222],[-8.76218,43.30077],[-8.76184,43.30052],[-8.76139,43.29986],[-8.7612,43.29981],[-8.76084,43.29992],[-8.75994,43.30048],[-8.75932,43.30039],[-8.75911,43.29983],[-8.75878,43.29972],[-8.75897,43.29918],[-8.75885,43.29897],[-8.75838,43.29919],[-8.75791,43.29851],[-8.75782,43.29768],[-8.75768,43.29747],[-8.75605,43.2971],[-8.75552,43.29683],[-8.75497,43.29613],[-8.75442,43.29604],[-8.75405,43.29611],[-8.75321,43.297],[-8.75325,43.29746],[-8.75306,43.29761],[-8.75229,43.29739],[-8.75223,43.29749],[-8.75208,43.2975],[-8.75197,43.29744],[-8.75197,43.29731],[-8.75141,43.29706],[-8.75134,43.2968],[-8.75152,43.29636],[-8.75114,43.29622],[-8.75099,43.29598],[-8.75024,43.29574],[-8.75019,43.29583],[-8.75003,43.29583],[-8.74952,43.29543],[-8.74943,43.29529],[-8.74946,43.29441],[-8.74917,43.29448],[-8.74902,43.29444],[-8.74846,43.29381],[-8.74644,43.29364],[-8.74628,43.29358],[-8.74622,43.29339],[-8.74588,43.29353],[-8.74458,43.29357],[-8.7434,43.29373],[-8.74264,43.29351],[-8.74178,43.29351],[-8.74146,43.29369],[-8.74147,43.29408],[-8.74095,43.29435],[-8.7404,43.29429],[-8.7404,43.29368],[-8.73975,43.29349],[-8.73848,43.2935],[-8.73771,43.29366],[-8.73574,43.29436],[-8.73459,43.29417],[-8.7338,43.29416],[-8.73296,43.29439],[-8.73236,43.29476],[-8.73208,43.29519],[-8.73191,43.29583],[-8.73154,43.29592],[-8.73112,43.29582]]]}}]}