{"type":"FeatureCollection","features":[{"type":"Feature","properties":{"id":"1506201001"},"geometry":{"type":"Polygon","coordinates":[[[-8.83133,42.84963],[-8.83081,42.84901],[-8.83033,42.84813],[-8.83019,42.8474],[-8.83045,42.84686],[-8.83164,42.84598],[-8.83342,42.84511],[-8.83581,42.84305],[-8.83702,42.84154],[-8.83804,42.84055],[-8.83899,42.84015],[-8.83935,42.84015],[-8.8419,42.84082],[-8.84363,42.8411],[-8.84424,42.84099],[-8.84983,42.83871],[-8.85136,42.83785],[-8.85169,42.83754],[-8.85192,42.83722],[-8.85169,42.83679],[-8.85066,42.83606],[-8.84741,42.83333],[-8.84625,42.83215],[-8.84611,42.83186],[-8.84786,42.82852],[-8.84814,42.8274],[-8.84889,42.82603],[-8.84974,42.82535],[-8.85066,42.82486],[-8.85196,42.82447],[-8.85357,42.82431],[-8.85444,42.82447],[-8.85566,42.82445],[-8.85591,42.82434],[-8.85644,42.82381],[-8.85777,42.82154],[-8.85873,42.82073],[-8.85987,42.82024],[-8.86085,42.8203],[-8.86158,42.82061],[-8.86191,42.82086],[-8.86233,42.82151],[-8.86251,42.82244],[-8.86297,42.82352],[-8.86399,42.82496],[-8.86473,42.82545],[-8.86615,42.82725],[-8.86794,42.82825],[-8.86977,42.82833],[-8.87621,42.82837],[-8.87616,42.82885],[-8.87633,42.82889],[-8.87782,42.8286],[-8.87818,42.82846],[-8.87876,42.82845],[-8.87986,42.82781],[-8.88212,42.82981],[-8.88474,42.83193],[-8.88594,42.83316],[-8.88532,42.83411],[-8.88027,42.83806],[-8.87885,42.83945],[-8.87824,42.84143],[-8.87797,42.84365],[-8.87823,42.84504],[-8.87911,42.84662],[-8.88018,42.84771],[-8.87991,42.84836],[-8.87856,42.84935],[-8.87681,42.85137],[-8.87391,42.85612],[-8.87061,42.85889],[-8.86764,42.86294],[-8.86475,42.86563],[-8.86443,42.86534],[-8.86408,42.86398],[-8.86305,42.86304],[-8.86007,42.86105],[-8.85984,42.8605],[-8.86009,42.86044],[-8.8596,42.85915],[-8.85794,42.86115],[-8.85475,42.85935],[-8.85143,42.85635],[-8.84994,42.85572],[-8.84737,42.85407],[-8.84748,42.85329],[-8.84731,42.85254],[-8.84324,42.85027],[-8.83952,42.85016],[-8.83798,42.84953],[-8.83523,42.84989],[-8.8346,42.85007],[-8.83392,42.84972],[-8.83238,42.84954],[-8.83133,42.84963]]]}},{"type":"Feature","properties":{"id":"1506201002"},"geometry":{"type":"Polygon","coordinates":[[[-8.86475,42.86563],[-8.86764,42.86294],[-8.87061,42.85889],[-8.87391,42.85612],[-8.87681,42.85137],[-8.87856,42.84935],[-8.87991,42.84836],[-8.88018,42.84771],[-8.8828,42.84892],[-8.88596,42.84999],[-8.8882,42.85101],[-8.88992,42.85159],[-8.8915,42.85189],[-8.89467,42.8514],[-8.89876,42.85024],[-8.90278,42.84898],[-8.90556,42.84797],[-8.90688,42.84768],[-8.90892,42.84865],[-8.91175,42.85113],[-8.91294,42.85307],[-8.91346,42.85511],[-8.91339,42.8571],[-8.91306,42.85875],[-8.91431,42.86011],[-8.91596,42.86152],[-8.91774,42.86419],[-8.91853,42.86477],[-8.9204,42.86719],[-8.91984,42.86899],[-8.91948,42.87235],[-8.91744,42.87426],[-8.91477,42.87654],[-8.91364,42.87835],[-8.91273,42.87933],[-8.9109,42.87922],[-8.91076,42.88031],[-8.91195,42.88253],[-8.91398,42.88455],[-8.91596,42.88579],[-8.91595,42.88719],[-8.91673,42.88805],[-8.9167,42.89008],[-8.91713,42.89054],[-8.91582,42.89141],[-8.91346,42.89695],[-8.91367,42.89763],[-8.91316,42.89837],[-8.91374,42.90039],[-8.91329,42.90236],[-8.91331,42.90363],[-8.91277,42.90468],[-8.91179,42.90759],[-8.91087,42.90885],[-8.90919,42.90897],[-8.90713,42.90865],[-8.90611,42.90866],[-8.90449,42.90838],[-8.90349,42.9084],[-8.90183,42.90821],[-8.90122,42.90823],[-8.89776,42.90786],[-8.8937,42.90712],[-8.89202,42.90643],[-8.89017,42.90732],[-8.88869,42.90485],[-8.88692,42.90404],[-8.88625,42.90367],[-8.88583,42.90316],[-8.88471,42.90268],[-8.88453,42.90269],[-8.88441,42.90288],[-8.88407,42.90444],[-8.88393,42.90465],[-8.88342,42.90486],[-8.88316,42.9051],[-8.88328,42.90605],[-8.88347,42.90654],[-8.88344,42.907],[-8.88315,42.90753],[-8.88217,42.90877],[-8.88149,42.90935],[-8.88002,42.91005],[-8.87939,42.9101],[-8.8774,42.90987],[-8.87671,42.90967],[-8.87588,42.90919],[-8.87545,42.90905],[-8.87458,42.90894],[-8.87376,42.90905],[-8.87326,42.90895],[-8.87221,42.90912],[-8.87121,42.90892],[-8.87058,42.90859],[-8.86956,42.90859],[-8.86856,42.90823],[-8.86713,42.90876],[-8.8673,42.90787],[-8.86828,42.90737],[-8.87114,42.90495],[-8.87073,42.90299],[-8.87095,42.90248],[-8.87172,42.90189],[-8.87245,42.90113],[-8.87247,42.89897],[-8.87285,42.89763],[-8.87239,42.89583],[-8.87413,42.8933],[-8.87487,42.89145],[-8.87573,42.8902],[-8.87507,42.88824],[-8.8738,42.88805],[-8.87205,42.88673],[-8.87395,42.88614],[-8.87408,42.88601],[-8.87412,42.88538],[-8.87354,42.88379],[-8.8734,42.88294],[-8.87367,42.88098],[-8.87365,42.87697],[-8.87396,42.87247],[-8.87433,42.87008],[-8.87274,42.86843],[-8.87012,42.86968],[-8.87081,42.86798],[-8.86644,42.86686],[-8.86602,42.86649],[-8.86536,42.86646],[-8.8653,42.86599],[-8.86475,42.86563]]]}},{"type":"Feature","properties":{"id":"1506201003"},"geometry":{"type":"Polygon","coordinates":[[[-8.88018,42.84771],[-8.87911,42.84662],[-8.87823,42.84504],[-8.87797,42.84365],[-8.87824,42.84143],[-8.87885,42.83945],[-8.88027,42.83806],[-8.88532,42.83411],[-8.88594,42.83316],[-8.88474,42.83193],[-8.88212,42.82981],[-8.87986,42.82781],[-8.88028,42.82731],[-8.88051,42.82637],[-8.88034,42.82407],[-8.88044,42.82347],[-8.88027,42.82281],[-8.88029,42.82179],[-8.88017,42.82156],[-8.88053,42.82057],[-8.88049,42.82015],[-8.88107,42.8185],[-8.88141,42.81807],[-8.88314,42.81743],[-8.88542,42.81709],[-8.88753,42.81651],[-8.88877,42.81648],[-8.8893,42.81677],[-8.89034,42.81849],[-8.89093,42.81926],[-8.89179,42.81981],[-8.89208,42.82022],[-8.89282,42.82033],[-8.89408,42.82084],[-8.89445,42.82082],[-8.89526,42.82101],[-8.8963,42.82165],[-8.89686,42.82213],[-8.89673,42.82253],[-8.8963,42.8229],[-8.89592,42.82348],[-8.89586,42.82409],[-8.89603,42.82512],[-8.89595,42.82554],[-8.89633,42.82639],[-8.89701,42.82709],[-8.89739,42.82736],[-8.89837,42.82774],[-8.89921,42.8282],[-8.89935,42.82822],[-8.89939,42.82812],[-8.89927,42.82803],[-8.89935,42.82782],[-8.90015,42.82787],[-8.90146,42.82816],[-8.90175,42.82827],[-8.90177,42.82839],[-8.90206,42.82843],[-8.90344,42.82829],[-8.90391,42.82852],[-8.90409,42.82841],[-8.90344,42.82803],[-8.90262,42.82774],[-8.90253,42.82761],[-8.90261,42.82754],[-8.90379,42.82764],[-8.90487,42.82806],[-8.9052,42.82841],[-8.90603,42.83209],[-8.90787,42.83489],[-8.90771,42.83617],[-8.90765,42.83643],[-8.90748,42.83657],[-8.90766,42.83673],[-8.90758,42.83764],[-8.90777,42.83793],[-8.90767,42.83925],[-8.90746,42.83948],[-8.90773,42.83979],[-8.90748,42.84071],[-8.90771,42.84127],[-8.90733,42.84137],[-8.90719,42.84132],[-8.90704,42.84148],[-8.90613,42.84325],[-8.90598,42.84331],[-8.90556,42.84315],[-8.90519,42.84316],[-8.90455,42.84404],[-8.90453,42.84461],[-8.90487,42.84464],[-8.90502,42.8448],[-8.90512,42.84558],[-8.90541,42.84555],[-8.90562,42.846],[-8.90688,42.84768],[-8.90556,42.84797],[-8.90278,42.84898],[-8.89876,42.85024],[-8.89467,42.8514],[-8.8915,42.85189],[-8.88992,42.85159],[-8.8882,42.85101],[-8.88596,42.84999],[-8.8828,42.84892],[-8.88018,42.84771]]]}},{"type":"Feature","properties":{"id":"1506201004"},"geometry":{"type":"Polygon","coordinates":[[[-8.98685,42.89432],[-8.97482,42.8935],[-8.97028,42.89157],[-8.96812,42.89032],[-8.96504,42.8905],[-8.96395,42.89266],[-8.96169,42.89404],[-8.95907,42.89266],[-8.9589,42.89232],[-8.95799,42.89203],[-8.95745,42.89173],[-8.95675,42.89197],[-8.95645,42.89232],[-8.95611,42.89239],[-8.95444,42.89214],[-8.95358,42.89134],[-8.95284,42.8903],[-8.95213,42.88978],[-8.95182,42.88937],[-8.95125,42.88906],[-8.95115,42.88864],[-8.95052,42.88872],[-8.94958,42.88921],[-8.9485,42.88801],[-8.9472,42.88714],[-8.94678,42.88646],[-8.94568,42.8853],[-8.9452,42.8851],[-8.94453,42.88498],[-8.94359,42.8851],[-8.94263,42.88498],[-8.94188,42.88461],[-8.94143,42.88455],[-8.94106,42.88478],[-8.93908,42.88545],[-8.93812,42.8856],[-8.93664,42.88551],[-8.93613,42.88569],[-8.93484,42.88535],[-8.93418,42.88488],[-8.93377,42.88412],[-8.93345,42.88381],[-8.933,42.88373],[-8.93142,42.88422],[-8.93071,42.88432],[-8.92997,42.88412],[-8.92981,42.8836],[-8.92992,42.88261],[-8.92941,42.88167],[-8.92871,42.88101],[-8.92851,42.88095],[-8.92772,42.88138],[-8.92709,42.88148],[-8.92705,42.88211],[-8.92671,42.88283],[-8.92591,42.88327],[-8.92528,42.88384],[-8.92216,42.88434],[-8.9201,42.88433],[-8.91661,42.88532],[-8.91641,42.88502],[-8.91597,42.88518],[-8.91596,42.88579],[-8.91398,42.88455],[-8.91195,42.88253],[-8.91076,42.88031],[-8.9109,42.87922],[-8.91273,42.87933],[-8.91364,42.87835],[-8.91477,42.87654],[-8.91744,42.87426],[-8.91948,42.87235],[-8.91984,42.86899],[-8.9204,42.86719],[-8.91853,42.86477],[-8.91774,42.86419],[-8.91596,42.86152],[-8.91431,42.86011],[-8.91306,42.85875],[-8.91339,42.8571],[-8.91346,42.85511],[-8.91294,42.85307],[-8.91175,42.85113],[-8.90892,42.84865],[-8.90688,42.84768],[-8.90562,42.846],[-8.90541,42.84555],[-8.90512,42.84558],[-8.90502,42.8448],[-8.90487,42.84464],[-8.90453,42.84461],[-8.90455,42.84404],[-8.90519,42.84316],[-8.90556,42.84315],[-8.90598,42.84331],[-8.90613,42.84325],[-8.90704,42.84148],[-8.90719,42.84132],[-8.90733,42.84137],[-8.90771,42.84127],[-8.90748,42.84071],[-8.90773,42.83979],[-8.90746,42.83948],[-8.90767,42.83925],[-8.90777,42.83793],[-8.90758,42.83764],[-8.90766,42.83673],[-8.90748,42.83657],[-8.90765,42.83643],[-8.90771,42.83617],[-8.90787,42.83489],[-8.90999,42.83523],[-8.9147,42.83421],[-8.91673,42.83421],[-8.92138,42.83353],[-8.92553,42.83329],[-8.92832,42.83323],[-8.93458,42.83348],[-8.9378,42.83429],[-8.94025,42.83398],[-8.94245,42.83398],[-8.94507,42.83367],[-8.94837,42.83349],[-8.951,42.83299],[-8.9548,42.83187],[-8.95669,42.83111],[-8.9571,42.83147],[-8.96101,42.83378],[-8.96428,42.83522],[-8.96872,42.83686],[-8.9725,42.83878],[-8.97637,42.84044],[-8.97631,42.84114],[-8.98926,42.84292],[-8.99635,42.84179],[-8.99848,42.84482],[-8.99454,42.84648],[-8.99423,42.84952],[-8.99215,42.85121],[-8.99148,42.85275],[-8.99027,42.853],[-8.99031,42.85344],[-8.98844,42.85411],[-8.98652,42.85668],[-8.98486,42.85768],[-8.98553,42.85779],[-8.98522,42.85845],[-8.98227,42.85954],[-8.98065,42.86077],[-8.97845,42.86185],[-8.97884,42.86279],[-8.98898,42.86894],[-8.98773,42.87614],[-8.99308,42.87995],[-8.99412,42.88149],[-8.9937,42.88573],[-8.99327,42.88578],[-8.99339,42.8874],[-8.99367,42.88799],[-8.99404,42.88818],[-8.99433,42.88887],[-8.99481,42.88878],[-8.99546,42.8882],[-8.99568,42.8894],[-8.99559,42.88964],[-8.99516,42.89003],[-8.99504,42.8904],[-8.9915,42.89142],[-8.98685,42.89432]]]}},{"type":"Feature","properties":{"id":"1506201005"},"geometry":{"type":"Polygon","coordinates":[[[-8.93124,42.80638],[-8.92901,42.80615],[-8.92757,42.80673],[-8.92623,42.80775],[-8.92588,42.80839],[-8.92621,42.80893],[-8.92433,42.81087],[-8.92201,42.81214],[-8.92269,42.8147],[-8.92211,42.81598],[-8.92336,42.81691],[-8.92336,42.81833],[-8.92432,42.81932],[-8.92027,42.81939],[-8.91853,42.82003],[-8.91785,42.8211],[-8.91611,42.82252],[-8.91322,42.82266],[-8.91177,42.82301],[-8.91051,42.82223],[-8.90858,42.82258],[-8.90655,42.82372],[-8.90444,42.82567],[-8.90355,42.82592],[-8.90281,42.82643],[-8.90135,42.82691],[-8.90112,42.82689],[-8.90034,42.82655],[-8.89994,42.82622],[-8.89984,42.82591],[-8.89994,42.82519],[-8.90056,42.82454],[-8.90071,42.82421],[-8.90113,42.82385],[-8.90138,42.82333],[-8.90183,42.82285],[-8.902,42.82228],[-8.9022,42.82208],[-8.90243,42.82126],[-8.90297,42.82067],[-8.90464,42.82037],[-8.90498,42.82023],[-8.9058,42.81949],[-8.90605,42.81863],[-8.90591,42.81782],[-8.90624,42.81746],[-8.90644,42.81669],[-8.90642,42.81639],[-8.90603,42.81607],[-8.90598,42.81561],[-8.90569,42.81539],[-8.90557,42.81501],[-8.90619,42.81449],[-8.9065,42.81397],[-8.9063,42.81366],[-8.90651,42.8132],[-8.90638,42.81282],[-8.9064,42.81217],[-8.90664,42.81125],[-8.90656,42.81096],[-8.90632,42.81067],[-8.90666,42.81033],[-8.90682,42.80987],[-8.9068,42.80969],[-8.90658,42.80945],[-8.90675,42.80927],[-8.90695,42.8087],[-8.90706,42.80798],[-8.90697,42.80761],[-8.90708,42.80649],[-8.907,42.80622],[-8.90728,42.8045],[-8.90747,42.8044],[-8.90764,42.80412],[-8.90747,42.80384],[-8.90771,42.80294],[-8.90971,42.80157],[-8.91035,42.80143],[-8.91054,42.80128],[-8.91106,42.8012],[-8.91274,42.79986],[-8.91378,42.79938],[-8.91413,42.79926],[-8.91477,42.79926],[-8.9157,42.79794],[-8.91596,42.7977],[-8.91627,42.79759],[-8.91691,42.7978],[-8.91767,42.79784],[-8.91868,42.79762],[-8.91921,42.79768],[-8.91952,42.79759],[-8.91974,42.79739],[-8.92018,42.79765],[-8.92073,42.79759],[-8.92091,42.79746],[-8.92164,42.79745],[-8.92259,42.79718],[-8.92284,42.79741],[-8.92376,42.79739],[-8.92417,42.79779],[-8.92473,42.79794],[-8.92513,42.79791],[-8.92528,42.79805],[-8.92534,42.79856],[-8.92644,42.79931],[-8.92655,42.79976],[-8.92674,42.80003],[-8.92805,42.80095],[-8.93032,42.80185],[-8.93101,42.80198],[-8.93168,42.80231],[-8.93225,42.80232],[-8.9325,42.80215],[-8.93273,42.80177],[-8.93292,42.80171],[-8.93325,42.80174],[-8.93342,42.80186],[-8.93349,42.80232],[-8.93284,42.80319],[-8.93239,42.8041],[-8.93236,42.8044],[-8.93187,42.80434],[-8.93161,42.80491],[-8.93166,42.80533],[-8.93126,42.80567],[-8.93124,42.80638]]]}},{"type":"Feature","properties":{"id":"1506201008"},"geometry":{"type":"Polygon","coordinates":[[[-8.90787,42.83489],[-8.90603,42.83209],[-8.9052,42.82841],[-8.90571,42.82906],[-8.90583,42.82898],[-8.90582,42.82875],[-8.90565,42.82837],[-8.90512,42.8278],[-8.90453,42.82751],[-8.9031,42.82717],[-8.90296,42.82703],[-8.90298,42.82686],[-8.90361,42.82622],[-8.90444,42.82588],[-8.90462,42.82571],[-8.90444,42.82567],[-8.90655,42.82372],[-8.90858,42.82258],[-8.91051,42.82223],[-8.91177,42.82301],[-8.91322,42.82266],[-8.91611,42.82252],[-8.91785,42.8211],[-8.91853,42.82003],[-8.92027,42.81939],[-8.92432,42.81932],[-8.92336,42.81833],[-8.92336,42.81691],[-8.92211,42.81598],[-8.92269,42.8147],[-8.92201,42.81214],[-8.92433,42.81087],[-8.92621,42.80893],[-8.92661,42.80959],[-8.92789,42.81017],[-8.92933,42.81055],[-8.93344,42.81381],[-8.93565,42.81529],[-8.93793,42.81709],[-8.9399,42.81837],[-8.9415,42.81897],[-8.94309,42.82008],[-8.94486,42.82165],[-8.946,42.82243],[-8.94783,42.82484],[-8.95057,42.82609],[-8.95436,42.82897],[-8.95669,42.83111],[-8.9548,42.83187],[-8.951,42.83299],[-8.94837,42.83349],[-8.94507,42.83367],[-8.94245,42.83398],[-8.94025,42.83398],[-8.9378,42.83429],[-8.93458,42.83348],[-8.92832,42.83323],[-8.92553,42.83329],[-8.92138,42.83353],[-8.91673,42.83421],[-8.9147,42.83421],[-8.90999,42.83523],[-8.90787,42.83489]]]}},{"type":"Feature","properties":{"id":"1506201009"},"geometry":{"type":"Polygon","coordinates":[[[-8.9571,42.83147],[-8.95436,42.82897],[-8.95057,42.82609],[-8.94783,42.82484],[-8.946,42.82243],[-8.94486,42.82165],[-8.94309,42.82008],[-8.9415,42.81897],[-8.9399,42.81837],[-8.93793,42.81709],[-8.93565,42.81529],[-8.93344,42.81381],[-8.92933,42.81055],[-8.92789,42.81017],[-8.92661,42.80959],[-8.92588,42.80839],[-8.92623,42.80775],[-8.92757,42.80673],[-8.92901,42.80615],[-8.93124,42.80638],[-8.93063,42.80678],[-8.93052,42.8071],[-8.93091,42.80737],[-8.93164,42.80733],[-8.93345,42.80577],[-8.93386,42.80579],[-8.93484,42.80557],[-8.93529,42.80514],[-8.93544,42.80434],[-8.93626,42.80368],[-8.93664,42.80313],[-8.93717,42.80294],[-8.93731,42.80279],[-8.93787,42.80276],[-8.93833,42.80256],[-8.93915,42.80194],[-8.93949,42.8018],[-8.94152,42.8017],[-8.94197,42.8016],[-8.94278,42.8012],[-8.94312,42.80091],[-8.94329,42.80067],[-8.94329,42.80021],[-8.94342,42.79999],[-8.94416,42.79966],[-8.94405,42.79942],[-8.94351,42.79957],[-8.94339,42.7995],[-8.94347,42.79933],[-8.94388,42.79904],[-8.94452,42.79946],[-8.94468,42.79945],[-8.94485,42.79908],[-8.9448,42.799],[-8.94566,42.7984],[-8.94593,42.79808],[-8.94602,42.79765],[-8.94558,42.79734],[-8.94569,42.79726],[-8.94597,42.79748],[-8.94622,42.79749],[-8.94646,42.79739],[-8.9464,42.79715],[-8.94575,42.7971],[-8.94559,42.79704],[-8.94563,42.79694],[-8.94643,42.797],[-8.94653,42.79691],[-8.9461,42.79674],[-8.9461,42.79655],[-8.94626,42.79645],[-8.94676,42.79643],[-8.9464,42.79564],[-8.94608,42.7956],[-8.94606,42.79539],[-8.94643,42.79538],[-8.94632,42.79465],[-8.94605,42.79467],[-8.94576,42.79393],[-8.94563,42.79385],[-8.94537,42.79388],[-8.94531,42.79369],[-8.9441,42.79389],[-8.94396,42.79376],[-8.94529,42.79345],[-8.94552,42.79328],[-8.94537,42.79278],[-8.94555,42.79246],[-8.94556,42.79211],[-8.94577,42.79201],[-8.94671,42.7919],[-8.94691,42.79179],[-8.94765,42.79172],[-8.94839,42.79126],[-8.94839,42.79066],[-8.94882,42.79021],[-8.94904,42.78956],[-8.94951,42.78931],[-8.94947,42.78884],[-8.95031,42.78747],[-8.95071,42.78622],[-8.95115,42.78552],[-8.95074,42.78455],[-8.95102,42.78427],[-8.95143,42.7842],[-8.95167,42.78394],[-8.9522,42.78386],[-8.95234,42.78366],[-8.95236,42.78343],[-8.95221,42.78332],[-8.95198,42.7833],[-8.95187,42.78315],[-8.95155,42.78301],[-8.9515,42.78281],[-8.95136,42.78273],[-8.9514,42.7826],[-8.95155,42.78253],[-8.952,42.78282],[-8.95248,42.78284],[-8.9532,42.78328],[-8.95357,42.78323],[-8.95368,42.7831],[-8.95361,42.78237],[-8.95378,42.78168],[-8.95396,42.78153],[-8.95479,42.78128],[-8.95533,42.78133],[-8.95552,42.78122],[-8.95547,42.78109],[-8.95573,42.78097],[-8.95607,42.78116],[-8.95636,42.78098],[-8.95673,42.78101],[-8.95675,42.78088],[-8.95664,42.78078],[-8.9567,42.78068],[-8.95699,42.78067],[-8.95729,42.78051],[-8.95741,42.78067],[-8.9579,42.78054],[-8.95818,42.78095],[-8.95836,42.78094],[-8.96049,42.79502],[-8.96429,42.79691],[-8.96501,42.7989],[-8.96493,42.7994],[-8.96531,42.80019],[-8.96553,42.80097],[-8.96548,42.8015],[-8.96528,42.80189],[-8.96538,42.80294],[-8.96632,42.80333],[-8.96635,42.80358],[-8.96821,42.80711],[-8.9724,42.80994],[-8.97269,42.81573],[-8.97453,42.82561],[-8.97749,42.82713],[-8.97637,42.84044],[-8.9725,42.83878],[-8.96872,42.83686],[-8.96428,42.83522],[-8.96101,42.83378],[-8.9571,42.83147]]]}}]}