{"type":"FeatureCollection","features":[{"type":"Feature","properties":{"id":"1506101001"},"geometry":{"type":"Polygon","coordinates":[[[-7.84722,43.67665],[-7.84835,43.67705],[-7.8485,43.67696],[-7.8485,43.67625],[-7.8486,43.67591],[-7.84895,43.67571],[-7.84914,43.67582],[-7.84934,43.67609],[-7.84932,43.67718],[-7.84962,43.67763],[-7.8507,43.67817],[-7.8511,43.67867],[-7.85273,43.67928],[-7.8533,43.67973],[-7.85379,43.68039],[-7.85431,43.68084],[-7.85444,43.68171],[-7.85415,43.68212],[-7.85405,43.68255],[-7.85432,43.6828],[-7.85471,43.68291],[-7.85933,43.68337],[-7.85966,43.68334],[-7.86088,43.68273],[-7.86111,43.68294],[-7.86053,43.68339],[-7.8608,43.68394],[-7.86026,43.6847],[-7.85862,43.6858],[-7.85766,43.68606],[-7.85739,43.68629],[-7.85741,43.68644],[-7.85843,43.68715],[-7.85947,43.68722],[-7.85997,43.68763],[-7.85902,43.68792],[-7.8578,43.68784],[-7.85507,43.687],[-7.85441,43.68699],[-7.85393,43.68668],[-7.85358,43.68667],[-7.85365,43.68752],[-7.85212,43.68794],[-7.85039,43.68806],[-7.84865,43.68769],[-7.84845,43.68882],[-7.84802,43.68954],[-7.84717,43.68936],[-7.84643,43.6895],[-7.84627,43.69004],[-7.84692,43.69078],[-7.84698,43.69107],[-7.84604,43.69128],[-7.84532,43.69127],[-7.84505,43.69101],[-7.84493,43.69052],[-7.84358,43.69],[-7.84321,43.69003],[-7.84279,43.69073],[-7.84142,43.69061],[-7.84086,43.69073],[-7.84026,43.69057],[-7.84052,43.6902],[-7.84153,43.68982],[-7.84206,43.68945],[-7.84233,43.68878],[-7.8419,43.68845],[-7.84103,43.68836],[-7.84057,43.68819],[-7.84037,43.68802],[-7.84042,43.68771],[-7.84145,43.68735],[-7.84213,43.68725],[-7.84332,43.6868],[-7.84361,43.68648],[-7.84318,43.68546],[-7.84329,43.68506],[-7.84373,43.68468],[-7.84478,43.68404],[-7.84607,43.68383],[-7.84706,43.68347],[-7.84902,43.68379],[-7.84972,43.6836],[-7.85015,43.68332],[-7.85038,43.683],[-7.85049,43.68257],[-7.85033,43.68209],[-7.8498,43.68122],[-7.84937,43.68099],[-7.84849,43.68026],[-7.84844,43.67933],[-7.84789,43.6789],[-7.84649,43.67862],[-7.84587,43.67843],[-7.84553,43.6782],[-7.84552,43.67785],[-7.84597,43.6772],[-7.84722,43.67665]]]}},{"type":"Feature","properties":{"id":"1506101002"},"geometry":{"type":"Polygon","coordinates":[[[-7.83306,43.69271],[-7.83017,43.68997],[-7.8284,43.6872],[-7.82782,43.68313],[-7.82891,43.68068],[-7.83224,43.67721],[-7.82603,43.67478],[-7.82034,43.67226],[-7.81659,43.6708],[-7.81308,43.6702],[-7.81445,43.66681],[-7.81465,43.6635],[-7.81106,43.65403],[-7.81326,43.65371],[-7.82011,43.65379],[-7.82598,43.65402],[-7.8296,43.65655],[-7.83665,43.65875],[-7.84127,43.66004],[-7.84274,43.66964],[-7.84298,43.67275],[-7.844,43.67491],[-7.84448,43.67551],[-7.84722,43.67665],[-7.84597,43.6772],[-7.84552,43.67785],[-7.84553,43.6782],[-7.84587,43.67843],[-7.84649,43.67862],[-7.84789,43.6789],[-7.84844,43.67933],[-7.84849,43.68026],[-7.84937,43.68099],[-7.8498,43.68122],[-7.85033,43.68209],[-7.85049,43.68257],[-7.85038,43.683],[-7.85015,43.68332],[-7.84972,43.6836],[-7.84902,43.68379],[-7.84706,43.68347],[-7.84607,43.68383],[-7.84478,43.68404],[-7.84373,43.68468],[-7.84329,43.68506],[-7.84318,43.68546],[-7.84361,43.68648],[-7.84332,43.6868],[-7.84213,43.68725],[-7.84145,43.68735],[-7.84042,43.68771],[-7.84037,43.68802],[-7.84057,43.68819],[-7.84103,43.68836],[-7.8419,43.68845],[-7.84233,43.68878],[-7.84206,43.68945],[-7.84153,43.68982],[-7.84052,43.6902],[-7.84026,43.69057],[-7.84086,43.69073],[-7.84142,43.69061],[-7.84279,43.69073],[-7.84321,43.69003],[-7.84358,43.69],[-7.84493,43.69052],[-7.84505,43.69101],[-7.84532,43.69127],[-7.84604,43.69128],[-7.84698,43.69107],[-7.84692,43.69078],[-7.84627,43.69004],[-7.84643,43.6895],[-7.84717,43.68936],[-7.84802,43.68954],[-7.84845,43.68882],[-7.84865,43.68769],[-7.85039,43.68806],[-7.85212,43.68794],[-7.85365,43.68752],[-7.85358,43.68667],[-7.85393,43.68668],[-7.85441,43.68699],[-7.85507,43.687],[-7.8578,43.68784],[-7.85902,43.68792],[-7.85997,43.68763],[-7.86072,43.6881],[-7.86104,43.68868],[-7.86099,43.69006],[-7.86138,43.69015],[-7.86206,43.69012],[-7.86235,43.69046],[-7.86218,43.69136],[-7.86233,43.69157],[-7.86283,43.69197],[-7.86362,43.69237],[-7.86432,43.6932],[-7.86421,43.69413],[-7.86511,43.69534],[-7.86624,43.69627],[-7.8668,43.69705],[-7.86733,43.69725],[-7.8678,43.69761],[-7.86819,43.69768],[-7.86836,43.69787],[-7.86786,43.69877],[-7.86687,43.69927],[-7.86596,43.69985],[-7.86488,43.70011],[-7.86404,43.70042],[-7.86363,43.70046],[-7.86305,43.70067],[-7.86242,43.70127],[-7.86202,43.70147],[-7.85995,43.70205],[-7.85958,43.70255],[-7.85902,43.70302],[-7.85885,43.7038],[-7.85848,43.70419],[-7.85754,43.70433],[-7.8569,43.70491],[-7.85605,43.70537],[-7.85472,43.70474],[-7.85431,43.70434],[-7.85374,43.70404],[-7.85284,43.70374],[-7.85065,43.70329],[-7.84948,43.70285],[-7.84684,43.70228],[-7.84386,43.70193],[-7.84222,43.70191],[-7.84076,43.70212],[-7.83936,43.70255],[-7.83679,43.70373],[-7.83606,43.70394],[-7.83341,43.7038],[-7.83285,43.70358],[-7.83224,43.70361],[-7.82993,43.7031],[-7.82948,43.70277],[-7.8293,43.70233],[-7.8294,43.70179],[-7.82983,43.70147],[-7.83028,43.70144],[-7.83097,43.70156],[-7.83157,43.70192],[-7.83222,43.70249],[-7.83284,43.70273],[-7.83364,43.70283],[-7.83535,43.70277],[-7.83893,43.70167],[-7.83942,43.7014],[-7.84,43.70053],[-7.83938,43.69946],[-7.83947,43.69909],[-7.83931,43.69881],[-7.83828,43.69814],[-7.83816,43.69776],[-7.83752,43.69739],[-7.83732,43.69709],[-7.83728,43.69665],[-7.83746,43.69632],[-7.83798,43.6961],[-7.83907,43.69597],[-7.83948,43.69619],[-7.84036,43.69638],[-7.84079,43.69586],[-7.8406,43.6956],[-7.84063,43.69521],[-7.84095,43.69487],[-7.84142,43.69471],[-7.84172,43.69421],[-7.843,43.69376],[-7.84267,43.69371],[-7.84177,43.69395],[-7.84135,43.69419],[-7.84114,43.69445],[-7.84077,43.69444],[-7.84055,43.69462],[-7.84027,43.69543],[-7.83997,43.69566],[-7.83939,43.69578],[-7.83925,43.69561],[-7.8386,43.69583],[-7.8383,43.6958],[-7.83784,43.69595],[-7.83717,43.69597],[-7.83617,43.69558],[-7.83588,43.69478],[-7.83562,43.6944],[-7.83563,43.69396],[-7.83586,43.69341],[-7.83558,43.69296],[-7.83537,43.69288],[-7.83508,43.69247],[-7.83495,43.69262],[-7.83508,43.69281],[-7.83474,43.69323],[-7.83425,43.69334],[-7.83353,43.69327],[-7.83336,43.69276],[-7.83306,43.69271]]]}},{"type":"Feature","properties":{"id":"1506102001"},"geometry":{"type":"Polygon","coordinates":[[[-7.79781,43.72241],[-7.79612,43.72147],[-7.7927,43.72143],[-7.78833,43.72166],[-7.78378,43.72134],[-7.78154,43.71953],[-7.77915,43.71578],[-7.77557,43.71437],[-7.76827,43.70933],[-7.76493,43.70558],[-7.76429,43.69993],[-7.77096,43.69862],[-7.77796,43.69952],[-7.78516,43.70029],[-7.78875,43.70115],[-7.79402,43.703],[-7.79949,43.70471],[-7.80627,43.70739],[-7.81211,43.70993],[-7.81516,43.71355],[-7.81507,43.71371],[-7.81473,43.71383],[-7.8147,43.71441],[-7.81425,43.71454],[-7.81402,43.71437],[-7.81377,43.7145],[-7.81346,43.71451],[-7.81319,43.7143],[-7.81266,43.71446],[-7.81251,43.71428],[-7.81202,43.7144],[-7.81179,43.71433],[-7.81143,43.71459],[-7.81144,43.7149],[-7.81084,43.71559],[-7.81044,43.7157],[-7.80977,43.71625],[-7.80946,43.71635],[-7.80909,43.71681],[-7.80886,43.71687],[-7.80856,43.71671],[-7.80857,43.71613],[-7.80699,43.71564],[-7.80714,43.717],[-7.80789,43.71724],[-7.80856,43.71719],[-7.80888,43.71745],[-7.80882,43.71843],[-7.80897,43.71927],[-7.80926,43.71994],[-7.80957,43.72022],[-7.80958,43.72046],[-7.81026,43.72173],[-7.8108,43.72198],[-7.81135,43.72106],[-7.81182,43.72123],[-7.81141,43.7221],[-7.81184,43.72205],[-7.8121,43.72192],[-7.81297,43.72202],[-7.81312,43.72212],[-7.81373,43.72218],[-7.8141,43.7225],[-7.81433,43.72239],[-7.81484,43.72265],[-7.81513,43.72253],[-7.81524,43.72266],[-7.81501,43.7232],[-7.81488,43.72321],[-7.81494,43.72408],[-7.81442,43.72507],[-7.81383,43.72562],[-7.81371,43.72637],[-7.81343,43.72656],[-7.81305,43.72663],[-7.81251,43.72697],[-7.81191,43.72689],[-7.81125,43.72701],[-7.81087,43.72688],[-7.81055,43.72731],[-7.8102,43.72742],[-7.80986,43.72738],[-7.80962,43.72721],[-7.80897,43.72739],[-7.80871,43.72726],[-7.80851,43.72701],[-7.80794,43.72703],[-7.80759,43.72663],[-7.80757,43.72642],[-7.80733,43.72628],[-7.80735,43.72609],[-7.80713,43.7258],[-7.80704,43.72454],[-7.80685,43.72441],[-7.80624,43.72424],[-7.80604,43.7237],[-7.80618,43.72331],[-7.80589,43.7229],[-7.80552,43.72268],[-7.80455,43.72257],[-7.80368,43.72211],[-7.80326,43.72218],[-7.80244,43.722],[-7.80107,43.72193],[-7.79999,43.72199],[-7.79965,43.72215],[-7.79953,43.72256],[-7.79916,43.72279],[-7.79856,43.72282],[-7.79833,43.72261],[-7.79837,43.72233],[-7.79781,43.72241]]]}},{"type":"Feature","properties":{"id":"1506102002"},"geometry":{"type":"MultiPolygon","coordinates":[[[[-7.73111,43.75047],[-7.73057,43.74972],[-7.73008,43.74998],[-7.72921,43.74979],[-7.72874,43.7501],[-7.72811,43.75021],[-7.72765,43.75073],[-7.72729,43.75096],[-7.72671,43.75106],[-7.72631,43.75094],[-7.72604,43.7503],[-7.72536,43.74919],[-7.72498,43.74907],[-7.72551,43.74761],[-7.72576,43.7464],[-7.72614,43.74567],[-7.72717,43.74475],[-7.72757,43.74419],[-7.72744,43.74327],[-7.72767,43.74152],[-7.72904,43.73951],[-7.72988,43.73704],[-7.72993,43.73623],[-7.72961,43.73533],[-7.72865,43.73442],[-7.72607,43.73325],[-7.72519,43.73244],[-7.72277,43.72945],[-7.72181,43.72873],[-7.72173,43.72504],[-7.72181,43.72418],[-7.72224,43.72336],[-7.72289,43.72285],[-7.72038,43.71675],[-7.72123,43.71592],[-7.72231,43.71237],[-7.72276,43.71135],[-7.72442,43.70939],[-7.72627,43.70606],[-7.72982,43.70157],[-7.73907,43.69845],[-7.74284,43.70024],[-7.75057,43.70253],[-7.76463,43.70294],[-7.76493,43.70558],[-7.76827,43.70933],[-7.77557,43.71437],[-7.77915,43.71578],[-7.78154,43.71953],[-7.78378,43.72134],[-7.78833,43.72166],[-7.7927,43.72143],[-7.79612,43.72147],[-7.79781,43.72241],[-7.79603,43.72318],[-7.79553,43.72361],[-7.79531,43.72457],[-7.79572,43.72494],[-7.79577,43.72516],[-7.79549,43.72528],[-7.79513,43.7253],[-7.79487,43.72498],[-7.79455,43.72502],[-7.79385,43.72577],[-7.79399,43.72597],[-7.79395,43.72608],[-7.79452,43.72621],[-7.7945,43.72615],[-7.79489,43.72604],[-7.79514,43.72614],[-7.79522,43.72631],[-7.79487,43.72665],[-7.79508,43.72673],[-7.79546,43.72661],[-7.79602,43.72708],[-7.79657,43.72825],[-7.79693,43.72857],[-7.79727,43.72909],[-7.79783,43.73047],[-7.79774,43.73089],[-7.79752,43.73125],[-7.7961,43.73235],[-7.79591,43.73272],[-7.79536,43.73302],[-7.79535,43.73377],[-7.79503,43.73398],[-7.79464,43.73404],[-7.7942,43.73386],[-7.79391,43.73361],[-7.79374,43.73367],[-7.79364,43.73389],[-7.79417,43.73409],[-7.7941,43.73428],[-7.79373,43.73438],[-7.79362,43.73455],[-7.79317,43.73456],[-7.79337,43.73544],[-7.79314,43.73577],[-7.79278,43.73593],[-7.79238,43.73574],[-7.79191,43.73584],[-7.7916,43.7358],[-7.78972,43.73405],[-7.7893,43.73328],[-7.78904,43.73318],[-7.78887,43.73331],[-7.78896,43.73381],[-7.78881,43.73403],[-7.78858,43.73404],[-7.78838,43.73391],[-7.78825,43.73344],[-7.78774,43.73354],[-7.78691,43.73339],[-7.78675,43.73351],[-7.78692,43.73379],[-7.78662,43.73423],[-7.78638,43.73423],[-7.78626,43.73379],[-7.7859,43.73356],[-7.7852,43.73371],[-7.78524,43.73402],[-7.78482,43.73425],[-7.78433,43.73396],[-7.78431,43.73369],[-7.78444,43.73351],[-7.7842,43.73327],[-7.7839,43.73326],[-7.78354,43.73338],[-7.78312,43.73331],[-7.7826,43.73349],[-7.78221,43.73345],[-7.78189,43.73295],[-7.78119,43.73292],[-7.78046,43.73278],[-7.7795,43.73309],[-7.77913,43.73313],[-7.77879,43.733],[-7.77788,43.73326],[-7.77683,43.73322],[-7.7762,43.73375],[-7.7755,43.73386],[-7.77532,43.73471],[-7.77505,43.73491],[-7.77417,43.73511],[-7.77186,43.7366],[-7.77183,43.73698],[-7.77225,43.73776],[-7.77229,43.7381],[-7.77212,43.73878],[-7.77187,43.739],[-7.77141,43.73911],[-7.77094,43.73895],[-7.7708,43.73876],[-7.77053,43.73864],[-7.77006,43.73863],[-7.76903,43.73838],[-7.7687,43.73842],[-7.76772,43.73889],[-7.76762,43.73932],[-7.76745,43.73953],[-7.76701,43.73967],[-7.76625,43.73947],[-7.76504,43.73947],[-7.76321,43.73978],[-7.7612,43.73979],[-7.76078,43.74011],[-7.76007,43.74013],[-7.75986,43.73997],[-7.75956,43.74008],[-7.75896,43.7401],[-7.75879,43.74026],[-7.75843,43.74035],[-7.75756,43.74038],[-7.75737,43.74053],[-7.75644,43.74068],[-7.75599,43.74122],[-7.75543,43.74155],[-7.75549,43.74184],[-7.75519,43.74205],[-7.75477,43.74211],[-7.75446,43.74233],[-7.7541,43.7427],[-7.75416,43.74303],[-7.75384,43.74328],[-7.75336,43.74337],[-7.75317,43.74365],[-7.75372,43.74475],[-7.75364,43.74497],[-7.75253,43.74543],[-7.75105,43.74588],[-7.7507,43.74654],[-7.75031,43.74671],[-7.74951,43.74673],[-7.74874,43.74618],[-7.74844,43.74607],[-7.74761,43.74652],[-7.74707,43.74602],[-7.74657,43.74588],[-7.74556,43.74584],[-7.74301,43.74493],[-7.74217,43.74526],[-7.74202,43.74563],[-7.74155,43.74605],[-7.74109,43.74628],[-7.74049,43.74641],[-7.73924,43.74645],[-7.73831,43.74678],[-7.73791,43.74671],[-7.73716,43.74689],[-7.73672,43.74713],[-7.73658,43.74743],[-7.73622,43.74775],[-7.73593,43.74784],[-7.73529,43.74777],[-7.73473,43.74787],[-7.73473,43.74831],[-7.73501,43.74867],[-7.73494,43.74909],[-7.73432,43.74942],[-7.73365,43.75004],[-7.73332,43.75087],[-7.73308,43.75104],[-7.73167,43.75097],[-7.73111,43.75047]]],[[[-7.80069,43.74465],[-7.80044,43.74438],[-7.80014,43.7444],[-7.79998,43.74426],[-7.80017,43.74404],[-7.80058,43.74406],[-7.80098,43.74392],[-7.80128,43.74394],[-7.80149,43.7443],[-7.80146,43.74447],[-7.80116,43.74468],[-7.80089,43.74473],[-7.80069,43.74465]]]]}},{"type":"Feature","properties":{"id":"1506102003"},"geometry":{"type":"MultiPolygon","coordinates":[[[[-7.82391,43.71544],[-7.82359,43.71508],[-7.82336,43.71529],[-7.82317,43.71521],[-7.82299,43.71534],[-7.82271,43.71536],[-7.82233,43.71506],[-7.82188,43.71495],[-7.82144,43.71442],[-7.82146,43.71413],[-7.8217,43.71373],[-7.82212,43.71331],[-7.8225,43.71325],[-7.82252,43.71311],[-7.82237,43.71299],[-7.82238,43.71281],[-7.82254,43.71265],[-7.82243,43.71224],[-7.82199,43.71228],[-7.82171,43.71222],[-7.82163,43.71242],[-7.82118,43.7128],[-7.82114,43.7131],[-7.82092,43.71333],[-7.82017,43.71354],[-7.81941,43.71324],[-7.81936,43.71272],[-7.81954,43.71254],[-7.81945,43.71242],[-7.81908,43.71249],[-7.8187,43.71215],[-7.81791,43.71234],[-7.81775,43.71226],[-7.81727,43.71301],[-7.81676,43.71317],[-7.81629,43.71373],[-7.81609,43.71379],[-7.81575,43.71363],[-7.81545,43.71368],[-7.81516,43.71355],[-7.81211,43.70993],[-7.80627,43.70739],[-7.79949,43.70471],[-7.79402,43.703],[-7.78875,43.70115],[-7.78516,43.70029],[-7.77796,43.69952],[-7.77096,43.69862],[-7.76429,43.69993],[-7.76463,43.70294],[-7.75057,43.70253],[-7.74284,43.70024],[-7.73907,43.69845],[-7.73894,43.69555],[-7.7383,43.69107],[-7.73841,43.69006],[-7.73655,43.68726],[-7.73511,43.68597],[-7.73353,43.68435],[-7.73455,43.6808],[-7.73462,43.67821],[-7.73584,43.67693],[-7.73943,43.67661],[-7.74199,43.67522],[-7.74263,43.67441],[-7.74285,43.67323],[-7.74264,43.67021],[-7.74285,43.66869],[-7.74291,43.66678],[-7.74327,43.66624],[-7.74375,43.66509],[-7.74312,43.66308],[-7.74249,43.65986],[-7.74391,43.65789],[-7.74408,43.65709],[-7.74418,43.65536],[-7.74947,43.64887],[-7.75057,43.64775],[-7.75175,43.64692],[-7.75302,43.64448],[-7.75438,43.64147],[-7.75709,43.63929],[-7.75885,43.63537],[-7.75993,43.63036],[-7.76034,43.62954],[-7.76124,43.6284],[-7.76021,43.62707],[-7.76118,43.62541],[-7.76322,43.62465],[-7.76473,43.62396],[-7.76581,43.62977],[-7.76748,43.63174],[-7.77011,43.63443],[-7.77325,43.63677],[-7.77639,43.63823],[-7.78175,43.63935],[-7.78541,43.63992],[-7.78952,43.64228],[-7.79459,43.64553],[-7.79811,43.6532],[-7.8025,43.65378],[-7.8086,43.65438],[-7.81106,43.65403],[-7.81465,43.6635],[-7.81445,43.66681],[-7.81308,43.6702],[-7.81659,43.6708],[-7.82034,43.67226],[-7.82603,43.67478],[-7.83224,43.67721],[-7.82891,43.68068],[-7.82782,43.68313],[-7.8284,43.6872],[-7.83017,43.68997],[-7.83306,43.69271],[-7.83295,43.69298],[-7.83348,43.69372],[-7.83404,43.69394],[-7.83415,43.69433],[-7.83388,43.69456],[-7.83277,43.69497],[-7.83201,43.69502],[-7.83172,43.69489],[-7.82981,43.69466],[-7.82813,43.69489],[-7.82726,43.6949],[-7.82705,43.69499],[-7.8271,43.69542],[-7.82673,43.69547],[-7.82596,43.69537],[-7.82506,43.69564],[-7.82462,43.69561],[-7.82432,43.69543],[-7.82242,43.6958],[-7.82178,43.69578],[-7.82139,43.69559],[-7.82133,43.6953],[-7.82144,43.69508],[-7.82173,43.69486],[-7.82246,43.69476],[-7.82322,43.69481],[-7.82337,43.69465],[-7.8233,43.69449],[-7.82307,43.69445],[-7.82219,43.69463],[-7.82186,43.69453],[-7.82173,43.69422],[-7.82177,43.69364],[-7.82197,43.69328],[-7.82291,43.69316],[-7.82371,43.69347],[-7.82513,43.69343],[-7.82599,43.69362],[-7.82664,43.69359],[-7.82745,43.69341],[-7.82702,43.69328],[-7.82628,43.69338],[-7.82602,43.69323],[-7.82496,43.6932],[-7.82461,43.69301],[-7.82376,43.6931],[-7.82327,43.69283],[-7.82333,43.69198],[-7.82363,43.6916],[-7.82446,43.69128],[-7.82484,43.69018],[-7.82465,43.69007],[-7.82443,43.69018],[-7.82389,43.69097],[-7.82329,43.69135],[-7.82229,43.69223],[-7.82154,43.69267],[-7.82066,43.69297],[-7.82044,43.6933],[-7.81999,43.69356],[-7.8194,43.69367],[-7.81829,43.69429],[-7.81764,43.69443],[-7.81635,43.69429],[-7.81588,43.69434],[-7.81535,43.69452],[-7.81463,43.69571],[-7.81421,43.69589],[-7.81387,43.69577],[-7.8142,43.69463],[-7.81409,43.69441],[-7.81309,43.69448],[-7.81273,43.69432],[-7.81231,43.6943],[-7.81161,43.69398],[-7.81007,43.69389],[-7.8095,43.69427],[-7.80894,43.69423],[-7.80758,43.69465],[-7.80724,43.69457],[-7.80687,43.69483],[-7.80732,43.69539],[-7.80737,43.69573],[-7.80761,43.69607],[-7.80826,43.69642],[-7.80896,43.69653],[-7.80969,43.69706],[-7.81034,43.69698],[-7.81084,43.69718],[-7.81122,43.69713],[-7.81173,43.69725],[-7.81232,43.69705],[-7.81313,43.69715],[-7.8136,43.69643],[-7.81392,43.69648],[-7.81408,43.69674],[-7.81372,43.69753],[-7.81392,43.69775],[-7.81439,43.698],[-7.81501,43.69796],[-7.81525,43.69815],[-7.81509,43.69834],[-7.81522,43.69848],[-7.81575,43.69856],[-7.81596,43.69883],[-7.8157,43.69917],[-7.81688,43.69948],[-7.81791,43.6999],[-7.81853,43.70045],[-7.81922,43.70038],[-7.81962,43.70052],[-7.82005,43.70088],[-7.82085,43.70076],[-7.82126,43.7009],[-7.82192,43.70073],[-7.82256,43.70089],[-7.82401,43.7006],[-7.82527,43.70057],[-7.82596,43.70085],[-7.82654,43.70202],[-7.827,43.70264],[-7.82646,43.70378],[-7.82653,43.70426],[-7.82705,43.70528],[-7.82677,43.70579],[-7.82688,43.70624],[-7.82675,43.70694],[-7.82762,43.70768],[-7.82866,43.70804],[-7.82892,43.70837],[-7.82929,43.70849],[-7.82965,43.70846],[-7.82998,43.70867],[-7.83017,43.70894],[-7.83016,43.70957],[-7.82985,43.70997],[-7.83006,43.71032],[-7.82973,43.7107],[-7.82917,43.7108],[-7.82885,43.71109],[-7.82881,43.71189],[-7.82895,43.71249],[-7.82887,43.71276],[-7.82824,43.71295],[-7.82798,43.71283],[-7.82786,43.71293],[-7.82784,43.71328],[-7.82817,43.7133],[-7.82871,43.71377],[-7.82862,43.71394],[-7.82832,43.71417],[-7.82801,43.71414],[-7.82787,43.71421],[-7.82734,43.71401],[-7.82723,43.7138],[-7.82688,43.71424],[-7.82626,43.71416],[-7.82643,43.71438],[-7.82598,43.71467],[-7.82584,43.71509],[-7.82551,43.71524],[-7.82521,43.71521],[-7.82507,43.71502],[-7.82497,43.7155],[-7.82474,43.71555],[-7.82391,43.71544]]],[[[-7.83613,43.71004],[-7.83576,43.70984],[-7.83471,43.71007],[-7.83425,43.70997],[-7.83389,43.70964],[-7.8337,43.70967],[-7.83331,43.70953],[-7.8334,43.7091],[-7.83314,43.70894],[-7.83298,43.70854],[-7.83346,43.70812],[-7.834,43.70803],[-7.83432,43.70762],[-7.83517,43.70753],[-7.83551,43.70758],[-7.8358,43.70779],[-7.83627,43.70773],[-7.83681,43.70801],[-7.83756,43.70798],[-7.83785,43.70814],[-7.83795,43.70843],[-7.83842,43.7087],[-7.83837,43.709],[-7.83867,43.70923],[-7.83862,43.70935],[-7.83827,43.70948],[-7.83832,43.70987],[-7.83784,43.70987],[-7.83758,43.71038],[-7.8372,43.71039],[-7.83689,43.71003],[-7.83613,43.71004]]],[[[-7.80913,43.69522],[-7.80807,43.69511],[-7.80797,43.69497],[-7.8081,43.69469],[-7.80826,43.69462],[-7.80943,43.69465],[-7.8095,43.69502],[-7.80913,43.69522]]],[[[-7.80992,43.69426],[-7.81031,43.69413],[-7.81069,43.69419],[-7.81085,43.69437],[-7.81088,43.69484],[-7.81046,43.69486],[-7.8099,43.69448],[-7.80992,43.69426]]]]}},{"type":"Feature","properties":{"id":"1506103001"},"geometry":{"type":"Polygon","coordinates":[[[-7.84864,43.67026],[-7.84773,43.66936],[-7.84751,43.66895],[-7.84792,43.66861],[-7.848,43.66824],[-7.84729,43.6681],[-7.84617,43.66818],[-7.84429,43.66853],[-7.84371,43.66872],[-7.84318,43.6691],[-7.84274,43.66964],[-7.84127,43.66004],[-7.83665,43.65875],[-7.8296,43.65655],[-7.82598,43.65402],[-7.82011,43.65379],[-7.81326,43.65371],[-7.8086,43.65438],[-7.8025,43.65378],[-7.79811,43.6532],[-7.79459,43.64553],[-7.78952,43.64228],[-7.78541,43.63992],[-7.78175,43.63935],[-7.77639,43.63823],[-7.77325,43.63677],[-7.77011,43.63443],[-7.76748,43.63174],[-7.76581,43.62977],[-7.76473,43.62396],[-7.76621,43.62343],[-7.77159,43.62053],[-7.77289,43.61864],[-7.77552,43.61571],[-7.77709,43.61276],[-7.77907,43.61037],[-7.77954,43.60925],[-7.78001,43.60758],[-7.78181,43.60479],[-7.78386,43.6004],[-7.78533,43.59684],[-7.78665,43.59505],[-7.78741,43.59357],[-7.78813,43.59184],[-7.78965,43.58897],[-7.79002,43.58844],[-7.79173,43.58715],[-7.79282,43.58608],[-7.7943,43.58432],[-7.79422,43.58294],[-7.79622,43.57989],[-7.79722,43.57769],[-7.79843,43.57357],[-7.79853,43.5714],[-7.79891,43.56902],[-7.7994,43.56772],[-7.80065,43.56558],[-7.80105,43.56436],[-7.80109,43.56303],[-7.80124,43.56251],[-7.80203,43.56118],[-7.80371,43.56416],[-7.80538,43.56411],[-7.80619,43.56472],[-7.80713,43.5658],[-7.80748,43.566],[-7.8079,43.56612],[-7.80882,43.56616],[-7.80963,43.56596],[-7.81029,43.56555],[-7.81091,43.56508],[-7.8111,43.56482],[-7.81167,43.56444],[-7.81225,43.56416],[-7.8127,43.56419],[-7.81494,43.56464],[-7.81524,43.56483],[-7.81653,43.56732],[-7.81729,43.56759],[-7.82317,43.56862],[-7.82911,43.57017],[-7.83088,43.57041],[-7.83256,43.5705],[-7.83646,43.56966],[-7.84263,43.56779],[-7.83904,43.56163],[-7.83866,43.56084],[-7.83867,43.56062],[-7.84252,43.55918],[-7.84342,43.5587],[-7.84367,43.55847],[-7.84376,43.55825],[-7.84366,43.55798],[-7.84225,43.55706],[-7.84225,43.55691],[-7.84305,43.556],[-7.84311,43.55582],[-7.84285,43.55549],[-7.84291,43.55533],[-7.84352,43.55504],[-7.84516,43.55475],[-7.84581,43.55425],[-7.84608,43.55331],[-7.84631,43.55318],[-7.84845,43.55341],[-7.84874,43.55357],[-7.84925,43.55434],[-7.84984,43.55466],[-7.851,43.55386],[-7.85131,43.55397],[-7.85475,43.55625],[-7.85934,43.55714],[-7.86081,43.55716],[-7.86167,43.55764],[-7.86267,43.55776],[-7.86305,43.5577],[-7.86327,43.55749],[-7.86336,43.55652],[-7.86383,43.55617],[-7.86462,43.55612],[-7.8673,43.5565],[-7.86756,43.55645],[-7.86784,43.55604],[-7.8679,43.55535],[-7.86838,43.55539],[-7.86907,43.55608],[-7.86967,43.55626],[-7.87035,43.55625],[-7.871,43.55608],[-7.87152,43.55621],[-7.87286,43.5561],[-7.87343,43.55629],[-7.87388,43.55633],[-7.87439,43.55622],[-7.87469,43.55596],[-7.87481,43.55571],[-7.87481,43.55524],[-7.87514,43.55457],[-7.87623,43.55382],[-7.87702,43.55363],[-7.87761,43.55373],[-7.87767,43.5539],[-7.87752,43.55424],[-7.87671,43.55472],[-7.87666,43.55487],[-7.87679,43.55511],[-7.87709,43.55532],[-7.87738,43.55537],[-7.87806,43.55523],[-7.87859,43.55524],[-7.87879,43.55533],[-7.87899,43.55564],[-7.8788,43.5561],[-7.87829,43.55643],[-7.87676,43.55657],[-7.87598,43.55685],[-7.8752,43.55736],[-7.87459,43.55802],[-7.87414,43.55897],[-7.87405,43.55969],[-7.87427,43.56023],[-7.87465,43.56062],[-7.87679,43.56135],[-7.87766,43.56202],[-7.87791,43.56266],[-7.87784,43.563],[-7.87646,43.56486],[-7.87664,43.56516],[-7.87683,43.56521],[-7.87707,43.5652],[-7.8779,43.56492],[-7.87843,43.56487],[-7.87865,43.56499],[-7.87886,43.5655],[-7.8788,43.56614],[-7.87852,43.56668],[-7.87803,43.56698],[-7.87749,43.56714],[-7.87649,43.56718],[-7.87617,43.56733],[-7.87606,43.56767],[-7.87657,43.56845],[-7.87663,43.5689],[-7.87634,43.56924],[-7.87595,43.56934],[-7.87458,43.56925],[-7.87247,43.56885],[-7.87208,43.56888],[-7.87189,43.56906],[-7.87188,43.5699],[-7.87098,43.57079],[-7.86933,43.57098],[-7.8688,43.57115],[-7.86853,43.57133],[-7.8683,43.57166],[-7.86836,43.57197],[-7.86873,43.57223],[-7.87051,43.57238],[-7.87076,43.57274],[-7.87072,43.57358],[-7.87046,43.57392],[-7.86971,43.57441],[-7.86907,43.57466],[-7.8677,43.57495],[-7.86673,43.57495],[-7.8647,43.57469],[-7.86416,43.57491],[-7.864,43.57508],[-7.86383,43.57569],[-7.86389,43.57594],[-7.86416,43.57631],[-7.86546,43.57729],[-7.86639,43.5778],[-7.86686,43.57793],[-7.8674,43.57798],[-7.86991,43.57784],[-7.87106,43.57818],[-7.87226,43.57812],[-7.87415,43.57857],[-7.87483,43.57819],[-7.87572,43.57697],[-7.87595,43.57687],[-7.87652,43.57736],[-7.87764,43.5777],[-7.87831,43.57892],[-7.87952,43.57897],[-7.87983,43.57908],[-7.88,43.57931],[-7.88045,43.57939],[-7.88109,43.57925],[-7.88102,43.57857],[-7.88111,43.57836],[-7.88212,43.57743],[-7.88329,43.57725],[-7.8847,43.57727],[-7.88699,43.57712],[-7.88962,43.57654],[-7.88995,43.57636],[-7.89023,43.57603],[-7.89005,43.57575],[-7.88838,43.57455],[-7.88832,43.57412],[-7.88858,43.57346],[-7.88909,43.57281],[-7.89142,43.57157],[-7.89168,43.57152],[-7.89184,43.57159],[-7.89221,43.57235],[-7.89223,43.57321],[-7.89242,43.57367],[-7.8931,43.57408],[-7.89549,43.575],[-7.89628,43.57546],[-7.89781,43.57598],[-7.89969,43.57611],[-7.90039,43.5765],[-7.90068,43.57677],[-7.9008,43.57713],[-7.90141,43.57795],[-7.90248,43.57874],[-7.90244,43.57915],[-7.90254,43.57955],[-7.90233,43.57993],[-7.90135,43.58084],[-7.90129,43.58108],[-7.90147,43.5817],[-7.90176,43.58214],[-7.90253,43.58287],[-7.9024,43.58337],[-7.90189,43.58417],[-7.90109,43.58681],[-7.9006,43.58758],[-7.9007,43.58827],[-7.89981,43.58873],[-7.89969,43.58919],[-7.90042,43.59093],[-7.90062,43.59171],[-7.90139,43.59321],[-7.90284,43.59356],[-7.90357,43.59399],[-7.90514,43.59528],[-7.9052,43.59549],[-7.90505,43.59629],[-7.90442,43.59775],[-7.90314,43.59935],[-7.90251,43.60031],[-7.90236,43.60077],[-7.90286,43.60211],[-7.9039,43.60319],[-7.90393,43.6041],[-7.9037,43.60488],[-7.90323,43.60518],[-7.90165,43.60556],[-7.90105,43.60624],[-7.90022,43.60678],[-7.89868,43.60805],[-7.90031,43.60828],[-7.90189,43.60822],[-7.90258,43.60837],[-7.90547,43.60953],[-7.90653,43.61039],[-7.90722,43.61156],[-7.90799,43.6123],[-7.90821,43.61345],[-7.90899,43.61552],[-7.87406,43.62886],[-7.88332,43.63514],[-7.88689,43.63827],[-7.88682,43.64183],[-7.88571,43.64445],[-7.8867,43.64818],[-7.89175,43.65225],[-7.89382,43.65537],[-7.89625,43.66236],[-7.89649,43.66636],[-7.89547,43.66617],[-7.8938,43.66601],[-7.89295,43.66613],[-7.89228,43.66646],[-7.89183,43.6671],[-7.89154,43.66715],[-7.88888,43.66615],[-7.88771,43.66538],[-7.88728,43.66481],[-7.88486,43.66297],[-7.88458,43.66289],[-7.88399,43.66292],[-7.88286,43.66365],[-7.8825,43.66379],[-7.8816,43.66383],[-7.88068,43.66359],[-7.87977,43.6636],[-7.8794,43.66316],[-7.8798,43.6625],[-7.87981,43.66238],[-7.87967,43.66237],[-7.8789,43.6628],[-7.87829,43.66359],[-7.87779,43.66373],[-7.87739,43.66345],[-7.87739,43.66274],[-7.87729,43.6626],[-7.87697,43.66248],[-7.87667,43.66247],[-7.87641,43.66258],[-7.87568,43.66316],[-7.87528,43.66313],[-7.87509,43.66297],[-7.87489,43.66243],[-7.87438,43.66199],[-7.87405,43.6615],[-7.87368,43.66176],[-7.87335,43.66229],[-7.87297,43.66246],[-7.87275,43.6633],[-7.87309,43.66409],[-7.87301,43.66458],[-7.87288,43.66475],[-7.87207,43.66506],[-7.87133,43.66521],[-7.86993,43.6652],[-7.86902,43.66498],[-7.86814,43.66462],[-7.86585,43.66253],[-7.86584,43.6622],[-7.86574,43.66205],[-7.86558,43.66201],[-7.86541,43.66214],[-7.86535,43.66272],[-7.86523,43.6628],[-7.86504,43.66275],[-7.86456,43.66222],[-7.86434,43.66257],[-7.86366,43.66275],[-7.86343,43.6629],[-7.86325,43.66334],[-7.86386,43.66329],[-7.86437,43.66335],[-7.86488,43.66356],[-7.8651,43.66389],[-7.86518,43.66445],[-7.86563,43.66479],[-7.86599,43.66637],[-7.86602,43.66723],[-7.86577,43.66776],[-7.86563,43.66785],[-7.86196,43.66864],[-7.85911,43.66971],[-7.85857,43.66981],[-7.85798,43.6697],[-7.8569,43.66918],[-7.85653,43.66913],[-7.85472,43.66951],[-7.85351,43.66933],[-7.85243,43.67],[-7.85153,43.67098],[-7.8514,43.67151],[-7.85058,43.67304],[-7.84994,43.67353],[-7.84965,43.67348],[-7.84947,43.67322],[-7.84978,43.67259],[-7.84986,43.67148],[-7.84946,43.67065],[-7.84864,43.67026]]]}},{"type":"Feature","properties":{"id":"1506103002"},"geometry":{"type":"Polygon","coordinates":[[[-7.92883,43.6913],[-7.9275,43.69085],[-7.92603,43.69105],[-7.92497,43.69196],[-7.92387,43.6925],[-7.92226,43.69284],[-7.91971,43.69225],[-7.91901,43.69182],[-7.91775,43.6908],[-7.9152,43.6901],[-7.9106,43.69036],[-7.90757,43.68981],[-7.90635,43.68916],[-7.90674,43.68817],[-7.90676,43.68672],[-7.90601,43.68591],[-7.90439,43.68613],[-7.90257,43.68623],[-7.90135,43.68557],[-7.8999,43.68433],[-7.89837,43.68381],[-7.89039,43.68332],[-7.89015,43.68309],[-7.88994,43.68304],[-7.88922,43.68316],[-7.88911,43.68314],[-7.88902,43.68288],[-7.88886,43.68279],[-7.88839,43.68289],[-7.88806,43.6824],[-7.88762,43.68225],[-7.88762,43.68176],[-7.88752,43.68166],[-7.88666,43.68168],[-7.88627,43.68148],[-7.88572,43.68154],[-7.88511,43.68173],[-7.88433,43.6816],[-7.88405,43.68163],[-7.88348,43.682],[-7.88289,43.68215],[-7.88245,43.68216],[-7.88147,43.68201],[-7.87916,43.68214],[-7.87857,43.6819],[-7.87805,43.68155],[-7.87753,43.68145],[-7.87616,43.68176],[-7.87546,43.68168],[-7.87244,43.68076],[-7.87156,43.68031],[-7.87114,43.67986],[-7.8711,43.67919],[-7.87188,43.67777],[-7.87286,43.67643],[-7.87291,43.67603],[-7.87278,43.67563],[-7.87207,43.6744],[-7.8717,43.67318],[-7.87183,43.67229],[-7.87229,43.67167],[-7.87261,43.67147],[-7.87387,43.67149],[-7.87435,43.67158],[-7.87564,43.67143],[-7.87725,43.67149],[-7.87763,43.67166],[-7.87807,43.67216],[-7.87846,43.6729],[-7.87925,43.67355],[-7.87977,43.67436],[-7.88027,43.67487],[-7.88053,43.67558],[-7.88078,43.6759],[-7.88152,43.67648],[-7.88206,43.67714],[-7.88278,43.67676],[-7.88356,43.67682],[-7.88568,43.67747],[-7.88672,43.67763],[-7.88838,43.67742],[-7.89069,43.67624],[-7.89215,43.67588],[-7.89279,43.67553],[-7.89397,43.67527],[-7.89527,43.67429],[-7.89559,43.67414],[-7.89603,43.67411],[-7.89664,43.67323],[-7.89704,43.67288],[-7.89928,43.67177],[-7.90009,43.67175],[-7.90104,43.67221],[-7.90168,43.67231],[-7.90194,43.67221],[-7.90263,43.67161],[-7.90354,43.6713],[-7.90384,43.67128],[-7.90411,43.67148],[-7.90465,43.67141],[-7.90463,43.67112],[-7.90449,43.67094],[-7.90389,43.67082],[-7.90362,43.67062],[-7.90324,43.67014],[-7.90226,43.66924],[-7.90111,43.66847],[-7.89909,43.66757],[-7.89727,43.66691],[-7.89649,43.66636],[-7.89625,43.66236],[-7.89382,43.65537],[-7.89175,43.65225],[-7.8867,43.64818],[-7.88571,43.64445],[-7.88682,43.64183],[-7.88689,43.63827],[-7.88332,43.63514],[-7.87406,43.62886],[-7.90899,43.61552],[-7.90945,43.61599],[-7.9119,43.61674],[-7.91271,43.6167],[-7.9131,43.61653],[-7.91364,43.61613],[-7.9139,43.6161],[-7.91415,43.6162],[-7.91494,43.61753],[-7.9147,43.61802],[-7.9142,43.61841],[-7.91232,43.62034],[-7.91209,43.62083],[-7.91209,43.62106],[-7.91378,43.62315],[-7.91493,43.62492],[-7.91577,43.62656],[-7.91562,43.62715],[-7.91453,43.62968],[-7.91336,43.63085],[-7.91321,43.63138],[-7.91334,43.63155],[-7.91387,43.63187],[-7.91405,43.63216],[-7.91611,43.63242],[-7.91841,43.63324],[-7.91874,43.63351],[-7.9203,43.63576],[-7.92315,43.63588],[-7.9246,43.6362],[-7.9249,43.6364],[-7.92547,43.63727],[-7.92905,43.63914],[-7.92964,43.63968],[-7.93036,43.64136],[-7.93002,43.64242],[-7.93122,43.64442],[-7.93141,43.64518],[-7.93126,43.64932],[-7.93177,43.64992],[-7.93311,43.651],[-7.93424,43.65235],[-7.93491,43.65275],[-7.93909,43.6545],[-7.94048,43.65468],[-7.94194,43.65447],[-7.94359,43.65453],[-7.94666,43.65692],[-7.94701,43.65762],[-7.94722,43.65836],[-7.94832,43.66052],[-7.94911,43.66126],[-7.95041,43.66218],[-7.95337,43.66493],[-7.9535,43.66532],[-7.95344,43.66587],[-7.9532,43.6667],[-7.95289,43.6695],[-7.95316,43.67043],[-7.95401,43.67127],[-7.95619,43.67271],[-7.95719,43.67383],[-7.95732,43.67416],[-7.95721,43.67481],[-7.95465,43.67721],[-7.95441,43.6773],[-7.95313,43.67741],[-7.95209,43.67787],[-7.95178,43.6782],[-7.95167,43.67851],[-7.95149,43.67924],[-7.95163,43.67968],[-7.95239,43.68034],[-7.95714,43.68227],[-7.96239,43.68469],[-7.96261,43.68675],[-7.96303,43.68722],[-7.96341,43.68737],[-7.96366,43.68764],[-7.96375,43.68792],[-7.96363,43.68833],[-7.96341,43.68853],[-7.9607,43.69005],[-7.96032,43.69008],[-7.95948,43.68996],[-7.95762,43.68948],[-7.95606,43.6893],[-7.95503,43.68945],[-7.95412,43.68983],[-7.95293,43.69062],[-7.95195,43.69196],[-7.95144,43.69225],[-7.95071,43.69239],[-7.94855,43.69185],[-7.94775,43.69146],[-7.94746,43.69142],[-7.94562,43.69166],[-7.94319,43.69215],[-7.94018,43.69218],[-7.93932,43.69233],[-7.93841,43.69203],[-7.93759,43.69208],[-7.93685,43.69192],[-7.93623,43.69157],[-7.93527,43.69069],[-7.93441,43.69064],[-7.93325,43.6908],[-7.93309,43.69076],[-7.93274,43.69033],[-7.92917,43.69107],[-7.92883,43.6913]]]}}]}