{"type":"FeatureCollection","features":[{"type":"Feature","properties":{"id":"1507701001"},"geometry":{"type":"Polygon","coordinates":[[[-8.76541,43.02052],[-8.7665,43.01968],[-8.77273,43.01425],[-8.77428,43.01316],[-8.76951,43.01089],[-8.76829,43.01066],[-8.7676,43.01032],[-8.76718,43.00994],[-8.7666,43.00903],[-8.76618,43.00865],[-8.76528,43.00726],[-8.76446,43.00623],[-8.76404,43.00532],[-8.76681,43.00459],[-8.77037,43.00479],[-8.77305,43.00431],[-8.77725,43.00289],[-8.77828,43.00436],[-8.7784,43.00438],[-8.77908,43.00361],[-8.77937,43.0035],[-8.77959,43.00351],[-8.78023,43.00378],[-8.78058,43.00364],[-8.78081,43.00366],[-8.78122,43.00403],[-8.78177,43.00423],[-8.78326,43.00348],[-8.78635,43.0053],[-8.78823,43.00599],[-8.78995,43.006],[-8.79043,43.00587],[-8.79223,43.00659],[-8.79862,43.01181],[-8.80144,43.0137],[-8.80519,43.0173],[-8.81168,43.02147],[-8.81416,43.02243],[-8.81674,43.02364],[-8.81829,43.02557],[-8.81913,43.02737],[-8.81911,43.02893],[-8.81837,43.0304],[-8.8172,43.03202],[-8.81596,43.03317],[-8.81498,43.03472],[-8.81473,43.03535],[-8.81349,43.03519],[-8.81319,43.03561],[-8.81273,43.03561],[-8.81238,43.0358],[-8.81238,43.03622],[-8.81178,43.03637],[-8.8099,43.03651],[-8.80929,43.03671],[-8.80877,43.03716],[-8.80768,43.0384],[-8.80694,43.04032],[-8.808,43.04282],[-8.80919,43.04458],[-8.80872,43.04532],[-8.80591,43.04854],[-8.80397,43.05045],[-8.80263,43.05201],[-8.80229,43.05333],[-8.79901,43.05477],[-8.7946,43.03755],[-8.79898,43.03575],[-8.80486,43.0335],[-8.8035,43.03337],[-8.8025,43.03303],[-8.80187,43.03266],[-8.79809,43.0294],[-8.79377,43.0254],[-8.79152,43.0268],[-8.78835,43.02739],[-8.7854,43.02731],[-8.78262,43.02686],[-8.78022,43.02633],[-8.77417,43.02344],[-8.7703,43.02191],[-8.76541,43.02052]]]}},{"type":"Feature","properties":{"id":"1507701002"},"geometry":{"type":"Polygon","coordinates":[[[-8.79901,43.05477],[-8.80229,43.05333],[-8.80263,43.05201],[-8.80397,43.05045],[-8.80591,43.04854],[-8.80872,43.04532],[-8.80919,43.04458],[-8.808,43.04282],[-8.80694,43.04032],[-8.80768,43.0384],[-8.80877,43.03716],[-8.80929,43.03671],[-8.8099,43.03651],[-8.81178,43.03637],[-8.81238,43.03622],[-8.81238,43.0358],[-8.81273,43.03561],[-8.81319,43.03561],[-8.81349,43.03519],[-8.81473,43.03535],[-8.81498,43.03472],[-8.81596,43.03317],[-8.8172,43.03202],[-8.81837,43.0304],[-8.81911,43.02893],[-8.81913,43.02737],[-8.81829,43.02557],[-8.81674,43.02364],[-8.81416,43.02243],[-8.81168,43.02147],[-8.80519,43.0173],[-8.80144,43.0137],[-8.79862,43.01181],[-8.79223,43.00659],[-8.79285,43.00684],[-8.79937,43.00591],[-8.80012,43.00444],[-8.80579,43.00235],[-8.81252,42.99714],[-8.81323,42.99777],[-8.8139,42.99864],[-8.81428,42.99939],[-8.81471,43.00179],[-8.81487,43.00197],[-8.81549,43.002],[-8.81594,43.00185],[-8.81662,43.00183],[-8.81868,43.00261],[-8.819,43.00263],[-8.8196,43.00248],[-8.82007,43.00223],[-8.82043,43.00225],[-8.82119,43.00304],[-8.822,43.0036],[-8.82227,43.00361],[-8.82323,43.00335],[-8.82482,43.0036],[-8.82515,43.0035],[-8.82622,43.00349],[-8.82657,43.00342],[-8.82689,43.00286],[-8.8274,43.00253],[-8.82931,43.0028],[-8.82966,43.00273],[-8.83,43.00252],[-8.83078,43.00144],[-8.83158,43.00096],[-8.83226,43.00079],[-8.83326,43.00073],[-8.83489,42.99904],[-8.83631,42.99841],[-8.83705,42.99831],[-8.83849,42.99863],[-8.84017,43.0003],[-8.84112,43.00517],[-8.84223,43.01443],[-8.84307,43.01884],[-8.84193,43.02083],[-8.84204,43.02216],[-8.84187,43.02349],[-8.84158,43.02437],[-8.84163,43.02586],[-8.8414,43.02694],[-8.84208,43.02885],[-8.84253,43.03064],[-8.84247,43.03139],[-8.84122,43.03209],[-8.84094,43.03292],[-8.84127,43.03471],[-8.84064,43.03837],[-8.84109,43.03991],[-8.84126,43.04103],[-8.84074,43.04194],[-8.84006,43.04236],[-8.83966,43.04294],[-8.83938,43.04439],[-8.83807,43.04705],[-8.83693,43.04821],[-8.83591,43.04896],[-8.83528,43.04991],[-8.83488,43.05078],[-8.83386,43.05153],[-8.83284,43.05211],[-8.8312,43.05252],[-8.83063,43.05302],[-8.82995,43.05418],[-8.82938,43.05456],[-8.82785,43.05472],[-8.82654,43.05517],[-8.82484,43.05554],[-8.82391,43.05643],[-8.82383,43.05804],[-8.82355,43.05893],[-8.82276,43.05966],[-8.82112,43.05992],[-8.81992,43.0595],[-8.81978,43.05856],[-8.81885,43.05767],[-8.81779,43.05736],[-8.817,43.05767],[-8.81465,43.05813],[-8.81167,43.05797],[-8.80818,43.0575],[-8.80171,43.05618],[-8.79901,43.05477]]]}},{"type":"Feature","properties":{"id":"1507701003"},"geometry":{"type":"Polygon","coordinates":[[[-8.77115,43.11659],[-8.77075,43.10877],[-8.76911,43.10796],[-8.76268,43.10918],[-8.76215,43.10903],[-8.76147,43.11005],[-8.75123,43.11109],[-8.7496,43.11081],[-8.74666,43.11097],[-8.74634,43.10937],[-8.74679,43.10916],[-8.74729,43.10856],[-8.74792,43.1081],[-8.74896,43.10769],[-8.74961,43.10718],[-8.74983,43.10696],[-8.75023,43.10611],[-8.75084,43.10557],[-8.75135,43.10535],[-8.75213,43.10484],[-8.75306,43.10397],[-8.75353,43.10313],[-8.75279,43.10284],[-8.75239,43.10249],[-8.75196,43.10124],[-8.75155,43.101],[-8.7513,43.10093],[-8.75043,43.10097],[-8.74593,43.09927],[-8.74655,43.0849],[-8.73167,43.06471],[-8.74092,43.06142],[-8.74391,43.06047],[-8.74459,43.05992],[-8.74753,43.05666],[-8.74793,43.05634],[-8.75405,43.05571],[-8.75755,43.05624],[-8.75877,43.05596],[-8.75963,43.05567],[-8.7601,43.05524],[-8.76092,43.05475],[-8.76201,43.05378],[-8.76401,43.05403],[-8.76633,43.05339],[-8.76783,43.05235],[-8.77011,43.05118],[-8.77086,43.04979],[-8.77096,43.04886],[-8.77141,43.04866],[-8.77267,43.05042],[-8.77544,43.0525],[-8.77832,43.05371],[-8.79564,43.05748],[-8.79901,43.05477],[-8.80171,43.05618],[-8.80818,43.0575],[-8.81167,43.05797],[-8.81465,43.05813],[-8.817,43.05767],[-8.81779,43.05736],[-8.81885,43.05767],[-8.81978,43.05856],[-8.81992,43.0595],[-8.82112,43.05992],[-8.82276,43.05966],[-8.82355,43.05893],[-8.82383,43.05804],[-8.82391,43.05643],[-8.82484,43.05554],[-8.82654,43.05517],[-8.82743,43.06475],[-8.82717,43.0655],[-8.82774,43.06658],[-8.8271,43.06756],[-8.82582,43.06821],[-8.82505,43.06915],[-8.82422,43.06943],[-8.82326,43.06943],[-8.82154,43.06989],[-8.8209,43.07031],[-8.81962,43.07078],[-8.81847,43.07167],[-8.81828,43.07269],[-8.81795,43.0734],[-8.81725,43.07335],[-8.81604,43.07349],[-8.8161,43.07409],[-8.8147,43.07465],[-8.81399,43.07526],[-8.81335,43.07638],[-8.81316,43.07699],[-8.81398,43.07774],[-8.81468,43.07927],[-8.81535,43.07962],[-8.81549,43.08029],[-8.81506,43.08113],[-8.8152,43.08159],[-8.81467,43.08232],[-8.81477,43.08327],[-8.81515,43.08387],[-8.8149,43.08643],[-8.81517,43.09089],[-8.81694,43.09296],[-8.81799,43.09394],[-8.81856,43.09626],[-8.81779,43.09679],[-8.8174,43.09777],[-8.81941,43.09875],[-8.81955,43.10026],[-8.81902,43.10177],[-8.82007,43.10325],[-8.82045,43.10399],[-8.82065,43.10531],[-8.81932,43.10893],[-8.81619,43.1136],[-8.81589,43.11484],[-8.81548,43.11574],[-8.81476,43.11657],[-8.81429,43.11756],[-8.80849,43.1187],[-8.79143,43.11271],[-8.78053,43.11542],[-8.77115,43.11659]]]}},{"type":"Feature","properties":{"id":"1507701004"},"geometry":{"type":"Polygon","coordinates":[[[-8.77141,43.04866],[-8.7639,43.03475],[-8.75936,43.02583],[-8.7632,43.02223],[-8.76541,43.02052],[-8.7703,43.02191],[-8.77417,43.02344],[-8.78022,43.02633],[-8.78262,43.02686],[-8.7854,43.02731],[-8.78835,43.02739],[-8.79152,43.0268],[-8.79377,43.0254],[-8.79809,43.0294],[-8.80187,43.03266],[-8.8025,43.03303],[-8.8035,43.03337],[-8.80486,43.0335],[-8.79898,43.03575],[-8.7946,43.03755],[-8.79906,43.05468],[-8.79564,43.05748],[-8.77832,43.05371],[-8.77544,43.0525],[-8.77267,43.05042],[-8.77141,43.04866]]]}},{"type":"Feature","properties":{"id":"1507702001"},"geometry":{"type":"Polygon","coordinates":[[[-8.68867,43.08558],[-8.68809,43.08476],[-8.6879,43.08402],[-8.68636,43.08173],[-8.68396,43.07887],[-8.68365,43.0763],[-8.68362,43.0755],[-8.68392,43.07383],[-8.68413,43.07341],[-8.68486,43.07016],[-8.68582,43.06534],[-8.68709,43.06167],[-8.68772,43.06088],[-8.68724,43.06051],[-8.68703,43.06014],[-8.68709,43.05943],[-8.68677,43.05825],[-8.68704,43.05727],[-8.68684,43.05663],[-8.68679,43.05595],[-8.68707,43.05511],[-8.68754,43.05432],[-8.68777,43.05416],[-8.68815,43.05416],[-8.69748,43.05019],[-8.7049,43.04924],[-8.71006,43.04745],[-8.71114,43.04615],[-8.71123,43.04589],[-8.71225,43.04528],[-8.71325,43.04426],[-8.71351,43.04347],[-8.71501,43.04262],[-8.71543,43.04223],[-8.71663,43.04162],[-8.71855,43.04015],[-8.71877,43.03972],[-8.71832,43.03899],[-8.71826,43.03849],[-8.71862,43.03784],[-8.7198,43.037],[-8.72027,43.03634],[-8.72057,43.03559],[-8.72095,43.03419],[-8.72086,43.03355],[-8.72038,43.03314],[-8.71988,43.03292],[-8.71853,43.03161],[-8.71748,43.03091],[-8.71497,43.02973],[-8.71185,43.02881],[-8.70827,43.02498],[-8.71059,43.02183],[-8.71599,43.01524],[-8.71932,43.01498],[-8.71963,43.01407],[-8.71991,43.01284],[-8.71986,43.01205],[-8.71967,43.01132],[-8.71956,43.00919],[-8.71913,43.00791],[-8.71979,43.0069],[-8.71851,43.00641],[-8.71903,43.00568],[-8.71774,43.00445],[-8.71646,43.00077],[-8.71727,43.00003],[-8.71839,42.9986],[-8.72068,42.99504],[-8.72299,42.99544],[-8.72334,42.99563],[-8.72505,42.99596],[-8.72543,42.99649],[-8.72573,42.9967],[-8.72792,42.99714],[-8.7285,42.99711],[-8.72997,42.99667],[-8.73075,42.99665],[-8.73199,42.99679],[-8.73324,42.99707],[-8.73473,42.99721],[-8.73574,42.99772],[-8.7363,42.99788],[-8.73677,42.99784],[-8.73749,42.99747],[-8.7401,42.99717],[-8.74136,42.99801],[-8.74282,42.99627],[-8.74642,42.99751],[-8.7475,42.99885],[-8.75074,42.99937],[-8.75306,43.00067],[-8.75233,43.00185],[-8.75277,43.00311],[-8.75419,43.00402],[-8.75907,43.0045],[-8.76134,43.00605],[-8.76404,43.00532],[-8.76446,43.00623],[-8.76528,43.00726],[-8.76618,43.00865],[-8.7666,43.00903],[-8.76718,43.00994],[-8.7676,43.01032],[-8.76829,43.01066],[-8.76951,43.01089],[-8.77428,43.01316],[-8.77273,43.01425],[-8.7665,43.01968],[-8.7632,43.02223],[-8.75936,43.02583],[-8.7639,43.03475],[-8.77141,43.04866],[-8.77096,43.04886],[-8.77086,43.04979],[-8.77011,43.05118],[-8.76783,43.05235],[-8.76633,43.05339],[-8.76401,43.05403],[-8.76201,43.05378],[-8.76092,43.05475],[-8.7601,43.05524],[-8.75963,43.05567],[-8.75877,43.05596],[-8.75755,43.05624],[-8.75405,43.05571],[-8.74793,43.05634],[-8.74753,43.05666],[-8.74459,43.05992],[-8.74391,43.06047],[-8.74092,43.06142],[-8.73167,43.06471],[-8.74655,43.0849],[-8.74593,43.09927],[-8.74359,43.09839],[-8.74155,43.0991],[-8.73853,43.10051],[-8.73608,43.10096],[-8.72804,43.09847],[-8.72362,43.09766],[-8.72168,43.09741],[-8.71793,43.09724],[-8.70446,43.09399],[-8.7011,43.09109],[-8.68867,43.08558]]]}},{"type":"Feature","properties":{"id":"1507703001"},"geometry":{"type":"Polygon","coordinates":[[[-8.83849,42.99863],[-8.83891,42.99813],[-8.84014,42.9971],[-8.84053,42.99655],[-8.84064,42.99591],[-8.8405,42.99432],[-8.84126,42.99214],[-8.84189,42.98832],[-8.83921,42.98647],[-8.8391,42.98621],[-8.83882,42.98607],[-8.83774,42.98602],[-8.83803,42.98557],[-8.8376,42.9847],[-8.83738,42.98384],[-8.83722,42.98357],[-8.8366,42.98331],[-8.83613,42.98243],[-8.83559,42.98209],[-8.83548,42.98176],[-8.83561,42.98116],[-8.83632,42.97965],[-8.83636,42.97905],[-8.83616,42.97843],[-8.83537,42.97726],[-8.83506,42.97696],[-8.83443,42.97666],[-8.83417,42.97637],[-8.83388,42.97471],[-8.83414,42.97251],[-8.83591,42.97015],[-8.83686,42.96986],[-8.83733,42.96945],[-8.83756,42.96889],[-8.83764,42.96807],[-8.83752,42.96699],[-8.83712,42.96662],[-8.83631,42.96628],[-8.83521,42.96632],[-8.83419,42.96607],[-8.83309,42.96594],[-8.83224,42.96556],[-8.83167,42.96549],[-8.83184,42.96525],[-8.83178,42.96458],[-8.83218,42.96444],[-8.83242,42.96401],[-8.83296,42.96344],[-8.83439,42.96338],[-8.83488,42.96363],[-8.83554,42.96369],[-8.83576,42.96382],[-8.83649,42.96368],[-8.83718,42.96389],[-8.83805,42.9639],[-8.83871,42.9641],[-8.83956,42.96406],[-8.84028,42.96489],[-8.84125,42.96438],[-8.84295,42.96425],[-8.84647,42.96588],[-8.84999,42.96401],[-8.84926,42.96357],[-8.84954,42.96273],[-8.8502,42.9628],[-8.85069,42.96259],[-8.85169,42.96252],[-8.85196,42.96227],[-8.85172,42.96164],[-8.85206,42.96128],[-8.85219,42.96096],[-8.85237,42.96081],[-8.85375,42.96028],[-8.85441,42.9599],[-8.85474,42.95987],[-8.85494,42.96],[-8.85573,42.96009],[-8.85625,42.96026],[-8.85645,42.96047],[-8.85735,42.96095],[-8.85828,42.96192],[-8.85897,42.96235],[-8.86037,42.96248],[-8.86309,42.96409],[-8.86357,42.96422],[-8.86464,42.96432],[-8.86551,42.96408],[-8.8663,42.96309],[-8.86632,42.96289],[-8.86658,42.96254],[-8.87047,42.96452],[-8.8719,42.96535],[-8.87307,42.96064],[-8.87297,42.95862],[-8.87336,42.95802],[-8.87438,42.95834],[-8.87458,42.95855],[-8.87537,42.95895],[-8.87617,42.95916],[-8.87952,42.95918],[-8.88019,42.95937],[-8.88098,42.96008],[-8.89005,42.95987],[-8.89522,42.96034],[-8.89554,42.96102],[-8.89506,42.96251],[-8.89591,42.96374],[-8.89576,42.96441],[-8.89618,42.9652],[-8.89645,42.96654],[-8.89701,42.96719],[-8.89716,42.96828],[-8.89772,42.96879],[-8.8985,42.97074],[-8.8999,42.9712],[-8.89991,42.97241],[-8.901,42.97279],[-8.90144,42.97311],[-8.90158,42.97357],[-8.90061,42.97435],[-8.90021,42.97503],[-8.89965,42.97536],[-8.89959,42.97569],[-8.89923,42.97594],[-8.89891,42.9759],[-8.89873,42.97604],[-8.89853,42.97654],[-8.89805,42.97675],[-8.89791,42.97744],[-8.89764,42.97777],[-8.89794,42.97808],[-8.89824,42.97865],[-8.89852,42.97876],[-8.89971,42.97895],[-8.90053,42.97885],[-8.90067,42.97895],[-8.9008,42.98026],[-8.90034,42.98088],[-8.90045,42.98174],[-8.90108,42.98218],[-8.90127,42.98248],[-8.90209,42.98315],[-8.90279,42.98438],[-8.90246,42.98492],[-8.90244,42.98514],[-8.90264,42.98539],[-8.90256,42.98574],[-8.90224,42.98604],[-8.90241,42.98664],[-8.90218,42.98687],[-8.90002,42.98707],[-8.89932,42.98751],[-8.89861,42.98815],[-8.89845,42.98841],[-8.89693,42.98861],[-8.89502,42.98967],[-8.89382,42.98943],[-8.89362,42.98947],[-8.8933,42.99032],[-8.89252,42.99099],[-8.89266,42.99246],[-8.89286,42.9927],[-8.89321,42.99289],[-8.8941,42.99323],[-8.89425,42.99347],[-8.8939,42.9944],[-8.89389,42.99469],[-8.89448,42.99592],[-8.89449,42.99654],[-8.89432,42.99709],[-8.8947,42.99767],[-8.893,42.99638],[-8.89267,42.9954],[-8.89145,42.99495],[-8.89,42.99581],[-8.88927,42.99691],[-8.8876,42.99687],[-8.88599,42.9965],[-8.88549,42.99621],[-8.88342,42.99764],[-8.88203,42.99887],[-8.88002,43.00042],[-8.87924,43.00054],[-8.87829,43.00037],[-8.87724,43.00058],[-8.87623,43.00013],[-8.87512,43.0],[-8.87479,42.99886],[-8.87485,42.99775],[-8.87579,42.99718],[-8.87569,42.99596],[-8.87413,42.99579],[-8.87273,42.99632],[-8.87245,42.99706],[-8.87156,42.99652],[-8.86785,42.99598],[-8.86739,42.99522],[-8.86463,42.995],[-8.8638,42.99521],[-8.86317,42.99604],[-8.86221,42.99677],[-8.8615,42.9969],[-8.85966,42.99674],[-8.85866,42.99643],[-8.85782,42.99695],[-8.85786,42.9975],[-8.85661,42.99778],[-8.85556,42.99833],[-8.85502,42.99894],[-8.85339,43.0001],[-8.85251,43.00056],[-8.85222,43.00041],[-8.85088,43.00163],[-8.84987,43.00154],[-8.84937,43.00117],[-8.84825,43.00096],[-8.84812,43.00044],[-8.84733,43.0001],[-8.84691,43.00031],[-8.84699,43.00074],[-8.84641,43.00071],[-8.84641,43.0001],[-8.84332,42.99936],[-8.83849,42.99863]]]}},{"type":"Feature","properties":{"id":"1507703002"},"geometry":{"type":"Polygon","coordinates":[[[-8.82735,43.06411],[-8.82654,43.05517],[-8.82785,43.05472],[-8.82938,43.05456],[-8.82995,43.05418],[-8.83063,43.05302],[-8.8312,43.05252],[-8.83284,43.05211],[-8.83386,43.05153],[-8.83488,43.05078],[-8.83528,43.04991],[-8.83591,43.04896],[-8.83693,43.04821],[-8.83807,43.04705],[-8.83938,43.04439],[-8.83966,43.04294],[-8.84006,43.04236],[-8.84074,43.04194],[-8.84126,43.04103],[-8.84109,43.03991],[-8.84064,43.03837],[-8.84127,43.03471],[-8.84094,43.03292],[-8.84122,43.03209],[-8.84247,43.03139],[-8.84253,43.03064],[-8.84208,43.02885],[-8.8414,43.02694],[-8.84163,43.02586],[-8.84158,43.02437],[-8.84187,43.02349],[-8.84204,43.02216],[-8.84193,43.02083],[-8.84307,43.01884],[-8.84223,43.01443],[-8.84112,43.00517],[-8.84017,43.0003],[-8.83849,42.99863],[-8.84332,42.99936],[-8.84641,43.0001],[-8.84641,43.00071],[-8.84699,43.00074],[-8.84691,43.00031],[-8.84733,43.0001],[-8.84812,43.00044],[-8.84825,43.00096],[-8.84937,43.00117],[-8.84987,43.00154],[-8.85088,43.00163],[-8.85222,43.00041],[-8.85251,43.00056],[-8.85339,43.0001],[-8.85502,42.99894],[-8.85556,42.99833],[-8.85661,42.99778],[-8.85786,42.9975],[-8.85782,42.99695],[-8.85866,42.99643],[-8.85966,42.99674],[-8.8615,42.9969],[-8.86221,42.99677],[-8.86317,42.99604],[-8.8638,42.99521],[-8.86463,42.995],[-8.86739,42.99522],[-8.86785,42.99598],[-8.87156,42.99652],[-8.87245,42.99706],[-8.87273,42.99632],[-8.87413,42.99579],[-8.87569,42.99596],[-8.87579,42.99718],[-8.87485,42.99775],[-8.87479,42.99886],[-8.87512,43.0],[-8.87623,43.00013],[-8.87724,43.00058],[-8.87829,43.00037],[-8.87924,43.00054],[-8.88002,43.00042],[-8.88203,42.99887],[-8.88342,42.99764],[-8.88549,42.99621],[-8.88599,42.9965],[-8.8876,42.99687],[-8.88927,42.99691],[-8.89,42.99581],[-8.89145,42.99495],[-8.89267,42.9954],[-8.893,42.99638],[-8.8947,42.99767],[-8.89654,43.00044],[-8.89723,43.00098],[-8.89789,43.00128],[-8.89872,43.00132],[-8.89967,43.00112],[-8.90226,43.0],[-8.9026,42.99995],[-8.90381,43.00011],[-8.90458,43.00047],[-8.90557,43.00144],[-8.90598,43.00228],[-8.90537,43.0037],[-8.90477,43.00451],[-8.90322,43.00538],[-8.90295,43.00587],[-8.90289,43.00627],[-8.90308,43.00708],[-8.90321,43.0086],[-8.90372,43.00925],[-8.9046,43.00985],[-8.90493,43.00993],[-8.90575,43.00995],[-8.90645,43.00974],[-8.90874,43.00958],[-8.90954,43.00977],[-8.90981,43.01],[-8.91046,43.01135],[-8.91093,43.01182],[-8.91188,43.01241],[-8.91233,43.01281],[-8.91255,43.01288],[-8.91242,43.01421],[-8.91489,43.01509],[-8.9151,43.0177],[-8.91415,43.01846],[-8.91606,43.02179],[-8.91644,43.02529],[-8.91435,43.0258],[-8.91422,43.02656],[-8.91351,43.02678],[-8.91337,43.02758],[-8.91258,43.02834],[-8.91068,43.02936],[-8.91102,43.03024],[-8.91262,43.03118],[-8.91406,43.03145],[-8.91405,43.03199],[-8.915,43.03231],[-8.9149,43.03308],[-8.9136,43.03397],[-8.91387,43.03429],[-8.91539,43.03546],[-8.91485,43.03606],[-8.91405,43.03653],[-8.91337,43.03762],[-8.91202,43.03754],[-8.91142,43.03806],[-8.90921,43.03935],[-8.90935,43.04066],[-8.90873,43.04206],[-8.90736,43.04382],[-8.90652,43.04563],[-8.90516,43.04732],[-8.90216,43.04994],[-8.8991,43.0529],[-8.89745,43.05499],[-8.89665,43.05497],[-8.89585,43.05464],[-8.89382,43.05412],[-8.8914,43.05499],[-8.89097,43.05769],[-8.89003,43.05897],[-8.88857,43.05841],[-8.88793,43.05834],[-8.88583,43.05981],[-8.88553,43.06014],[-8.88558,43.06026],[-8.88653,43.06083],[-8.8872,43.06191],[-8.88725,43.06224],[-8.88697,43.0631],[-8.88704,43.06365],[-8.88728,43.06397],[-8.88673,43.0666],[-8.88676,43.06743],[-8.88694,43.06782],[-8.88534,43.06937],[-8.88599,43.07023],[-8.88546,43.0746],[-8.88449,43.07984],[-8.88219,43.08158],[-8.88134,43.08137],[-8.88061,43.07994],[-8.8789,43.07847],[-8.8769,43.07617],[-8.87656,43.07594],[-8.87564,43.0757],[-8.87316,43.07385],[-8.87211,43.07356],[-8.87086,43.07299],[-8.86932,43.0719],[-8.86875,43.07117],[-8.86557,43.06962],[-8.85778,43.06428],[-8.8572,43.0638],[-8.85634,43.06238],[-8.85633,43.06128],[-8.85575,43.05995],[-8.85549,43.05848],[-8.84615,43.06015],[-8.82735,43.06411]]]}},{"type":"Feature","properties":{"id":"1507704001"},"geometry":{"type":"Polygon","coordinates":[[[-8.85287,43.10698],[-8.85221,43.10584],[-8.8519,43.10474],[-8.85161,43.10417],[-8.84281,43.10411],[-8.84018,43.10352],[-8.83948,43.10393],[-8.8384,43.10368],[-8.83523,43.09844],[-8.83175,43.09811],[-8.82844,43.09995],[-8.82398,43.09855],[-8.82291,43.09914],[-8.82065,43.10531],[-8.82045,43.10399],[-8.82007,43.10325],[-8.81902,43.10177],[-8.81955,43.10026],[-8.81941,43.09875],[-8.8174,43.09777],[-8.81779,43.09679],[-8.81856,43.09626],[-8.81799,43.09394],[-8.81694,43.09296],[-8.81517,43.09089],[-8.8149,43.08643],[-8.81515,43.08387],[-8.81477,43.08327],[-8.81467,43.08232],[-8.8152,43.08159],[-8.81506,43.08113],[-8.81549,43.08029],[-8.81535,43.07962],[-8.81468,43.07927],[-8.81398,43.07774],[-8.81316,43.07699],[-8.81335,43.07638],[-8.81399,43.07526],[-8.8147,43.07465],[-8.8161,43.07409],[-8.81604,43.07349],[-8.81725,43.07335],[-8.81795,43.0734],[-8.81828,43.07269],[-8.81847,43.07167],[-8.81962,43.07078],[-8.8209,43.07031],[-8.82154,43.06989],[-8.82326,43.06943],[-8.82422,43.06943],[-8.82505,43.06915],[-8.82582,43.06821],[-8.8271,43.06756],[-8.82774,43.06658],[-8.82717,43.0655],[-8.82743,43.06475],[-8.82735,43.06411],[-8.84615,43.06015],[-8.85549,43.05848],[-8.85575,43.05995],[-8.85633,43.06128],[-8.85634,43.06238],[-8.8572,43.0638],[-8.85878,43.065],[-8.86557,43.06962],[-8.86875,43.07117],[-8.86932,43.0719],[-8.87086,43.07299],[-8.87211,43.07356],[-8.87316,43.07385],[-8.87564,43.0757],[-8.87656,43.07594],[-8.8769,43.07617],[-8.8789,43.07847],[-8.88061,43.07994],[-8.88134,43.08137],[-8.88219,43.08158],[-8.8803,43.08327],[-8.8798,43.08483],[-8.87833,43.0854],[-8.87758,43.08528],[-8.87734,43.08623],[-8.87787,43.08669],[-8.87267,43.08977],[-8.87063,43.09001],[-8.86909,43.09459],[-8.86882,43.09766],[-8.86897,43.09879],[-8.86893,43.1001],[-8.86781,43.10602],[-8.86685,43.10878],[-8.86298,43.10774],[-8.86185,43.10736],[-8.86069,43.10713],[-8.85996,43.10736],[-8.85287,43.10698]]]}}]}