{"type":"FeatureCollection","features":[{"type":"Feature","properties":{"id":"1507301001"},"geometry":{"type":"Polygon","coordinates":[[[-8.99315,42.56798],[-8.99226,42.56839],[-8.99254,42.56862],[-8.99223,42.56882],[-8.99326,42.56948],[-8.99341,42.56945],[-8.99363,42.5696],[-8.99286,42.57084],[-8.99264,42.57078],[-8.99256,42.5706],[-8.99272,42.57004],[-8.99235,42.56985],[-8.99215,42.57012],[-8.99159,42.56975],[-8.99108,42.56961],[-8.99076,42.56974],[-8.99044,42.56974],[-8.99018,42.57015],[-8.98936,42.57013],[-8.98895,42.56998],[-8.98878,42.5698],[-8.98831,42.56982],[-8.98804,42.56972],[-8.98799,42.56981],[-8.98765,42.56984],[-8.98692,42.56946],[-8.98652,42.56948],[-8.98574,42.5701],[-8.98532,42.5706],[-8.98515,42.57096],[-8.9852,42.57121],[-8.98483,42.5714],[-8.98429,42.57142],[-8.98392,42.57159],[-8.98378,42.57153],[-8.98279,42.57357],[-8.98241,42.57407],[-8.98229,42.57327],[-8.9821,42.57309],[-8.98194,42.57261],[-8.98173,42.57132],[-8.98167,42.57118],[-8.98148,42.57115],[-8.98147,42.57102],[-8.98119,42.57103],[-8.98114,42.57067],[-8.98157,42.57043],[-8.98159,42.57032],[-8.9815,42.56993],[-8.98124,42.56967],[-8.98098,42.5696],[-8.98051,42.56985],[-8.97997,42.56993],[-8.97947,42.57017],[-8.97921,42.57043],[-8.97873,42.57057],[-8.97784,42.56965],[-8.97781,42.56945],[-8.97738,42.56929],[-8.97733,42.5692],[-8.97751,42.56918],[-8.97745,42.56908],[-8.9769,42.56878],[-8.97813,42.5687],[-8.98301,42.56778],[-8.98483,42.56707],[-8.98626,42.56668],[-8.98884,42.56541],[-8.9912,42.5637],[-8.99149,42.56339],[-8.99175,42.56282],[-8.99211,42.56124],[-8.99229,42.5611],[-8.99227,42.56051],[-8.99242,42.56015],[-8.99306,42.56021],[-8.99335,42.56016],[-8.99438,42.56138],[-8.9943,42.56161],[-8.99359,42.56194],[-8.99374,42.56197],[-8.9938,42.56254],[-8.99377,42.56264],[-8.99366,42.56262],[-8.99359,42.56292],[-8.99416,42.56321],[-8.99433,42.56325],[-8.99449,42.56318],[-8.99467,42.56346],[-8.995,42.56331],[-8.99509,42.56348],[-8.99473,42.5638],[-8.99509,42.56402],[-8.99524,42.56434],[-8.99478,42.56457],[-8.99397,42.56477],[-8.99368,42.5654],[-8.99291,42.56593],[-8.99264,42.56639],[-8.99237,42.56649],[-8.99218,42.56696],[-8.99138,42.5675],[-8.99272,42.56772],[-8.99315,42.56798]]]}},{"type":"Feature","properties":{"id":"1507301002"},"geometry":{"type":"Polygon","coordinates":[[[-8.99454,42.55627],[-8.99249,42.55504],[-8.9958,42.5531],[-8.99676,42.55471],[-8.99779,42.5547],[-8.99798,42.55445],[-8.99814,42.55388],[-8.99865,42.55336],[-8.9991,42.55321],[-8.99973,42.5525],[-9.0001,42.55269],[-9.00047,42.55272],[-9.00248,42.55209],[-9.00259,42.55247],[-9.00252,42.55285],[-9.00268,42.55304],[-9.00275,42.55362],[-9.00356,42.55369],[-9.00346,42.55435],[-9.00383,42.55507],[-9.00452,42.5557],[-9.00492,42.55647],[-9.0041,42.55657],[-9.00277,42.55599],[-9.00171,42.55571],[-9.00136,42.55573],[-9.0001,42.55615],[-8.99969,42.55635],[-8.99945,42.55661],[-8.99943,42.55754],[-8.99897,42.55835],[-8.99795,42.5592],[-8.99735,42.55893],[-8.99689,42.55887],[-8.99669,42.55819],[-8.99651,42.55806],[-8.99672,42.55742],[-8.99586,42.55739],[-8.99597,42.55622],[-8.99454,42.55627]]]}},{"type":"Feature","properties":{"id":"1507301003"},"geometry":{"type":"Polygon","coordinates":[[[-8.99242,42.56015],[-8.99231,42.55883],[-8.99201,42.55873],[-8.99003,42.55892],[-8.98991,42.55903],[-8.98962,42.55901],[-8.98974,42.55872],[-8.99009,42.55872],[-8.9913,42.55841],[-8.99128,42.55799],[-8.9907,42.55804],[-8.99073,42.55788],[-8.99122,42.55778],[-8.99068,42.55775],[-8.99067,42.55765],[-8.99111,42.55758],[-8.99112,42.55746],[-8.99072,42.55746],[-8.99067,42.55732],[-8.99113,42.55725],[-8.99109,42.55662],[-8.99167,42.5566],[-8.99154,42.55527],[-8.99252,42.55504],[-8.99454,42.5562],[-8.99462,42.55897],[-8.99408,42.55943],[-8.99363,42.56002],[-8.99306,42.56021],[-8.99242,42.56015]]]}},{"type":"Feature","properties":{"id":"1507301004"},"geometry":{"type":"Polygon","coordinates":[[[-8.99776,42.5485],[-8.9992,42.54851],[-8.9992,42.54914],[-8.99867,42.55008],[-8.998,42.55066],[-8.99791,42.551],[-8.9975,42.5514],[-8.99733,42.55199],[-8.99609,42.55249],[-8.99589,42.55266],[-8.99576,42.55316],[-8.99291,42.55483],[-8.99249,42.55504],[-8.99154,42.55527],[-8.99135,42.5546],[-8.9917,42.5543],[-8.99174,42.55406],[-8.99243,42.55393],[-8.99254,42.5534],[-8.99158,42.55269],[-8.99188,42.5526],[-8.99286,42.55185],[-8.99218,42.55083],[-8.99247,42.55083],[-8.99249,42.55061],[-8.99236,42.55045],[-8.99402,42.55034],[-8.99514,42.54997],[-8.99594,42.54996],[-8.99706,42.54972],[-8.99727,42.54951],[-8.99776,42.5485]]]}},{"type":"Feature","properties":{"id":"1507301005"},"geometry":{"type":"Polygon","coordinates":[[[-8.99776,42.5485],[-8.99727,42.54951],[-8.99706,42.54972],[-8.99594,42.54996],[-8.99514,42.54997],[-8.99402,42.55034],[-8.99236,42.55045],[-8.99249,42.55061],[-8.99247,42.55083],[-8.99218,42.55083],[-8.99286,42.55185],[-8.99188,42.5526],[-8.99158,42.55269],[-8.99254,42.5534],[-8.99243,42.55393],[-8.99174,42.55406],[-8.9917,42.5543],[-8.99135,42.5546],[-8.99154,42.55527],[-8.99167,42.5566],[-8.99109,42.55662],[-8.99094,42.55519],[-8.99052,42.55473],[-8.99031,42.55473],[-8.99016,42.55457],[-8.98995,42.5546],[-8.99012,42.55504],[-8.98977,42.55513],[-8.98953,42.55478],[-8.98915,42.55477],[-8.98923,42.55611],[-8.98891,42.55621],[-8.98895,42.55753],[-8.98806,42.55792],[-8.98808,42.55997],[-8.98837,42.56],[-8.98833,42.56021],[-8.98799,42.56025],[-8.98796,42.56041],[-8.98773,42.56043],[-8.98774,42.55803],[-8.98787,42.55782],[-8.98861,42.55742],[-8.98864,42.55595],[-8.989,42.55576],[-8.98897,42.55459],[-8.98986,42.55344],[-8.99007,42.55273],[-8.9908,42.55179],[-8.99094,42.55119],[-8.99036,42.54883],[-8.99061,42.54833],[-8.99111,42.54852],[-8.9912,42.54825],[-8.99157,42.54836],[-8.99168,42.54821],[-8.99223,42.54833],[-8.99209,42.54858],[-8.99339,42.54907],[-8.99372,42.54886],[-8.99411,42.54839],[-8.99501,42.54675],[-8.99665,42.54723],[-8.99706,42.54876],[-8.9975,42.54854],[-8.99776,42.5485]]]}},{"type":"Feature","properties":{"id":"1507301006"},"geometry":{"type":"Polygon","coordinates":[[[-8.98533,42.54931],[-8.98555,42.54908],[-8.98645,42.54893],[-8.98633,42.5484],[-8.98656,42.54836],[-8.98725,42.54863],[-8.98741,42.54846],[-8.98764,42.5485],[-8.98804,42.54829],[-8.98833,42.54843],[-8.98898,42.54842],[-8.98805,42.54997],[-8.98833,42.55027],[-8.98857,42.55029],[-8.98904,42.55],[-8.98903,42.55015],[-8.98919,42.55015],[-8.98936,42.54983],[-8.98954,42.54983],[-8.98984,42.54946],[-8.99025,42.54881],[-8.99036,42.54883],[-8.99094,42.55119],[-8.99077,42.55187],[-8.99007,42.55273],[-8.98986,42.55344],[-8.98927,42.55415],[-8.98915,42.55445],[-8.98857,42.55398],[-8.9886,42.55324],[-8.98827,42.55272],[-8.98798,42.55285],[-8.98795,42.55266],[-8.98809,42.55264],[-8.98809,42.55254],[-8.98795,42.5524],[-8.98754,42.5521],[-8.9869,42.55185],[-8.98622,42.55177],[-8.98601,42.5516],[-8.98577,42.55003],[-8.98485,42.54968],[-8.98485,42.54956],[-8.98533,42.54931]]]}},{"type":"Feature","properties":{"id":"1507301007"},"geometry":{"type":"Polygon","coordinates":[[[-8.98535,42.54922],[-8.98538,42.5491],[-8.98491,42.54904],[-8.98513,42.54805],[-8.98486,42.54761],[-8.98441,42.54743],[-8.98461,42.54614],[-8.9845,42.54578],[-8.98436,42.54568],[-8.98406,42.54584],[-8.98384,42.54585],[-8.98332,42.54543],[-8.9833,42.5453],[-8.98385,42.54505],[-8.98407,42.54461],[-8.98372,42.54439],[-8.98365,42.54412],[-8.98401,42.54396],[-8.98477,42.54259],[-8.98488,42.54109],[-8.98554,42.54034],[-8.9862,42.53987],[-8.98612,42.5396],[-8.98647,42.53931],[-8.98638,42.53886],[-8.98663,42.53852],[-8.9869,42.53854],[-8.98701,42.53847],[-8.98704,42.5382],[-8.98747,42.5383],[-8.98893,42.53776],[-8.98909,42.53757],[-8.98916,42.53699],[-8.98999,42.53706],[-8.99011,42.53677],[-8.9907,42.53676],[-8.9912,42.53711],[-8.9909,42.53734],[-8.99157,42.53801],[-8.99341,42.53885],[-8.99453,42.53908],[-8.99462,42.5395],[-8.99492,42.53994],[-8.99524,42.54015],[-8.99573,42.54021],[-8.99772,42.54013],[-8.99816,42.54003],[-9.00042,42.54067],[-8.99893,42.54206],[-8.99605,42.54437],[-8.99524,42.54637],[-8.99422,42.54822],[-8.99358,42.54897],[-8.99339,42.54907],[-8.99226,42.54865],[-8.99209,42.54858],[-8.99223,42.54833],[-8.99168,42.54821],[-8.99157,42.54836],[-8.9912,42.54825],[-8.99111,42.54852],[-8.99061,42.54833],[-8.99036,42.54883],[-8.99025,42.54881],[-8.98954,42.54983],[-8.98936,42.54983],[-8.98919,42.55015],[-8.98903,42.55015],[-8.98904,42.55],[-8.98857,42.55029],[-8.98833,42.55027],[-8.98805,42.54997],[-8.98898,42.54842],[-8.98833,42.54843],[-8.98804,42.54829],[-8.98764,42.5485],[-8.98741,42.54846],[-8.98725,42.54863],[-8.98656,42.54836],[-8.98633,42.5484],[-8.98645,42.54893],[-8.98555,42.54908],[-8.98535,42.54922]]]}},{"type":"Feature","properties":{"id":"1507301008"},"geometry":{"type":"Polygon","coordinates":[[[-8.98838,42.57822],[-8.98788,42.57805],[-8.98784,42.57814],[-8.9861,42.57814],[-8.98488,42.57741],[-8.98478,42.57746],[-8.98343,42.5767],[-8.98249,42.57632],[-8.98252,42.57562],[-8.98224,42.57503],[-8.98225,42.57491],[-8.98254,42.5747],[-8.98241,42.57407],[-8.98279,42.57357],[-8.98378,42.57153],[-8.98392,42.57159],[-8.98429,42.57142],[-8.98483,42.5714],[-8.9852,42.57121],[-8.98515,42.57096],[-8.98532,42.5706],[-8.98574,42.5701],[-8.98652,42.56948],[-8.98692,42.56946],[-8.98765,42.56984],[-8.98799,42.56981],[-8.98804,42.56972],[-8.98831,42.56982],[-8.98878,42.5698],[-8.98895,42.56998],[-8.98936,42.57013],[-8.99018,42.57015],[-8.99044,42.56974],[-8.99076,42.56974],[-8.99108,42.56961],[-8.99159,42.56975],[-8.99215,42.57012],[-8.99235,42.56985],[-8.99272,42.57004],[-8.99254,42.57042],[-8.9926,42.57072],[-8.99286,42.57084],[-8.99299,42.57073],[-8.99363,42.5696],[-8.99341,42.56945],[-8.99326,42.56948],[-8.99223,42.56882],[-8.99254,42.56862],[-8.99226,42.56839],[-8.99315,42.56798],[-8.99272,42.56772],[-8.99138,42.5675],[-8.99218,42.56696],[-8.99237,42.56649],[-8.99264,42.56639],[-8.99291,42.56593],[-8.99368,42.5654],[-8.99397,42.56477],[-8.99478,42.56457],[-8.99524,42.56434],[-8.99509,42.56402],[-8.99473,42.5638],[-8.99509,42.56348],[-8.995,42.56331],[-8.99467,42.56346],[-8.99449,42.56318],[-8.99433,42.56325],[-8.99416,42.56321],[-8.99359,42.56292],[-8.99366,42.56262],[-8.99377,42.56264],[-8.9938,42.56254],[-8.99374,42.56197],[-8.99359,42.56194],[-8.9943,42.56161],[-8.99438,42.56138],[-8.99481,42.56174],[-8.99588,42.56235],[-8.99631,42.56283],[-8.99717,42.56324],[-8.99713,42.56363],[-8.99652,42.56461],[-8.99727,42.56558],[-8.99756,42.56628],[-8.99803,42.56696],[-8.99808,42.56745],[-8.99767,42.56839],[-8.99766,42.56916],[-8.99858,42.57029],[-8.99904,42.57139],[-8.99942,42.57149],[-9.00037,42.57212],[-9.0003,42.57227],[-9.00057,42.57242],[-9.00028,42.57269],[-9.00044,42.57301],[-9.00074,42.57286],[-9.00082,42.57293],[-9.00119,42.57269],[-9.00129,42.57277],[-9.00088,42.57304],[-9.00098,42.57317],[-9.00026,42.57346],[-9.00045,42.57374],[-9.00141,42.57369],[-9.00275,42.57532],[-9.00294,42.57572],[-9.00308,42.57557],[-9.00345,42.57606],[-9.00299,42.57632],[-9.00274,42.57633],[-9.00276,42.57641],[-9.00194,42.57693],[-9.00029,42.57739],[-9.00017,42.5771],[-8.99819,42.57734],[-8.99809,42.57702],[-8.99737,42.57648],[-8.99582,42.57669],[-8.99593,42.57694],[-8.99587,42.57757],[-8.9956,42.57767],[-8.99538,42.57764],[-8.99516,42.57749],[-8.99528,42.57637],[-8.99462,42.57659],[-8.9943,42.57656],[-8.99369,42.57692],[-8.99285,42.57678],[-8.99282,42.57656],[-8.99175,42.57547],[-8.98838,42.57822]]]}},{"type":"Feature","properties":{"id":"1507301009"},"geometry":{"type":"Polygon","coordinates":[[[-8.99481,42.56174],[-8.99335,42.56016],[-8.9938,42.55987],[-8.99408,42.55943],[-8.99462,42.55897],[-8.99454,42.55627],[-8.99597,42.55622],[-8.99586,42.55739],[-8.99672,42.55742],[-8.99651,42.55806],[-8.99669,42.55819],[-8.99689,42.55887],[-8.99735,42.55893],[-8.99795,42.5592],[-8.99897,42.55835],[-8.99943,42.55754],[-8.99945,42.55661],[-8.99969,42.55635],[-9.0001,42.55615],[-9.00136,42.55573],[-9.00171,42.55571],[-9.00277,42.55599],[-9.0041,42.55657],[-9.00492,42.55647],[-9.00519,42.55694],[-9.00499,42.55737],[-9.00464,42.55751],[-9.00486,42.5582],[-9.00471,42.55894],[-9.00477,42.55932],[-9.00513,42.56078],[-9.00671,42.56096],[-9.00534,42.56166],[-9.00456,42.56321],[-9.00343,42.56427],[-9.00321,42.56531],[-9.00224,42.56577],[-9.0011,42.56596],[-9.00069,42.56624],[-9.00031,42.56726],[-9.00017,42.56742],[-8.99948,42.56778],[-8.99929,42.56802],[-8.99912,42.5691],[-8.99877,42.56989],[-8.99883,42.57015],[-8.99863,42.57051],[-8.99838,42.57001],[-8.99781,42.56943],[-8.99763,42.56901],[-8.99767,42.56839],[-8.99808,42.56745],[-8.99803,42.56696],[-8.99756,42.56628],[-8.99727,42.56558],[-8.99654,42.56472],[-8.99655,42.56454],[-8.99721,42.56345],[-8.99717,42.56324],[-8.99631,42.56283],[-8.99588,42.56235],[-8.99481,42.56174]]]}},{"type":"Feature","properties":{"id":"1507301010"},"geometry":{"type":"Polygon","coordinates":[[[-8.99938,42.54836],[-8.99979,42.54859],[-8.99972,42.54893],[-9.00158,42.54976],[-9.00083,42.5514],[-9.00117,42.55144],[-9.00188,42.55228],[-9.00047,42.55272],[-9.0001,42.55269],[-8.99973,42.5525],[-8.9991,42.55321],[-8.99865,42.55336],[-8.99814,42.55388],[-8.99788,42.55464],[-8.99676,42.55471],[-8.9958,42.5531],[-8.99589,42.55266],[-8.99643,42.55231],[-8.99715,42.55212],[-8.99733,42.55199],[-8.9975,42.5514],[-8.99791,42.551],[-8.998,42.55066],[-8.99867,42.55008],[-8.9991,42.54934],[-8.9992,42.54848],[-8.99938,42.54836]]]}},{"type":"Feature","properties":{"id":"1507302001"},"geometry":{"type":"Polygon","coordinates":[[[-9.00534,42.52846],[-9.00547,42.52882],[-9.00568,42.52901],[-9.00663,42.52918],[-9.0081,42.52968],[-9.00849,42.52994],[-9.00848,42.53005],[-9.00866,42.53018],[-9.00903,42.53016],[-9.00905,42.53],[-9.00907,42.53062],[-9.00927,42.53082],[-9.00787,42.53323],[-9.00728,42.53448],[-9.00466,42.53634],[-9.00432,42.53798],[-9.00406,42.53863],[-9.0031,42.53864],[-9.00112,42.54002],[-9.00042,42.54067],[-8.99816,42.54003],[-8.99772,42.54013],[-8.99573,42.54021],[-8.99524,42.54015],[-8.99492,42.53994],[-8.99462,42.5395],[-8.99453,42.53908],[-8.99341,42.53885],[-8.99157,42.53801],[-8.9909,42.53734],[-8.9912,42.53711],[-8.9907,42.53676],[-8.99011,42.53677],[-8.98999,42.53706],[-8.98916,42.53699],[-8.98925,42.53619],[-8.98949,42.53625],[-8.98969,42.53616],[-8.98956,42.53581],[-8.98999,42.53554],[-8.99004,42.53534],[-8.99028,42.53525],[-8.9904,42.5353],[-8.99086,42.53504],[-8.99108,42.53445],[-8.99131,42.53443],[-8.9915,42.53462],[-8.99175,42.53432],[-8.99157,42.53412],[-8.99188,42.53384],[-8.99196,42.53406],[-8.99221,42.53404],[-8.99231,42.53388],[-8.99219,42.53371],[-8.99229,42.53361],[-8.99242,42.53373],[-8.99266,42.53346],[-8.9929,42.53361],[-8.99371,42.53312],[-8.99447,42.53292],[-8.99709,42.53159],[-8.99738,42.53133],[-8.99775,42.53072],[-8.99731,42.53061],[-8.99713,42.53048],[-8.9979,42.5302],[-8.99815,42.52998],[-8.9985,42.52931],[-8.99887,42.52924],[-8.99913,42.52899],[-8.99946,42.52913],[-8.99944,42.52935],[-9.00149,42.52935],[-9.00358,42.52888],[-9.00403,42.52869],[-9.00534,42.52846]]]}},{"type":"Feature","properties":{"id":"1507302002"},"geometry":{"type":"MultiPolygon","coordinates":[[[[-9.01468,42.54402],[-9.01444,42.5434],[-9.01224,42.54219],[-9.01193,42.54268],[-9.01178,42.54269],[-9.01129,42.54259],[-9.01073,42.5422],[-9.0101,42.54212],[-9.00882,42.54099],[-9.00832,42.54021],[-9.00594,42.5388],[-9.00525,42.53868],[-9.00406,42.53863],[-9.00432,42.53798],[-9.00466,42.53634],[-9.00728,42.53448],[-9.00787,42.53323],[-9.00927,42.53082],[-9.00909,42.53142],[-9.0096,42.53198],[-9.01006,42.5329],[-9.01053,42.53332],[-9.01008,42.53392],[-9.01087,42.53419],[-9.01112,42.53456],[-9.01085,42.53526],[-9.01207,42.5352],[-9.01299,42.53441],[-9.01401,42.53529],[-9.01385,42.53559],[-9.01468,42.53622],[-9.01572,42.53579],[-9.01582,42.5351],[-9.0179,42.53342],[-9.01815,42.53292],[-9.01846,42.53306],[-9.01933,42.53311],[-9.01947,42.53323],[-9.0206,42.53332],[-9.02088,42.53304],[-9.02208,42.53297],[-9.0224,42.53272],[-9.02329,42.53159],[-9.02544,42.53206],[-9.0272,42.53059],[-9.02768,42.52985],[-9.02782,42.52936],[-9.02849,42.52892],[-9.02851,42.52863],[-9.02934,42.52898],[-9.03074,42.52887],[-9.03106,42.52695],[-9.03244,42.52668],[-9.0329,42.52649],[-9.03432,42.5267],[-9.03548,42.52646],[-9.03662,42.52641],[-9.03826,42.52589],[-9.0394,42.52579],[-9.04131,42.52593],[-9.04214,42.52583],[-9.04281,42.52604],[-9.04273,42.52616],[-9.04235,42.52631],[-9.04229,42.52655],[-9.04242,42.52666],[-9.04314,42.5268],[-9.04328,42.52697],[-9.04312,42.52706],[-9.04233,42.52697],[-9.04231,42.5271],[-9.04295,42.52735],[-9.04313,42.52764],[-9.04349,42.52776],[-9.04357,42.52794],[-9.04347,42.52809],[-9.04305,42.52786],[-9.04284,42.52788],[-9.04284,42.52798],[-9.04316,42.52821],[-9.0431,42.52841],[-9.04334,42.52862],[-9.04301,42.52879],[-9.0429,42.52933],[-9.04279,42.52948],[-9.04248,42.52934],[-9.04226,42.52938],[-9.04212,42.52959],[-9.04132,42.52968],[-9.04052,42.5294],[-9.04024,42.52946],[-9.04005,42.53018],[-9.04053,42.53022],[-9.04066,42.5303],[-9.04078,42.53066],[-9.04122,42.53091],[-9.04108,42.53102],[-9.04174,42.53143],[-9.04192,42.53163],[-9.04203,42.53242],[-9.04194,42.53264],[-9.04168,42.53273],[-9.04132,42.53263],[-9.04093,42.53201],[-9.04067,42.53197],[-9.04069,42.53228],[-9.04038,42.53264],[-9.04097,42.53356],[-9.04136,42.53495],[-9.04124,42.53533],[-9.04148,42.53557],[-9.04169,42.53631],[-9.04131,42.53652],[-9.04092,42.53656],[-9.04054,42.53706],[-9.04015,42.53711],[-9.03929,42.53672],[-9.03914,42.53684],[-9.03934,42.53717],[-9.03928,42.53775],[-9.03945,42.53808],[-9.03921,42.53815],[-9.03912,42.5384],[-9.03873,42.53818],[-9.03868,42.53829],[-9.03895,42.53862],[-9.03876,42.53877],[-9.0388,42.53888],[-9.03915,42.53908],[-9.03921,42.53927],[-9.03902,42.53929],[-9.03916,42.53952],[-9.03863,42.53946],[-9.03829,42.53967],[-9.03829,42.54029],[-9.03791,42.54004],[-9.03768,42.54021],[-9.0379,42.54042],[-9.03861,42.54056],[-9.03867,42.54073],[-9.03855,42.54087],[-9.03836,42.54091],[-9.03761,42.5406],[-9.03747,42.54062],[-9.03772,42.54097],[-9.03767,42.54111],[-9.0375,42.54116],[-9.03706,42.54084],[-9.03691,42.54091],[-9.03662,42.54057],[-9.03628,42.54079],[-9.03611,42.54065],[-9.03595,42.54077],[-9.03543,42.54002],[-9.03523,42.53997],[-9.03503,42.54005],[-9.03498,42.54024],[-9.0354,42.54084],[-9.03536,42.54137],[-9.03511,42.54145],[-9.03503,42.54182],[-9.03492,42.54189],[-9.03439,42.54127],[-9.03382,42.54104],[-9.0337,42.54113],[-9.03378,42.5413],[-9.03431,42.54156],[-9.03435,42.54169],[-9.03426,42.54179],[-9.03403,42.54167],[-9.03381,42.54197],[-9.03367,42.54188],[-9.03351,42.54196],[-9.0335,42.54151],[-9.03333,42.54142],[-9.03322,42.54154],[-9.03324,42.54198],[-9.03292,42.54217],[-9.03342,42.54282],[-9.03331,42.54295],[-9.03297,42.54281],[-9.03274,42.54283],[-9.03256,42.54266],[-9.03231,42.54283],[-9.03171,42.54296],[-9.03122,42.54331],[-9.03089,42.54488],[-9.03084,42.54621],[-9.03063,42.54699],[-9.02322,42.54735],[-9.02031,42.54739],[-9.01843,42.54661],[-9.01595,42.54517],[-9.01545,42.54478],[-9.01542,42.54443],[-9.01522,42.54421],[-9.01468,42.54402]]],[[[-9.04837,42.51155],[-9.048,42.51123],[-9.0478,42.51134],[-9.04726,42.51124],[-9.04701,42.51097],[-9.04724,42.51064],[-9.04714,42.51022],[-9.04727,42.51008],[-9.04773,42.50985],[-9.04818,42.50991],[-9.04823,42.50983],[-9.04762,42.50915],[-9.04701,42.5089],[-9.04698,42.50875],[-9.04744,42.50857],[-9.04821,42.50883],[-9.04838,42.50938],[-9.04868,42.50898],[-9.04855,42.50862],[-9.04896,42.50845],[-9.04891,42.50819],[-9.04904,42.50807],[-9.04874,42.50747],[-9.04875,42.50728],[-9.04885,42.50718],[-9.04923,42.5072],[-9.04968,42.50711],[-9.0498,42.50721],[-9.04963,42.50769],[-9.04969,42.50781],[-9.04983,42.50789],[-9.05037,42.50782],[-9.05047,42.50788],[-9.0506,42.50814],[-9.05095,42.5083],[-9.05107,42.50875],[-9.05138,42.50906],[-9.05139,42.50923],[-9.05063,42.50987],[-9.05055,42.51041],[-9.0504,42.51055],[-9.05015,42.51041],[-9.04998,42.51043],[-9.05008,42.51057],[-9.05,42.51065],[-9.04947,42.51056],[-9.04942,42.5107],[-9.04986,42.51095],[-9.04951,42.51166],[-9.0499,42.51186],[-9.04997,42.512],[-9.04974,42.51225],[-9.0488,42.51166],[-9.04837,42.51155]]]]}},{"type":"Feature","properties":{"id":"1507302003"},"geometry":{"type":"Polygon","coordinates":[[[-9.00641,42.56114],[-9.00671,42.56096],[-9.00513,42.56078],[-9.00477,42.55932],[-9.00471,42.55894],[-9.00486,42.5582],[-9.00464,42.55751],[-9.00499,42.55737],[-9.00519,42.55694],[-9.00452,42.5557],[-9.00383,42.55507],[-9.00346,42.55435],[-9.00356,42.55369],[-9.00275,42.55362],[-9.00268,42.55304],[-9.00252,42.55285],[-9.00259,42.55247],[-9.00248,42.55209],[-9.00188,42.55227],[-9.00117,42.55144],[-9.00083,42.5514],[-9.00158,42.54976],[-8.99972,42.54893],[-8.99979,42.54859],[-8.99938,42.54836],[-8.9992,42.54851],[-8.9975,42.54854],[-8.99706,42.54876],[-8.99665,42.54723],[-8.99501,42.54675],[-8.99605,42.54437],[-8.99893,42.54206],[-9.00112,42.54002],[-9.0031,42.53864],[-9.00525,42.53868],[-9.00594,42.5388],[-9.00832,42.54021],[-9.00882,42.54099],[-9.0101,42.54212],[-9.01073,42.5422],[-9.01129,42.54259],[-9.01178,42.54269],[-9.01193,42.54268],[-9.01224,42.54219],[-9.01259,42.54234],[-9.01309,42.54272],[-9.01444,42.5434],[-9.01455,42.54393],[-9.01522,42.54421],[-9.01542,42.54443],[-9.01545,42.54478],[-9.01595,42.54517],[-9.01843,42.54661],[-9.02031,42.54739],[-9.02322,42.54735],[-9.03063,42.54699],[-9.03038,42.54792],[-9.03036,42.54933],[-9.0305,42.55042],[-9.03097,42.55215],[-9.03253,42.55562],[-9.03299,42.55609],[-9.03343,42.55676],[-9.0341,42.55829],[-9.03478,42.5589],[-9.03519,42.55953],[-9.03578,42.56007],[-9.0364,42.56118],[-9.03769,42.56194],[-9.03849,42.56224],[-9.03902,42.56255],[-9.03922,42.56289],[-9.03947,42.56384],[-9.04034,42.56554],[-9.04147,42.56677],[-9.03469,42.56852],[-9.03248,42.5698],[-9.02623,42.56926],[-9.02143,42.56638],[-9.01982,42.56572],[-9.01755,42.56417],[-9.01228,42.5624],[-9.01186,42.56178],[-9.01147,42.56148],[-9.01088,42.55996],[-9.011,42.55952],[-9.01092,42.55901],[-9.01067,42.55875],[-9.0103,42.55868],[-9.0093,42.55928],[-9.00855,42.56009],[-9.00765,42.56036],[-9.00649,42.56115],[-9.00641,42.56114]]]}},{"type":"Feature","properties":{"id":"1507303001"},"geometry":{"type":"Polygon","coordinates":[[[-9.01916,42.52166],[-9.01976,42.52216],[-9.01827,42.52284],[-9.01718,42.52449],[-9.01626,42.52694],[-9.0158,42.52782],[-9.01493,42.52892],[-9.01357,42.53027],[-9.01305,42.53103],[-9.01263,42.53135],[-9.01219,42.53344],[-9.01199,42.5352],[-9.01085,42.53526],[-9.01112,42.53456],[-9.01087,42.53419],[-9.01008,42.53392],[-9.01053,42.53332],[-9.01006,42.5329],[-9.0096,42.53198],[-9.00909,42.53142],[-9.00931,42.53081],[-9.00907,42.53062],[-9.00905,42.53],[-9.00903,42.53016],[-9.00866,42.53018],[-9.00848,42.53005],[-9.00849,42.52994],[-9.0081,42.52968],[-9.00663,42.52918],[-9.00568,42.52901],[-9.00547,42.52882],[-9.00534,42.52846],[-9.00582,42.52837],[-9.00702,42.52777],[-9.00766,42.52764],[-9.00944,42.52663],[-9.01082,42.52526],[-9.01087,42.52495],[-9.01039,42.52497],[-9.01013,42.52431],[-9.01051,42.52398],[-9.0107,42.52409],[-9.01073,42.52422],[-9.01085,42.52421],[-9.0109,42.52408],[-9.01129,42.52399],[-9.01201,42.52282],[-9.01132,42.52226],[-9.01108,42.52178],[-9.01071,42.51996],[-9.01053,42.51975],[-9.01039,42.51923],[-9.01,42.51897],[-9.00998,42.51881],[-9.00936,42.51857],[-9.00936,42.5183],[-9.00923,42.51824],[-9.00928,42.51767],[-9.00918,42.51749],[-9.00905,42.51743],[-9.00898,42.51752],[-9.00874,42.51746],[-9.00859,42.51726],[-9.00872,42.51698],[-9.00846,42.51682],[-9.00835,42.51662],[-9.00851,42.51583],[-9.00844,42.51571],[-9.00788,42.51604],[-9.00736,42.51563],[-9.00729,42.51482],[-9.0072,42.51475],[-9.00661,42.51494],[-9.00652,42.51488],[-9.00651,42.51463],[-9.00634,42.51448],[-9.00631,42.51385],[-9.00652,42.51371],[-9.00689,42.5137],[-9.007,42.51382],[-9.00722,42.51366],[-9.00735,42.51372],[-9.00761,42.51419],[-9.00779,42.51399],[-9.00795,42.5142],[-9.00806,42.51403],[-9.00822,42.51417],[-9.00833,42.51405],[-9.0084,42.51419],[-9.00831,42.5146],[-9.00842,42.51463],[-9.00866,42.51434],[-9.00873,42.51442],[-9.00857,42.51518],[-9.00865,42.51526],[-9.00887,42.51524],[-9.0091,42.515],[-9.00932,42.51519],[-9.00925,42.51578],[-9.00943,42.51569],[-9.00967,42.51596],[-9.00988,42.51593],[-9.00986,42.51618],[-9.01014,42.51621],[-9.0102,42.51646],[-9.01009,42.51695],[-9.01021,42.51704],[-9.01037,42.51683],[-9.01062,42.5171],[-9.0109,42.51654],[-9.01108,42.51652],[-9.01118,42.51667],[-9.01149,42.51653],[-9.01145,42.51682],[-9.01114,42.51696],[-9.01116,42.51731],[-9.01092,42.51759],[-9.01155,42.51797],[-9.01186,42.5183],[-9.01189,42.51848],[-9.01175,42.51861],[-9.01136,42.51955],[-9.01143,42.51988],[-9.01177,42.52014],[-9.01218,42.51982],[-9.01224,42.51987],[-9.01225,42.5201],[-9.01176,42.52027],[-9.01188,42.52068],[-9.01182,42.52132],[-9.01201,42.52147],[-9.01221,42.52194],[-9.01236,42.52192],[-9.01248,42.52146],[-9.01263,42.52142],[-9.01284,42.52166],[-9.01304,42.52161],[-9.01304,42.52145],[-9.01318,42.52133],[-9.01335,42.52147],[-9.01305,42.52208],[-9.01347,42.52258],[-9.01344,42.52295],[-9.01358,42.52309],[-9.01391,42.52313],[-9.01668,42.52283],[-9.01756,42.52251],[-9.01731,42.52182],[-9.01737,42.5217],[-9.01765,42.5217],[-9.01793,42.52213],[-9.01839,42.52202],[-9.01916,42.52166]]]}},{"type":"Feature","properties":{"id":"1507303002"},"geometry":{"type":"MultiPolygon","coordinates":[[[[-9.01199,42.5352],[-9.01219,42.53344],[-9.01263,42.53135],[-9.01305,42.53103],[-9.01357,42.53027],[-9.01493,42.52892],[-9.0158,42.52782],[-9.01626,42.52694],[-9.01718,42.52449],[-9.01827,42.52284],[-9.01976,42.52216],[-9.01916,42.52166],[-9.01954,42.52135],[-9.01937,42.52068],[-9.01864,42.52052],[-9.01877,42.52026],[-9.01939,42.52045],[-9.01947,42.52023],[-9.01822,42.51959],[-9.01765,42.51956],[-9.01688,42.51927],[-9.01662,42.51907],[-9.01684,42.51904],[-9.01681,42.51896],[-9.01601,42.51878],[-9.01597,42.51866],[-9.01625,42.51847],[-9.01643,42.51847],[-9.01683,42.51871],[-9.01786,42.51906],[-9.01805,42.51922],[-9.01845,42.51936],[-9.01858,42.51953],[-9.01988,42.52005],[-9.01983,42.51982],[-9.01994,42.51968],[-9.01972,42.51938],[-9.01977,42.51928],[-9.02008,42.5193],[-9.02023,42.51901],[-9.02046,42.51924],[-9.02081,42.51849],[-9.02116,42.51832],[-9.02125,42.518],[-9.02164,42.51782],[-9.02177,42.51793],[-9.02186,42.51788],[-9.02183,42.51768],[-9.02211,42.51773],[-9.02218,42.51738],[-9.02244,42.5178],[-9.02266,42.51766],[-9.02282,42.51694],[-9.02317,42.51717],[-9.02333,42.51699],[-9.02359,42.51701],[-9.02397,42.51689],[-9.02425,42.51714],[-9.02443,42.51715],[-9.02463,42.51741],[-9.02454,42.51781],[-9.02464,42.51785],[-9.02508,42.51762],[-9.02489,42.51841],[-9.02497,42.51859],[-9.02527,42.51839],[-9.02557,42.51836],[-9.02585,42.51794],[-9.02613,42.51778],[-9.02623,42.51792],[-9.02599,42.51834],[-9.02617,42.51858],[-9.02595,42.51899],[-9.02601,42.51956],[-9.02656,42.5192],[-9.02691,42.5195],[-9.02711,42.51923],[-9.02729,42.51919],[-9.02734,42.51956],[-9.02769,42.51974],[-9.02791,42.51976],[-9.02815,42.51966],[-9.02852,42.51981],[-9.02872,42.51959],[-9.02898,42.51974],[-9.02904,42.52012],[-9.03,42.51989],[-9.0301,42.52009],[-9.03029,42.52016],[-9.03026,42.52045],[-9.03038,42.52051],[-9.03079,42.52047],[-9.03121,42.52028],[-9.03158,42.52036],[-9.0318,42.51996],[-9.03196,42.52022],[-9.03223,42.52002],[-9.0326,42.52014],[-9.03265,42.52032],[-9.0329,42.52057],[-9.03342,42.52065],[-9.03356,42.52096],[-9.03381,42.52114],[-9.03406,42.52118],[-9.03475,42.52104],[-9.03491,42.52091],[-9.03491,42.5205],[-9.0352,42.52026],[-9.03524,42.5201],[-9.0352,42.51969],[-9.03557,42.51931],[-9.03564,42.51903],[-9.03601,42.51928],[-9.03609,42.51922],[-9.03589,42.51884],[-9.03624,42.51876],[-9.03652,42.51906],[-9.03669,42.5187],[-9.03706,42.51865],[-9.0372,42.51884],[-9.03723,42.51864],[-9.03751,42.51843],[-9.03777,42.51843],[-9.03834,42.51884],[-9.03838,42.51929],[-9.03871,42.51959],[-9.03899,42.51965],[-9.03963,42.51956],[-9.04013,42.51958],[-9.04043,42.51952],[-9.0405,42.51898],[-9.04061,42.51888],[-9.0405,42.51858],[-9.04068,42.5185],[-9.0409,42.51856],[-9.04112,42.51903],[-9.04124,42.51906],[-9.04134,42.51888],[-9.04119,42.51849],[-9.04145,42.51783],[-9.0417,42.51758],[-9.04206,42.51752],[-9.04212,42.51728],[-9.04228,42.51717],[-9.04274,42.51715],[-9.04292,42.51744],[-9.04331,42.51752],[-9.04348,42.51786],[-9.04338,42.51797],[-9.04292,42.51798],[-9.04269,42.51786],[-9.04256,42.51793],[-9.04313,42.51853],[-9.04331,42.51943],[-9.04374,42.51953],[-9.04375,42.5199],[-9.0434,42.52028],[-9.04313,42.52031],[-9.04332,42.52057],[-9.04286,42.52072],[-9.04291,42.52086],[-9.04329,42.521],[-9.04339,42.52114],[-9.04327,42.52148],[-9.04373,42.52215],[-9.04392,42.52228],[-9.04453,42.52241],[-9.04472,42.52256],[-9.04479,42.5228],[-9.04465,42.52329],[-9.04437,42.52349],[-9.04515,42.52386],[-9.04506,42.5242],[-9.04457,42.5243],[-9.04428,42.52447],[-9.04428,42.52496],[-9.04412,42.52506],[-9.04384,42.52443],[-9.04363,42.52428],[-9.04354,42.52359],[-9.04324,42.52345],[-9.04314,42.52326],[-9.04293,42.52322],[-9.0424,42.52331],[-9.0423,42.52351],[-9.04205,42.52345],[-9.04187,42.52357],[-9.04185,42.5238],[-9.04228,42.52407],[-9.04244,42.52443],[-9.04233,42.52459],[-9.04155,42.52489],[-9.04214,42.52583],[-9.04131,42.52593],[-9.0394,42.52579],[-9.03826,42.52589],[-9.03662,42.52641],[-9.03548,42.52646],[-9.03432,42.5267],[-9.0329,42.52649],[-9.03244,42.52668],[-9.03106,42.52695],[-9.03074,42.52887],[-9.02934,42.52898],[-9.02851,42.52863],[-9.02849,42.52892],[-9.02782,42.52936],[-9.02768,42.52985],[-9.0272,42.53059],[-9.02544,42.53206],[-9.02329,42.53159],[-9.0224,42.53272],[-9.02208,42.53297],[-9.02088,42.53304],[-9.0206,42.53332],[-9.01947,42.53323],[-9.01933,42.53311],[-9.01846,42.53306],[-9.01815,42.53292],[-9.0179,42.53342],[-9.01582,42.5351],[-9.01572,42.53579],[-9.01468,42.53622],[-9.01385,42.53559],[-9.01401,42.53529],[-9.01299,42.53441],[-9.01199,42.5352]]],[[[-9.01503,42.48539],[-9.01449,42.48502],[-9.01451,42.48485],[-9.01426,42.48454],[-9.01449,42.48415],[-9.01435,42.48406],[-9.01368,42.48417],[-9.01352,42.48405],[-9.01331,42.48412],[-9.01268,42.48375],[-9.01289,42.48346],[-9.01238,42.48299],[-9.01248,42.48276],[-9.01205,42.48231],[-9.01178,42.48223],[-9.01132,42.48254],[-9.01107,42.48256],[-9.01092,42.48248],[-9.01064,42.4817],[-9.01073,42.4815],[-9.01124,42.48144],[-9.01139,42.48131],[-9.01133,42.48111],[-9.01072,42.48053],[-9.00958,42.48017],[-9.00938,42.4803],[-9.00937,42.48048],[-9.00893,42.48073],[-9.0086,42.48066],[-9.00844,42.4808],[-9.00823,42.48068],[-9.00836,42.48024],[-9.00829,42.48015],[-9.0081,42.48016],[-9.00807,42.47986],[-9.00789,42.47971],[-9.00796,42.47959],[-9.00823,42.47954],[-9.00807,42.47927],[-9.00845,42.47886],[-9.00788,42.47801],[-9.00806,42.47757],[-9.00789,42.47745],[-9.00747,42.47756],[-9.00724,42.47709],[-9.00702,42.47692],[-9.00705,42.4766],[-9.00735,42.47632],[-9.00731,42.47616],[-9.00715,42.47608],[-9.00755,42.47598],[-9.00753,42.4755],[-9.00708,42.47528],[-9.00675,42.4747],[-9.00689,42.47418],[-9.00661,42.47374],[-9.00623,42.47384],[-9.00579,42.4738],[-9.00573,42.47364],[-9.0054,42.47357],[-9.00534,42.47333],[-9.0051,42.47324],[-9.00517,42.47313],[-9.00549,42.47304],[-9.00549,42.4729],[-9.00465,42.47245],[-9.00462,42.47234],[-9.00502,42.47168],[-9.00457,42.47185],[-9.00428,42.47105],[-9.0039,42.47084],[-9.00344,42.47086],[-9.00255,42.47066],[-9.00257,42.47087],[-9.00283,42.47118],[-9.00258,42.47121],[-9.0023,42.47107],[-9.00175,42.47113],[-9.00154,42.47099],[-9.00147,42.47077],[-9.00097,42.4706],[-9.00086,42.4704],[-9.0004,42.47042],[-9.00032,42.47035],[-9.0003,42.47002],[-9.00059,42.46987],[-9.00058,42.46971],[-9.00014,42.4697],[-8.99981,42.46916],[-8.99987,42.46899],[-9.00017,42.4688],[-8.99989,42.46854],[-8.99994,42.46842],[-9.00036,42.46828],[-9.0005,42.46804],[-9.00084,42.46799],[-9.00115,42.46816],[-9.00141,42.46816],[-9.00171,42.46753],[-9.00223,42.46757],[-9.00249,42.46747],[-9.00321,42.46747],[-9.00338,42.46759],[-9.00349,42.46834],[-9.00371,42.46839],[-9.00386,42.46762],[-9.00408,42.46739],[-9.00479,42.46746],[-9.00465,42.46727],[-9.0047,42.46717],[-9.00533,42.46712],[-9.00522,42.46681],[-9.00576,42.46669],[-9.00573,42.4663],[-9.00592,42.46612],[-9.00617,42.46635],[-9.00627,42.46628],[-9.00635,42.46641],[-9.00661,42.46639],[-9.00674,42.46656],[-9.00684,42.46646],[-9.00697,42.46689],[-9.00721,42.46698],[-9.00746,42.46651],[-9.00758,42.46642],[-9.00802,42.46643],[-9.00814,42.46636],[-9.00804,42.46623],[-9.0083,42.46621],[-9.00838,42.46599],[-9.00884,42.46581],[-9.00857,42.46548],[-9.00878,42.46526],[-9.00871,42.46505],[-9.00916,42.46488],[-9.00915,42.46475],[-9.00897,42.46468],[-9.00901,42.46455],[-9.00926,42.4645],[-9.00933,42.46439],[-9.00919,42.46433],[-9.00952,42.46408],[-9.00957,42.46368],[-9.01021,42.46335],[-9.01073,42.46389],[-9.01103,42.46385],[-9.01119,42.46373],[-9.0113,42.46397],[-9.01177,42.46368],[-9.01189,42.46376],[-9.01183,42.46395],[-9.01203,42.46409],[-9.01198,42.4644],[-9.01244,42.46462],[-9.01186,42.46567],[-9.01211,42.46579],[-9.01222,42.46561],[-9.01241,42.46555],[-9.01268,42.46506],[-9.01264,42.4648],[-9.01322,42.46406],[-9.0132,42.46391],[-9.01328,42.46381],[-9.0135,42.46378],[-9.01413,42.46399],[-9.01404,42.46425],[-9.01413,42.46433],[-9.01458,42.4643],[-9.01487,42.46475],[-9.01515,42.46472],[-9.01511,42.46493],[-9.0155,42.46498],[-9.01562,42.46506],[-9.01552,42.46524],[-9.01604,42.46541],[-9.01598,42.46564],[-9.01617,42.4658],[-9.01606,42.46596],[-9.01624,42.46597],[-9.01632,42.46633],[-9.01648,42.46637],[-9.01638,42.46659],[-9.01653,42.46671],[-9.01696,42.46664],[-9.01693,42.46691],[-9.01716,42.46726],[-9.01709,42.46745],[-9.01718,42.46753],[-9.01777,42.4674],[-9.01829,42.46802],[-9.01838,42.46836],[-9.01863,42.46853],[-9.01853,42.46865],[-9.0189,42.46886],[-9.0186,42.46915],[-9.01835,42.46913],[-9.01819,42.46929],[-9.01777,42.47023],[-9.01779,42.47081],[-9.01746,42.47107],[-9.01727,42.47154],[-9.01764,42.47161],[-9.01781,42.47194],[-9.018,42.47198],[-9.01818,42.47154],[-9.01862,42.47116],[-9.01893,42.47102],[-9.01904,42.47112],[-9.01876,42.47168],[-9.01881,42.47196],[-9.01917,42.47178],[-9.01931,42.47182],[-9.01944,42.47237],[-9.01973,42.47223],[-9.01958,42.47288],[-9.01962,42.47337],[-9.01978,42.47331],[-9.0198,42.47399],[-9.02018,42.47424],[-9.02014,42.47449],[-9.0205,42.47459],[-9.02048,42.47478],[-9.02026,42.47495],[-9.01996,42.4748],[-9.01977,42.47485],[-9.01974,42.47504],[-9.01987,42.47532],[-9.01999,42.47538],[-9.01972,42.47557],[-9.01941,42.4761],[-9.01997,42.47614],[-9.01992,42.47627],[-9.01975,42.47636],[-9.01915,42.47641],[-9.01926,42.47687],[-9.01905,42.47715],[-9.019,42.47748],[-9.01922,42.47753],[-9.01937,42.47774],[-9.01929,42.47795],[-9.01939,42.47837],[-9.0192,42.47888],[-9.01934,42.47902],[-9.01932,42.47947],[-9.01911,42.47979],[-9.01917,42.47996],[-9.01887,42.4803],[-9.01908,42.48063],[-9.01897,42.48092],[-9.01857,42.48114],[-9.01881,42.4814],[-9.01915,42.48143],[-9.01909,42.48194],[-9.01927,42.48205],[-9.01973,42.48191],[-9.01986,42.48203],[-9.01978,42.48224],[-9.01912,42.48246],[-9.019,42.48265],[-9.01835,42.48266],[-9.01817,42.48286],[-9.01825,42.48301],[-9.01803,42.48313],[-9.0181,42.48336],[-9.01775,42.48341],[-9.01782,42.48366],[-9.01752,42.48354],[-9.01683,42.48349],[-9.01633,42.48402],[-9.01583,42.48428],[-9.01583,42.4846],[-9.01619,42.48475],[-9.01605,42.48491],[-9.0161,42.48504],[-9.01568,42.48512],[-9.01528,42.48544],[-9.01503,42.48539]]],[[[-9.00535,42.50071],[-9.00471,42.50058],[-9.00385,42.5],[-9.00388,42.49955],[-9.00412,42.49938],[-9.00396,42.49888],[-9.00361,42.49843],[-9.00318,42.49821],[-9.00243,42.49813],[-9.00245,42.49789],[-9.00278,42.49737],[-9.00277,42.49677],[-9.00317,42.4957],[-9.00369,42.49595],[-9.00421,42.49594],[-9.00476,42.49616],[-9.00512,42.4961],[-9.00576,42.49619],[-9.00593,42.49641],[-9.00589,42.49668],[-9.00642,42.49702],[-9.00606,42.49741],[-9.00594,42.4978],[-9.00626,42.49841],[-9.00689,42.49893],[-9.0071,42.49965],[-9.0077,42.50023],[-9.00771,42.50044],[-9.00815,42.5006],[-9.00813,42.50095],[-9.00755,42.50108],[-9.00698,42.50067],[-9.00648,42.50064],[-9.00618,42.50074],[-9.00642,42.50114],[-9.00629,42.50121],[-9.00562,42.50111],[-9.00535,42.50071]]]]}},{"type":"Feature","properties":{"id":"1507304001"},"geometry":{"type":"Polygon","coordinates":[[[-8.9616,42.57439],[-8.96199,42.57468],[-8.96288,42.57481],[-8.96307,42.57482],[-8.96366,42.57459],[-8.9638,42.57482],[-8.96435,42.57509],[-8.96462,42.57544],[-8.96473,42.57586],[-8.96405,42.57616],[-8.96392,42.57675],[-8.9646,42.57667],[-8.9645,42.57699],[-8.9654,42.57707],[-8.96559,42.57736],[-8.96603,42.57723],[-8.96603,42.57692],[-8.96632,42.57681],[-8.96626,42.57644],[-8.9671,42.5766],[-8.96708,42.57688],[-8.96642,42.57709],[-8.96658,42.57762],[-8.96615,42.57845],[-8.96637,42.57892],[-8.96564,42.57933],[-8.96516,42.57973],[-8.9652,42.58021],[-8.9655,42.58028],[-8.96539,42.58098],[-8.96735,42.58199],[-8.96664,42.58253],[-8.96655,42.58342],[-8.96551,42.58347],[-8.96471,42.58373],[-8.96407,42.5841],[-8.96357,42.58418],[-8.96361,42.58405],[-8.96318,42.58402],[-8.96268,42.58404],[-8.96241,42.58416],[-8.96222,42.58376],[-8.9624,42.58349],[-8.96231,42.5829],[-8.96244,42.5821],[-8.9629,42.582],[-8.96402,42.58129],[-8.96369,42.58135],[-8.96346,42.58128],[-8.96338,42.58058],[-8.96252,42.5806],[-8.96144,42.58036],[-8.96045,42.58036],[-8.96034,42.58003],[-8.96005,42.58009],[-8.95995,42.58],[-8.96052,42.57925],[-8.96034,42.57881],[-8.96001,42.57849],[-8.95989,42.57811],[-8.96,42.57769],[-8.95988,42.57753],[-8.95992,42.57732],[-8.95935,42.57696],[-8.9596,42.57654],[-8.95949,42.57628],[-8.95908,42.5761],[-8.95908,42.57589],[-8.95932,42.57583],[-8.95969,42.57578],[-8.95991,42.57613],[-8.96006,42.57617],[-8.96072,42.57585],[-8.9608,42.57572],[-8.9607,42.57533],[-8.96092,42.57496],[-8.9616,42.57439]]]}},{"type":"Feature","properties":{"id":"1507304002"},"geometry":{"type":"Polygon","coordinates":[[[-8.95126,42.58479],[-8.95332,42.58469],[-8.95448,42.58449],[-8.95638,42.58358],[-8.95692,42.58308],[-8.95753,42.58273],[-8.95758,42.58242],[-8.9578,42.58214],[-8.95764,42.58178],[-8.95794,42.58181],[-8.95862,42.58132],[-8.95906,42.58057],[-8.95904,42.57985],[-8.95899,42.57975],[-8.95859,42.5797],[-8.95794,42.57978],[-8.9584,42.57955],[-8.95806,42.57902],[-8.95757,42.57921],[-8.9577,42.57968],[-8.95749,42.57962],[-8.95729,42.57901],[-8.95764,42.57864],[-8.95806,42.57874],[-8.95839,42.57863],[-8.95848,42.57845],[-8.95872,42.57839],[-8.9589,42.57785],[-8.95931,42.57734],[-8.95935,42.57696],[-8.95992,42.57732],[-8.95988,42.57753],[-8.96,42.57769],[-8.95989,42.57811],[-8.96001,42.57849],[-8.96034,42.57881],[-8.96052,42.57925],[-8.95995,42.58],[-8.96005,42.58009],[-8.96034,42.58003],[-8.96045,42.58036],[-8.96144,42.58036],[-8.96252,42.5806],[-8.96338,42.58058],[-8.96346,42.58128],[-8.96369,42.58135],[-8.96402,42.58129],[-8.9629,42.582],[-8.96244,42.5821],[-8.96231,42.5829],[-8.9624,42.58349],[-8.96222,42.58376],[-8.96241,42.58416],[-8.96268,42.58404],[-8.96361,42.58405],[-8.96358,42.58417],[-8.96292,42.58455],[-8.96231,42.58474],[-8.96266,42.58491],[-8.96188,42.5853],[-8.96096,42.58597],[-8.96059,42.58556],[-8.95938,42.58533],[-8.95918,42.58541],[-8.95903,42.58495],[-8.95878,42.58502],[-8.95883,42.58513],[-8.95818,42.58516],[-8.95825,42.58487],[-8.95845,42.58473],[-8.95823,42.58448],[-8.95805,42.58449],[-8.95764,42.5851],[-8.95681,42.58469],[-8.9564,42.58499],[-8.95617,42.58536],[-8.9559,42.58546],[-8.95599,42.58572],[-8.95637,42.58594],[-8.95584,42.58648],[-8.95602,42.58658],[-8.95589,42.58683],[-8.95606,42.5871],[-8.95533,42.58744],[-8.9551,42.58766],[-8.95412,42.58803],[-8.95246,42.58891],[-8.95204,42.58927],[-8.95166,42.58886],[-8.95156,42.58616],[-8.95126,42.58479]]]}},{"type":"Feature","properties":{"id":"1507304004"},"geometry":{"type":"Polygon","coordinates":[[[-8.96357,42.58418],[-8.96407,42.5841],[-8.96471,42.58373],[-8.96551,42.58347],[-8.96655,42.58342],[-8.96664,42.58253],[-8.96735,42.58199],[-8.96539,42.58098],[-8.9655,42.58028],[-8.9652,42.58021],[-8.96516,42.57973],[-8.96564,42.57933],[-8.96637,42.57892],[-8.96615,42.57845],[-8.96658,42.57762],[-8.96642,42.57709],[-8.96708,42.57688],[-8.9671,42.5766],[-8.96626,42.57644],[-8.96632,42.57681],[-8.96603,42.57692],[-8.96603,42.57723],[-8.96559,42.57736],[-8.9654,42.57707],[-8.9645,42.57699],[-8.9646,42.57667],[-8.96392,42.57675],[-8.96405,42.57616],[-8.96473,42.57586],[-8.96462,42.57544],[-8.96435,42.57509],[-8.9638,42.57482],[-8.96366,42.57459],[-8.96307,42.57482],[-8.96288,42.57481],[-8.96199,42.57468],[-8.9616,42.57439],[-8.96236,42.57386],[-8.96301,42.57306],[-8.96317,42.57267],[-8.96327,42.57141],[-8.96272,42.57113],[-8.96283,42.57099],[-8.96309,42.57091],[-8.96309,42.57074],[-8.96269,42.57058],[-8.96256,42.57033],[-8.96267,42.57009],[-8.96262,42.56969],[-8.96281,42.56951],[-8.96281,42.56914],[-8.96298,42.569],[-8.96288,42.56883],[-8.96303,42.56859],[-8.96323,42.56856],[-8.96375,42.5692],[-8.96402,42.56928],[-8.96428,42.56902],[-8.96416,42.56845],[-8.96421,42.56813],[-8.96441,42.56816],[-8.96472,42.56852],[-8.96487,42.56848],[-8.96496,42.56836],[-8.96477,42.56797],[-8.9649,42.56774],[-8.96509,42.56792],[-8.96562,42.56795],[-8.96573,42.56842],[-8.96607,42.56842],[-8.96644,42.56867],[-8.96666,42.56862],[-8.96676,42.56806],[-8.9669,42.56787],[-8.96711,42.56779],[-8.96704,42.56729],[-8.96748,42.56742],[-8.96774,42.56785],[-8.96775,42.56798],[-8.96748,42.56815],[-8.96748,42.56826],[-8.9676,42.56836],[-8.96827,42.56839],[-8.96845,42.56851],[-8.96853,42.56886],[-8.96832,42.5693],[-8.96851,42.56949],[-8.96913,42.56954],[-8.96962,42.56904],[-8.96971,42.56874],[-8.96999,42.5686],[-8.97048,42.56859],[-8.97091,42.56823],[-8.97127,42.56829],[-8.97195,42.56868],[-8.9721,42.5686],[-8.97212,42.5683],[-8.97222,42.56823],[-8.97275,42.5684],[-8.97248,42.56878],[-8.97285,42.56895],[-8.97447,42.56907],[-8.97585,42.56885],[-8.9769,42.56878],[-8.97745,42.56908],[-8.97751,42.56918],[-8.97733,42.5692],[-8.97738,42.56929],[-8.97781,42.56945],[-8.97784,42.56965],[-8.97873,42.57057],[-8.97921,42.57043],[-8.97947,42.57017],[-8.97997,42.56993],[-8.98051,42.56985],[-8.98106,42.56959],[-8.9815,42.56993],[-8.98158,42.57024],[-8.98157,42.57043],[-8.98114,42.57067],[-8.98119,42.57103],[-8.98147,42.57102],[-8.98148,42.57115],[-8.98167,42.57118],[-8.98194,42.57261],[-8.9821,42.57309],[-8.98229,42.57327],[-8.98254,42.5747],[-8.98225,42.57491],[-8.98224,42.57503],[-8.98252,42.57562],[-8.98249,42.57632],[-8.98343,42.5767],[-8.98478,42.57746],[-8.98488,42.57741],[-8.9861,42.57814],[-8.98784,42.57814],[-8.98788,42.57805],[-8.98839,42.57822],[-8.9873,42.57916],[-8.98584,42.58095],[-8.9873,42.58244],[-8.98799,42.58608],[-8.98799,42.59251],[-8.98972,42.59258],[-8.98959,42.59282],[-8.98881,42.59332],[-8.98815,42.59366],[-8.98777,42.59376],[-8.98743,42.59399],[-8.98669,42.59404],[-8.98623,42.59439],[-8.98135,42.59613],[-8.98111,42.59641],[-8.9792,42.59688],[-8.97836,42.59697],[-8.97794,42.5974],[-8.97668,42.59757],[-8.9742,42.59833],[-8.97379,42.59835],[-8.97326,42.59815],[-8.97141,42.59837],[-8.97074,42.59827],[-8.97014,42.59797],[-8.96929,42.59794],[-8.96908,42.59777],[-8.96842,42.59672],[-8.96792,42.59648],[-8.96751,42.59644],[-8.96574,42.59666],[-8.96528,42.59645],[-8.96467,42.59637],[-8.96415,42.5958],[-8.9637,42.59553],[-8.96361,42.59536],[-8.96388,42.59481],[-8.96383,42.59458],[-8.96335,42.59439],[-8.96331,42.59412],[-8.96298,42.59357],[-8.96208,42.59321],[-8.96108,42.59329],[-8.96078,42.59324],[-8.9599,42.59255],[-8.95964,42.59253],[-8.95925,42.5929],[-8.95854,42.59315],[-8.95756,42.59298],[-8.95681,42.59305],[-8.95559,42.59338],[-8.95542,42.59327],[-8.95536,42.59236],[-8.95522,42.59231],[-8.954,42.59243],[-8.95384,42.59231],[-8.95366,42.59062],[-8.95349,42.59038],[-8.95204,42.58927],[-8.95246,42.58891],[-8.95412,42.58803],[-8.9551,42.58766],[-8.95533,42.58744],[-8.95606,42.5871],[-8.95589,42.58683],[-8.95602,42.58658],[-8.95584,42.58648],[-8.95637,42.58594],[-8.95599,42.58572],[-8.9559,42.58546],[-8.95617,42.58536],[-8.9564,42.58499],[-8.95681,42.58469],[-8.95764,42.5851],[-8.95805,42.58449],[-8.95823,42.58448],[-8.95845,42.58473],[-8.95825,42.58487],[-8.95818,42.58516],[-8.95883,42.58513],[-8.95878,42.58502],[-8.95903,42.58495],[-8.95918,42.58541],[-8.95938,42.58533],[-8.96059,42.58556],[-8.96096,42.58597],[-8.96188,42.5853],[-8.96266,42.58491],[-8.96231,42.58474],[-8.96292,42.58455],[-8.96357,42.58418]]]}},{"type":"Feature","properties":{"id":"1507305001"},"geometry":{"type":"Polygon","coordinates":[[[-9.05595,42.5764],[-9.05814,42.58553],[-9.05631,42.58619],[-9.0565,42.58649],[-9.05648,42.58673],[-9.05677,42.58757],[-9.05672,42.58875],[-9.05653,42.58941],[-9.0566,42.59019],[-9.05682,42.59132],[-9.05727,42.59185],[-9.05844,42.5942],[-9.0585,42.59506],[-9.05509,42.59476],[-9.05051,42.59624],[-9.05012,42.59695],[-9.04893,42.59787],[-9.04857,42.59884],[-9.04783,42.59954],[-9.04476,42.60333],[-9.04418,42.60541],[-9.03899,42.60665],[-9.03762,42.60721],[-9.03632,42.60809],[-9.03587,42.60818],[-9.03464,42.60737],[-9.03359,42.60696],[-9.03234,42.6067],[-9.03153,42.60642],[-9.03185,42.60826],[-9.03163,42.61093],[-9.03108,42.61004],[-9.03006,42.60966],[-9.02936,42.60913],[-9.02851,42.60814],[-9.02823,42.608],[-9.02781,42.60794],[-9.02736,42.60752],[-9.02687,42.60734],[-9.02403,42.6083],[-9.02117,42.60794],[-9.02142,42.60538],[-9.02135,42.60274],[-9.02108,42.60178],[-9.02108,42.59995],[-9.02074,42.59942],[-9.02051,42.59785],[-9.02018,42.59681],[-9.01898,42.59622],[-9.01973,42.59555],[-9.0187,42.59456],[-9.01888,42.59431],[-9.01847,42.59399],[-9.01783,42.594],[-9.0174,42.59434],[-9.01683,42.59432],[-9.01675,42.5942],[-9.01703,42.59371],[-9.01665,42.59349],[-9.01477,42.59316],[-9.01481,42.59269],[-9.01465,42.59177],[-9.01515,42.59014],[-9.01508,42.58864],[-9.01529,42.5869],[-9.01547,42.58679],[-9.01849,42.58306],[-9.01931,42.58281],[-9.02088,42.58176],[-9.02149,42.58211],[-9.02184,42.58206],[-9.02256,42.58168],[-9.02232,42.58067],[-9.0241,42.57946],[-9.02445,42.57891],[-9.0251,42.57841],[-9.02571,42.57831],[-9.02666,42.57788],[-9.03081,42.57505],[-9.0331,42.57187],[-9.03248,42.5698],[-9.03469,42.56852],[-9.04147,42.56677],[-9.04278,42.56804],[-9.04397,42.56854],[-9.04442,42.56856],[-9.04478,42.56873],[-9.04588,42.56955],[-9.04661,42.56994],[-9.04785,42.57162],[-9.04906,42.57258],[-9.04933,42.57256],[-9.04962,42.5724],[-9.05012,42.57256],[-9.05014,42.5728],[-9.0498,42.57324],[-9.04992,42.5735],[-9.05224,42.57487],[-9.05314,42.57519],[-9.05419,42.57586],[-9.05595,42.5764]]]}},{"type":"Feature","properties":{"id":"1507305002"},"geometry":{"type":"Polygon","coordinates":[[[-9.0585,42.59506],[-9.05844,42.5942],[-9.05727,42.59185],[-9.05682,42.59132],[-9.0566,42.59019],[-9.05653,42.58941],[-9.05672,42.58875],[-9.05677,42.58757],[-9.05648,42.58673],[-9.0565,42.58649],[-9.05631,42.58619],[-9.05814,42.58553],[-9.05595,42.5764],[-9.05811,42.57724],[-9.05932,42.57759],[-9.05979,42.57761],[-9.06109,42.57741],[-9.06176,42.57716],[-9.06192,42.57691],[-9.06225,42.57683],[-9.0624,42.57665],[-9.06254,42.57664],[-9.06263,42.57654],[-9.06231,42.57609],[-9.06242,42.57585],[-9.06234,42.57565],[-9.06248,42.57557],[-9.06268,42.57559],[-9.06308,42.57594],[-9.06337,42.57585],[-9.06352,42.57648],[-9.06396,42.57687],[-9.06415,42.57678],[-9.06378,42.57637],[-9.06389,42.57586],[-9.06421,42.57603],[-9.06443,42.57603],[-9.06461,42.57596],[-9.0647,42.57581],[-9.06504,42.57593],[-9.06587,42.57595],[-9.06607,42.57582],[-9.06661,42.57602],[-9.06707,42.57603],[-9.06717,42.57594],[-9.06689,42.57566],[-9.06683,42.57545],[-9.06706,42.57506],[-9.06716,42.57509],[-9.06734,42.57555],[-9.06782,42.57594],[-9.06839,42.57595],[-9.0686,42.57578],[-9.06857,42.57569],[-9.06779,42.57529],[-9.06793,42.57522],[-9.06781,42.57491],[-9.06788,42.57474],[-9.06834,42.57447],[-9.06849,42.5745],[-9.06862,42.57434],[-9.06903,42.57436],[-9.06902,42.57408],[-9.07069,42.57457],[-9.071,42.57454],[-9.07133,42.57438],[-9.07231,42.57356],[-9.07227,42.57311],[-9.07147,42.57245],[-9.0709,42.57246],[-9.07071,42.57238],[-9.07096,42.57204],[-9.07177,42.57211],[-9.07167,42.57172],[-9.07185,42.5717],[-9.07344,42.57224],[-9.07373,42.57216],[-9.07453,42.57239],[-9.07515,42.57219],[-9.07584,42.57169],[-9.07644,42.57096],[-9.07655,42.57055],[-9.07638,42.57018],[-9.07605,42.56993],[-9.07589,42.56945],[-9.07553,42.56947],[-9.07539,42.56941],[-9.07532,42.56913],[-9.07503,42.56899],[-9.07508,42.56863],[-9.07465,42.56842],[-9.07441,42.56795],[-9.07402,42.56789],[-9.07386,42.56773],[-9.07399,42.56759],[-9.07372,42.5674],[-9.07382,42.56701],[-9.07375,42.56662],[-9.07427,42.56639],[-9.07518,42.56672],[-9.07548,42.5666],[-9.07566,42.56664],[-9.07564,42.56709],[-9.07627,42.56737],[-9.07676,42.56734],[-9.077,42.56768],[-9.0773,42.56754],[-9.07761,42.56761],[-9.07797,42.56799],[-9.07866,42.56789],[-9.07907,42.56812],[-9.07929,42.56799],[-9.07964,42.56808],[-9.07976,42.56788],[-9.0801,42.56805],[-9.08068,42.56812],[-9.08111,42.56803],[-9.08182,42.56855],[-9.08211,42.56831],[-9.08252,42.56819],[-9.08271,42.56826],[-9.08277,42.56854],[-9.083,42.56819],[-9.08323,42.56813],[-9.08344,42.56821],[-9.08369,42.569],[-9.08363,42.56972],[-9.08385,42.56973],[-9.08394,42.56948],[-9.08447,42.56965],[-9.08434,42.56996],[-9.08445,42.57024],[-9.08462,42.57028],[-9.08453,42.57044],[-9.08459,42.5706],[-9.08502,42.57016],[-9.08524,42.5704],[-9.08566,42.57019],[-9.08577,42.57021],[-9.08582,42.57051],[-9.08606,42.57026],[-9.08619,42.57036],[-9.08647,42.56989],[-9.08672,42.56992],[-9.08676,42.56975],[-9.08694,42.56997],[-9.08689,42.57016],[-9.08697,42.5702],[-9.08724,42.57007],[-9.08731,42.57051],[-9.08746,42.57052],[-9.08776,42.5703],[-9.08779,42.57004],[-9.08791,42.56994],[-9.08808,42.56997],[-9.08858,42.57044],[-9.08853,42.5707],[-9.08868,42.57084],[-9.08941,42.57074],[-9.08963,42.57094],[-9.0896,42.57112],[-9.08932,42.57129],[-9.08961,42.57149],[-9.08957,42.57163],[-9.08941,42.57174],[-9.08925,42.57145],[-9.08906,42.57147],[-9.08865,42.57188],[-9.08903,42.57218],[-9.08899,42.57252],[-9.08924,42.57261],[-9.08937,42.57281],[-9.08959,42.57275],[-9.08969,42.57303],[-9.08977,42.57305],[-9.08987,42.57292],[-9.09001,42.573],[-9.09005,42.57324],[-9.09015,42.57325],[-9.09026,42.57306],[-9.0904,42.57308],[-9.09052,42.57411],[-9.09072,42.57413],[-9.0913,42.57395],[-9.09149,42.57407],[-9.09172,42.57454],[-9.09156,42.5751],[-9.09182,42.57532],[-9.09189,42.57562],[-9.09166,42.57607],[-9.09199,42.57629],[-9.09181,42.57694],[-9.09189,42.57711],[-9.09162,42.57783],[-9.09178,42.57792],[-9.09167,42.5782],[-9.09125,42.57803],[-9.09089,42.5781],[-9.0901,42.57765],[-9.08991,42.57765],[-9.08956,42.57802],[-9.08906,42.57794],[-9.08909,42.57837],[-9.08869,42.57842],[-9.08784,42.57828],[-9.08753,42.57852],[-9.08749,42.57877],[-9.08677,42.5788],[-9.08663,42.57853],[-9.08643,42.5785],[-9.08615,42.57862],[-9.08593,42.57836],[-9.08582,42.57837],[-9.08547,42.57872],[-9.08531,42.57875],[-9.08493,42.57844],[-9.0846,42.57873],[-9.08411,42.57867],[-9.08403,42.57876],[-9.08387,42.57874],[-9.08362,42.57852],[-9.08305,42.57838],[-9.08264,42.57842],[-9.08236,42.57824],[-9.0821,42.57824],[-9.08229,42.5785],[-9.08228,42.57872],[-9.08269,42.57892],[-9.08276,42.57907],[-9.08214,42.5792],[-9.08256,42.58023],[-9.08204,42.58012],[-9.08182,42.57994],[-9.08185,42.57944],[-9.08161,42.57935],[-9.08107,42.57956],[-9.0803,42.58009],[-9.07976,42.58054],[-9.07979,42.58094],[-9.0795,42.58115],[-9.0791,42.58184],[-9.07869,42.58223],[-9.07869,42.58303],[-9.07857,42.58314],[-9.07829,42.58303],[-9.07813,42.58308],[-9.0769,42.5844],[-9.07683,42.58503],[-9.07699,42.58521],[-9.07788,42.58547],[-9.07802,42.58571],[-9.07761,42.58672],[-9.07725,42.58695],[-9.07734,42.58768],[-9.07685,42.58785],[-9.07677,42.58804],[-9.07689,42.58884],[-9.07641,42.58922],[-9.07658,42.59013],[-9.07783,42.59041],[-9.07813,42.59025],[-9.07831,42.59029],[-9.07844,42.59045],[-9.07839,42.59057],[-9.07797,42.59088],[-9.07796,42.59107],[-9.07936,42.5916],[-9.07973,42.59216],[-9.08013,42.59253],[-9.08066,42.59277],[-9.08076,42.59297],[-9.08119,42.59315],[-9.08155,42.59354],[-9.08184,42.5935],[-9.08176,42.5938],[-9.08197,42.59444],[-9.08144,42.5945],[-9.08144,42.59477],[-9.08105,42.59495],[-9.0804,42.59491],[-9.08025,42.59517],[-9.08035,42.59539],[-9.08004,42.59548],[-9.07983,42.59587],[-9.07935,42.5959],[-9.07908,42.59615],[-9.07932,42.59629],[-9.07934,42.59646],[-9.07859,42.5964],[-9.07843,42.59648],[-9.07849,42.59688],[-9.07884,42.59705],[-9.07903,42.59748],[-9.0795,42.59774],[-9.07953,42.59789],[-9.07941,42.59799],[-9.0789,42.59819],[-9.07857,42.59863],[-9.07816,42.59857],[-9.07735,42.59865],[-9.07719,42.5983],[-9.0769,42.59845],[-9.07559,42.59811],[-9.07528,42.59837],[-9.07532,42.59866],[-9.07522,42.59875],[-9.07491,42.59869],[-9.07456,42.59879],[-9.07442,42.59921],[-9.07401,42.59948],[-9.07387,42.59948],[-9.07342,42.59888],[-9.07301,42.5991],[-9.07284,42.59885],[-9.07199,42.59878],[-9.07184,42.59863],[-9.07138,42.59864],[-9.07089,42.59827],[-9.07073,42.59865],[-9.07049,42.59867],[-9.07014,42.59845],[-9.06888,42.59837],[-9.06871,42.59801],[-9.06855,42.59798],[-9.06776,42.59836],[-9.06648,42.59936],[-9.06543,42.59976],[-9.06458,42.59822],[-9.06364,42.59737],[-9.06292,42.59711],[-9.06225,42.59671],[-9.06194,42.59644],[-9.06143,42.59559],[-9.06106,42.59543],[-9.06021,42.59527],[-9.0585,42.59506]]]}},{"type":"Feature","properties":{"id":"1507305003"},"geometry":{"type":"Polygon","coordinates":[[[-9.01553,42.5867],[-8.98799,42.58608],[-8.9873,42.58244],[-8.98584,42.58095],[-8.9873,42.57916],[-8.99175,42.57547],[-8.99282,42.57656],[-8.99285,42.57678],[-8.99369,42.57692],[-8.9943,42.57656],[-8.99462,42.57659],[-8.99528,42.57637],[-8.99516,42.57749],[-8.99538,42.57764],[-8.9956,42.57767],[-8.99587,42.57757],[-8.99593,42.57694],[-8.99582,42.57669],[-8.99737,42.57648],[-8.99809,42.57702],[-8.99819,42.57734],[-9.00017,42.5771],[-9.00029,42.57739],[-9.00194,42.57693],[-9.00276,42.57641],[-9.00274,42.57633],[-9.00299,42.57632],[-9.00345,42.57606],[-9.00308,42.57557],[-9.00294,42.57572],[-9.00275,42.57532],[-9.00141,42.57369],[-9.00045,42.57374],[-9.00026,42.57346],[-9.00098,42.57317],[-9.00088,42.57304],[-9.00129,42.57277],[-9.00119,42.57269],[-9.00082,42.57293],[-9.00074,42.57286],[-9.00044,42.57301],[-9.00028,42.57269],[-9.00057,42.57242],[-9.0003,42.57227],[-9.00037,42.57212],[-8.99942,42.57149],[-8.99904,42.57139],[-8.99862,42.57051],[-8.99883,42.57015],[-8.99877,42.56989],[-8.99912,42.5691],[-8.99929,42.56802],[-8.99948,42.56778],[-9.00017,42.56742],[-9.00031,42.56726],[-9.00069,42.56624],[-9.00086,42.56606],[-9.00224,42.56577],[-9.00321,42.56531],[-9.00343,42.56427],[-9.00456,42.56321],[-9.00534,42.56166],[-9.00649,42.56115],[-9.00765,42.56036],[-9.00855,42.56009],[-9.0093,42.55928],[-9.0103,42.55868],[-9.01067,42.55875],[-9.01092,42.55901],[-9.011,42.55952],[-9.01088,42.55996],[-9.01147,42.56148],[-9.01186,42.56178],[-9.01228,42.5624],[-9.01755,42.56417],[-9.01982,42.56572],[-9.02143,42.56638],[-9.02623,42.56926],[-9.03247,42.56977],[-9.0331,42.57187],[-9.03081,42.57505],[-9.02666,42.57788],[-9.02571,42.57831],[-9.0251,42.57841],[-9.02445,42.57891],[-9.0241,42.57946],[-9.02232,42.58067],[-9.02256,42.58168],[-9.02184,42.58206],[-9.02149,42.58211],[-9.02088,42.58176],[-9.01931,42.58281],[-9.01849,42.58306],[-9.01553,42.5867]]]}},{"type":"Feature","properties":{"id":"1507305004"},"geometry":{"type":"Polygon","coordinates":[[[-8.98045,42.63841],[-8.97833,42.63517],[-8.97783,42.63534],[-8.97222,42.63617],[-8.96708,42.63672],[-8.96583,42.63518],[-8.9653,42.63397],[-8.96591,42.63156],[-8.96377,42.62929],[-8.96185,42.62784],[-8.96172,42.62697],[-8.96021,42.62514],[-8.95984,42.62499],[-8.96008,42.62462],[-8.96305,42.62347],[-8.96599,42.622],[-8.96826,42.62118],[-8.96855,42.62079],[-8.9699,42.6179],[-8.97176,42.61613],[-8.97575,42.61267],[-8.97755,42.61149],[-8.97903,42.60987],[-8.98025,42.60875],[-8.98109,42.60748],[-8.98284,42.60389],[-8.98328,42.60366],[-8.98304,42.60135],[-8.98219,42.59994],[-8.98187,42.59775],[-8.98111,42.59641],[-8.98135,42.59613],[-8.98623,42.59439],[-8.98669,42.59404],[-8.98743,42.59399],[-8.98777,42.59376],[-8.98815,42.59366],[-8.98881,42.59332],[-8.98959,42.59282],[-8.98972,42.59258],[-8.98799,42.59251],[-8.98799,42.58608],[-9.01553,42.5867],[-9.01529,42.5869],[-9.01513,42.58785],[-9.01515,42.59014],[-9.01465,42.59177],[-9.01481,42.59269],[-9.01477,42.59316],[-9.01665,42.59349],[-9.01703,42.59371],[-9.01675,42.5942],[-9.01683,42.59432],[-9.0174,42.59434],[-9.01783,42.594],[-9.01847,42.59399],[-9.01888,42.59431],[-9.0187,42.59456],[-9.01973,42.59555],[-9.01898,42.59622],[-9.02018,42.59681],[-9.02051,42.59785],[-9.02074,42.59942],[-9.02108,42.59995],[-9.02108,42.60178],[-9.02135,42.60274],[-9.02142,42.60538],[-9.02117,42.60794],[-9.0192,42.60773],[-9.01836,42.60896],[-9.01627,42.60907],[-9.01689,42.60937],[-9.01497,42.61081],[-9.01415,42.61105],[-9.0137,42.61139],[-9.01303,42.61101],[-9.01251,42.61114],[-9.01238,42.61165],[-9.01107,42.6118],[-9.01045,42.61088],[-9.00995,42.61106],[-9.00986,42.61148],[-9.00944,42.61175],[-9.0089,42.61246],[-9.0087,42.61323],[-9.00616,42.61666],[-9.00587,42.61767],[-9.0026,42.62119],[-9.00743,42.6214],[-9.0115,42.62481],[-9.0093,42.62478],[-9.00635,42.62615],[-9.00523,42.62683],[-9.00142,42.62773],[-8.99885,42.6274],[-8.99877,42.62808],[-8.99849,42.62861],[-8.99736,42.62967],[-8.99644,42.62974],[-8.99559,42.63003],[-8.99502,42.63045],[-8.99427,42.63225],[-8.99403,42.6332],[-8.99421,42.6335],[-8.99174,42.63436],[-8.99093,42.6349],[-8.98763,42.63523],[-8.98395,42.63669],[-8.98045,42.63841]]]}}]}