{"type":"FeatureCollection","features":[{"type":"Feature","properties":{"id":"1590101001"},"geometry":{"type":"MultiPolygon","coordinates":[[[[-7.8685,43.77347],[-7.86801,43.77279],[-7.8679,43.77242],[-7.86733,43.77209],[-7.86704,43.77145],[-7.86716,43.77079],[-7.86695,43.77057],[-7.8667,43.76996],[-7.86629,43.76954],[-7.86566,43.76911],[-7.86527,43.76839],[-7.86465,43.76801],[-7.86324,43.76531],[-7.86266,43.76511],[-7.86257,43.76483],[-7.8613,43.76428],[-7.86099,43.76404],[-7.86078,43.76377],[-7.86043,43.76359],[-7.86032,43.76328],[-7.85973,43.76262],[-7.85979,43.76214],[-7.86018,43.76162],[-7.8608,43.7611],[-7.86091,43.76067],[-7.86112,43.76047],[-7.86111,43.7603],[-7.86085,43.76024],[-7.86066,43.75999],[-7.86005,43.75988],[-7.85973,43.75966],[-7.85962,43.75934],[-7.85979,43.75913],[-7.86028,43.75929],[-7.86035,43.75899],[-7.86057,43.7588],[-7.86021,43.75844],[-7.86015,43.75813],[-7.86033,43.75794],[-7.86068,43.75797],[-7.86175,43.7577],[-7.86309,43.7577],[-7.86333,43.75759],[-7.86333,43.75736],[-7.86276,43.75681],[-7.86285,43.75659],[-7.86361,43.75616],[-7.86341,43.75582],[-7.86353,43.7556],[-7.86389,43.75536],[-7.86398,43.75474],[-7.86384,43.75418],[-7.86469,43.75308],[-7.86484,43.75256],[-7.86502,43.75233],[-7.86537,43.7522],[-7.86493,43.75171],[-7.865,43.75131],[-7.8652,43.75108],[-7.86509,43.7509],[-7.86507,43.75041],[-7.86461,43.74965],[-7.86437,43.74953],[-7.8638,43.74839],[-7.86328,43.74763],[-7.86275,43.74722],[-7.86277,43.74702],[-7.86346,43.74682],[-7.86353,43.74674],[-7.86341,43.74663],[-7.86343,43.74633],[-7.86424,43.74597],[-7.86446,43.74597],[-7.86485,43.74616],[-7.86524,43.74619],[-7.86544,43.7461],[-7.86566,43.74581],[-7.86572,43.74544],[-7.86608,43.74526],[-7.86654,43.74521],[-7.86692,43.74501],[-7.86729,43.74418],[-7.8668,43.74381],[-7.86659,43.74343],[-7.86672,43.74281],[-7.8662,43.74247],[-7.86588,43.74188],[-7.86548,43.74161],[-7.86539,43.74121],[-7.8652,43.74096],[-7.86525,43.74068],[-7.86458,43.74051],[-7.86466,43.74012],[-7.86437,43.73977],[-7.86442,43.73967],[-7.8651,43.73952],[-7.86513,43.73943],[-7.86464,43.73929],[-7.86447,43.73905],[-7.86438,43.73581],[-7.8645,43.73558],[-7.8647,43.73551],[-7.86479,43.73555],[-7.86494,43.7365],[-7.86498,43.73751],[-7.86523,43.73761],[-7.86676,43.73765],[-7.86691,43.73787],[-7.86701,43.73851],[-7.86747,43.73849],[-7.86823,43.73766],[-7.86842,43.7376],[-7.8686,43.73791],[-7.86891,43.73807],[-7.86948,43.73797],[-7.87193,43.73909],[-7.8746,43.74077],[-7.87391,43.74165],[-7.87366,43.74236],[-7.87285,43.743],[-7.90808,43.76278],[-7.90799,43.76293],[-7.90819,43.76353],[-7.908,43.76366],[-7.90764,43.76365],[-7.90746,43.76373],[-7.90743,43.76395],[-7.9069,43.76449],[-7.90713,43.76518],[-7.90737,43.76528],[-7.90762,43.76615],[-7.90735,43.76627],[-7.90735,43.76647],[-7.90709,43.76653],[-7.90696,43.76673],[-7.90702,43.76729],[-7.90607,43.76782],[-7.90549,43.76795],[-7.90482,43.76919],[-7.90465,43.76929],[-7.90446,43.76924],[-7.90382,43.76865],[-7.90339,43.76849],[-7.9031,43.76805],[-7.90289,43.76727],[-7.90274,43.76716],[-7.90222,43.76707],[-7.90158,43.76613],[-7.90127,43.76602],[-7.9006,43.76558],[-7.90012,43.76486],[-7.89933,43.76449],[-7.89883,43.76436],[-7.89863,43.76436],[-7.89838,43.76465],[-7.89793,43.76468],[-7.89748,43.76425],[-7.89706,43.76429],[-7.89683,43.7638],[-7.89647,43.76351],[-7.89587,43.76351],[-7.89544,43.76381],[-7.89528,43.76373],[-7.89505,43.76332],[-7.89481,43.76341],[-7.89452,43.76338],[-7.89411,43.76309],[-7.89372,43.76315],[-7.89336,43.76309],[-7.89314,43.76317],[-7.89268,43.76302],[-7.89211,43.76315],[-7.89157,43.763],[-7.88889,43.76311],[-7.88821,43.76396],[-7.88677,43.76442],[-7.88659,43.76462],[-7.8862,43.76463],[-7.88574,43.76477],[-7.88524,43.7647],[-7.88418,43.76512],[-7.88399,43.76502],[-7.8838,43.76504],[-7.88345,43.76532],[-7.88281,43.76525],[-7.88262,43.7657],[-7.8823,43.76564],[-7.88212,43.76524],[-7.88185,43.76514],[-7.88068,43.76495],[-7.88045,43.76496],[-7.88005,43.76525],[-7.87915,43.76527],[-7.87831,43.76545],[-7.87644,43.7663],[-7.87559,43.76685],[-7.87537,43.76741],[-7.8749,43.76739],[-7.87444,43.76787],[-7.874,43.76807],[-7.87354,43.76869],[-7.87173,43.76932],[-7.87155,43.76948],[-7.87156,43.76961],[-7.87202,43.76997],[-7.8723,43.77037],[-7.87219,43.77047],[-7.8712,43.77035],[-7.87073,43.77038],[-7.87067,43.77053],[-7.87147,43.771],[-7.87187,43.77155],[-7.87168,43.77168],[-7.87016,43.77163],[-7.86993,43.77233],[-7.86972,43.77259],[-7.87006,43.77317],[-7.86992,43.77325],[-7.86956,43.77323],[-7.86912,43.77336],[-7.86918,43.77359],[-7.86872,43.7736],[-7.8685,43.77347]]],[[[-7.86869,43.77722],[-7.86904,43.77663],[-7.86929,43.77659],[-7.8698,43.77669],[-7.87052,43.77724],[-7.87044,43.77733],[-7.8695,43.7771],[-7.8695,43.77718],[-7.87043,43.77755],[-7.87078,43.77798],[-7.87068,43.77815],[-7.86954,43.77789],[-7.86878,43.77751],[-7.86869,43.77722]]],[[[-7.86732,43.77991],[-7.86675,43.77957],[-7.86679,43.77946],[-7.86722,43.77926],[-7.8672,43.77907],[-7.86732,43.77899],[-7.8681,43.77926],[-7.86829,43.77941],[-7.86831,43.7797],[-7.86771,43.77953],[-7.8677,43.7799],[-7.86732,43.77991]]],[[[-7.86598,43.77962],[-7.86622,43.77954],[-7.86654,43.77965],[-7.86701,43.78026],[-7.86679,43.78037],[-7.86686,43.78061],[-7.86612,43.78029],[-7.86581,43.77999],[-7.86598,43.77962]]],[[[-7.86253,43.74788],[-7.86199,43.7479],[-7.8617,43.74767],[-7.86198,43.74753],[-7.86222,43.74755],[-7.8622,43.7471],[-7.86288,43.74761],[-7.86257,43.748],[-7.86253,43.74788]]]]}},{"type":"Feature","properties":{"id":"1590101002"},"geometry":{"type":"Polygon","coordinates":[[[-7.87193,43.73909],[-7.86948,43.73797],[-7.8696,43.73782],[-7.87057,43.73726],[-7.87111,43.73678],[-7.87127,43.7365],[-7.8716,43.73519],[-7.87195,43.73481],[-7.872,43.73434],[-7.87274,43.73469],[-7.87313,43.73473],[-7.87464,43.73359],[-7.87649,43.73506],[-7.87687,43.73551],[-7.87766,43.73593],[-7.8791,43.73689],[-7.88006,43.73716],[-7.88018,43.7373],[-7.8804,43.73814],[-7.88184,43.73938],[-7.89182,43.74101],[-7.91683,43.74896],[-7.91674,43.74919],[-7.91713,43.74979],[-7.91791,43.75065],[-7.91792,43.7508],[-7.91772,43.7508],[-7.91729,43.75052],[-7.91699,43.75047],[-7.91722,43.75146],[-7.91705,43.75166],[-7.91705,43.75202],[-7.91633,43.75243],[-7.91576,43.75317],[-7.91509,43.75467],[-7.91371,43.75536],[-7.91257,43.75628],[-7.91203,43.75696],[-7.91153,43.75838],[-7.91161,43.75857],[-7.91198,43.75875],[-7.91259,43.75887],[-7.91279,43.75905],[-7.91267,43.75926],[-7.91224,43.75947],[-7.91198,43.75944],[-7.91156,43.75911],[-7.91123,43.75914],[-7.91108,43.75961],[-7.91069,43.7598],[-7.91106,43.76067],[-7.91105,43.76092],[-7.91085,43.76104],[-7.91001,43.76083],[-7.90979,43.76088],[-7.90955,43.76121],[-7.90894,43.76151],[-7.90895,43.76161],[-7.90869,43.76179],[-7.90868,43.76249],[-7.90808,43.76278],[-7.87285,43.743],[-7.87366,43.74236],[-7.87391,43.74165],[-7.8746,43.74077],[-7.87193,43.73909]]]}},{"type":"Feature","properties":{"id":"1590101003"},"geometry":{"type":"Polygon","coordinates":[[[-7.91683,43.74896],[-7.89182,43.74101],[-7.88184,43.73938],[-7.8804,43.73814],[-7.88018,43.7373],[-7.88006,43.73716],[-7.8791,43.73689],[-7.87766,43.73593],[-7.87687,43.73551],[-7.87649,43.73506],[-7.87464,43.73359],[-7.87313,43.73473],[-7.87274,43.73469],[-7.872,43.73434],[-7.87211,43.73341],[-7.87202,43.73306],[-7.8709,43.73075],[-7.87084,43.73042],[-7.87011,43.73002],[-7.86736,43.72914],[-7.86693,43.72894],[-7.86563,43.72754],[-7.86443,43.72684],[-7.86354,43.72673],[-7.86366,43.72638],[-7.86358,43.72616],[-7.8633,43.72595],[-7.8594,43.72457],[-7.85848,43.72451],[-7.85764,43.72471],[-7.85623,43.7249],[-7.85558,43.7243],[-7.85556,43.72406],[-7.85577,43.72391],[-7.85608,43.7239],[-7.85688,43.72413],[-7.85675,43.72387],[-7.85618,43.72336],[-7.85611,43.72308],[-7.85522,43.72171],[-7.85498,43.72102],[-7.85524,43.72029],[-7.85554,43.71991],[-7.85545,43.71925],[-7.85516,43.719],[-7.8541,43.71875],[-7.85381,43.71858],[-7.85372,43.71828],[-7.85343,43.7181],[-7.85264,43.71784],[-7.85204,43.71799],[-7.85189,43.71777],[-7.85193,43.71756],[-7.85167,43.71743],[-7.8509,43.7175],[-7.85055,43.71731],[-7.85035,43.71689],[-7.85065,43.71641],[-7.8504,43.71613],[-7.85049,43.71583],[-7.85071,43.71561],[-7.85054,43.71504],[-7.85068,43.71481],[-7.85086,43.71473],[-7.85268,43.71482],[-7.85309,43.71464],[-7.85336,43.7143],[-7.85349,43.71384],[-7.85332,43.71324],[-7.85262,43.71223],[-7.85139,43.71137],[-7.85071,43.71116],[-7.8504,43.71077],[-7.85017,43.71072],[-7.84994,43.71024],[-7.85018,43.71005],[-7.85004,43.70955],[-7.85023,43.7093],[-7.85077,43.70904],[-7.85101,43.70913],[-7.85149,43.70903],[-7.85234,43.70916],[-7.85285,43.70913],[-7.85356,43.70931],[-7.85411,43.70968],[-7.85471,43.70984],[-7.85566,43.70981],[-7.85664,43.70938],[-7.85764,43.70952],[-7.85878,43.70952],[-7.85938,43.70981],[-7.86021,43.71096],[-7.86101,43.71123],[-7.86198,43.7112],[-7.86271,43.7109],[-7.86349,43.71086],[-7.86396,43.71119],[-7.86493,43.71159],[-7.86542,43.71216],[-7.86606,43.71397],[-7.8669,43.71488],[-7.86752,43.7152],[-7.86831,43.71545],[-7.87194,43.71583],[-7.8727,43.71609],[-7.87449,43.71699],[-7.87477,43.71721],[-7.87488,43.71774],[-7.87481,43.71864],[-7.87561,43.7225],[-7.87584,43.72288],[-7.87641,43.72335],[-7.87651,43.72287],[-7.87684,43.7224],[-7.87673,43.722],[-7.87687,43.72176],[-7.87762,43.72149],[-7.87814,43.721],[-7.87813,43.72074],[-7.87769,43.71972],[-7.8776,43.71863],[-7.8772,43.71779],[-7.87665,43.7172],[-7.87645,43.71681],[-7.8758,43.71616],[-7.87569,43.71586],[-7.87573,43.71519],[-7.87653,43.71391],[-7.87674,43.71335],[-7.87668,43.71311],[-7.87627,43.71258],[-7.87565,43.71217],[-7.87385,43.71206],[-7.87161,43.71087],[-7.87112,43.71035],[-7.87051,43.7083],[-7.87012,43.70767],[-7.86982,43.70759],[-7.86941,43.70728],[-7.8695,43.70691],[-7.86982,43.70674],[-7.87054,43.70691],[-7.8718,43.70694],[-7.87295,43.70644],[-7.87327,43.70646],[-7.87332,43.70655],[-7.8736,43.70652],[-7.87494,43.70514],[-7.87509,43.70464],[-7.87647,43.70347],[-7.87679,43.70266],[-7.87679,43.70203],[-7.87824,43.7016],[-7.8796,43.70077],[-7.88003,43.70013],[-7.88023,43.6989],[-7.87946,43.69782],[-7.87919,43.69725],[-7.87936,43.69665],[-7.88161,43.69408],[-7.88197,43.69327],[-7.88166,43.69195],[-7.88137,43.69124],[-7.88027,43.68931],[-7.87887,43.68843],[-7.87768,43.68798],[-7.87762,43.68788],[-7.87776,43.68764],[-7.87855,43.68723],[-7.87939,43.68665],[-7.87976,43.68668],[-7.88134,43.68799],[-7.88177,43.68811],[-7.88266,43.68787],[-7.8831,43.68787],[-7.88326,43.68794],[-7.88408,43.68776],[-7.88488,43.68777],[-7.88523,43.68789],[-7.8855,43.68813],[-7.88573,43.68903],[-7.8861,43.68926],[-7.88818,43.68978],[-7.88889,43.6898],[-7.89002,43.68966],[-7.89054,43.68985],[-7.89079,43.6898],[-7.89157,43.68927],[-7.89105,43.68812],[-7.89123,43.68743],[-7.8911,43.68719],[-7.89021,43.68664],[-7.89023,43.6865],[-7.89109,43.6863],[-7.89179,43.68566],[-7.8915,43.68559],[-7.89023,43.68599],[-7.89019,43.68586],[-7.89084,43.68548],[-7.89209,43.68532],[-7.8921,43.6852],[-7.89135,43.68496],[-7.89139,43.68481],[-7.89198,43.68473],[-7.89073,43.6839],[-7.89039,43.68332],[-7.89837,43.68381],[-7.8999,43.68433],[-7.90135,43.68557],[-7.90257,43.68623],[-7.90439,43.68613],[-7.90601,43.68591],[-7.90676,43.68672],[-7.90674,43.68817],[-7.90635,43.68916],[-7.90757,43.68981],[-7.9106,43.69036],[-7.9152,43.6901],[-7.91775,43.6908],[-7.91901,43.69182],[-7.91971,43.69225],[-7.92226,43.69284],[-7.92387,43.6925],[-7.92497,43.69196],[-7.92603,43.69105],[-7.9275,43.69085],[-7.92883,43.6913],[-7.92884,43.6917],[-7.92951,43.69207],[-7.92974,43.69241],[-7.92921,43.69288],[-7.92862,43.69444],[-7.92864,43.69502],[-7.92847,43.6955],[-7.92744,43.69658],[-7.92723,43.69694],[-7.92734,43.69721],[-7.92837,43.6978],[-7.92855,43.69844],[-7.92924,43.6992],[-7.9306,43.70002],[-7.93123,43.70027],[-7.93267,43.70057],[-7.93385,43.70057],[-7.93512,43.70006],[-7.93703,43.69994],[-7.93853,43.70034],[-7.93933,43.70042],[-7.93998,43.70031],[-7.94141,43.70107],[-7.94291,43.70136],[-7.94357,43.70169],[-7.94455,43.70237],[-7.94564,43.70273],[-7.94586,43.70297],[-7.94614,43.70358],[-7.94595,43.70453],[-7.94605,43.70514],[-7.94659,43.70601],[-7.94663,43.70652],[-7.94698,43.70713],[-7.94759,43.7074],[-7.94822,43.70803],[-7.94923,43.70864],[-7.95069,43.70911],[-7.95096,43.70958],[-7.95546,43.71138],[-7.95532,43.71204],[-7.95468,43.71329],[-7.94876,43.72053],[-7.94634,43.72314],[-7.9461,43.72368],[-7.94653,43.72976],[-7.94704,43.73367],[-7.94757,43.73522],[-7.9484,43.73594],[-7.94874,43.73652],[-7.94903,43.73743],[-7.94923,43.73767],[-7.94968,43.73789],[-7.94992,43.73819],[-7.95028,43.73837],[-7.95056,43.73896],[-7.95053,43.73948],[-7.95096,43.73945],[-7.95105,43.73953],[-7.95072,43.74008],[-7.9509,43.74078],[-7.95053,43.74109],[-7.95129,43.74108],[-7.95132,43.74132],[-7.95112,43.74149],[-7.95035,43.74163],[-7.94958,43.7413],[-7.94895,43.74146],[-7.94834,43.74176],[-7.94799,43.74181],[-7.94747,43.74169],[-7.9471,43.74178],[-7.94566,43.74254],[-7.94542,43.74257],[-7.94488,43.74241],[-7.9441,43.74246],[-7.94318,43.74198],[-7.94276,43.74192],[-7.93974,43.74188],[-7.93912,43.74217],[-7.93895,43.74205],[-7.93885,43.74155],[-7.93852,43.74199],[-7.93815,43.7421],[-7.93766,43.74196],[-7.9373,43.74122],[-7.93667,43.74074],[-7.93625,43.74082],[-7.93572,43.74117],[-7.93561,43.74115],[-7.93554,43.74079],[-7.9352,43.74043],[-7.93486,43.74032],[-7.93399,43.74019],[-7.93279,43.74053],[-7.93249,43.74009],[-7.93184,43.73998],[-7.93099,43.73967],[-7.92979,43.73953],[-7.92946,43.7396],[-7.92829,43.74024],[-7.9277,43.74039],[-7.927,43.74081],[-7.92521,43.74233],[-7.92443,43.74268],[-7.92309,43.74293],[-7.92284,43.7431],[-7.9227,43.74373],[-7.92259,43.74385],[-7.9223,43.74388],[-7.92187,43.74428],[-7.92127,43.74514],[-7.9217,43.74592],[-7.92151,43.7464],[-7.92174,43.74688],[-7.92037,43.74851],[-7.91988,43.7489],[-7.91953,43.74898],[-7.91868,43.74881],[-7.91749,43.74871],[-7.91722,43.74872],[-7.91683,43.74896]]]}}]}