{"type":"FeatureCollection","features":[{"type":"Feature","properties":{"id":"1611301001"},"geometry":{"type":"MultiPolygon","coordinates":[[[[-1.68275,39.49267],[-1.68741,39.47945],[-1.68688,39.47858],[-1.68593,39.47788],[-1.68509,39.47744],[-1.68269,39.47571],[-1.68229,39.47518],[-1.68205,39.47454],[-1.6821,39.47407],[-1.68197,39.47355],[-1.68183,39.47331],[-1.68121,39.47289],[-1.68086,39.4725],[-1.68061,39.47107],[-1.67928,39.46888],[-1.68041,39.46783],[-1.68697,39.45402],[-1.68752,39.45245],[-1.69458,39.43715],[-1.69198,39.42645],[-1.68753,39.42624],[-1.68589,39.42624],[-1.6642,39.4249],[-1.61468,39.43297],[-1.61426,39.43308],[-1.61341,39.43397],[-1.6114,39.43432],[-1.61096,39.43425],[-1.6108,39.43398],[-1.61104,39.43237],[-1.61055,39.43188],[-1.61027,39.43186],[-1.60985,39.4321],[-1.60966,39.43233],[-1.60941,39.43297],[-1.60883,39.43356],[-1.6079,39.43379],[-1.6066,39.43461],[-1.60428,39.43441],[-1.60361,39.43447],[-1.60153,39.43507],[-1.60094,39.43535],[-1.60072,39.43557],[-1.60025,39.43658],[-1.60004,39.43675],[-1.59952,39.43687],[-1.59893,39.43668],[-1.59865,39.43672],[-1.59844,39.43681],[-1.59751,39.43762],[-1.59667,39.43807],[-1.5959,39.43831],[-1.59556,39.43833],[-1.59503,39.43821],[-1.59382,39.43702],[-1.59341,39.43686],[-1.59263,39.43708],[-1.59127,39.43801],[-1.59006,39.43838],[-1.58931,39.43844],[-1.58865,39.43831],[-1.58712,39.43743],[-1.58667,39.43726],[-1.5855,39.43702],[-1.58473,39.43706],[-1.58384,39.43742],[-1.58277,39.43755],[-1.58267,39.43782],[-1.58309,39.4386],[-1.58287,39.43895],[-1.58107,39.43963],[-1.57978,39.4397],[-1.5793,39.44],[-1.57863,39.44073],[-1.57726,39.44076],[-1.57541,39.44062],[-1.57397,39.44076],[-1.57331,39.44107],[-1.57269,39.44122],[-1.57154,39.44109],[-1.57105,39.44144],[-1.57076,39.44196],[-1.57022,39.44217],[-1.56906,39.44222],[-1.5684,39.44211],[-1.56791,39.44181],[-1.56741,39.44173],[-1.56657,39.44244],[-1.56547,39.44257],[-1.5664,39.44301],[-1.56713,39.44349],[-1.56889,39.44431],[-1.56801,39.44687],[-1.56578,39.44941],[-1.56078,39.4511],[-1.55657,39.45153],[-1.55344,39.45209],[-1.55046,39.45237],[-1.54457,39.45251],[-1.54186,39.45269],[-1.53199,39.45177],[-1.52809,39.4522],[-1.52691,39.45092],[-1.52662,39.45085],[-1.52562,39.45104],[-1.52499,39.45084],[-1.52388,39.45015],[-1.52308,39.44979],[-1.52274,39.44976],[-1.52211,39.45018],[-1.52149,39.45033],[-1.52085,39.45011],[-1.51972,39.45016],[-1.51891,39.44963],[-1.51847,39.44894],[-1.51839,39.44852],[-1.51858,39.44764],[-1.51913,39.44686],[-1.52009,39.44621],[-1.52085,39.44581],[-1.5224,39.44539],[-1.52301,39.44473],[-1.52438,39.44373],[-1.52463,39.44329],[-1.52461,39.44308],[-1.52411,39.44241],[-1.52288,39.4418],[-1.52199,39.44095],[-1.52169,39.44073],[-1.52104,39.44049],[-1.52085,39.44026],[-1.5192,39.43984],[-1.51704,39.4395],[-1.51587,39.43921],[-1.51558,39.43903],[-1.51541,39.43876],[-1.51523,39.43809],[-1.5153,39.43781],[-1.51642,39.4372],[-1.51738,39.43686],[-1.52085,39.43529],[-1.5216,39.43447],[-1.52187,39.43394],[-1.52172,39.43268],[-1.5216,39.4324],[-1.52085,39.43152],[-1.51944,39.43098],[-1.51751,39.4297],[-1.51573,39.42894],[-1.51468,39.42868],[-1.51363,39.42898],[-1.51322,39.42926],[-1.51302,39.42961],[-1.51301,39.43008],[-1.5133,39.43148],[-1.51349,39.43386],[-1.51326,39.43428],[-1.51259,39.43488],[-1.51204,39.43504],[-1.51161,39.43506],[-1.51119,39.43491],[-1.51068,39.43457],[-1.50954,39.43413],[-1.50852,39.43346],[-1.50765,39.43179],[-1.50673,39.42968],[-1.50573,39.42898],[-1.50491,39.42882],[-1.50373,39.42885],[-1.50222,39.42905],[-1.49969,39.42956],[-1.49785,39.4297],[-1.49711,39.42953],[-1.49665,39.42932],[-1.49639,39.42884],[-1.49632,39.4284],[-1.49666,39.42789],[-1.49732,39.42745],[-1.49857,39.42708],[-1.50064,39.42625],[-1.50147,39.42564],[-1.50296,39.42414],[-1.50359,39.42332],[-1.50429,39.42205],[-1.50501,39.42026],[-1.50548,39.41968],[-1.50566,39.4191],[-1.50559,39.41851],[-1.50518,39.418],[-1.51133,39.41705],[-1.51595,39.41614],[-1.52,39.4145],[-1.52085,39.41399],[-1.52997,39.41061],[-1.53476,39.40747],[-1.55568,39.40185],[-1.56044,39.39894],[-1.55804,39.40107],[-1.55677,39.40192],[-1.55359,39.40355],[-1.55228,39.40576],[-1.55047,39.40796],[-1.54927,39.409],[-1.54648,39.4107],[-1.54836,39.41115],[-1.55036,39.41188],[-1.55176,39.41257],[-1.55219,39.41286],[-1.55238,39.41314],[-1.55294,39.4171],[-1.55287,39.41765],[-1.55245,39.41867],[-1.55248,39.41887],[-1.5532,39.41955],[-1.55429,39.42088],[-1.55496,39.42241],[-1.55525,39.42387],[-1.55612,39.42371],[-1.55685,39.42329],[-1.55711,39.42325],[-1.55794,39.42342],[-1.5584,39.42333],[-1.55915,39.42293],[-1.56093,39.4228],[-1.56126,39.42269],[-1.56155,39.42239],[-1.56199,39.42142],[-1.56246,39.42093],[-1.56302,39.42063],[-1.56472,39.42049],[-1.56532,39.42013],[-1.56569,39.41951],[-1.5656,39.41905],[-1.56523,39.41882],[-1.56398,39.41864],[-1.56382,39.41849],[-1.56379,39.41817],[-1.56388,39.41802],[-1.56466,39.41759],[-1.56495,39.41751],[-1.566,39.4179],[-1.56643,39.41787],[-1.56736,39.41736],[-1.56894,39.41714],[-1.56939,39.41679],[-1.57006,39.41658],[-1.57118,39.41659],[-1.57151,39.41652],[-1.57232,39.41606],[-1.57271,39.41572],[-1.57345,39.41535],[-1.57379,39.41535],[-1.57491,39.41566],[-1.57562,39.41552],[-1.57735,39.41552],[-1.57791,39.41509],[-1.57804,39.41459],[-1.57841,39.41424],[-1.58434,39.43519],[-1.59228,39.4354],[-1.61716,39.42866],[-1.62188,39.41762],[-1.62441,39.41545],[-1.62788,39.41273],[-1.62957,39.41153],[-1.63208,39.40993],[-1.63294,39.40925],[-1.65214,39.41924],[-1.67187,39.41886],[-1.67179,39.41804],[-1.67231,39.4163],[-1.67257,39.41367],[-1.67286,39.4122],[-1.67293,39.40921],[-1.6728,39.40821],[-1.67243,39.40726],[-1.67098,39.40494],[-1.66985,39.40389],[-1.66947,39.40334],[-1.66934,39.40242],[-1.6696,39.40167],[-1.66956,39.40108],[-1.66893,39.40054],[-1.66761,39.39971],[-1.66712,39.3993],[-1.66293,39.39671],[-1.66233,39.39605],[-1.66157,39.39492],[-1.66128,39.39353],[-1.66015,39.39088],[-1.6599,39.38987],[-1.65948,39.38892],[-1.65753,39.38605],[-1.65631,39.38368],[-1.65575,39.38096],[-1.65505,39.37881],[-1.64562,39.37017],[-1.61291,39.36818],[-1.61573,39.36617],[-1.6202,39.36381],[-1.62493,39.36171],[-1.62683,39.36093],[-1.62779,39.36066],[-1.62896,39.36018],[-1.63071,39.35961],[-1.63285,39.35874],[-1.63411,39.35835],[-1.63817,39.35655],[-1.64388,39.35463],[-1.64605,39.35374],[-1.64741,39.35342],[-1.68394,39.41038],[-1.68533,39.41092],[-1.68632,39.41107],[-1.69118,39.4128],[-1.69773,39.4154],[-1.69841,39.41583],[-1.72089,39.40694],[-1.75633,39.39421],[-1.75879,39.39066],[-1.76014,39.38812],[-1.76021,39.38625],[-1.76122,39.38504],[-1.76162,39.38039],[-1.76116,39.37985],[-1.76074,39.37779],[-1.76079,39.37607],[-1.76104,39.37456],[-1.76169,39.37282],[-1.76384,39.36792],[-1.7678,39.36066],[-1.76945,39.35724],[-1.77222,39.35851],[-1.78734,39.36656],[-1.79521,39.37063],[-1.81894,39.40671],[-1.82465,39.41678],[-1.835,39.43201],[-1.83514,39.43232],[-1.83536,39.45644],[-1.8349,39.45625],[-1.8341,39.4563],[-1.83226,39.45565],[-1.83064,39.45614],[-1.82953,39.45668],[-1.82863,39.45692],[-1.82756,39.45702],[-1.82648,39.4565],[-1.82392,39.45584],[-1.82245,39.45559],[-1.8218,39.45508],[-1.82112,39.45484],[-1.8202,39.45472],[-1.81869,39.45509],[-1.817,39.45477],[-1.81631,39.45508],[-1.81412,39.45551],[-1.81352,39.45535],[-1.81212,39.45542],[-1.81147,39.45554],[-1.80968,39.45629],[-1.80891,39.45639],[-1.8079,39.45621],[-1.80697,39.45639],[-1.80594,39.45612],[-1.80471,39.45607],[-1.80289,39.45562],[-1.80166,39.45515],[-1.79911,39.45434],[-1.79611,39.45424],[-1.7944,39.45363],[-1.79107,39.45298],[-1.78876,39.45228],[-1.78523,39.45137],[-1.7845,39.45105],[-1.78352,39.45089],[-1.78171,39.45081],[-1.77986,39.4503],[-1.77496,39.44962],[-1.77406,39.4495],[-1.77283,39.44955],[-1.77161,39.44909],[-1.76994,39.44899],[-1.76709,39.44826],[-1.76597,39.44827],[-1.76515,39.44813],[-1.76327,39.44814],[-1.76124,39.44843],[-1.76083,39.44817],[-1.75994,39.44799],[-1.75895,39.44784],[-1.75841,39.44791],[-1.75746,39.44714],[-1.75484,39.44537],[-1.75383,39.4445],[-1.75377,39.44499],[-1.75315,39.44665],[-1.7529,39.44665],[-1.75288,39.44647],[-1.75265,39.44648],[-1.7526,39.44621],[-1.75283,39.44619],[-1.75279,39.44604],[-1.75157,39.4461],[-1.75165,39.44565],[-1.7515,39.44516],[-1.75084,39.44499],[-1.74944,39.4443],[-1.74875,39.44497],[-1.74859,39.44544],[-1.74825,39.44518],[-1.7481,39.44483],[-1.74751,39.44487],[-1.74687,39.4443],[-1.74661,39.44436],[-1.7472,39.44331],[-1.74757,39.44295],[-1.74691,39.44246],[-1.74562,39.44179],[-1.74359,39.44044],[-1.74029,39.44022],[-1.73974,39.44027],[-1.73927,39.44046],[-1.73759,39.44174],[-1.7339,39.44484],[-1.69264,39.47988],[-1.69217,39.48038],[-1.69167,39.48127],[-1.69015,39.48546],[-1.68969,39.48647],[-1.68924,39.48712],[-1.68684,39.48971],[-1.6849,39.49342],[-1.68275,39.49267]]],[[[-1.59455,39.45256],[-1.59103,39.45058],[-1.58982,39.45043],[-1.58841,39.45043],[-1.58745,39.45032],[-1.58599,39.44973],[-1.58767,39.44767],[-1.59305,39.44663],[-1.5937,39.4467],[-1.59427,39.44659],[-1.59459,39.44687],[-1.59533,39.44677],[-1.59723,39.4479],[-1.59813,39.44831],[-1.59913,39.44858],[-1.6021,39.449],[-1.60256,39.44924],[-1.60548,39.45164],[-1.60672,39.4524],[-1.60579,39.45337],[-1.60509,39.45348],[-1.60434,39.45345],[-1.60388,39.45326],[-1.60365,39.45298],[-1.60304,39.45316],[-1.60263,39.45305],[-1.60195,39.45269],[-1.60033,39.45239],[-1.59943,39.45212],[-1.59784,39.45269],[-1.59645,39.45339],[-1.59455,39.45256]]]]}},{"type":"Feature","properties":{"id":"1611302001"},"geometry":{"type":"Polygon","coordinates":[[[-1.71183,39.54284],[-1.71557,39.54272],[-1.71901,39.54987],[-1.74321,39.54913],[-1.76736,39.55227],[-1.79177,39.54406],[-1.79056,39.52206],[-1.76643,39.50752],[-1.70959,39.515],[-1.70867,39.51093],[-1.70869,39.51065],[-1.70927,39.50932],[-1.71105,39.50669],[-1.71222,39.50549],[-1.71249,39.50536],[-1.71279,39.50495],[-1.71308,39.50363],[-1.71083,39.50322],[-1.70338,39.5001],[-1.69898,39.49862],[-1.69684,39.49754],[-1.68753,39.49419],[-1.68646,39.49397],[-1.6849,39.49342],[-1.68684,39.48971],[-1.68924,39.48712],[-1.68969,39.48647],[-1.69015,39.48546],[-1.69167,39.48127],[-1.69217,39.48038],[-1.69264,39.47988],[-1.7339,39.44484],[-1.73759,39.44174],[-1.73927,39.44046],[-1.73974,39.44027],[-1.74029,39.44022],[-1.74359,39.44044],[-1.74562,39.44179],[-1.74691,39.44246],[-1.74757,39.44295],[-1.7472,39.44331],[-1.74661,39.44436],[-1.74687,39.4443],[-1.74751,39.44487],[-1.7481,39.44483],[-1.74825,39.44518],[-1.74859,39.44544],[-1.74875,39.44497],[-1.74944,39.4443],[-1.75084,39.44499],[-1.7515,39.44516],[-1.75165,39.44565],[-1.75157,39.4461],[-1.75279,39.44604],[-1.75283,39.44619],[-1.7526,39.44621],[-1.75265,39.44648],[-1.75288,39.44647],[-1.7529,39.44665],[-1.75315,39.44665],[-1.75377,39.44499],[-1.75383,39.4445],[-1.75484,39.44537],[-1.75746,39.44714],[-1.75841,39.44791],[-1.75895,39.44784],[-1.75994,39.44799],[-1.76083,39.44817],[-1.76124,39.44843],[-1.76327,39.44814],[-1.76515,39.44813],[-1.76597,39.44827],[-1.76709,39.44826],[-1.76994,39.44899],[-1.77161,39.44909],[-1.77283,39.44955],[-1.77406,39.4495],[-1.77496,39.44962],[-1.77986,39.4503],[-1.78171,39.45081],[-1.78352,39.45089],[-1.7845,39.45105],[-1.78523,39.45137],[-1.78876,39.45228],[-1.79107,39.45298],[-1.7944,39.45363],[-1.79611,39.45424],[-1.79911,39.45434],[-1.80166,39.45515],[-1.80289,39.45562],[-1.80471,39.45607],[-1.80594,39.45612],[-1.80697,39.45639],[-1.8079,39.45621],[-1.80891,39.45639],[-1.80968,39.45629],[-1.81147,39.45554],[-1.81212,39.45542],[-1.81352,39.45535],[-1.81412,39.45551],[-1.81631,39.45508],[-1.817,39.45477],[-1.81869,39.45509],[-1.8202,39.45472],[-1.82112,39.45484],[-1.8218,39.45508],[-1.82245,39.45559],[-1.82392,39.45584],[-1.82648,39.4565],[-1.82756,39.45702],[-1.82863,39.45692],[-1.82953,39.45668],[-1.83064,39.45614],[-1.83226,39.45565],[-1.8341,39.4563],[-1.8349,39.45625],[-1.83536,39.45644],[-1.83544,39.46607],[-1.83017,39.47791],[-1.83006,39.50406],[-1.83049,39.50822],[-1.83033,39.50885],[-1.82974,39.51021],[-1.82933,39.5116],[-1.82926,39.5123],[-1.83,39.51406],[-1.82977,39.51558],[-1.83121,39.51693],[-1.83232,39.52131],[-1.83357,39.52559],[-1.83389,39.52639],[-1.83562,39.52812],[-1.83626,39.52889],[-1.83786,39.53124],[-1.83868,39.53207],[-1.84273,39.54348],[-1.84262,39.54381],[-1.84336,39.54517],[-1.84346,39.54578],[-1.84302,39.54631],[-1.84272,39.54699],[-1.84284,39.54772],[-1.84467,39.54925],[-1.84626,39.552],[-1.84777,39.55529],[-1.84993,39.55752],[-1.85024,39.55819],[-1.85041,39.559],[-1.85021,39.56049],[-1.84907,39.56338],[-1.85036,39.56758],[-1.80991,39.54767],[-1.77832,39.55991],[-1.75756,39.56418],[-1.74371,39.56867],[-1.73339,39.57452],[-1.73058,39.56862],[-1.71183,39.54284]]]}}]}