{"type":"FeatureCollection","features":[{"type":"Feature","properties":{"id":"1615401001"},"geometry":{"type":"Polygon","coordinates":[[[-2.67411,39.4485],[-2.67349,39.44711],[-2.6739,39.447],[-2.6741,39.44761],[-2.67964,39.44632],[-2.67935,39.44425],[-2.67912,39.44375],[-2.67883,39.44341],[-2.67826,39.44298],[-2.67749,39.44272],[-2.67549,39.44265],[-2.67753,39.44087],[-2.67749,39.44053],[-2.67842,39.43942],[-2.67929,39.43803],[-2.67941,39.43696],[-2.67981,39.43616],[-2.6799,39.43454],[-2.68056,39.4315],[-2.68115,39.42988],[-2.68066,39.42764],[-2.68086,39.42568],[-2.68056,39.42342],[-2.68078,39.42056],[-2.6812,39.41873],[-2.6846,39.4103],[-2.68561,39.408],[-2.68628,39.4079],[-2.68684,39.40671],[-2.68791,39.40216],[-2.68836,39.39971],[-2.68948,39.39173],[-2.69097,39.38916],[-2.69171,39.3876],[-2.69157,39.38595],[-2.69152,39.38241],[-2.69111,39.37991],[-2.69149,39.3808],[-2.69168,39.38179],[-2.69729,39.38698],[-2.70544,39.40114],[-2.71618,39.40781],[-2.7215,39.415],[-2.72364,39.41824],[-2.72666,39.42328],[-2.72813,39.42535],[-2.73138,39.43059],[-2.73911,39.43896],[-2.73513,39.44688],[-2.73347,39.44974],[-2.7319,39.45357],[-2.71913,39.46321],[-2.71357,39.47009],[-2.70638,39.46583],[-2.70069,39.46329],[-2.69401,39.45998],[-2.68561,39.45602],[-2.6837,39.45564],[-2.67983,39.45374],[-2.67934,39.45341],[-2.67493,39.4488],[-2.67464,39.44858],[-2.67426,39.44846],[-2.67411,39.4485]]]}},{"type":"Feature","properties":{"id":"1615401002"},"geometry":{"type":"Polygon","coordinates":[[[-2.62913,39.55688],[-2.62935,39.55656],[-2.62943,39.55612],[-2.62985,39.55525],[-2.63042,39.55455],[-2.63284,39.55225],[-2.63344,39.55187],[-2.63451,39.55085],[-2.6354,39.54888],[-2.63536,39.54833],[-2.6359,39.54716],[-2.63606,39.5464],[-2.63641,39.54562],[-2.6365,39.54502],[-2.63713,39.54404],[-2.63823,39.54327],[-2.63937,39.54226],[-2.63974,39.54165],[-2.64039,39.53974],[-2.64039,39.53915],[-2.64076,39.53757],[-2.64094,39.53609],[-2.64149,39.53418],[-2.6421,39.53317],[-2.6423,39.53215],[-2.64187,39.53069],[-2.64249,39.52908],[-2.64263,39.52799],[-2.64336,39.52648],[-2.64358,39.52535],[-2.64407,39.52419],[-2.64405,39.51988],[-2.64446,39.5184],[-2.64487,39.51796],[-2.64498,39.51731],[-2.64485,39.51581],[-2.64507,39.51475],[-2.64508,39.5133],[-2.64493,39.5122],[-2.64491,39.50985],[-2.64455,39.50875],[-2.64412,39.50645],[-2.64449,39.50478],[-2.64536,39.50373],[-2.64684,39.5026],[-2.64846,39.50104],[-2.64946,39.49972],[-2.65056,39.49853],[-2.65211,39.49559],[-2.65555,39.4886],[-2.656,39.48747],[-2.65708,39.48556],[-2.65854,39.48334],[-2.6587,39.48263],[-2.65835,39.48134],[-2.66035,39.47717],[-2.66114,39.47587],[-2.66228,39.47451],[-2.66391,39.47297],[-2.66499,39.47215],[-2.6689,39.46596],[-2.67006,39.46453],[-2.67136,39.4623],[-2.67191,39.4615],[-2.6728,39.46078],[-2.67338,39.45979],[-2.67433,39.45744],[-2.67574,39.45569],[-2.67576,39.45413],[-2.6753,39.45345],[-2.6746,39.45279],[-2.67436,39.45225],[-2.67463,39.45137],[-2.67457,39.45063],[-2.67438,39.45023],[-2.67254,39.44785],[-2.6732,39.44796],[-2.6738,39.44822],[-2.6739,39.44818],[-2.67411,39.4485],[-2.67426,39.44846],[-2.67464,39.44858],[-2.67493,39.4488],[-2.67934,39.45341],[-2.67983,39.45374],[-2.6837,39.45564],[-2.68561,39.45602],[-2.69401,39.45998],[-2.70069,39.46329],[-2.70638,39.46583],[-2.71357,39.47009],[-2.69769,39.48975],[-2.69895,39.50315],[-2.69753,39.50723],[-2.69933,39.51013],[-2.69777,39.51031],[-2.69672,39.5103],[-2.68974,39.51077],[-2.68756,39.51107],[-2.67466,39.51237],[-2.6658,39.51222],[-2.66531,39.51307],[-2.66338,39.51351],[-2.66034,39.51387],[-2.65884,39.51464],[-2.65192,39.5187],[-2.65102,39.51972],[-2.65008,39.52301],[-2.64971,39.52512],[-2.64826,39.52922],[-2.64635,39.53334],[-2.64635,39.5338],[-2.64322,39.53831],[-2.64317,39.53863],[-2.63835,39.54511],[-2.63733,39.54713],[-2.63662,39.54913],[-2.63679,39.55108],[-2.63524,39.554],[-2.63174,39.55833],[-2.63107,39.55802],[-2.62986,39.55713],[-2.62913,39.55688]]]}},{"type":"Feature","properties":{"id":"1615401003"},"geometry":{"type":"Polygon","coordinates":[[[-2.67254,39.44785],[-2.67231,39.44747],[-2.67316,39.44604],[-2.67314,39.4457],[-2.67371,39.44442],[-2.67541,39.44271],[-2.67022,39.44268],[-2.66844,39.44188],[-2.66846,39.44172],[-2.64392,39.42814],[-2.62251,39.41327],[-2.62148,39.41268],[-2.62104,39.41228],[-2.6218,39.41169],[-2.62325,39.41117],[-2.62504,39.41117],[-2.62748,39.41028],[-2.62877,39.41036],[-2.62858,39.40914],[-2.62855,39.40812],[-2.62799,39.4079],[-2.62653,39.4059],[-2.63278,39.40447],[-2.63377,39.40414],[-2.63358,39.40334],[-2.63124,39.40208],[-2.63041,39.39963],[-2.62882,39.39663],[-2.62657,39.39722],[-2.62801,39.3923],[-2.62878,39.39012],[-2.62941,39.38751],[-2.63983,39.38507],[-2.63914,39.38251],[-2.63562,39.37434],[-2.63472,39.37045],[-2.63476,39.36982],[-2.6352,39.3682],[-2.63516,39.36749],[-2.63488,39.36656],[-2.63458,39.3662],[-2.6343,39.36549],[-2.63395,39.36425],[-2.63295,39.36203],[-2.6311,39.35881],[-2.63031,39.35788],[-2.62919,39.35626],[-2.62866,39.35512],[-2.62712,39.35248],[-2.62587,39.35109],[-2.62383,39.34817],[-2.6222,39.34559],[-2.61926,39.34014],[-2.62244,39.33809],[-2.62445,39.33651],[-2.6256,39.33627],[-2.62706,39.3356],[-2.62878,39.33419],[-2.62942,39.33343],[-2.6296,39.33298],[-2.63089,39.33116],[-2.63164,39.33073],[-2.63186,39.32979],[-2.63221,39.3289],[-2.63251,39.32854],[-2.63425,39.32711],[-2.63497,39.32676],[-2.63655,39.3267],[-2.6388,39.32699],[-2.63955,39.32699],[-2.6416,39.32673],[-2.64356,39.32662],[-2.64488,39.32627],[-2.64716,39.32535],[-2.64812,39.32514],[-2.64874,39.32513],[-2.64946,39.32527],[-2.6519,39.32607],[-2.65249,39.32616],[-2.65364,39.3261],[-2.65451,39.32592],[-2.65658,39.32505],[-2.65738,39.32375],[-2.65791,39.32327],[-2.66234,39.32195],[-2.66236,39.32244],[-2.66314,39.32517],[-2.66738,39.33242],[-2.66906,39.33698],[-2.66972,39.33778],[-2.67009,39.339],[-2.67236,39.34296],[-2.67406,39.34683],[-2.67734,39.35243],[-2.6781,39.3542],[-2.67927,39.35631],[-2.6808,39.35867],[-2.68221,39.36197],[-2.68278,39.36374],[-2.68322,39.3642],[-2.68452,39.36522],[-2.68524,39.36594],[-2.68757,39.36966],[-2.68941,39.37539],[-2.68968,39.3759],[-2.69031,39.37652],[-2.6905,39.37723],[-2.69033,39.37825],[-2.69065,39.37922],[-2.69111,39.37991],[-2.69152,39.38241],[-2.69157,39.38595],[-2.69171,39.3876],[-2.69097,39.38916],[-2.68948,39.39173],[-2.68836,39.39971],[-2.68791,39.40216],[-2.68684,39.40671],[-2.68628,39.4079],[-2.68561,39.408],[-2.6846,39.4103],[-2.6812,39.41873],[-2.68078,39.42056],[-2.68056,39.42342],[-2.68086,39.42568],[-2.68066,39.42764],[-2.68115,39.42988],[-2.68056,39.4315],[-2.6799,39.43454],[-2.67981,39.43616],[-2.67941,39.43696],[-2.67929,39.43803],[-2.67842,39.43942],[-2.67749,39.44053],[-2.67753,39.44087],[-2.67549,39.44265],[-2.67749,39.44272],[-2.67826,39.44298],[-2.67883,39.44341],[-2.67912,39.44375],[-2.67935,39.44425],[-2.67964,39.44632],[-2.6741,39.44761],[-2.6739,39.447],[-2.67349,39.44711],[-2.6739,39.44818],[-2.6738,39.44822],[-2.6732,39.44796],[-2.67254,39.44785]]]}},{"type":"Feature","properties":{"id":"1615402001"},"geometry":{"type":"Polygon","coordinates":[[[-2.52952,39.55139],[-2.53079,39.54968],[-2.53302,39.54568],[-2.53185,39.53846],[-2.53151,39.53542],[-2.53047,39.53034],[-2.53079,39.52687],[-2.53467,39.5228],[-2.54485,39.51151],[-2.55072,39.49842],[-2.5534,39.4967],[-2.55501,39.4963],[-2.55717,39.49624],[-2.55923,39.49528],[-2.5612,39.4952],[-2.56193,39.49534],[-2.56304,39.4954],[-2.56384,39.49535],[-2.56528,39.49545],[-2.56662,39.49568],[-2.56748,39.496],[-2.56869,39.4961],[-2.5695,39.49632],[-2.57331,39.49677],[-2.57491,39.49653],[-2.57747,39.49646],[-2.57981,39.49617],[-2.58194,39.49619],[-2.58763,39.4954],[-2.59086,39.49529],[-2.59221,39.495],[-2.59773,39.49266],[-2.60236,39.49129],[-2.60382,39.49111],[-2.60537,39.49111],[-2.60624,39.49096],[-2.61017,39.49154],[-2.6114,39.49156],[-2.61277,39.49131],[-2.61561,39.49013],[-2.61814,39.48943],[-2.62128,39.48859],[-2.62269,39.48848],[-2.62331,39.48771],[-2.62483,39.48641],[-2.64643,39.47226],[-2.6549,39.46637],[-2.65662,39.46387],[-2.65814,39.46288],[-2.65978,39.46235],[-2.6617,39.46101],[-2.66226,39.46019],[-2.66259,39.45915],[-2.66479,39.45623],[-2.6678,39.45363],[-2.66986,39.45125],[-2.67009,39.4508],[-2.67027,39.44952],[-2.67191,39.44926],[-2.67243,39.44991],[-2.67329,39.45233],[-2.67435,39.4521],[-2.6746,39.45279],[-2.67568,39.45394],[-2.6758,39.45435],[-2.67574,39.45569],[-2.67433,39.45744],[-2.67338,39.45979],[-2.6728,39.46078],[-2.67191,39.4615],[-2.67136,39.4623],[-2.67006,39.46453],[-2.6689,39.46596],[-2.66499,39.47215],[-2.66391,39.47297],[-2.66228,39.47451],[-2.66114,39.47587],[-2.66035,39.47717],[-2.65835,39.48134],[-2.6587,39.48263],[-2.65854,39.48334],[-2.65708,39.48556],[-2.656,39.48747],[-2.65555,39.4886],[-2.65211,39.49559],[-2.65056,39.49853],[-2.64946,39.49972],[-2.64846,39.50104],[-2.64684,39.5026],[-2.64536,39.50373],[-2.64449,39.50478],[-2.64412,39.50645],[-2.64455,39.50875],[-2.64491,39.50985],[-2.64493,39.5122],[-2.64508,39.5133],[-2.64507,39.51475],[-2.64485,39.51581],[-2.64498,39.51731],[-2.64487,39.51796],[-2.64446,39.5184],[-2.64405,39.51988],[-2.64407,39.52419],[-2.64358,39.52535],[-2.64336,39.52648],[-2.64263,39.52799],[-2.64249,39.52908],[-2.64187,39.53069],[-2.6423,39.53215],[-2.6421,39.53317],[-2.64149,39.53418],[-2.64094,39.53609],[-2.64076,39.53757],[-2.64039,39.53915],[-2.64039,39.53974],[-2.63974,39.54165],[-2.63937,39.54226],[-2.63823,39.54327],[-2.63713,39.54404],[-2.6365,39.54502],[-2.63641,39.54562],[-2.63606,39.5464],[-2.6359,39.54716],[-2.63536,39.54833],[-2.6354,39.54888],[-2.63451,39.55085],[-2.63344,39.55187],[-2.63284,39.55225],[-2.63042,39.55455],[-2.62985,39.55525],[-2.62943,39.55612],[-2.62935,39.55656],[-2.62913,39.55688],[-2.62824,39.55684],[-2.62723,39.55722],[-2.62611,39.55745],[-2.62591,39.55724],[-2.62448,39.55694],[-2.62401,39.5567],[-2.62351,39.55629],[-2.62206,39.55552],[-2.61736,39.55376],[-2.61541,39.55311],[-2.61279,39.5526],[-2.61091,39.55126],[-2.60275,39.55036],[-2.5968,39.54898],[-2.59277,39.54848],[-2.59163,39.55004],[-2.58562,39.55062],[-2.58208,39.54998],[-2.57809,39.55155],[-2.57345,39.55031],[-2.57128,39.54953],[-2.56913,39.54837],[-2.56785,39.54789],[-2.56674,39.54782],[-2.56587,39.54854],[-2.56548,39.54868],[-2.56268,39.54878],[-2.5609,39.54928],[-2.56051,39.54959],[-2.55991,39.54947],[-2.55796,39.54963],[-2.55688,39.54963],[-2.55482,39.54933],[-2.55111,39.54961],[-2.54976,39.54927],[-2.54926,39.54931],[-2.54856,39.5495],[-2.54766,39.54992],[-2.5465,39.55063],[-2.54618,39.55073],[-2.54477,39.55078],[-2.54424,39.55142],[-2.54141,39.55284],[-2.53972,39.55234],[-2.53907,39.5523],[-2.53551,39.55151],[-2.53328,39.55134],[-2.53216,39.5514],[-2.52996,39.55128],[-2.52952,39.55139]]]}},{"type":"Feature","properties":{"id":"1615402002"},"geometry":{"type":"Polygon","coordinates":[[[-2.56497,39.45723],[-2.56597,39.45685],[-2.56733,39.45609],[-2.5689,39.45454],[-2.56861,39.45258],[-2.56881,39.452],[-2.56917,39.4515],[-2.56982,39.45013],[-2.57204,39.45067],[-2.57328,39.45084],[-2.57433,39.45085],[-2.57714,39.45069],[-2.57936,39.45036],[-2.58024,39.45011],[-2.58158,39.45128],[-2.58463,39.4504],[-2.59181,39.44794],[-2.59767,39.44562],[-2.6009,39.44453],[-2.60372,39.44336],[-2.60429,39.43845],[-2.60267,39.43532],[-2.60042,39.42999],[-2.60259,39.42909],[-2.60336,39.42824],[-2.60384,39.42788],[-2.60449,39.42761],[-2.60545,39.42742],[-2.60772,39.42769],[-2.60863,39.42647],[-2.6093,39.42732],[-2.61065,39.42693],[-2.61152,39.42694],[-2.61196,39.42563],[-2.61396,39.42522],[-2.61184,39.42088],[-2.61111,39.41918],[-2.61377,39.41805],[-2.61776,39.41617],[-2.61886,39.41579],[-2.61826,39.41519],[-2.62041,39.41377],[-2.62156,39.41275],[-2.62148,39.41268],[-2.62251,39.41327],[-2.64392,39.42814],[-2.66846,39.44172],[-2.66844,39.44188],[-2.67022,39.44268],[-2.67541,39.44271],[-2.67371,39.44442],[-2.67314,39.4457],[-2.67316,39.44604],[-2.67231,39.44747],[-2.67438,39.45023],[-2.67457,39.45063],[-2.67463,39.45137],[-2.67435,39.4521],[-2.67329,39.45233],[-2.67243,39.44991],[-2.67191,39.44926],[-2.67027,39.44952],[-2.67009,39.4508],[-2.66986,39.45125],[-2.6678,39.45363],[-2.66479,39.45623],[-2.66259,39.45915],[-2.66226,39.46019],[-2.6617,39.46101],[-2.65978,39.46235],[-2.65814,39.46288],[-2.65662,39.46387],[-2.6549,39.46637],[-2.64643,39.47226],[-2.62483,39.48641],[-2.62331,39.48771],[-2.62269,39.48848],[-2.62128,39.48859],[-2.61814,39.48943],[-2.61561,39.49013],[-2.61277,39.49131],[-2.6114,39.49156],[-2.61017,39.49154],[-2.60624,39.49096],[-2.60537,39.49111],[-2.60382,39.49111],[-2.60236,39.49129],[-2.59773,39.49266],[-2.59221,39.495],[-2.59086,39.49529],[-2.58763,39.4954],[-2.58194,39.49619],[-2.57981,39.49617],[-2.57747,39.49646],[-2.57491,39.49653],[-2.57331,39.49677],[-2.5695,39.49632],[-2.56869,39.4961],[-2.56748,39.496],[-2.56662,39.49568],[-2.56528,39.49545],[-2.56384,39.49535],[-2.56304,39.4954],[-2.56193,39.49534],[-2.5612,39.4952],[-2.55923,39.49528],[-2.55717,39.49624],[-2.55501,39.4963],[-2.5534,39.4967],[-2.55072,39.49842],[-2.55253,39.49427],[-2.55493,39.48755],[-2.55795,39.4786],[-2.56424,39.45913],[-2.56497,39.45723]]]}}]}