{"type":"FeatureCollection","features":[{"type":"Feature","properties":{"id":"1620301001"},"geometry":{"type":"Polygon","coordinates":[[[-2.93822,40.03069],[-2.9401,40.0298],[-2.94616,40.0257],[-2.94748,40.02512],[-2.95221,40.02362],[-2.9558,40.02007],[-2.95944,40.01621],[-2.96044,40.01548],[-2.96142,40.01503],[-2.96899,40.01421],[-2.97939,40.01338],[-2.99318,40.01202],[-2.99897,40.01092],[-2.99931,40.01096],[-3.00027,40.01156],[-3.0009,40.01168],[-3.00197,40.01166],[-3.00279,40.01147],[-3.0038,40.01137],[-3.0044,40.01141],[-3.0052,40.01116],[-3.00506,40.01116],[-3.00515,40.01113],[-3.00528,40.01055],[-3.00562,40.00995],[-3.00593,40.01004],[-3.00609,40.00981],[-3.00642,40.01015],[-3.00744,40.01048],[-3.00718,40.01068],[-3.00682,40.01133],[-3.00646,40.01173],[-3.00664,40.01173],[-3.00694,40.01189],[-3.00702,40.01209],[-3.00705,40.01248],[-3.0068,40.01317],[-3.00703,40.01395],[-3.00623,40.01612],[-3.00528,40.01775],[-3.0054,40.0203],[-3.00491,40.02211],[-3.00406,40.02277],[-3.00278,40.02326],[-3.00175,40.02402],[-3.00035,40.0262],[-3.00015,40.02699],[-3.00265,40.03204],[-3.00396,40.03441],[-3.00453,40.03598],[-3.00534,40.03982],[-3.00604,40.04196],[-3.00644,40.0446],[-3.00669,40.0474],[-3.00443,40.04667],[-3.00247,40.04591],[-3.00034,40.04534],[-2.99612,40.04381],[-2.99315,40.0426],[-2.99195,40.04315],[-2.99073,40.04277],[-2.98723,40.04244],[-2.98624,40.04299],[-2.98373,40.04382],[-2.98218,40.04461],[-2.9798,40.04634],[-2.9788,40.04723],[-2.97693,40.04863],[-2.97573,40.04966],[-2.97457,40.04981],[-2.97296,40.0502],[-2.96694,40.05245],[-2.96418,40.05371],[-2.95835,40.05575],[-2.95503,40.05672],[-2.95467,40.05542],[-2.9538,40.05456],[-2.95326,40.05192],[-2.95238,40.05114],[-2.9522,40.04941],[-2.95108,40.0483],[-2.95057,40.04695],[-2.95031,40.04547],[-2.9492,40.04397],[-2.94982,40.04121],[-2.95032,40.04071],[-2.94356,40.03588],[-2.94503,40.034],[-2.94539,40.0328],[-2.94497,40.03237],[-2.94456,40.03217],[-2.94211,40.03158],[-2.93874,40.03113],[-2.93822,40.03069]]]}},{"type":"Feature","properties":{"id":"1620301002"},"geometry":{"type":"Polygon","coordinates":[[[-3.00669,40.0474],[-3.00644,40.0446],[-3.00604,40.04196],[-3.00534,40.03982],[-3.00453,40.03598],[-3.00396,40.03441],[-3.00265,40.03204],[-3.00015,40.02699],[-3.00035,40.0262],[-3.00175,40.02402],[-3.00278,40.02326],[-3.00406,40.02277],[-3.00491,40.02211],[-3.0054,40.0203],[-3.00528,40.01775],[-3.00623,40.01612],[-3.00703,40.01395],[-3.0068,40.01317],[-3.00705,40.01248],[-3.00702,40.01209],[-3.00694,40.01189],[-3.00664,40.01173],[-3.00646,40.01173],[-3.00682,40.01133],[-3.00718,40.01068],[-3.00738,40.01058],[-3.00746,40.0104],[-3.01243,40.00975],[-3.01375,40.01005],[-3.01355,40.01053],[-3.01301,40.01129],[-3.01154,40.01452],[-3.00991,40.01668],[-3.01023,40.01718],[-3.01122,40.01841],[-3.0122,40.01885],[-3.01283,40.01963],[-3.01585,40.02169],[-3.01653,40.02321],[-3.01773,40.02546],[-3.01804,40.02631],[-3.01772,40.02807],[-3.01835,40.02893],[-3.01916,40.02973],[-3.01999,40.03027],[-3.0209,40.03055],[-3.02348,40.03183],[-3.0276,40.03356],[-3.0285,40.03414],[-3.02621,40.0363],[-3.02273,40.04034],[-3.01394,40.04977],[-3.01123,40.04838],[-3.01042,40.04811],[-3.00882,40.0476],[-3.00708,40.04752],[-3.00669,40.0474]]]}},{"type":"Feature","properties":{"id":"1620302001"},"geometry":{"type":"Polygon","coordinates":[[[-3.00609,40.00981],[-3.00572,40.00866],[-3.00582,40.0085],[-3.00587,40.00747],[-3.00532,40.00597],[-3.00373,40.00451],[-3.00314,40.00411],[-2.99541,40.00115],[-2.98353,39.99466],[-2.98278,39.99436],[-2.98125,39.99396],[-2.97497,39.99028],[-2.97353,39.98982],[-2.9703,39.98963],[-2.96918,39.98943],[-2.96822,39.98909],[-2.96747,39.98832],[-2.9614,39.98001],[-2.95274,39.97361],[-2.95373,39.96952],[-2.95513,39.96664],[-2.95684,39.96212],[-2.95936,39.95909],[-2.96231,39.95816],[-2.96423,39.95773],[-2.99122,39.9576],[-3.00085,39.95717],[-3.01219,39.95379],[-3.01372,39.95324],[-3.01955,39.95429],[-3.02259,39.95303],[-3.03317,39.95302],[-3.03654,39.95417],[-3.04099,39.95159],[-3.04355,39.95156],[-3.05413,39.95301],[-3.05917,39.95252],[-3.06024,39.95273],[-3.0594,39.95341],[-3.05901,39.95406],[-3.05805,39.95447],[-3.0566,39.95531],[-3.05601,39.95587],[-3.05497,39.95901],[-3.05384,39.96041],[-3.05277,39.96136],[-3.05196,39.96246],[-3.05139,39.96352],[-3.0505,39.96451],[-3.04948,39.96535],[-3.04825,39.96631],[-3.04593,39.96787],[-3.04077,39.97081],[-3.03939,39.9718],[-3.03692,39.97288],[-3.03447,39.97382],[-3.03161,39.97526],[-3.03048,39.97603],[-3.02928,39.97762],[-3.02862,39.9781],[-3.0277,39.97904],[-3.02611,39.98023],[-3.02546,39.98106],[-3.0252,39.98211],[-3.02509,39.98336],[-3.02384,39.98596],[-3.02085,39.99107],[-3.02011,39.99184],[-3.01867,39.9937],[-3.01765,39.99546],[-3.01704,39.99755],[-3.01698,40.0005],[-3.0165,40.00104],[-3.01608,40.00201],[-3.01501,40.00348],[-3.01315,40.00731],[-3.01288,40.00751],[-3.01312,40.00774],[-3.01272,40.00826],[-3.01245,40.00975],[-3.00746,40.0104],[-3.00744,40.01048],[-3.00642,40.01015],[-3.00609,40.00981]]]}},{"type":"Feature","properties":{"id":"1620302002"},"geometry":{"type":"Polygon","coordinates":[[[-3.02049,40.01175],[-3.01998,40.01132],[-3.01931,40.01015],[-3.01594,40.00875],[-3.01367,40.00992],[-3.01375,40.01005],[-3.01245,40.00975],[-3.01272,40.00826],[-3.01312,40.00774],[-3.01288,40.00751],[-3.01315,40.00731],[-3.01501,40.00348],[-3.01608,40.00201],[-3.0165,40.00104],[-3.01698,40.0005],[-3.01704,39.99755],[-3.01765,39.99546],[-3.01867,39.9937],[-3.02011,39.99184],[-3.02085,39.99107],[-3.02384,39.98596],[-3.02509,39.98336],[-3.0252,39.98211],[-3.02546,39.98106],[-3.02611,39.98023],[-3.0277,39.97904],[-3.02862,39.9781],[-3.02928,39.97762],[-3.03048,39.97603],[-3.03161,39.97526],[-3.03447,39.97382],[-3.03692,39.97288],[-3.03939,39.9718],[-3.04077,39.97081],[-3.04593,39.96787],[-3.04825,39.96631],[-3.0505,39.96451],[-3.05139,39.96352],[-3.05196,39.96246],[-3.05277,39.96136],[-3.05384,39.96041],[-3.05497,39.95901],[-3.05601,39.95587],[-3.0566,39.95531],[-3.05805,39.95447],[-3.05901,39.95406],[-3.0594,39.95341],[-3.06024,39.95273],[-3.0631,39.95327],[-3.06876,39.95752],[-3.07199,39.95566],[-3.07707,39.95622],[-3.08404,39.95677],[-3.09483,39.95595],[-3.09737,39.95935],[-3.09623,39.96604],[-3.09634,39.96645],[-3.09745,39.96822],[-3.09753,39.96948],[-3.09485,39.97164],[-3.09859,39.97515],[-3.09786,39.97712],[-3.09778,39.98251],[-3.0966,39.98694],[-3.0954,39.98698],[-3.0945,39.98712],[-3.08229,39.99102],[-3.08046,39.99243],[-3.07833,39.99342],[-3.07489,39.99479],[-3.06109,39.9974],[-3.06018,40.00014],[-3.05936,40.0017],[-3.05941,40.0033],[-3.0592,40.00412],[-3.05714,40.00874],[-3.05413,40.00833],[-3.05318,40.00868],[-3.04765,40.01366],[-3.04507,40.01513],[-3.04038,40.01822],[-3.03728,40.02112],[-3.03578,40.02409],[-3.03513,40.02473],[-3.03498,40.02397],[-3.0342,40.02253],[-3.03309,40.0191],[-3.03287,40.01794],[-3.03274,40.01764],[-3.03163,40.01665],[-3.02804,40.01388],[-3.02542,40.01324],[-3.02049,40.01175]]]}},{"type":"Feature","properties":{"id":"1620302003"},"geometry":{"type":"Polygon","coordinates":[[[-3.01224,40.01304],[-3.01578,40.01481],[-3.01783,40.01598],[-3.0198,40.01157],[-3.02542,40.01324],[-3.02804,40.01388],[-3.03163,40.01665],[-3.03274,40.01764],[-3.03309,40.0191],[-3.0342,40.02253],[-3.03498,40.02397],[-3.03513,40.02473],[-3.03453,40.02534],[-3.033,40.02742],[-3.03253,40.02785],[-3.03209,40.02857],[-3.03111,40.03163],[-3.02971,40.03307],[-3.0285,40.03414],[-3.0276,40.03356],[-3.02348,40.03183],[-3.0209,40.03055],[-3.01999,40.03027],[-3.01916,40.02973],[-3.01835,40.02893],[-3.01772,40.02807],[-3.01804,40.02631],[-3.01773,40.02546],[-3.01653,40.02321],[-3.01585,40.02169],[-3.01283,40.01963],[-3.0122,40.01885],[-3.01122,40.01841],[-3.00991,40.01668],[-3.01154,40.01452],[-3.01224,40.01304]]]}},{"type":"Feature","properties":{"id":"1620302004"},"geometry":{"type":"Polygon","coordinates":[[[-3.01921,40.01277],[-3.01588,40.01198],[-3.01492,40.01159],[-3.0143,40.01146],[-3.01429,40.01134],[-3.01314,40.01105],[-3.01355,40.01053],[-3.01375,40.01005],[-3.01367,40.00992],[-3.01594,40.00875],[-3.01931,40.01015],[-3.01998,40.01132],[-3.02049,40.01175],[-3.0198,40.01157],[-3.01921,40.01277]]]}},{"type":"Feature","properties":{"id":"1620302005"},"geometry":{"type":"Polygon","coordinates":[[[-3.01224,40.01304],[-3.01314,40.01105],[-3.01429,40.01134],[-3.0143,40.01146],[-3.01492,40.01159],[-3.01588,40.01198],[-3.01921,40.01277],[-3.01783,40.01598],[-3.01578,40.01481],[-3.01224,40.01304]]]}},{"type":"Feature","properties":{"id":"1620303001"},"geometry":{"type":"Polygon","coordinates":[[[-2.92048,40.01329],[-2.92181,40.01185],[-2.92516,40.00894],[-2.92656,40.00676],[-2.92941,40.00167],[-2.92991,40.001],[-2.93091,40.00021],[-2.93151,40.00006],[-2.93408,39.99847],[-2.9432,39.99243],[-2.94701,39.98619],[-2.94904,39.98391],[-2.94991,39.98198],[-2.95236,39.97917],[-2.95225,39.97619],[-2.95237,39.97501],[-2.95274,39.97361],[-2.9614,39.98001],[-2.96747,39.98832],[-2.96822,39.98909],[-2.96918,39.98943],[-2.9703,39.98963],[-2.97353,39.98982],[-2.97497,39.99028],[-2.98125,39.99396],[-2.98278,39.99436],[-2.98353,39.99466],[-2.99541,40.00115],[-3.00314,40.00411],[-3.00373,40.00451],[-3.00532,40.00597],[-3.00585,40.0074],[-3.00582,40.0085],[-3.00572,40.00866],[-3.00613,40.00975],[-3.00593,40.01004],[-3.00562,40.00995],[-3.00528,40.01055],[-3.00515,40.01113],[-3.00506,40.01116],[-3.0052,40.01116],[-3.0044,40.01141],[-3.0038,40.01137],[-3.00279,40.01147],[-3.00197,40.01166],[-3.0009,40.01168],[-3.00027,40.01156],[-2.99931,40.01096],[-2.99897,40.01092],[-2.99318,40.01202],[-2.97939,40.01338],[-2.96899,40.01421],[-2.96142,40.01503],[-2.96044,40.01548],[-2.95944,40.01621],[-2.9558,40.02007],[-2.95221,40.02362],[-2.94748,40.02512],[-2.94616,40.0257],[-2.9401,40.0298],[-2.93822,40.03069],[-2.93657,40.02892],[-2.93562,40.02843],[-2.93464,40.02776],[-2.93287,40.02544],[-2.93056,40.02294],[-2.92803,40.02123],[-2.92068,40.0178],[-2.92257,40.01613],[-2.92048,40.01329]]]}}]}