{"type":"FeatureCollection","features":[{"type":"Feature","properties":{"id":"1625101001"},"geometry":{"type":"Polygon","coordinates":[[[-1.90991,39.46335],[-1.91142,39.46196],[-1.91459,39.45938],[-1.9161,39.45839],[-1.91891,39.45741],[-1.92124,39.45635],[-1.92693,39.45607],[-1.93163,39.45513],[-1.93273,39.45461],[-1.93424,39.45216],[-1.93463,39.45117],[-1.93557,39.44942],[-1.93621,39.44848],[-1.93924,39.44622],[-1.93973,39.4444],[-1.94015,39.44183],[-1.94131,39.44102],[-1.94475,39.43799],[-1.94558,39.4384],[-1.94822,39.44006],[-1.94845,39.44009],[-1.94985,39.43952],[-1.95039,39.43983],[-1.95137,39.44004],[-1.9524,39.44057],[-1.9526,39.44017],[-1.95417,39.4408],[-1.95425,39.44071],[-1.95448,39.44082],[-1.95511,39.4404],[-1.95765,39.44096],[-1.95899,39.44113],[-1.96241,39.44194],[-1.96301,39.4396],[-1.96178,39.43856],[-1.96194,39.4385],[-1.96252,39.43786],[-1.96259,39.43703],[-1.96249,39.43675],[-1.96122,39.43499],[-1.96142,39.43472],[-1.96297,39.4336],[-1.96929,39.43],[-1.97375,39.42819],[-1.97497,39.42748],[-1.97794,39.42695],[-1.98017,39.42583],[-1.98655,39.42346],[-1.99292,39.4208],[-1.99595,39.41985],[-2.00659,39.41396],[-2.01061,39.41163],[-2.01766,39.41431],[-2.04066,39.41326],[-2.05149,39.41238],[-2.06642,39.41191],[-2.07154,39.41222],[-2.09358,39.41443],[-2.09326,39.41495],[-2.09263,39.41541],[-2.0924,39.41581],[-2.09226,39.41664],[-2.09201,39.41715],[-2.09146,39.41759],[-2.09134,39.41782],[-2.0914,39.41831],[-2.09198,39.41879],[-2.09306,39.41934],[-2.09345,39.41984],[-2.09598,39.42181],[-2.09619,39.42256],[-2.09626,39.42361],[-2.09616,39.42403],[-2.09584,39.42469],[-2.09556,39.42571],[-2.09486,39.42666],[-2.09408,39.42697],[-2.0935,39.4275],[-2.09298,39.42913],[-2.09196,39.43106],[-2.09169,39.43135],[-2.09,39.43251],[-2.08949,39.4333],[-2.08843,39.43461],[-2.08771,39.43622],[-2.08757,39.43685],[-2.08793,39.43803],[-2.08816,39.43927],[-2.08802,39.4395],[-2.08747,39.43996],[-2.08679,39.4409],[-2.0865,39.44139],[-2.08641,39.44179],[-2.08646,39.44248],[-2.08701,39.44317],[-2.08705,39.44365],[-2.08616,39.44528],[-2.08607,39.44563],[-2.0862,39.44678],[-2.08526,39.44756],[-2.08482,39.44825],[-2.08447,39.44955],[-2.07144,39.44995],[-2.07107,39.44636],[-2.07199,39.43977],[-2.07104,39.43866],[-2.07152,39.43599],[-2.07186,39.43522],[-2.0722,39.43376],[-2.07277,39.43286],[-2.0731,39.42873],[-2.07422,39.42437],[-2.06304,39.42364],[-2.05623,39.42221],[-2.05193,39.42149],[-2.05033,39.42173],[-2.04593,39.42181],[-2.04185,39.42148],[-2.03828,39.42383],[-2.03414,39.42204],[-2.03107,39.42332],[-2.02935,39.42267],[-2.02087,39.42179],[-2.01412,39.42099],[-2.01259,39.42633],[-2.01198,39.42988],[-2.01154,39.4362],[-2.01082,39.44218],[-2.01093,39.4445],[-2.01403,39.46117],[-2.01549,39.46585],[-2.01707,39.46922],[-2.00855,39.47498],[-2.00627,39.47632],[-2.00137,39.47794],[-1.99906,39.47943],[-1.99812,39.47987],[-1.97947,39.48313],[-1.94989,39.49166],[-1.94963,39.49145],[-1.94377,39.4797],[-1.92526,39.46796],[-1.90991,39.46335]]]}},{"type":"Feature","properties":{"id":"1625101002"},"geometry":{"type":"Polygon","coordinates":[[[-1.83514,39.43232],[-1.835,39.43201],[-1.83818,39.43166],[-1.84004,39.4297],[-1.84133,39.42808],[-1.8413,39.42277],[-1.84228,39.41677],[-1.84248,39.41461],[-1.84504,39.39914],[-1.84708,39.39165],[-1.85005,39.38896],[-1.85327,39.38516],[-1.86118,39.37274],[-1.88229,39.37005],[-1.89145,39.36869],[-1.89787,39.36819],[-1.90105,39.36751],[-1.90229,39.36717],[-1.90466,39.36634],[-1.91089,39.36748],[-1.9121,39.3681],[-1.91581,39.36915],[-1.92126,39.37147],[-1.92737,39.37336],[-1.929,39.3741],[-1.93009,39.37407],[-1.93569,39.37622],[-1.93856,39.379],[-1.94142,39.37883],[-1.9445,39.37835],[-1.94536,39.37795],[-1.95204,39.3772],[-1.95426,39.3775],[-1.96602,39.37521],[-1.96808,39.37441],[-1.97116,39.37602],[-1.97565,39.37587],[-1.97772,39.37361],[-1.97864,39.37309],[-1.98349,39.37208],[-1.98558,39.37106],[-1.98816,39.37029],[-1.99271,39.38667],[-1.99342,39.3884],[-1.99463,39.39406],[-1.99665,39.39514],[-1.99838,39.398],[-1.99966,39.39943],[-2.00285,39.40828],[-2.01061,39.41163],[-2.00659,39.41396],[-1.99595,39.41985],[-1.99292,39.4208],[-1.98655,39.42346],[-1.98017,39.42583],[-1.97794,39.42695],[-1.97497,39.42748],[-1.97375,39.42819],[-1.96929,39.43],[-1.96297,39.4336],[-1.96142,39.43472],[-1.96122,39.43499],[-1.96249,39.43675],[-1.96259,39.43703],[-1.96252,39.43786],[-1.96194,39.4385],[-1.96178,39.43856],[-1.96301,39.4396],[-1.96241,39.44194],[-1.95899,39.44113],[-1.95765,39.44096],[-1.95511,39.4404],[-1.95448,39.44082],[-1.95425,39.44071],[-1.95417,39.4408],[-1.9526,39.44017],[-1.9524,39.44057],[-1.95137,39.44004],[-1.95039,39.43983],[-1.94985,39.43952],[-1.94845,39.44009],[-1.94822,39.44006],[-1.94558,39.4384],[-1.94475,39.43799],[-1.94131,39.44102],[-1.94015,39.44183],[-1.93973,39.4444],[-1.93924,39.44622],[-1.93621,39.44848],[-1.93557,39.44942],[-1.93463,39.45117],[-1.93424,39.45216],[-1.93273,39.45461],[-1.93163,39.45513],[-1.92693,39.45607],[-1.92124,39.45635],[-1.91891,39.45741],[-1.9161,39.45839],[-1.91459,39.45938],[-1.91142,39.46196],[-1.90991,39.46335],[-1.8942,39.45863],[-1.85857,39.4364],[-1.85419,39.43566],[-1.85017,39.43461],[-1.83514,39.43232]]]}}]}