{"type":"FeatureCollection","features":[{"type":"Feature","properties":{"id":"1708901001"},"geometry":{"type":"Polygon","coordinates":[[[2.90575,41.82228],[2.90412,41.82293],[2.90371,41.82285],[2.90358,41.82325],[2.90334,41.82354],[2.90159,41.82403],[2.90131,41.82435],[2.90037,41.8246],[2.89947,41.82501],[2.89858,41.82556],[2.89843,41.82623],[2.8982,41.82641],[2.89713,41.82657],[2.89598,41.82659],[2.89406,41.82775],[2.89232,41.82768],[2.89156,41.82774],[2.88969,41.82928],[2.89158,41.83026],[2.89202,41.83025],[2.89292,41.82963],[2.89332,41.82993],[2.89413,41.83008],[2.89396,41.83053],[2.8946,41.83057],[2.89483,41.83081],[2.89527,41.83095],[2.89575,41.83101],[2.89588,41.83082],[2.89642,41.83093],[2.8967,41.8307],[2.89825,41.83074],[2.9007,41.83178],[2.90137,41.83091],[2.902,41.83133],[2.90352,41.8318],[2.90544,41.82939],[2.90699,41.82944],[2.90771,41.82989],[2.90797,41.82991],[2.90817,41.82921],[2.90812,41.82868],[2.90783,41.82798],[2.90789,41.82757],[2.90776,41.82739],[2.90848,41.82749],[2.90874,41.82739],[2.90934,41.82739],[2.90997,41.82724],[2.91012,41.82706],[2.90999,41.82661],[2.91026,41.82624],[2.91034,41.82571],[2.91098,41.82551],[2.91086,41.8247],[2.91039,41.82434],[2.91015,41.82428],[2.90949,41.82437],[2.90829,41.82373],[2.90814,41.82333],[2.90824,41.82284],[2.90816,41.82277],[2.90682,41.82236],[2.90575,41.82228]]]}},{"type":"Feature","properties":{"id":"1708901002"},"geometry":{"type":"Polygon","coordinates":[[[2.88969,41.82928],[2.89156,41.82774],[2.89232,41.82768],[2.89406,41.82775],[2.89536,41.82699],[2.89559,41.82677],[2.89496,41.82426],[2.89484,41.82413],[2.89345,41.82353],[2.89353,41.82323],[2.89324,41.82183],[2.89275,41.82179],[2.89201,41.82266],[2.89113,41.82339],[2.89006,41.82382],[2.88883,41.82499],[2.88923,41.82539],[2.88969,41.82928]]]}},{"type":"Feature","properties":{"id":"1708901003"},"geometry":{"type":"Polygon","coordinates":[[[2.92851,41.75752],[2.92818,41.75751],[2.92359,41.76052],[2.92312,41.76071],[2.91849,41.76677],[2.91133,41.76975],[2.90608,41.77174],[2.90431,41.7722],[2.90067,41.77272],[2.89359,41.77365],[2.8885,41.77408],[2.87494,41.77301],[2.87134,41.77323],[2.86731,41.77853],[2.86121,41.7851],[2.85986,41.78625],[2.85929,41.78709],[2.85835,41.78765],[2.85661,41.7897],[2.85585,41.78999],[2.85555,41.79055],[2.85471,41.79138],[2.85423,41.79211],[2.85428,41.79229],[2.85454,41.7925],[2.85438,41.79284],[2.85411,41.79294],[2.85391,41.79339],[2.85417,41.79434],[2.85495,41.79498],[2.85536,41.79554],[2.85546,41.79708],[2.85377,41.80078],[2.85892,41.80226],[2.85978,41.80283],[2.85988,41.80328],[2.86048,41.80423],[2.86045,41.80466],[2.86023,41.8051],[2.86105,41.80695],[2.86163,41.80731],[2.8633,41.808],[2.86408,41.80804],[2.86427,41.80852],[2.87278,41.80892],[2.87266,41.81001],[2.87234,41.81087],[2.8724,41.81111],[2.87336,41.8124],[2.87343,41.81265],[2.87266,41.81457],[2.86535,41.81429],[2.86614,41.81346],[2.86648,41.81293],[2.86684,41.81115],[2.86674,41.81071],[2.86628,41.80993],[2.85216,41.8102],[2.85003,41.81942],[2.85204,41.82215],[2.8549,41.8255],[2.85712,41.82906],[2.85764,41.83336],[2.85765,41.83482],[2.8581,41.83652],[2.86244,41.84862],[2.86368,41.84877],[2.86492,41.84874],[2.86968,41.84817],[2.87084,41.84832],[2.87226,41.84833],[2.87468,41.84879],[2.87522,41.84897],[2.87601,41.84945],[2.87642,41.84983],[2.87733,41.85128],[2.87844,41.85226],[2.88401,41.85644],[2.88434,41.85692],[2.88575,41.85848],[2.88614,41.85971],[2.88764,41.86036],[2.89824,41.85969],[2.90322,41.86045],[2.91214,41.86447],[2.91253,41.86429],[2.91316,41.86308],[2.914,41.86226],[2.91403,41.86152],[2.91446,41.86079],[2.91488,41.86056],[2.91611,41.86027],[2.91686,41.85979],[2.91716,41.85971],[2.91812,41.85989],[2.91979,41.86055],[2.92232,41.86076],[2.92473,41.8604],[2.928,41.86096],[2.92855,41.86119],[2.93128,41.8617],[2.93179,41.86187],[2.93206,41.86207],[2.93298,41.86206],[2.93443,41.8626],[2.93539,41.86377],[2.93568,41.86383],[2.93615,41.86374],[2.93704,41.86335],[2.93744,41.86328],[2.9378,41.86334],[2.93813,41.86352],[2.9394,41.86473],[2.94264,41.86487],[2.94353,41.865],[2.94874,41.86323],[2.95993,41.8532],[2.96225,41.8489],[2.9625,41.84744],[2.96273,41.84698],[2.96364,41.84603],[2.96395,41.84554],[2.9643,41.8453],[2.96524,41.84531],[2.96558,41.84515],[2.96636,41.84429],[2.96703,41.84386],[2.96713,41.84366],[2.96712,41.84185],[2.96736,41.84112],[2.96757,41.84085],[2.96762,41.8405],[2.96754,41.84018],[2.96713,41.8398],[2.96722,41.83919],[2.96764,41.83852],[2.96826,41.83789],[2.9684,41.83729],[2.96943,41.83695],[2.96931,41.83643],[2.96979,41.8355],[2.96977,41.83513],[2.96948,41.8346],[2.96993,41.83364],[2.96973,41.83244],[2.97015,41.832],[2.9703,41.83159],[2.97023,41.83085],[2.97032,41.83038],[2.97084,41.82927],[2.97112,41.82837],[2.97103,41.82802],[2.97031,41.82708],[2.97013,41.82669],[2.9681,41.82632],[2.96748,41.82594],[2.96696,41.82575],[2.96575,41.82588],[2.96412,41.82652],[2.96345,41.82672],[2.96276,41.82681],[2.95931,41.82675],[2.95771,41.82642],[2.95545,41.82666],[2.9539,41.82661],[2.9519,41.8267],[2.95074,41.82649],[2.94998,41.82666],[2.94931,41.82668],[2.94867,41.82638],[2.94806,41.82589],[2.94765,41.82581],[2.9468,41.82591],[2.94624,41.82612],[2.94547,41.82612],[2.94462,41.82671],[2.94368,41.82704],[2.94309,41.82703],[2.94144,41.82733],[2.94057,41.82739],[2.9372,41.82796],[2.93474,41.82787],[2.93388,41.82797],[2.93346,41.82787],[2.93306,41.82736],[2.9331,41.82679],[2.93292,41.82639],[2.93239,41.82617],[2.92969,41.82593],[2.93,41.82493],[2.93071,41.82394],[2.9309,41.82342],[2.93119,41.82302],[2.9312,41.82257],[2.93067,41.82163],[2.93084,41.82145],[2.93142,41.82123],[2.93166,41.82098],[2.93182,41.81998],[2.93245,41.81952],[2.93391,41.81758],[2.93394,41.81701],[2.93366,41.81611],[2.93396,41.81528],[2.9351,41.81414],[2.93593,41.81372],[2.93607,41.81349],[2.93612,41.81213],[2.9353,41.81093],[2.93479,41.8105],[2.93453,41.81006],[2.93452,41.80955],[2.94394,41.78946],[2.95568,41.78647],[2.95924,41.77502],[2.95003,41.76861],[2.94094,41.76098],[2.92851,41.75752]],[[2.89904,41.82075],[2.8992,41.82081],[2.90026,41.82071],[2.9014,41.82075],[2.90471,41.82113],[2.90589,41.82139],[2.90608,41.82149],[2.90609,41.82178],[2.90599,41.8221],[2.90575,41.82228],[2.90682,41.82236],[2.90816,41.82277],[2.90824,41.82284],[2.90814,41.82333],[2.90829,41.82373],[2.90949,41.82437],[2.91028,41.8243],[2.91083,41.82462],[2.91098,41.82551],[2.91034,41.82571],[2.91026,41.82624],[2.90999,41.82661],[2.91012,41.82706],[2.90997,41.82724],[2.90934,41.82739],[2.90874,41.82739],[2.90848,41.82749],[2.90776,41.82739],[2.90789,41.82757],[2.90783,41.82798],[2.90812,41.82868],[2.90817,41.82921],[2.90797,41.82991],[2.90771,41.82989],[2.90699,41.82944],[2.90544,41.82939],[2.90352,41.8318],[2.902,41.83133],[2.90137,41.83091],[2.9007,41.83178],[2.89825,41.83074],[2.8967,41.8307],[2.89642,41.83093],[2.89588,41.83082],[2.89575,41.83101],[2.89527,41.83095],[2.89483,41.83081],[2.8946,41.83057],[2.89396,41.83053],[2.89413,41.83008],[2.89332,41.82993],[2.89292,41.82963],[2.89202,41.83025],[2.89158,41.83026],[2.88966,41.82931],[2.88923,41.82539],[2.88883,41.82499],[2.89006,41.82382],[2.89113,41.82339],[2.89201,41.82266],[2.89275,41.82179],[2.89324,41.82183],[2.89335,41.82129],[2.89402,41.82033],[2.89534,41.82116],[2.89616,41.82063],[2.89697,41.81982],[2.89707,41.81989],[2.89778,41.81951],[2.89799,41.81977],[2.89881,41.82037],[2.89904,41.82075]]]}},{"type":"Feature","properties":{"id":"1708901004"},"geometry":{"type":"Polygon","coordinates":[[[2.90575,41.82228],[2.90599,41.8221],[2.90609,41.82178],[2.90608,41.82149],[2.90589,41.82139],[2.90471,41.82113],[2.9014,41.82075],[2.90026,41.82071],[2.8992,41.82081],[2.89904,41.82075],[2.89881,41.82037],[2.89799,41.81977],[2.89778,41.81951],[2.89707,41.81989],[2.89697,41.81982],[2.89616,41.82063],[2.89534,41.82116],[2.89402,41.82033],[2.89335,41.82129],[2.89322,41.82174],[2.89348,41.82282],[2.89345,41.82353],[2.89484,41.82413],[2.89496,41.82426],[2.89559,41.82677],[2.89598,41.82659],[2.89713,41.82657],[2.8982,41.82641],[2.89843,41.82623],[2.89858,41.82556],[2.89947,41.82501],[2.90037,41.8246],[2.90131,41.82435],[2.90159,41.82403],[2.90334,41.82354],[2.90358,41.82325],[2.90371,41.82285],[2.90412,41.82293],[2.90575,41.82228]]]}}]}