{"type":"FeatureCollection","features":[{"type":"Feature","properties":{"id":"1714101001"},"geometry":{"type":"Polygon","coordinates":[[[1.92845,42.43209],[1.92888,42.43165],[1.92904,42.43116],[1.92873,42.43079],[1.9285,42.43011],[1.92811,42.42998],[1.92799,42.43019],[1.92773,42.43019],[1.92684,42.43083],[1.92586,42.43243],[1.92627,42.43272],[1.92682,42.43281],[1.92845,42.43209]]]}},{"type":"Feature","properties":{"id":"1714101002"},"geometry":{"type":"Polygon","coordinates":[[[1.93123,42.43554],[1.93061,42.43536],[1.92954,42.43523],[1.92918,42.43487],[1.92922,42.43313],[1.92909,42.43279],[1.92845,42.43209],[1.92682,42.43281],[1.92627,42.43272],[1.92574,42.43238],[1.92562,42.43271],[1.92543,42.43274],[1.92524,42.43291],[1.92477,42.43276],[1.92385,42.43395],[1.92328,42.43435],[1.92328,42.43488],[1.92412,42.43498],[1.92425,42.43598],[1.92415,42.43645],[1.92478,42.43662],[1.92635,42.43766],[1.92929,42.43829],[1.93078,42.43908],[1.93208,42.43816],[1.93265,42.43819],[1.93271,42.43745],[1.93263,42.43723],[1.93201,42.4367],[1.93191,42.43649],[1.932,42.43618],[1.93218,42.436],[1.93181,42.43569],[1.93191,42.43561],[1.93179,42.43543],[1.93123,42.43554]]]}},{"type":"Feature","properties":{"id":"1714101003"},"geometry":{"type":"Polygon","coordinates":[[[1.89935,42.41999],[1.91232,42.42191],[1.91556,42.42263],[1.91661,42.42302],[1.91669,42.4232],[1.91686,42.42453],[1.91657,42.42529],[1.9165,42.4265],[1.91659,42.42677],[1.91732,42.42757],[1.91726,42.42802],[1.9168,42.42896],[1.9169,42.42963],[1.91679,42.43014],[1.91698,42.43056],[1.91746,42.43106],[1.91771,42.43162],[1.9176,42.43243],[1.91721,42.43335],[1.91752,42.43466],[1.91647,42.43589],[1.91629,42.43646],[1.91635,42.4374],[1.91603,42.43807],[1.91461,42.43906],[1.91349,42.44106],[1.91307,42.44128],[1.91285,42.44152],[1.91278,42.44193],[1.91316,42.44314],[1.91279,42.44342],[1.91146,42.44318],[1.91123,42.44323],[1.91087,42.44348],[1.91018,42.44453],[1.90994,42.44474],[1.90945,42.44494],[1.90921,42.44518],[1.90911,42.44592],[1.90879,42.44651],[1.90891,42.44733],[1.90939,42.44723],[1.91046,42.44754],[1.91145,42.44771],[1.91175,42.44769],[1.91357,42.44686],[1.91546,42.44619],[1.91602,42.44616],[1.92103,42.44706],[1.9224,42.44766],[1.92372,42.44838],[1.92683,42.45079],[1.92841,42.45223],[1.92937,42.45284],[1.93079,42.45337],[1.93317,42.45495],[1.93497,42.45461],[1.93585,42.45424],[1.93696,42.45447],[1.93802,42.45317],[1.93866,42.452],[1.9397,42.45048],[1.94023,42.44932],[1.94118,42.44659],[1.94157,42.44616],[1.94329,42.44504],[1.94347,42.44137],[1.94293,42.44021],[1.94283,42.43964],[1.94243,42.43904],[1.94213,42.437],[1.94115,42.43459],[1.94106,42.43385],[1.94111,42.43128],[1.9413,42.43068],[1.94285,42.42938],[1.94391,42.42873],[1.94555,42.42813],[1.94791,42.42788],[1.94976,42.42726],[1.95303,42.42673],[1.95565,42.4251],[1.95893,42.42342],[1.95775,42.42147],[1.95653,42.41714],[1.95666,42.41584],[1.95639,42.41368],[1.95555,42.4121],[1.95659,42.41023],[1.95771,42.40934],[1.95788,42.40882],[1.95838,42.4083],[1.95852,42.408],[1.95926,42.40741],[1.95986,42.40671],[1.96019,42.40575],[1.96084,42.40492],[1.96113,42.40437],[1.96109,42.40352],[1.96161,42.40286],[1.96164,42.40236],[1.96131,42.40186],[1.96164,42.40112],[1.96152,42.40002],[1.96086,42.3975],[1.96031,42.39638],[1.96024,42.39594],[1.96034,42.39419],[1.96168,42.39031],[1.9628,42.38982],[1.96308,42.38948],[1.96412,42.38864],[1.96488,42.38815],[1.96502,42.3879],[1.96504,42.38751],[1.96459,42.38558],[1.96482,42.38466],[1.96461,42.38337],[1.96472,42.38253],[1.9653,42.38191],[1.96571,42.38115],[1.96631,42.38074],[1.96784,42.37894],[1.96806,42.3788],[1.96837,42.37825],[1.96886,42.37794],[1.96932,42.37782],[1.96977,42.37724],[1.97006,42.37713],[1.97023,42.37684],[1.97015,42.37661],[1.97068,42.37609],[1.97204,42.37396],[1.97421,42.3728],[1.97566,42.37224],[1.9778,42.37204],[1.97849,42.37179],[1.97913,42.37136],[1.97949,42.371],[1.98103,42.36864],[1.98246,42.36684],[1.9833,42.36599],[1.98617,42.36215],[1.98078,42.36244],[1.97822,42.36457],[1.97299,42.36511],[1.97199,42.36548],[1.97049,42.36646],[1.96975,42.3667],[1.96845,42.3665],[1.96803,42.36652],[1.96775,42.36663],[1.96767,42.36716],[1.9678,42.36744],[1.96822,42.36786],[1.96803,42.36829],[1.96753,42.36835],[1.96697,42.36818],[1.96623,42.36892],[1.96544,42.36939],[1.96518,42.36966],[1.96506,42.3701],[1.96475,42.37054],[1.96332,42.37174],[1.96227,42.37322],[1.95944,42.37663],[1.95882,42.37752],[1.95745,42.38019],[1.9533,42.38533],[1.95289,42.38737],[1.95266,42.38801],[1.95244,42.3883],[1.94612,42.39417],[1.94598,42.40216],[1.94519,42.40331],[1.94476,42.40425],[1.94548,42.40893],[1.94552,42.4107],[1.94523,42.41144],[1.94365,42.41409],[1.94122,42.41422],[1.94069,42.41418],[1.93999,42.41404],[1.93725,42.41289],[1.93647,42.41268],[1.93547,42.41258],[1.93218,42.41186],[1.9322,42.41233],[1.92547,42.41203],[1.91941,42.41144],[1.91425,42.40815],[1.91273,42.40708],[1.9123,42.40752],[1.9098,42.40842],[1.90304,42.4112],[1.90258,42.41129],[1.90197,42.41168],[1.90102,42.41436],[1.89935,42.41999]],[[1.91588,42.41398],[1.91601,42.41079],[1.91684,42.41086],[1.91764,42.4113],[1.91791,42.41159],[1.91896,42.41161],[1.9203,42.41224],[1.922,42.41285],[1.92428,42.41232],[1.9254,42.41228],[1.92644,42.41241],[1.92664,42.41223],[1.92917,42.41247],[1.9311,42.41248],[1.93183,42.4126],[1.93263,42.41782],[1.93326,42.42108],[1.93313,42.42341],[1.9343,42.42454],[1.93503,42.42592],[1.93553,42.42639],[1.93656,42.42707],[1.93764,42.42839],[1.93902,42.42894],[1.94063,42.42979],[1.9407,42.43003],[1.94093,42.43016],[1.94062,42.43315],[1.9407,42.43367],[1.94182,42.43661],[1.94204,42.43777],[1.94228,42.43837],[1.94231,42.43885],[1.94267,42.43948],[1.94298,42.4408],[1.9429,42.44449],[1.9414,42.4462],[1.93993,42.44518],[1.94,42.44379],[1.93996,42.44305],[1.9398,42.44282],[1.93954,42.44286],[1.93843,42.44349],[1.93724,42.44316],[1.93669,42.44287],[1.93589,42.44193],[1.93588,42.44121],[1.93644,42.44058],[1.93704,42.44017],[1.93729,42.43987],[1.93723,42.43951],[1.9371,42.43924],[1.93677,42.43895],[1.93564,42.43857],[1.93556,42.43869],[1.93491,42.43856],[1.93461,42.43898],[1.93364,42.43859],[1.93382,42.43833],[1.93339,42.43822],[1.93347,42.43798],[1.93419,42.43749],[1.93452,42.43759],[1.93491,42.43745],[1.93502,42.43716],[1.93461,42.43636],[1.93438,42.43525],[1.93379,42.43471],[1.93209,42.43404],[1.93192,42.43376],[1.93182,42.43309],[1.93066,42.43347],[1.93067,42.43401],[1.93037,42.43411],[1.93013,42.43473],[1.93018,42.43482],[1.93128,42.43523],[1.93139,42.43541],[1.93123,42.43554],[1.93179,42.43543],[1.93191,42.43561],[1.93181,42.43569],[1.93218,42.436],[1.932,42.43618],[1.93191,42.43649],[1.93201,42.4367],[1.93263,42.43723],[1.93271,42.43745],[1.93265,42.43819],[1.93208,42.43816],[1.93078,42.43908],[1.92929,42.43829],[1.92635,42.43766],[1.92478,42.43662],[1.92415,42.43645],[1.92425,42.43598],[1.92412,42.43498],[1.92328,42.43488],[1.92328,42.43435],[1.92385,42.43395],[1.92477,42.43276],[1.92524,42.43291],[1.92543,42.43274],[1.92562,42.43271],[1.92574,42.43238],[1.92586,42.43243],[1.92653,42.43129],[1.92715,42.43056],[1.92773,42.43019],[1.92799,42.43019],[1.92811,42.42998],[1.92835,42.43004],[1.92831,42.42963],[1.92803,42.42895],[1.92773,42.42904],[1.92727,42.42901],[1.92686,42.42877],[1.92673,42.42858],[1.92674,42.4283],[1.92694,42.42804],[1.92799,42.42724],[1.92821,42.42725],[1.92651,42.42599],[1.9261,42.42579],[1.92533,42.42574],[1.92535,42.42565],[1.92352,42.42554],[1.92157,42.42049],[1.91887,42.41812],[1.91792,42.41698],[1.91659,42.41481],[1.91588,42.41398]]]}},{"type":"Feature","properties":{"id":"1714101004"},"geometry":{"type":"Polygon","coordinates":[[[1.93182,42.43309],[1.93145,42.43254],[1.93209,42.43228],[1.93287,42.43228],[1.9329,42.43219],[1.93196,42.4317],[1.93083,42.43059],[1.93155,42.43057],[1.93175,42.43088],[1.93274,42.43115],[1.93369,42.43165],[1.93412,42.43204],[1.93497,42.43151],[1.93379,42.4302],[1.93306,42.42974],[1.93237,42.42941],[1.93059,42.4283],[1.92833,42.42727],[1.92799,42.42724],[1.92694,42.42804],[1.92674,42.4283],[1.92673,42.42858],[1.92686,42.42877],[1.92727,42.42901],[1.92773,42.42904],[1.92803,42.42895],[1.92831,42.42963],[1.92835,42.43004],[1.9285,42.43011],[1.92873,42.43079],[1.92904,42.43116],[1.92888,42.43165],[1.92845,42.43209],[1.92909,42.43279],[1.92922,42.43313],[1.92915,42.43473],[1.92954,42.43523],[1.93061,42.43536],[1.93123,42.43554],[1.93136,42.43549],[1.93138,42.43531],[1.93128,42.43523],[1.93018,42.43482],[1.93013,42.43473],[1.93037,42.43411],[1.93067,42.43401],[1.93066,42.43347],[1.93182,42.43309]]]}},{"type":"Feature","properties":{"id":"1714101005"},"geometry":{"type":"Polygon","coordinates":[[[1.92821,42.42725],[1.93059,42.4283],[1.93379,42.4302],[1.93497,42.43151],[1.93412,42.43204],[1.93369,42.43165],[1.93274,42.43115],[1.93175,42.43088],[1.93155,42.43057],[1.93083,42.43059],[1.93196,42.4317],[1.9329,42.43219],[1.93287,42.43228],[1.93209,42.43228],[1.93145,42.43254],[1.93179,42.43301],[1.93192,42.43376],[1.93209,42.43404],[1.93379,42.43471],[1.93438,42.43525],[1.93461,42.43636],[1.93501,42.43732],[1.93491,42.43745],[1.93452,42.43759],[1.93419,42.43749],[1.93347,42.43798],[1.93339,42.43822],[1.93382,42.43833],[1.93364,42.43859],[1.93461,42.43898],[1.93491,42.43856],[1.93556,42.43869],[1.93564,42.43857],[1.93677,42.43895],[1.9371,42.43924],[1.93723,42.43951],[1.93729,42.43987],[1.93704,42.44017],[1.93644,42.44058],[1.93588,42.44121],[1.93589,42.44193],[1.93669,42.44287],[1.93724,42.44316],[1.93843,42.44349],[1.93954,42.44286],[1.9398,42.44282],[1.93996,42.44305],[1.94,42.44379],[1.93993,42.44518],[1.9414,42.4462],[1.9429,42.44449],[1.94298,42.4408],[1.94267,42.43948],[1.94231,42.43885],[1.94228,42.43837],[1.94204,42.43777],[1.94182,42.43661],[1.9407,42.43367],[1.94062,42.43315],[1.94093,42.43016],[1.9407,42.43003],[1.94063,42.42979],[1.93902,42.42894],[1.93764,42.42839],[1.93656,42.42707],[1.93553,42.42639],[1.93503,42.42592],[1.9343,42.42454],[1.93313,42.42341],[1.93326,42.42108],[1.93263,42.41782],[1.93183,42.4126],[1.9311,42.41248],[1.92917,42.41247],[1.92664,42.41223],[1.92644,42.41241],[1.9254,42.41228],[1.92428,42.41232],[1.922,42.41285],[1.9203,42.41224],[1.91896,42.41161],[1.91791,42.41159],[1.91764,42.4113],[1.91684,42.41086],[1.91598,42.41079],[1.91585,42.41194],[1.91588,42.41398],[1.91659,42.41481],[1.91792,42.41698],[1.91887,42.41812],[1.92157,42.42049],[1.92352,42.42554],[1.92535,42.42565],[1.92533,42.42574],[1.9261,42.42579],[1.92651,42.42599],[1.92821,42.42725]]]}}]}