{"type":"FeatureCollection","features":[{"type":"Feature","properties":{"id":"1716401001"},"geometry":{"type":"Polygon","coordinates":[[[2.50514,41.94232],[2.50161,41.9378],[2.49644,41.9318],[2.49432,41.92947],[2.49541,41.92883],[2.49579,41.92845],[2.49591,41.92794],[2.49621,41.92738],[2.49669,41.927],[2.49747,41.92685],[2.49991,41.92668],[2.50196,41.92601],[2.50331,41.92578],[2.50407,41.92567],[2.50579,41.92561],[2.50806,41.92534],[2.50855,41.92543],[2.50892,41.92568],[2.50965,41.92643],[2.51082,41.9272],[2.51341,41.92674],[2.51334,41.92548],[2.51275,41.92538],[2.51208,41.92539],[2.51054,41.92492],[2.51024,41.92447],[2.50982,41.9231],[2.51097,41.92295],[2.51112,41.92274],[2.51059,41.92231],[2.51015,41.92158],[2.50982,41.92131],[2.5085,41.92122],[2.5068,41.92144],[2.50662,41.92112],[2.50715,41.92029],[2.50869,41.91981],[2.50916,41.91917],[2.51001,41.91832],[2.51166,41.91689],[2.51175,41.91639],[2.5113,41.91444],[2.51166,41.91386],[2.51377,41.91432],[2.51517,41.91317],[2.51566,41.91173],[2.51582,41.91045],[2.51568,41.90952],[2.51533,41.90866],[2.5144,41.90803],[2.51314,41.90771],[2.51211,41.90765],[2.51153,41.90711],[2.51156,41.9062],[2.51117,41.90524],[2.51054,41.90459],[2.50913,41.90442],[2.5083,41.90443],[2.50734,41.90412],[2.50691,41.90378],[2.50651,41.90322],[2.5069,41.90239],[2.50651,41.90185],[2.50568,41.9012],[2.50453,41.90127],[2.50349,41.90149],[2.50287,41.90194],[2.50213,41.90269],[2.50097,41.90229],[2.50061,41.90203],[2.49992,41.90212],[2.4994,41.90206],[2.49903,41.90077],[2.49913,41.90016],[2.49995,41.89958],[2.50159,41.89922],[2.50244,41.89874],[2.50328,41.89764],[2.50421,41.89679],[2.50397,41.89633],[2.50456,41.89595],[2.50561,41.89416],[2.50653,41.89293],[2.50658,41.89207],[2.50509,41.89136],[2.50506,41.89055],[2.50595,41.88993],[2.50649,41.8894],[2.50787,41.88731],[2.51009,41.88181],[2.51084,41.87897],[2.50932,41.87812],[2.50883,41.87801],[2.5085,41.87782],[2.5076,41.87763],[2.50699,41.87784],[2.50675,41.8781],[2.50574,41.87856],[2.50549,41.87901],[2.50493,41.87942],[2.50264,41.87963],[2.502,41.87982],[2.50013,41.88083],[2.49958,41.88168],[2.49945,41.88241],[2.49909,41.8829],[2.49778,41.88294],[2.49688,41.8831],[2.49654,41.88306],[2.49492,41.88346],[2.49439,41.88382],[2.49424,41.88427],[2.49377,41.88448],[2.49312,41.88424],[2.49285,41.88341],[2.49292,41.88304],[2.4925,41.8829],[2.49017,41.88312],[2.48925,41.883],[2.48834,41.88263],[2.48706,41.88151],[2.48649,41.8815],[2.48576,41.88161],[2.48524,41.88183],[2.48484,41.88169],[2.48328,41.87983],[2.48377,41.87915],[2.48334,41.87901],[2.48279,41.87903],[2.48246,41.87886],[2.48264,41.87849],[2.48322,41.87793],[2.48266,41.87757],[2.48171,41.87755],[2.48142,41.87796],[2.48093,41.87817],[2.47992,41.87799],[2.47808,41.87724],[2.47761,41.87653],[2.47682,41.87601],[2.47495,41.87506],[2.47219,41.87563],[2.47055,41.87658],[2.4693,41.87758],[2.46645,41.88084],[2.46476,41.88212],[2.46467,41.88312],[2.46401,41.88341],[2.4638,41.88376],[2.46333,41.88418],[2.4624,41.88429],[2.46129,41.88401],[2.46083,41.88405],[2.4607,41.88432],[2.46007,41.88433],[2.45993,41.88443],[2.45942,41.88585],[2.459,41.88608],[2.45874,41.88708],[2.458,41.88745],[2.45818,41.88798],[2.45804,41.88838],[2.45742,41.88883],[2.45692,41.88889],[2.45674,41.88904],[2.45672,41.88953],[2.45699,41.89008],[2.45682,41.89066],[2.45648,41.89091],[2.45651,41.89128],[2.45643,41.8914],[2.45583,41.89169],[2.4547,41.89195],[2.45308,41.89193],[2.45266,41.892],[2.45114,41.89264],[2.45064,41.89257],[2.45015,41.8924],[2.44986,41.89242],[2.44935,41.89223],[2.44828,41.89059],[2.44752,41.88995],[2.44665,41.88958],[2.44622,41.88956],[2.44652,41.89068],[2.44637,41.89121],[2.44654,41.89271],[2.44625,41.89372],[2.44665,41.89477],[2.44765,41.8953],[2.44915,41.89575],[2.45014,41.89566],[2.45176,41.89576],[2.45259,41.89589],[2.45388,41.89541],[2.45701,41.8967],[2.45793,41.89791],[2.45936,41.89826],[2.45939,41.89889],[2.45977,41.89947],[2.45995,41.90055],[2.4606,41.90103],[2.46061,41.90136],[2.46022,41.90252],[2.46616,41.90405],[2.469,41.90463],[2.4683,41.90574],[2.4691,41.90685],[2.46968,41.90728],[2.46964,41.90772],[2.47004,41.90786],[2.47038,41.90861],[2.47149,41.90917],[2.47224,41.90907],[2.47244,41.90939],[2.47296,41.90941],[2.47322,41.90981],[2.47314,41.91046],[2.47357,41.91107],[2.474,41.91226],[2.47484,41.91312],[2.47518,41.91496],[2.47774,41.91597],[2.48154,41.916],[2.48077,41.91667],[2.47927,41.91855],[2.47864,41.91993],[2.47881,41.92034],[2.47962,41.92132],[2.48022,41.92175],[2.48063,41.92286],[2.48062,41.92346],[2.48033,41.92391],[2.47928,41.92478],[2.47913,41.92517],[2.47916,41.92568],[2.47962,41.92529],[2.47978,41.92752],[2.48016,41.92783],[2.48059,41.92869],[2.48024,41.9295],[2.48029,41.93009],[2.47963,41.93068],[2.4792,41.93089],[2.47701,41.93318],[2.476,41.93392],[2.47507,41.93489],[2.47192,41.93769],[2.47185,41.93851],[2.4711,41.93928],[2.46947,41.93901],[2.46885,41.9391],[2.4661,41.93889],[2.46556,41.93911],[2.46432,41.93859],[2.46366,41.93853],[2.46285,41.93779],[2.46245,41.93898],[2.46234,41.94047],[2.46252,41.94074],[2.46255,41.94121],[2.46162,41.94171],[2.46106,41.94213],[2.46073,41.94269],[2.46076,41.94384],[2.45957,41.94439],[2.45713,41.94351],[2.45666,41.94228],[2.45607,41.94193],[2.45611,41.94155],[2.4552,41.94087],[2.45453,41.94135],[2.45419,41.94182],[2.4517,41.94261],[2.45178,41.94327],[2.45137,41.9437],[2.4464,41.944],[2.44574,41.94245],[2.44546,41.9421],[2.44423,41.94152],[2.44354,41.94161],[2.44302,41.9414],[2.44259,41.94138],[2.44233,41.94216],[2.44193,41.94261],[2.44131,41.94282],[2.4409,41.94332],[2.44035,41.94367],[2.44034,41.9443],[2.44012,41.94468],[2.44036,41.94527],[2.44033,41.94578],[2.44057,41.94668],[2.44022,41.94687],[2.43952,41.94693],[2.43899,41.94739],[2.4385,41.94757],[2.43802,41.94749],[2.43773,41.9479],[2.43735,41.94799],[2.43833,41.95146],[2.44247,41.95455],[2.44189,41.95539],[2.44188,41.9561],[2.44246,41.95729],[2.44176,41.95923],[2.44184,41.95986],[2.4398,41.96317],[2.43552,41.96413],[2.43278,41.96572],[2.42975,41.96535],[2.42946,41.96892],[2.43017,41.9688],[2.43146,41.96911],[2.43227,41.9705],[2.43297,41.97091],[2.43357,41.97204],[2.43407,41.97243],[2.43471,41.97271],[2.43531,41.97272],[2.43577,41.97297],[2.43682,41.97312],[2.43754,41.97313],[2.43844,41.97335],[2.43881,41.97331],[2.43924,41.97338],[2.43967,41.97318],[2.44104,41.97303],[2.44151,41.97284],[2.44209,41.97228],[2.44241,41.9718],[2.4429,41.97176],[2.44279,41.97129],[2.44302,41.97092],[2.44316,41.97005],[2.44243,41.96998],[2.4415,41.96854],[2.44192,41.96819],[2.4428,41.9683],[2.44315,41.9686],[2.44375,41.96834],[2.44958,41.97008],[2.45037,41.96853],[2.45108,41.96794],[2.45136,41.96736],[2.45184,41.96695],[2.4524,41.96604],[2.45374,41.96659],[2.45397,41.9671],[2.45442,41.9671],[2.4547,41.96726],[2.45488,41.96756],[2.45516,41.96765],[2.45582,41.96766],[2.45613,41.96788],[2.45718,41.96603],[2.45887,41.96664],[2.4618,41.96787],[2.46348,41.96747],[2.46557,41.96674],[2.46815,41.96802],[2.47205,41.96898],[2.47467,41.96933],[2.4721,41.97205],[2.47271,41.97529],[2.47572,41.97754],[2.47705,41.97739],[2.47963,41.97826],[2.48078,41.97852],[2.48057,41.9794],[2.48336,41.97832],[2.48667,41.97791],[2.48806,41.97476],[2.48829,41.97138],[2.48849,41.97081],[2.48853,41.96886],[2.48823,41.96758],[2.4918,41.96193],[2.49135,41.96056],[2.49083,41.96031],[2.49054,41.95947],[2.48996,41.95909],[2.48969,41.95879],[2.48984,41.95842],[2.49043,41.95803],[2.49114,41.95706],[2.49178,41.95649],[2.49182,41.95608],[2.49252,41.95558],[2.49357,41.95439],[2.49382,41.95395],[2.49337,41.95342],[2.49333,41.95319],[2.49361,41.95303],[2.49441,41.95303],[2.49488,41.95218],[2.49505,41.95164],[2.49478,41.95108],[2.49375,41.95045],[2.49361,41.95004],[2.49252,41.94906],[2.49253,41.94854],[2.49288,41.94811],[2.49404,41.94752],[2.49541,41.94761],[2.49596,41.94754],[2.49687,41.94709],[2.49704,41.9468],[2.49714,41.94577],[2.49739,41.94518],[2.49805,41.9448],[2.50046,41.94442],[2.50089,41.94427],[2.50143,41.94361],[2.50316,41.94294],[2.50561,41.94266],[2.50558,41.94255],[2.50514,41.94232]]]}},{"type":"Feature","properties":{"id":"1716401002"},"geometry":{"type":"Polygon","coordinates":[[[2.51084,41.87897],[2.51169,41.87834],[2.51434,41.87305],[2.51579,41.87193],[2.51486,41.8709],[2.5152,41.86998],[2.5155,41.86988],[2.51584,41.86868],[2.51624,41.86843],[2.51603,41.86758],[2.51642,41.86729],[2.51545,41.86488],[2.51498,41.86455],[2.51433,41.86435],[2.51374,41.86377],[2.51356,41.86083],[2.51312,41.86035],[2.51322,41.85873],[2.51294,41.85883],[2.5126,41.85865],[2.51185,41.85754],[2.51122,41.85705],[2.51144,41.85678],[2.51147,41.85641],[2.51102,41.85555],[2.5111,41.85519],[2.51162,41.85466],[2.51157,41.85423],[2.51181,41.85398],[2.51174,41.85352],[2.51127,41.85305],[2.51114,41.85238],[2.51133,41.85206],[2.51219,41.85195],[2.51254,41.85179],[2.51314,41.85084],[2.51348,41.85059],[2.51421,41.85032],[2.51457,41.85007],[2.51469,41.84976],[2.51453,41.84945],[2.51391,41.84916],[2.51353,41.84879],[2.51292,41.8473],[2.51256,41.8469],[2.51259,41.84662],[2.51282,41.84657],[2.51366,41.8459],[2.51428,41.8447],[2.50531,41.84793],[2.49736,41.84797],[2.49443,41.84714],[2.49028,41.84788],[2.4862,41.84879],[2.48554,41.84882],[2.48301,41.84844],[2.48222,41.84844],[2.4817,41.84856],[2.48104,41.84893],[2.47963,41.84949],[2.47924,41.84975],[2.47906,41.85016],[2.47699,41.85135],[2.47588,41.85245],[2.47387,41.85326],[2.47193,41.85351],[2.46841,41.85421],[2.46716,41.85455],[2.46633,41.8551],[2.46568,41.8559],[2.46581,41.85613],[2.46514,41.8602],[2.45134,41.86078],[2.4466,41.85967],[2.45435,41.8694],[2.45349,41.87398],[2.45353,41.87651],[2.45331,41.87676],[2.45357,41.87959],[2.45292,41.8801],[2.45297,41.88033],[2.4528,41.88044],[2.45243,41.88048],[2.45212,41.881],[2.45177,41.88118],[2.45133,41.88123],[2.45082,41.88161],[2.45035,41.88174],[2.4501,41.88204],[2.44944,41.88225],[2.44891,41.88282],[2.44817,41.88299],[2.44799,41.88334],[2.44748,41.88326],[2.44709,41.88349],[2.44704,41.88373],[2.44625,41.88374],[2.44591,41.8842],[2.4457,41.8843],[2.44533,41.88432],[2.44417,41.88545],[2.44383,41.88712],[2.44367,41.888],[2.44517,41.88901],[2.44622,41.88956],[2.44665,41.88958],[2.44752,41.88995],[2.44828,41.89059],[2.44935,41.89223],[2.44986,41.89242],[2.45015,41.8924],[2.45114,41.89264],[2.45266,41.892],[2.45308,41.89193],[2.4547,41.89195],[2.45583,41.89169],[2.45643,41.8914],[2.45651,41.89128],[2.45648,41.89091],[2.45682,41.89066],[2.45699,41.89008],[2.45672,41.88953],[2.45674,41.88904],[2.45692,41.88889],[2.45742,41.88883],[2.45804,41.88838],[2.45818,41.88798],[2.458,41.88745],[2.45874,41.88708],[2.459,41.88608],[2.45942,41.88585],[2.45993,41.88443],[2.46007,41.88433],[2.4607,41.88432],[2.46083,41.88405],[2.46129,41.88401],[2.4624,41.88429],[2.46333,41.88418],[2.4638,41.88376],[2.46401,41.88341],[2.46467,41.88312],[2.46476,41.88212],[2.46645,41.88084],[2.4693,41.87758],[2.47055,41.87658],[2.47219,41.87563],[2.47495,41.87506],[2.47682,41.87601],[2.47761,41.87653],[2.47808,41.87724],[2.47992,41.87799],[2.48093,41.87817],[2.48142,41.87796],[2.48171,41.87755],[2.48266,41.87757],[2.48322,41.87793],[2.48264,41.87849],[2.48246,41.87886],[2.48279,41.87903],[2.48334,41.87901],[2.48377,41.87915],[2.48328,41.87983],[2.48484,41.88169],[2.48524,41.88183],[2.48576,41.88161],[2.48649,41.8815],[2.48706,41.88151],[2.48834,41.88263],[2.48925,41.883],[2.49017,41.88312],[2.4925,41.8829],[2.49292,41.88304],[2.49285,41.88341],[2.49312,41.88424],[2.49377,41.88448],[2.49424,41.88427],[2.49439,41.88382],[2.49492,41.88346],[2.49654,41.88306],[2.49688,41.8831],[2.49778,41.88294],[2.49909,41.8829],[2.49945,41.88241],[2.49958,41.88168],[2.50013,41.88083],[2.502,41.87982],[2.50264,41.87963],[2.50493,41.87942],[2.50549,41.87901],[2.50574,41.87856],[2.50675,41.8781],[2.50699,41.87784],[2.5076,41.87763],[2.5085,41.87782],[2.50883,41.87801],[2.50932,41.87812],[2.51084,41.87897]]]}},{"type":"Feature","properties":{"id":"1716401003"},"geometry":{"type":"Polygon","coordinates":[[[2.52732,41.93023],[2.52895,41.92904],[2.53058,41.92758],[2.53158,41.92694],[2.53193,41.92656],[2.53205,41.92563],[2.53245,41.92411],[2.5328,41.92333],[2.53355,41.92236],[2.53411,41.92126],[2.53466,41.92083],[2.53473,41.92028],[2.53567,41.91958],[2.53619,41.91928],[2.53725,41.91887],[2.53789,41.91836],[2.53945,41.91672],[2.53948,41.91615],[2.53973,41.91565],[2.54051,41.9151],[2.54109,41.915],[2.54151,41.91481],[2.5421,41.91427],[2.54207,41.91364],[2.54163,41.91253],[2.54153,41.91199],[2.54151,41.91161],[2.54168,41.91102],[2.54203,41.91045],[2.54249,41.9104],[2.5428,41.9096],[2.543,41.90944],[2.54423,41.90913],[2.5444,41.909],[2.54446,41.90843],[2.54591,41.90772],[2.5462,41.90736],[2.54631,41.90668],[2.54709,41.90634],[2.54818,41.90611],[2.54927,41.90634],[2.5504,41.90691],[2.55211,41.90669],[2.55298,41.90643],[2.55404,41.90646],[2.55421,41.90628],[2.55441,41.9056],[2.55417,41.90532],[2.55419,41.90509],[2.55513,41.90446],[2.55641,41.90401],[2.55675,41.90373],[2.55756,41.90369],[2.55923,41.90312],[2.56141,41.90291],[2.56187,41.90268],[2.56349,41.90248],[2.56387,41.90248],[2.56477,41.9028],[2.56509,41.90281],[2.56682,41.90244],[2.56749,41.90258],[2.56808,41.90255],[2.57249,41.90303],[2.57397,41.90303],[2.57765,41.90365],[2.57794,41.90362],[2.57781,41.90235],[2.57725,41.90118],[2.57744,41.9007],[2.57762,41.89963],[2.57812,41.89981],[2.57703,41.89844],[2.5766,41.89828],[2.5767,41.89804],[2.57648,41.89689],[2.58037,41.89295],[2.58312,41.89229],[2.585,41.89169],[2.58801,41.89024],[2.5887,41.89025],[2.58903,41.89017],[2.59065,41.88943],[2.59343,41.8893],[2.59402,41.88884],[2.59518,41.88863],[2.59382,41.88802],[2.59119,41.88189],[2.59077,41.88113],[2.59048,41.88101],[2.58987,41.88113],[2.58976,41.8806],[2.58927,41.88067],[2.5889,41.88047],[2.58818,41.87982],[2.5877,41.87977],[2.58706,41.88003],[2.58631,41.88083],[2.58622,41.88025],[2.58658,41.87942],[2.58558,41.8793],[2.5847,41.87879],[2.58414,41.87874],[2.58258,41.87939],[2.58132,41.87898],[2.58075,41.87847],[2.58034,41.87849],[2.57985,41.87875],[2.5786,41.87811],[2.57726,41.87756],[2.57409,41.87668],[2.57244,41.87609],[2.57135,41.87585],[2.56973,41.87636],[2.56931,41.87659],[2.56861,41.87731],[2.56747,41.87713],[2.56683,41.87737],[2.56629,41.87773],[2.56595,41.87771],[2.56537,41.87744],[2.56434,41.8776],[2.56326,41.87793],[2.56133,41.87883],[2.5565,41.8697],[2.55072,41.86091],[2.54812,41.86046],[2.54726,41.86017],[2.54511,41.86097],[2.54436,41.86039],[2.54416,41.86059],[2.54432,41.86147],[2.54408,41.86171],[2.54329,41.86091],[2.54231,41.86025],[2.54175,41.86054],[2.54109,41.86063],[2.54003,41.86115],[2.53789,41.86065],[2.53719,41.86086],[2.53692,41.86139],[2.53647,41.86189],[2.53506,41.86307],[2.5345,41.86389],[2.53452,41.8645],[2.53424,41.86558],[2.5336,41.86562],[2.53322,41.86577],[2.53205,41.86646],[2.53187,41.86679],[2.53229,41.86805],[2.53215,41.86836],[2.53182,41.8687],[2.53114,41.86894],[2.53076,41.86928],[2.52987,41.86953],[2.52929,41.86948],[2.52885,41.86974],[2.52872,41.87073],[2.52835,41.87119],[2.52766,41.8715],[2.5266,41.87164],[2.52371,41.8713],[2.52204,41.8727],[2.51774,41.87174],[2.51654,41.87126],[2.51595,41.8707],[2.5155,41.86988],[2.5152,41.86998],[2.51486,41.8709],[2.51579,41.87193],[2.51434,41.87305],[2.51169,41.87834],[2.51084,41.87897],[2.51009,41.88181],[2.50787,41.88731],[2.50649,41.8894],[2.50595,41.88993],[2.50506,41.89055],[2.50509,41.89136],[2.50658,41.89207],[2.50653,41.89293],[2.50561,41.89416],[2.50456,41.89595],[2.50397,41.89633],[2.50421,41.89679],[2.50328,41.89764],[2.50244,41.89874],[2.50159,41.89922],[2.49995,41.89958],[2.49913,41.90016],[2.49903,41.90077],[2.4994,41.90206],[2.49992,41.90212],[2.50061,41.90203],[2.50097,41.90229],[2.50213,41.90269],[2.50287,41.90194],[2.50349,41.90149],[2.50453,41.90127],[2.50568,41.9012],[2.50651,41.90185],[2.5069,41.90239],[2.50651,41.90322],[2.50691,41.90378],[2.50734,41.90412],[2.5083,41.90443],[2.50913,41.90442],[2.51054,41.90459],[2.51117,41.90524],[2.51156,41.9062],[2.51153,41.90711],[2.51211,41.90765],[2.51314,41.90771],[2.5144,41.90803],[2.51533,41.90866],[2.51568,41.90952],[2.51582,41.91045],[2.51566,41.91173],[2.51517,41.91317],[2.51377,41.91432],[2.51166,41.91386],[2.5113,41.91444],[2.51175,41.91639],[2.51166,41.91689],[2.51001,41.91832],[2.50916,41.91917],[2.50869,41.91981],[2.50715,41.92029],[2.50662,41.92112],[2.5068,41.92144],[2.5085,41.92122],[2.50982,41.92131],[2.51015,41.92158],[2.51059,41.92231],[2.51112,41.92274],[2.51097,41.92295],[2.50982,41.9231],[2.51024,41.92447],[2.51054,41.92492],[2.51208,41.92539],[2.51275,41.92538],[2.51334,41.92548],[2.51341,41.92674],[2.51082,41.9272],[2.51192,41.92771],[2.51272,41.92827],[2.51304,41.92884],[2.51285,41.92914],[2.51244,41.92923],[2.51206,41.92909],[2.51148,41.92857],[2.51104,41.92832],[2.51028,41.92854],[2.51025,41.92878],[2.51161,41.92953],[2.51264,41.9299],[2.51498,41.93012],[2.51701,41.93044],[2.51745,41.9304],[2.52123,41.93125],[2.52195,41.93133],[2.52297,41.93135],[2.52425,41.93114],[2.52484,41.9309],[2.52732,41.93023]]]}}]}