{"type":"FeatureCollection","features":[{"type":"Feature","properties":{"id":"1718001001"},"geometry":{"type":"Polygon","coordinates":[[[2.66422,41.86635],[2.66318,41.86609],[2.66354,41.8646],[2.66396,41.86421],[2.66266,41.8637],[2.66267,41.86361],[2.66197,41.86326],[2.66031,41.86275],[2.65982,41.86377],[2.65649,41.86784],[2.65579,41.86888],[2.65548,41.86901],[2.65531,41.8695],[2.65424,41.86999],[2.65386,41.86988],[2.65403,41.87221],[2.65528,41.87205],[2.6561,41.87131],[2.65725,41.86988],[2.6581,41.86947],[2.65917,41.86988],[2.66393,41.87111],[2.66479,41.8696],[2.66214,41.86873],[2.66422,41.86635]]]}},{"type":"Feature","properties":{"id":"1718001002"},"geometry":{"type":"Polygon","coordinates":[[[2.6704,41.86369],[2.66756,41.86206],[2.66731,41.86199],[2.66787,41.86115],[2.66615,41.86166],[2.66562,41.86198],[2.66453,41.86233],[2.66383,41.86184],[2.66349,41.86118],[2.66292,41.85958],[2.66008,41.8579],[2.65886,41.85955],[2.65919,41.85994],[2.65863,41.86052],[2.6577,41.86132],[2.65596,41.8617],[2.66031,41.86275],[2.66197,41.86326],[2.66267,41.86361],[2.66266,41.8637],[2.66396,41.86421],[2.66354,41.8646],[2.66318,41.86609],[2.66422,41.86635],[2.66584,41.86521],[2.66707,41.86502],[2.6704,41.86369]]]}},{"type":"Feature","properties":{"id":"1718001003"},"geometry":{"type":"Polygon","coordinates":[[[2.66787,41.86115],[2.66779,41.86082],[2.6684,41.85961],[2.66512,41.8573],[2.66379,41.8565],[2.66325,41.85596],[2.6599,41.85782],[2.66292,41.85958],[2.66349,41.86118],[2.66383,41.86184],[2.66453,41.86233],[2.66562,41.86198],[2.66615,41.86166],[2.66787,41.86115]]]}},{"type":"Feature","properties":{"id":"1718001004"},"geometry":{"type":"Polygon","coordinates":[[[2.663,41.8556],[2.66379,41.8565],[2.66512,41.8573],[2.6684,41.85961],[2.66779,41.86082],[2.66784,41.86126],[2.66731,41.86199],[2.66756,41.86206],[2.6704,41.86369],[2.67303,41.86136],[2.67463,41.86075],[2.67638,41.85949],[2.68059,41.85686],[2.68119,41.85633],[2.68101,41.85629],[2.67776,41.85361],[2.67795,41.85349],[2.67787,41.85318],[2.67731,41.8531],[2.67331,41.84994],[2.6723,41.85072],[2.66958,41.85215],[2.6669,41.853],[2.66416,41.85428],[2.663,41.8556]]]}},{"type":"Feature","properties":{"id":"1718001005"},"geometry":{"type":"Polygon","coordinates":[[[2.6603,41.86278],[2.65596,41.8617],[2.65334,41.86293],[2.65167,41.86326],[2.65005,41.86339],[2.64823,41.86397],[2.64911,41.8656],[2.65139,41.86815],[2.65286,41.86962],[2.65424,41.86999],[2.65531,41.8695],[2.65548,41.86901],[2.65579,41.86888],[2.65649,41.86784],[2.65982,41.86377],[2.6603,41.86278]]]}},{"type":"Feature","properties":{"id":"1718001006"},"geometry":{"type":"Polygon","coordinates":[[[2.7025,41.87968],[2.70644,41.87408],[2.70673,41.87379],[2.70759,41.87397],[2.70776,41.87285],[2.7076,41.87282],[2.70754,41.87038],[2.70478,41.86433],[2.70417,41.8632],[2.70539,41.86314],[2.70584,41.863],[2.70595,41.86244],[2.70561,41.86212],[2.70551,41.86144],[2.7043,41.86076],[2.70362,41.86024],[2.70353,41.85979],[2.70365,41.8596],[2.70321,41.85948],[2.70246,41.85958],[2.70246,41.85419],[2.70229,41.85392],[2.70104,41.85272],[2.70075,41.8519],[2.70088,41.85102],[2.70149,41.85083],[2.70184,41.8505],[2.70274,41.85005],[2.69413,41.8458],[2.68763,41.84405],[2.68079,41.84205],[2.67932,41.84254],[2.67852,41.84263],[2.67831,41.84229],[2.67709,41.84211],[2.6768,41.8419],[2.67622,41.84101],[2.67435,41.84026],[2.67314,41.83993],[2.67258,41.83996],[2.67213,41.83925],[2.6695,41.8405],[2.66933,41.84094],[2.66948,41.84143],[2.67,41.84196],[2.6685,41.84224],[2.66799,41.84247],[2.66734,41.84306],[2.66648,41.84354],[2.66539,41.84338],[2.66506,41.84343],[2.6638,41.84413],[2.66326,41.84411],[2.66263,41.84386],[2.66038,41.84358],[2.65923,41.84456],[2.65746,41.8453],[2.64939,41.84668],[2.65022,41.84712],[2.65075,41.84765],[2.65096,41.84804],[2.65069,41.84855],[2.64988,41.84929],[2.64952,41.84942],[2.6463,41.84905],[2.64395,41.84836],[2.64347,41.84898],[2.6436,41.84978],[2.64314,41.85039],[2.64263,41.85078],[2.64064,41.85114],[2.64,41.85156],[2.63891,41.85133],[2.63749,41.8501],[2.63547,41.85084],[2.62812,41.85036],[2.62326,41.8406],[2.62388,41.83922],[2.62313,41.83852],[2.62425,41.83768],[2.6241,41.83684],[2.62424,41.83635],[2.62469,41.836],[2.62542,41.83581],[2.62661,41.83498],[2.62723,41.83422],[2.6188,41.83621],[2.61793,41.83451],[2.61652,41.8341],[2.61524,41.83335],[2.6141,41.83248],[2.61304,41.83232],[2.61235,41.83201],[2.61215,41.83153],[2.61201,41.83029],[2.6117,41.83003],[2.61117,41.82996],[2.60924,41.82927],[2.60817,41.82904],[2.60699,41.82936],[2.60604,41.82936],[2.60463,41.82999],[2.60252,41.83014],[2.60148,41.83062],[2.60111,41.83065],[2.60007,41.83052],[2.59832,41.83002],[2.59799,41.83006],[2.59771,41.83027],[2.5974,41.83031],[2.59612,41.82996],[2.59555,41.83012],[2.59433,41.83071],[2.59362,41.83156],[2.59271,41.83178],[2.59102,41.83336],[2.59061,41.83393],[2.59008,41.8341],[2.58878,41.83369],[2.58699,41.83354],[2.58523,41.83425],[2.58398,41.83395],[2.58299,41.83419],[2.58145,41.8358],[2.58118,41.83642],[2.58047,41.83675],[2.58009,41.8375],[2.57902,41.83843],[2.57521,41.83903],[2.57427,41.83929],[2.57117,41.84076],[2.5681,41.84174],[2.56725,41.8435],[2.56414,41.84371],[2.55911,41.849],[2.55639,41.85072],[2.55557,41.8532],[2.5543,41.85624],[2.55072,41.86091],[2.5565,41.8697],[2.56133,41.87883],[2.56326,41.87793],[2.56434,41.8776],[2.56537,41.87744],[2.56595,41.87771],[2.56629,41.87773],[2.56683,41.87737],[2.56747,41.87713],[2.56861,41.87731],[2.56931,41.87659],[2.56973,41.87636],[2.57135,41.87585],[2.57244,41.87609],[2.57409,41.87668],[2.57726,41.87756],[2.5786,41.87811],[2.57985,41.87875],[2.58034,41.87849],[2.58075,41.87847],[2.58132,41.87898],[2.58258,41.87939],[2.58414,41.87874],[2.5847,41.87879],[2.58558,41.8793],[2.58658,41.87942],[2.58622,41.88025],[2.58631,41.88083],[2.58706,41.88003],[2.5877,41.87977],[2.58818,41.87982],[2.5889,41.88047],[2.58927,41.88067],[2.58976,41.8806],[2.58987,41.88113],[2.59048,41.88101],[2.59077,41.88113],[2.59119,41.88189],[2.59382,41.88802],[2.59518,41.88863],[2.59402,41.88884],[2.59343,41.8893],[2.59065,41.88943],[2.58903,41.89017],[2.5887,41.89025],[2.58801,41.89024],[2.585,41.89169],[2.58312,41.89229],[2.58037,41.89295],[2.57648,41.89689],[2.5767,41.89804],[2.5766,41.89828],[2.57703,41.89844],[2.57823,41.89994],[2.57895,41.90027],[2.57904,41.90054],[2.57977,41.90059],[2.58015,41.90094],[2.58072,41.90089],[2.58099,41.90128],[2.58143,41.90108],[2.58134,41.90159],[2.58112,41.90187],[2.58115,41.90209],[2.5824,41.90241],[2.58333,41.90295],[2.58313,41.90377],[2.58317,41.90429],[2.5834,41.90509],[2.58293,41.90565],[2.58395,41.90698],[2.58566,41.90853],[2.58644,41.90856],[2.58894,41.90972],[2.58944,41.9106],[2.59071,41.91017],[2.59116,41.91013],[2.59162,41.9107],[2.59191,41.91084],[2.59285,41.91055],[2.59336,41.91067],[2.59393,41.91051],[2.59595,41.9116],[2.59666,41.91113],[2.59725,41.91098],[2.59833,41.91119],[2.59875,41.9111],[2.59988,41.91048],[2.60043,41.91031],[2.60279,41.91085],[2.60441,41.91079],[2.6058,41.91104],[2.60882,41.91055],[2.60977,41.91124],[2.61044,41.91132],[2.61067,41.91157],[2.61084,41.91248],[2.61144,41.91234],[2.61196,41.91187],[2.6126,41.9125],[2.61351,41.91288],[2.61683,41.9101],[2.61715,41.90952],[2.61753,41.90929],[2.6183,41.90928],[2.61812,41.90864],[2.6187,41.90797],[2.61997,41.90761],[2.62152,41.90737],[2.62272,41.90747],[2.62393,41.90722],[2.62544,41.90747],[2.62585,41.90707],[2.62675,41.90692],[2.62741,41.90611],[2.62779,41.90585],[2.62868,41.90565],[2.62959,41.90464],[2.63027,41.90442],[2.6304,41.90346],[2.63134,41.90266],[2.63256,41.902],[2.63252,41.9017],[2.63278,41.90131],[2.63455,41.90114],[2.63517,41.90121],[2.63605,41.90065],[2.63846,41.90006],[2.63913,41.89962],[2.63958,41.89962],[2.64036,41.89928],[2.64219,41.89923],[2.64286,41.89823],[2.64391,41.89787],[2.64543,41.89668],[2.64629,41.89675],[2.64822,41.89628],[2.65099,41.89511],[2.65101,41.89465],[2.65277,41.89342],[2.65327,41.89266],[2.65505,41.89084],[2.65581,41.88979],[2.65774,41.88963],[2.66118,41.89059],[2.6618,41.89047],[2.66355,41.89044],[2.66476,41.88958],[2.66556,41.88924],[2.66641,41.88911],[2.66718,41.88919],[2.66846,41.88852],[2.66909,41.88839],[2.66956,41.88861],[2.67023,41.88846],[2.67107,41.88809],[2.67194,41.88789],[2.6739,41.88771],[2.67554,41.88661],[2.67958,41.88432],[2.68057,41.88386],[2.68362,41.88305],[2.68671,41.88204],[2.69363,41.87779],[2.69724,41.87699],[2.69828,41.87659],[2.69859,41.87707],[2.7025,41.87968]],[[2.65386,41.86988],[2.65286,41.86962],[2.65139,41.86815],[2.64911,41.8656],[2.64823,41.86397],[2.65005,41.86339],[2.65167,41.86326],[2.65334,41.86293],[2.65596,41.8617],[2.6577,41.86132],[2.65919,41.85994],[2.65886,41.85955],[2.66008,41.8579],[2.6599,41.85782],[2.66325,41.85596],[2.663,41.8556],[2.66416,41.85428],[2.6669,41.853],[2.66958,41.85215],[2.6723,41.85072],[2.67331,41.84994],[2.67731,41.8531],[2.67787,41.85318],[2.67795,41.85349],[2.67776,41.85361],[2.68101,41.85629],[2.68119,41.85633],[2.68059,41.85686],[2.67638,41.85949],[2.67463,41.86075],[2.67303,41.86136],[2.6704,41.86369],[2.66707,41.86502],[2.66584,41.86521],[2.66422,41.86635],[2.66214,41.86873],[2.66479,41.8696],[2.66393,41.87111],[2.65917,41.86988],[2.6581,41.86947],[2.65725,41.86988],[2.6561,41.87131],[2.65528,41.87205],[2.65403,41.87221],[2.65386,41.86988]]]}}]}