{"type":"FeatureCollection","features":[{"type":"Feature","properties":{"id":"1720701001"},"geometry":{"type":"Polygon","coordinates":[[[2.48511,42.13627],[2.48875,42.13039],[2.49016,42.12895],[2.49094,42.12724],[2.4925,42.1261],[2.49235,42.12448],[2.49287,42.12295],[2.4935,42.12248],[2.49315,42.12167],[2.49304,42.12085],[2.48978,42.12027],[2.4882,42.11908],[2.48819,42.11821],[2.48711,42.1178],[2.48642,42.11743],[2.48469,42.11567],[2.48466,42.11476],[2.48279,42.11293],[2.48134,42.11206],[2.47962,42.1116],[2.47873,42.11123],[2.47791,42.1104],[2.47676,42.10944],[2.47581,42.10883],[2.47382,42.10688],[2.47334,42.10607],[2.47237,42.10307],[2.47535,42.09851],[2.47573,42.09746],[2.4768,42.09696],[2.4778,42.09632],[2.47904,42.09516],[2.47752,42.09288],[2.47762,42.09162],[2.47674,42.08966],[2.47876,42.08802],[2.47963,42.0864],[2.48118,42.08573],[2.48121,42.08481],[2.48109,42.08425],[2.48084,42.08384],[2.48026,42.08346],[2.47962,42.08332],[2.47872,42.0829],[2.47796,42.08021],[2.46706,42.07373],[2.46403,42.07594],[2.45857,42.07515],[2.45496,42.07791],[2.45387,42.07667],[2.45214,42.07721],[2.45,42.07739],[2.44934,42.07694],[2.44919,42.07749],[2.44923,42.07794],[2.44982,42.0804],[2.44993,42.0811],[2.44985,42.08146],[2.44924,42.08178],[2.44638,42.08153],[2.44598,42.08079],[2.4455,42.08055],[2.44366,42.08038],[2.44171,42.08126],[2.44097,42.08133],[2.44043,42.08151],[2.43974,42.08204],[2.43995,42.08303],[2.44121,42.08442],[2.44182,42.08521],[2.44216,42.08588],[2.44231,42.08673],[2.44215,42.08741],[2.44155,42.08767],[2.43995,42.08785],[2.43651,42.08858],[2.43547,42.08887],[2.43496,42.08926],[2.43467,42.0899],[2.43476,42.09042],[2.43531,42.09102],[2.43571,42.09173],[2.4354,42.09242],[2.43493,42.09269],[2.43427,42.09272],[2.43286,42.09296],[2.43273,42.09329],[2.43352,42.09421],[2.43391,42.09527],[2.43363,42.09597],[2.43303,42.09609],[2.43179,42.09603],[2.4314,42.09622],[2.43113,42.09663],[2.42944,42.09736],[2.42944,42.09794],[2.4299,42.09865],[2.43032,42.09969],[2.43174,42.10142],[2.42771,42.10129],[2.42606,42.1014],[2.42469,42.10152],[2.42359,42.102],[2.42193,42.10286],[2.42122,42.10361],[2.42149,42.10486],[2.42228,42.10621],[2.4237,42.10774],[2.42533,42.10914],[2.42669,42.11058],[2.42767,42.11177],[2.42904,42.11259],[2.43052,42.11372],[2.43206,42.11467],[2.43424,42.11545],[2.43936,42.11665],[2.4422,42.11721],[2.44262,42.11748],[2.44202,42.12027],[2.4424,42.12068],[2.4421,42.12168],[2.44299,42.12252],[2.44313,42.12297],[2.44249,42.12483],[2.44247,42.12625],[2.44261,42.12629],[2.443,42.12694],[2.44248,42.12792],[2.44662,42.12998],[2.45238,42.13421],[2.45391,42.13371],[2.46459,42.13156],[2.46532,42.1312],[2.46554,42.13051],[2.46623,42.13045],[2.46688,42.13026],[2.46884,42.12895],[2.47036,42.12896],[2.47229,42.12986],[2.47237,42.13055],[2.4739,42.13146],[2.47463,42.1312],[2.47474,42.13214],[2.47547,42.13239],[2.47636,42.13283],[2.47777,42.13316],[2.47927,42.13539],[2.47962,42.13539],[2.48093,42.13637],[2.48169,42.13676],[2.48248,42.13684],[2.48511,42.13627]]]}},{"type":"Feature","properties":{"id":"1720701002"},"geometry":{"type":"Polygon","coordinates":[[[2.44586,42.18859],[2.44794,42.18819],[2.44758,42.18762],[2.44794,42.18675],[2.4477,42.18609],[2.45179,42.18364],[2.45242,42.18276],[2.45323,42.18196],[2.45342,42.18134],[2.45162,42.17978],[2.45196,42.17793],[2.45193,42.17757],[2.45142,42.17695],[2.45203,42.17649],[2.45208,42.17481],[2.45371,42.17346],[2.45483,42.17004],[2.45351,42.1682],[2.45326,42.16759],[2.45328,42.16735],[2.45484,42.16433],[2.45503,42.16324],[2.45861,42.16104],[2.45808,42.15974],[2.45872,42.15869],[2.45955,42.15801],[2.45885,42.15716],[2.4589,42.15679],[2.45913,42.15661],[2.4618,42.15542],[2.46091,42.15303],[2.46153,42.15281],[2.46117,42.15205],[2.46164,42.15186],[2.46102,42.15094],[2.46213,42.15045],[2.46115,42.14886],[2.46078,42.14896],[2.46044,42.14882],[2.46031,42.14862],[2.45976,42.14878],[2.45863,42.14675],[2.45934,42.14654],[2.45838,42.14474],[2.45861,42.14429],[2.45821,42.14353],[2.45858,42.14341],[2.45752,42.14162],[2.45858,42.14101],[2.45878,42.14037],[2.45863,42.13998],[2.45849,42.13982],[2.45726,42.13937],[2.45659,42.1398],[2.45618,42.13953],[2.45593,42.13954],[2.45571,42.13918],[2.45462,42.13956],[2.45378,42.13829],[2.45489,42.13774],[2.45339,42.13506],[2.45337,42.13489],[2.4536,42.13473],[2.45365,42.13381],[2.45238,42.13421],[2.44662,42.12998],[2.44248,42.12792],[2.443,42.12694],[2.44261,42.12629],[2.44247,42.12625],[2.44249,42.12483],[2.44313,42.12297],[2.44299,42.12252],[2.4421,42.12168],[2.4424,42.12068],[2.44202,42.12027],[2.44262,42.11748],[2.4422,42.11721],[2.43936,42.11665],[2.43424,42.11545],[2.43206,42.11467],[2.43052,42.11372],[2.42904,42.11259],[2.42767,42.11177],[2.42669,42.11058],[2.42533,42.10914],[2.4237,42.10774],[2.42228,42.10621],[2.42149,42.10486],[2.42122,42.10361],[2.42193,42.10286],[2.42469,42.10152],[2.42771,42.10129],[2.43174,42.10142],[2.43032,42.09969],[2.4299,42.09865],[2.42944,42.09794],[2.42944,42.09736],[2.43113,42.09663],[2.4314,42.09622],[2.43179,42.09603],[2.43303,42.09609],[2.43363,42.09597],[2.43391,42.09527],[2.43352,42.09421],[2.43273,42.09329],[2.43286,42.09296],[2.43427,42.09272],[2.43493,42.09269],[2.4354,42.09242],[2.43571,42.09173],[2.43531,42.09102],[2.43476,42.09042],[2.43467,42.0899],[2.43496,42.08926],[2.43547,42.08887],[2.43651,42.08858],[2.43995,42.08785],[2.44155,42.08767],[2.44215,42.08741],[2.44231,42.08673],[2.44216,42.08588],[2.44182,42.08521],[2.44121,42.08442],[2.43995,42.08303],[2.43974,42.08204],[2.44043,42.08151],[2.44097,42.08133],[2.44171,42.08126],[2.44366,42.08038],[2.4455,42.08055],[2.44598,42.08079],[2.44638,42.08153],[2.44709,42.08164],[2.44924,42.08178],[2.44985,42.08146],[2.44993,42.0811],[2.44923,42.07794],[2.44919,42.07749],[2.44934,42.07694],[2.44877,42.07653],[2.44924,42.07469],[2.44897,42.07423],[2.44843,42.07393],[2.44767,42.07366],[2.44615,42.07335],[2.44382,42.07319],[2.44271,42.072],[2.43991,42.0703],[2.4364,42.06895],[2.4297,42.06394],[2.42879,42.06381],[2.42786,42.06421],[2.42734,42.06381],[2.42661,42.06236],[2.42578,42.06244],[2.42536,42.06313],[2.42429,42.06338],[2.42313,42.06312],[2.42098,42.06533],[2.41993,42.06497],[2.41756,42.06485],[2.41654,42.06763],[2.41511,42.06827],[2.41496,42.0689],[2.41255,42.06898],[2.41222,42.06837],[2.41138,42.0686],[2.41093,42.06915],[2.41089,42.06997],[2.40919,42.07082],[2.40855,42.07236],[2.40867,42.07349],[2.40775,42.0742],[2.40768,42.07605],[2.40667,42.07668],[2.40611,42.07876],[2.40428,42.07925],[2.40409,42.0801],[2.4004,42.0821],[2.39536,42.08676],[2.39762,42.08792],[2.39728,42.08855],[2.39629,42.08922],[2.39521,42.09119],[2.39561,42.09213],[2.39518,42.09265],[2.39538,42.09515],[2.40046,42.10215],[2.3999,42.10292],[2.39799,42.10313],[2.39512,42.10428],[2.38712,42.10404],[2.38528,42.10371],[2.38385,42.10359],[2.38361,42.10386],[2.38286,42.10356],[2.38168,42.1035],[2.38023,42.10371],[2.37951,42.10453],[2.37873,42.10496],[2.37784,42.10507],[2.37715,42.10583],[2.377,42.10651],[2.37701,42.10978],[2.37415,42.11326],[2.37464,42.11374],[2.37429,42.11428],[2.37433,42.11678],[2.37458,42.11676],[2.37485,42.11766],[2.37597,42.11829],[2.37593,42.11901],[2.37707,42.11923],[2.37744,42.12013],[2.37916,42.12113],[2.37931,42.12184],[2.38136,42.12357],[2.37431,42.12871],[2.37042,42.1284],[2.36834,42.12914],[2.36685,42.13025],[2.3658,42.13037],[2.35695,42.13442],[2.35129,42.13774],[2.34909,42.14394],[2.34984,42.14556],[2.34989,42.14738],[2.34913,42.14788],[2.35197,42.15095],[2.35327,42.1515],[2.35741,42.15448],[2.35786,42.15491],[2.35848,42.15676],[2.3585,42.15935],[2.3596,42.1596],[2.36026,42.15986],[2.36258,42.16029],[2.36521,42.16017],[2.36619,42.16055],[2.3688,42.16124],[2.37013,42.16125],[2.37129,42.16136],[2.37232,42.16168],[2.37321,42.16205],[2.37514,42.16329],[2.37495,42.16487],[2.37561,42.16637],[2.3773,42.16409],[2.37992,42.16495],[2.3814,42.16244],[2.38296,42.16371],[2.38451,42.16326],[2.38523,42.16476],[2.38591,42.16678],[2.38761,42.16816],[2.38998,42.16926],[2.39094,42.16847],[2.39404,42.16768],[2.39533,42.16718],[2.39624,42.16788],[2.39671,42.16878],[2.39797,42.16949],[2.40107,42.17179],[2.40359,42.174],[2.40434,42.17409],[2.4045,42.17505],[2.40684,42.17607],[2.40709,42.17719],[2.40791,42.17746],[2.4089,42.17793],[2.40921,42.17749],[2.4132,42.17712],[2.41366,42.17773],[2.41518,42.17779],[2.41744,42.17847],[2.42015,42.17886],[2.42155,42.17922],[2.42234,42.17969],[2.42253,42.18027],[2.42638,42.18113],[2.42763,42.18156],[2.42947,42.18186],[2.43121,42.18299],[2.43232,42.18455],[2.43235,42.18526],[2.43395,42.18638],[2.43641,42.18583],[2.43782,42.1859],[2.43869,42.18669],[2.43927,42.18738],[2.44037,42.18698],[2.4406,42.18613],[2.4404,42.18529],[2.44069,42.18471],[2.441,42.18461],[2.44175,42.18487],[2.44213,42.1852],[2.44243,42.18616],[2.44305,42.18695],[2.44343,42.18699],[2.44495,42.18631],[2.44535,42.18766],[2.44586,42.18859]]]}}]}