{"type":"FeatureCollection","features":[{"type":"Feature","properties":{"id":"1801401001"},"geometry":{"type":"Polygon","coordinates":[[[-3.64257,37.10701],[-3.6401,37.10579],[-3.63992,37.10552],[-3.63907,37.1053],[-3.63862,37.10501],[-3.63744,37.10397],[-3.63587,37.10325],[-3.63543,37.10257],[-3.63593,37.10232],[-3.63686,37.10154],[-3.63742,37.10174],[-3.63799,37.10183],[-3.64047,37.10147],[-3.64083,37.10024],[-3.64346,37.09989],[-3.64402,37.10018],[-3.64616,37.09948],[-3.6468,37.09781],[-3.64778,37.0972],[-3.64802,37.0968],[-3.64866,37.09631],[-3.64922,37.0951],[-3.64947,37.09476],[-3.65012,37.09443],[-3.65165,37.09416],[-3.65233,37.09269],[-3.65442,37.09021],[-3.65509,37.08954],[-3.65598,37.08889],[-3.65843,37.08656],[-3.65973,37.08569],[-3.66074,37.08527],[-3.66461,37.08395],[-3.66724,37.08278],[-3.67475,37.07772],[-3.67508,37.0767],[-3.67632,37.07654],[-3.67668,37.07619],[-3.6781,37.07414],[-3.67768,37.07385],[-3.67766,37.07375],[-3.67863,37.07237],[-3.67912,37.07137],[-3.6798,37.07046],[-3.68063,37.06865],[-3.6811,37.068],[-3.68394,37.0653],[-3.68512,37.06299],[-3.68765,37.05708],[-3.68833,37.05636],[-3.68898,37.05591],[-3.68922,37.05562],[-3.68946,37.05478],[-3.68953,37.05322],[-3.68978,37.05268],[-3.69082,37.05101],[-3.6911,37.05075],[-3.69209,37.05015],[-3.69327,37.04767],[-3.70005,37.0345],[-3.70031,37.03444],[-3.70633,37.03494],[-3.70972,37.03541],[-3.71028,37.0346],[-3.71055,37.03402],[-3.71121,37.0334],[-3.71312,37.0329],[-3.71336,37.03269],[-3.71364,37.03074],[-3.7138,37.03028],[-3.71414,37.02993],[-3.7148,37.02954],[-3.71748,37.02837],[-3.71891,37.02751],[-3.71963,37.02727],[-3.72164,37.02701],[-3.72419,37.02701],[-3.72519,37.02688],[-3.72483,37.02723],[-3.72462,37.02792],[-3.72461,37.02841],[-3.725,37.02884],[-3.72517,37.02941],[-3.72553,37.02975],[-3.72587,37.0305],[-3.72714,37.03009],[-3.72726,37.02995],[-3.7282,37.0299],[-3.73019,37.03043],[-3.73221,37.03055],[-3.7353,37.03096],[-3.7348,37.03111],[-3.73398,37.03159],[-3.73273,37.03254],[-3.7317,37.03307],[-3.72977,37.03427],[-3.72957,37.03442],[-3.72926,37.03514],[-3.72864,37.03536],[-3.7267,37.03549],[-3.72583,37.03612],[-3.7232,37.03875],[-3.72166,37.04083],[-3.72132,37.04143],[-3.72129,37.04182],[-3.72169,37.04215],[-3.72169,37.04234],[-3.72078,37.04286],[-3.7202,37.04336],[-3.71976,37.04357],[-3.71914,37.04413],[-3.71873,37.0455],[-3.71867,37.04632],[-3.71856,37.04653],[-3.71795,37.0471],[-3.71716,37.04728],[-3.71656,37.04772],[-3.71583,37.04893],[-3.71508,37.04918],[-3.71494,37.04933],[-3.71502,37.05002],[-3.71448,37.0505],[-3.71397,37.05059],[-3.71295,37.05046],[-3.71246,37.05052],[-3.71129,37.05016],[-3.70936,37.04988],[-3.70721,37.04935],[-3.70587,37.04861],[-3.70346,37.0477],[-3.70251,37.04748],[-3.70108,37.04679],[-3.69948,37.0462],[-3.69893,37.0467],[-3.69893,37.0469],[-3.69915,37.04721],[-3.69917,37.04765],[-3.69889,37.04809],[-3.69882,37.0488],[-3.69866,37.04914],[-3.69825,37.04969],[-3.69829,37.04994],[-3.69917,37.05119],[-3.69917,37.05163],[-3.69898,37.05298],[-3.69876,37.05318],[-3.69868,37.05366],[-3.69817,37.05456],[-3.69811,37.05537],[-3.69776,37.05566],[-3.69688,37.05598],[-3.69673,37.05677],[-3.69689,37.05746],[-3.6967,37.05772],[-3.69599,37.05801],[-3.69563,37.05861],[-3.69492,37.05902],[-3.69455,37.05976],[-3.6944,37.06033],[-3.69486,37.06123],[-3.69483,37.06155],[-3.69373,37.06287],[-3.69269,37.06468],[-3.69108,37.06635],[-3.69079,37.06804],[-3.69039,37.06855],[-3.69035,37.06875],[-3.68983,37.06914],[-3.6897,37.06961],[-3.68953,37.06981],[-3.68809,37.06994],[-3.68699,37.0699],[-3.68644,37.06996],[-3.68625,37.0701],[-3.68532,37.07161],[-3.6837,37.07314],[-3.68327,37.0737],[-3.68314,37.07436],[-3.6829,37.07464],[-3.6828,37.07502],[-3.68171,37.0761],[-3.68118,37.07643],[-3.68081,37.07681],[-3.67969,37.0787],[-3.67808,37.08106],[-3.67743,37.08181],[-3.67743,37.08194],[-3.67642,37.08235],[-3.67467,37.08326],[-3.67331,37.08464],[-3.67042,37.0868],[-3.6684,37.08754],[-3.66672,37.08852],[-3.6629,37.09046],[-3.65943,37.09477],[-3.65901,37.0957],[-3.65769,37.09708],[-3.65654,37.09754],[-3.65613,37.09805],[-3.65538,37.09914],[-3.65481,37.1007],[-3.6544,37.10099],[-3.65337,37.10147],[-3.65085,37.10257],[-3.64971,37.10324],[-3.64774,37.1039],[-3.64662,37.10441],[-3.64638,37.10462],[-3.64575,37.10564],[-3.6455,37.1068],[-3.6451,37.10742],[-3.64537,37.10792],[-3.64514,37.10844],[-3.64453,37.10886],[-3.64365,37.1083],[-3.64405,37.10787],[-3.64293,37.1074],[-3.64257,37.10701]]]}},{"type":"Feature","properties":{"id":"1801401002"},"geometry":{"type":"Polygon","coordinates":[[[-3.63797,37.11267],[-3.63799,37.11252],[-3.63948,37.11157],[-3.64471,37.10877],[-3.64528,37.10828],[-3.64537,37.10792],[-3.6451,37.10742],[-3.64539,37.10709],[-3.64549,37.1068],[-3.64583,37.10681],[-3.64577,37.10742],[-3.64612,37.10767],[-3.64695,37.10797],[-3.64749,37.10837],[-3.64766,37.10884],[-3.64868,37.10938],[-3.64899,37.10977],[-3.64931,37.11047],[-3.64867,37.11135],[-3.64789,37.1118],[-3.648,37.11281],[-3.6483,37.11331],[-3.64807,37.11351],[-3.64813,37.11387],[-3.64885,37.11464],[-3.64898,37.1149],[-3.64913,37.11626],[-3.64855,37.1163],[-3.64783,37.11569],[-3.64712,37.11543],[-3.64658,37.11536],[-3.64634,37.11515],[-3.64199,37.1146],[-3.64131,37.11439],[-3.63935,37.11353],[-3.63905,37.11379],[-3.63841,37.11302],[-3.63797,37.11267]]]}},{"type":"Feature","properties":{"id":"1801401003"},"geometry":{"type":"Polygon","coordinates":[[[-3.67194,37.1089],[-3.66983,37.10683],[-3.66829,37.10489],[-3.6662,37.10557],[-3.66539,37.10571],[-3.66373,37.10656],[-3.66311,37.10639],[-3.66084,37.1061],[-3.66063,37.10591],[-3.66024,37.10467],[-3.65734,37.10532],[-3.65533,37.10743],[-3.65415,37.1172],[-3.65166,37.11826],[-3.65052,37.11892],[-3.64892,37.11876],[-3.63422,37.11969],[-3.63402,37.11951],[-3.63367,37.11866],[-3.63326,37.11802],[-3.63185,37.1168],[-3.63182,37.11653],[-3.63157,37.11629],[-3.63064,37.11572],[-3.62991,37.11451],[-3.62941,37.11393],[-3.62841,37.11371],[-3.62827,37.11364],[-3.62838,37.11356],[-3.6267,37.11288],[-3.62569,37.11225],[-3.62526,37.11187],[-3.62442,37.11067],[-3.6241,37.10976],[-3.6232,37.10841],[-3.62311,37.10813],[-3.62347,37.1081],[-3.62523,37.10761],[-3.6257,37.10889],[-3.62611,37.1095],[-3.62652,37.10984],[-3.62673,37.10986],[-3.62715,37.11038],[-3.62779,37.11079],[-3.62933,37.11113],[-3.63001,37.11136],[-3.63073,37.11111],[-3.63123,37.11153],[-3.63178,37.11134],[-3.63225,37.11157],[-3.63381,37.11191],[-3.63642,37.11225],[-3.63763,37.11277],[-3.63783,37.11278],[-3.63797,37.11267],[-3.63841,37.11302],[-3.63905,37.11379],[-3.63935,37.11353],[-3.64131,37.11439],[-3.64199,37.1146],[-3.64634,37.11515],[-3.64658,37.11536],[-3.64712,37.11543],[-3.64783,37.11569],[-3.64855,37.1163],[-3.64913,37.11626],[-3.64898,37.1149],[-3.64885,37.11464],[-3.64813,37.11387],[-3.64807,37.11351],[-3.6483,37.11331],[-3.648,37.11281],[-3.64789,37.1118],[-3.64867,37.11135],[-3.64931,37.11047],[-3.64899,37.10977],[-3.64868,37.10938],[-3.64766,37.10884],[-3.64749,37.10837],[-3.64695,37.10797],[-3.64612,37.10767],[-3.64577,37.10742],[-3.64583,37.10681],[-3.6455,37.1068],[-3.64554,37.10658],[-3.64575,37.10564],[-3.64638,37.10462],[-3.64662,37.10441],[-3.64774,37.1039],[-3.64971,37.10324],[-3.65085,37.10257],[-3.65337,37.10147],[-3.6544,37.10099],[-3.65481,37.1007],[-3.65538,37.09914],[-3.65613,37.09805],[-3.65654,37.09754],[-3.65769,37.09708],[-3.65901,37.0957],[-3.65943,37.09477],[-3.6629,37.09046],[-3.66672,37.08852],[-3.6684,37.08754],[-3.67042,37.0868],[-3.67331,37.08464],[-3.67467,37.08326],[-3.67642,37.08235],[-3.67743,37.08194],[-3.67743,37.08181],[-3.67808,37.08106],[-3.67969,37.0787],[-3.68081,37.07681],[-3.68118,37.07643],[-3.68171,37.0761],[-3.6828,37.07502],[-3.6829,37.07464],[-3.68314,37.07436],[-3.68327,37.0737],[-3.6837,37.07314],[-3.68532,37.07161],[-3.68625,37.0701],[-3.68644,37.06996],[-3.68699,37.0699],[-3.68809,37.06994],[-3.68953,37.06981],[-3.6897,37.06961],[-3.68983,37.06914],[-3.69035,37.06875],[-3.69039,37.06855],[-3.69079,37.06804],[-3.69108,37.06635],[-3.69269,37.06468],[-3.69373,37.06287],[-3.69483,37.06155],[-3.69486,37.06123],[-3.6944,37.06033],[-3.69455,37.05976],[-3.69492,37.05902],[-3.69563,37.05861],[-3.69599,37.05801],[-3.6967,37.05772],[-3.69689,37.05746],[-3.69673,37.05677],[-3.69688,37.05598],[-3.69776,37.05566],[-3.69811,37.05537],[-3.69817,37.05456],[-3.69868,37.05366],[-3.69876,37.05318],[-3.69898,37.05298],[-3.69913,37.05226],[-3.69917,37.05119],[-3.69829,37.04994],[-3.69825,37.04969],[-3.69866,37.04914],[-3.69882,37.0488],[-3.69889,37.04809],[-3.69917,37.04765],[-3.69915,37.04721],[-3.69893,37.0469],[-3.69893,37.0467],[-3.69948,37.0462],[-3.69999,37.04634],[-3.70251,37.04748],[-3.70346,37.0477],[-3.70587,37.04861],[-3.70721,37.04935],[-3.70936,37.04988],[-3.71129,37.05016],[-3.71246,37.05052],[-3.71295,37.05046],[-3.71397,37.05059],[-3.71448,37.0505],[-3.71502,37.05002],[-3.71494,37.04933],[-3.71508,37.04918],[-3.71583,37.04893],[-3.71656,37.04772],[-3.71716,37.04728],[-3.71795,37.0471],[-3.71856,37.04653],[-3.71867,37.04632],[-3.71873,37.0455],[-3.71914,37.04413],[-3.71976,37.04357],[-3.7202,37.04336],[-3.72078,37.04286],[-3.72169,37.04234],[-3.72169,37.04215],[-3.72129,37.04182],[-3.72132,37.04143],[-3.72166,37.04083],[-3.7232,37.03875],[-3.72583,37.03612],[-3.7267,37.03549],[-3.72864,37.03536],[-3.72926,37.03514],[-3.72957,37.03442],[-3.72977,37.03427],[-3.7317,37.03307],[-3.73273,37.03254],[-3.73398,37.03159],[-3.7348,37.03111],[-3.7353,37.03096],[-3.73221,37.03055],[-3.73019,37.03043],[-3.7282,37.0299],[-3.72726,37.02995],[-3.72714,37.03009],[-3.72587,37.0305],[-3.72553,37.02975],[-3.72517,37.02941],[-3.725,37.02884],[-3.72461,37.02841],[-3.72462,37.02792],[-3.72483,37.02723],[-3.72519,37.02688],[-3.72771,37.02668],[-3.72932,37.02713],[-3.73019,37.02723],[-3.73091,37.02679],[-3.73149,37.02617],[-3.73195,37.02602],[-3.73315,37.02597],[-3.73474,37.02534],[-3.73584,37.02508],[-3.73626,37.02512],[-3.74118,37.02653],[-3.74225,37.02668],[-3.74252,37.02633],[-3.74292,37.02609],[-3.74589,37.02486],[-3.74681,37.02411],[-3.74795,37.02238],[-3.7491,37.02093],[-3.75025,37.01834],[-3.75111,37.01747],[-3.75164,37.01652],[-3.75168,37.01601],[-3.75148,37.01554],[-3.75073,37.0144],[-3.74876,37.01016],[-3.74853,37.00881],[-3.74861,37.00822],[-3.74878,37.00784],[-3.7499,37.00667],[-3.75052,37.00582],[-3.75215,37.00316],[-3.75302,37.00222],[-3.75337,37.00166],[-3.75367,37.00104],[-3.75387,37.0001],[-3.75381,36.99982],[-3.75403,36.99912],[-3.75433,36.99881],[-3.75569,36.99786],[-3.75628,36.9972],[-3.75643,36.99688],[-3.75644,36.99638],[-3.75609,36.99502],[-3.75618,36.99416],[-3.75681,36.99271],[-3.757,36.9917],[-3.75694,36.98981],[-3.75796,36.98743],[-3.75856,36.98635],[-3.7594,36.98543],[-3.7615,36.98396],[-3.76491,36.98529],[-3.76581,36.98696],[-3.76761,36.98688],[-3.76857,36.98797],[-3.76973,36.98772],[-3.77039,36.98875],[-3.77131,36.98875],[-3.77199,36.98912],[-3.77337,36.99137],[-3.77428,36.99255],[-3.77523,36.99617],[-3.77523,36.99648],[-3.77424,37.00163],[-3.76792,37.00646],[-3.76931,37.00995],[-3.76706,37.0154],[-3.76631,37.01643],[-3.76595,37.01666],[-3.76392,37.01693],[-3.76355,37.01713],[-3.76326,37.01742],[-3.7626,37.01914],[-3.7621,37.01963],[-3.76194,37.01993],[-3.76157,37.02241],[-3.76136,37.02315],[-3.76131,37.02498],[-3.76106,37.02529],[-3.75989,37.0254],[-3.75944,37.02549],[-3.75924,37.02567],[-3.75927,37.02591],[-3.75985,37.02689],[-3.76028,37.02736],[-3.76122,37.02812],[-3.76282,37.02899],[-3.76366,37.0296],[-3.76473,37.03081],[-3.76495,37.03123],[-3.76492,37.03165],[-3.76456,37.0323],[-3.76429,37.03519],[-3.76352,37.03495],[-3.76232,37.03483],[-3.75958,37.03501],[-3.75838,37.03501],[-3.75733,37.0349],[-3.75498,37.03435],[-3.75238,37.03545],[-3.75159,37.03567],[-3.7489,37.03488],[-3.74833,37.03515],[-3.74587,37.03578],[-3.74222,37.03626],[-3.7399,37.03643],[-3.73818,37.03687],[-3.73817,37.03732],[-3.73853,37.03748],[-3.73818,37.03891],[-3.73782,37.04118],[-3.73646,37.04186],[-3.73497,37.04246],[-3.735,37.04281],[-3.73543,37.04329],[-3.73509,37.044],[-3.73338,37.04605],[-3.73122,37.04839],[-3.73069,37.04947],[-3.73063,37.04998],[-3.73091,37.05175],[-3.73121,37.05234],[-3.73172,37.05295],[-3.73205,37.05352],[-3.73214,37.05393],[-3.7321,37.0545],[-3.73159,37.05573],[-3.73204,37.05644],[-3.73208,37.05722],[-3.7319,37.05756],[-3.73148,37.058],[-3.73195,37.05871],[-3.73216,37.05923],[-3.73221,37.05971],[-3.73144,37.06253],[-3.73241,37.06393],[-3.7328,37.06474],[-3.73298,37.06542],[-3.73263,37.0665],[-3.73206,37.06728],[-3.73188,37.06749],[-3.73106,37.06796],[-3.72984,37.06973],[-3.72891,37.06985],[-3.72775,37.07035],[-3.72725,37.07069],[-3.72695,37.07125],[-3.72676,37.07182],[-3.72672,37.0724],[-3.72744,37.07415],[-3.72756,37.07472],[-3.72757,37.07616],[-3.7197,37.08079],[-3.71829,37.08132],[-3.71724,37.08212],[-3.71363,37.08341],[-3.71326,37.08371],[-3.71269,37.08399],[-3.71103,37.08459],[-3.70908,37.08496],[-3.70837,37.08501],[-3.70709,37.08533],[-3.7043,37.08672],[-3.70202,37.08855],[-3.70068,37.09024],[-3.70001,37.09023],[-3.70006,37.09145],[-3.69997,37.09183],[-3.69987,37.09197],[-3.69895,37.09244],[-3.69893,37.09358],[-3.69739,37.09394],[-3.69687,37.09417],[-3.69592,37.09484],[-3.69732,37.09645],[-3.69764,37.09763],[-3.69756,37.09816],[-3.69687,37.09887],[-3.69586,37.09902],[-3.69505,37.10049],[-3.69508,37.10089],[-3.69542,37.10158],[-3.6954,37.10191],[-3.69485,37.10363],[-3.69219,37.10378],[-3.69236,37.1047],[-3.68982,37.10535],[-3.68957,37.10556],[-3.68914,37.10658],[-3.68877,37.10705],[-3.68819,37.10761],[-3.68765,37.10784],[-3.68715,37.10841],[-3.6871,37.10856],[-3.68738,37.10904],[-3.68611,37.10919],[-3.68523,37.10969],[-3.68332,37.10949],[-3.68209,37.10991],[-3.68182,37.10989],[-3.68182,37.10895],[-3.68164,37.10845],[-3.68131,37.10793],[-3.68054,37.10717],[-3.67988,37.10681],[-3.67948,37.10677],[-3.67883,37.10697],[-3.67625,37.1074],[-3.67474,37.10804],[-3.67344,37.10884],[-3.67255,37.10879],[-3.67194,37.1089]]]}},{"type":"Feature","properties":{"id":"1801401004"},"geometry":{"type":"Polygon","coordinates":[[[-3.63709,37.1125],[-3.6421,37.10678],[-3.64257,37.10701],[-3.64293,37.1074],[-3.64405,37.10787],[-3.64365,37.1083],[-3.6445,37.10883],[-3.64427,37.10904],[-3.64217,37.11007],[-3.63948,37.11157],[-3.63799,37.11252],[-3.63783,37.11278],[-3.63763,37.11277],[-3.63709,37.1125]]]}},{"type":"Feature","properties":{"id":"1801401005"},"geometry":{"type":"Polygon","coordinates":[[[-3.64214,37.10676],[-3.63709,37.1125],[-3.63611,37.11218],[-3.63381,37.11191],[-3.63239,37.1116],[-3.63178,37.11134],[-3.63123,37.11153],[-3.63073,37.11111],[-3.63001,37.11136],[-3.62933,37.11113],[-3.62779,37.11079],[-3.62715,37.11038],[-3.62673,37.10986],[-3.62652,37.10984],[-3.62611,37.1095],[-3.6257,37.10889],[-3.62523,37.10761],[-3.62537,37.10757],[-3.62591,37.10777],[-3.62661,37.10699],[-3.62825,37.10544],[-3.62859,37.10523],[-3.63067,37.1044],[-3.6329,37.10327],[-3.6339,37.1029],[-3.63543,37.10257],[-3.63587,37.10325],[-3.63744,37.10397],[-3.63862,37.10501],[-3.63907,37.1053],[-3.63992,37.10552],[-3.6401,37.10579],[-3.64214,37.10676]]]}},{"type":"Feature","properties":{"id":"1801401006"},"geometry":{"type":"Polygon","coordinates":[[[-3.62408,37.13367],[-3.63448,37.11995],[-3.63422,37.11969],[-3.64892,37.11876],[-3.65052,37.11892],[-3.65166,37.11826],[-3.65415,37.1172],[-3.65533,37.10743],[-3.65734,37.10532],[-3.66024,37.10467],[-3.66063,37.10591],[-3.66084,37.1061],[-3.66311,37.10639],[-3.66373,37.10656],[-3.66539,37.10571],[-3.6662,37.10557],[-3.66829,37.10489],[-3.66983,37.10683],[-3.67194,37.1089],[-3.67086,37.10841],[-3.66951,37.10876],[-3.6688,37.10906],[-3.66795,37.11005],[-3.66728,37.11104],[-3.66411,37.11483],[-3.6622,37.11571],[-3.66055,37.11693],[-3.65992,37.119],[-3.65952,37.11972],[-3.65922,37.11995],[-3.65869,37.12005],[-3.65769,37.12044],[-3.65638,37.12041],[-3.6555,37.12063],[-3.65448,37.12103],[-3.65364,37.12125],[-3.65302,37.12174],[-3.6521,37.12177],[-3.6504,37.12199],[-3.64936,37.12192],[-3.64672,37.1207],[-3.64646,37.12073],[-3.64557,37.12035],[-3.64448,37.12161],[-3.64368,37.12276],[-3.64266,37.12368],[-3.64198,37.12404],[-3.64026,37.12332],[-3.63955,37.12378],[-3.6391,37.12423],[-3.63816,37.12703],[-3.63689,37.12943],[-3.63231,37.13597],[-3.63112,37.13728],[-3.63061,37.13772],[-3.62988,37.13759],[-3.62928,37.13701],[-3.62861,37.13693],[-3.62808,37.13631],[-3.62513,37.13454],[-3.62408,37.13367]]]}}]}