{"type":"FeatureCollection","features":[{"type":"Feature","properties":{"id":"1804801001"},"geometry":{"type":"Polygon","coordinates":[[[-3.80149,37.20635],[-3.80405,37.20507],[-3.80399,37.20358],[-3.80363,37.20064],[-3.80624,37.20026],[-3.80784,37.20023],[-3.80793,37.20035],[-3.80892,37.2003],[-3.81008,37.20103],[-3.81008,37.20144],[-3.80979,37.20145],[-3.80981,37.20187],[-3.81017,37.20197],[-3.81024,37.20286],[-3.81062,37.20284],[-3.8105,37.19916],[-3.8109,37.19529],[-3.80297,37.19477],[-3.80317,37.19385],[-3.80346,37.19],[-3.80406,37.18472],[-3.80397,37.18318],[-3.80403,37.18094],[-3.80469,37.17627],[-3.8066,37.17401],[-3.80784,37.17285],[-3.80827,37.17182],[-3.80836,37.17085],[-3.80769,37.16965],[-3.80701,37.16677],[-3.80707,37.16529],[-3.80736,37.16425],[-3.80804,37.16286],[-3.80999,37.16006],[-3.81024,37.15949],[-3.81072,37.15543],[-3.81262,37.15431],[-3.81185,37.15237],[-3.81209,37.15204],[-3.81207,37.15137],[-3.8128,37.1499],[-3.81295,37.14845],[-3.81298,37.14678],[-3.81727,37.14593],[-3.82467,37.14652],[-3.8356,37.14773],[-3.84353,37.1479],[-3.84951,37.14746],[-3.85432,37.14404],[-3.85668,37.14249],[-3.86155,37.14674],[-3.86132,37.14741],[-3.86043,37.1517],[-3.86025,37.15336],[-3.86027,37.15445],[-3.86015,37.15481],[-3.85921,37.15592],[-3.85866,37.15675],[-3.85851,37.15716],[-3.8586,37.15888],[-3.85893,37.15914],[-3.85905,37.15937],[-3.8593,37.16045],[-3.85982,37.16179],[-3.85986,37.16307],[-3.86019,37.16397],[-3.86021,37.1643],[-3.85985,37.16644],[-3.86011,37.16827],[-3.85904,37.1679],[-3.85824,37.16715],[-3.85724,37.16675],[-3.85676,37.16666],[-3.85304,37.16409],[-3.85238,37.16381],[-3.85143,37.16378],[-3.84965,37.16412],[-3.8478,37.16478],[-3.84579,37.16562],[-3.84483,37.16625],[-3.84304,37.16601],[-3.84282,37.16608],[-3.84094,37.1676],[-3.84045,37.16847],[-3.8399,37.16894],[-3.83813,37.16959],[-3.83633,37.1699],[-3.83364,37.17004],[-3.82798,37.17104],[-3.82689,37.17111],[-3.82635,37.17263],[-3.82438,37.17703],[-3.82416,37.17909],[-3.82396,37.17945],[-3.8234,37.17999],[-3.82322,37.18029],[-3.82318,37.18072],[-3.82333,37.18211],[-3.82388,37.18444],[-3.82393,37.18567],[-3.82451,37.18801],[-3.82452,37.18844],[-3.82388,37.18971],[-3.82431,37.19055],[-3.82425,37.19144],[-3.82461,37.19281],[-3.8246,37.19332],[-3.82432,37.1942],[-3.82383,37.19514],[-3.82376,37.19559],[-3.82393,37.19788],[-3.82383,37.19846],[-3.82387,37.19877],[-3.82545,37.20094],[-3.82571,37.20202],[-3.82531,37.20251],[-3.8259,37.20401],[-3.82573,37.20438],[-3.82528,37.20433],[-3.82437,37.20397],[-3.82387,37.20396],[-3.82252,37.20413],[-3.82182,37.20376],[-3.82104,37.2031],[-3.82028,37.20303],[-3.817,37.2039],[-3.81668,37.20412],[-3.81639,37.20487],[-3.81591,37.20556],[-3.81532,37.20605],[-3.81498,37.20687],[-3.8148,37.20706],[-3.81448,37.20711],[-3.81356,37.20703],[-3.81216,37.20721],[-3.80907,37.20737],[-3.80783,37.20747],[-3.80612,37.20781],[-3.80386,37.20788],[-3.80318,37.20779],[-3.80286,37.20708],[-3.80149,37.20635]]]}},{"type":"Feature","properties":{"id":"1804801002"},"geometry":{"type":"Polygon","coordinates":[[[-3.80363,37.20064],[-3.80293,37.19655],[-3.80288,37.19513],[-3.80297,37.19477],[-3.8109,37.19529],[-3.8105,37.19916],[-3.81062,37.20284],[-3.81024,37.20286],[-3.81017,37.20197],[-3.80981,37.20187],[-3.80979,37.20145],[-3.81008,37.20144],[-3.81008,37.20103],[-3.80892,37.2003],[-3.80793,37.20035],[-3.80784,37.20023],[-3.80624,37.20026],[-3.80363,37.20064]]]}}]}