{"type":"FeatureCollection","features":[{"type":"Feature","properties":{"id":"1804601001"},"geometry":{"type":"Polygon","coordinates":[[[-2.78693,37.84431],[-2.78717,37.84416],[-2.78782,37.84414],[-2.78807,37.84207],[-2.7894,37.83977],[-2.79033,37.83907],[-2.79072,37.83714],[-2.79117,37.83561],[-2.79186,37.83383],[-2.79204,37.83272],[-2.79201,37.83143],[-2.79153,37.83037],[-2.79115,37.82845],[-2.79056,37.82619],[-2.79083,37.8258],[-2.79159,37.8255],[-2.79166,37.82519],[-2.79158,37.8249],[-2.79173,37.82405],[-2.79184,37.82384],[-2.79222,37.82371],[-2.79232,37.82359],[-2.79229,37.82341],[-2.79199,37.82326],[-2.79084,37.82322],[-2.79039,37.82325],[-2.7896,37.82363],[-2.78908,37.82372],[-2.78829,37.82375],[-2.78757,37.82366],[-2.78673,37.82374],[-2.78611,37.82359],[-2.78527,37.82332],[-2.78501,37.82311],[-2.78458,37.82238],[-2.78429,37.82226],[-2.7837,37.82245],[-2.78233,37.82232],[-2.78085,37.82191],[-2.77949,37.82105],[-2.77972,37.8205],[-2.77934,37.82037],[-2.77889,37.82038],[-2.77867,37.82023],[-2.7786,37.82005],[-2.7787,37.81987],[-2.77857,37.81957],[-2.77864,37.81925],[-2.77893,37.81901],[-2.78013,37.81885],[-2.78046,37.81873],[-2.78046,37.81771],[-2.78058,37.8177],[-2.781,37.81724],[-2.78164,37.81695],[-2.78221,37.81634],[-2.78228,37.81583],[-2.78157,37.81565],[-2.78133,37.81539],[-2.78073,37.81512],[-2.78042,37.81482],[-2.7807,37.81447],[-2.78152,37.81395],[-2.78194,37.81345],[-2.78208,37.81338],[-2.78276,37.81355],[-2.78313,37.81344],[-2.7832,37.81319],[-2.78301,37.81284],[-2.78299,37.81254],[-2.78355,37.8112],[-2.7835,37.81029],[-2.78388,37.81001],[-2.78413,37.80998],[-2.78489,37.80916],[-2.78536,37.80854],[-2.78548,37.80808],[-2.78572,37.80781],[-2.78726,37.80709],[-2.78819,37.80645],[-2.78827,37.80614],[-2.78673,37.80576],[-2.7852,37.80509],[-2.78408,37.80496],[-2.78379,37.80476],[-2.78362,37.80448],[-2.78341,37.80439],[-2.78296,37.80437],[-2.78248,37.80414],[-2.782,37.80404],[-2.78157,37.8038],[-2.78119,37.80382],[-2.78078,37.80405],[-2.78054,37.80363],[-2.77963,37.8033],[-2.77967,37.80256],[-2.77941,37.80196],[-2.77922,37.80177],[-2.77865,37.80156],[-2.77812,37.80152],[-2.77753,37.80156],[-2.77673,37.80183],[-2.77614,37.80233],[-2.77497,37.8029],[-2.77409,37.80352],[-2.77348,37.8043],[-2.77105,37.80532],[-2.77067,37.80309],[-2.76953,37.80289],[-2.76903,37.80259],[-2.76869,37.80231],[-2.76852,37.80173],[-2.7686,37.80139],[-2.76918,37.80147],[-2.76954,37.80142],[-2.76973,37.80124],[-2.76979,37.80101],[-2.76937,37.80061],[-2.7693,37.79955],[-2.76974,37.79833],[-2.76977,37.79748],[-2.77009,37.79718],[-2.76801,37.7968],[-2.76617,37.79686],[-2.76519,37.79699],[-2.76371,37.79696],[-2.76318,37.79676],[-2.76277,37.79624],[-2.76256,37.79556],[-2.7606,37.79476],[-2.75923,37.7945],[-2.75912,37.79428],[-2.75908,37.79337],[-2.75829,37.79278],[-2.75839,37.79249],[-2.7588,37.79236],[-2.75892,37.79221],[-2.75865,37.79215],[-2.75831,37.79226],[-2.75726,37.79229],[-2.75576,37.79065],[-2.75512,37.78945],[-2.75422,37.78826],[-2.75371,37.78777],[-2.74955,37.7875],[-2.74488,37.78749],[-2.73947,37.7871],[-2.73414,37.78601],[-2.72671,37.78299],[-2.72394,37.78127],[-2.72192,37.7796],[-2.7228,37.77819],[-2.72458,37.77381],[-2.73125,37.76368],[-2.73329,37.75945],[-2.73455,37.75531],[-2.73489,37.75296],[-2.73825,37.75217],[-2.7466,37.74379],[-2.75123,37.73798],[-2.75671,37.72842],[-2.75733,37.7269],[-2.76126,37.71846],[-2.76384,37.70921],[-2.7657,37.70932],[-2.77103,37.71007],[-2.77829,37.71123],[-2.77935,37.7115],[-2.78958,37.71463],[-2.79278,37.71588],[-2.79814,37.71817],[-2.80236,37.71973],[-2.80283,37.71997],[-2.80754,37.72289],[-2.81089,37.72741],[-2.81213,37.73002],[-2.81291,37.73193],[-2.81322,37.73243],[-2.81582,37.73577],[-2.81706,37.73726],[-2.82281,37.7436],[-2.82833,37.748],[-2.83538,37.7443],[-2.83664,37.74467],[-2.83685,37.74491],[-2.83683,37.7461],[-2.83784,37.74636],[-2.83786,37.74712],[-2.8383,37.7478],[-2.83869,37.74809],[-2.84035,37.74833],[-2.84058,37.74849],[-2.84123,37.74947],[-2.84116,37.75042],[-2.84126,37.75064],[-2.84206,37.75115],[-2.84321,37.75223],[-2.84392,37.75315],[-2.84431,37.75338],[-2.84475,37.75341],[-2.84809,37.75249],[-2.84903,37.75254],[-2.84962,37.75268],[-2.85004,37.75293],[-2.85042,37.75281],[-2.85063,37.75256],[-2.85095,37.75239],[-2.85308,37.75222],[-2.85426,37.7518],[-2.85482,37.75191],[-2.85835,37.75001],[-2.86016,37.74839],[-2.86077,37.74861],[-2.86181,37.74919],[-2.86277,37.7499],[-2.86321,37.75006],[-2.86453,37.75029],[-2.86597,37.75136],[-2.86747,37.75265],[-2.86836,37.75297],[-2.86892,37.75329],[-2.87043,37.75456],[-2.87361,37.75687],[-2.87588,37.7582],[-2.87707,37.75878],[-2.87758,37.75957],[-2.87796,37.75957],[-2.87833,37.75969],[-2.87883,37.75973],[-2.87968,37.75952],[-2.88029,37.75995],[-2.87986,37.76091],[-2.87848,37.76548],[-2.87798,37.76815],[-2.87763,37.77153],[-2.87739,37.77188],[-2.87677,37.77242],[-2.87644,37.7729],[-2.87484,37.77815],[-2.87604,37.78287],[-2.87601,37.78337],[-2.87536,37.78538],[-2.8747,37.78602],[-2.87462,37.78661],[-2.87479,37.78731],[-2.87418,37.78821],[-2.87394,37.7888],[-2.87356,37.79078],[-2.87316,37.79149],[-2.8703,37.79456],[-2.86965,37.79549],[-2.86884,37.79639],[-2.86682,37.7984],[-2.86313,37.80129],[-2.85945,37.80441],[-2.85922,37.80478],[-2.8591,37.80548],[-2.8589,37.80587],[-2.85845,37.80632],[-2.85757,37.80694],[-2.85753,37.80752],[-2.85776,37.8084],[-2.85769,37.80886],[-2.85696,37.80989],[-2.85529,37.81101],[-2.85471,37.81123],[-2.854,37.81113],[-2.8529,37.81144],[-2.85073,37.81277],[-2.85032,37.8131],[-2.84822,37.81378],[-2.84736,37.81391],[-2.84678,37.81448],[-2.84517,37.81646],[-2.84355,37.81773],[-2.84239,37.81906],[-2.84059,37.8214],[-2.83986,37.82778],[-2.83958,37.82867],[-2.83685,37.82912],[-2.83581,37.82955],[-2.83435,37.83062],[-2.83382,37.83134],[-2.83353,37.83195],[-2.83324,37.8339],[-2.83327,37.83487],[-2.83287,37.83552],[-2.83208,37.83634],[-2.83139,37.83687],[-2.83086,37.83701],[-2.82941,37.83695],[-2.82889,37.83717],[-2.83015,37.83834],[-2.83038,37.83868],[-2.83047,37.83917],[-2.8297,37.84018],[-2.82809,37.84172],[-2.82771,37.84247],[-2.82757,37.84345],[-2.82721,37.84401],[-2.82666,37.84427],[-2.82481,37.84483],[-2.82439,37.84509],[-2.82345,37.846],[-2.82197,37.84791],[-2.82038,37.85077],[-2.81973,37.85293],[-2.81973,37.85549],[-2.81984,37.85592],[-2.82031,37.85675],[-2.82162,37.85793],[-2.82141,37.85882],[-2.82071,37.86031],[-2.82017,37.86335],[-2.82032,37.86546],[-2.82012,37.86728],[-2.81784,37.87178],[-2.81777,37.87231],[-2.81818,37.87394],[-2.81883,37.87511],[-2.81961,37.87614],[-2.817,37.87738],[-2.81644,37.87759],[-2.81529,37.87783],[-2.81432,37.87657],[-2.81326,37.87488],[-2.8124,37.87381],[-2.81102,37.87247],[-2.8092,37.87075],[-2.80484,37.86782],[-2.80036,37.86623],[-2.7961,37.86442],[-2.78977,37.86157],[-2.78668,37.85823],[-2.78517,37.85583],[-2.78445,37.85424],[-2.7844,37.8535],[-2.78486,37.85159],[-2.78581,37.84938],[-2.78573,37.84875],[-2.78585,37.84841],[-2.78606,37.84631],[-2.78693,37.84431]]]}},{"type":"Feature","properties":{"id":"1804602001"},"geometry":{"type":"Polygon","coordinates":[[[-2.69145,37.97281],[-2.69225,37.97159],[-2.69293,37.9696],[-2.69326,37.96919],[-2.69417,37.96867],[-2.69456,37.96817],[-2.69506,37.96695],[-2.69499,37.96608],[-2.69483,37.96556],[-2.69371,37.96361],[-2.69264,37.95905],[-2.69229,37.95626],[-2.68983,37.95021],[-2.68887,37.94806],[-2.68759,37.9461],[-2.68475,37.94255],[-2.68389,37.94089],[-2.68377,37.94036],[-2.684,37.93944],[-2.6843,37.93877],[-2.68518,37.93775],[-2.68661,37.93639],[-2.68767,37.93582],[-2.69056,37.93267],[-2.69253,37.93135],[-2.69291,37.93096],[-2.6942,37.92794],[-2.69489,37.92696],[-2.69541,37.92438],[-2.69606,37.92347],[-2.6976,37.92219],[-2.7009,37.92068],[-2.70427,37.91876],[-2.70478,37.91745],[-2.70534,37.91661],[-2.70653,37.91521],[-2.70798,37.91407],[-2.7108,37.91136],[-2.7113,37.91102],[-2.71275,37.91032],[-2.71649,37.90744],[-2.71771,37.90671],[-2.7195,37.90595],[-2.71963,37.90463],[-2.72002,37.90259],[-2.72112,37.90027],[-2.72289,37.8979],[-2.723,37.89761],[-2.72355,37.89443],[-2.7245,37.89096],[-2.72477,37.89034],[-2.72667,37.88802],[-2.72676,37.88757],[-2.72649,37.88648],[-2.72679,37.88536],[-2.72704,37.88485],[-2.72737,37.88448],[-2.7286,37.88334],[-2.72896,37.88315],[-2.7261,37.88072],[-2.72514,37.8798],[-2.72448,37.87893],[-2.72512,37.87781],[-2.72652,37.87456],[-2.72478,37.87403],[-2.72274,37.87252],[-2.7225,37.87243],[-2.72036,37.87245],[-2.71558,37.87225],[-2.71502,37.87229],[-2.71479,37.87241],[-2.71436,37.87238],[-2.7129,37.8717],[-2.71129,37.87057],[-2.70837,37.86777],[-2.70801,37.86725],[-2.70732,37.86574],[-2.7068,37.86512],[-2.70553,37.86413],[-2.70446,37.86345],[-2.70366,37.86264],[-2.70212,37.85974],[-2.69784,37.85629],[-2.6966,37.85543],[-2.69558,37.85492],[-2.69675,37.85369],[-2.69731,37.85245],[-2.69948,37.85064],[-2.70179,37.84852],[-2.70281,37.8479],[-2.70463,37.84697],[-2.70549,37.84638],[-2.70608,37.84529],[-2.70634,37.84423],[-2.7065,37.84273],[-2.70763,37.84116],[-2.70781,37.84034],[-2.70919,37.83791],[-2.70949,37.837],[-2.71041,37.8349],[-2.7109,37.83292],[-2.71078,37.83222],[-2.7103,37.83149],[-2.70953,37.82959],[-2.70895,37.82871],[-2.70841,37.82763],[-2.70822,37.82692],[-2.70826,37.82597],[-2.70898,37.82425],[-2.71052,37.82145],[-2.71166,37.81885],[-2.71231,37.81751],[-2.71302,37.81635],[-2.71352,37.81516],[-2.71543,37.80835],[-2.71515,37.80198],[-2.71376,37.795],[-2.71717,37.7885],[-2.71952,37.78346],[-2.72192,37.7796],[-2.72394,37.78127],[-2.72671,37.78299],[-2.73414,37.78601],[-2.73947,37.7871],[-2.74488,37.78749],[-2.74955,37.7875],[-2.75371,37.78777],[-2.75422,37.78826],[-2.75512,37.78945],[-2.75576,37.79065],[-2.75726,37.79229],[-2.75831,37.79226],[-2.75865,37.79215],[-2.75892,37.79221],[-2.7588,37.79236],[-2.75839,37.79249],[-2.75829,37.79278],[-2.75908,37.79337],[-2.75912,37.79428],[-2.75923,37.7945],[-2.7606,37.79476],[-2.76256,37.79556],[-2.76277,37.79624],[-2.76318,37.79676],[-2.76371,37.79696],[-2.76519,37.79699],[-2.76617,37.79686],[-2.76801,37.7968],[-2.77009,37.79718],[-2.76977,37.79748],[-2.76974,37.79833],[-2.7693,37.79955],[-2.76937,37.80061],[-2.76979,37.80101],[-2.76973,37.80124],[-2.76954,37.80142],[-2.76918,37.80147],[-2.7686,37.80139],[-2.76852,37.80173],[-2.76869,37.80231],[-2.76903,37.80259],[-2.76953,37.80289],[-2.77067,37.80309],[-2.77105,37.80532],[-2.77348,37.8043],[-2.77409,37.80352],[-2.77497,37.8029],[-2.77614,37.80233],[-2.77673,37.80183],[-2.77753,37.80156],[-2.77812,37.80152],[-2.77865,37.80156],[-2.77922,37.80177],[-2.77941,37.80196],[-2.77967,37.80256],[-2.77963,37.8033],[-2.78054,37.80363],[-2.78078,37.80405],[-2.78119,37.80382],[-2.78157,37.8038],[-2.782,37.80404],[-2.78248,37.80414],[-2.78296,37.80437],[-2.78341,37.80439],[-2.78362,37.80448],[-2.78379,37.80476],[-2.78408,37.80496],[-2.7852,37.80509],[-2.78673,37.80576],[-2.78827,37.80614],[-2.78819,37.80645],[-2.78726,37.80709],[-2.78572,37.80781],[-2.78548,37.80808],[-2.78536,37.80854],[-2.78489,37.80916],[-2.78413,37.80998],[-2.78388,37.81001],[-2.7835,37.81029],[-2.78355,37.8112],[-2.78299,37.81254],[-2.78301,37.81284],[-2.7832,37.81319],[-2.78313,37.81344],[-2.78276,37.81355],[-2.78208,37.81338],[-2.78194,37.81345],[-2.78152,37.81395],[-2.7807,37.81447],[-2.78042,37.81482],[-2.78073,37.81512],[-2.78133,37.81539],[-2.78157,37.81565],[-2.78228,37.81583],[-2.78221,37.81634],[-2.78164,37.81695],[-2.781,37.81724],[-2.78058,37.8177],[-2.78046,37.81771],[-2.78046,37.81873],[-2.78013,37.81885],[-2.77893,37.81901],[-2.77864,37.81925],[-2.77857,37.81957],[-2.7787,37.81987],[-2.7786,37.82005],[-2.77867,37.82023],[-2.77889,37.82038],[-2.77934,37.82037],[-2.77972,37.8205],[-2.77949,37.82105],[-2.78085,37.82191],[-2.78233,37.82232],[-2.7837,37.82245],[-2.78429,37.82226],[-2.78458,37.82238],[-2.78501,37.82311],[-2.78527,37.82332],[-2.78611,37.82359],[-2.78673,37.82374],[-2.78757,37.82366],[-2.78829,37.82375],[-2.78908,37.82372],[-2.7896,37.82363],[-2.79039,37.82325],[-2.79084,37.82322],[-2.79199,37.82326],[-2.79229,37.82341],[-2.79232,37.82359],[-2.79222,37.82371],[-2.79184,37.82384],[-2.79173,37.82405],[-2.79158,37.8249],[-2.79166,37.82519],[-2.79159,37.8255],[-2.79083,37.8258],[-2.79056,37.82619],[-2.79115,37.82845],[-2.79153,37.83037],[-2.79201,37.83143],[-2.79204,37.83272],[-2.79186,37.83383],[-2.79117,37.83561],[-2.79072,37.83714],[-2.79033,37.83907],[-2.7894,37.83977],[-2.78907,37.84022],[-2.78807,37.84207],[-2.78782,37.84414],[-2.78717,37.84416],[-2.78693,37.84431],[-2.78606,37.84631],[-2.78585,37.84841],[-2.78573,37.84875],[-2.78581,37.84938],[-2.78486,37.85159],[-2.7844,37.8535],[-2.78445,37.85424],[-2.78476,37.85505],[-2.78668,37.85823],[-2.78977,37.86157],[-2.7961,37.86442],[-2.80036,37.86623],[-2.80484,37.86782],[-2.8092,37.87075],[-2.81102,37.87247],[-2.8124,37.87381],[-2.81326,37.87488],[-2.81432,37.87657],[-2.81529,37.87783],[-2.81447,37.87821],[-2.81173,37.87879],[-2.81057,37.87845],[-2.8096,37.87935],[-2.80764,37.87993],[-2.80624,37.88094],[-2.8054,37.88245],[-2.80426,37.88394],[-2.80347,37.88549],[-2.80054,37.88833],[-2.79988,37.88926],[-2.79949,37.89004],[-2.79927,37.89214],[-2.79867,37.89426],[-2.79861,37.89592],[-2.79714,37.89827],[-2.79654,37.89947],[-2.79644,37.90071],[-2.79617,37.90147],[-2.79546,37.90279],[-2.79438,37.90396],[-2.79333,37.90472],[-2.79242,37.90512],[-2.7897,37.90695],[-2.78924,37.90738],[-2.78885,37.90804],[-2.7888,37.909],[-2.7885,37.91045],[-2.78704,37.91346],[-2.78509,37.91704],[-2.78372,37.91856],[-2.78151,37.92036],[-2.77883,37.92225],[-2.77634,37.92425],[-2.77431,37.92558],[-2.7732,37.92594],[-2.77255,37.92557],[-2.77265,37.92508],[-2.7703,37.92401],[-2.76862,37.92281],[-2.76821,37.92228],[-2.76724,37.92027],[-2.76745,37.91935],[-2.76717,37.91934],[-2.76689,37.91958],[-2.76655,37.92014],[-2.76616,37.9205],[-2.76467,37.92096],[-2.76285,37.9218],[-2.76145,37.92278],[-2.75936,37.92399],[-2.75899,37.92457],[-2.75744,37.92591],[-2.7556,37.92667],[-2.75477,37.92743],[-2.75402,37.92832],[-2.75346,37.92924],[-2.75248,37.93121],[-2.75081,37.93196],[-2.74864,37.93316],[-2.74432,37.93491],[-2.74373,37.93523],[-2.74315,37.93578],[-2.74204,37.9373],[-2.74107,37.93969],[-2.73946,37.94158],[-2.73908,37.94278],[-2.7389,37.94429],[-2.73876,37.94459],[-2.73786,37.94573],[-2.73761,37.94626],[-2.73668,37.94733],[-2.73421,37.94908],[-2.73205,37.94853],[-2.7313,37.94885],[-2.72924,37.95354],[-2.72807,37.9553],[-2.72778,37.95549],[-2.72589,37.95532],[-2.72418,37.95583],[-2.72412,37.957],[-2.72286,37.96246],[-2.71873,37.9637],[-2.71556,37.96223],[-2.7154,37.96275],[-2.71484,37.96373],[-2.71403,37.9647],[-2.71023,37.96793],[-2.70943,37.9678],[-2.70804,37.96727],[-2.70745,37.96717],[-2.7061,37.96733],[-2.70391,37.96925],[-2.70267,37.97153],[-2.69941,37.97245],[-2.69426,37.97445],[-2.69224,37.97336],[-2.69145,37.97281]]]}}]}