{"type":"FeatureCollection","features":[{"type":"Feature","properties":{"id":"1807901001"},"geometry":{"type":"Polygon","coordinates":[[[-3.78308,37.21847],[-3.78416,37.22067],[-3.78313,37.22105],[-3.78154,37.22184],[-3.78088,37.22237],[-3.77874,37.22346],[-3.77865,37.22426],[-3.7789,37.22473],[-3.78155,37.2276],[-3.78424,37.22953],[-3.78788,37.23091],[-3.78924,37.23162],[-3.78934,37.23184],[-3.79,37.23246],[-3.79008,37.23266],[-3.78626,37.23446],[-3.78102,37.23481],[-3.78086,37.23371],[-3.77929,37.23333],[-3.77795,37.23287],[-3.77709,37.2319],[-3.77575,37.2313],[-3.77524,37.23089],[-3.77552,37.23056],[-3.77273,37.22903],[-3.77106,37.22837],[-3.76936,37.22791],[-3.76753,37.22779],[-3.76746,37.22755],[-3.76655,37.22741],[-3.76532,37.22741],[-3.76404,37.2276],[-3.7639,37.22658],[-3.76371,37.22643],[-3.76232,37.22633],[-3.76144,37.22614],[-3.761,37.22595],[-3.75836,37.22609],[-3.7581,37.22524],[-3.75723,37.2248],[-3.7555,37.22354],[-3.7542,37.22299],[-3.75259,37.22276],[-3.75164,37.22327],[-3.74944,37.22355],[-3.74795,37.22328],[-3.74673,37.2232],[-3.74547,37.22321],[-3.74411,37.22333],[-3.74257,37.22324],[-3.73913,37.22257],[-3.73779,37.22213],[-3.73613,37.22126],[-3.73546,37.22059],[-3.73429,37.21987],[-3.73325,37.2194],[-3.73243,37.21947],[-3.73178,37.21903],[-3.73107,37.21876],[-3.73016,37.21797],[-3.72915,37.21756],[-3.72873,37.21751],[-3.72784,37.21761],[-3.72661,37.21864],[-3.72546,37.21845],[-3.72337,37.21792],[-3.72485,37.21509],[-3.72878,37.21544],[-3.72921,37.21542],[-3.72944,37.21532],[-3.72961,37.21511],[-3.72988,37.21507],[-3.73164,37.21644],[-3.73299,37.21698],[-3.73478,37.21797],[-3.73485,37.2182],[-3.73467,37.21862],[-3.73674,37.22001],[-3.73779,37.21937],[-3.7395,37.22023],[-3.74063,37.22057],[-3.74092,37.22053],[-3.74137,37.2202],[-3.74152,37.21963],[-3.74096,37.21917],[-3.73932,37.21837],[-3.73861,37.21764],[-3.73842,37.21726],[-3.73844,37.21695],[-3.73866,37.21659],[-3.73932,37.2159],[-3.73965,37.21573],[-3.74065,37.21565],[-3.74277,37.21619],[-3.74426,37.21635],[-3.74629,37.21597],[-3.74695,37.216],[-3.74735,37.2161],[-3.74772,37.21634],[-3.74808,37.21693],[-3.74801,37.21821],[-3.74792,37.21832],[-3.74756,37.21842],[-3.74749,37.21859],[-3.74752,37.21896],[-3.74779,37.21959],[-3.74841,37.21987],[-3.74884,37.21994],[-3.75046,37.21966],[-3.75157,37.21965],[-3.75189,37.21979],[-3.75264,37.22045],[-3.75263,37.22081],[-3.75455,37.22069],[-3.75507,37.22074],[-3.75539,37.22086],[-3.756,37.22153],[-3.75706,37.22172],[-3.75772,37.22194],[-3.75659,37.21775],[-3.75442,37.21683],[-3.75311,37.21651],[-3.75237,37.21591],[-3.75135,37.21397],[-3.75082,37.21259],[-3.75091,37.21218],[-3.7515,37.21118],[-3.75231,37.2103],[-3.75386,37.21039],[-3.7547,37.21034],[-3.75616,37.20997],[-3.75786,37.20926],[-3.75886,37.209],[-3.76129,37.20876],[-3.76428,37.20884],[-3.76529,37.20836],[-3.76573,37.208],[-3.76646,37.2079],[-3.76697,37.20766],[-3.76731,37.20766],[-3.76798,37.20802],[-3.76822,37.208],[-3.7685,37.20775],[-3.76865,37.20684],[-3.76908,37.20625],[-3.76937,37.20614],[-3.7698,37.20613],[-3.77072,37.2064],[-3.77098,37.20658],[-3.7715,37.20736],[-3.77216,37.20796],[-3.77275,37.20817],[-3.77376,37.20831],[-3.77421,37.20819],[-3.77439,37.20793],[-3.77513,37.20771],[-3.77584,37.20801],[-3.77643,37.20879],[-3.77735,37.20915],[-3.77852,37.20925],[-3.77906,37.20914],[-3.77947,37.20899],[-3.78009,37.20854],[-3.78056,37.20803],[-3.78081,37.20797],[-3.78529,37.20881],[-3.78508,37.20928],[-3.78502,37.20989],[-3.78527,37.21145],[-3.78495,37.21194],[-3.78415,37.21203],[-3.78233,37.21246],[-3.78178,37.2129],[-3.78137,37.21355],[-3.78149,37.21628],[-3.78239,37.216],[-3.7833,37.21585],[-3.78308,37.21847]]]}},{"type":"Feature","properties":{"id":"1807901002"},"geometry":{"type":"Polygon","coordinates":[[[-3.79008,37.23266],[-3.79,37.23246],[-3.78934,37.23184],[-3.78924,37.23162],[-3.78788,37.23091],[-3.78424,37.22953],[-3.78155,37.2276],[-3.7789,37.22473],[-3.77865,37.22426],[-3.77874,37.22346],[-3.78088,37.22237],[-3.78154,37.22184],[-3.78313,37.22105],[-3.78416,37.22067],[-3.78324,37.21899],[-3.78345,37.21882],[-3.78421,37.21859],[-3.78631,37.21892],[-3.79034,37.22091],[-3.79264,37.22136],[-3.7934,37.2212],[-3.79412,37.22161],[-3.79622,37.22175],[-3.79679,37.22133],[-3.79741,37.22132],[-3.80047,37.22233],[-3.804,37.22181],[-3.80658,37.22225],[-3.8083,37.22217],[-3.80977,37.22197],[-3.81068,37.22211],[-3.81183,37.22214],[-3.81337,37.22295],[-3.81254,37.22375],[-3.81231,37.22409],[-3.812,37.22529],[-3.81207,37.22694],[-3.81185,37.22764],[-3.81082,37.22852],[-3.81061,37.22936],[-3.81037,37.22968],[-3.80971,37.22997],[-3.8089,37.23109],[-3.80836,37.23147],[-3.80772,37.23209],[-3.80748,37.23217],[-3.80714,37.23213],[-3.8066,37.23192],[-3.8049,37.23082],[-3.80288,37.23018],[-3.80215,37.23092],[-3.80044,37.23147],[-3.80057,37.23204],[-3.80043,37.23256],[-3.79974,37.23245],[-3.79915,37.23249],[-3.79881,37.23258],[-3.79829,37.23289],[-3.79774,37.23385],[-3.79667,37.23448],[-3.79613,37.23545],[-3.79574,37.23582],[-3.79487,37.23617],[-3.79358,37.23639],[-3.7931,37.23662],[-3.79286,37.23681],[-3.79231,37.23777],[-3.79197,37.23805],[-3.79077,37.23847],[-3.78834,37.23852],[-3.78758,37.23752],[-3.78646,37.23922],[-3.78607,37.23959],[-3.78572,37.23969],[-3.78541,37.23967],[-3.78492,37.2395],[-3.78437,37.23943],[-3.78387,37.23967],[-3.78361,37.23996],[-3.78276,37.24185],[-3.78237,37.24234],[-3.78203,37.24261],[-3.78128,37.24292],[-3.78073,37.24293],[-3.78052,37.24262],[-3.78065,37.24217],[-3.78212,37.24052],[-3.78321,37.2399],[-3.78369,37.23948],[-3.78411,37.2393],[-3.78533,37.23911],[-3.78696,37.23698],[-3.78799,37.23629],[-3.78942,37.23445],[-3.78981,37.23414],[-3.7906,37.23379],[-3.79132,37.23369],[-3.7919,37.2337],[-3.79349,37.23418],[-3.7939,37.23415],[-3.79468,37.23375],[-3.79544,37.23286],[-3.79254,37.23241],[-3.79075,37.23235],[-3.79008,37.23266]]]}},{"type":"Feature","properties":{"id":"1807901003"},"geometry":{"type":"Polygon","coordinates":[[[-3.78324,37.21893],[-3.78308,37.21847],[-3.7833,37.21585],[-3.78239,37.216],[-3.78149,37.21628],[-3.78137,37.21355],[-3.78178,37.2129],[-3.78233,37.21246],[-3.78415,37.21203],[-3.78495,37.21194],[-3.78527,37.21145],[-3.78502,37.20989],[-3.78508,37.20928],[-3.78529,37.20881],[-3.78621,37.2086],[-3.78674,37.20831],[-3.78776,37.20713],[-3.78834,37.20607],[-3.7888,37.20602],[-3.78941,37.20623],[-3.79106,37.20705],[-3.79286,37.20763],[-3.79535,37.20771],[-3.79778,37.2076],[-3.79853,37.20748],[-3.79971,37.20712],[-3.80149,37.20635],[-3.80286,37.20708],[-3.80318,37.20779],[-3.80386,37.20788],[-3.80612,37.20781],[-3.80783,37.20747],[-3.81216,37.20721],[-3.81356,37.20703],[-3.81448,37.20711],[-3.8148,37.20706],[-3.81498,37.20687],[-3.81532,37.20605],[-3.81591,37.20556],[-3.81639,37.20487],[-3.81668,37.20412],[-3.817,37.2039],[-3.82028,37.20303],[-3.82061,37.20302],[-3.82104,37.2031],[-3.82182,37.20376],[-3.82252,37.20413],[-3.82387,37.20396],[-3.82437,37.20397],[-3.82528,37.20433],[-3.82573,37.20438],[-3.82535,37.20498],[-3.82565,37.20574],[-3.82687,37.20636],[-3.82754,37.20682],[-3.82779,37.20711],[-3.82804,37.2077],[-3.82827,37.20877],[-3.82851,37.20888],[-3.82871,37.20883],[-3.82983,37.20785],[-3.83002,37.20749],[-3.83052,37.20545],[-3.8307,37.20513],[-3.83095,37.20484],[-3.83192,37.20424],[-3.83209,37.20401],[-3.83218,37.20363],[-3.83209,37.20198],[-3.83242,37.20153],[-3.83275,37.20133],[-3.8342,37.2008],[-3.83438,37.2024],[-3.83301,37.20288],[-3.8327,37.20316],[-3.83252,37.2036],[-3.83238,37.20499],[-3.83221,37.20532],[-3.83153,37.20594],[-3.83123,37.20635],[-3.83043,37.20793],[-3.82894,37.2092],[-3.82823,37.20936],[-3.82753,37.20928],[-3.82513,37.20863],[-3.8245,37.20865],[-3.82372,37.20882],[-3.82251,37.2093],[-3.82235,37.20955],[-3.82204,37.21125],[-3.8218,37.21152],[-3.82118,37.21176],[-3.81981,37.21193],[-3.81927,37.21224],[-3.81888,37.21289],[-3.81897,37.21323],[-3.81944,37.21358],[-3.82137,37.21438],[-3.8216,37.21464],[-3.82162,37.21489],[-3.82139,37.21511],[-3.82104,37.21517],[-3.82017,37.21476],[-3.81975,37.21477],[-3.81957,37.21647],[-3.81921,37.21684],[-3.8186,37.21721],[-3.81762,37.21823],[-3.81736,37.21832],[-3.8168,37.21833],[-3.81659,37.21844],[-3.8162,37.21903],[-3.81596,37.22081],[-3.81578,37.2211],[-3.81528,37.22167],[-3.81337,37.22295],[-3.81183,37.22214],[-3.81068,37.22211],[-3.80977,37.22197],[-3.8083,37.22217],[-3.80658,37.22225],[-3.804,37.22181],[-3.80047,37.22233],[-3.79741,37.22132],[-3.79679,37.22133],[-3.79622,37.22175],[-3.79412,37.22161],[-3.7934,37.2212],[-3.79264,37.22136],[-3.79034,37.22091],[-3.78631,37.21892],[-3.78421,37.21859],[-3.78324,37.21893]]]}}]}