{"type":"FeatureCollection","features":[{"type":"Feature","properties":{"id":"1809401001"},"geometry":{"type":"Polygon","coordinates":[[[-3.30047,37.20987],[-3.29603,37.20848],[-3.29437,37.20761],[-3.29311,37.20653],[-3.29211,37.20467],[-3.29116,37.20408],[-3.29072,37.20354],[-3.29022,37.20255],[-3.2896,37.20248],[-3.28723,37.2019],[-3.28569,37.20118],[-3.28465,37.20032],[-3.28337,37.1986],[-3.28307,37.19796],[-3.28273,37.19664],[-3.28284,37.19611],[-3.28344,37.19481],[-3.28342,37.1943],[-3.28293,37.19294],[-3.28282,37.19163],[-3.28251,37.19068],[-3.28106,37.18782],[-3.28019,37.1855],[-3.28032,37.18524],[-3.2807,37.18497],[-3.28184,37.18446],[-3.28295,37.18413],[-3.28288,37.18315],[-3.28262,37.18144],[-3.28242,37.18088],[-3.28191,37.17698],[-3.28232,37.17649],[-3.2837,37.17586],[-3.28478,37.17565],[-3.28505,37.17548],[-3.2853,37.17517],[-3.28549,37.17476],[-3.28565,37.17382],[-3.28602,37.17323],[-3.2861,37.17292],[-3.286,37.17256],[-3.28573,37.17215],[-3.28454,37.17156],[-3.28425,37.17134],[-3.28337,37.17027],[-3.2833,37.16986],[-3.28307,37.16945],[-3.28243,37.16885],[-3.28204,37.16867],[-3.28152,37.16862],[-3.28054,37.16882],[-3.28021,37.16876],[-3.27981,37.16856],[-3.27942,37.16811],[-3.27946,37.16729],[-3.27565,37.16604],[-3.27475,37.16589],[-3.27421,37.1657],[-3.27393,37.16536],[-3.27378,37.16453],[-3.27386,37.16357],[-3.27405,37.16298],[-3.27394,37.16253],[-3.27225,37.16015],[-3.27065,37.15845],[-3.26972,37.15765],[-3.26783,37.15639],[-3.26518,37.15526],[-3.2634,37.15508],[-3.2623,37.15447],[-3.26062,37.15327],[-3.25985,37.15255],[-3.25879,37.15093],[-3.25797,37.14918],[-3.25714,37.14855],[-3.25567,37.14716],[-3.25544,37.14656],[-3.25539,37.14572],[-3.25499,37.14486],[-3.2547,37.14454],[-3.25378,37.14391],[-3.24992,37.14175],[-3.24983,37.14077],[-3.24989,37.14044],[-3.25076,37.13881],[-3.251,37.13814],[-3.25154,37.13515],[-3.25144,37.13411],[-3.25165,37.13203],[-3.25259,37.13072],[-3.25299,37.13001],[-3.25309,37.12959],[-3.25305,37.12787],[-3.25351,37.12586],[-3.25307,37.12383],[-3.25377,37.1228],[-3.25419,37.12153],[-3.25495,37.12042],[-3.25537,37.11943],[-3.25667,37.1178],[-3.25699,37.11724],[-3.25786,37.11547],[-3.25774,37.11469],[-3.26106,37.11441],[-3.26289,37.11394],[-3.26532,37.11369],[-3.26719,37.11397],[-3.26823,37.1143],[-3.26923,37.1145],[-3.26994,37.11448],[-3.27064,37.11435],[-3.2709,37.11414],[-3.27149,37.11336],[-3.27242,37.11252],[-3.27307,37.11168],[-3.27373,37.11112],[-3.27486,37.11044],[-3.27536,37.10992],[-3.27654,37.10927],[-3.27712,37.1082],[-3.27734,37.10747],[-3.27792,37.10439],[-3.27794,37.10403],[-3.27778,37.10366],[-3.27774,37.10315],[-3.27786,37.10261],[-3.27861,37.1012],[-3.27964,37.10008],[-3.28029,37.09963],[-3.28124,37.09922],[-3.28171,37.09847],[-3.28201,37.09838],[-3.28264,37.09838],[-3.28288,37.0986],[-3.28322,37.09871],[-3.28419,37.0987],[-3.28559,37.09815],[-3.28631,37.09742],[-3.28641,37.0966],[-3.28691,37.09579],[-3.28697,37.09533],[-3.28688,37.09393],[-3.28702,37.09286],[-3.2869,37.0912],[-3.28667,37.09038],[-3.28661,37.08945],[-3.28698,37.08848],[-3.28714,37.08775],[-3.28756,37.0868],[-3.28835,37.08615],[-3.28851,37.08555],[-3.28844,37.08488],[-3.28903,37.08408],[-3.28918,37.08367],[-3.2887,37.08069],[-3.28878,37.08054],[-3.29064,37.07879],[-3.29099,37.07812],[-3.29171,37.07738],[-3.29263,37.07623],[-3.293,37.07555],[-3.295,37.07331],[-3.29541,37.07297],[-3.29758,37.07172],[-3.29875,37.07117],[-3.29919,37.07062],[-3.2993,37.07016],[-3.2999,37.06891],[-3.30018,37.06854],[-3.30138,37.06784],[-3.30226,37.06718],[-3.30234,37.06589],[-3.30346,37.06457],[-3.30393,37.06335],[-3.30408,37.06265],[-3.30526,37.06183],[-3.30729,37.05958],[-3.30836,37.05861],[-3.30854,37.05776],[-3.30984,37.05684],[-3.31007,37.05645],[-3.31002,37.05604],[-3.31013,37.05569],[-3.31036,37.05536],[-3.31055,37.05471],[-3.31094,37.05405],[-3.31156,37.05338],[-3.31202,37.05333],[-3.31376,37.0534],[-3.31546,37.05358],[-3.31674,37.05401],[-3.31893,37.05455],[-3.3192,37.05458],[-3.31981,37.05445],[-3.3202,37.0545],[-3.32172,37.05512],[-3.32253,37.05558],[-3.32352,37.0567],[-3.32477,37.05751],[-3.32559,37.0577],[-3.32726,37.05785],[-3.32766,37.05775],[-3.32973,37.05683],[-3.33129,37.05657],[-3.3316,37.05619],[-3.33304,37.05529],[-3.33339,37.0552],[-3.33425,37.0552],[-3.33505,37.05498],[-3.33668,37.05503],[-3.33918,37.05476],[-3.3417,37.05462],[-3.34257,37.05478],[-3.34403,37.05456],[-3.3451,37.05426],[-3.34566,37.05426],[-3.34762,37.05384],[-3.34862,37.05379],[-3.34931,37.0538],[-3.35147,37.05467],[-3.35199,37.05493],[-3.3536,37.05609],[-3.35813,37.05688],[-3.35873,37.05669],[-3.35932,37.05625],[-3.36006,37.0562],[-3.36051,37.05585],[-3.36065,37.05583],[-3.36135,37.05593],[-3.36222,37.05585],[-3.36568,37.05603],[-3.36795,37.05768],[-3.36949,37.05921],[-3.36958,37.06003],[-3.36991,37.06079],[-3.3699,37.06105],[-3.36915,37.0626],[-3.36907,37.06331],[-3.36911,37.0642],[-3.36956,37.06521],[-3.36959,37.06588],[-3.36973,37.06605],[-3.37164,37.06654],[-3.37299,37.06721],[-3.37539,37.06857],[-3.37623,37.06943],[-3.37692,37.07051],[-3.37687,37.0712],[-3.37738,37.07309],[-3.37735,37.07357],[-3.37716,37.07388],[-3.37593,37.07508],[-3.37613,37.07768],[-3.376,37.07935],[-3.37739,37.08129],[-3.37868,37.082],[-3.37893,37.08226],[-3.37978,37.08378],[-3.38006,37.08408],[-3.38138,37.08492],[-3.38248,37.08639],[-3.3829,37.08783],[-3.38326,37.0886],[-3.38328,37.08938],[-3.3831,37.08988],[-3.38278,37.09031],[-3.38286,37.09059],[-3.38424,37.09165],[-3.38441,37.09189],[-3.38425,37.09268],[-3.38434,37.09326],[-3.3846,37.09364],[-3.38565,37.09408],[-3.38583,37.09427],[-3.38592,37.09454],[-3.38591,37.09531],[-3.38613,37.09586],[-3.38941,37.09898],[-3.39006,37.09975],[-3.3907,37.1002],[-3.39291,37.10147],[-3.39578,37.10351],[-3.39818,37.1059],[-3.40061,37.10639],[-3.40145,37.10692],[-3.40324,37.10939],[-3.40531,37.1113],[-3.40574,37.11159],[-3.407,37.11194],[-3.40951,37.11201],[-3.411,37.11191],[-3.4121,37.11226],[-3.41486,37.11234],[-3.41536,37.11253],[-3.41646,37.11323],[-3.41942,37.1141],[-3.42056,37.11498],[-3.42268,37.11515],[-3.42301,37.11526],[-3.42351,37.11555],[-3.42429,37.11622],[-3.42504,37.11713],[-3.42549,37.11797],[-3.42643,37.11845],[-3.428,37.11948],[-3.42844,37.12],[-3.42897,37.12022],[-3.43122,37.12045],[-3.43459,37.12051],[-3.43611,37.12017],[-3.43762,37.1196],[-3.43854,37.11898],[-3.43889,37.1189],[-3.43986,37.11952],[-3.44017,37.11994],[-3.44111,37.1207],[-3.44194,37.12113],[-3.4441,37.12257],[-3.44438,37.1226],[-3.44565,37.12234],[-3.44702,37.12243],[-3.44726,37.12255],[-3.44818,37.12334],[-3.44891,37.12355],[-3.44974,37.12399],[-3.45009,37.12518],[-3.45092,37.12619],[-3.45156,37.12802],[-3.45223,37.12847],[-3.45299,37.12867],[-3.45514,37.12885],[-3.45553,37.12918],[-3.45574,37.12951],[-3.45625,37.13103],[-3.45651,37.13123],[-3.45755,37.1316],[-3.45954,37.13252],[-3.46129,37.13291],[-3.46521,37.13415],[-3.4672,37.13464],[-3.46863,37.13482],[-3.47044,37.13524],[-3.4725,37.13621],[-3.47364,37.1371],[-3.47427,37.13751],[-3.47487,37.13774],[-3.49003,37.13995],[-3.49033,37.14083],[-3.4913,37.14208],[-3.49133,37.14262],[-3.49157,37.1435],[-3.49151,37.14376],[-3.48981,37.1458],[-3.48906,37.14645],[-3.48876,37.14722],[-3.48832,37.1473],[-3.48769,37.14777],[-3.48532,37.1501],[-3.48336,37.15242],[-3.48072,37.15531],[-3.48089,37.16054],[-3.48047,37.16177],[-3.48047,37.16241],[-3.48033,37.1627],[-3.47977,37.16312],[-3.47865,37.16451],[-3.47735,37.16538],[-3.4764,37.16637],[-3.47605,37.16702],[-3.47499,37.16989],[-3.47365,37.17007],[-3.47277,37.17068],[-3.4724,37.17106],[-3.47141,37.17278],[-3.47065,37.17314],[-3.46768,37.17308],[-3.46652,37.17336],[-3.46608,37.17361],[-3.46527,37.17483],[-3.46466,37.17502],[-3.46424,37.17544],[-3.46258,37.17505],[-3.46188,37.17513],[-3.46158,37.17529],[-3.46068,37.17655],[-3.46036,37.17674],[-3.4599,37.17677],[-3.45943,37.17656],[-3.45899,37.17621],[-3.45868,37.17622],[-3.45833,37.17651],[-3.45802,37.17699],[-3.45741,37.17712],[-3.45624,37.17755],[-3.45671,37.17868],[-3.45644,37.17924],[-3.45643,37.17974],[-3.45465,37.17965],[-3.45385,37.17944],[-3.45341,37.17916],[-3.45309,37.17909],[-3.45222,37.17963],[-3.4516,37.17955],[-3.44602,37.18564],[-3.43693,37.19176],[-3.43054,37.19739],[-3.4297,37.19766],[-3.42921,37.19791],[-3.42871,37.19838],[-3.42817,37.19867],[-3.42772,37.19882],[-3.42531,37.19921],[-3.42431,37.19951],[-3.4238,37.19984],[-3.42342,37.20046],[-3.42311,37.20191],[-3.42213,37.20459],[-3.41899,37.2057],[-3.41771,37.20633],[-3.41732,37.20641],[-3.41629,37.20631],[-3.41547,37.20662],[-3.41436,37.20745],[-3.41336,37.20767],[-3.41308,37.2078],[-3.41292,37.20805],[-3.41228,37.20748],[-3.41104,37.20739],[-3.41077,37.2073],[-3.41053,37.20705],[-3.40897,37.20718],[-3.40875,37.20704],[-3.4083,37.207],[-3.40814,37.2071],[-3.40822,37.2073],[-3.40748,37.20736],[-3.40749,37.20806],[-3.40734,37.20803],[-3.4068,37.20755],[-3.40589,37.20753],[-3.4053,37.20768],[-3.40561,37.20851],[-3.40249,37.21009],[-3.40165,37.21034],[-3.4003,37.2106],[-3.39982,37.2106],[-3.39896,37.21035],[-3.39857,37.21037],[-3.39817,37.21057],[-3.39723,37.21067],[-3.39684,37.21059],[-3.39651,37.21039],[-3.39615,37.21034],[-3.39588,37.21046],[-3.39488,37.21131],[-3.39439,37.21149],[-3.39295,37.21158],[-3.39237,37.21152],[-3.39174,37.21131],[-3.38461,37.21392],[-3.38101,37.21514],[-3.37884,37.21568],[-3.37762,37.21589],[-3.37507,37.216],[-3.37477,37.21617],[-3.37448,37.21684],[-3.37414,37.21695],[-3.36943,37.21727],[-3.36717,37.21761],[-3.36625,37.21806],[-3.36591,37.21834],[-3.365,37.21953],[-3.36319,37.22058],[-3.36295,37.22082],[-3.36262,37.22133],[-3.36154,37.22246],[-3.36019,37.22431],[-3.35941,37.22504],[-3.35737,37.22615],[-3.35475,37.22817],[-3.3538,37.22874],[-3.353,37.22903],[-3.35216,37.22913],[-3.34928,37.22783],[-3.34836,37.22761],[-3.34703,37.2276],[-3.34635,37.22749],[-3.34443,37.22807],[-3.34199,37.2285],[-3.3412,37.22874],[-3.34038,37.22927],[-3.33955,37.23012],[-3.33922,37.23032],[-3.33787,37.22898],[-3.33746,37.22836],[-3.336,37.22762],[-3.33372,37.22475],[-3.33315,37.22444],[-3.33167,37.22413],[-3.33115,37.22336],[-3.32989,37.2225],[-3.32924,37.22169],[-3.32898,37.2215],[-3.32849,37.22135],[-3.32669,37.22107],[-3.32567,37.22072],[-3.32477,37.22027],[-3.32413,37.21978],[-3.3233,37.21853],[-3.3231,37.21838],[-3.32236,37.21825],[-3.32194,37.21804],[-3.32078,37.21681],[-3.32061,37.21655],[-3.32052,37.21603],[-3.32054,37.21565],[-3.32068,37.21543],[-3.322,37.2144],[-3.32064,37.21479],[-3.31724,37.21552],[-3.3135,37.21543],[-3.31242,37.21512],[-3.31117,37.21502],[-3.30919,37.21449],[-3.30639,37.21398],[-3.3047,37.21325],[-3.30395,37.21267],[-3.30308,37.21168],[-3.30142,37.21036],[-3.30047,37.20987]],[[-3.44061,37.15846],[-3.44031,37.15864],[-3.43968,37.15837],[-3.43923,37.15856],[-3.43874,37.15856],[-3.43811,37.15793],[-3.43733,37.15787],[-3.4371,37.15763],[-3.43707,37.15747],[-3.43689,37.15748],[-3.43628,37.15799],[-3.43607,37.15831],[-3.43686,37.15882],[-3.43674,37.15897],[-3.43686,37.15906],[-3.43673,37.15923],[-3.43703,37.15944],[-3.43676,37.15965],[-3.43652,37.15967],[-3.43694,37.16035],[-3.43787,37.16116],[-3.43872,37.16151],[-3.4394,37.16152],[-3.43951,37.16147],[-3.43941,37.16112],[-3.43975,37.161],[-3.43996,37.16102],[-3.43983,37.16082],[-3.4396,37.16074],[-3.4398,37.16033],[-3.44081,37.16071],[-3.44102,37.16054],[-3.44122,37.1601],[-3.44333,37.16036],[-3.44409,37.16032],[-3.44468,37.15959],[-3.44484,37.15965],[-3.44522,37.15912],[-3.44525,37.15849],[-3.44451,37.15754],[-3.44358,37.15753],[-3.44326,37.15737],[-3.44252,37.1573],[-3.44236,37.15701],[-3.44157,37.15729],[-3.44103,37.15725],[-3.44083,37.15743],[-3.4406,37.15745],[-3.44103,37.15806],[-3.44087,37.1581],[-3.44061,37.15846]]]}},{"type":"Feature","properties":{"id":"1809401002"},"geometry":{"type":"Polygon","coordinates":[[[-3.43791,37.16113],[-3.43761,37.16073],[-3.43761,37.16052],[-3.43807,37.16033],[-3.4383,37.16047],[-3.43865,37.15997],[-3.43964,37.15909],[-3.44038,37.15881],[-3.44103,37.1589],[-3.44116,37.1588],[-3.44061,37.15846],[-3.44087,37.1581],[-3.44103,37.15806],[-3.4406,37.15745],[-3.44083,37.15743],[-3.44103,37.15725],[-3.44157,37.15729],[-3.44236,37.15701],[-3.44252,37.1573],[-3.44326,37.15737],[-3.44358,37.15753],[-3.44451,37.15754],[-3.44525,37.15849],[-3.44522,37.15912],[-3.44484,37.15965],[-3.44468,37.15959],[-3.44409,37.16032],[-3.44333,37.16036],[-3.44122,37.1601],[-3.44102,37.16054],[-3.44081,37.16071],[-3.43979,37.16033],[-3.4396,37.16074],[-3.43997,37.16097],[-3.43941,37.16112],[-3.43951,37.16147],[-3.4394,37.16152],[-3.43872,37.16151],[-3.43828,37.16138],[-3.43791,37.16113]]]}},{"type":"Feature","properties":{"id":"1809401003"},"geometry":{"type":"Polygon","coordinates":[[[-3.44061,37.15846],[-3.44116,37.1588],[-3.44103,37.1589],[-3.44038,37.15881],[-3.43964,37.15909],[-3.43865,37.15997],[-3.4383,37.16047],[-3.43807,37.16033],[-3.43761,37.16052],[-3.43761,37.16073],[-3.43787,37.16116],[-3.43694,37.16035],[-3.43652,37.15967],[-3.43676,37.15965],[-3.43703,37.15944],[-3.43673,37.15923],[-3.43686,37.15906],[-3.43674,37.15897],[-3.43686,37.15882],[-3.43607,37.15831],[-3.43628,37.15799],[-3.43689,37.15748],[-3.43707,37.15747],[-3.4371,37.15763],[-3.43733,37.15787],[-3.43811,37.15793],[-3.43874,37.15856],[-3.43923,37.15856],[-3.43968,37.15837],[-3.44031,37.15864],[-3.44061,37.15846]]]}}]}