{"type":"FeatureCollection","features":[{"type":"Feature","properties":{"id":"1813401001"},"geometry":{"type":"Polygon","coordinates":[[[-3.51922,37.14446],[-3.51847,37.14437],[-3.51814,37.14422],[-3.51754,37.14365],[-3.51715,37.14348],[-3.51625,37.14331],[-3.5157,37.14303],[-3.51516,37.14325],[-3.51491,37.14326],[-3.5134,37.14309],[-3.51353,37.14382],[-3.51344,37.14433],[-3.51255,37.145],[-3.51231,37.14504],[-3.5104,37.14402],[-3.50903,37.14349],[-3.50869,37.14328],[-3.50753,37.14208],[-3.50711,37.14182],[-3.50545,37.14124],[-3.50404,37.14087],[-3.50374,37.14015],[-3.50271,37.13933],[-3.50121,37.13859],[-3.50062,37.13794],[-3.50032,37.13775],[-3.49998,37.13769],[-3.49876,37.13781],[-3.49857,37.13792],[-3.49838,37.13842],[-3.49823,37.13851],[-3.49732,37.1384],[-3.49581,37.13861],[-3.49395,37.13914],[-3.49003,37.13995],[-3.47487,37.13774],[-3.47427,37.13751],[-3.47364,37.1371],[-3.4725,37.13621],[-3.47044,37.13524],[-3.46863,37.13482],[-3.4672,37.13464],[-3.46521,37.13415],[-3.46129,37.13291],[-3.45954,37.13252],[-3.45755,37.1316],[-3.45651,37.13123],[-3.45625,37.13103],[-3.45574,37.12951],[-3.45553,37.12918],[-3.45514,37.12885],[-3.45299,37.12867],[-3.45223,37.12847],[-3.45156,37.12802],[-3.45092,37.12619],[-3.45009,37.12518],[-3.44974,37.12399],[-3.44891,37.12355],[-3.44818,37.12334],[-3.44726,37.12255],[-3.44702,37.12243],[-3.44565,37.12234],[-3.44438,37.1226],[-3.4441,37.12257],[-3.44194,37.12113],[-3.44111,37.1207],[-3.44017,37.11994],[-3.43986,37.11952],[-3.43889,37.1189],[-3.43854,37.11898],[-3.43762,37.1196],[-3.43611,37.12017],[-3.43459,37.12051],[-3.43122,37.12045],[-3.42897,37.12022],[-3.42844,37.12],[-3.428,37.11948],[-3.42643,37.11845],[-3.42549,37.11797],[-3.42504,37.11713],[-3.42429,37.11622],[-3.42351,37.11555],[-3.42301,37.11526],[-3.42268,37.11515],[-3.42056,37.11498],[-3.41942,37.1141],[-3.41646,37.11323],[-3.41536,37.11253],[-3.41486,37.11234],[-3.4121,37.11226],[-3.411,37.11191],[-3.40951,37.11201],[-3.407,37.11194],[-3.40574,37.11159],[-3.40531,37.1113],[-3.40324,37.10939],[-3.40145,37.10692],[-3.40061,37.10639],[-3.39818,37.1059],[-3.39578,37.10351],[-3.39291,37.10147],[-3.3907,37.1002],[-3.39006,37.09975],[-3.38941,37.09898],[-3.38613,37.09586],[-3.38591,37.09531],[-3.38592,37.09454],[-3.38583,37.09427],[-3.38565,37.09408],[-3.3846,37.09364],[-3.38434,37.09326],[-3.38425,37.09268],[-3.38441,37.09189],[-3.38424,37.09165],[-3.38286,37.09059],[-3.38278,37.09031],[-3.3831,37.08988],[-3.38328,37.08938],[-3.38326,37.0886],[-3.3829,37.08783],[-3.38248,37.08639],[-3.38138,37.08492],[-3.38006,37.08408],[-3.37978,37.08378],[-3.37893,37.08226],[-3.37868,37.082],[-3.37739,37.08129],[-3.376,37.07935],[-3.37613,37.07768],[-3.37593,37.07508],[-3.37716,37.07388],[-3.37735,37.07357],[-3.37738,37.07309],[-3.37687,37.0712],[-3.37692,37.07051],[-3.37623,37.06943],[-3.37539,37.06857],[-3.37299,37.06721],[-3.37164,37.06654],[-3.36973,37.06605],[-3.36959,37.06588],[-3.36956,37.06521],[-3.36911,37.0642],[-3.36907,37.06331],[-3.36915,37.0626],[-3.3699,37.06105],[-3.36991,37.06079],[-3.36958,37.06003],[-3.36949,37.05921],[-3.36795,37.05768],[-3.36568,37.05603],[-3.36616,37.05604],[-3.36667,37.05622],[-3.36853,37.05723],[-3.36926,37.05744],[-3.36978,37.05769],[-3.37021,37.05803],[-3.37083,37.05834],[-3.37124,37.05842],[-3.37261,37.05808],[-3.37318,37.05808],[-3.3736,37.05818],[-3.37435,37.05857],[-3.37582,37.05984],[-3.37713,37.06056],[-3.37963,37.06113],[-3.38229,37.06152],[-3.38566,37.06276],[-3.38634,37.06311],[-3.38872,37.06363],[-3.39112,37.06504],[-3.39304,37.06633],[-3.39518,37.0684],[-3.39666,37.06951],[-3.39806,37.07039],[-3.39866,37.07122],[-3.39901,37.07147],[-3.40048,37.07154],[-3.40151,37.07143],[-3.40193,37.07152],[-3.40394,37.07256],[-3.40508,37.0729],[-3.40617,37.07337],[-3.40831,37.07343],[-3.41062,37.07454],[-3.41217,37.07514],[-3.4147,37.07551],[-3.41878,37.07649],[-3.41931,37.07654],[-3.42032,37.07645],[-3.42344,37.07598],[-3.42582,37.07584],[-3.42805,37.07547],[-3.42969,37.07547],[-3.43131,37.07519],[-3.43174,37.07523],[-3.43258,37.07574],[-3.43393,37.07627],[-3.43511,37.07636],[-3.43571,37.07649],[-3.43776,37.07698],[-3.43873,37.07747],[-3.43949,37.07771],[-3.44042,37.07781],[-3.44466,37.07874],[-3.44637,37.07884],[-3.44733,37.07871],[-3.44896,37.07821],[-3.4499,37.07883],[-3.45069,37.07913],[-3.45152,37.07921],[-3.45339,37.07896],[-3.4554,37.07899],[-3.45653,37.07852],[-3.45724,37.07807],[-3.45779,37.07758],[-3.45991,37.07632],[-3.46041,37.07507],[-3.46072,37.07454],[-3.46179,37.0738],[-3.46316,37.07332],[-3.46421,37.07222],[-3.46527,37.0717],[-3.46588,37.07118],[-3.46631,37.0711],[-3.46681,37.07115],[-3.46904,37.07156],[-3.47161,37.07121],[-3.47232,37.07127],[-3.47339,37.07151],[-3.47382,37.0715],[-3.47409,37.0716],[-3.47524,37.07384],[-3.47691,37.07406],[-3.47746,37.07425],[-3.47869,37.07556],[-3.48252,37.0781],[-3.48288,37.07817],[-3.48467,37.07784],[-3.4851,37.07792],[-3.48576,37.07873],[-3.48644,37.07923],[-3.48685,37.07933],[-3.48736,37.07916],[-3.48849,37.07913],[-3.48924,37.07925],[-3.49064,37.07978],[-3.49313,37.08],[-3.49587,37.07939],[-3.49758,37.07975],[-3.50025,37.08001],[-3.50205,37.07976],[-3.50284,37.07974],[-3.50327,37.0798],[-3.50386,37.08006],[-3.50419,37.08008],[-3.50618,37.07982],[-3.50752,37.07951],[-3.50989,37.07979],[-3.51156,37.07971],[-3.51283,37.07984],[-3.51348,37.08003],[-3.51539,37.08024],[-3.51632,37.08059],[-3.5167,37.08086],[-3.51692,37.08113],[-3.51705,37.08152],[-3.51725,37.08165],[-3.51753,37.08159],[-3.51814,37.08098],[-3.5186,37.08067],[-3.51893,37.08056],[-3.51954,37.08065],[-3.52057,37.08112],[-3.52098,37.08113],[-3.52302,37.0816],[-3.52336,37.08212],[-3.52484,37.08211],[-3.52744,37.08181],[-3.52875,37.08189],[-3.52997,37.08178],[-3.53242,37.08174],[-3.53231,37.08297],[-3.53245,37.08416],[-3.53275,37.08463],[-3.53307,37.08499],[-3.53389,37.08559],[-3.53525,37.08638],[-3.53744,37.08842],[-3.53754,37.08863],[-3.53745,37.08909],[-3.53617,37.09206],[-3.53596,37.09281],[-3.53603,37.09357],[-3.53618,37.09398],[-3.53675,37.09466],[-3.53803,37.09572],[-3.54064,37.09752],[-3.54233,37.09885],[-3.54333,37.09936],[-3.54361,37.09963],[-3.54416,37.10085],[-3.54456,37.10137],[-3.54718,37.10417],[-3.54855,37.10537],[-3.54884,37.10583],[-3.54917,37.10779],[-3.54937,37.10831],[-3.5506,37.10933],[-3.55135,37.11043],[-3.5526,37.11183],[-3.54881,37.11181],[-3.54829,37.1119],[-3.54765,37.11213],[-3.54609,37.1129],[-3.54518,37.11464],[-3.54455,37.11539],[-3.54391,37.11593],[-3.54366,37.11634],[-3.54338,37.11717],[-3.5435,37.11782],[-3.54372,37.11817],[-3.54398,37.11899],[-3.54416,37.11932],[-3.54459,37.11964],[-3.54493,37.1201],[-3.54532,37.12165],[-3.546,37.12274],[-3.54564,37.12261],[-3.54532,37.12263],[-3.54509,37.12278],[-3.54512,37.12301],[-3.54532,37.12327],[-3.54631,37.12384],[-3.54701,37.12472],[-3.54783,37.12526],[-3.54855,37.12624],[-3.5494,37.12763],[-3.5496,37.12777],[-3.54972,37.12831],[-3.55002,37.12871],[-3.55002,37.12909],[-3.55078,37.12997],[-3.55094,37.13089],[-3.55154,37.13236],[-3.55168,37.13302],[-3.55133,37.13343],[-3.5513,37.13406],[-3.55096,37.13455],[-3.55097,37.13479],[-3.55074,37.13509],[-3.55073,37.13537],[-3.55009,37.13595],[-3.54974,37.13645],[-3.54952,37.13719],[-3.54965,37.13773],[-3.54959,37.13807],[-3.54932,37.13861],[-3.54958,37.13937],[-3.5495,37.13961],[-3.54903,37.1402],[-3.54788,37.14119],[-3.54726,37.14203],[-3.54708,37.14337],[-3.54713,37.14386],[-3.54685,37.14468],[-3.54598,37.14551],[-3.54564,37.14667],[-3.54418,37.14672],[-3.54381,37.14665],[-3.54341,37.14649],[-3.54178,37.14538],[-3.54076,37.14499],[-3.53869,37.14398],[-3.53794,37.14367],[-3.53548,37.14297],[-3.53503,37.14276],[-3.53373,37.1417],[-3.53299,37.14141],[-3.53024,37.14107],[-3.52889,37.14053],[-3.52682,37.14053],[-3.52609,37.14076],[-3.5242,37.14162],[-3.52319,37.14194],[-3.52257,37.14197],[-3.52176,37.14184],[-3.5216,37.14266],[-3.52089,37.14315],[-3.52051,37.14379],[-3.51922,37.14446]]]}},{"type":"Feature","properties":{"id":"1813402001"},"geometry":{"type":"Polygon","coordinates":[[[-3.55851,37.13486],[-3.55824,37.13453],[-3.55821,37.13377],[-3.55792,37.13272],[-3.55742,37.13184],[-3.55855,37.13115],[-3.5586,37.13054],[-3.55935,37.12983],[-3.56071,37.12888],[-3.56141,37.12855],[-3.56119,37.12609],[-3.56135,37.12524],[-3.56153,37.12492],[-3.56199,37.1245],[-3.56261,37.12424],[-3.56459,37.12673],[-3.56598,37.12976],[-3.56571,37.12995],[-3.56456,37.1303],[-3.56442,37.13118],[-3.56406,37.13156],[-3.56175,37.1331],[-3.56123,37.1333],[-3.56038,37.13339],[-3.56042,37.13372],[-3.56027,37.1338],[-3.56025,37.13399],[-3.55957,37.13462],[-3.55912,37.13481],[-3.55851,37.13486]]]}},{"type":"Feature","properties":{"id":"1813402002"},"geometry":{"type":"Polygon","coordinates":[[[-3.56974,37.14016],[-3.56888,37.13963],[-3.56801,37.1397],[-3.56731,37.13952],[-3.56605,37.13854],[-3.56483,37.13855],[-3.56445,37.13919],[-3.56485,37.13946],[-3.56484,37.13956],[-3.56414,37.14005],[-3.56357,37.14012],[-3.56298,37.14031],[-3.56241,37.1403],[-3.56201,37.14045],[-3.55989,37.14041],[-3.55829,37.14067],[-3.55811,37.14074],[-3.55756,37.14164],[-3.55711,37.14193],[-3.55703,37.14185],[-3.55687,37.14187],[-3.55607,37.14211],[-3.55489,37.14205],[-3.55404,37.14188],[-3.55327,37.14149],[-3.5524,37.14251],[-3.55272,37.1427],[-3.55261,37.1429],[-3.55252,37.14466],[-3.552,37.14627],[-3.55085,37.14759],[-3.55073,37.14767],[-3.54987,37.14752],[-3.54839,37.1471],[-3.54673,37.147],[-3.54564,37.14667],[-3.54598,37.14551],[-3.54685,37.14468],[-3.54713,37.14386],[-3.54708,37.14337],[-3.54726,37.14203],[-3.54788,37.14119],[-3.54903,37.1402],[-3.5495,37.13961],[-3.54958,37.13937],[-3.54932,37.13861],[-3.54965,37.13773],[-3.54952,37.13719],[-3.54988,37.13618],[-3.55059,37.13555],[-3.55075,37.13529],[-3.55287,37.13564],[-3.55506,37.13635],[-3.55628,37.13603],[-3.55628,37.13587],[-3.557,37.13574],[-3.55734,37.13541],[-3.55813,37.13499],[-3.55921,37.13478],[-3.55957,37.13462],[-3.56025,37.13399],[-3.56027,37.1338],[-3.56042,37.13372],[-3.56038,37.13339],[-3.56143,37.13324],[-3.56213,37.13287],[-3.5643,37.13137],[-3.56451,37.13094],[-3.56463,37.13024],[-3.56551,37.13002],[-3.56598,37.12976],[-3.56631,37.13034],[-3.5665,37.13307],[-3.56697,37.13398],[-3.56689,37.13444],[-3.56698,37.13472],[-3.56774,37.13539],[-3.56846,37.13634],[-3.57062,37.13869],[-3.57057,37.1391],[-3.56974,37.14016]]]}},{"type":"Feature","properties":{"id":"1813402003"},"geometry":{"type":"Polygon","coordinates":[[[-3.54599,37.12272],[-3.54532,37.12165],[-3.54493,37.1201],[-3.54459,37.11964],[-3.54412,37.11927],[-3.5435,37.11782],[-3.54338,37.11717],[-3.54366,37.11634],[-3.54413,37.11568],[-3.54455,37.11539],[-3.54518,37.11464],[-3.54609,37.1129],[-3.54765,37.11213],[-3.54829,37.1119],[-3.54881,37.11181],[-3.5526,37.11183],[-3.55458,37.11416],[-3.55598,37.11681],[-3.55784,37.11935],[-3.56053,37.12187],[-3.56261,37.12424],[-3.56199,37.1245],[-3.56153,37.12492],[-3.56135,37.12524],[-3.56119,37.12609],[-3.56141,37.12855],[-3.56071,37.12888],[-3.55935,37.12983],[-3.5586,37.13054],[-3.55855,37.13115],[-3.55748,37.13184],[-3.55682,37.131],[-3.55567,37.13032],[-3.55249,37.12874],[-3.55141,37.12796],[-3.55032,37.12567],[-3.54917,37.12492],[-3.54882,37.12511],[-3.54766,37.12401],[-3.54599,37.12272]]]}},{"type":"Feature","properties":{"id":"1813402004"},"geometry":{"type":"Polygon","coordinates":[[[-3.55075,37.13529],[-3.55096,37.13455],[-3.5513,37.13406],[-3.55133,37.13343],[-3.55168,37.13302],[-3.55154,37.13236],[-3.55094,37.13089],[-3.55078,37.12997],[-3.5501,37.12923],[-3.55002,37.12871],[-3.54972,37.12831],[-3.5496,37.12777],[-3.5494,37.12763],[-3.54795,37.12542],[-3.54701,37.12472],[-3.54631,37.12384],[-3.54532,37.12327],[-3.54506,37.12287],[-3.54532,37.12263],[-3.54564,37.12261],[-3.54599,37.12272],[-3.54659,37.12311],[-3.54882,37.12511],[-3.54917,37.12492],[-3.55032,37.12567],[-3.55141,37.12796],[-3.55249,37.12874],[-3.55567,37.13032],[-3.55682,37.131],[-3.55748,37.13184],[-3.55792,37.13272],[-3.55821,37.13377],[-3.55824,37.13453],[-3.55851,37.13486],[-3.55734,37.13541],[-3.557,37.13574],[-3.55628,37.13587],[-3.55628,37.13603],[-3.55506,37.13635],[-3.55287,37.13564],[-3.55075,37.13529]]]}}]}