{"type":"FeatureCollection","features":[{"type":"Feature","properties":{"id":"1814001001"},"geometry":{"type":"Polygon","coordinates":[[[-3.51919,36.74793],[-3.5192,36.7471],[-3.5196,36.74608],[-3.5193,36.74455],[-3.51981,36.74382],[-3.51973,36.7433],[-3.5209,36.74321],[-3.52158,36.74345],[-3.52201,36.74411],[-3.52211,36.74412],[-3.52219,36.7446],[-3.52188,36.74487],[-3.52187,36.74614],[-3.52107,36.74693],[-3.52046,36.74734],[-3.52047,36.74757],[-3.51976,36.74784],[-3.51919,36.74793]]]}},{"type":"Feature","properties":{"id":"1814001002"},"geometry":{"type":"Polygon","coordinates":[[[-3.52184,36.7462],[-3.52188,36.74487],[-3.52219,36.74456],[-3.52211,36.74412],[-3.52201,36.74411],[-3.52157,36.74345],[-3.5217,36.74327],[-3.5217,36.74277],[-3.52233,36.74291],[-3.52217,36.74319],[-3.52221,36.7437],[-3.52486,36.74463],[-3.52417,36.74516],[-3.52256,36.74582],[-3.52197,36.74618],[-3.52184,36.7462]]]}},{"type":"Feature","properties":{"id":"1814001003"},"geometry":{"type":"Polygon","coordinates":[[[-3.52397,36.73205],[-3.52404,36.73208],[-3.52447,36.73159],[-3.52521,36.73047],[-3.52624,36.72978],[-3.52687,36.7285],[-3.52748,36.72776],[-3.52818,36.72786],[-3.52896,36.72763],[-3.52983,36.72757],[-3.53395,36.72841],[-3.53443,36.72862],[-3.53356,36.73206],[-3.53263,36.7341],[-3.53218,36.73472],[-3.5314,36.73651],[-3.53086,36.73707],[-3.52969,36.73792],[-3.52883,36.73968],[-3.52875,36.74088],[-3.52779,36.74056],[-3.52605,36.74048],[-3.52446,36.73968],[-3.52419,36.73968],[-3.52361,36.74035],[-3.52355,36.74076],[-3.52277,36.74161],[-3.5218,36.74229],[-3.5217,36.74327],[-3.52158,36.74345],[-3.52066,36.7432],[-3.518,36.74356],[-3.51841,36.7433],[-3.51949,36.74156],[-3.52042,36.7405],[-3.52087,36.73955],[-3.52121,36.73919],[-3.52123,36.7384],[-3.52207,36.73724],[-3.52304,36.73424],[-3.52354,36.73329],[-3.52397,36.73205]]]}},{"type":"Feature","properties":{"id":"1814001004"},"geometry":{"type":"Polygon","coordinates":[[[-3.53238,36.74234],[-3.53022,36.74243],[-3.52719,36.74347],[-3.52673,36.74376],[-3.52639,36.7441],[-3.52486,36.74463],[-3.52221,36.7437],[-3.52217,36.74319],[-3.52233,36.74291],[-3.52178,36.74279],[-3.5218,36.74229],[-3.52277,36.74161],[-3.52355,36.74076],[-3.52361,36.74035],[-3.52419,36.73968],[-3.52446,36.73968],[-3.52605,36.74048],[-3.52779,36.74056],[-3.52875,36.74088],[-3.52883,36.73968],[-3.52969,36.73792],[-3.53086,36.73707],[-3.5314,36.73651],[-3.53218,36.73472],[-3.53263,36.7341],[-3.53356,36.73206],[-3.53442,36.72864],[-3.53535,36.72857],[-3.53569,36.72861],[-3.53551,36.7308],[-3.53717,36.73144],[-3.53901,36.73195],[-3.54197,36.73313],[-3.54246,36.73265],[-3.54314,36.73155],[-3.54309,36.73113],[-3.54326,36.73033],[-3.54358,36.73035],[-3.54495,36.73078],[-3.54758,36.73264],[-3.56008,36.7426],[-3.56047,36.74282],[-3.56344,36.74379],[-3.56381,36.74457],[-3.56361,36.74493],[-3.55429,36.74334],[-3.54271,36.74004],[-3.5415,36.74061],[-3.53896,36.74153],[-3.53772,36.74159],[-3.53719,36.74191],[-3.53677,36.7419],[-3.53659,36.74179],[-3.53606,36.74172],[-3.53408,36.74195],[-3.53238,36.74234]]]}},{"type":"Feature","properties":{"id":"1814002001"},"geometry":{"type":"Polygon","coordinates":[[[-3.51895,36.74889],[-3.51894,36.74866],[-3.51916,36.74844],[-3.51919,36.74793],[-3.51976,36.74784],[-3.52047,36.74757],[-3.52046,36.74734],[-3.52093,36.74702],[-3.52128,36.74746],[-3.52215,36.7504],[-3.5231,36.75162],[-3.52282,36.75189],[-3.52288,36.75198],[-3.52375,36.75223],[-3.52377,36.7523],[-3.52319,36.75274],[-3.52299,36.75276],[-3.52222,36.75378],[-3.51895,36.74889]]]}},{"type":"Feature","properties":{"id":"1814002002"},"geometry":{"type":"Polygon","coordinates":[[[-3.52443,36.75279],[-3.52375,36.75223],[-3.52288,36.75198],[-3.52282,36.75189],[-3.5231,36.75162],[-3.52215,36.7504],[-3.52128,36.74746],[-3.52093,36.74702],[-3.52187,36.74614],[-3.52184,36.7462],[-3.52208,36.74612],[-3.52233,36.7467],[-3.52222,36.74685],[-3.52247,36.7479],[-3.52309,36.74982],[-3.52371,36.75049],[-3.52587,36.752],[-3.52664,36.75206],[-3.52746,36.7525],[-3.52875,36.75303],[-3.52917,36.75334],[-3.52949,36.75343],[-3.53033,36.7539],[-3.53192,36.75397],[-3.53262,36.75413],[-3.53361,36.75452],[-3.53435,36.75465],[-3.53482,36.75519],[-3.53666,36.75555],[-3.537,36.75576],[-3.53743,36.75647],[-3.53821,36.75714],[-3.53838,36.75742],[-3.53864,36.75754],[-3.53871,36.75791],[-3.53936,36.7589],[-3.53954,36.75902],[-3.54136,36.75847],[-3.54215,36.75839],[-3.54348,36.75853],[-3.54503,36.75812],[-3.54566,36.75806],[-3.54717,36.75882],[-3.54863,36.75913],[-3.5503,36.75978],[-3.5509,36.75992],[-3.55143,36.7602],[-3.55154,36.76041],[-3.55123,36.76157],[-3.55131,36.76284],[-3.55138,36.76341],[-3.55171,36.76365],[-3.55205,36.7645],[-3.55224,36.76559],[-3.55204,36.76645],[-3.55207,36.76785],[-3.55214,36.76835],[-3.5524,36.76879],[-3.55315,36.76863],[-3.55396,36.76876],[-3.55587,36.76924],[-3.55752,36.76985],[-3.55961,36.77023],[-3.55901,36.77072],[-3.55842,36.77106],[-3.55244,36.77367],[-3.5502,36.77472],[-3.54821,36.77581],[-3.5473,36.77513],[-3.54501,36.77509],[-3.54462,36.77491],[-3.54367,36.7739],[-3.54295,36.77286],[-3.54247,36.77237],[-3.54178,36.77199],[-3.54122,36.77216],[-3.54094,36.77204],[-3.5404,36.77177],[-3.54027,36.77135],[-3.53992,36.77122],[-3.53905,36.77121],[-3.53871,36.77085],[-3.53864,36.77046],[-3.53837,36.76992],[-3.53842,36.76964],[-3.53826,36.76902],[-3.53812,36.76888],[-3.53782,36.76889],[-3.53703,36.76806],[-3.53365,36.76725],[-3.53299,36.76699],[-3.53206,36.76614],[-3.53153,36.76526],[-3.5313,36.76462],[-3.53085,36.76405],[-3.53041,36.76363],[-3.52962,36.76331],[-3.52946,36.76316],[-3.52936,36.7629],[-3.52946,36.76205],[-3.5291,36.76149],[-3.52801,36.76056],[-3.52789,36.76027],[-3.52768,36.7588],[-3.52788,36.75835],[-3.52777,36.75818],[-3.52624,36.757],[-3.52594,36.75693],[-3.52548,36.75625],[-3.52468,36.75315],[-3.52443,36.75279]]]}},{"type":"Feature","properties":{"id":"1814002003"},"geometry":{"type":"Polygon","coordinates":[[[-3.52267,36.74861],[-3.52222,36.74685],[-3.52233,36.7467],[-3.52208,36.74612],[-3.52256,36.74582],[-3.52434,36.74503],[-3.52481,36.74542],[-3.52537,36.74678],[-3.52585,36.74951],[-3.52561,36.74953],[-3.52533,36.749],[-3.52468,36.7483],[-3.52476,36.74809],[-3.52464,36.74787],[-3.52333,36.74816],[-3.52343,36.74849],[-3.52267,36.74861]]]}},{"type":"Feature","properties":{"id":"1814002004"},"geometry":{"type":"Polygon","coordinates":[[[-3.52434,36.74503],[-3.52486,36.74463],[-3.52639,36.7441],[-3.52673,36.74376],[-3.52719,36.74347],[-3.53022,36.74243],[-3.53109,36.74241],[-3.53102,36.74273],[-3.5318,36.74397],[-3.53207,36.74485],[-3.5317,36.74515],[-3.53015,36.74567],[-3.52986,36.74573],[-3.52867,36.74572],[-3.52831,36.74632],[-3.52682,36.74623],[-3.52536,36.74686],[-3.52481,36.74542],[-3.52434,36.74503]]]}},{"type":"Feature","properties":{"id":"1814002005"},"geometry":{"type":"Polygon","coordinates":[[[-3.52267,36.74861],[-3.52343,36.74849],[-3.52333,36.74816],[-3.52464,36.74787],[-3.52476,36.74809],[-3.52468,36.7483],[-3.52533,36.749],[-3.52561,36.74953],[-3.52586,36.7495],[-3.52639,36.75185],[-3.52664,36.75206],[-3.52587,36.752],[-3.52371,36.75049],[-3.52309,36.74982],[-3.52267,36.74861]]]}},{"type":"Feature","properties":{"id":"1814002006"},"geometry":{"type":"Polygon","coordinates":[[[-3.50595,36.78121],[-3.50601,36.78028],[-3.50661,36.77956],[-3.50712,36.77928],[-3.50819,36.77924],[-3.50826,36.77913],[-3.50818,36.7787],[-3.50782,36.77839],[-3.50736,36.77826],[-3.50676,36.77829],[-3.50643,36.77807],[-3.50631,36.77675],[-3.50673,36.77585],[-3.50659,36.77473],[-3.50737,36.7749],[-3.50791,36.77538],[-3.50847,36.77565],[-3.50883,36.77572],[-3.509,36.77566],[-3.50897,36.77522],[-3.50925,36.77462],[-3.50974,36.77424],[-3.50968,36.77368],[-3.50987,36.7732],[-3.51023,36.77295],[-3.51048,36.77235],[-3.5112,36.77197],[-3.51118,36.77149],[-3.51129,36.77137],[-3.51179,36.77136],[-3.51197,36.77125],[-3.51333,36.76901],[-3.5136,36.76837],[-3.51421,36.76805],[-3.51623,36.76792],[-3.51655,36.76774],[-3.51761,36.76587],[-3.51727,36.76391],[-3.51746,36.76341],[-3.51773,36.76333],[-3.51802,36.76342],[-3.5188,36.76416],[-3.51967,36.7639],[-3.51871,36.76067],[-3.51947,36.76065],[-3.51999,36.76031],[-3.51975,36.75965],[-3.51916,36.7589],[-3.51995,36.75839],[-3.52012,36.75817],[-3.5202,36.75766],[-3.52155,36.75769],[-3.52153,36.75742],[-3.52108,36.75659],[-3.52104,36.75491],[-3.52143,36.75452],[-3.52228,36.75438],[-3.52229,36.75364],[-3.52299,36.75276],[-3.52319,36.75274],[-3.52376,36.7523],[-3.52443,36.75279],[-3.52468,36.75315],[-3.52548,36.75625],[-3.52594,36.75693],[-3.52624,36.757],[-3.52777,36.75818],[-3.52788,36.75835],[-3.52768,36.7588],[-3.52789,36.76027],[-3.52801,36.76056],[-3.5291,36.76149],[-3.52946,36.76205],[-3.52936,36.7629],[-3.52946,36.76316],[-3.52962,36.76331],[-3.53041,36.76363],[-3.53085,36.76405],[-3.5313,36.76462],[-3.53181,36.76582],[-3.53219,36.76629],[-3.53299,36.76699],[-3.53365,36.76725],[-3.53703,36.76806],[-3.53782,36.76889],[-3.53812,36.76888],[-3.53826,36.76902],[-3.53842,36.76964],[-3.53837,36.76992],[-3.53864,36.77046],[-3.53871,36.77085],[-3.53905,36.77121],[-3.53992,36.77122],[-3.54027,36.77135],[-3.5404,36.77177],[-3.54094,36.77204],[-3.54122,36.77216],[-3.54178,36.77199],[-3.54247,36.77237],[-3.54295,36.77286],[-3.54367,36.7739],[-3.54462,36.77491],[-3.54501,36.77509],[-3.5473,36.77513],[-3.54821,36.77581],[-3.54736,36.77636],[-3.54625,36.78083],[-3.54552,36.78321],[-3.54502,36.78386],[-3.54128,36.78636],[-3.5392,36.78819],[-3.53859,36.78918],[-3.53854,36.78988],[-3.53909,36.7904],[-3.54004,36.79066],[-3.54133,36.79067],[-3.54213,36.79097],[-3.54243,36.79186],[-3.54056,36.79196],[-3.533,36.79281],[-3.53458,36.78603],[-3.52889,36.78377],[-3.527,36.78439],[-3.52098,36.78088],[-3.51435,36.77821],[-3.50986,36.78033],[-3.50887,36.78071],[-3.50792,36.78076],[-3.50595,36.78121]]]}},{"type":"Feature","properties":{"id":"1814002007"},"geometry":{"type":"Polygon","coordinates":[[[-3.52746,36.7525],[-3.52639,36.75185],[-3.52536,36.74686],[-3.52682,36.74623],[-3.52831,36.74632],[-3.52867,36.74572],[-3.52986,36.74573],[-3.53095,36.74543],[-3.5317,36.74515],[-3.53191,36.74499],[-3.53207,36.74485],[-3.5318,36.74397],[-3.53102,36.74273],[-3.53109,36.74241],[-3.53238,36.74234],[-3.53408,36.74195],[-3.53606,36.74172],[-3.53659,36.74179],[-3.53677,36.7419],[-3.53719,36.74191],[-3.53772,36.74159],[-3.53896,36.74153],[-3.5415,36.74061],[-3.54271,36.74004],[-3.55429,36.74334],[-3.56361,36.74493],[-3.56334,36.74514],[-3.56426,36.74542],[-3.56505,36.74544],[-3.5653,36.75009],[-3.56544,36.75082],[-3.56515,36.75532],[-3.56461,36.75877],[-3.56395,36.76138],[-3.56355,36.76248],[-3.56224,36.76541],[-3.5602,36.76957],[-3.55961,36.77023],[-3.55752,36.76985],[-3.55587,36.76924],[-3.55396,36.76876],[-3.55315,36.76863],[-3.5524,36.76879],[-3.55214,36.76835],[-3.55207,36.76785],[-3.55204,36.76645],[-3.55224,36.76559],[-3.55205,36.7645],[-3.55171,36.76365],[-3.55138,36.76341],[-3.55131,36.76284],[-3.55123,36.76157],[-3.55154,36.76041],[-3.55143,36.7602],[-3.55119,36.76005],[-3.54863,36.75913],[-3.54717,36.75882],[-3.54566,36.75806],[-3.54503,36.75812],[-3.54348,36.75853],[-3.54215,36.75839],[-3.54136,36.75847],[-3.53954,36.75902],[-3.53936,36.7589],[-3.53871,36.75791],[-3.53864,36.75754],[-3.53838,36.75742],[-3.53821,36.75714],[-3.53743,36.75647],[-3.537,36.75576],[-3.53666,36.75555],[-3.53482,36.75519],[-3.53435,36.75465],[-3.53361,36.75452],[-3.53262,36.75413],[-3.53192,36.75397],[-3.53033,36.7539],[-3.52949,36.75343],[-3.52917,36.75334],[-3.52875,36.75303],[-3.52746,36.7525]]]}},{"type":"Feature","properties":{"id":"1814003001"},"geometry":{"type":"Polygon","coordinates":[[[-3.51883,36.74866],[-3.51844,36.7478],[-3.517,36.7457],[-3.51743,36.7454],[-3.51785,36.74572],[-3.51958,36.74603],[-3.51948,36.74655],[-3.5192,36.7471],[-3.51916,36.74844],[-3.51896,36.74869],[-3.51883,36.74866]]]}},{"type":"Feature","properties":{"id":"1814003002"},"geometry":{"type":"Polygon","coordinates":[[[-3.51883,36.74866],[-3.51582,36.74676],[-3.51517,36.74566],[-3.51574,36.74494],[-3.51701,36.74552],[-3.51708,36.74564],[-3.517,36.7457],[-3.51737,36.74635],[-3.51844,36.7478],[-3.51883,36.74866]]]}},{"type":"Feature","properties":{"id":"1814003003"},"geometry":{"type":"Polygon","coordinates":[[[-3.5157,36.74499],[-3.51383,36.74406],[-3.51361,36.74388],[-3.51346,36.74341],[-3.51319,36.74321],[-3.51346,36.73912],[-3.5135,36.73762],[-3.51339,36.73717],[-3.51194,36.73521],[-3.51159,36.73498],[-3.51053,36.73373],[-3.51022,36.73317],[-3.50878,36.73132],[-3.50838,36.73057],[-3.50834,36.73008],[-3.5075,36.72873],[-3.50634,36.72808],[-3.50559,36.72753],[-3.50538,36.72721],[-3.5054,36.72701],[-3.50453,36.72548],[-3.50155,36.72238],[-3.50053,36.7216],[-3.49922,36.71969],[-3.49953,36.71968],[-3.50107,36.71792],[-3.50132,36.71742],[-3.50163,36.71636],[-3.50184,36.71627],[-3.50213,36.71619],[-3.50286,36.71631],[-3.50484,36.71732],[-3.50544,36.71828],[-3.50565,36.71897],[-3.50596,36.71919],[-3.50637,36.71999],[-3.50662,36.72061],[-3.50658,36.72076],[-3.50814,36.7215],[-3.50855,36.72137],[-3.50897,36.72153],[-3.50919,36.72151],[-3.50994,36.72111],[-3.51071,36.7216],[-3.51135,36.72183],[-3.51208,36.72254],[-3.51212,36.72301],[-3.51407,36.72378],[-3.51446,36.72424],[-3.51507,36.7247],[-3.51552,36.72477],[-3.51638,36.72525],[-3.51771,36.72584],[-3.51792,36.72605],[-3.518,36.7268],[-3.51824,36.7267],[-3.51903,36.72668],[-3.51948,36.7272],[-3.52001,36.72727],[-3.52078,36.72755],[-3.52051,36.72826],[-3.52103,36.72843],[-3.52103,36.72922],[-3.52257,36.73098],[-3.5234,36.73177],[-3.52397,36.73205],[-3.52354,36.73329],[-3.52304,36.73424],[-3.52207,36.73724],[-3.52123,36.7384],[-3.52121,36.73919],[-3.52087,36.73955],[-3.52042,36.7405],[-3.51949,36.74156],[-3.51841,36.7433],[-3.51698,36.74441],[-3.51684,36.74464],[-3.51682,36.74512],[-3.51702,36.74552],[-3.51693,36.74555],[-3.51574,36.74494],[-3.5157,36.74499]]]}},{"type":"Feature","properties":{"id":"1814003004"},"geometry":{"type":"Polygon","coordinates":[[[-3.51707,36.74563],[-3.51682,36.74512],[-3.51684,36.74464],[-3.51698,36.74441],[-3.51768,36.74392],[-3.518,36.74356],[-3.51973,36.7433],[-3.51981,36.74382],[-3.5193,36.74455],[-3.51958,36.74603],[-3.51785,36.74572],[-3.51743,36.7454],[-3.51707,36.74563]]]}},{"type":"Feature","properties":{"id":"1814004001"},"geometry":{"type":"Polygon","coordinates":[[[-3.51862,36.75242],[-3.51741,36.75235],[-3.5174,36.75185],[-3.51727,36.7516],[-3.51713,36.75157],[-3.5169,36.75109],[-3.51649,36.74965],[-3.51644,36.74755],[-3.51628,36.74706],[-3.51724,36.74761],[-3.51755,36.7479],[-3.51826,36.74829],[-3.51861,36.74859],[-3.51896,36.74869],[-3.51862,36.75242]]]}},{"type":"Feature","properties":{"id":"1814004002"},"geometry":{"type":"Polygon","coordinates":[[[-3.51158,36.752],[-3.51163,36.75181],[-3.51227,36.75122],[-3.51509,36.75144],[-3.51501,36.75143],[-3.51485,36.75299],[-3.51229,36.75281],[-3.51237,36.75205],[-3.51158,36.752]]]}},{"type":"Feature","properties":{"id":"1814004003"},"geometry":{"type":"Polygon","coordinates":[[[-3.51724,36.7516],[-3.51227,36.75122],[-3.51421,36.74938],[-3.51533,36.7479],[-3.51587,36.74768],[-3.51592,36.74684],[-3.51628,36.74706],[-3.51644,36.74755],[-3.51649,36.74965],[-3.5169,36.75109],[-3.51713,36.75157],[-3.51724,36.7516]]]}},{"type":"Feature","properties":{"id":"1814004004"},"geometry":{"type":"Polygon","coordinates":[[[-3.51222,36.74802],[-3.512,36.74763],[-3.51196,36.74723],[-3.51208,36.74698],[-3.51292,36.74623],[-3.51339,36.74567],[-3.51346,36.7457],[-3.51389,36.7451],[-3.51374,36.74398],[-3.5157,36.74499],[-3.51517,36.74566],[-3.51592,36.74684],[-3.51587,36.74768],[-3.51533,36.7479],[-3.51513,36.74816],[-3.51466,36.74758],[-3.51424,36.74768],[-3.51326,36.74771],[-3.51222,36.74802]]]}},{"type":"Feature","properties":{"id":"1814004005"},"geometry":{"type":"Polygon","coordinates":[[[-3.50927,36.7462],[-3.50954,36.7461],[-3.50965,36.74633],[-3.51055,36.74605],[-3.51093,36.74685],[-3.51223,36.74646],[-3.51268,36.74645],[-3.51208,36.74698],[-3.51196,36.74723],[-3.512,36.74763],[-3.51223,36.74801],[-3.51095,36.7485],[-3.50947,36.74949],[-3.5091,36.74761],[-3.50927,36.7462]]]}},{"type":"Feature","properties":{"id":"1814004006"},"geometry":{"type":"Polygon","coordinates":[[[-3.48638,36.7479],[-3.48646,36.74779],[-3.48697,36.7434],[-3.48611,36.7405],[-3.48587,36.73926],[-3.48832,36.7382],[-3.4923,36.73565],[-3.49628,36.73384],[-3.5021,36.73178],[-3.50634,36.72808],[-3.5075,36.72873],[-3.50834,36.73008],[-3.50838,36.73057],[-3.50878,36.73132],[-3.51022,36.73317],[-3.51053,36.73373],[-3.51159,36.73498],[-3.51194,36.73521],[-3.51339,36.73717],[-3.5135,36.73762],[-3.51346,36.73912],[-3.51319,36.74321],[-3.51346,36.74341],[-3.51375,36.74406],[-3.51257,36.7436],[-3.51006,36.74368],[-3.50987,36.74387],[-3.50971,36.74471],[-3.50679,36.74595],[-3.50459,36.74637],[-3.504,36.74661],[-3.5029,36.74637],[-3.50227,36.74646],[-3.50137,36.74643],[-3.5012,36.74703],[-3.50141,36.74726],[-3.50117,36.74747],[-3.50075,36.74814],[-3.50063,36.74859],[-3.50088,36.7498],[-3.49987,36.74946],[-3.49874,36.7489],[-3.49866,36.74868],[-3.49891,36.7483],[-3.49882,36.74815],[-3.49857,36.74814],[-3.49804,36.74834],[-3.4977,36.74825],[-3.49733,36.74851],[-3.49747,36.74906],[-3.49745,36.74998],[-3.49716,36.75023],[-3.49562,36.7503],[-3.49544,36.75039],[-3.49537,36.75115],[-3.49524,36.75134],[-3.49497,36.75058],[-3.49401,36.75038],[-3.49229,36.7508],[-3.49158,36.75129],[-3.49108,36.75105],[-3.48807,36.75156],[-3.48748,36.75143],[-3.48751,36.75131],[-3.4873,36.75091],[-3.48762,36.75034],[-3.48666,36.74948],[-3.48664,36.74937],[-3.48704,36.74907],[-3.48712,36.74885],[-3.48638,36.7479]]]}},{"type":"Feature","properties":{"id":"1814004007"},"geometry":{"type":"Polygon","coordinates":[[[-3.51854,36.75629],[-3.51862,36.75242],[-3.51895,36.74888],[-3.52222,36.75378],[-3.52228,36.75438],[-3.52143,36.75452],[-3.52124,36.75466],[-3.52104,36.75491],[-3.52103,36.75575],[-3.51995,36.75572],[-3.51995,36.75635],[-3.51926,36.75633],[-3.51923,36.75626],[-3.51854,36.75629]]]}},{"type":"Feature","properties":{"id":"1814004008"},"geometry":{"type":"Polygon","coordinates":[[[-3.48775,36.78438],[-3.48818,36.78319],[-3.48836,36.78239],[-3.48827,36.78118],[-3.48833,36.77986],[-3.48846,36.77893],[-3.4888,36.77811],[-3.48949,36.77744],[-3.48993,36.77716],[-3.49204,36.77627],[-3.49229,36.77592],[-3.49216,36.77559],[-3.49105,36.77527],[-3.49096,36.77514],[-3.49102,36.77502],[-3.49157,36.77489],[-3.49304,36.77411],[-3.49357,36.77396],[-3.49476,36.77382],[-3.49626,36.77402],[-3.49742,36.77384],[-3.50063,36.77227],[-3.50193,36.77157],[-3.50233,36.77093],[-3.5023,36.77063],[-3.50272,36.76982],[-3.5049,36.76798],[-3.505,36.76766],[-3.50457,36.76571],[-3.50462,36.76534],[-3.50499,36.76521],[-3.50578,36.76529],[-3.50632,36.76497],[-3.50653,36.76468],[-3.50679,36.7637],[-3.50745,36.76229],[-3.50868,36.76132],[-3.50968,36.76102],[-3.50997,36.76069],[-3.51002,36.76034],[-3.50979,36.7587],[-3.50985,36.75803],[-3.51021,36.75724],[-3.51032,36.75671],[-3.5109,36.75567],[-3.51099,36.75515],[-3.51086,36.754],[-3.51152,36.752],[-3.51237,36.75205],[-3.51229,36.75281],[-3.51485,36.75299],[-3.51662,36.75303],[-3.51659,36.75346],[-3.51865,36.75354],[-3.51854,36.75635],[-3.5183,36.75644],[-3.51849,36.75659],[-3.51857,36.757],[-3.51858,36.75844],[-3.51797,36.76025],[-3.51732,36.76097],[-3.51696,36.76168],[-3.51673,36.76289],[-3.51724,36.76374],[-3.51761,36.76587],[-3.51655,36.76774],[-3.51623,36.76792],[-3.51421,36.76805],[-3.5136,36.76837],[-3.51333,36.76901],[-3.51197,36.77125],[-3.51179,36.77136],[-3.51129,36.77137],[-3.51118,36.77149],[-3.5112,36.77197],[-3.51048,36.77235],[-3.51023,36.77295],[-3.50987,36.7732],[-3.50968,36.77368],[-3.50974,36.77424],[-3.50925,36.77462],[-3.50897,36.77522],[-3.509,36.77566],[-3.50883,36.77572],[-3.50847,36.77565],[-3.50791,36.77538],[-3.50737,36.7749],[-3.50659,36.77473],[-3.50673,36.77585],[-3.50631,36.77675],[-3.50643,36.77807],[-3.50676,36.77829],[-3.50736,36.77826],[-3.50782,36.77839],[-3.50818,36.7787],[-3.50826,36.77913],[-3.50819,36.77924],[-3.50712,36.77928],[-3.50661,36.77956],[-3.50601,36.78028],[-3.50595,36.78121],[-3.50221,36.78145],[-3.50034,36.78148],[-3.49939,36.78139],[-3.49701,36.78149],[-3.49632,36.78171],[-3.49603,36.78192],[-3.49545,36.78185],[-3.49436,36.78191],[-3.4933,36.78216],[-3.49192,36.78228],[-3.49128,36.78251],[-3.49004,36.78374],[-3.48894,36.78451],[-3.48864,36.78464],[-3.48835,36.78463],[-3.48775,36.78438]]]}},{"type":"Feature","properties":{"id":"1814004009"},"geometry":{"type":"Polygon","coordinates":[[[-3.51203,36.74814],[-3.51326,36.74771],[-3.51424,36.74768],[-3.51466,36.74758],[-3.51513,36.74816],[-3.51421,36.74938],[-3.5128,36.75074],[-3.51087,36.75009],[-3.51153,36.74879],[-3.51176,36.74869],[-3.51203,36.74814]]]}},{"type":"Feature","properties":{"id":"1814004010"},"geometry":{"type":"Polygon","coordinates":[[[-3.47229,36.78296],[-3.47314,36.78222],[-3.47346,36.78156],[-3.47376,36.78122],[-3.4739,36.78063],[-3.47419,36.78014],[-3.47414,36.77923],[-3.47389,36.7789],[-3.47348,36.77722],[-3.47375,36.77676],[-3.4738,36.77641],[-3.47396,36.77625],[-3.47388,36.77523],[-3.47397,36.7748],[-3.47383,36.77427],[-3.47389,36.77382],[-3.47378,36.7735],[-3.473,36.77278],[-3.47281,36.77208],[-3.47283,36.77147],[-3.47304,36.7709],[-3.47307,36.76894],[-3.47326,36.76828],[-3.47374,36.76793],[-3.47441,36.76719],[-3.47448,36.7667],[-3.47486,36.76592],[-3.47553,36.76506],[-3.47597,36.76484],[-3.47689,36.76457],[-3.47763,36.76462],[-3.47868,36.76485],[-3.47914,36.76475],[-3.48013,36.76475],[-3.48064,36.7646],[-3.48087,36.76448],[-3.48146,36.76293],[-3.48446,36.7619],[-3.48464,36.76137],[-3.48463,36.76083],[-3.4852,36.76063],[-3.48531,36.76002],[-3.48595,36.75968],[-3.48614,36.75933],[-3.4863,36.75851],[-3.48754,36.75833],[-3.48855,36.75768],[-3.49177,36.75759],[-3.49215,36.75749],[-3.49251,36.75734],[-3.49299,36.7567],[-3.49369,36.75604],[-3.49678,36.75473],[-3.49766,36.75488],[-3.49812,36.75486],[-3.49886,36.75447],[-3.49988,36.75414],[-3.50099,36.75347],[-3.50393,36.75243],[-3.50621,36.75115],[-3.50661,36.75101],[-3.50752,36.75095],[-3.50825,36.75056],[-3.50935,36.74957],[-3.51065,36.74867],[-3.51112,36.74842],[-3.51203,36.74814],[-3.51176,36.74869],[-3.51153,36.74879],[-3.51087,36.75009],[-3.5128,36.75074],[-3.51163,36.75181],[-3.51121,36.75276],[-3.51086,36.754],[-3.51099,36.75515],[-3.5109,36.75567],[-3.51032,36.75671],[-3.51021,36.75724],[-3.50985,36.75803],[-3.50979,36.7587],[-3.51002,36.76034],[-3.50997,36.76069],[-3.50968,36.76102],[-3.50868,36.76132],[-3.50745,36.76229],[-3.50679,36.7637],[-3.50653,36.76468],[-3.50632,36.76497],[-3.50578,36.76529],[-3.50499,36.76521],[-3.50462,36.76534],[-3.50457,36.76571],[-3.505,36.76766],[-3.5049,36.76798],[-3.50272,36.76982],[-3.5023,36.77063],[-3.50233,36.77093],[-3.50193,36.77157],[-3.49742,36.77384],[-3.49626,36.77402],[-3.49476,36.77382],[-3.49357,36.77396],[-3.49304,36.77411],[-3.49157,36.77489],[-3.49102,36.77502],[-3.49096,36.77514],[-3.49105,36.77527],[-3.49216,36.77559],[-3.49229,36.77592],[-3.49204,36.77627],[-3.48993,36.77716],[-3.48949,36.77744],[-3.4888,36.77811],[-3.48846,36.77893],[-3.48833,36.77986],[-3.48827,36.78118],[-3.48836,36.78239],[-3.48818,36.78319],[-3.48775,36.78438],[-3.48641,36.78393],[-3.486,36.78323],[-3.4837,36.78276],[-3.48309,36.78282],[-3.48254,36.78336],[-3.48201,36.78357],[-3.47939,36.78313],[-3.47896,36.78318],[-3.47826,36.78344],[-3.47808,36.78341],[-3.47734,36.78281],[-3.47636,36.7825],[-3.47593,36.78248],[-3.47303,36.78302],[-3.47229,36.78296]]]}},{"type":"Feature","properties":{"id":"1814004011"},"geometry":{"type":"Polygon","coordinates":[[[-3.50944,36.74609],[-3.50987,36.74387],[-3.51006,36.74368],[-3.51257,36.7436],[-3.51375,36.74406],[-3.51389,36.7451],[-3.51346,36.7457],[-3.51339,36.74567],[-3.51268,36.74645],[-3.51223,36.74646],[-3.51093,36.74685],[-3.51055,36.74605],[-3.50965,36.74633],[-3.50954,36.7461],[-3.50944,36.74609]]]}},{"type":"Feature","properties":{"id":"1814004012"},"geometry":{"type":"Polygon","coordinates":[[[-3.51485,36.75298],[-3.51501,36.75143],[-3.51724,36.7516],[-3.51743,36.75199],[-3.51741,36.75235],[-3.51862,36.75242],[-3.51865,36.75354],[-3.51659,36.75346],[-3.51662,36.75303],[-3.51485,36.75298]]]}},{"type":"Feature","properties":{"id":"1814004013"},"geometry":{"type":"Polygon","coordinates":[[[-3.48638,36.7479],[-3.48712,36.74885],[-3.48704,36.74907],[-3.48664,36.74937],[-3.48666,36.74948],[-3.48762,36.75034],[-3.4873,36.75091],[-3.48751,36.75131],[-3.48748,36.75143],[-3.48807,36.75156],[-3.49108,36.75105],[-3.49158,36.75129],[-3.49229,36.7508],[-3.49401,36.75038],[-3.49497,36.75058],[-3.49524,36.75134],[-3.49537,36.75115],[-3.49544,36.75039],[-3.49562,36.7503],[-3.49716,36.75023],[-3.49745,36.74998],[-3.49747,36.74906],[-3.49733,36.74851],[-3.4977,36.74825],[-3.49804,36.74834],[-3.49857,36.74814],[-3.49882,36.74815],[-3.49891,36.7483],[-3.49866,36.74868],[-3.49874,36.7489],[-3.49987,36.74946],[-3.50088,36.7498],[-3.50063,36.74859],[-3.50075,36.74814],[-3.50117,36.74747],[-3.50141,36.74726],[-3.5012,36.74703],[-3.50137,36.74643],[-3.50227,36.74646],[-3.5029,36.74637],[-3.504,36.74661],[-3.50459,36.74637],[-3.50679,36.74595],[-3.50971,36.74471],[-3.50943,36.74611],[-3.50927,36.7462],[-3.5091,36.74761],[-3.50947,36.74949],[-3.50825,36.75056],[-3.50752,36.75095],[-3.50661,36.75101],[-3.50621,36.75115],[-3.50393,36.75243],[-3.50099,36.75347],[-3.49988,36.75414],[-3.49886,36.75447],[-3.49812,36.75486],[-3.49766,36.75488],[-3.49678,36.75473],[-3.49583,36.75509],[-3.49369,36.75604],[-3.49299,36.7567],[-3.49251,36.75734],[-3.49177,36.75759],[-3.48855,36.75768],[-3.48791,36.75806],[-3.48744,36.75736],[-3.48621,36.75663],[-3.48574,36.75552],[-3.48458,36.75361],[-3.48418,36.75182],[-3.48494,36.74971],[-3.48638,36.7479]]]}},{"type":"Feature","properties":{"id":"1814004014"},"geometry":{"type":"Polygon","coordinates":[[[-3.51854,36.75629],[-3.51923,36.75626],[-3.51926,36.75633],[-3.51995,36.75635],[-3.51995,36.75572],[-3.52103,36.75575],[-3.52108,36.75659],[-3.52153,36.75742],[-3.52155,36.75769],[-3.5202,36.75766],[-3.52012,36.75817],[-3.51995,36.75839],[-3.51916,36.7589],[-3.51975,36.75965],[-3.51999,36.76031],[-3.51947,36.76065],[-3.51871,36.76067],[-3.51967,36.7639],[-3.5188,36.76416],[-3.51802,36.76342],[-3.51773,36.76333],[-3.51746,36.76341],[-3.51727,36.76391],[-3.51673,36.76289],[-3.51696,36.76168],[-3.51732,36.76097],[-3.51797,36.76025],[-3.51858,36.75844],[-3.51857,36.757],[-3.51849,36.75659],[-3.5183,36.75644],[-3.51854,36.75629]]]}},{"type":"Feature","properties":{"id":"1814005001"},"geometry":{"type":"Polygon","coordinates":[[[-3.41576,36.70652],[-3.41621,36.70628],[-3.41646,36.70567],[-3.41627,36.70498],[-3.41609,36.70472],[-3.41587,36.70487],[-3.41501,36.70503],[-3.41348,36.70519],[-3.4124,36.70507],[-3.41114,36.70425],[-3.41094,36.70376],[-3.41095,36.70338],[-3.41118,36.70299],[-3.41191,36.7029],[-3.41239,36.70273],[-3.41365,36.70162],[-3.41592,36.69772],[-3.41726,36.69601],[-3.41892,36.6946],[-3.41968,36.69423],[-3.42035,36.69409],[-3.42101,36.6941],[-3.42244,36.69464],[-3.42321,36.69473],[-3.42378,36.69498],[-3.42493,36.69516],[-3.42534,36.7009],[-3.42582,36.70294],[-3.42866,36.70299],[-3.4294,36.70577],[-3.42984,36.70681],[-3.43077,36.70823],[-3.43113,36.71033],[-3.43284,36.71369],[-3.43398,36.71532],[-3.43422,36.71593],[-3.43427,36.71664],[-3.43449,36.71725],[-3.43458,36.71824],[-3.43488,36.7196],[-3.43486,36.71988],[-3.43452,36.7203],[-3.43426,36.72046],[-3.43387,36.72051],[-3.43372,36.72074],[-3.43368,36.72099],[-3.43321,36.72168],[-3.43329,36.72243],[-3.43267,36.72317],[-3.43235,36.72383],[-3.43214,36.72405],[-3.43121,36.72435],[-3.43086,36.72491],[-3.43079,36.72528],[-3.43087,36.72563],[-3.43068,36.72628],[-3.43136,36.72786],[-3.43173,36.72943],[-3.43225,36.73011],[-3.43263,36.73038],[-3.43302,36.73136],[-3.43376,36.7324],[-3.43354,36.73304],[-3.43317,36.73325],[-3.43106,36.73354],[-3.43072,36.73349],[-3.42972,36.73357],[-3.4289,36.73417],[-3.42867,36.73423],[-3.42709,36.73374],[-3.42663,36.73367],[-3.426,36.73379],[-3.42471,36.73385],[-3.42437,36.73368],[-3.42325,36.73255],[-3.42283,36.73231],[-3.42202,36.73159],[-3.42072,36.73082],[-3.41827,36.72983],[-3.41662,36.72949],[-3.4162,36.72927],[-3.41572,36.72918],[-3.41313,36.72908],[-3.41202,36.72938],[-3.41204,36.73054],[-3.4116,36.73047],[-3.41092,36.73053],[-3.41082,36.73023],[-3.41106,36.72937],[-3.41099,36.7291],[-3.41078,36.72884],[-3.41007,36.7284],[-3.40974,36.72808],[-3.40964,36.72778],[-3.40988,36.72653],[-3.41022,36.72603],[-3.41191,36.7252],[-3.41251,36.72521],[-3.41277,36.72508],[-3.41331,36.72465],[-3.41409,36.72366],[-3.41463,36.72331],[-3.41544,36.72304],[-3.41572,36.72286],[-3.41625,36.72225],[-3.41664,36.72112],[-3.41666,36.72081],[-3.41622,36.71957],[-3.41613,36.71872],[-3.41633,36.71816],[-3.41626,36.71736],[-3.41649,36.71674],[-3.41705,36.71609],[-3.41686,36.71453],[-3.41644,36.71386],[-3.41714,36.71231],[-3.41723,36.71119],[-3.41707,36.71058],[-3.41673,36.70992],[-3.41618,36.70958],[-3.41616,36.70943],[-3.41645,36.70916],[-3.41645,36.70904],[-3.41602,36.70879],[-3.41584,36.70855],[-3.41626,36.70798],[-3.41576,36.70652]]]}},{"type":"Feature","properties":{"id":"1814005003"},"geometry":{"type":"Polygon","coordinates":[[[-3.49922,36.71969],[-3.49833,36.71766],[-3.4978,36.71669],[-3.49634,36.71519],[-3.49673,36.71451],[-3.49715,36.71402],[-3.49959,36.71229],[-3.50066,36.71098],[-3.50216,36.71223],[-3.50268,36.7125],[-3.5048,36.71416],[-3.5066,36.71573],[-3.51017,36.71849],[-3.51328,36.72049],[-3.51546,36.72169],[-3.51741,36.72231],[-3.5182,36.72243],[-3.51943,36.72235],[-3.51985,36.72255],[-3.52,36.72236],[-3.52042,36.72238],[-3.52264,36.72358],[-3.52486,36.72441],[-3.52518,36.72466],[-3.52415,36.72662],[-3.52441,36.73034],[-3.52396,36.73205],[-3.5234,36.73177],[-3.52257,36.73098],[-3.52103,36.72922],[-3.52103,36.72843],[-3.52051,36.72826],[-3.52078,36.72755],[-3.52001,36.72727],[-3.51948,36.7272],[-3.51903,36.72668],[-3.51824,36.7267],[-3.518,36.7268],[-3.51792,36.72605],[-3.51771,36.72584],[-3.51638,36.72525],[-3.51552,36.72477],[-3.51507,36.7247],[-3.51446,36.72424],[-3.51407,36.72378],[-3.51212,36.72301],[-3.51208,36.72254],[-3.51135,36.72183],[-3.51071,36.7216],[-3.50994,36.72111],[-3.50919,36.72151],[-3.50897,36.72153],[-3.50855,36.72137],[-3.50814,36.7215],[-3.50658,36.72076],[-3.50651,36.72029],[-3.50596,36.71919],[-3.50565,36.71897],[-3.50527,36.71797],[-3.50484,36.71732],[-3.50449,36.71708],[-3.50286,36.71631],[-3.50213,36.71619],[-3.50163,36.71636],[-3.50132,36.71742],[-3.50107,36.71792],[-3.49953,36.71968],[-3.49922,36.71969]]]}},{"type":"Feature","properties":{"id":"1814005004"},"geometry":{"type":"Polygon","coordinates":[[[-3.56361,36.74493],[-3.56381,36.74457],[-3.56344,36.74379],[-3.56047,36.74282],[-3.56008,36.7426],[-3.54758,36.73264],[-3.54495,36.73078],[-3.5441,36.73049],[-3.54326,36.73033],[-3.54309,36.73113],[-3.54314,36.73155],[-3.54246,36.73265],[-3.54197,36.73313],[-3.53901,36.73195],[-3.53717,36.73144],[-3.53551,36.7308],[-3.53569,36.72861],[-3.53442,36.72864],[-3.53395,36.72841],[-3.53025,36.72764],[-3.52983,36.72757],[-3.52896,36.72763],[-3.52818,36.72786],[-3.52748,36.72776],[-3.52687,36.7285],[-3.52624,36.72978],[-3.52521,36.73047],[-3.52447,36.73159],[-3.52404,36.73208],[-3.52396,36.73205],[-3.52441,36.73034],[-3.52415,36.72662],[-3.52518,36.72466],[-3.52486,36.72441],[-3.52264,36.72358],[-3.52042,36.72238],[-3.52,36.72236],[-3.51985,36.72255],[-3.51934,36.72231],[-3.52081,36.7204],[-3.52089,36.72022],[-3.52081,36.71997],[-3.5212,36.71946],[-3.52249,36.72002],[-3.52259,36.72014],[-3.52249,36.72019],[-3.52168,36.71981],[-3.52132,36.72032],[-3.52145,36.72038],[-3.52062,36.72156],[-3.52199,36.72218],[-3.52297,36.72079],[-3.52293,36.72088],[-3.52309,36.72087],[-3.52374,36.71999],[-3.52393,36.71993],[-3.52401,36.72004],[-3.52393,36.72023],[-3.52423,36.72048],[-3.52268,36.72271],[-3.52291,36.72282],[-3.52279,36.72301],[-3.52581,36.7241],[-3.52599,36.7239],[-3.52589,36.72415],[-3.52614,36.72414],[-3.5261,36.72406],[-3.52698,36.72424],[-3.52727,36.72415],[-3.52774,36.72421],[-3.52777,36.72439],[-3.52797,36.72438],[-3.528,36.72428],[-3.52814,36.72428],[-3.5283,36.72338],[-3.52824,36.72435],[-3.52845,36.72434],[-3.52849,36.72413],[-3.52847,36.72431],[-3.52869,36.72434],[-3.5288,36.72333],[-3.52896,36.72335],[-3.52876,36.72417],[-3.52887,36.72418],[-3.52911,36.72388],[-3.5292,36.7239],[-3.52935,36.72309],[-3.52921,36.72296],[-3.52937,36.722],[-3.52949,36.72202],[-3.5295,36.7219],[-3.52914,36.72119],[-3.52832,36.72048],[-3.52235,36.71785],[-3.52221,36.71791],[-3.52202,36.71782],[-3.52203,36.71757],[-3.5224,36.71752],[-3.52606,36.71918],[-3.52657,36.71932],[-3.52724,36.7197],[-3.52798,36.71996],[-3.528,36.72004],[-3.52831,36.72009],[-3.52914,36.72068],[-3.53049,36.72144],[-3.53232,36.72209],[-3.533,36.72223],[-3.53529,36.72243],[-3.5372,36.72206],[-3.53862,36.72157],[-3.54006,36.72083],[-3.54303,36.71887],[-3.54446,36.71751],[-3.54603,36.71634],[-3.54819,36.71523],[-3.54961,36.71477],[-3.55055,36.71458],[-3.55205,36.71458],[-3.55418,36.71502],[-3.56211,36.71736],[-3.56281,36.71766],[-3.5654,36.71837],[-3.56705,36.71903],[-3.56191,36.72776],[-3.56293,36.73208],[-3.56374,36.7348],[-3.56255,36.7353],[-3.56337,36.73746],[-3.56474,36.74244],[-3.56505,36.74544],[-3.56426,36.74542],[-3.56334,36.74514],[-3.56361,36.74493]]]}},{"type":"Feature","properties":{"id":"1814005005"},"geometry":{"type":"Polygon","coordinates":[[[-3.46517,36.69472],[-3.46527,36.69552],[-3.46429,36.69553],[-3.46396,36.69572],[-3.46395,36.69605],[-3.46417,36.6966],[-3.46413,36.69686],[-3.46368,36.69684],[-3.46082,36.69821],[-3.46037,36.69819],[-3.45885,36.70013],[-3.45824,36.70056],[-3.45732,36.70083],[-3.45703,36.70117],[-3.45705,36.70135],[-3.45729,36.7014],[-3.45737,36.70152],[-3.45722,36.70194],[-3.45603,36.70192],[-3.45598,36.70199],[-3.45602,36.70248],[-3.45636,36.70347],[-3.45709,36.70375],[-3.45783,36.70384],[-3.4585,36.70447],[-3.45813,36.70594],[-3.45814,36.70643],[-3.45784,36.70694],[-3.45765,36.70784],[-3.45764,36.70844],[-3.45785,36.7089],[-3.45819,36.70918],[-3.45835,36.70949],[-3.45764,36.70983],[-3.45745,36.71018],[-3.45767,36.71108],[-3.45777,36.71125],[-3.45815,36.71143],[-3.45783,36.71168],[-3.4578,36.7123],[-3.4579,36.71258],[-3.45784,36.71351],[-3.45816,36.71423],[-3.45766,36.71481],[-3.45801,36.71565],[-3.4578,36.71613],[-3.45775,36.71675],[-3.45737,36.71739],[-3.45782,36.71751],[-3.45898,36.7181],[-3.45966,36.71828],[-3.45995,36.71864],[-3.45993,36.71887],[-3.45947,36.71947],[-3.45988,36.71957],[-3.4606,36.7204],[-3.46211,36.72157],[-3.46202,36.72151],[-3.46257,36.72252],[-3.46315,36.72311],[-3.46377,36.72355],[-3.46429,36.72415],[-3.46487,36.72454],[-3.46506,36.72501],[-3.46454,36.7249],[-3.46422,36.72496],[-3.46201,36.72416],[-3.4612,36.72375],[-3.4599,36.72337],[-3.45943,36.72339],[-3.45883,36.72355],[-3.45808,36.72349],[-3.45791,36.72341],[-3.45732,36.7236],[-3.45564,36.72362],[-3.45517,36.7239],[-3.45429,36.72396],[-3.45298,36.72473],[-3.45133,36.72425],[-3.45089,36.72402],[-3.45044,36.72398],[-3.44937,36.72475],[-3.4476,36.72568],[-3.44734,36.72604],[-3.44692,36.72627],[-3.44583,36.72678],[-3.44494,36.72703],[-3.44448,36.72736],[-3.44244,36.72803],[-3.44172,36.72904],[-3.44068,36.73005],[-3.43925,36.73055],[-3.43869,36.73065],[-3.43651,36.73076],[-3.43531,36.73106],[-3.43396,36.732],[-3.43376,36.7324],[-3.43302,36.73136],[-3.43263,36.73038],[-3.43225,36.73011],[-3.43173,36.72943],[-3.43136,36.72786],[-3.43068,36.72628],[-3.43087,36.72563],[-3.43079,36.72528],[-3.43086,36.72491],[-3.43121,36.72435],[-3.43214,36.72405],[-3.43235,36.72383],[-3.43267,36.72317],[-3.43329,36.72243],[-3.43321,36.72168],[-3.43368,36.72099],[-3.43372,36.72074],[-3.43387,36.72051],[-3.43426,36.72046],[-3.43452,36.7203],[-3.43486,36.71988],[-3.43488,36.7196],[-3.43458,36.71824],[-3.43449,36.71725],[-3.43427,36.71664],[-3.43422,36.71593],[-3.43398,36.71532],[-3.43284,36.71369],[-3.43113,36.71033],[-3.43077,36.70823],[-3.42984,36.70681],[-3.4294,36.70577],[-3.42866,36.70299],[-3.42582,36.70294],[-3.42534,36.7009],[-3.42493,36.69516],[-3.42612,36.69535],[-3.42731,36.69522],[-3.42776,36.69538],[-3.42868,36.69541],[-3.43033,36.69514],[-3.43295,36.69495],[-3.43548,36.69493],[-3.43781,36.69461],[-3.43803,36.69452],[-3.43811,36.69438],[-3.43956,36.69476],[-3.44091,36.69498],[-3.44298,36.6951],[-3.44351,36.69499],[-3.44403,36.69466],[-3.44664,36.69519],[-3.44974,36.69533],[-3.45024,36.6953],[-3.45143,36.69499],[-3.45206,36.69457],[-3.45449,36.69543],[-3.45701,36.69602],[-3.45913,36.69583],[-3.4596,36.69588],[-3.46063,36.69622],[-3.46183,36.69627],[-3.46313,36.69554],[-3.46364,36.69505],[-3.46476,36.69465],[-3.46517,36.69472]]]}},{"type":"Feature","properties":{"id":"1814005006"},"geometry":{"type":"Polygon","coordinates":[[[-3.42826,36.78602],[-3.42773,36.78557],[-3.42657,36.78392],[-3.42619,36.78299],[-3.42497,36.78094],[-3.42484,36.77931],[-3.42417,36.77768],[-3.42409,36.7767],[-3.42356,36.77397],[-3.42322,36.77333],[-3.42184,36.77218],[-3.42111,36.77135],[-3.42072,36.77068],[-3.41975,36.76867],[-3.41848,36.765],[-3.41847,36.76417],[-3.41906,36.76271],[-3.4197,36.76148],[-3.42001,36.76071],[-3.42005,36.76034],[-3.41974,36.75649],[-3.41937,36.75482],[-3.41945,36.7543],[-3.41919,36.75357],[-3.41895,36.75324],[-3.41815,36.75239],[-3.41701,36.75157],[-3.41631,36.75081],[-3.416,36.74896],[-3.4164,36.7482],[-3.41648,36.74752],[-3.41626,36.74635],[-3.41684,36.74315],[-3.41743,36.74109],[-3.41777,36.74041],[-3.41799,36.73964],[-3.41795,36.73928],[-3.41781,36.73897],[-3.41748,36.73865],[-3.41632,36.73788],[-3.41614,36.7376],[-3.41547,36.73704],[-3.41496,36.73594],[-3.41459,36.73557],[-3.41407,36.73518],[-3.41232,36.7342],[-3.41224,36.7337],[-3.41241,36.73205],[-3.41232,36.73154],[-3.41184,36.73105],[-3.411,36.73057],[-3.4116,36.73047],[-3.41204,36.73054],[-3.41202,36.72938],[-3.41313,36.72908],[-3.41525,36.72914],[-3.4162,36.72927],[-3.41662,36.72949],[-3.41827,36.72983],[-3.42072,36.73082],[-3.42202,36.73159],[-3.42283,36.73231],[-3.42325,36.73255],[-3.42437,36.73368],[-3.42471,36.73385],[-3.426,36.73379],[-3.42663,36.73367],[-3.42709,36.73374],[-3.42867,36.73423],[-3.4289,36.73417],[-3.42972,36.73357],[-3.43072,36.73349],[-3.43106,36.73354],[-3.43317,36.73325],[-3.43354,36.73304],[-3.43396,36.732],[-3.43531,36.73106],[-3.43651,36.73076],[-3.43869,36.73065],[-3.43925,36.73055],[-3.44068,36.73005],[-3.44172,36.72904],[-3.44244,36.72803],[-3.44448,36.72736],[-3.44494,36.72703],[-3.44583,36.72678],[-3.44692,36.72627],[-3.44734,36.72604],[-3.4476,36.72568],[-3.44937,36.72475],[-3.45044,36.72398],[-3.45089,36.72402],[-3.45133,36.72425],[-3.45298,36.72473],[-3.45429,36.72396],[-3.45517,36.7239],[-3.45564,36.72362],[-3.45732,36.7236],[-3.45791,36.72341],[-3.45808,36.72349],[-3.45883,36.72355],[-3.45943,36.72339],[-3.4599,36.72337],[-3.4612,36.72375],[-3.46201,36.72416],[-3.46422,36.72496],[-3.46454,36.7249],[-3.46506,36.72501],[-3.46487,36.72454],[-3.46429,36.72415],[-3.46377,36.72355],[-3.46315,36.72311],[-3.46257,36.72252],[-3.46202,36.72151],[-3.46211,36.72157],[-3.4606,36.7204],[-3.45988,36.71957],[-3.45947,36.71947],[-3.45993,36.71887],[-3.45995,36.71864],[-3.45966,36.71828],[-3.45898,36.7181],[-3.45782,36.71751],[-3.45737,36.71739],[-3.45775,36.71675],[-3.4578,36.71613],[-3.45801,36.71565],[-3.45766,36.71481],[-3.45816,36.71423],[-3.45784,36.71351],[-3.4579,36.71258],[-3.4578,36.7123],[-3.45783,36.71168],[-3.45815,36.71143],[-3.45777,36.71125],[-3.45767,36.71108],[-3.45745,36.71018],[-3.45764,36.70983],[-3.45835,36.70949],[-3.45819,36.70918],[-3.45785,36.7089],[-3.45764,36.70844],[-3.45765,36.70784],[-3.45784,36.70694],[-3.45814,36.70643],[-3.45813,36.70594],[-3.4585,36.70447],[-3.45783,36.70384],[-3.45709,36.70375],[-3.45636,36.70347],[-3.45602,36.70248],[-3.45598,36.70199],[-3.45603,36.70192],[-3.45722,36.70194],[-3.45737,36.70152],[-3.45729,36.7014],[-3.45705,36.70135],[-3.45703,36.70117],[-3.45732,36.70083],[-3.45824,36.70056],[-3.45885,36.70013],[-3.46037,36.69819],[-3.46082,36.69821],[-3.46368,36.69684],[-3.46413,36.69686],[-3.46417,36.6966],[-3.46395,36.69605],[-3.46396,36.69572],[-3.46429,36.69553],[-3.46527,36.69552],[-3.4656,36.69605],[-3.46564,36.69643],[-3.46539,36.69675],[-3.46496,36.69835],[-3.46441,36.69893],[-3.46425,36.69982],[-3.4644,36.70022],[-3.46534,36.70113],[-3.46525,36.70176],[-3.46551,36.70231],[-3.46561,36.7028],[-3.46513,36.70361],[-3.46513,36.70413],[-3.46476,36.70605],[-3.46485,36.70662],[-3.46465,36.70698],[-3.46388,36.70764],[-3.46323,36.70933],[-3.46797,36.71175],[-3.46885,36.71233],[-3.46976,36.71405],[-3.47025,36.71466],[-3.47037,36.71537],[-3.47173,36.71651],[-3.47213,36.71746],[-3.47223,36.71808],[-3.47293,36.71852],[-3.47416,36.72004],[-3.4794,36.72095],[-3.48091,36.71993],[-3.48117,36.71956],[-3.48138,36.71868],[-3.48219,36.71806],[-3.48296,36.71917],[-3.48341,36.71913],[-3.48365,36.71924],[-3.48382,36.71935],[-3.48407,36.71993],[-3.48491,36.72],[-3.48567,36.72028],[-3.48576,36.72046],[-3.48577,36.72128],[-3.48606,36.72161],[-3.48733,36.72193],[-3.48909,36.72178],[-3.48991,36.7218],[-3.49017,36.72194],[-3.49106,36.72287],[-3.49234,36.72352],[-3.49366,36.72201],[-3.49585,36.72017],[-3.49635,36.71949],[-3.49651,36.71904],[-3.49655,36.71847],[-3.49616,36.71699],[-3.4961,36.71636],[-3.49634,36.71519],[-3.4978,36.71669],[-3.49833,36.71766],[-3.49894,36.71922],[-3.50023,36.72123],[-3.50053,36.7216],[-3.50155,36.72238],[-3.50415,36.72502],[-3.50484,36.72601],[-3.50559,36.72753],[-3.50634,36.72808],[-3.5021,36.73178],[-3.49628,36.73384],[-3.4923,36.73565],[-3.48832,36.7382],[-3.48587,36.73926],[-3.48611,36.7405],[-3.48697,36.7434],[-3.48646,36.74779],[-3.48494,36.74971],[-3.48418,36.75182],[-3.48458,36.75361],[-3.48574,36.75552],[-3.48621,36.75663],[-3.48744,36.75736],[-3.48791,36.75806],[-3.48754,36.75833],[-3.4863,36.75851],[-3.48614,36.75933],[-3.48595,36.75968],[-3.48531,36.76002],[-3.4852,36.76063],[-3.48463,36.76083],[-3.48464,36.76137],[-3.48446,36.7619],[-3.48146,36.76293],[-3.48087,36.76448],[-3.48013,36.76475],[-3.47914,36.76475],[-3.47868,36.76485],[-3.47763,36.76462],[-3.47689,36.76457],[-3.47597,36.76484],[-3.47553,36.76506],[-3.47486,36.76592],[-3.47448,36.7667],[-3.47441,36.76719],[-3.47374,36.76793],[-3.47326,36.76828],[-3.47307,36.76894],[-3.47304,36.7709],[-3.47283,36.77147],[-3.47281,36.77208],[-3.473,36.77278],[-3.47378,36.7735],[-3.47389,36.77382],[-3.47383,36.77427],[-3.47397,36.7748],[-3.47388,36.77523],[-3.47396,36.77625],[-3.4738,36.77641],[-3.47375,36.77676],[-3.47348,36.77722],[-3.47389,36.7789],[-3.47414,36.77923],[-3.47419,36.78014],[-3.4739,36.78063],[-3.47376,36.78122],[-3.47346,36.78156],[-3.47314,36.78222],[-3.47229,36.78296],[-3.47187,36.78277],[-3.47069,36.7818],[-3.47027,36.7816],[-3.46679,36.78145],[-3.46346,36.78169],[-3.46006,36.78153],[-3.45299,36.78155],[-3.44806,36.78176],[-3.44638,36.78296],[-3.44328,36.78491],[-3.44274,36.78512],[-3.44015,36.7854],[-3.43563,36.78625],[-3.43115,36.78589],[-3.42895,36.78633],[-3.42845,36.78635],[-3.42826,36.78602]]]}}]}