{"type":"FeatureCollection","features":[{"type":"Feature","properties":{"id":"1817301001"},"geometry":{"type":"Polygon","coordinates":[[[-3.5879,36.74431],[-3.58722,36.74406],[-3.58711,36.74366],[-3.58675,36.74355],[-3.58673,36.74329],[-3.58685,36.74325],[-3.58699,36.74296],[-3.58681,36.74287],[-3.58716,36.74263],[-3.58768,36.7428],[-3.58771,36.74273],[-3.58746,36.74259],[-3.58753,36.74256],[-3.58827,36.74275],[-3.58805,36.74235],[-3.58729,36.74162],[-3.58723,36.74122],[-3.58743,36.7406],[-3.58772,36.74066],[-3.58819,36.74026],[-3.58829,36.7403],[-3.5887,36.74007],[-3.58883,36.74021],[-3.58928,36.74032],[-3.58927,36.74038],[-3.58885,36.74031],[-3.58891,36.74057],[-3.58911,36.74051],[-3.58925,36.74058],[-3.58904,36.74118],[-3.58934,36.74157],[-3.58937,36.74317],[-3.5896,36.74327],[-3.58979,36.74353],[-3.59017,36.74377],[-3.59012,36.74439],[-3.5896,36.7446],[-3.58878,36.7442],[-3.5879,36.74431]]]}},{"type":"Feature","properties":{"id":"1817301002"},"geometry":{"type":"Polygon","coordinates":[[[-3.58778,36.74265],[-3.58784,36.74258],[-3.58696,36.7421],[-3.58623,36.74194],[-3.58615,36.74174],[-3.58561,36.74201],[-3.5853,36.74174],[-3.58541,36.7416],[-3.58494,36.74134],[-3.58613,36.73976],[-3.58587,36.73957],[-3.58631,36.73927],[-3.58598,36.73894],[-3.5844,36.73985],[-3.58313,36.74072],[-3.58277,36.7411],[-3.58201,36.74254],[-3.58204,36.74178],[-3.58181,36.74157],[-3.57947,36.74123],[-3.57761,36.74074],[-3.5724,36.73963],[-3.56851,36.73925],[-3.56734,36.73924],[-3.56653,36.73907],[-3.5638,36.73901],[-3.5629,36.73605],[-3.56255,36.7353],[-3.56374,36.7348],[-3.56293,36.73208],[-3.56191,36.72776],[-3.56705,36.71903],[-3.56805,36.71935],[-3.57137,36.72075],[-3.57679,36.72216],[-3.57801,36.72269],[-3.57833,36.72294],[-3.57957,36.72316],[-3.58016,36.7235],[-3.58064,36.72389],[-3.58201,36.72533],[-3.58305,36.72605],[-3.58471,36.72744],[-3.58699,36.72983],[-3.58834,36.73158],[-3.59066,36.7342],[-3.59172,36.73518],[-3.59262,36.73576],[-3.59187,36.73653],[-3.592,36.73663],[-3.59052,36.73773],[-3.59013,36.73797],[-3.59,36.73785],[-3.58967,36.7381],[-3.58816,36.73887],[-3.58716,36.73958],[-3.58787,36.73962],[-3.58786,36.7398],[-3.58819,36.74026],[-3.58772,36.74066],[-3.58743,36.7406],[-3.58723,36.74122],[-3.58729,36.74162],[-3.58805,36.74235],[-3.58827,36.74275],[-3.58778,36.74265]]]}},{"type":"Feature","properties":{"id":"1817301003"},"geometry":{"type":"Polygon","coordinates":[[[-3.58552,36.74555],[-3.58569,36.74533],[-3.58696,36.74467],[-3.58772,36.74463],[-3.58712,36.74424],[-3.58776,36.74445],[-3.58769,36.74424],[-3.5879,36.74431],[-3.58878,36.7442],[-3.5896,36.7446],[-3.59012,36.74439],[-3.59017,36.74377],[-3.59002,36.74366],[-3.59039,36.74359],[-3.59062,36.74379],[-3.5906,36.74441],[-3.59072,36.74481],[-3.59153,36.74582],[-3.59203,36.74607],[-3.59198,36.74657],[-3.59114,36.74602],[-3.59072,36.74628],[-3.59096,36.74663],[-3.59056,36.74662],[-3.58988,36.74691],[-3.58909,36.74698],[-3.58725,36.74613],[-3.58667,36.74614],[-3.58586,36.74565],[-3.58552,36.74555]]]}},{"type":"Feature","properties":{"id":"1817301004"},"geometry":{"type":"Polygon","coordinates":[[[-3.60404,36.77485],[-3.60257,36.77422],[-3.60032,36.77436],[-3.59775,36.77416],[-3.59476,36.7733],[-3.59366,36.77318],[-3.59221,36.77368],[-3.59087,36.774],[-3.59052,36.77394],[-3.59043,36.77373],[-3.59019,36.77365],[-3.59012,36.77352],[-3.59022,36.77326],[-3.59083,36.77308],[-3.59102,36.77272],[-3.59097,36.77249],[-3.59021,36.77172],[-3.59033,36.77133],[-3.59088,36.77135],[-3.59145,36.77114],[-3.59181,36.77127],[-3.59191,36.77121],[-3.59217,36.77084],[-3.59205,36.77028],[-3.59257,36.77021],[-3.59269,36.77012],[-3.59277,36.76981],[-3.59274,36.76954],[-3.59231,36.76902],[-3.59205,36.76889],[-3.59103,36.76894],[-3.59093,36.76879],[-3.59136,36.76852],[-3.59154,36.76814],[-3.59192,36.76787],[-3.59221,36.76788],[-3.593,36.76865],[-3.59351,36.76877],[-3.59377,36.76854],[-3.5934,36.76792],[-3.5934,36.76775],[-3.59397,36.76765],[-3.59432,36.76738],[-3.59431,36.76713],[-3.59371,36.76683],[-3.5936,36.76666],[-3.59355,36.76647],[-3.59385,36.76632],[-3.59394,36.76591],[-3.59384,36.76578],[-3.59331,36.76576],[-3.59299,36.7656],[-3.59301,36.76546],[-3.59328,36.76534],[-3.59342,36.76506],[-3.59312,36.76479],[-3.59252,36.76465],[-3.59215,36.76437],[-3.59217,36.76413],[-3.59233,36.76405],[-3.59259,36.764],[-3.59308,36.76411],[-3.59349,36.76407],[-3.594,36.76369],[-3.59391,36.76352],[-3.5933,36.76331],[-3.59318,36.76319],[-3.5932,36.76272],[-3.59264,36.76217],[-3.59262,36.76171],[-3.59287,36.76156],[-3.59341,36.7615],[-3.594,36.7619],[-3.59408,36.7621],[-3.59487,36.7622],[-3.59513,36.76208],[-3.59527,36.76189],[-3.59537,36.7614],[-3.59521,36.76086],[-3.59607,36.76069],[-3.59609,36.76044],[-3.59536,36.75995],[-3.59594,36.7596],[-3.5961,36.75917],[-3.59688,36.758],[-3.59875,36.75594],[-3.59862,36.75526],[-3.59817,36.75477],[-3.59842,36.75423],[-3.5984,36.75358],[-3.59872,36.75324],[-3.59935,36.75335],[-3.60003,36.75333],[-3.60035,36.75316],[-3.60056,36.75285],[-3.6009,36.75265],[-3.60109,36.75275],[-3.60127,36.75325],[-3.60166,36.75362],[-3.60181,36.75367],[-3.60227,36.75359],[-3.60241,36.75327],[-3.60236,36.7525],[-3.60305,36.75221],[-3.60341,36.75192],[-3.60377,36.75183],[-3.60463,36.75219],[-3.60509,36.75213],[-3.60474,36.75036],[-3.60446,36.74989],[-3.60465,36.74945],[-3.60493,36.74929],[-3.6056,36.74974],[-3.60579,36.7497],[-3.60547,36.74912],[-3.60557,36.74858],[-3.60533,36.74797],[-3.60506,36.74758],[-3.6047,36.74741],[-3.60443,36.74736],[-3.60414,36.74747],[-3.60393,36.74767],[-3.60362,36.74829],[-3.60316,36.74859],[-3.60224,36.74885],[-3.60119,36.74886],[-3.6008,36.74864],[-3.60018,36.74872],[-3.5996,36.7484],[-3.59944,36.7482],[-3.59945,36.74782],[-3.5991,36.74728],[-3.59919,36.74705],[-3.59951,36.7468],[-3.59953,36.74606],[-3.59928,36.7456],[-3.59665,36.74353],[-3.59663,36.74317],[-3.59809,36.74175],[-3.6003,36.74353],[-3.60208,36.74449],[-3.60255,36.74435],[-3.60295,36.74437],[-3.60321,36.74419],[-3.60364,36.74422],[-3.6037,36.74399],[-3.60409,36.7438],[-3.60483,36.74383],[-3.60528,36.74399],[-3.60596,36.74378],[-3.60719,36.74369],[-3.6087,36.74376],[-3.6109,36.74365],[-3.61193,36.74343],[-3.61285,36.74353],[-3.61355,36.74335],[-3.61378,36.74311],[-3.61466,36.74289],[-3.61582,36.74243],[-3.61729,36.74222],[-3.61856,36.74216],[-3.61892,36.74206],[-3.61974,36.74155],[-3.62064,36.7415],[-3.62143,36.74123],[-3.6222,36.74123],[-3.62349,36.74143],[-3.62437,36.74166],[-3.62495,36.74215],[-3.6256,36.74182],[-3.62588,36.74179],[-3.62861,36.74256],[-3.62945,36.74262],[-3.63026,36.74253],[-3.63298,36.74207],[-3.63642,36.7422],[-3.63805,36.7424],[-3.63796,36.74306],[-3.63718,36.74334],[-3.63675,36.74369],[-3.63723,36.7438],[-3.63797,36.74427],[-3.63741,36.74496],[-3.63722,36.74559],[-3.63677,36.74554],[-3.6367,36.74603],[-3.63625,36.74728],[-3.63587,36.74793],[-3.63559,36.74829],[-3.63476,36.74825],[-3.63377,36.74856],[-3.63282,36.74912],[-3.63232,36.74975],[-3.63217,36.75009],[-3.6322,36.75118],[-3.63261,36.75322],[-3.632,36.75532],[-3.63102,36.75659],[-3.63161,36.75824],[-3.63146,36.7595],[-3.63145,36.76097],[-3.63118,36.76183],[-3.6305,36.76272],[-3.62618,36.76339],[-3.62591,36.76365],[-3.62435,36.76751],[-3.6231,36.76888],[-3.62167,36.76984],[-3.61927,36.77169],[-3.61444,36.77259],[-3.61271,36.7726],[-3.61055,36.77307],[-3.60828,36.77391],[-3.60701,36.77493],[-3.60404,36.77485]]]}},{"type":"Feature","properties":{"id":"1817301005"},"geometry":{"type":"Polygon","coordinates":[[[-3.5637,36.76207],[-3.56461,36.75877],[-3.56495,36.7569],[-3.56515,36.75532],[-3.56544,36.75082],[-3.5653,36.75009],[-3.56504,36.74534],[-3.56474,36.74244],[-3.5638,36.73901],[-3.56653,36.73907],[-3.56734,36.73924],[-3.56851,36.73925],[-3.5724,36.73963],[-3.57761,36.74074],[-3.57947,36.74123],[-3.58181,36.74157],[-3.58204,36.74178],[-3.582,36.74254],[-3.58159,36.7434],[-3.58137,36.74285],[-3.57986,36.74351],[-3.5793,36.744],[-3.57883,36.7446],[-3.57862,36.74515],[-3.57871,36.74598],[-3.5819,36.74628],[-3.58304,36.74654],[-3.58353,36.74531],[-3.58344,36.74495],[-3.58395,36.74477],[-3.58396,36.74443],[-3.58406,36.74453],[-3.58439,36.74424],[-3.58464,36.74437],[-3.58557,36.74327],[-3.58527,36.74294],[-3.58521,36.7427],[-3.58561,36.74201],[-3.58615,36.74174],[-3.58623,36.74194],[-3.58696,36.7421],[-3.58784,36.74258],[-3.58778,36.74265],[-3.58746,36.74259],[-3.58771,36.74273],[-3.58768,36.7428],[-3.58716,36.74263],[-3.58696,36.74276],[-3.58681,36.74287],[-3.58699,36.74296],[-3.58671,36.74341],[-3.58675,36.74355],[-3.58711,36.74366],[-3.58722,36.74406],[-3.58769,36.74424],[-3.58776,36.74445],[-3.58712,36.74424],[-3.58772,36.74463],[-3.58696,36.74467],[-3.58569,36.74533],[-3.58476,36.74682],[-3.58377,36.74668],[-3.58318,36.74717],[-3.58293,36.74806],[-3.58258,36.74848],[-3.58198,36.74889],[-3.58145,36.74945],[-3.57995,36.75182],[-3.57897,36.75305],[-3.5774,36.75455],[-3.57569,36.75884],[-3.57574,36.7605],[-3.57552,36.76111],[-3.57429,36.76297],[-3.57353,36.76456],[-3.57344,36.76557],[-3.57372,36.76654],[-3.57336,36.76698],[-3.57319,36.76712],[-3.57248,36.76688],[-3.57215,36.76697],[-3.57179,36.76725],[-3.57177,36.76768],[-3.571,36.76839],[-3.57032,36.76812],[-3.56975,36.76777],[-3.56895,36.76669],[-3.56797,36.76599],[-3.5676,36.76532],[-3.56723,36.76414],[-3.56691,36.76363],[-3.56637,36.76314],[-3.5637,36.76207]]]}},{"type":"Feature","properties":{"id":"1817301006"},"geometry":{"type":"Polygon","coordinates":[[[-3.58159,36.7434],[-3.58277,36.7411],[-3.58313,36.74072],[-3.5844,36.73985],[-3.58598,36.73894],[-3.58631,36.73927],[-3.58587,36.73957],[-3.58613,36.73976],[-3.58494,36.74134],[-3.58541,36.7416],[-3.5853,36.74174],[-3.58561,36.74201],[-3.58521,36.7427],[-3.58527,36.74294],[-3.58557,36.74327],[-3.58464,36.74437],[-3.58439,36.74424],[-3.58406,36.74453],[-3.58396,36.74443],[-3.58395,36.74477],[-3.58344,36.74495],[-3.58353,36.74531],[-3.58304,36.74654],[-3.5819,36.74628],[-3.57871,36.74598],[-3.57862,36.74515],[-3.57883,36.7446],[-3.5793,36.744],[-3.57986,36.74351],[-3.58137,36.74285],[-3.58159,36.7434]]]}},{"type":"Feature","properties":{"id":"1817301007"},"geometry":{"type":"Polygon","coordinates":[[[-3.571,36.76839],[-3.57177,36.76768],[-3.57179,36.76725],[-3.57189,36.76712],[-3.57248,36.76688],[-3.57319,36.76712],[-3.5736,36.76675],[-3.57372,36.76654],[-3.57344,36.76557],[-3.57353,36.76456],[-3.57429,36.76297],[-3.57552,36.76111],[-3.57574,36.7605],[-3.57569,36.75884],[-3.5774,36.75455],[-3.57897,36.75305],[-3.57995,36.75182],[-3.58145,36.74945],[-3.58198,36.74889],[-3.58258,36.74848],[-3.58293,36.74806],[-3.58318,36.74717],[-3.58377,36.74668],[-3.58476,36.74682],[-3.58552,36.74555],[-3.58586,36.74565],[-3.58667,36.74614],[-3.58725,36.74613],[-3.58909,36.74698],[-3.58988,36.74691],[-3.59056,36.74662],[-3.59096,36.74663],[-3.59072,36.74628],[-3.59114,36.74602],[-3.59198,36.74657],[-3.59203,36.74607],[-3.59153,36.74582],[-3.59072,36.74481],[-3.5906,36.74441],[-3.59062,36.74379],[-3.59039,36.74359],[-3.59002,36.74366],[-3.58979,36.74353],[-3.5896,36.74327],[-3.58937,36.74317],[-3.58934,36.74157],[-3.58904,36.74118],[-3.58925,36.74058],[-3.58911,36.74051],[-3.58891,36.74057],[-3.58885,36.74031],[-3.58927,36.74038],[-3.58928,36.74032],[-3.58883,36.74021],[-3.5887,36.74007],[-3.58829,36.7403],[-3.58813,36.74026],[-3.58786,36.7398],[-3.58787,36.73962],[-3.58716,36.73958],[-3.58816,36.73887],[-3.58967,36.7381],[-3.59,36.73785],[-3.59013,36.73797],[-3.59052,36.73773],[-3.592,36.73663],[-3.59187,36.73653],[-3.59262,36.73576],[-3.59276,36.7358],[-3.59301,36.7355],[-3.59326,36.73537],[-3.59371,36.73535],[-3.59388,36.73551],[-3.5937,36.73578],[-3.59351,36.73646],[-3.59307,36.73661],[-3.59296,36.73676],[-3.593,36.73709],[-3.59809,36.74175],[-3.59663,36.74317],[-3.59665,36.74353],[-3.59928,36.7456],[-3.59953,36.74606],[-3.59951,36.7468],[-3.59919,36.74705],[-3.5991,36.74728],[-3.59945,36.74782],[-3.59944,36.7482],[-3.59957,36.74837],[-3.60015,36.74872],[-3.60049,36.74873],[-3.6008,36.74864],[-3.60119,36.74886],[-3.60224,36.74885],[-3.60316,36.74859],[-3.60362,36.74829],[-3.60393,36.74767],[-3.60414,36.74747],[-3.60443,36.74736],[-3.6047,36.74741],[-3.60506,36.74758],[-3.60533,36.74797],[-3.60557,36.74858],[-3.60547,36.74912],[-3.60579,36.7497],[-3.6056,36.74974],[-3.60493,36.74929],[-3.60465,36.74945],[-3.60446,36.74989],[-3.60474,36.75036],[-3.60509,36.75213],[-3.60463,36.75219],[-3.60377,36.75183],[-3.60341,36.75192],[-3.60305,36.75221],[-3.60236,36.7525],[-3.60241,36.75327],[-3.60227,36.75359],[-3.60181,36.75367],[-3.60166,36.75362],[-3.60127,36.75325],[-3.60109,36.75275],[-3.6009,36.75265],[-3.60056,36.75285],[-3.60035,36.75316],[-3.60003,36.75333],[-3.59935,36.75335],[-3.59872,36.75324],[-3.5984,36.75358],[-3.59842,36.75423],[-3.59817,36.75477],[-3.59862,36.75526],[-3.59875,36.75594],[-3.59688,36.758],[-3.5961,36.75917],[-3.59594,36.7596],[-3.59536,36.75995],[-3.59609,36.76044],[-3.59607,36.76069],[-3.59521,36.76086],[-3.59537,36.7614],[-3.59527,36.76189],[-3.59513,36.76208],[-3.59487,36.7622],[-3.59408,36.7621],[-3.594,36.7619],[-3.59341,36.7615],[-3.59287,36.76156],[-3.59262,36.76171],[-3.59264,36.76217],[-3.5932,36.76272],[-3.59318,36.76319],[-3.5933,36.76331],[-3.59391,36.76352],[-3.594,36.76369],[-3.59349,36.76407],[-3.59308,36.76411],[-3.59259,36.764],[-3.59233,36.76405],[-3.59217,36.76413],[-3.59215,36.76437],[-3.59252,36.76465],[-3.59312,36.76479],[-3.59342,36.76506],[-3.59328,36.76534],[-3.59301,36.76546],[-3.59299,36.7656],[-3.59331,36.76576],[-3.59384,36.76578],[-3.59394,36.76591],[-3.59385,36.76632],[-3.59355,36.76647],[-3.5936,36.76666],[-3.59371,36.76683],[-3.59431,36.76713],[-3.59432,36.76738],[-3.59397,36.76765],[-3.5934,36.76775],[-3.5934,36.76792],[-3.59377,36.76854],[-3.59351,36.76877],[-3.593,36.76865],[-3.59221,36.76788],[-3.59192,36.76787],[-3.59154,36.76814],[-3.59136,36.76852],[-3.59093,36.76879],[-3.59103,36.76894],[-3.59205,36.76889],[-3.59231,36.76902],[-3.59274,36.76954],[-3.59277,36.76981],[-3.59269,36.77012],[-3.59257,36.77021],[-3.59205,36.77028],[-3.59217,36.77084],[-3.59191,36.77121],[-3.59181,36.77127],[-3.59145,36.77114],[-3.59088,36.77135],[-3.59044,36.7713],[-3.59023,36.77149],[-3.59021,36.77172],[-3.59097,36.77249],[-3.59102,36.77272],[-3.59083,36.77308],[-3.59022,36.77326],[-3.59016,36.77334],[-3.59019,36.77365],[-3.59043,36.77373],[-3.59052,36.77394],[-3.58957,36.7738],[-3.58716,36.77293],[-3.58592,36.77299],[-3.58381,36.77411],[-3.58317,36.77356],[-3.58263,36.7729],[-3.58204,36.77244],[-3.57846,36.77103],[-3.57769,36.77059],[-3.57636,36.7695],[-3.57492,36.769],[-3.571,36.76839]]]}},{"type":"Feature","properties":{"id":"1817302001"},"geometry":{"type":"Polygon","coordinates":[[[-3.54243,36.79186],[-3.54213,36.79097],[-3.54133,36.79067],[-3.54004,36.79066],[-3.53909,36.7904],[-3.53854,36.78988],[-3.53859,36.78918],[-3.5392,36.78819],[-3.54128,36.78636],[-3.54502,36.78386],[-3.54552,36.78321],[-3.54625,36.78083],[-3.54736,36.77636],[-3.54847,36.77565],[-3.5502,36.77472],[-3.55842,36.77106],[-3.55953,36.77032],[-3.5602,36.76957],[-3.56051,36.76906],[-3.5637,36.76207],[-3.56637,36.76314],[-3.56691,36.76363],[-3.56723,36.76414],[-3.5676,36.76532],[-3.56797,36.76599],[-3.56895,36.76669],[-3.56975,36.76777],[-3.57032,36.76812],[-3.57092,36.76837],[-3.57165,36.76852],[-3.57492,36.769],[-3.57636,36.7695],[-3.57769,36.77059],[-3.57846,36.77103],[-3.58204,36.77244],[-3.58263,36.7729],[-3.58317,36.77356],[-3.58381,36.77411],[-3.58351,36.77427],[-3.58146,36.77477],[-3.58049,36.77531],[-3.57995,36.77614],[-3.57946,36.77812],[-3.57899,36.7792],[-3.57899,36.77963],[-3.57913,36.78031],[-3.57957,36.78123],[-3.58051,36.78237],[-3.58055,36.78334],[-3.57826,36.78775],[-3.57535,36.78761],[-3.57178,36.78721],[-3.57044,36.789],[-3.56973,36.79039],[-3.56925,36.79206],[-3.56881,36.79282],[-3.56824,36.79298],[-3.56764,36.79371],[-3.56679,36.79554],[-3.56653,36.79698],[-3.5667,36.7984],[-3.56699,36.79973],[-3.5657,36.80113],[-3.55973,36.80053],[-3.55573,36.80557],[-3.55477,36.8059],[-3.55199,36.80619],[-3.54982,36.80683],[-3.54707,36.80631],[-3.54661,36.80691],[-3.54574,36.80963],[-3.54506,36.8105],[-3.54382,36.81118],[-3.54424,36.80925],[-3.54403,36.80792],[-3.54373,36.807],[-3.54286,36.80571],[-3.54078,36.80168],[-3.54051,36.80077],[-3.54019,36.79768],[-3.53966,36.79677],[-3.53935,36.79572],[-3.53946,36.79497],[-3.53975,36.79463],[-3.54232,36.79249],[-3.54243,36.79186]]]}}]}