{"type":"FeatureCollection","features":[{"type":"Feature","properties":{"id":"1818201001"},"geometry":{"type":"Polygon","coordinates":[[[-3.06364,36.97634],[-3.06361,36.97564],[-3.06346,36.97541],[-3.06256,36.9749],[-3.06203,36.97435],[-3.0612,36.97294],[-3.06083,36.97121],[-3.06102,36.96981],[-3.06076,36.96947],[-3.06055,36.96937],[-3.05946,36.96912],[-3.05927,36.96899],[-3.05761,36.96642],[-3.05746,36.96587],[-3.05739,36.96467],[-3.05734,36.9646],[-3.05687,36.96461],[-3.05669,36.96451],[-3.05649,36.96374],[-3.05627,36.96346],[-3.05582,36.96318],[-3.05479,36.96297],[-3.05395,36.96257],[-3.05228,36.96231],[-3.05123,36.96233],[-3.04776,36.96309],[-3.04706,36.96355],[-3.04665,36.96365],[-3.04631,36.96342],[-3.04604,36.96302],[-3.04581,36.96199],[-3.04561,36.96177],[-3.04527,36.96171],[-3.04503,36.96194],[-3.0451,36.9627],[-3.04499,36.96336],[-3.04456,36.96435],[-3.04433,36.9646],[-3.04392,36.96484],[-3.04246,36.96509],[-3.04188,36.96529],[-3.04085,36.96566],[-3.03949,36.96629],[-3.03905,36.96673],[-3.03842,36.96777],[-3.03719,36.96868],[-3.03653,36.96979],[-3.03601,36.97019],[-3.03515,36.97042],[-3.03446,36.971],[-3.03418,36.97113],[-3.03332,36.97109],[-3.03184,36.9708],[-3.03115,36.97078],[-3.02917,36.97113],[-3.02788,36.97041],[-3.02607,36.96991],[-3.02387,36.96732],[-3.02353,36.96636],[-3.02357,36.96431],[-3.02327,36.9635],[-3.02307,36.96252],[-3.02282,36.96231],[-3.02271,36.96162],[-3.02264,36.96035],[-3.02278,36.95977],[-3.02255,36.95857],[-3.02289,36.95807],[-3.02287,36.95743],[-3.02253,36.95652],[-3.02206,36.95594],[-3.02206,36.95489],[-3.02177,36.95404],[-3.02219,36.95408],[-3.02344,36.95323],[-3.02592,36.95054],[-3.02934,36.94753],[-3.03173,36.94403],[-3.03196,36.94297],[-3.03213,36.94272],[-3.03221,36.94229],[-3.03214,36.94179],[-3.03168,36.94032],[-3.03047,36.93811],[-3.03066,36.93678],[-3.02993,36.93574],[-3.03027,36.93507],[-3.02839,36.93409],[-3.02911,36.93361],[-3.0308,36.93288],[-3.03138,36.9324],[-3.03134,36.93193],[-3.03103,36.93157],[-3.03099,36.93121],[-3.03184,36.93029],[-3.03185,36.93012],[-3.03173,36.92994],[-3.031,36.92971],[-3.02986,36.92881],[-3.0295,36.92825],[-3.02952,36.92788],[-3.02968,36.92764],[-3.02994,36.92752],[-3.03022,36.92751],[-3.0305,36.92784],[-3.03078,36.92791],[-3.03106,36.92788],[-3.03131,36.92766],[-3.0314,36.92712],[-3.03085,36.92679],[-3.03079,36.92639],[-3.03088,36.92572],[-3.03132,36.92458],[-3.03548,36.924],[-3.04061,36.92213],[-3.04362,36.92114],[-3.04589,36.91987],[-3.04823,36.91652],[-3.04806,36.91607],[-3.05016,36.91538],[-3.05145,36.91519],[-3.05586,36.91184],[-3.05719,36.91154],[-3.05797,36.91147],[-3.06227,36.91186],[-3.06338,36.91155],[-3.0639,36.91158],[-3.06452,36.9117],[-3.06629,36.91242],[-3.06648,36.91257],[-3.06739,36.91378],[-3.06757,36.91462],[-3.06869,36.91583],[-3.06847,36.91625],[-3.06847,36.91647],[-3.0687,36.91675],[-3.06978,36.91771],[-3.07001,36.9181],[-3.07061,36.91843],[-3.07108,36.91924],[-3.07193,36.91929],[-3.07331,36.92072],[-3.07422,36.92306],[-3.07435,36.92447],[-3.07416,36.92516],[-3.07433,36.92552],[-3.07546,36.92634],[-3.07558,36.92693],[-3.07582,36.92712],[-3.07568,36.92726],[-3.07579,36.92742],[-3.07604,36.92753],[-3.07623,36.92797],[-3.07654,36.92825],[-3.07661,36.92853],[-3.07706,36.929],[-3.07769,36.92998],[-3.07873,36.93056],[-3.0791,36.93095],[-3.08003,36.93156],[-3.08031,36.93149],[-3.08093,36.93082],[-3.08098,36.92925],[-3.08366,36.92578],[-3.09879,36.91675],[-3.1014,36.91524],[-3.10194,36.91502],[-3.10243,36.91444],[-3.10265,36.91434],[-3.10541,36.91382],[-3.10789,36.91346],[-3.10891,36.91307],[-3.11039,36.9129],[-3.11109,36.91263],[-3.11155,36.91263],[-3.11235,36.91239],[-3.11299,36.91244],[-3.11371,36.91235],[-3.11418,36.91219],[-3.11464,36.91183],[-3.11534,36.91152],[-3.11634,36.91116],[-3.11726,36.91106],[-3.12085,36.91127],[-3.12109,36.91122],[-3.12131,36.91098],[-3.1213,36.91057],[-3.13227,36.90871],[-3.1449,36.90719],[-3.14603,36.90719],[-3.14645,36.90708],[-3.14665,36.90689],[-3.14665,36.9064],[-3.14678,36.90627],[-3.14766,36.90604],[-3.14827,36.90553],[-3.1495,36.9074],[-3.15021,36.91156],[-3.15315,36.91565],[-3.15409,36.9186],[-3.15331,36.92343],[-3.15356,36.92355],[-3.15422,36.92422],[-3.15439,36.92529],[-3.15424,36.92622],[-3.15428,36.927],[-3.15453,36.92761],[-3.1552,36.92841],[-3.15524,36.92866],[-3.15523,36.93093],[-3.15497,36.93166],[-3.15466,36.93332],[-3.15468,36.93382],[-3.15421,36.93369],[-3.15381,36.93372],[-3.15344,36.93386],[-3.15172,36.935],[-3.15131,36.93501],[-3.14985,36.93481],[-3.14893,36.93445],[-3.14827,36.93404],[-3.14758,36.93386],[-3.1467,36.93388],[-3.14238,36.93431],[-3.13864,36.93325],[-3.13811,36.93344],[-3.13732,36.93405],[-3.13707,36.93407],[-3.13626,36.93371],[-3.13585,36.93363],[-3.13542,36.93375],[-3.13471,36.93442],[-3.13353,36.93489],[-3.13264,36.9355],[-3.13236,36.93581],[-3.13168,36.93615],[-3.13135,36.93617],[-3.13031,36.93589],[-3.13001,36.93597],[-3.12982,36.93613],[-3.12956,36.93696],[-3.12888,36.93778],[-3.12852,36.93789],[-3.12844,36.93806],[-3.12854,36.93875],[-3.12804,36.93928],[-3.12803,36.93953],[-3.12858,36.94012],[-3.12876,36.94047],[-3.12907,36.94065],[-3.12939,36.94105],[-3.12957,36.94114],[-3.13017,36.94119],[-3.13059,36.94105],[-3.13081,36.94162],[-3.13079,36.94205],[-3.13113,36.94273],[-3.13115,36.94293],[-3.13098,36.943],[-3.13034,36.94285],[-3.1301,36.94259],[-3.12961,36.94304],[-3.12892,36.94175],[-3.12851,36.94122],[-3.1279,36.94067],[-3.12762,36.93957],[-3.12793,36.93902],[-3.12765,36.93873],[-3.12688,36.93839],[-3.12629,36.938],[-3.12553,36.93707],[-3.12519,36.93709],[-3.12506,36.93693],[-3.12454,36.93708],[-3.12388,36.9368],[-3.12339,36.93673],[-3.12294,36.93692],[-3.12191,36.93662],[-3.12127,36.93591],[-3.12109,36.93586],[-3.1205,36.93645],[-3.11991,36.93648],[-3.11872,36.93675],[-3.11834,36.93695],[-3.1177,36.93706],[-3.11698,36.93699],[-3.11726,36.93749],[-3.11761,36.93778],[-3.11821,36.93802],[-3.11834,36.93864],[-3.11834,36.93904],[-3.11814,36.9394],[-3.11812,36.94068],[-3.11858,36.94108],[-3.11855,36.94139],[-3.11824,36.94174],[-3.11827,36.94206],[-3.11796,36.9425],[-3.11677,36.94259],[-3.11363,36.94381],[-3.11096,36.94532],[-3.10879,36.94587],[-3.10935,36.94665],[-3.10937,36.94697],[-3.10807,36.94837],[-3.10832,36.9487],[-3.10642,36.94882],[-3.10543,36.94899],[-3.1038,36.94868],[-3.10192,36.94853],[-3.10146,36.94863],[-3.10095,36.94888],[-3.10129,36.94935],[-3.10195,36.95],[-3.10225,36.95305],[-3.09975,36.95631],[-3.09906,36.95696],[-3.09896,36.95819],[-3.09717,36.95954],[-3.09349,36.96504],[-3.09337,36.96775],[-3.09027,36.96888],[-3.08537,36.9676],[-3.08356,36.96794],[-3.07955,36.9711],[-3.07796,36.97177],[-3.07634,36.97271],[-3.07501,36.97365],[-3.0689,36.97878],[-3.06781,36.981],[-3.06745,36.98093],[-3.067,36.9807],[-3.0661,36.97981],[-3.066,36.97922],[-3.06506,36.97841],[-3.06476,36.97744],[-3.06417,36.97651],[-3.06397,36.97639],[-3.06364,36.97634]]]}},{"type":"Feature","properties":{"id":"1818201002"},"geometry":{"type":"Polygon","coordinates":[[[-2.98615,36.96824],[-2.98477,36.96443],[-2.98502,36.96422],[-2.98527,36.96374],[-2.98571,36.96325],[-2.9863,36.96275],[-2.98713,36.96068],[-2.98737,36.96039],[-2.98786,36.96001],[-2.989,36.9594],[-2.9905,36.95818],[-2.99254,36.95734],[-2.99306,36.95719],[-2.99449,36.95702],[-2.99554,36.95669],[-2.99597,36.95664],[-2.99651,36.95669],[-2.99732,36.95695],[-2.99822,36.95672],[-2.99869,36.95675],[-2.99932,36.95693],[-3.00124,36.95675],[-3.00297,36.95691],[-3.00436,36.9569],[-3.00529,36.957],[-3.00591,36.95726],[-3.00664,36.95734],[-3.00744,36.957],[-3.00838,36.95693],[-3.00927,36.95657],[-3.00981,36.9565],[-3.01073,36.95669],[-3.01095,36.95658],[-3.01155,36.95582],[-3.01176,36.95572],[-3.01302,36.95593],[-3.01418,36.95637],[-3.01503,36.95588],[-3.01623,36.95438],[-3.01722,36.95396],[-3.01959,36.95384],[-3.02177,36.95404],[-3.02206,36.95489],[-3.02206,36.95594],[-3.02253,36.95652],[-3.02293,36.95784],[-3.02289,36.95807],[-3.02255,36.95857],[-3.02278,36.95977],[-3.02263,36.96073],[-3.02282,36.96231],[-3.02307,36.96252],[-3.02327,36.9635],[-3.02357,36.96431],[-3.0235,36.96603],[-3.02367,36.9669],[-3.02408,36.96763],[-3.02607,36.96991],[-3.02788,36.97041],[-3.02917,36.97113],[-3.03115,36.97078],[-3.03184,36.9708],[-3.03332,36.97109],[-3.03418,36.97113],[-3.03446,36.971],[-3.03515,36.97042],[-3.03601,36.97019],[-3.03653,36.96979],[-3.0373,36.96857],[-3.03842,36.96777],[-3.03905,36.96673],[-3.03949,36.96629],[-3.04085,36.96566],[-3.04246,36.96509],[-3.04392,36.96484],[-3.04446,36.96449],[-3.04499,36.96336],[-3.0451,36.9627],[-3.04503,36.96194],[-3.04527,36.96171],[-3.04561,36.96177],[-3.04581,36.96199],[-3.04604,36.96302],[-3.04631,36.96342],[-3.04665,36.96365],[-3.04706,36.96355],[-3.04776,36.96309],[-3.05151,36.96231],[-3.05228,36.96231],[-3.05395,36.96257],[-3.05479,36.96297],[-3.05563,36.96311],[-3.05612,36.96333],[-3.05649,36.96374],[-3.05669,36.96451],[-3.05687,36.96461],[-3.05734,36.9646],[-3.05739,36.96467],[-3.05746,36.96587],[-3.05761,36.96642],[-3.05927,36.96899],[-3.05946,36.96912],[-3.06055,36.96937],[-3.06076,36.96947],[-3.06102,36.96981],[-3.06083,36.97121],[-3.0612,36.97294],[-3.06203,36.97435],[-3.06256,36.9749],[-3.06332,36.97528],[-3.06361,36.97564],[-3.06364,36.97634],[-3.06329,36.97641],[-3.06306,36.97668],[-3.06298,36.97708],[-3.06318,36.97813],[-3.06305,36.9786],[-3.06188,36.9801],[-3.06154,36.98109],[-3.06182,36.98184],[-3.06252,36.98212],[-3.06262,36.98289],[-3.06248,36.98417],[-3.06147,36.98447],[-3.06125,36.98463],[-3.06107,36.98522],[-3.06057,36.98555],[-3.06029,36.98621],[-3.05909,36.98657],[-3.05891,36.9868],[-3.05839,36.98686],[-3.05797,36.98706],[-3.05495,36.98916],[-3.0495,36.9869],[-3.04483,36.98752],[-3.04154,36.98619],[-3.03419,36.98554],[-3.02527,36.98965],[-3.02504,36.99122],[-3.02481,36.9912],[-3.0235,36.99018],[-3.02067,36.99002],[-3.02007,36.99052],[-3.01975,36.99121],[-3.01759,36.99197],[-3.01741,36.99272],[-3.01317,36.99441],[-3.01252,36.993],[-3.01143,36.99196],[-3.01185,36.99102],[-3.01231,36.99046],[-3.01234,36.99029],[-3.01167,36.98808],[-3.01092,36.98742],[-3.01099,36.98608],[-3.01142,36.98528],[-3.01141,36.98498],[-3.01104,36.98451],[-3.011,36.984],[-3.01069,36.98324],[-3.01053,36.98249],[-3.01248,36.982],[-3.01237,36.98161],[-3.01169,36.981],[-3.01161,36.98062],[-3.01094,36.97945],[-3.01026,36.97862],[-3.01001,36.97844],[-3.00964,36.97883],[-3.00919,36.97901],[-3.00887,36.97947],[-3.00814,36.97935],[-3.00702,36.97953],[-3.00547,36.97911],[-3.00452,36.97916],[-3.00367,36.97806],[-3.00194,36.97815],[-3.00059,36.97773],[-2.99812,36.9754],[-2.99478,36.97389],[-2.98758,36.96881],[-2.98644,36.96828],[-2.98615,36.96824]]]}}]}