{"type":"FeatureCollection","features":[{"type":"Feature","properties":{"id":"1818401001"},"geometry":{"type":"Polygon","coordinates":[[[-3.48463,36.87408],[-3.48486,36.87387],[-3.48521,36.87281],[-3.48552,36.87255],[-3.48676,36.87191],[-3.48701,36.87089],[-3.48734,36.87015],[-3.48754,36.86904],[-3.48779,36.86875],[-3.48879,36.86806],[-3.4891,36.86766],[-3.48952,36.86677],[-3.48962,36.8663],[-3.49003,36.86569],[-3.49036,36.86488],[-3.48992,36.86409],[-3.48955,36.86302],[-3.48972,36.86238],[-3.48958,36.86195],[-3.48816,36.86136],[-3.48687,36.86053],[-3.48493,36.85979],[-3.48328,36.85976],[-3.48274,36.85958],[-3.48236,36.85932],[-3.4819,36.85866],[-3.48149,36.85844],[-3.4807,36.85772],[-3.47948,36.85785],[-3.4793,36.85779],[-3.47876,36.85698],[-3.47676,36.85543],[-3.47629,36.85517],[-3.47496,36.8548],[-3.47459,36.85461],[-3.47413,36.85419],[-3.47345,36.85331],[-3.47212,36.85266],[-3.47124,36.85208],[-3.47047,36.85057],[-3.4697,36.84947],[-3.46923,36.84847],[-3.46893,36.84821],[-3.46741,36.84719],[-3.46702,36.84679],[-3.46542,36.84644],[-3.4648,36.846],[-3.46389,36.84509],[-3.46334,36.8447],[-3.46236,36.84421],[-3.46203,36.8438],[-3.46159,36.84347],[-3.46113,36.84326],[-3.45938,36.84297],[-3.45762,36.84279],[-3.4568,36.84291],[-3.45512,36.84241],[-3.45489,36.84224],[-3.454,36.83984],[-3.45155,36.83467],[-3.45045,36.83403],[-3.44969,36.83342],[-3.44048,36.82554],[-3.43596,36.81747],[-3.43301,36.8147],[-3.43249,36.81478],[-3.42794,36.81631],[-3.41783,36.81667],[-3.41947,36.81343],[-3.42093,36.80962],[-3.42137,36.80887],[-3.42301,36.80719],[-3.42373,36.80584],[-3.42289,36.80176],[-3.42288,36.80116],[-3.42307,36.80006],[-3.42394,36.79889],[-3.42467,36.79811],[-3.42489,36.79734],[-3.4242,36.79533],[-3.42423,36.79493],[-3.42465,36.79416],[-3.4258,36.79133],[-3.42614,36.79076],[-3.42638,36.78991],[-3.42698,36.78882],[-3.42703,36.78849],[-3.42689,36.78732],[-3.42738,36.7867],[-3.42779,36.78647],[-3.4282,36.78636],[-3.42895,36.78633],[-3.43115,36.78589],[-3.43563,36.78625],[-3.44015,36.7854],[-3.44274,36.78512],[-3.44328,36.78491],[-3.44638,36.78296],[-3.44806,36.78176],[-3.45299,36.78155],[-3.46006,36.78153],[-3.46346,36.78169],[-3.46679,36.78145],[-3.47027,36.7816],[-3.47069,36.7818],[-3.47187,36.78277],[-3.47225,36.78296],[-3.47303,36.78302],[-3.47593,36.78248],[-3.47636,36.7825],[-3.47734,36.78281],[-3.47808,36.78341],[-3.47826,36.78344],[-3.47896,36.78318],[-3.47939,36.78313],[-3.48201,36.78357],[-3.48254,36.78336],[-3.48309,36.78282],[-3.4837,36.78276],[-3.486,36.78323],[-3.48641,36.78393],[-3.48675,36.7841],[-3.48727,36.78417],[-3.48835,36.78463],[-3.48864,36.78464],[-3.49004,36.78374],[-3.49128,36.78251],[-3.49192,36.78228],[-3.4933,36.78216],[-3.49436,36.78191],[-3.49545,36.78185],[-3.49603,36.78192],[-3.49632,36.78171],[-3.49701,36.78149],[-3.49939,36.78139],[-3.50034,36.78148],[-3.50221,36.78145],[-3.50635,36.78117],[-3.50792,36.78076],[-3.50887,36.78071],[-3.50986,36.78033],[-3.51435,36.77821],[-3.52098,36.78088],[-3.527,36.78439],[-3.52889,36.78377],[-3.53458,36.78603],[-3.533,36.79281],[-3.54056,36.79196],[-3.54243,36.79186],[-3.54232,36.79249],[-3.53975,36.79463],[-3.53946,36.79497],[-3.53935,36.79572],[-3.53966,36.79677],[-3.54019,36.79768],[-3.54051,36.80077],[-3.54078,36.80168],[-3.54286,36.80571],[-3.54373,36.807],[-3.54403,36.80792],[-3.54424,36.80925],[-3.54382,36.81118],[-3.54206,36.81321],[-3.54111,36.8164],[-3.54037,36.81781],[-3.53883,36.81896],[-3.53543,36.82115],[-3.53465,36.82192],[-3.5346,36.8236],[-3.53539,36.82563],[-3.53624,36.82713],[-3.53696,36.828],[-3.53674,36.82914],[-3.53717,36.83],[-3.53714,36.83086],[-3.53659,36.8319],[-3.53547,36.83341],[-3.53555,36.83396],[-3.53613,36.83484],[-3.53613,36.83693],[-3.53684,36.83814],[-3.53691,36.84044],[-3.53719,36.84328],[-3.53926,36.84614],[-3.53914,36.84764],[-3.53696,36.84867],[-3.53643,36.84902],[-3.53614,36.85007],[-3.53603,36.85113],[-3.53597,36.85382],[-3.53576,36.85409],[-3.53462,36.85501],[-3.53428,36.8558],[-3.53334,36.85696],[-3.53222,36.86015],[-3.53319,36.86064],[-3.53332,36.86205],[-3.53384,36.86359],[-3.53331,36.86581],[-3.53335,36.86659],[-3.53367,36.86825],[-3.53383,36.86847],[-3.53619,36.86971],[-3.53647,36.87018],[-3.53697,36.87147],[-3.53589,36.87175],[-3.53416,36.87196],[-3.53142,36.87115],[-3.53015,36.87094],[-3.52921,36.87089],[-3.52709,36.87109],[-3.52612,36.8708],[-3.52424,36.87002],[-3.52395,36.87001],[-3.5225,36.87064],[-3.52201,36.87076],[-3.52166,36.87074],[-3.52082,36.87044],[-3.51946,36.87056],[-3.5187,36.87101],[-3.51746,36.87151],[-3.51605,36.87221],[-3.5155,36.87306],[-3.51519,36.87335],[-3.51472,36.87359],[-3.51161,36.87421],[-3.51002,36.87412],[-3.50821,36.8742],[-3.50496,36.87342],[-3.50313,36.87325],[-3.50241,36.87289],[-3.50129,36.87211],[-3.49935,36.8715],[-3.49912,36.87155],[-3.49611,36.87316],[-3.49497,36.87337],[-3.4946,36.87364],[-3.49423,36.87376],[-3.49298,36.87394],[-3.49136,36.87365],[-3.48998,36.87395],[-3.4885,36.87396],[-3.48813,36.87393],[-3.48724,36.87355],[-3.48697,36.87329],[-3.4867,36.87324],[-3.48483,36.87412],[-3.48463,36.87408]],[[-3.51169,36.83794],[-3.51213,36.83845],[-3.51217,36.83898],[-3.51206,36.83947],[-3.51157,36.84049],[-3.51223,36.84065],[-3.51229,36.84047],[-3.51286,36.8402],[-3.51314,36.83992],[-3.51574,36.83357],[-3.51579,36.83283],[-3.51578,36.83254],[-3.51563,36.83239],[-3.51576,36.83222],[-3.5156,36.82876],[-3.5158,36.82826],[-3.51635,36.82796],[-3.51752,36.82783],[-3.51815,36.82745],[-3.5191,36.82724],[-3.51954,36.82701],[-3.52095,36.82695],[-3.52184,36.82716],[-3.52395,36.82581],[-3.52329,36.82512],[-3.52323,36.8248],[-3.52366,36.82341],[-3.52369,36.82299],[-3.52346,36.82098],[-3.52382,36.81918],[-3.52461,36.81651],[-3.5247,36.81518],[-3.52464,36.81369],[-3.52363,36.81125],[-3.52177,36.8098],[-3.52062,36.80873],[-3.51757,36.80539],[-3.51452,36.80342],[-3.50577,36.79995],[-3.49988,36.79739],[-3.49646,36.79572],[-3.49284,36.7936],[-3.48828,36.79195],[-3.48582,36.7918],[-3.48393,36.79288],[-3.4828,36.79456],[-3.48509,36.79714],[-3.48833,36.79911],[-3.49097,36.80127],[-3.49681,36.80956],[-3.49977,36.81313],[-3.50312,36.81739],[-3.50522,36.82027],[-3.50781,36.82415],[-3.50878,36.82572],[-3.50858,36.82656],[-3.50854,36.82894],[-3.50886,36.83145],[-3.50925,36.83151],[-3.50995,36.83146],[-3.50969,36.83244],[-3.50899,36.83296],[-3.50882,36.83536],[-3.50924,36.8363],[-3.50886,36.83639],[-3.50872,36.8367],[-3.50904,36.83703],[-3.51006,36.83702],[-3.51048,36.83712],[-3.51068,36.83731],[-3.51102,36.83793],[-3.51169,36.83794]]]}},{"type":"Feature","properties":{"id":"1818401002"},"geometry":{"type":"Polygon","coordinates":[[[-3.51169,36.83794],[-3.51102,36.83793],[-3.51068,36.83731],[-3.51048,36.83712],[-3.51006,36.83702],[-3.50904,36.83703],[-3.50872,36.8367],[-3.50886,36.83639],[-3.50924,36.8363],[-3.50882,36.83536],[-3.50899,36.83296],[-3.50969,36.83244],[-3.50995,36.83146],[-3.50925,36.83151],[-3.50886,36.83145],[-3.50854,36.82894],[-3.50858,36.82656],[-3.50878,36.82572],[-3.50781,36.82415],[-3.50522,36.82027],[-3.50312,36.81739],[-3.49977,36.81313],[-3.49681,36.80956],[-3.49097,36.80127],[-3.48833,36.79911],[-3.48509,36.79714],[-3.4828,36.79456],[-3.48393,36.79288],[-3.48582,36.7918],[-3.48828,36.79195],[-3.49284,36.7936],[-3.49646,36.79572],[-3.49988,36.79739],[-3.50577,36.79995],[-3.51452,36.80342],[-3.51757,36.80539],[-3.52062,36.80873],[-3.52177,36.8098],[-3.52363,36.81125],[-3.52464,36.81369],[-3.5247,36.81518],[-3.52461,36.81651],[-3.52382,36.81918],[-3.52346,36.82098],[-3.52369,36.82299],[-3.52366,36.82341],[-3.52323,36.8248],[-3.52329,36.82512],[-3.52395,36.82581],[-3.52184,36.82716],[-3.52095,36.82695],[-3.51954,36.82701],[-3.5191,36.82724],[-3.51815,36.82745],[-3.51752,36.82783],[-3.51635,36.82796],[-3.5158,36.82826],[-3.5156,36.82876],[-3.51576,36.83222],[-3.51563,36.83239],[-3.51578,36.83254],[-3.51579,36.83283],[-3.51574,36.83357],[-3.51314,36.83992],[-3.51286,36.8402],[-3.51229,36.84047],[-3.51223,36.84065],[-3.51157,36.84049],[-3.51206,36.83947],[-3.51217,36.83898],[-3.51213,36.83845],[-3.51169,36.83794]]]}}]}