{"type":"FeatureCollection","features":[{"type":"Feature","properties":{"id":"1904601001"},"geometry":{"type":"Polygon","coordinates":[[[-3.27545,40.56495],[-3.28493,40.5558],[-3.28836,40.55861],[-3.28415,40.56201],[-3.28313,40.56362],[-3.28677,40.56502],[-3.27545,40.56495]]]}},{"type":"Feature","properties":{"id":"1904601002"},"geometry":{"type":"Polygon","coordinates":[[[-3.26595,40.58093],[-3.26661,40.57294],[-3.26592,40.57242],[-3.26579,40.57244],[-3.26466,40.5715],[-3.26353,40.57228],[-3.26244,40.57147],[-3.26287,40.57051],[-3.26293,40.56948],[-3.26396,40.56854],[-3.26453,40.5678],[-3.26504,40.5674],[-3.26617,40.56685],[-3.26628,40.56713],[-3.26483,40.56914],[-3.26523,40.56971],[-3.26529,40.56999],[-3.26585,40.57056],[-3.26686,40.57126],[-3.26999,40.57271],[-3.27356,40.58247],[-3.27399,40.58277],[-3.27303,40.58351],[-3.2709,40.58268],[-3.26752,40.58161],[-3.26595,40.58093]]]}},{"type":"Feature","properties":{"id":"1904601003"},"geometry":{"type":"Polygon","coordinates":[[[-3.2614,40.5738],[-3.26244,40.57147],[-3.26353,40.57228],[-3.26466,40.5715],[-3.26579,40.57244],[-3.26592,40.57242],[-3.26661,40.57294],[-3.26642,40.57503],[-3.2614,40.5738]]]}},{"type":"Feature","properties":{"id":"1904601004"},"geometry":{"type":"Polygon","coordinates":[[[-3.26054,40.56862],[-3.26096,40.56834],[-3.26039,40.56791],[-3.26241,40.5662],[-3.26333,40.56686],[-3.26407,40.5672],[-3.26453,40.5678],[-3.26396,40.56854],[-3.263,40.56945],[-3.26194,40.56997],[-3.26137,40.57043],[-3.26092,40.5698],[-3.26054,40.56862]]]}},{"type":"Feature","properties":{"id":"1904601005"},"geometry":{"type":"Polygon","coordinates":[[[-3.26314,40.56671],[-3.26051,40.56481],[-3.26178,40.56374],[-3.26449,40.56501],[-3.26354,40.56639],[-3.26314,40.56671]]]}},{"type":"Feature","properties":{"id":"1904601006"},"geometry":{"type":"Polygon","coordinates":[[[-3.26178,40.56374],[-3.26396,40.56191],[-3.26534,40.56282],[-3.26516,40.56296],[-3.26492,40.56437],[-3.26449,40.56501],[-3.26178,40.56374]]]}},{"type":"Feature","properties":{"id":"1904601007"},"geometry":{"type":"Polygon","coordinates":[[[-3.23281,40.56475],[-3.23371,40.56377],[-3.23413,40.5631],[-3.23457,40.56198],[-3.23385,40.56158],[-3.23364,40.5613],[-3.23376,40.56072],[-3.23441,40.55927],[-3.23586,40.55702],[-3.23747,40.5555],[-3.23835,40.55489],[-3.23913,40.55461],[-3.24083,40.55476],[-3.24171,40.55502],[-3.24148,40.5542],[-3.24163,40.55326],[-3.24133,40.55262],[-3.2407,40.55189],[-3.23899,40.55021],[-3.23753,40.54808],[-3.23605,40.54507],[-3.23493,40.54489],[-3.23446,40.54294],[-3.23406,40.54243],[-3.23268,40.54144],[-3.23216,40.54086],[-3.2319,40.54026],[-3.23176,40.5392],[-3.23186,40.53872],[-3.23279,40.53801],[-3.23244,40.53635],[-3.23096,40.53346],[-3.22999,40.5324],[-3.23106,40.53183],[-3.23144,40.53227],[-3.23247,40.53296],[-3.2341,40.53277],[-3.23547,40.53294],[-3.23631,40.5335],[-3.23918,40.53484],[-3.242,40.53633],[-3.24326,40.53717],[-3.24378,40.53804],[-3.24489,40.53905],[-3.24579,40.54021],[-3.24685,40.54208],[-3.24804,40.54322],[-3.24996,40.5444],[-3.25131,40.54346],[-3.25133,40.54249],[-3.25172,40.54198],[-3.25282,40.54162],[-3.25386,40.54192],[-3.25445,40.54197],[-3.2561,40.54187],[-3.25687,40.54157],[-3.25822,40.54085],[-3.2589,40.54],[-3.26033,40.53961],[-3.26276,40.5391],[-3.26641,40.53783],[-3.26661,40.5381],[-3.26791,40.53723],[-3.26965,40.53635],[-3.27095,40.5355],[-3.27196,40.53511],[-3.27312,40.53488],[-3.27484,40.53481],[-3.27495,40.53429],[-3.27493,40.53354],[-3.27679,40.53365],[-3.27824,40.53349],[-3.28081,40.53499],[-3.28156,40.53372],[-3.28457,40.53569],[-3.28985,40.53175],[-3.29593,40.53656],[-3.26772,40.55901],[-3.26887,40.55989],[-3.26787,40.56086],[-3.26655,40.56193],[-3.26561,40.56301],[-3.26372,40.56177],[-3.25913,40.55841],[-3.2475,40.56869],[-3.24678,40.56998],[-3.24653,40.57021],[-3.24604,40.57048],[-3.24549,40.57036],[-3.245,40.57046],[-3.244,40.57137],[-3.24219,40.57277],[-3.239,40.571],[-3.23742,40.57177],[-3.23739,40.571],[-3.23641,40.57077],[-3.23647,40.5689],[-3.2362,40.56752],[-3.23499,40.56699],[-3.23337,40.56512],[-3.23281,40.56475]]]}},{"type":"Feature","properties":{"id":"1904601008"},"geometry":{"type":"Polygon","coordinates":[[[-3.26561,40.56301],[-3.26655,40.56193],[-3.26787,40.56086],[-3.26887,40.55989],[-3.26772,40.55901],[-3.29593,40.53656],[-3.29713,40.53752],[-3.29462,40.53963],[-3.29272,40.54219],[-3.29164,40.54312],[-3.29094,40.54392],[-3.28987,40.54477],[-3.28514,40.54762],[-3.28504,40.54772],[-3.28555,40.54848],[-3.2848,40.54942],[-3.27581,40.55718],[-3.27156,40.56116],[-3.26815,40.56488],[-3.26664,40.56392],[-3.26561,40.56301]]]}},{"type":"Feature","properties":{"id":"1904601009"},"geometry":{"type":"Polygon","coordinates":[[[-3.27389,40.559],[-3.27581,40.55718],[-3.28303,40.55094],[-3.2864,40.55415],[-3.28483,40.55572],[-3.28493,40.5558],[-3.2787,40.56183],[-3.27389,40.559]]]}},{"type":"Feature","properties":{"id":"1904601010"},"geometry":{"type":"Polygon","coordinates":[[[-3.26617,40.56685],[-3.26633,40.56672],[-3.26823,40.56755],[-3.26857,40.56755],[-3.26952,40.56671],[-3.27106,40.56775],[-3.27166,40.56729],[-3.27207,40.56755],[-3.26942,40.56961],[-3.28237,40.5761],[-3.28013,40.57831],[-3.27399,40.58277],[-3.27356,40.58247],[-3.26999,40.57271],[-3.26686,40.57126],[-3.26585,40.57056],[-3.26529,40.56999],[-3.26523,40.56971],[-3.26483,40.56914],[-3.26628,40.56713],[-3.26617,40.56685]]]}},{"type":"Feature","properties":{"id":"1904601011"},"geometry":{"type":"Polygon","coordinates":[[[-3.25862,40.57871],[-3.25567,40.57811],[-3.25576,40.57787],[-3.2547,40.57703],[-3.25438,40.5764],[-3.254,40.57503],[-3.25399,40.57469],[-3.25526,40.5743],[-3.26129,40.57055],[-3.26194,40.56997],[-3.26293,40.56948],[-3.26287,40.57051],[-3.25888,40.57907],[-3.25862,40.57871]]]}},{"type":"Feature","properties":{"id":"1904601012"},"geometry":{"type":"Polygon","coordinates":[[[-3.24219,40.57277],[-3.244,40.57137],[-3.245,40.57046],[-3.24549,40.57036],[-3.24604,40.57048],[-3.24653,40.57021],[-3.24678,40.56998],[-3.2475,40.56869],[-3.25059,40.56595],[-3.25465,40.56821],[-3.25522,40.56843],[-3.25686,40.56879],[-3.258,40.56889],[-3.25915,40.56882],[-3.26009,40.56859],[-3.26054,40.56862],[-3.26092,40.5698],[-3.26137,40.57043],[-3.25526,40.5743],[-3.25399,40.57469],[-3.254,40.57503],[-3.25438,40.5764],[-3.2547,40.57703],[-3.25576,40.57787],[-3.25561,40.57831],[-3.25209,40.57709],[-3.25086,40.57908],[-3.25011,40.57879],[-3.2507,40.57684],[-3.24965,40.57733],[-3.24886,40.57692],[-3.248,40.5776],[-3.2458,40.57652],[-3.2464,40.57567],[-3.24489,40.57455],[-3.24612,40.57314],[-3.24469,40.57299],[-3.24393,40.57397],[-3.2423,40.57386],[-3.24235,40.57286],[-3.24219,40.57277]]]}},{"type":"Feature","properties":{"id":"1904601013"},"geometry":{"type":"Polygon","coordinates":[[[-3.26314,40.56671],[-3.26354,40.56639],[-3.26479,40.56462],[-3.26492,40.56437],[-3.26516,40.56296],[-3.26534,40.56282],[-3.26664,40.56392],[-3.26815,40.56488],[-3.26624,40.56681],[-3.26504,40.5674],[-3.26453,40.5678],[-3.26407,40.5672],[-3.26314,40.56671]]]}},{"type":"Feature","properties":{"id":"1904601014"},"geometry":{"type":"Polygon","coordinates":[[[-3.26137,40.58041],[-3.2591,40.5795],[-3.25903,40.5792],[-3.25885,40.57914],[-3.2614,40.5738],[-3.26642,40.57503],[-3.26595,40.58093],[-3.26582,40.58087],[-3.26571,40.58099],[-3.26439,40.58037],[-3.26334,40.58148],[-3.26194,40.58081],[-3.26137,40.58041]]]}},{"type":"Feature","properties":{"id":"1904601015"},"geometry":{"type":"Polygon","coordinates":[[[-3.26815,40.56488],[-3.27168,40.56106],[-3.27412,40.56234],[-3.27662,40.56385],[-3.27545,40.56495],[-3.26815,40.56488]]]}},{"type":"Feature","properties":{"id":"1904601016"},"geometry":{"type":"Polygon","coordinates":[[[-3.27549,40.56495],[-3.27215,40.56763],[-3.27166,40.56729],[-3.27106,40.56775],[-3.26952,40.56671],[-3.26857,40.56755],[-3.26823,40.56755],[-3.26633,40.56672],[-3.26815,40.56488],[-3.27549,40.56495]]]}},{"type":"Feature","properties":{"id":"1904601017"},"geometry":{"type":"Polygon","coordinates":[[[-3.27168,40.56106],[-3.27389,40.559],[-3.2787,40.56183],[-3.27662,40.56385],[-3.27412,40.56234],[-3.27168,40.56106]]]}},{"type":"Feature","properties":{"id":"1904601018"},"geometry":{"type":"Polygon","coordinates":[[[-3.26241,40.5662],[-3.26039,40.56791],[-3.26096,40.56834],[-3.26054,40.56862],[-3.26009,40.56859],[-3.25915,40.56882],[-3.258,40.56889],[-3.25686,40.56879],[-3.25522,40.56843],[-3.25465,40.56821],[-3.25059,40.56595],[-3.25913,40.55841],[-3.26396,40.56191],[-3.26051,40.56481],[-3.26241,40.5662]]]}},{"type":"Feature","properties":{"id":"1904601019"},"geometry":{"type":"Polygon","coordinates":[[[-3.27206,40.56756],[-3.27215,40.56763],[-3.27549,40.56495],[-3.28677,40.56502],[-3.28712,40.56516],[-3.28527,40.56781],[-3.28407,40.56898],[-3.28684,40.57213],[-3.28658,40.57279],[-3.28684,40.57278],[-3.28471,40.57463],[-3.28237,40.5761],[-3.26942,40.56961],[-3.27206,40.56756]]]}}]}