{"type":"FeatureCollection","features":[{"type":"Feature","properties":{"id":"1922001001"},"geometry":{"type":"Polygon","coordinates":[[[-3.13669,40.46386],[-3.13977,40.46299],[-3.14397,40.46196],[-3.14813,40.46186],[-3.1492,40.46159],[-3.14997,40.46159],[-3.15158,40.46056],[-3.15218,40.45903],[-3.15656,40.45964],[-3.15807,40.45399],[-3.16337,40.45431],[-3.16504,40.45339],[-3.16576,40.45392],[-3.16667,40.4551],[-3.1676,40.45667],[-3.16844,40.45707],[-3.16892,40.45801],[-3.16947,40.45875],[-3.17314,40.4597],[-3.17425,40.46105],[-3.17548,40.46214],[-3.17706,40.46274],[-3.17852,40.46384],[-3.17902,40.46466],[-3.18112,40.48205],[-3.17983,40.482],[-3.17677,40.48149],[-3.17501,40.4814],[-3.17117,40.48168],[-3.16979,40.48206],[-3.16861,40.48199],[-3.16623,40.48254],[-3.16469,40.48276],[-3.15983,40.48294],[-3.1587,40.48244],[-3.15508,40.47981],[-3.15449,40.47951],[-3.15304,40.47809],[-3.15067,40.47611],[-3.15024,40.47563],[-3.14848,40.47297],[-3.14808,40.47257],[-3.14492,40.47042],[-3.14346,40.46869],[-3.13944,40.46682],[-3.13864,40.46602],[-3.13737,40.46411],[-3.13669,40.46386]]]}},{"type":"Feature","properties":{"id":"1922001002"},"geometry":{"type":"Polygon","coordinates":[[[-3.15218,40.45903],[-3.15266,40.45823],[-3.15304,40.45581],[-3.15217,40.45502],[-3.15119,40.45327],[-3.15137,40.45238],[-3.15198,40.45169],[-3.15185,40.4506],[-3.15163,40.45031],[-3.1516,40.45005],[-3.15176,40.449],[-3.15131,40.44817],[-3.15163,40.44775],[-3.15138,40.44737],[-3.1514,40.44721],[-3.1518,40.44677],[-3.15259,40.44632],[-3.15272,40.44587],[-3.15315,40.44526],[-3.15351,40.44372],[-3.15406,40.44316],[-3.15433,40.44264],[-3.15441,40.44219],[-3.1543,40.44143],[-3.15436,40.44079],[-3.15474,40.44007],[-3.15508,40.4397],[-3.15558,40.43942],[-3.15815,40.43954],[-3.15904,40.43913],[-3.16133,40.43868],[-3.16262,40.43851],[-3.16904,40.43879],[-3.16961,40.4386],[-3.17045,40.43766],[-3.17264,40.43626],[-3.1731,40.43712],[-3.17425,40.43796],[-3.17609,40.4388],[-3.1773,40.43919],[-3.17944,40.43961],[-3.18249,40.44003],[-3.18408,40.43991],[-3.18544,40.43992],[-3.18674,40.44021],[-3.18757,40.4408],[-3.1883,40.44113],[-3.18917,40.44132],[-3.19264,40.44145],[-3.1986,40.44225],[-3.19979,40.4444],[-3.20046,40.44634],[-3.20028,40.44754],[-3.19926,40.45119],[-3.19998,40.45215],[-3.19965,40.45532],[-3.19876,40.45884],[-3.19871,40.46017],[-3.19903,40.46211],[-3.20019,40.46385],[-3.20016,40.46558],[-3.19948,40.4682],[-3.19895,40.47015],[-3.19765,40.47352],[-3.19636,40.47572],[-3.19539,40.47841],[-3.19536,40.47834],[-3.19174,40.47972],[-3.18825,40.48181],[-3.18595,40.48209],[-3.1831,40.48214],[-3.18112,40.48205],[-3.17902,40.46466],[-3.17852,40.46384],[-3.17706,40.46274],[-3.17548,40.46214],[-3.17425,40.46105],[-3.17314,40.4597],[-3.16947,40.45875],[-3.16892,40.45801],[-3.16844,40.45707],[-3.1676,40.45667],[-3.16667,40.4551],[-3.16576,40.45392],[-3.16504,40.45339],[-3.16337,40.45431],[-3.15807,40.45399],[-3.15656,40.45964],[-3.15218,40.45903]]]}}]}