{"type":"FeatureCollection","features":[{"type":"Feature","properties":{"id":"2002801001"},"geometry":{"type":"MultiPolygon","coordinates":[[[[-2.05424,43.24416],[-2.05307,43.24363],[-2.05128,43.2437],[-2.05158,43.24333],[-2.0518,43.24265],[-2.05201,43.24238],[-2.05282,43.24181],[-2.0538,43.24159],[-2.05437,43.24127],[-2.05448,43.24102],[-2.05447,43.24008],[-2.05462,43.23984],[-2.05479,43.23981],[-2.05545,43.24001],[-2.05583,43.23992],[-2.0559,43.23951],[-2.05617,43.2391],[-2.05593,43.2385],[-2.05553,43.23796],[-2.05559,43.23719],[-2.05591,43.23688],[-2.0569,43.23648],[-2.05714,43.23618],[-2.05707,43.23577],[-2.05633,43.23525],[-2.05611,43.23494],[-2.05627,43.23416],[-2.05614,43.23367],[-2.05636,43.23325],[-2.05634,43.23306],[-2.05584,43.23265],[-2.0556,43.23199],[-2.05555,43.23063],[-2.05568,43.23036],[-2.05646,43.22986],[-2.05694,43.22921],[-2.05704,43.2287],[-2.05825,43.22776],[-2.05848,43.22728],[-2.05856,43.22689],[-2.0583,43.22646],[-2.05826,43.22617],[-2.05829,43.22417],[-2.05809,43.22369],[-2.0583,43.22315],[-2.05886,43.22264],[-2.05854,43.21987],[-2.05905,43.2198],[-2.06354,43.22259],[-2.06527,43.22419],[-2.06781,43.22608],[-2.06871,43.22502],[-2.0692,43.22473],[-2.07044,43.22423],[-2.07072,43.22417],[-2.07193,43.22429],[-2.07372,43.22401],[-2.07396,43.22358],[-2.07469,43.22319],[-2.07485,43.22261],[-2.07508,43.22229],[-2.07671,43.22155],[-2.07793,43.22077],[-2.07811,43.22035],[-2.07844,43.22004],[-2.07813,43.2198],[-2.07834,43.21943],[-2.07809,43.21852],[-2.07857,43.218],[-2.07841,43.21687],[-2.078,43.21632],[-2.07433,43.21473],[-2.07306,43.21401],[-2.07261,43.21364],[-2.07233,43.21327],[-2.07175,43.21195],[-2.07168,43.21143],[-2.07125,43.21106],[-2.07088,43.211],[-2.07025,43.21132],[-2.06937,43.21121],[-2.06915,43.21107],[-2.06898,43.21039],[-2.06827,43.21032],[-2.06799,43.21017],[-2.06781,43.20928],[-2.06735,43.20807],[-2.06664,43.20761],[-2.06662,43.2074],[-2.06686,43.20705],[-2.06681,43.20653],[-2.06646,43.20617],[-2.06584,43.20596],[-2.06588,43.20578],[-2.0663,43.2053],[-2.06635,43.20502],[-2.06633,43.20474],[-2.06594,43.20445],[-2.06583,43.20356],[-2.06594,43.20307],[-2.0658,43.20294],[-2.06542,43.20286],[-2.06474,43.20291],[-2.06442,43.20265],[-2.06441,43.20212],[-2.06484,43.20175],[-2.06482,43.20158],[-2.06374,43.20138],[-2.06342,43.20143],[-2.0629,43.20087],[-2.06211,43.20075],[-2.06147,43.20052],[-2.06125,43.20026],[-2.06086,43.20009],[-2.06086,43.19946],[-2.06022,43.1994],[-2.05937,43.19882],[-2.05902,43.19879],[-2.05886,43.19895],[-2.0587,43.19889],[-2.05847,43.19857],[-2.05794,43.19828],[-2.0578,43.19791],[-2.05785,43.19765],[-2.05806,43.19745],[-2.05779,43.19735],[-2.05772,43.19651],[-2.05721,43.19613],[-2.05716,43.19565],[-2.057,43.19556],[-2.05645,43.19593],[-2.05618,43.19596],[-2.05702,43.19527],[-2.05705,43.19504],[-2.05673,43.194],[-2.0571,43.19282],[-2.05672,43.19215],[-2.05625,43.19178],[-2.05634,43.19069],[-2.05645,43.19067],[-2.05803,43.19153],[-2.06005,43.19203],[-2.06138,43.19202],[-2.06271,43.19154],[-2.06528,43.19107],[-2.0665,43.19057],[-2.06705,43.19045],[-2.06769,43.19059],[-2.06882,43.19117],[-2.07341,43.19144],[-2.07572,43.1914],[-2.07997,43.19153],[-2.0825,43.19117],[-2.08458,43.19225],[-2.08606,43.1958],[-2.08956,43.19921],[-2.08978,43.20011],[-2.09048,43.20047],[-2.09068,43.20083],[-2.09125,43.20133],[-2.09124,43.20192],[-2.09279,43.20392],[-2.09303,43.20428],[-2.09294,43.2045],[-2.09333,43.20474],[-2.0932,43.20497],[-2.09234,43.20539],[-2.09184,43.20626],[-2.09022,43.20747],[-2.09014,43.20782],[-2.09033,43.20852],[-2.09039,43.20947],[-2.09062,43.20964],[-2.09159,43.20999],[-2.09194,43.2106],[-2.09325,43.21147],[-2.09388,43.21171],[-2.09465,43.21241],[-2.09551,43.21379],[-2.09719,43.21718],[-2.09927,43.22033],[-2.10072,43.2219],[-2.1013,43.22243],[-2.10296,43.22358],[-2.10317,43.22404],[-2.10542,43.22514],[-2.10613,43.22566],[-2.1077,43.22617],[-2.10844,43.22658],[-2.10896,43.22761],[-2.1087,43.22858],[-2.10897,43.23],[-2.10657,43.2297],[-2.10506,43.2297],[-2.10418,43.22987],[-2.10211,43.23007],[-2.10118,43.23031],[-2.09842,43.23132],[-2.092,43.23644],[-2.08869,43.23867],[-2.08845,43.24081],[-2.08671,43.24193],[-2.0862,43.24098],[-2.08217,43.24175],[-2.08129,43.24209],[-2.08049,43.24209],[-2.08066,43.24281],[-2.07921,43.24266],[-2.07809,43.24275],[-2.07785,43.24262],[-2.07751,43.24194],[-2.07705,43.24147],[-2.07605,43.24103],[-2.07557,43.24064],[-2.07479,43.2403],[-2.0721,43.23956],[-2.07151,43.23948],[-2.0664,43.23914],[-2.06575,43.24027],[-2.0649,43.24233],[-2.06358,43.24329],[-2.06214,43.24358],[-2.05994,43.24358],[-2.05878,43.24509],[-2.05635,43.2462],[-2.05525,43.24487],[-2.05424,43.24416]]],[[[-2.11307,43.24317],[-2.11252,43.24282],[-2.11242,43.24314],[-2.11168,43.24291],[-2.11184,43.24244],[-2.11296,43.24105],[-2.11313,43.24056],[-2.11247,43.23961],[-2.11169,43.23899],[-2.11235,43.23833],[-2.11257,43.23743],[-2.11232,43.2372],[-2.11287,43.23697],[-2.1141,43.23709],[-2.11494,43.23728],[-2.11462,43.23763],[-2.11411,43.23768],[-2.11326,43.23806],[-2.11368,43.2385],[-2.11402,43.23846],[-2.11445,43.23878],[-2.11544,43.23915],[-2.11592,43.2395],[-2.11601,43.24001],[-2.11661,43.24065],[-2.11667,43.24105],[-2.11591,43.24223],[-2.11715,43.24321],[-2.11664,43.24437],[-2.11618,43.24474],[-2.11531,43.24388],[-2.11401,43.24337],[-2.11307,43.24317]]],[[[-2.10974,43.23495],[-2.11024,43.2344],[-2.11072,43.23506],[-2.11036,43.23581],[-2.11078,43.23611],[-2.11167,43.23633],[-2.11212,43.23671],[-2.1095,43.23715],[-2.10937,43.23798],[-2.10779,43.23891],[-2.1083,43.238],[-2.10834,43.23738],[-2.107,43.23582],[-2.10728,43.23572],[-2.10876,43.23569],[-2.10974,43.23495]]]]}},{"type":"Feature","properties":{"id":"2002801002"},"geometry":{"type":"Polygon","coordinates":[[[-2.05353,43.1908],[-2.05386,43.18888],[-2.05455,43.18652],[-2.05519,43.18687],[-2.05562,43.187],[-2.05852,43.18695],[-2.05937,43.18738],[-2.05964,43.18743],[-2.06024,43.18735],[-2.06068,43.18715],[-2.06252,43.18718],[-2.06359,43.18732],[-2.06528,43.18611],[-2.06632,43.18649],[-2.06705,43.18655],[-2.06713,43.18584],[-2.06733,43.18545],[-2.06791,43.18494],[-2.06913,43.1843],[-2.06943,43.18379],[-2.07052,43.18292],[-2.07103,43.1821],[-2.07157,43.18153],[-2.07275,43.18133],[-2.07353,43.18085],[-2.07474,43.18496],[-2.07426,43.18708],[-2.07478,43.18739],[-2.07477,43.18806],[-2.07449,43.18823],[-2.07442,43.1884],[-2.07441,43.18924],[-2.07464,43.18992],[-2.07417,43.19063],[-2.07709,43.19124],[-2.07799,43.19116],[-2.07887,43.19142],[-2.07958,43.19149],[-2.08028,43.19141],[-2.08094,43.19092],[-2.08152,43.19068],[-2.08204,43.19122],[-2.07997,43.19153],[-2.07572,43.1914],[-2.07341,43.19144],[-2.06882,43.19117],[-2.06769,43.19059],[-2.06705,43.19045],[-2.0665,43.19057],[-2.06528,43.19107],[-2.06271,43.19154],[-2.06138,43.19202],[-2.06005,43.19203],[-2.05803,43.19153],[-2.05645,43.19067],[-2.0563,43.19081],[-2.05625,43.19178],[-2.05672,43.19215],[-2.0571,43.19282],[-2.05673,43.194],[-2.05705,43.19504],[-2.05702,43.19527],[-2.05618,43.19596],[-2.05542,43.19591],[-2.05497,43.19566],[-2.05515,43.19511],[-2.05506,43.19456],[-2.05372,43.19212],[-2.05354,43.19157],[-2.05353,43.1908]]]}}]}