{"type":"FeatureCollection","features":[{"type":"Feature","properties":{"id":"2004501001"},"geometry":{"type":"Polygon","coordinates":[[[-1.79438,43.34039],[-1.78955,43.33934],[-1.78942,43.33922],[-1.78866,43.33596],[-1.79032,43.33576],[-1.79061,43.33555],[-1.79084,43.33516],[-1.79134,43.3349],[-1.79462,43.33571],[-1.79424,43.33624],[-1.79523,43.3367],[-1.79543,43.33698],[-1.79572,43.33691],[-1.79438,43.34039]]]}},{"type":"Feature","properties":{"id":"2004501002"},"geometry":{"type":"Polygon","coordinates":[[[-1.78577,43.3378],[-1.78593,43.33721],[-1.78716,43.33655],[-1.7885,43.33681],[-1.78873,43.33646],[-1.78942,43.33922],[-1.78883,43.3395],[-1.78808,43.33961],[-1.78747,43.33984],[-1.78737,43.33998],[-1.7874,43.34033],[-1.78675,43.34054],[-1.78651,43.34027],[-1.78654,43.33992],[-1.78618,43.33871],[-1.78625,43.33786],[-1.78577,43.3378]]]}},{"type":"Feature","properties":{"id":"2004501003"},"geometry":{"type":"Polygon","coordinates":[[[-1.78626,43.34269],[-1.78626,43.34246],[-1.78692,43.34081],[-1.78683,43.34056],[-1.7874,43.34033],[-1.78737,43.33998],[-1.78747,43.33984],[-1.78808,43.33961],[-1.78883,43.3395],[-1.78942,43.33922],[-1.78965,43.3394],[-1.79067,43.33962],[-1.78892,43.34342],[-1.78683,43.34312],[-1.78626,43.34269]]]}},{"type":"Feature","properties":{"id":"2004501004"},"geometry":{"type":"Polygon","coordinates":[[[-1.78594,43.34267],[-1.7858,43.34225],[-1.7852,43.34143],[-1.78498,43.34073],[-1.78492,43.33995],[-1.78415,43.33837],[-1.78577,43.3378],[-1.78625,43.33786],[-1.78618,43.33871],[-1.78654,43.33992],[-1.78651,43.34027],[-1.78683,43.34056],[-1.78692,43.34081],[-1.78626,43.34246],[-1.78626,43.34269],[-1.78594,43.34267]]]}},{"type":"Feature","properties":{"id":"2004502001"},"geometry":{"type":"Polygon","coordinates":[[[-1.78186,43.33837],[-1.78242,43.33826],[-1.78356,43.33735],[-1.78448,43.33622],[-1.78507,43.33628],[-1.78617,43.33702],[-1.78593,43.33721],[-1.78577,43.3378],[-1.78415,43.33837],[-1.78465,43.33939],[-1.78013,43.33973],[-1.78186,43.33837]]]}},{"type":"Feature","properties":{"id":"2004502002"},"geometry":{"type":"Polygon","coordinates":[[[-1.77169,43.3416],[-1.77117,43.34074],[-1.77087,43.33955],[-1.76978,43.33836],[-1.7703,43.33816],[-1.77083,43.33814],[-1.77118,43.3385],[-1.7717,43.33864],[-1.77181,43.33881],[-1.77183,43.33934],[-1.77158,43.33977],[-1.7717,43.34021],[-1.77202,43.34019],[-1.77311,43.34069],[-1.77311,43.34113],[-1.7743,43.34119],[-1.7749,43.34107],[-1.77534,43.34066],[-1.77579,43.3408],[-1.77623,43.34042],[-1.77728,43.34001],[-1.77827,43.33985],[-1.77837,43.34038],[-1.77766,43.34056],[-1.77578,43.34138],[-1.77508,43.34158],[-1.77418,43.34167],[-1.77169,43.3416]]]}},{"type":"Feature","properties":{"id":"2004502003"},"geometry":{"type":"Polygon","coordinates":[[[-1.72914,43.29612],[-1.73017,43.29575],[-1.72932,43.29475],[-1.72938,43.29364],[-1.72987,43.29373],[-1.7308,43.29418],[-1.7325,43.29448],[-1.73281,43.29464],[-1.73339,43.29517],[-1.73384,43.29537],[-1.7343,43.29538],[-1.73503,43.29523],[-1.73593,43.29471],[-1.7362,43.29468],[-1.73727,43.29543],[-1.73763,43.296],[-1.73781,43.29611],[-1.73927,43.29577],[-1.73968,43.29506],[-1.74095,43.29359],[-1.74125,43.29364],[-1.74236,43.29453],[-1.74287,43.29463],[-1.7435,43.29441],[-1.74446,43.29346],[-1.74523,43.29314],[-1.7464,43.29346],[-1.74722,43.29325],[-1.74903,43.29316],[-1.74951,43.29295],[-1.75299,43.29778],[-1.75693,43.30241],[-1.75746,43.30572],[-1.7576,43.3082],[-1.75719,43.30995],[-1.75526,43.31273],[-1.7549,43.31401],[-1.75535,43.31787],[-1.75576,43.31954],[-1.7565,43.32009],[-1.76086,43.32093],[-1.7628,43.321],[-1.76594,43.32088],[-1.76822,43.32126],[-1.76954,43.32155],[-1.77073,43.32196],[-1.77205,43.3228],[-1.77328,43.32298],[-1.77444,43.32295],[-1.77491,43.32303],[-1.77578,43.32343],[-1.77596,43.32363],[-1.77631,43.32482],[-1.77695,43.32554],[-1.77719,43.32575],[-1.77779,43.326],[-1.77799,43.32631],[-1.77793,43.32734],[-1.77741,43.32792],[-1.77658,43.32997],[-1.77659,43.33078],[-1.77716,43.33275],[-1.77715,43.33334],[-1.77747,43.33408],[-1.77751,43.33493],[-1.77777,43.33586],[-1.77767,43.3364],[-1.77686,43.33664],[-1.7755,43.33665],[-1.77435,43.33681],[-1.77117,43.33809],[-1.77051,43.33811],[-1.76978,43.33836],[-1.76866,43.33916],[-1.766,43.3403],[-1.76529,43.34114],[-1.7648,43.34123],[-1.7643,43.34173],[-1.76378,43.34191],[-1.76318,43.34177],[-1.76275,43.34264],[-1.76005,43.34216],[-1.75908,43.34306],[-1.75952,43.34333],[-1.75861,43.34411],[-1.75745,43.34378],[-1.75593,43.34302],[-1.75379,43.34181],[-1.75294,43.34093],[-1.75242,43.33919],[-1.75241,43.33873],[-1.75146,43.33619],[-1.75158,43.3359],[-1.7519,43.3356],[-1.7525,43.3353],[-1.75277,43.33506],[-1.75289,43.33442],[-1.75282,43.3337],[-1.75257,43.33322],[-1.75218,43.33287],[-1.75054,43.33172],[-1.74929,43.33108],[-1.74805,43.33088],[-1.74543,43.33144],[-1.74293,43.3317],[-1.7416,43.33171],[-1.74079,43.33153],[-1.73797,43.3305],[-1.7377,43.33017],[-1.73767,43.32965],[-1.73787,43.32897],[-1.73851,43.32793],[-1.73865,43.32721],[-1.73867,43.32566],[-1.73839,43.32509],[-1.73749,43.32438],[-1.73744,43.32421],[-1.73811,43.32173],[-1.73818,43.32073],[-1.73868,43.31962],[-1.73982,43.31908],[-1.7405,43.31852],[-1.7415,43.31704],[-1.74168,43.3165],[-1.74119,43.31603],[-1.73862,43.31456],[-1.73805,43.31398],[-1.73791,43.3137],[-1.73792,43.31334],[-1.73813,43.3131],[-1.73951,43.31262],[-1.74004,43.31231],[-1.74029,43.31155],[-1.74019,43.31116],[-1.73976,43.31087],[-1.73933,43.31073],[-1.73706,43.31077],[-1.73655,43.31071],[-1.73592,43.31044],[-1.73553,43.30997],[-1.73518,43.30902],[-1.73443,43.30762],[-1.73415,43.30643],[-1.73379,43.3034],[-1.73324,43.30149],[-1.73282,43.30077],[-1.73189,43.29981],[-1.73151,43.29901],[-1.73135,43.29782],[-1.73091,43.29693],[-1.73062,43.29658],[-1.73014,43.29635],[-1.72914,43.29612]]]}},{"type":"Feature","properties":{"id":"2004502004"},"geometry":{"type":"Polygon","coordinates":[[[-1.75866,43.34412],[-1.75952,43.34333],[-1.75908,43.34306],[-1.76005,43.34216],[-1.76275,43.34264],[-1.76318,43.34177],[-1.76378,43.34191],[-1.7643,43.34173],[-1.7648,43.34123],[-1.76529,43.34114],[-1.766,43.3403],[-1.76866,43.33916],[-1.76978,43.33836],[-1.77075,43.33937],[-1.77117,43.34074],[-1.77169,43.3416],[-1.77138,43.34221],[-1.76843,43.34228],[-1.76551,43.34282],[-1.76396,43.34322],[-1.76271,43.34389],[-1.76223,43.34404],[-1.76144,43.34409],[-1.76103,43.34421],[-1.75866,43.34412]]]}},{"type":"Feature","properties":{"id":"2004502005"},"geometry":{"type":"Polygon","coordinates":[[[-1.77949,43.33594],[-1.77767,43.3364],[-1.77777,43.33586],[-1.77751,43.33493],[-1.77747,43.33408],[-1.77719,43.3335],[-1.77716,43.33275],[-1.77659,43.33078],[-1.77669,43.32962],[-1.77741,43.32792],[-1.77793,43.32734],[-1.77799,43.32631],[-1.77779,43.326],[-1.77719,43.32575],[-1.77695,43.32554],[-1.77631,43.32482],[-1.77596,43.32363],[-1.77578,43.32343],[-1.77491,43.32303],[-1.77444,43.32295],[-1.77328,43.32298],[-1.77205,43.3228],[-1.77073,43.32196],[-1.76954,43.32155],[-1.76822,43.32126],[-1.76594,43.32088],[-1.7628,43.321],[-1.76086,43.32093],[-1.7565,43.32009],[-1.75576,43.31954],[-1.75535,43.31787],[-1.7549,43.31401],[-1.75526,43.31273],[-1.75719,43.30995],[-1.7576,43.3082],[-1.75746,43.30572],[-1.75693,43.30241],[-1.75299,43.29778],[-1.74951,43.29295],[-1.75004,43.29269],[-1.75044,43.29202],[-1.75077,43.29169],[-1.75128,43.29151],[-1.75137,43.29123],[-1.75129,43.29067],[-1.75141,43.29052],[-1.7538,43.2892],[-1.75401,43.28911],[-1.75418,43.2892],[-1.75502,43.28986],[-1.75531,43.29033],[-1.75582,43.29049],[-1.75771,43.29035],[-1.75821,43.29022],[-1.75936,43.28962],[-1.75981,43.28953],[-1.76035,43.28954],[-1.76096,43.28935],[-1.76107,43.28913],[-1.76091,43.28845],[-1.76143,43.28784],[-1.76182,43.28763],[-1.76266,43.28777],[-1.76303,43.28754],[-1.76375,43.28729],[-1.76403,43.28699],[-1.76407,43.28632],[-1.76498,43.28576],[-1.76703,43.28626],[-1.76742,43.28726],[-1.77087,43.28795],[-1.77214,43.28853],[-1.77638,43.28809],[-1.7785,43.28797],[-1.77936,43.2877],[-1.78139,43.28575],[-1.78324,43.28678],[-1.78618,43.28916],[-1.78837,43.2924],[-1.79064,43.29346],[-1.79089,43.29371],[-1.79359,43.29531],[-1.79481,43.29622],[-1.79772,43.2959],[-1.79923,43.29622],[-1.80152,43.29779],[-1.80475,43.29919],[-1.80484,43.29904],[-1.80517,43.29918],[-1.80789,43.30091],[-1.80884,43.30119],[-1.81037,43.3022],[-1.81072,43.30259],[-1.8124,43.30354],[-1.81252,43.30415],[-1.81337,43.30485],[-1.81394,43.30554],[-1.81558,43.30625],[-1.81811,43.30678],[-1.81954,43.30719],[-1.82067,43.30777],[-1.82125,43.30831],[-1.82537,43.3105],[-1.82376,43.31114],[-1.82103,43.3111],[-1.82038,43.31121],[-1.81899,43.31185],[-1.81796,43.31245],[-1.81722,43.31255],[-1.81611,43.31235],[-1.8151,43.31261],[-1.81432,43.31241],[-1.81343,43.31284],[-1.81253,43.31292],[-1.81142,43.31318],[-1.81092,43.31305],[-1.80991,43.31305],[-1.8091,43.31363],[-1.80552,43.31512],[-1.80452,43.31542],[-1.80409,43.3158],[-1.80291,43.31609],[-1.80198,43.31651],[-1.80181,43.31661],[-1.8014,43.31743],[-1.80125,43.31752],[-1.8005,43.31772],[-1.7997,43.31778],[-1.79901,43.31801],[-1.79871,43.31823],[-1.79829,43.31924],[-1.79763,43.31981],[-1.79666,43.32013],[-1.79617,43.32046],[-1.79404,43.32102],[-1.79364,43.3212],[-1.79291,43.32184],[-1.7917,43.32252],[-1.79124,43.32307],[-1.7901,43.32375],[-1.7893,43.32439],[-1.78912,43.32501],[-1.78871,43.32558],[-1.78931,43.32606],[-1.78893,43.32937],[-1.78923,43.33036],[-1.7892,43.33099],[-1.78894,43.33208],[-1.78845,43.33287],[-1.78859,43.33353],[-1.78663,43.33364],[-1.78643,43.33376],[-1.78609,43.3342],[-1.78562,43.33531],[-1.78495,43.33626],[-1.78426,43.33621],[-1.78304,43.33647],[-1.78189,43.33695],[-1.78148,43.33656],[-1.78126,43.33644],[-1.78076,43.33635],[-1.78022,43.3359],[-1.77949,43.33594]]]}},{"type":"Feature","properties":{"id":"2004502006"},"geometry":{"type":"Polygon","coordinates":[[[-1.78133,43.33962],[-1.78465,43.33939],[-1.78492,43.33995],[-1.78498,43.3406],[-1.7815,43.34081],[-1.78133,43.33962]]]}},{"type":"Feature","properties":{"id":"2004502007"},"geometry":{"type":"Polygon","coordinates":[[[-1.77806,43.3363],[-1.77949,43.33594],[-1.78022,43.3359],[-1.78076,43.33635],[-1.78126,43.33644],[-1.78148,43.33656],[-1.78189,43.33695],[-1.78304,43.33647],[-1.78448,43.33622],[-1.78356,43.33735],[-1.78242,43.33826],[-1.78216,43.33831],[-1.78134,43.33699],[-1.77806,43.3363]]]}},{"type":"Feature","properties":{"id":"2004502008"},"geometry":{"type":"Polygon","coordinates":[[[-1.77083,43.33814],[-1.77216,43.33774],[-1.77285,43.33737],[-1.77435,43.33681],[-1.7755,43.33665],[-1.77686,43.33664],[-1.77767,43.3364],[-1.77827,43.33985],[-1.77728,43.34001],[-1.77623,43.34042],[-1.77579,43.3408],[-1.77534,43.34066],[-1.7749,43.34107],[-1.7743,43.34119],[-1.77311,43.34113],[-1.77311,43.34069],[-1.77202,43.34019],[-1.7717,43.34021],[-1.77158,43.33977],[-1.77183,43.33934],[-1.77181,43.33881],[-1.7717,43.33864],[-1.77118,43.3385],[-1.77083,43.33814]]]}},{"type":"Feature","properties":{"id":"2004502009"},"geometry":{"type":"Polygon","coordinates":[[[-1.77138,43.34221],[-1.77169,43.3416],[-1.77418,43.34167],[-1.77508,43.34158],[-1.77578,43.34138],[-1.77766,43.34056],[-1.77785,43.34057],[-1.77988,43.33979],[-1.78047,43.33968],[-1.78133,43.33962],[-1.7815,43.34081],[-1.78498,43.3406],[-1.7852,43.34143],[-1.7858,43.34225],[-1.78594,43.34267],[-1.78591,43.34285],[-1.78519,43.34384],[-1.78461,43.34425],[-1.78445,43.3446],[-1.78496,43.34742],[-1.78472,43.34837],[-1.78414,43.34894],[-1.7834,43.34853],[-1.78228,43.34826],[-1.78112,43.34814],[-1.77831,43.34812],[-1.77775,43.34801],[-1.7774,43.34775],[-1.77712,43.34728],[-1.77706,43.346],[-1.77681,43.34513],[-1.77637,43.34426],[-1.77541,43.34371],[-1.77303,43.34308],[-1.77221,43.34243],[-1.77138,43.34221]]]}},{"type":"Feature","properties":{"id":"2004502010"},"geometry":{"type":"Polygon","coordinates":[[[-1.77837,43.34038],[-1.77767,43.3364],[-1.77806,43.3363],[-1.78134,43.33699],[-1.78216,43.33831],[-1.78186,43.33837],[-1.78013,43.33973],[-1.77837,43.34038]]]}},{"type":"Feature","properties":{"id":"2004503001"},"geometry":{"type":"Polygon","coordinates":[[[-1.78414,43.34894],[-1.78472,43.34837],[-1.78496,43.34742],[-1.78445,43.3446],[-1.78461,43.34425],[-1.78519,43.34384],[-1.78591,43.34285],[-1.78594,43.34267],[-1.78626,43.34269],[-1.78701,43.34317],[-1.78892,43.34342],[-1.79067,43.33962],[-1.7938,43.34027],[-1.79356,43.34081],[-1.79453,43.34101],[-1.79442,43.34125],[-1.79452,43.34128],[-1.794,43.34268],[-1.79378,43.34279],[-1.79316,43.34413],[-1.79292,43.34425],[-1.79285,43.34446],[-1.79339,43.34487],[-1.78874,43.34863],[-1.78616,43.35043],[-1.78414,43.34894]]]}},{"type":"Feature","properties":{"id":"2004503002"},"geometry":{"type":"Polygon","coordinates":[[[-1.79438,43.34039],[-1.7951,43.33851],[-1.796,43.33869],[-1.79559,43.3398],[-1.79649,43.33999],[-1.7962,43.34076],[-1.79438,43.34039]]]}},{"type":"Feature","properties":{"id":"2004503003"},"geometry":{"type":"Polygon","coordinates":[[[-1.7951,43.33851],[-1.79572,43.33691],[-1.79543,43.33698],[-1.79523,43.3367],[-1.79424,43.33624],[-1.79462,43.33571],[-1.79257,43.3352],[-1.79298,43.33462],[-1.79365,43.33416],[-1.79405,43.33447],[-1.79506,43.33583],[-1.79565,43.33562],[-1.79694,43.33592],[-1.79695,43.33626],[-1.796,43.33869],[-1.7951,43.33851]]]}},{"type":"Feature","properties":{"id":"2004503004"},"geometry":{"type":"Polygon","coordinates":[[[-1.79559,43.3398],[-1.79637,43.33757],[-1.79722,43.33776],[-1.79649,43.33999],[-1.79559,43.3398]]]}},{"type":"Feature","properties":{"id":"2004503005"},"geometry":{"type":"Polygon","coordinates":[[[-1.7962,43.34076],[-1.79722,43.33776],[-1.79637,43.33757],[-1.79684,43.33646],[-1.79695,43.33626],[-1.79837,43.33557],[-1.79846,43.33597],[-1.79823,43.33742],[-1.79836,43.33826],[-1.79814,43.33917],[-1.79757,43.33962],[-1.79704,43.34095],[-1.7962,43.34076]]]}},{"type":"Feature","properties":{"id":"2004503006"},"geometry":{"type":"Polygon","coordinates":[[[-1.7938,43.34027],[-1.79677,43.34088],[-1.79761,43.34115],[-1.79339,43.34487],[-1.79285,43.34446],[-1.79292,43.34425],[-1.79316,43.34413],[-1.79378,43.34279],[-1.794,43.34268],[-1.79452,43.34128],[-1.79442,43.34125],[-1.79453,43.34101],[-1.79356,43.34081],[-1.7938,43.34027]]]}},{"type":"Feature","properties":{"id":"2004503007"},"geometry":{"type":"Polygon","coordinates":[[[-1.79938,43.34273],[-1.80152,43.34547],[-1.80131,43.34551],[-1.80081,43.34582],[-1.79961,43.34556],[-1.79783,43.34493],[-1.79789,43.34464],[-1.79861,43.3444],[-1.79811,43.34352],[-1.79815,43.34329],[-1.79938,43.34273]]]}},{"type":"Feature","properties":{"id":"2004503008"},"geometry":{"type":"Polygon","coordinates":[[[-1.79938,43.34273],[-1.79907,43.34188],[-1.79945,43.34175],[-1.80007,43.34177],[-1.79997,43.342],[-1.80163,43.34412],[-1.80137,43.34495],[-1.80118,43.34502],[-1.79938,43.34273]]]}},{"type":"Feature","properties":{"id":"2004503009"},"geometry":{"type":"Polygon","coordinates":[[[-1.80932,43.34089],[-1.80375,43.34066],[-1.80396,43.33959],[-1.80219,43.33794],[-1.80578,43.33616],[-1.80826,43.3346],[-1.8086,43.33518],[-1.80883,43.33599],[-1.80907,43.33626],[-1.81028,43.33699],[-1.81065,43.33748],[-1.81087,43.33841],[-1.81076,43.3397],[-1.81099,43.33979],[-1.80967,43.34106],[-1.80932,43.34089]]]}},{"type":"Feature","properties":{"id":"2004503010"},"geometry":{"type":"Polygon","coordinates":[[[-1.80225,43.33355],[-1.80298,43.33327],[-1.80643,43.33248],[-1.80933,43.33152],[-1.81106,43.33136],[-1.81177,43.33326],[-1.80989,43.3339],[-1.80826,43.3346],[-1.80578,43.33616],[-1.80219,43.33794],[-1.80135,43.33689],[-1.8031,43.3365],[-1.80343,43.33622],[-1.80351,43.33588],[-1.80285,43.33419],[-1.80225,43.33355]]]}},{"type":"Feature","properties":{"id":"2004503011"},"geometry":{"type":"Polygon","coordinates":[[[-1.80549,43.3439],[-1.80538,43.34359],[-1.80567,43.3429],[-1.80626,43.34301],[-1.80673,43.342],[-1.80765,43.34219],[-1.808,43.34189],[-1.80819,43.34148],[-1.80821,43.34085],[-1.80932,43.34089],[-1.80967,43.34106],[-1.81042,43.34036],[-1.81063,43.34057],[-1.81034,43.34221],[-1.81017,43.34257],[-1.80688,43.34316],[-1.80549,43.3439]]]}},{"type":"Feature","properties":{"id":"2004503012"},"geometry":{"type":"Polygon","coordinates":[[[-1.80081,43.3419],[-1.80117,43.34092],[-1.80022,43.34101],[-1.79917,43.34082],[-1.7979,43.34132],[-1.79761,43.34115],[-1.79829,43.34044],[-1.79936,43.33968],[-1.80219,43.33794],[-1.80396,43.33959],[-1.80375,43.34066],[-1.80304,43.34067],[-1.80271,43.34089],[-1.80232,43.34217],[-1.80081,43.3419]]]}},{"type":"Feature","properties":{"id":"2004503013"},"geometry":{"type":"Polygon","coordinates":[[[-1.79704,43.34095],[-1.79757,43.33962],[-1.79814,43.33917],[-1.79836,43.33826],[-1.79823,43.33742],[-1.79846,43.33597],[-1.79837,43.33557],[-1.80048,43.33458],[-1.80225,43.33355],[-1.80285,43.33419],[-1.80351,43.33588],[-1.80343,43.33622],[-1.8031,43.3365],[-1.80135,43.33689],[-1.80219,43.33794],[-1.79936,43.33968],[-1.79829,43.34044],[-1.79761,43.34115],[-1.79704,43.34095]]]}},{"type":"Feature","properties":{"id":"2004503014"},"geometry":{"type":"Polygon","coordinates":[[[-1.80151,43.34545],[-1.80118,43.34502],[-1.80137,43.34495],[-1.80271,43.34089],[-1.80304,43.34067],[-1.80327,43.34065],[-1.80821,43.34085],[-1.80819,43.34148],[-1.808,43.34189],[-1.80765,43.34219],[-1.80673,43.342],[-1.80626,43.34301],[-1.80567,43.3429],[-1.80538,43.34359],[-1.80549,43.34391],[-1.80222,43.34536],[-1.80193,43.3454],[-1.80189,43.3453],[-1.80191,43.3454],[-1.80151,43.34545]]]}},{"type":"Feature","properties":{"id":"2004503015"},"geometry":{"type":"Polygon","coordinates":[[[-1.78616,43.35043],[-1.78874,43.34863],[-1.79319,43.34505],[-1.79761,43.34115],[-1.7979,43.34132],[-1.79924,43.34249],[-1.79938,43.34273],[-1.79815,43.34329],[-1.79811,43.34352],[-1.79861,43.3444],[-1.79789,43.34464],[-1.79783,43.34493],[-1.79961,43.34556],[-1.80081,43.34582],[-1.79995,43.34659],[-1.799,43.34788],[-1.79807,43.34896],[-1.79782,43.34912],[-1.79698,43.34945],[-1.79538,43.34979],[-1.79385,43.35023],[-1.79313,43.3507],[-1.79251,43.35133],[-1.79189,43.35303],[-1.79139,43.35371],[-1.79007,43.35466],[-1.78827,43.35561],[-1.78845,43.3542],[-1.78806,43.35272],[-1.78758,43.3518],[-1.78616,43.35043]]]}},{"type":"Feature","properties":{"id":"2004503016"},"geometry":{"type":"Polygon","coordinates":[[[-1.7979,43.34132],[-1.79917,43.34082],[-1.80022,43.34101],[-1.80117,43.34092],[-1.80081,43.3419],[-1.79977,43.34173],[-1.79907,43.34188],[-1.79924,43.34249],[-1.7979,43.34132]]]}},{"type":"Feature","properties":{"id":"2004503017"},"geometry":{"type":"Polygon","coordinates":[[[-1.81042,43.34036],[-1.81099,43.33979],[-1.81076,43.3397],[-1.81087,43.33841],[-1.81065,43.33748],[-1.81028,43.33699],[-1.80907,43.33626],[-1.80883,43.33599],[-1.8086,43.33518],[-1.80826,43.3346],[-1.80989,43.3339],[-1.8134,43.3326],[-1.81439,43.33211],[-1.81534,43.33282],[-1.81626,43.33306],[-1.81711,43.33305],[-1.81861,43.33144],[-1.81935,43.33104],[-1.82291,43.33019],[-1.82362,43.32983],[-1.82391,43.32908],[-1.82286,43.328],[-1.82197,43.32759],[-1.82251,43.32719],[-1.82577,43.32569],[-1.82743,43.32509],[-1.82851,43.32484],[-1.82946,43.32475],[-1.83084,43.32483],[-1.83047,43.32622],[-1.82938,43.3271],[-1.82704,43.32841],[-1.82645,43.3292],[-1.82712,43.32991],[-1.82648,43.33017],[-1.82488,43.33119],[-1.82451,43.33054],[-1.82284,43.33125],[-1.82236,43.33134],[-1.82217,43.33147],[-1.82184,43.33231],[-1.82087,43.33295],[-1.81997,43.33334],[-1.81979,43.33351],[-1.81985,43.33421],[-1.81927,43.33477],[-1.81798,43.33566],[-1.81737,43.33584],[-1.81724,43.33606],[-1.81726,43.33693],[-1.8184,43.33772],[-1.81937,43.33789],[-1.81969,43.33804],[-1.82003,43.33841],[-1.82168,43.33834],[-1.82164,43.33952],[-1.82121,43.33979],[-1.81017,43.34257],[-1.81034,43.34221],[-1.81063,43.34057],[-1.81042,43.34036]]]}},{"type":"Feature","properties":{"id":"2004503018"},"geometry":{"type":"Polygon","coordinates":[[[-1.80007,43.34177],[-1.80232,43.34217],[-1.80163,43.34412],[-1.79997,43.342],[-1.80007,43.34177]]]}},{"type":"Feature","properties":{"id":"2004503019"},"geometry":{"type":"Polygon","coordinates":[[[-1.82712,43.32991],[-1.82845,43.33126],[-1.83011,43.33168],[-1.83083,43.33329],[-1.83142,43.33425],[-1.82815,43.33582],[-1.82396,43.33807],[-1.82164,43.33952],[-1.82168,43.33834],[-1.82003,43.33841],[-1.81969,43.33804],[-1.81937,43.33789],[-1.8184,43.33772],[-1.81726,43.33693],[-1.81724,43.33606],[-1.81737,43.33584],[-1.81798,43.33566],[-1.81927,43.33477],[-1.81985,43.33421],[-1.81979,43.33351],[-1.81997,43.33334],[-1.82087,43.33295],[-1.82184,43.33231],[-1.82217,43.33147],[-1.82236,43.33134],[-1.82284,43.33125],[-1.82451,43.33054],[-1.82488,43.33119],[-1.82648,43.33017],[-1.82712,43.32991]]]}},{"type":"Feature","properties":{"id":"2004504001"},"geometry":{"type":"Polygon","coordinates":[[[-1.78861,43.33571],[-1.7888,43.3342],[-1.79126,43.33406],[-1.79206,43.33409],[-1.7926,43.33425],[-1.79212,43.33507],[-1.79134,43.3349],[-1.79084,43.33516],[-1.79061,43.33555],[-1.79032,43.33576],[-1.78866,43.33596],[-1.78861,43.33571]]]}},{"type":"Feature","properties":{"id":"2004504002"},"geometry":{"type":"Polygon","coordinates":[[[-1.79212,43.33507],[-1.7926,43.33425],[-1.79206,43.33409],[-1.79126,43.33406],[-1.7888,43.3342],[-1.78862,43.33361],[-1.79157,43.3335],[-1.79256,43.33358],[-1.79283,43.33369],[-1.79365,43.33416],[-1.79298,43.33462],[-1.79257,43.3352],[-1.79212,43.33507]]]}},{"type":"Feature","properties":{"id":"2004504003"},"geometry":{"type":"Polygon","coordinates":[[[-1.79405,43.33447],[-1.79283,43.33369],[-1.79224,43.33355],[-1.79242,43.33309],[-1.79325,43.33262],[-1.79377,43.33253],[-1.79479,43.33256],[-1.79567,43.33193],[-1.79644,43.3317],[-1.79735,43.33288],[-1.79741,43.33309],[-1.79703,43.33425],[-1.79694,43.33592],[-1.79565,43.33562],[-1.79506,43.33583],[-1.79405,43.33447]]]}},{"type":"Feature","properties":{"id":"2004504004"},"geometry":{"type":"Polygon","coordinates":[[[-1.79695,43.33626],[-1.79703,43.33425],[-1.79741,43.33309],[-1.79735,43.33288],[-1.79644,43.3317],[-1.79653,43.33166],[-1.79799,43.33139],[-1.7991,43.33134],[-1.80011,43.331],[-1.80075,43.33092],[-1.80129,43.33068],[-1.80288,43.33069],[-1.80433,43.33095],[-1.80558,43.33156],[-1.80728,43.33218],[-1.80643,43.33248],[-1.80252,43.33341],[-1.80048,43.33458],[-1.79695,43.33626]]]}},{"type":"Feature","properties":{"id":"2004504005"},"geometry":{"type":"Polygon","coordinates":[[[-1.78495,43.33626],[-1.78562,43.33531],[-1.78609,43.3342],[-1.78643,43.33376],[-1.78663,43.33364],[-1.78859,43.33353],[-1.78885,43.33476],[-1.78861,43.33571],[-1.78873,43.33646],[-1.7885,43.33681],[-1.78716,43.33655],[-1.78617,43.33702],[-1.78495,43.33626]]]}},{"type":"Feature","properties":{"id":"2004504006"},"geometry":{"type":"Polygon","coordinates":[[[-1.81728,43.3278],[-1.8174,43.3289],[-1.81783,43.32968],[-1.81502,43.33097],[-1.81311,43.33111],[-1.81328,43.3302],[-1.81356,43.32969],[-1.81495,43.32825],[-1.81529,43.32828],[-1.81561,43.32805],[-1.81655,43.32783],[-1.81728,43.3278]]]}},{"type":"Feature","properties":{"id":"2004504007"},"geometry":{"type":"Polygon","coordinates":[[[-1.82845,43.33126],[-1.82645,43.3292],[-1.82704,43.32841],[-1.82938,43.3271],[-1.83047,43.32622],[-1.83084,43.32483],[-1.82946,43.32475],[-1.82851,43.32484],[-1.82743,43.32509],[-1.82577,43.32569],[-1.82304,43.3269],[-1.82197,43.32759],[-1.82126,43.32669],[-1.82062,43.32709],[-1.82029,43.32678],[-1.81799,43.32772],[-1.81655,43.32783],[-1.81561,43.32805],[-1.81529,43.32828],[-1.81495,43.32825],[-1.81356,43.32969],[-1.81328,43.3302],[-1.8131,43.33116],[-1.81192,43.32999],[-1.81161,43.32997],[-1.8111,43.33005],[-1.81042,43.33029],[-1.80997,43.33057],[-1.80704,43.33158],[-1.80671,43.33029],[-1.80613,43.33004],[-1.80575,43.32968],[-1.80513,43.32846],[-1.80677,43.32793],[-1.80742,43.32781],[-1.80918,43.32631],[-1.81152,43.32375],[-1.81133,43.32251],[-1.81137,43.32183],[-1.81232,43.32112],[-1.81432,43.32121],[-1.8153,43.322],[-1.81821,43.32197],[-1.82106,43.32181],[-1.82275,43.32038],[-1.82415,43.31937],[-1.82588,43.3168],[-1.82761,43.3147],[-1.82897,43.31219],[-1.83114,43.31253],[-1.83168,43.3127],[-1.8322,43.31275],[-1.83304,43.31259],[-1.83474,43.31361],[-1.83702,43.31534],[-1.83887,43.31693],[-1.84038,43.31847],[-1.84122,43.31849],[-1.84202,43.31872],[-1.84313,43.31956],[-1.84426,43.32013],[-1.84704,43.32317],[-1.84889,43.32431],[-1.8497,43.325],[-1.85206,43.32512],[-1.85111,43.32724],[-1.8502,43.32861],[-1.84934,43.33024],[-1.84847,43.33002],[-1.84603,43.33036],[-1.84578,43.33053],[-1.8444,43.33069],[-1.843,43.33069],[-1.83728,43.3314],[-1.83142,43.33425],[-1.83083,43.33329],[-1.83011,43.33168],[-1.82845,43.33126]]]}},{"type":"Feature","properties":{"id":"2004504008"},"geometry":{"type":"Polygon","coordinates":[[[-1.78862,43.33361],[-1.78845,43.33287],[-1.78894,43.33208],[-1.7892,43.33099],[-1.78923,43.33036],[-1.78893,43.32937],[-1.78931,43.32606],[-1.78871,43.32558],[-1.78912,43.32501],[-1.7893,43.32439],[-1.7901,43.32375],[-1.79124,43.32307],[-1.7917,43.32252],[-1.79291,43.32184],[-1.79364,43.3212],[-1.79404,43.32102],[-1.79617,43.32046],[-1.79666,43.32013],[-1.79763,43.31981],[-1.79829,43.31924],[-1.79871,43.31823],[-1.79901,43.31801],[-1.7997,43.31778],[-1.8005,43.31772],[-1.80125,43.31752],[-1.8014,43.31743],[-1.80181,43.31661],[-1.80198,43.31651],[-1.80291,43.31609],[-1.80409,43.3158],[-1.80452,43.31542],[-1.80552,43.31512],[-1.8091,43.31363],[-1.80991,43.31305],[-1.81016,43.313],[-1.81092,43.31305],[-1.81142,43.31318],[-1.81253,43.31292],[-1.81343,43.31284],[-1.81432,43.31241],[-1.8151,43.31261],[-1.81611,43.31235],[-1.81722,43.31255],[-1.81796,43.31245],[-1.81899,43.31185],[-1.82038,43.31121],[-1.82103,43.3111],[-1.82376,43.31114],[-1.82537,43.3105],[-1.82742,43.31175],[-1.82808,43.31205],[-1.82897,43.31219],[-1.82761,43.3147],[-1.82588,43.3168],[-1.82415,43.31937],[-1.82275,43.32038],[-1.82106,43.32181],[-1.81821,43.32197],[-1.8153,43.322],[-1.81432,43.32121],[-1.81232,43.32112],[-1.81137,43.32183],[-1.81133,43.32251],[-1.81152,43.32375],[-1.80918,43.32631],[-1.80742,43.32781],[-1.80677,43.32793],[-1.80513,43.32846],[-1.80575,43.32968],[-1.80613,43.33004],[-1.80671,43.33029],[-1.80704,43.33158],[-1.80997,43.33057],[-1.81042,43.33029],[-1.8111,43.33005],[-1.81161,43.32997],[-1.81192,43.32999],[-1.8131,43.33116],[-1.80933,43.33152],[-1.80728,43.33218],[-1.80558,43.33156],[-1.80433,43.33095],[-1.80288,43.33069],[-1.80129,43.33068],[-1.80075,43.33092],[-1.80011,43.331],[-1.7991,43.33134],[-1.79799,43.33139],[-1.79617,43.33172],[-1.79567,43.33193],[-1.79479,43.33256],[-1.79377,43.33253],[-1.79325,43.33262],[-1.79242,43.33309],[-1.79224,43.33355],[-1.79024,43.3335],[-1.78862,43.33361]]]}},{"type":"Feature","properties":{"id":"2004504009"},"geometry":{"type":"Polygon","coordinates":[[[-1.81106,43.33136],[-1.81502,43.33097],[-1.81783,43.32968],[-1.8174,43.3289],[-1.81728,43.3278],[-1.81799,43.32772],[-1.82029,43.32678],[-1.82062,43.32709],[-1.82126,43.32669],[-1.82197,43.32759],[-1.82286,43.328],[-1.82391,43.32908],[-1.82362,43.32983],[-1.82291,43.33019],[-1.81993,43.33086],[-1.81935,43.33104],[-1.81861,43.33144],[-1.81711,43.33305],[-1.81626,43.33306],[-1.81534,43.33282],[-1.81439,43.33211],[-1.81177,43.33326],[-1.81106,43.33136]]]}}]}