{"type":"FeatureCollection","features":[{"type":"Feature","properties":{"id":"2005301001"},"geometry":{"type":"Polygon","coordinates":[[[-1.897,43.32067],[-1.89758,43.31946],[-1.89792,43.31917],[-1.89912,43.31911],[-1.90137,43.31859],[-1.90166,43.31848],[-1.90195,43.3182],[-1.90204,43.3177],[-1.90197,43.31729],[-1.9015,43.3169],[-1.89867,43.31525],[-1.89925,43.31553],[-1.90068,43.31591],[-1.90167,43.31644],[-1.90304,43.31677],[-1.90336,43.31733],[-1.90346,43.31845],[-1.90308,43.31892],[-1.9017,43.31883],[-1.90082,43.31891],[-1.9024,43.32136],[-1.90264,43.32154],[-1.9019,43.32275],[-1.90068,43.32318],[-1.90059,43.32292],[-1.90012,43.32249],[-1.89721,43.32128],[-1.89704,43.32109],[-1.897,43.32067]]]}},{"type":"Feature","properties":{"id":"2005301002"},"geometry":{"type":"Polygon","coordinates":[[[-1.8995,43.32375],[-1.90017,43.32321],[-1.89965,43.32278],[-1.89773,43.32192],[-1.89675,43.3218],[-1.89676,43.32159],[-1.89645,43.32158],[-1.89632,43.32263],[-1.89408,43.32273],[-1.89419,43.32231],[-1.89412,43.32222],[-1.8933,43.32264],[-1.89289,43.32271],[-1.89224,43.32226],[-1.89246,43.32198],[-1.89346,43.3216],[-1.89408,43.32122],[-1.89423,43.32101],[-1.89538,43.32097],[-1.89648,43.32062],[-1.897,43.32067],[-1.89704,43.32109],[-1.89739,43.3214],[-1.90031,43.32262],[-1.90059,43.32292],[-1.90083,43.32363],[-1.90103,43.32386],[-1.90111,43.3243],[-1.90103,43.32459],[-1.90061,43.32466],[-1.89998,43.32461],[-1.8995,43.32375]]]}},{"type":"Feature","properties":{"id":"2005301003"},"geometry":{"type":"Polygon","coordinates":[[[-1.85506,43.33999],[-1.85402,43.33782],[-1.84934,43.33024],[-1.8502,43.32861],[-1.85111,43.32724],[-1.85206,43.32512],[-1.85419,43.32392],[-1.85505,43.32333],[-1.85866,43.32161],[-1.86066,43.32141],[-1.8653,43.32141],[-1.86792,43.321],[-1.87121,43.32079],[-1.87297,43.31906],[-1.87695,43.31965],[-1.88336,43.31862],[-1.8887,43.31584],[-1.88922,43.31517],[-1.8895,43.31433],[-1.88916,43.31303],[-1.88926,43.31254],[-1.88976,43.31173],[-1.89029,43.31136],[-1.89048,43.31103],[-1.89241,43.31159],[-1.89388,43.31242],[-1.89382,43.3131],[-1.89466,43.31385],[-1.89688,43.31505],[-1.89867,43.31525],[-1.9015,43.3169],[-1.90197,43.31729],[-1.90204,43.3177],[-1.90195,43.3182],[-1.90166,43.31848],[-1.89912,43.31911],[-1.89792,43.31917],[-1.89758,43.31946],[-1.897,43.32067],[-1.89648,43.32062],[-1.89538,43.32097],[-1.89423,43.32101],[-1.89408,43.32122],[-1.89346,43.3216],[-1.89246,43.32198],[-1.89224,43.32226],[-1.89242,43.32245],[-1.89289,43.32271],[-1.8933,43.32264],[-1.89412,43.32222],[-1.89419,43.32231],[-1.89408,43.32273],[-1.89633,43.32263],[-1.89661,43.3233],[-1.89647,43.32394],[-1.89791,43.32384],[-1.89919,43.32418],[-1.89946,43.32374],[-1.89998,43.32461],[-1.90061,43.32466],[-1.90103,43.32459],[-1.90111,43.3243],[-1.90103,43.32386],[-1.90083,43.32363],[-1.90068,43.32318],[-1.9019,43.32275],[-1.90325,43.32366],[-1.90936,43.32325],[-1.90968,43.3245],[-1.91025,43.32449],[-1.90996,43.32508],[-1.90999,43.3269],[-1.90974,43.32739],[-1.90863,43.32779],[-1.90674,43.32817],[-1.90448,43.32799],[-1.90317,43.32798],[-1.90154,43.32821],[-1.90086,43.32881],[-1.90035,43.3295],[-1.89965,43.33104],[-1.89961,43.3315],[-1.89711,43.33154],[-1.89586,43.33239],[-1.89146,43.33309],[-1.89108,43.33305],[-1.88884,43.33369],[-1.88807,43.33402],[-1.88662,43.33433],[-1.8863,43.33432],[-1.88581,43.33416],[-1.88514,43.33416],[-1.88367,43.33465],[-1.88147,43.33493],[-1.87809,43.33593],[-1.87635,43.33687],[-1.87504,43.33703],[-1.87043,43.33851],[-1.86901,43.33943],[-1.86531,43.34051],[-1.86367,43.34142],[-1.86306,43.34163],[-1.85965,43.34256],[-1.85711,43.34337],[-1.85666,43.34287],[-1.85506,43.33999]]]}},{"type":"Feature","properties":{"id":"2005301004"},"geometry":{"type":"Polygon","coordinates":[[[-1.89632,43.32263],[-1.89645,43.32158],[-1.89676,43.32159],[-1.89675,43.3218],[-1.89773,43.32192],[-1.89825,43.32211],[-1.89965,43.32278],[-1.90017,43.32321],[-1.89946,43.32374],[-1.89919,43.32418],[-1.89791,43.32384],[-1.89647,43.32394],[-1.89661,43.3233],[-1.89632,43.32263]]]}}]}