{"type":"FeatureCollection","features":[{"type":"Feature","properties":{"id":"2007401001"},"geometry":{"type":"Polygon","coordinates":[[[-2.35825,43.13836],[-2.35929,43.13272],[-2.35869,43.1325],[-2.35814,43.13275],[-2.35718,43.13266],[-2.35689,43.13278],[-2.35658,43.13272],[-2.35623,43.13282],[-2.35511,43.1327],[-2.3545,43.13294],[-2.35412,43.13284],[-2.35289,43.13299],[-2.35257,43.13286],[-2.35171,43.1328],[-2.35123,43.13203],[-2.35118,43.13154],[-2.35159,43.13065],[-2.35137,43.13041],[-2.35079,43.1302],[-2.35057,43.12989],[-2.35082,43.12856],[-2.34999,43.1275],[-2.35005,43.12712],[-2.35211,43.12564],[-2.35357,43.12551],[-2.35494,43.12512],[-2.35605,43.12505],[-2.35819,43.12366],[-2.35883,43.12356],[-2.36006,43.12388],[-2.3607,43.1242],[-2.36111,43.12428],[-2.36156,43.12434],[-2.36303,43.12416],[-2.36458,43.12423],[-2.36534,43.12505],[-2.36624,43.12551],[-2.36679,43.12608],[-2.36749,43.12653],[-2.36921,43.12686],[-2.37081,43.12739],[-2.37709,43.12801],[-2.37797,43.12737],[-2.37944,43.12706],[-2.38255,43.12675],[-2.38739,43.12564],[-2.39179,43.11957],[-2.39586,43.11851],[-2.39686,43.11839],[-2.39857,43.1174],[-2.40212,43.11294],[-2.40045,43.10875],[-2.40189,43.10816],[-2.40327,43.10902],[-2.40464,43.10928],[-2.40623,43.10897],[-2.40714,43.10929],[-2.40919,43.11135],[-2.41205,43.11255],[-2.41186,43.11373],[-2.41165,43.11416],[-2.4106,43.11547],[-2.41036,43.11631],[-2.40943,43.11725],[-2.411,43.1177],[-2.41115,43.11842],[-2.41047,43.11885],[-2.4105,43.11903],[-2.41126,43.11906],[-2.41117,43.11969],[-2.41191,43.11989],[-2.41169,43.12056],[-2.41269,43.12092],[-2.41343,43.12108],[-2.41321,43.12138],[-2.4133,43.12233],[-2.41446,43.12475],[-2.41529,43.12792],[-2.4151,43.12884],[-2.41215,43.13054],[-2.3985,43.13483],[-2.38664,43.13734],[-2.38277,43.14004],[-2.38096,43.14389],[-2.38053,43.14731],[-2.38226,43.15094],[-2.38173,43.1548],[-2.3778,43.158],[-2.37361,43.1588],[-2.36434,43.15956],[-2.36461,43.1572],[-2.36194,43.15204],[-2.3633,43.15047],[-2.36552,43.14963],[-2.36593,43.14923],[-2.36536,43.14589],[-2.36448,43.14314],[-2.35825,43.13836]]]}},{"type":"Feature","properties":{"id":"2007401002"},"geometry":{"type":"Polygon","coordinates":[[[-2.41169,43.12056],[-2.41224,43.1192],[-2.41283,43.1193],[-2.41376,43.11796],[-2.41396,43.11737],[-2.41375,43.11729],[-2.41385,43.11714],[-2.41402,43.11718],[-2.41434,43.11673],[-2.41462,43.11664],[-2.41612,43.117],[-2.41542,43.11831],[-2.41415,43.12022],[-2.41343,43.12108],[-2.41269,43.12092],[-2.41169,43.12056]]]}},{"type":"Feature","properties":{"id":"2007401003"},"geometry":{"type":"Polygon","coordinates":[[[-2.411,43.1177],[-2.41186,43.11741],[-2.41376,43.11785],[-2.41283,43.1193],[-2.41224,43.1192],[-2.41191,43.11989],[-2.41117,43.11969],[-2.41126,43.11906],[-2.4105,43.11903],[-2.41047,43.11885],[-2.41115,43.11842],[-2.411,43.1177]]]}},{"type":"Feature","properties":{"id":"2007401004"},"geometry":{"type":"Polygon","coordinates":[[[-2.411,43.1177],[-2.40943,43.11725],[-2.41036,43.11631],[-2.4106,43.11547],[-2.41165,43.11416],[-2.41186,43.11373],[-2.41205,43.11255],[-2.41409,43.11294],[-2.41444,43.11397],[-2.41412,43.1149],[-2.41447,43.11497],[-2.41432,43.11533],[-2.41455,43.11545],[-2.41403,43.11565],[-2.41434,43.11584],[-2.41457,43.11622],[-2.41402,43.11718],[-2.41385,43.11714],[-2.41375,43.11729],[-2.41396,43.11737],[-2.41376,43.11785],[-2.41186,43.11741],[-2.411,43.1177]]]}},{"type":"Feature","properties":{"id":"2007401005"},"geometry":{"type":"Polygon","coordinates":[[[-2.41435,43.11673],[-2.41457,43.11622],[-2.41434,43.11584],[-2.41403,43.11565],[-2.41455,43.11545],[-2.41432,43.11533],[-2.41447,43.11497],[-2.41412,43.1149],[-2.41481,43.11289],[-2.41465,43.11257],[-2.41429,43.11231],[-2.41439,43.11206],[-2.4149,43.11221],[-2.41689,43.11314],[-2.41719,43.11381],[-2.41727,43.11483],[-2.41711,43.11556],[-2.41612,43.117],[-2.41462,43.11664],[-2.41435,43.11673]]]}},{"type":"Feature","properties":{"id":"2007402001"},"geometry":{"type":"Polygon","coordinates":[[[-2.42557,43.12153],[-2.42556,43.12084],[-2.42442,43.11973],[-2.42367,43.11942],[-2.42162,43.11954],[-2.42026,43.11916],[-2.41949,43.1212],[-2.41872,43.12103],[-2.41856,43.12177],[-2.41598,43.12092],[-2.41527,43.12081],[-2.41426,43.12035],[-2.41415,43.12022],[-2.41567,43.1179],[-2.41626,43.11672],[-2.41672,43.11623],[-2.41711,43.11556],[-2.41727,43.11483],[-2.41719,43.11381],[-2.41689,43.11314],[-2.42046,43.11306],[-2.42226,43.11346],[-2.42705,43.11299],[-2.431,43.1118],[-2.43447,43.11173],[-2.44176,43.11205],[-2.44299,43.11718],[-2.44704,43.12136],[-2.44228,43.1233],[-2.44008,43.12443],[-2.43443,43.12482],[-2.4316,43.12535],[-2.42858,43.12634],[-2.42702,43.12748],[-2.4267,43.12759],[-2.42636,43.12752],[-2.42458,43.12653],[-2.42573,43.12564],[-2.42583,43.12542],[-2.42534,43.12415],[-2.42582,43.12283],[-2.42574,43.12175],[-2.42557,43.12153]]]}},{"type":"Feature","properties":{"id":"2007402002"},"geometry":{"type":"Polygon","coordinates":[[[-2.41856,43.12177],[-2.41872,43.12103],[-2.41949,43.1212],[-2.42026,43.11916],[-2.42162,43.11954],[-2.42367,43.11942],[-2.42442,43.11973],[-2.42556,43.12084],[-2.42557,43.12153],[-2.42257,43.12201],[-2.42171,43.12207],[-2.41856,43.12177]]]}},{"type":"Feature","properties":{"id":"2007402003"},"geometry":{"type":"Polygon","coordinates":[[[-2.36746,43.17669],[-2.36654,43.17462],[-2.36455,43.16923],[-2.36346,43.16789],[-2.36088,43.16543],[-2.36434,43.15956],[-2.37361,43.1588],[-2.3778,43.158],[-2.38173,43.1548],[-2.38226,43.15094],[-2.38053,43.14731],[-2.38096,43.14389],[-2.38277,43.14004],[-2.38664,43.13734],[-2.3985,43.13483],[-2.41215,43.13054],[-2.4151,43.12884],[-2.41529,43.12792],[-2.41446,43.12475],[-2.4133,43.12233],[-2.41321,43.12138],[-2.41415,43.12022],[-2.41466,43.12057],[-2.41527,43.12081],[-2.41598,43.12092],[-2.41856,43.12177],[-2.42171,43.12207],[-2.42257,43.12201],[-2.42557,43.12153],[-2.42574,43.12175],[-2.42582,43.12283],[-2.42534,43.12415],[-2.42583,43.12542],[-2.42573,43.12564],[-2.42458,43.12653],[-2.42636,43.12752],[-2.4267,43.12759],[-2.42702,43.12748],[-2.42858,43.12634],[-2.4316,43.12535],[-2.43443,43.12482],[-2.44008,43.12443],[-2.44228,43.1233],[-2.44704,43.12136],[-2.45268,43.12484],[-2.46445,43.12613],[-2.46945,43.12799],[-2.46544,43.13221],[-2.46456,43.1334],[-2.46314,43.13582],[-2.46467,43.13772],[-2.46584,43.13873],[-2.46592,43.13984],[-2.46616,43.14089],[-2.46438,43.14192],[-2.45594,43.15144],[-2.45643,43.15718],[-2.45898,43.15976],[-2.45989,43.16415],[-2.45563,43.16672],[-2.45321,43.1678],[-2.45147,43.17021],[-2.44395,43.1694],[-2.44367,43.16985],[-2.44062,43.16943],[-2.4361,43.16788],[-2.43738,43.16659],[-2.43571,43.1661],[-2.43276,43.16565],[-2.43254,43.16591],[-2.43221,43.16609],[-2.43082,43.16638],[-2.43033,43.16721],[-2.4297,43.16763],[-2.4293,43.16814],[-2.42735,43.16687],[-2.4256,43.16612],[-2.42398,43.16822],[-2.42307,43.16672],[-2.42135,43.16568],[-2.41999,43.16302],[-2.41965,43.16295],[-2.41837,43.16331],[-2.41728,43.16311],[-2.41675,43.16331],[-2.41554,43.16404],[-2.41293,43.16459],[-2.41161,43.16358],[-2.40772,43.16226],[-2.40184,43.16238],[-2.4,43.16342],[-2.39957,43.16314],[-2.39944,43.16255],[-2.39962,43.16209],[-2.39586,43.1619],[-2.39222,43.16389],[-2.38504,43.16672],[-2.38434,43.16748],[-2.38368,43.16797],[-2.38292,43.16836],[-2.3816,43.16876],[-2.37824,43.1694],[-2.37623,43.17015],[-2.37548,43.1708],[-2.37465,43.17274],[-2.37347,43.17448],[-2.37324,43.17516],[-2.37335,43.17607],[-2.3719,43.17644],[-2.37029,43.17663],[-2.36859,43.17672],[-2.36746,43.17669]]]}},{"type":"Feature","properties":{"id":"2007403001"},"geometry":{"type":"Polygon","coordinates":[[[-2.41444,43.11397],[-2.41409,43.11294],[-2.41205,43.11255],[-2.40919,43.11135],[-2.40714,43.10929],[-2.40623,43.10897],[-2.40464,43.10928],[-2.40327,43.10902],[-2.40189,43.10816],[-2.40305,43.10767],[-2.40331,43.10718],[-2.40402,43.10773],[-2.40505,43.1078],[-2.40621,43.10763],[-2.40838,43.10776],[-2.41442,43.10958],[-2.41478,43.1098],[-2.415,43.10979],[-2.41516,43.1099],[-2.41452,43.11023],[-2.41479,43.11058],[-2.41588,43.11075],[-2.41641,43.11029],[-2.4175,43.10886],[-2.41868,43.10944],[-2.42031,43.11129],[-2.42046,43.11306],[-2.41689,43.11314],[-2.4149,43.11221],[-2.41439,43.11206],[-2.41429,43.11231],[-2.41465,43.11257],[-2.41481,43.11289],[-2.41444,43.11397]]]}},{"type":"Feature","properties":{"id":"2007403002"},"geometry":{"type":"Polygon","coordinates":[[[-2.40331,43.10718],[-2.40342,43.10603],[-2.40355,43.10579],[-2.40341,43.10422],[-2.40365,43.10355],[-2.40365,43.10273],[-2.40387,43.1017],[-2.40448,43.10077],[-2.40341,43.09933],[-2.40321,43.09876],[-2.40324,43.09833],[-2.40696,43.09835],[-2.41037,43.0982],[-2.41598,43.10048],[-2.41739,43.10077],[-2.42035,43.10186],[-2.42331,43.10061],[-2.42505,43.10084],[-2.42519,43.10172],[-2.42481,43.10199],[-2.42392,43.10226],[-2.42286,43.10307],[-2.4218,43.10421],[-2.42081,43.10468],[-2.42051,43.10512],[-2.42054,43.10561],[-2.4182,43.1083],[-2.4175,43.10886],[-2.41641,43.11029],[-2.41588,43.11075],[-2.41479,43.11058],[-2.41452,43.11023],[-2.41516,43.1099],[-2.415,43.10979],[-2.41478,43.1098],[-2.41442,43.10958],[-2.40838,43.10776],[-2.40621,43.10763],[-2.40505,43.1078],[-2.40402,43.10773],[-2.40331,43.10718]]]}},{"type":"Feature","properties":{"id":"2007403003"},"geometry":{"type":"Polygon","coordinates":[[[-2.44704,43.12136],[-2.44299,43.11718],[-2.44176,43.11205],[-2.43447,43.11173],[-2.431,43.1118],[-2.42705,43.11299],[-2.42226,43.11346],[-2.42046,43.11306],[-2.42031,43.11129],[-2.41868,43.10944],[-2.4175,43.10886],[-2.4182,43.1083],[-2.42054,43.10561],[-2.42051,43.10512],[-2.42081,43.10468],[-2.4218,43.10421],[-2.42286,43.10307],[-2.42392,43.10226],[-2.42481,43.10199],[-2.42519,43.10172],[-2.42505,43.10084],[-2.42331,43.10061],[-2.42035,43.10186],[-2.41739,43.10077],[-2.41598,43.10048],[-2.41037,43.0982],[-2.40696,43.09835],[-2.40324,43.09833],[-2.40331,43.09725],[-2.40378,43.09647],[-2.40405,43.09573],[-2.40485,43.09476],[-2.40526,43.0939],[-2.40639,43.09271],[-2.40857,43.08906],[-2.40758,43.08618],[-2.40771,43.08484],[-2.40634,43.0843],[-2.40604,43.0841],[-2.40567,43.08338],[-2.40649,43.08155],[-2.40753,43.08118],[-2.40618,43.07715],[-2.40739,43.07673],[-2.40883,43.07644],[-2.41011,43.076],[-2.41097,43.07543],[-2.41151,43.07456],[-2.41318,43.07387],[-2.41425,43.07356],[-2.41569,43.07341],[-2.41815,43.07381],[-2.42029,43.07561],[-2.42107,43.07614],[-2.42188,43.07653],[-2.4227,43.07672],[-2.42334,43.07676],[-2.42752,43.07655],[-2.4311,43.07618],[-2.43206,43.07631],[-2.43264,43.07653],[-2.43664,43.07866],[-2.43753,43.07896],[-2.43885,43.0792],[-2.44252,43.07953],[-2.44716,43.08047],[-2.4469,43.08167],[-2.44665,43.0822],[-2.44884,43.07992],[-2.44917,43.07973],[-2.44958,43.07967],[-2.44993,43.07975],[-2.45079,43.08047],[-2.45114,43.08062],[-2.45147,43.08062],[-2.45174,43.08049],[-2.45364,43.07867],[-2.4545,43.07818],[-2.45492,43.07809],[-2.45536,43.07813],[-2.45649,43.07863],[-2.45672,43.07866],[-2.45695,43.07857],[-2.45734,43.07754],[-2.45779,43.07726],[-2.459,43.07738],[-2.46079,43.0774],[-2.4609,43.07727],[-2.46114,43.07593],[-2.46148,43.07547],[-2.46198,43.07523],[-2.46229,43.07587],[-2.46308,43.07612],[-2.4633,43.07662],[-2.46386,43.077],[-2.46423,43.07754],[-2.46489,43.07786],[-2.46517,43.07811],[-2.46527,43.07859],[-2.46483,43.07904],[-2.46474,43.07929],[-2.46517,43.08041],[-2.46539,43.08059],[-2.46594,43.08071],[-2.46618,43.08085],[-2.46629,43.08114],[-2.46607,43.08152],[-2.46611,43.08172],[-2.46772,43.08297],[-2.46892,43.08446],[-2.46998,43.08538],[-2.47058,43.08664],[-2.47056,43.08756],[-2.47077,43.08834],[-2.47126,43.08892],[-2.47218,43.08934],[-2.47288,43.09049],[-2.47327,43.09145],[-2.47361,43.0919],[-2.47431,43.09252],[-2.4753,43.09293],[-2.47765,43.09424],[-2.47799,43.09435],[-2.48181,43.09453],[-2.48351,43.09479],[-2.48436,43.09483],[-2.48567,43.09457],[-2.48769,43.09385],[-2.48913,43.09392],[-2.49042,43.09375],[-2.49065,43.09365],[-2.49105,43.09311],[-2.49235,43.09266],[-2.49483,43.09243],[-2.49558,43.09229],[-2.49595,43.09232],[-2.49648,43.09243],[-2.49738,43.09308],[-2.49906,43.09351],[-2.50027,43.09411],[-2.50079,43.09457],[-2.50128,43.09464],[-2.50034,43.09615],[-2.50065,43.09624],[-2.50169,43.09624],[-2.50271,43.09653],[-2.50454,43.09665],[-2.50367,43.10236],[-2.50344,43.10707],[-2.50279,43.10986],[-2.50093,43.11967],[-2.49648,43.12426],[-2.47919,43.1227],[-2.47381,43.1221],[-2.46945,43.12799],[-2.46445,43.12613],[-2.45268,43.12484],[-2.44704,43.12136]]]}}]}