{"type":"FeatureCollection","features":[{"type":"Feature","properties":{"id":"2105001001"},"geometry":{"type":"Polygon","coordinates":[[[-6.81759,37.31186],[-6.81536,37.31059],[-6.81377,37.30988],[-6.81327,37.3098],[-6.81182,37.30985],[-6.81011,37.31026],[-6.80897,37.31038],[-6.80749,37.31041],[-6.80663,37.31032],[-6.80567,37.31004],[-6.80481,37.30963],[-6.80408,37.30856],[-6.80437,37.30673],[-6.80434,37.3064],[-6.8106,37.30477],[-6.80733,37.30422],[-6.80907,37.30383],[-6.81096,37.30235],[-6.81091,37.3014],[-6.81057,37.30034],[-6.81097,37.29984],[-6.81384,37.2981],[-6.81538,37.29737],[-6.81703,37.2959],[-6.82089,37.29395],[-6.82095,37.29326],[-6.8215,37.29278],[-6.82191,37.29205],[-6.82263,37.29118],[-6.82324,37.28985],[-6.82382,37.28916],[-6.82627,37.28712],[-6.82846,37.28503],[-6.82785,37.28362],[-6.82977,37.282],[-6.83088,37.28164],[-6.83247,37.28097],[-6.83247,37.28085],[-6.83267,37.281],[-6.83316,37.28083],[-6.83698,37.27866],[-6.83662,37.27745],[-6.83664,37.27726],[-6.83709,37.27705],[-6.83788,37.27645],[-6.83829,37.27709],[-6.83871,37.27812],[-6.83941,37.28152],[-6.83985,37.2827],[-6.84358,37.28853],[-6.84775,37.28971],[-6.84846,37.28983],[-6.84866,37.29],[-6.84995,37.29029],[-6.85008,37.29131],[-6.85036,37.29215],[-6.85079,37.29293],[-6.85216,37.29482],[-6.85386,37.29678],[-6.85447,37.29763],[-6.85502,37.29796],[-6.85526,37.29822],[-6.85552,37.29869],[-6.85568,37.29924],[-6.85564,37.29966],[-6.85521,37.30065],[-6.85388,37.30255],[-6.85341,37.30287],[-6.85115,37.30381],[-6.85075,37.30386],[-6.84864,37.30363],[-6.84751,37.30332],[-6.8465,37.30275],[-6.84578,37.30214],[-6.84524,37.30136],[-6.84437,37.29963],[-6.84379,37.29764],[-6.84347,37.29705],[-6.84283,37.29649],[-6.84251,37.29635],[-6.84183,37.29629],[-6.84135,37.2964],[-6.83869,37.2982],[-6.83665,37.29926],[-6.83353,37.29992],[-6.83035,37.30072],[-6.8292,37.30112],[-6.82809,37.30161],[-6.82753,37.30195],[-6.82609,37.30326],[-6.8254,37.30495],[-6.82533,37.30634],[-6.82479,37.30806],[-6.82379,37.30947],[-6.82285,37.31035],[-6.82209,37.31085],[-6.82047,37.31159],[-6.81926,37.31198],[-6.81814,37.31203],[-6.81759,37.31186]]]}},{"type":"Feature","properties":{"id":"2105001002"},"geometry":{"type":"Polygon","coordinates":[[[-6.83788,37.27645],[-6.8385,37.276],[-6.83958,37.27715],[-6.84017,37.27802],[-6.84081,37.27778],[-6.8415,37.27736],[-6.84293,37.27696],[-6.84422,37.27833],[-6.84509,37.2791],[-6.84496,37.27919],[-6.84544,37.2796],[-6.84695,37.28213],[-6.84963,37.28419],[-6.84949,37.28605],[-6.84995,37.29029],[-6.84866,37.29],[-6.84846,37.28983],[-6.84775,37.28971],[-6.84358,37.28853],[-6.83985,37.2827],[-6.83941,37.28152],[-6.83871,37.27812],[-6.83829,37.27709],[-6.83788,37.27645]]]}},{"type":"Feature","properties":{"id":"2105001003"},"geometry":{"type":"Polygon","coordinates":[[[-6.84422,37.27833],[-6.8426,37.27659],[-6.84162,37.27582],[-6.84054,37.27529],[-6.84103,37.27421],[-6.84144,37.27373],[-6.84175,37.27287],[-6.84141,37.27275],[-6.84251,37.27212],[-6.84333,37.27335],[-6.84608,37.27679],[-6.84709,37.27739],[-6.84743,37.27768],[-6.84734,37.27775],[-6.84746,37.27775],[-6.85182,37.28151],[-6.85014,37.28279],[-6.84963,37.28419],[-6.84695,37.28213],[-6.84544,37.2796],[-6.84496,37.27919],[-6.84509,37.2791],[-6.84422,37.27833]]]}},{"type":"Feature","properties":{"id":"2105002001"},"geometry":{"type":"Polygon","coordinates":[[[-6.83247,37.28085],[-6.83347,37.27933],[-6.8343,37.27839],[-6.83457,37.27772],[-6.83489,37.27637],[-6.83498,37.27445],[-6.83646,37.27418],[-6.8369,37.27446],[-6.83789,37.27634],[-6.83788,37.27645],[-6.83709,37.27705],[-6.83664,37.27726],[-6.83662,37.27745],[-6.83698,37.27866],[-6.83316,37.28083],[-6.83267,37.281],[-6.83247,37.28085]]]}},{"type":"Feature","properties":{"id":"2105002002"},"geometry":{"type":"Polygon","coordinates":[[[-6.83789,37.27643],[-6.83713,37.27496],[-6.83876,37.27464],[-6.83908,37.2743],[-6.83943,37.27348],[-6.83976,37.27306],[-6.84199,37.27159],[-6.84299,37.27077],[-6.84345,37.27026],[-6.8447,37.26961],[-6.84524,37.27045],[-6.84141,37.27275],[-6.84175,37.27287],[-6.84144,37.27373],[-6.84103,37.27421],[-6.84054,37.27529],[-6.84162,37.27582],[-6.8426,37.27659],[-6.84293,37.27696],[-6.8415,37.27736],[-6.84081,37.27778],[-6.84017,37.27802],[-6.83958,37.27715],[-6.8385,37.276],[-6.83789,37.27643]]]}},{"type":"Feature","properties":{"id":"2105002003"},"geometry":{"type":"Polygon","coordinates":[[[-6.84251,37.27212],[-6.84524,37.27045],[-6.8447,37.26961],[-6.84345,37.27026],[-6.84299,37.27077],[-6.84199,37.27159],[-6.83976,37.27306],[-6.83943,37.27348],[-6.83908,37.2743],[-6.83876,37.27464],[-6.83713,37.27496],[-6.8369,37.27446],[-6.8365,37.27421],[-6.83642,37.27373],[-6.83736,37.27345],[-6.83757,37.27271],[-6.8375,37.26882],[-6.83743,37.26881],[-6.83813,37.26728],[-6.83813,37.2663],[-6.83837,37.26594],[-6.83914,37.26519],[-6.84269,37.26279],[-6.84723,37.26001],[-6.84876,37.25927],[-6.85256,37.25789],[-6.85524,37.2562],[-6.8652,37.25042],[-6.87035,37.2485],[-6.87235,37.24756],[-6.8747,37.2458],[-6.8784,37.2437],[-6.88005,37.24239],[-6.88105,37.24136],[-6.88155,37.23952],[-6.88596,37.24329],[-6.88727,37.24326],[-6.89601,37.24969],[-6.89471,37.25044],[-6.8931,37.25072],[-6.89076,37.25186],[-6.88838,37.25346],[-6.88777,37.25397],[-6.88638,37.25541],[-6.88563,37.25597],[-6.88384,37.25759],[-6.88269,37.25835],[-6.88042,37.26031],[-6.87874,37.26203],[-6.87459,37.26754],[-6.87293,37.26913],[-6.8693,37.27149],[-6.86733,37.27247],[-6.86643,37.2728],[-6.86468,37.27322],[-6.86273,37.27383],[-6.86095,37.27542],[-6.85964,37.2764],[-6.85783,37.2773],[-6.85647,37.27812],[-6.85489,37.2794],[-6.85182,37.28151],[-6.84746,37.27775],[-6.84734,37.27775],[-6.84743,37.27768],[-6.84709,37.27739],[-6.84608,37.27679],[-6.84333,37.27335],[-6.84251,37.27212]]]}},{"type":"Feature","properties":{"id":"2105003001"},"geometry":{"type":"Polygon","coordinates":[[[-6.83506,37.2744],[-6.83497,37.27354],[-6.83353,37.27338],[-6.83349,37.27254],[-6.83376,37.27204],[-6.83253,37.27124],[-6.83194,37.26943],[-6.83201,37.26941],[-6.831,37.2675],[-6.82998,37.26576],[-6.82867,37.26424],[-6.8281,37.26323],[-6.82651,37.26162],[-6.82494,37.26045],[-6.82314,37.25919],[-6.82157,37.25842],[-6.81768,37.25607],[-6.81606,37.25458],[-6.81235,37.24817],[-6.81175,37.24667],[-6.81066,37.24499],[-6.80905,37.2438],[-6.80683,37.24242],[-6.80345,37.23961],[-6.80171,37.23736],[-6.8007,37.23564],[-6.80004,37.23484],[-6.7953,37.2312],[-6.79417,37.23003],[-6.79382,37.22922],[-6.7936,37.22828],[-6.79263,37.22736],[-6.79134,37.22635],[-6.78974,37.22583],[-6.78756,37.22477],[-6.7858,37.22208],[-6.78254,37.21965],[-6.7821,37.219],[-6.78187,37.21778],[-6.7821,37.21562],[-6.78215,37.21299],[-6.78175,37.21148],[-6.7812,37.21016],[-6.77735,37.20838],[-6.76952,37.20641],[-6.76471,37.20451],[-6.76337,37.20436],[-6.75975,37.20264],[-6.75354,37.2004],[-6.75253,37.20024],[-6.75151,37.20026],[-6.75233,37.19772],[-6.75333,37.17921],[-6.75345,37.1731],[-6.75283,37.1598],[-6.74083,37.13675],[-6.73745,37.12237],[-6.73705,37.12105],[-6.73336,37.10595],[-6.7368,37.10666],[-6.74475,37.10675],[-6.74674,37.10705],[-6.74985,37.10787],[-6.75141,37.10856],[-6.75597,37.1111],[-6.76592,37.11685],[-6.779,37.1242],[-6.78055,37.1247],[-6.79119,37.12754],[-6.79509,37.12885],[-6.80538,37.13268],[-6.81887,37.13754],[-6.82657,37.14045],[-6.82649,37.14075],[-6.82659,37.14119],[-6.82453,37.14164],[-6.82525,37.14337],[-6.82829,37.14269],[-6.82782,37.14142],[-6.82963,37.14107],[-6.82992,37.14082],[-6.82992,37.14069],[-6.82919,37.13958],[-6.83277,37.13828],[-6.83342,37.13815],[-6.83392,37.13819],[-6.83621,37.13915],[-6.83798,37.14032],[-6.83982,37.1411],[-6.8397,37.14131],[-6.84012,37.14149],[-6.84013,37.14164],[-6.84448,37.14285],[-6.8454,37.14154],[-6.84589,37.14173],[-6.84804,37.14312],[-6.84917,37.14443],[-6.84978,37.14527],[-6.85473,37.14862],[-6.85771,37.14989],[-6.85993,37.15066],[-6.86269,37.154],[-6.86548,37.15669],[-6.86622,37.16674],[-6.8665,37.16941],[-6.86754,37.17529],[-6.86768,37.17812],[-6.86758,37.18488],[-6.86769,37.19117],[-6.86786,37.19171],[-6.86913,37.19428],[-6.87033,37.19649],[-6.87176,37.20303],[-6.87237,37.20496],[-6.87307,37.20821],[-6.87348,37.21726],[-6.87185,37.22186],[-6.87145,37.22394],[-6.87148,37.22457],[-6.87171,37.22512],[-6.87535,37.2312],[-6.87589,37.23188],[-6.87859,37.23427],[-6.8801,37.23588],[-6.8806,37.237],[-6.8812,37.23923],[-6.88155,37.23952],[-6.88134,37.24044],[-6.88105,37.24136],[-6.88005,37.24239],[-6.8784,37.2437],[-6.8747,37.2458],[-6.87235,37.24756],[-6.87035,37.2485],[-6.8652,37.25042],[-6.85524,37.2562],[-6.85256,37.25789],[-6.84876,37.25927],[-6.84723,37.26001],[-6.84269,37.26279],[-6.83914,37.26519],[-6.83837,37.26594],[-6.83813,37.2663],[-6.83813,37.26728],[-6.83743,37.26881],[-6.8375,37.26882],[-6.83761,37.27217],[-6.83757,37.27271],[-6.83736,37.27345],[-6.83642,37.27373],[-6.8365,37.27421],[-6.83498,37.27445],[-6.83506,37.2744]]]}},{"type":"Feature","properties":{"id":"2105003002"},"geometry":{"type":"Polygon","coordinates":[[[-6.782,37.30896],[-6.77864,37.3067],[-6.77828,37.30616],[-6.77805,37.30418],[-6.77879,37.30372],[-6.77946,37.30277],[-6.77929,37.30231],[-6.77828,37.30121],[-6.7793,37.29803],[-6.77583,37.2968],[-6.77515,37.29628],[-6.77472,37.29557],[-6.77558,37.29361],[-6.77592,37.29244],[-6.77487,37.29008],[-6.77467,37.28939],[-6.7744,37.28918],[-6.77371,37.28941],[-6.77121,37.28669],[-6.769,37.28532],[-6.76985,37.28444],[-6.7715,37.28533],[-6.77284,37.28496],[-6.77267,37.28363],[-6.77371,37.2824],[-6.77359,37.28172],[-6.76949,37.28208],[-6.7686,37.27907],[-6.76206,37.27211],[-6.75937,37.26679],[-6.75825,37.25788],[-6.75946,37.24935],[-6.75396,37.23768],[-6.75421,37.23007],[-6.7532,37.22628],[-6.75373,37.2132],[-6.75151,37.20026],[-6.75253,37.20024],[-6.75354,37.2004],[-6.75975,37.20264],[-6.76337,37.20436],[-6.76471,37.20451],[-6.76952,37.20641],[-6.77735,37.20838],[-6.7812,37.21016],[-6.78175,37.21148],[-6.78215,37.21299],[-6.7821,37.21562],[-6.78187,37.21778],[-6.7821,37.219],[-6.78254,37.21965],[-6.7858,37.22208],[-6.78756,37.22477],[-6.78974,37.22583],[-6.79134,37.22635],[-6.79263,37.22736],[-6.7936,37.22828],[-6.79382,37.22922],[-6.79417,37.23003],[-6.7953,37.2312],[-6.80004,37.23484],[-6.8007,37.23564],[-6.80171,37.23736],[-6.80345,37.23961],[-6.80683,37.24242],[-6.80905,37.2438],[-6.81066,37.24499],[-6.81175,37.24667],[-6.81235,37.24817],[-6.81606,37.25458],[-6.81768,37.25607],[-6.82157,37.25842],[-6.82314,37.25919],[-6.82651,37.26162],[-6.8281,37.26323],[-6.82867,37.26424],[-6.82998,37.26576],[-6.83201,37.26941],[-6.83194,37.26943],[-6.83253,37.27124],[-6.83376,37.27204],[-6.83349,37.27254],[-6.83353,37.27338],[-6.83497,37.27354],[-6.83506,37.2744],[-6.83498,37.27441],[-6.83489,37.27637],[-6.83457,37.27772],[-6.8343,37.27839],[-6.83323,37.27966],[-6.83287,37.28031],[-6.83244,37.28083],[-6.83247,37.28097],[-6.83088,37.28164],[-6.82977,37.282],[-6.82785,37.28362],[-6.82846,37.28503],[-6.82627,37.28712],[-6.82382,37.28916],[-6.82324,37.28985],[-6.82263,37.29118],[-6.82191,37.29205],[-6.8215,37.29278],[-6.82095,37.29326],[-6.82089,37.29395],[-6.81703,37.2959],[-6.81538,37.29737],[-6.81384,37.2981],[-6.81097,37.29984],[-6.81057,37.30034],[-6.81091,37.3014],[-6.81096,37.30235],[-6.80907,37.30383],[-6.80733,37.30422],[-6.8106,37.30477],[-6.80434,37.3064],[-6.80351,37.30504],[-6.80282,37.30449],[-6.80254,37.30441],[-6.80146,37.30443],[-6.80086,37.3046],[-6.8005,37.3048],[-6.7998,37.30575],[-6.79927,37.30688],[-6.7987,37.30772],[-6.79787,37.30838],[-6.79729,37.30871],[-6.79508,37.3096],[-6.79354,37.3097],[-6.79199,37.30958],[-6.79001,37.30905],[-6.78913,37.30899],[-6.78807,37.30928],[-6.78731,37.31005],[-6.78667,37.31052],[-6.78583,37.31052],[-6.7849,37.31031],[-6.782,37.30896]]]}},{"type":"Feature","properties":{"id":"2105003003"},"geometry":{"type":"Polygon","coordinates":[[[-6.82657,37.14045],[-6.79509,37.12885],[-6.79119,37.12754],[-6.78055,37.1247],[-6.779,37.1242],[-6.76592,37.11685],[-6.75597,37.1111],[-6.75141,37.10856],[-6.74985,37.10787],[-6.74674,37.10705],[-6.74475,37.10675],[-6.7368,37.10666],[-6.73336,37.10595],[-6.72953,37.09033],[-6.73133,37.09134],[-6.74154,37.09647],[-6.74788,37.09995],[-6.76133,37.10658],[-6.76945,37.11037],[-6.77246,37.11196],[-6.77702,37.11386],[-6.78069,37.11559],[-6.79246,37.12065],[-6.79606,37.12229],[-6.79904,37.12405],[-6.7998,37.12439],[-6.80132,37.12493],[-6.80301,37.12502],[-6.80984,37.12705],[-6.80953,37.12766],[-6.81198,37.12842],[-6.81171,37.12893],[-6.81258,37.12904],[-6.81401,37.12939],[-6.81422,37.12946],[-6.81417,37.12955],[-6.81826,37.13095],[-6.81859,37.13098],[-6.81872,37.13109],[-6.82731,37.13403],[-6.82827,37.13486],[-6.82836,37.13662],[-6.82814,37.13674],[-6.82645,37.13616],[-6.82474,37.13931],[-6.82668,37.14026],[-6.82657,37.14045]]]}},{"type":"Feature","properties":{"id":"2105003004"},"geometry":{"type":"Polygon","coordinates":[[[-6.82827,37.13486],[-6.82839,37.13504],[-6.82924,37.13481],[-6.82988,37.13659],[-6.83064,37.13634],[-6.83234,37.13604],[-6.83282,37.13721],[-6.83377,37.13649],[-6.83439,37.13619],[-6.83684,37.13749],[-6.83823,37.13864],[-6.83922,37.13911],[-6.84036,37.13986],[-6.84309,37.14065],[-6.8454,37.14154],[-6.84448,37.14285],[-6.84013,37.14164],[-6.84012,37.14149],[-6.8397,37.14131],[-6.83982,37.1411],[-6.83798,37.14032],[-6.83621,37.13915],[-6.83392,37.13819],[-6.83342,37.13815],[-6.83277,37.13828],[-6.82919,37.13958],[-6.82992,37.14069],[-6.82992,37.14082],[-6.82963,37.14107],[-6.82782,37.14142],[-6.82829,37.14269],[-6.82525,37.14337],[-6.82453,37.14164],[-6.82659,37.14119],[-6.82649,37.14075],[-6.82668,37.14026],[-6.82474,37.13931],[-6.82645,37.13616],[-6.82814,37.13674],[-6.82836,37.13662],[-6.82827,37.13486]]]}}]}