{"type":"FeatureCollection","features":[{"type":"Feature","properties":{"id":"2107401001"},"geometry":{"type":"Polygon","coordinates":[[[-6.47727,37.39203],[-6.47639,37.39256],[-6.47622,37.3929],[-6.47621,37.39383],[-6.476,37.39471],[-6.47631,37.39547],[-6.47642,37.39683],[-6.47527,37.39707],[-6.47473,37.39706],[-6.47248,37.39637],[-6.47114,37.39619],[-6.46861,37.39558],[-6.46873,37.39523],[-6.47028,37.39563],[-6.47144,37.39566],[-6.47146,37.39579],[-6.47344,37.39573],[-6.47348,37.39533],[-6.4736,37.39532],[-6.47445,37.39336],[-6.47488,37.39324],[-6.4751,37.39273],[-6.4752,37.39273],[-6.4753,37.3923],[-6.476,37.39232],[-6.47612,37.39157],[-6.47662,37.3916],[-6.47662,37.39174],[-6.47715,37.39178],[-6.47727,37.39203]]]}},{"type":"Feature","properties":{"id":"2107401002"},"geometry":{"type":"MultiPolygon","coordinates":[[[[-6.4529,37.40289],[-6.45709,37.39629],[-6.45853,37.39382],[-6.45936,37.39358],[-6.45973,37.39241],[-6.46073,37.39204],[-6.46124,37.39167],[-6.46253,37.39035],[-6.46781,37.38447],[-6.47089,37.38126],[-6.47167,37.38019],[-6.47196,37.37971],[-6.47264,37.37656],[-6.47281,37.3753],[-6.47287,37.37406],[-6.47278,37.37364],[-6.47205,37.37292],[-6.47066,37.37265],[-6.46941,37.37191],[-6.47115,37.3703],[-6.47187,37.36915],[-6.47338,37.36719],[-6.47641,37.36384],[-6.47787,37.36196],[-6.4783,37.36127],[-6.47874,37.3599],[-6.48076,37.35674],[-6.48254,37.35439],[-6.48533,37.35183],[-6.48649,37.35092],[-6.48699,37.35069],[-6.48728,37.35046],[-6.4874,37.35018],[-6.48702,37.34643],[-6.47799,37.34142],[-6.47414,37.33837],[-6.47188,37.3374],[-6.47084,37.33707],[-6.4685,37.33583],[-6.46974,37.33347],[-6.47206,37.33057],[-6.47447,37.33167],[-6.47827,37.33371],[-6.47978,37.33421],[-6.48163,37.33536],[-6.4837,37.33638],[-6.49376,37.34344],[-6.49738,37.34683],[-6.49861,37.34812],[-6.50155,37.35179],[-6.50227,37.35316],[-6.50264,37.35419],[-6.50332,37.35699],[-6.50384,37.35785],[-6.50372,37.35854],[-6.5055,37.35933],[-6.50617,37.35974],[-6.50644,37.36015],[-6.50664,37.36595],[-6.50683,37.36738],[-6.50736,37.36982],[-6.50765,37.37055],[-6.50946,37.3727],[-6.51134,37.37573],[-6.51219,37.37753],[-6.51582,37.38941],[-6.5162,37.39087],[-6.51644,37.39229],[-6.51758,37.39571],[-6.52034,37.40131],[-6.52102,37.40201],[-6.52283,37.40568],[-6.52506,37.41089],[-6.52578,37.41202],[-6.52706,37.41361],[-6.53056,37.41849],[-6.53259,37.42176],[-6.53541,37.42722],[-6.53695,37.43076],[-6.5392,37.438],[-6.53949,37.4393],[-6.54056,37.44091],[-6.54346,37.44743],[-6.54514,37.44989],[-6.54411,37.45683],[-6.54447,37.45998],[-6.54035,37.46215],[-6.52877,37.46671],[-6.51034,37.46723],[-6.50596,37.46589],[-6.50579,37.46075],[-6.5055,37.45973],[-6.5023,37.45575],[-6.50058,37.45308],[-6.49472,37.44308],[-6.48925,37.43444],[-6.48492,37.42913],[-6.47869,37.42426],[-6.47153,37.42011],[-6.47071,37.41959],[-6.46902,37.41819],[-6.46674,37.41722],[-6.46616,37.41684],[-6.46515,37.41649],[-6.46031,37.41177],[-6.45826,37.40954],[-6.45592,37.40628],[-6.45294,37.40377],[-6.45275,37.40348],[-6.4529,37.40289]],[[-6.48136,37.39405],[-6.48038,37.39317],[-6.47957,37.39349],[-6.47932,37.39355],[-6.47916,37.39347],[-6.4788,37.39141],[-6.47727,37.39203],[-6.47715,37.39178],[-6.47662,37.39174],[-6.47662,37.3916],[-6.47612,37.39157],[-6.476,37.39232],[-6.4753,37.3923],[-6.4752,37.39273],[-6.4751,37.39273],[-6.47488,37.39324],[-6.47445,37.39336],[-6.4736,37.39532],[-6.47348,37.39533],[-6.47344,37.39573],[-6.47146,37.39579],[-6.47144,37.39566],[-6.47028,37.39563],[-6.46873,37.39523],[-6.46861,37.39558],[-6.47114,37.39619],[-6.47248,37.39637],[-6.47473,37.39706],[-6.47527,37.39707],[-6.47642,37.39683],[-6.47644,37.39718],[-6.4767,37.39719],[-6.47676,37.39748],[-6.47596,37.39743],[-6.47544,37.39754],[-6.47682,37.39949],[-6.47748,37.4007],[-6.48099,37.39992],[-6.4795,37.39825],[-6.48002,37.39747],[-6.48055,37.39742],[-6.48053,37.39716],[-6.4798,37.39606],[-6.4806,37.39535],[-6.48074,37.39483],[-6.48054,37.39465],[-6.48136,37.39405]]],[[[-6.4346,37.36457],[-6.43345,37.36446],[-6.43276,37.36466],[-6.43245,37.36455],[-6.43211,37.36407],[-6.43179,37.36386],[-6.43094,37.36368],[-6.43066,37.36341],[-6.43028,37.36257],[-6.4299,37.36235],[-6.42913,37.36235],[-6.42889,37.36229],[-6.42865,37.36209],[-6.42741,37.36182],[-6.42703,37.36166],[-6.42624,37.36106],[-6.42467,37.36068],[-6.42339,37.3599],[-6.42308,37.36035],[-6.4229,37.36047],[-6.42262,37.36043],[-6.42236,37.35945],[-6.42199,37.35912],[-6.42141,37.35913],[-6.42089,37.35931],[-6.42059,37.35928],[-6.42042,37.35877],[-6.42006,37.35837],[-6.44143,37.33282],[-6.44183,37.33308],[-6.44303,37.33349],[-6.44273,37.33374],[-6.4426,37.33409],[-6.44268,37.33425],[-6.44289,37.33435],[-6.44366,37.33433],[-6.44443,37.33468],[-6.44564,37.33477],[-6.44602,37.33499],[-6.44612,37.33534],[-6.44654,37.33574],[-6.44645,37.33648],[-6.44665,37.33682],[-6.44713,37.3373],[-6.44778,37.33762],[-6.44818,37.33797],[-6.44865,37.33871],[-6.44969,37.339],[-6.44992,37.33922],[-6.45007,37.33964],[-6.45042,37.33994],[-6.45145,37.34018],[-6.45231,37.34052],[-6.45298,37.34057],[-6.45362,37.34074],[-6.45408,37.34099],[-6.45506,37.34102],[-6.45559,37.34115],[-6.45651,37.34163],[-6.45691,37.34204],[-6.45703,37.34251],[-6.45693,37.34297],[-6.45596,37.34405],[-6.45562,37.34469],[-6.45551,37.34518],[-6.45548,37.34631],[-6.45512,37.34855],[-6.4555,37.34977],[-6.45544,37.35023],[-6.45434,37.35235],[-6.45415,37.35329],[-6.45399,37.35545],[-6.4532,37.35766],[-6.45268,37.35845],[-6.45108,37.36038],[-6.44987,37.36161],[-6.44906,37.36227],[-6.44693,37.36354],[-6.44641,37.36403],[-6.44479,37.36624],[-6.44419,37.3668],[-6.44112,37.36844],[-6.44052,37.36821],[-6.43908,37.36666],[-6.43743,37.36614],[-6.43689,37.36543],[-6.43652,37.3652],[-6.435,37.36483],[-6.4346,37.36457]]]]}},{"type":"Feature","properties":{"id":"2107401003"},"geometry":{"type":"Polygon","coordinates":[[[-6.47644,37.39718],[-6.47631,37.39547],[-6.476,37.39471],[-6.47621,37.39383],[-6.47627,37.39271],[-6.47639,37.39256],[-6.47727,37.39203],[-6.4788,37.39141],[-6.47916,37.39347],[-6.47932,37.39355],[-6.47957,37.39349],[-6.48038,37.39317],[-6.48136,37.39405],[-6.48054,37.39465],[-6.48074,37.39483],[-6.4806,37.39535],[-6.4798,37.39606],[-6.48053,37.39716],[-6.48055,37.39742],[-6.48002,37.39747],[-6.4795,37.39825],[-6.48099,37.39992],[-6.47748,37.4007],[-6.47682,37.39949],[-6.47544,37.39754],[-6.47596,37.39743],[-6.47676,37.39748],[-6.4767,37.39719],[-6.47644,37.39718]]]}}]}