{"type":"FeatureCollection","features":[{"type":"Feature","properties":{"id":"2219901001"},"geometry":{"type":"Polygon","coordinates":[[[-0.37286,42.52034],[-0.36721,42.51823],[-0.36365,42.51836],[-0.36325,42.51845],[-0.36299,42.51864],[-0.36022,42.52144],[-0.36011,42.52195],[-0.36041,42.5234],[-0.36204,42.52312],[-0.36324,42.52545],[-0.36457,42.52703],[-0.36514,42.52737],[-0.36573,42.52833],[-0.36617,42.52873],[-0.36396,42.53032],[-0.36358,42.53107],[-0.36103,42.52989],[-0.35862,42.52922],[-0.35761,42.52906],[-0.35593,42.52787],[-0.35481,42.52755],[-0.3527,42.52658],[-0.35184,42.5264],[-0.35081,42.52598],[-0.34975,42.52566],[-0.34885,42.52562],[-0.34789,42.52566],[-0.34683,42.5259],[-0.34562,42.52418],[-0.34442,42.52183],[-0.34306,42.52017],[-0.34313,42.51989],[-0.34402,42.51934],[-0.34668,42.51813],[-0.34739,42.51725],[-0.34772,42.51632],[-0.34783,42.51599],[-0.34782,42.51497],[-0.34815,42.51377],[-0.34837,42.51366],[-0.34889,42.51309],[-0.35,42.51311],[-0.35318,42.51214],[-0.35434,42.51203],[-0.35514,42.51077],[-0.35559,42.51046],[-0.3585,42.50938],[-0.35877,42.50911],[-0.35951,42.50817],[-0.36001,42.50775],[-0.36039,42.50709],[-0.36065,42.50589],[-0.36108,42.50548],[-0.36614,42.50539],[-0.36811,42.50509],[-0.37012,42.50514],[-0.37152,42.50506],[-0.37463,42.50456],[-0.37684,42.50103],[-0.37691,42.49931],[-0.37649,42.49698],[-0.37409,42.49414],[-0.37249,42.49296],[-0.37082,42.49227],[-0.36923,42.49198],[-0.36968,42.49125],[-0.37243,42.49042],[-0.37286,42.49005],[-0.37298,42.48974],[-0.37286,42.48875],[-0.37308,42.48827],[-0.37344,42.48793],[-0.37561,42.48681],[-0.37679,42.48551],[-0.37729,42.48441],[-0.37738,42.48383],[-0.37799,42.48321],[-0.37814,42.48283],[-0.3781,42.48251],[-0.37661,42.48136],[-0.37629,42.4807],[-0.37633,42.48031],[-0.37667,42.47976],[-0.37877,42.47778],[-0.38052,42.4758],[-0.38348,42.47413],[-0.38411,42.47389],[-0.38482,42.47368],[-0.38785,42.47314],[-0.3876,42.47301],[-0.38981,42.47173],[-0.39017,42.47099],[-0.39036,42.46994],[-0.39028,42.46859],[-0.3905,42.46802],[-0.39115,42.46765],[-0.3927,42.46721],[-0.39291,42.46672],[-0.39272,42.46622],[-0.39213,42.46565],[-0.39205,42.4652],[-0.39218,42.4647],[-0.39255,42.4642],[-0.39519,42.46519],[-0.39663,42.46552],[-0.39794,42.46594],[-0.39889,42.46605],[-0.39966,42.46644],[-0.40083,42.46665],[-0.4034,42.46681],[-0.40658,42.46748],[-0.40742,42.46739],[-0.40828,42.46764],[-0.41024,42.46883],[-0.41104,42.46911],[-0.41217,42.46998],[-0.41292,42.47086],[-0.41381,42.47123],[-0.41464,42.47185],[-0.41848,42.47316],[-0.42129,42.47509],[-0.42363,42.47631],[-0.42609,42.47724],[-0.42697,42.47793],[-0.42917,42.48004],[-0.42912,42.48083],[-0.42876,42.48241],[-0.42775,42.48525],[-0.42693,42.4865],[-0.42627,42.48707],[-0.42466,42.4874],[-0.42317,42.48792],[-0.42022,42.48868],[-0.41825,42.48887],[-0.4142,42.48885],[-0.41287,42.49143],[-0.41165,42.49308],[-0.41046,42.49441],[-0.40931,42.49543],[-0.40826,42.49699],[-0.40778,42.49799],[-0.40628,42.49963],[-0.40522,42.50018],[-0.40382,42.50121],[-0.40157,42.504],[-0.4005,42.50591],[-0.39912,42.50934],[-0.39962,42.50945],[-0.40004,42.50931],[-0.40083,42.50922],[-0.40137,42.50931],[-0.40431,42.51049],[-0.40625,42.51079],[-0.40816,42.51133],[-0.40921,42.51154],[-0.41303,42.51186],[-0.41384,42.51216],[-0.41429,42.51256],[-0.41505,42.51297],[-0.4162,42.51313],[-0.41736,42.51302],[-0.41785,42.51311],[-0.41928,42.5137],[-0.42188,42.51439],[-0.42468,42.51568],[-0.42205,42.51886],[-0.41735,42.52492],[-0.41565,42.5265],[-0.41484,42.52749],[-0.41337,42.53114],[-0.41259,42.53243],[-0.41351,42.53291],[-0.41556,42.53364],[-0.41546,42.53437],[-0.41469,42.53562],[-0.41474,42.53688],[-0.41499,42.53726],[-0.416,42.53814],[-0.41598,42.53998],[-0.41717,42.54227],[-0.41752,42.54257],[-0.41725,42.54437],[-0.41723,42.54589],[-0.41745,42.54733],[-0.41773,42.54835],[-0.41847,42.5489],[-0.42178,42.55191],[-0.4214,42.5536],[-0.42208,42.55403],[-0.42121,42.55533],[-0.42008,42.55739],[-0.41888,42.55716],[-0.41708,42.5559],[-0.41642,42.55562],[-0.41578,42.55547],[-0.41493,42.55497],[-0.41289,42.55344],[-0.41234,42.55287],[-0.41198,42.55216],[-0.41124,42.55008],[-0.41016,42.54979],[-0.41019,42.54897],[-0.41051,42.54805],[-0.40776,42.54743],[-0.40747,42.54726],[-0.40746,42.54715],[-0.40794,42.54669],[-0.40754,42.54592],[-0.40749,42.54528],[-0.40704,42.54524],[-0.40668,42.54382],[-0.40551,42.54393],[-0.40536,42.54279],[-0.40491,42.54196],[-0.40479,42.54134],[-0.40495,42.54013],[-0.40527,42.54007],[-0.40544,42.53935],[-0.40228,42.5374],[-0.40083,42.53696],[-0.40057,42.5365],[-0.40066,42.5351],[-0.40049,42.53431],[-0.40027,42.53414],[-0.40068,42.53383],[-0.40117,42.53318],[-0.4016,42.53234],[-0.40117,42.53222],[-0.40024,42.53228],[-0.39963,42.53202],[-0.39919,42.53207],[-0.39804,42.53153],[-0.3962,42.53148],[-0.39586,42.53129],[-0.39491,42.53017],[-0.39468,42.52972],[-0.39443,42.52957],[-0.39333,42.52936],[-0.3931,42.52879],[-0.39313,42.52856],[-0.39296,42.52836],[-0.39256,42.52809],[-0.3909,42.52647],[-0.38996,42.52612],[-0.38829,42.52595],[-0.38774,42.52574],[-0.38712,42.52528],[-0.38656,42.52466],[-0.38623,42.52448],[-0.38374,42.52397],[-0.38247,42.52334],[-0.38144,42.52302],[-0.38104,42.5228],[-0.3807,42.52243],[-0.37917,42.52239],[-0.37909,42.52252],[-0.37765,42.52178],[-0.37728,42.52181],[-0.37499,42.52099],[-0.37286,42.52034]]]}},{"type":"Feature","properties":{"id":"2219901002"},"geometry":{"type":"Polygon","coordinates":[[[-0.33611,42.53979],[-0.339,42.53912],[-0.34057,42.53824],[-0.34132,42.53749],[-0.34178,42.53662],[-0.34129,42.53362],[-0.34102,42.53293],[-0.34101,42.53254],[-0.34117,42.53234],[-0.3419,42.53204],[-0.34302,42.53184],[-0.34366,42.53186],[-0.34504,42.53213],[-0.34577,42.5321],[-0.34629,42.53189],[-0.34674,42.5315],[-0.34697,42.53093],[-0.34732,42.52857],[-0.34728,42.52743],[-0.34683,42.5259],[-0.34789,42.52566],[-0.34885,42.52562],[-0.34975,42.52566],[-0.35081,42.52598],[-0.35184,42.5264],[-0.3527,42.52658],[-0.35481,42.52755],[-0.35593,42.52787],[-0.35761,42.52906],[-0.35862,42.52922],[-0.36103,42.52989],[-0.36358,42.53107],[-0.36396,42.53032],[-0.36617,42.52873],[-0.36573,42.52833],[-0.36514,42.52737],[-0.36457,42.52703],[-0.36324,42.52545],[-0.36204,42.52312],[-0.36041,42.5234],[-0.3601,42.52183],[-0.36022,42.52144],[-0.36318,42.51848],[-0.36346,42.51839],[-0.3635,42.51871],[-0.36376,42.51897],[-0.36384,42.5193],[-0.36522,42.52105],[-0.36505,42.52115],[-0.36548,42.5216],[-0.36604,42.5229],[-0.36509,42.52305],[-0.36556,42.52442],[-0.3677,42.52388],[-0.36999,42.52414],[-0.37026,42.52477],[-0.37035,42.52474],[-0.37058,42.52574],[-0.36962,42.52638],[-0.36967,42.52711],[-0.37092,42.5275],[-0.37067,42.52844],[-0.37101,42.529],[-0.37138,42.52936],[-0.37195,42.53044],[-0.37252,42.531],[-0.37244,42.53161],[-0.37225,42.53197],[-0.37251,42.53308],[-0.37289,42.53337],[-0.37251,42.53373],[-0.37268,42.53408],[-0.37228,42.53439],[-0.37238,42.53491],[-0.37127,42.53511],[-0.37059,42.53466],[-0.37032,42.53553],[-0.36993,42.53626],[-0.36956,42.53658],[-0.36913,42.5368],[-0.36833,42.53697],[-0.36703,42.53709],[-0.36706,42.53777],[-0.368,42.53936],[-0.36777,42.53962],[-0.3674,42.53974],[-0.36676,42.54049],[-0.36646,42.54065],[-0.36504,42.54071],[-0.36469,42.54089],[-0.36473,42.54115],[-0.36453,42.54184],[-0.36396,42.54211],[-0.36377,42.54232],[-0.36397,42.54316],[-0.36359,42.54379],[-0.36313,42.54413],[-0.36186,42.54891],[-0.36024,42.55411],[-0.35973,42.55491],[-0.35905,42.55546],[-0.35888,42.55613],[-0.35754,42.55784],[-0.35621,42.55992],[-0.35566,42.56203],[-0.35535,42.56266],[-0.35504,42.56302],[-0.35234,42.564],[-0.34992,42.56374],[-0.34831,42.56331],[-0.34719,42.5632],[-0.34651,42.56328],[-0.34575,42.56358],[-0.34534,42.56382],[-0.34352,42.56566],[-0.34258,42.56717],[-0.34131,42.56862],[-0.33942,42.5697],[-0.33906,42.56976],[-0.33981,42.5708],[-0.3426,42.57206],[-0.34385,42.57243],[-0.34522,42.573],[-0.34795,42.57376],[-0.34979,42.5747],[-0.35312,42.57552],[-0.35266,42.57911],[-0.35186,42.57701],[-0.35108,42.57738],[-0.34842,42.57913],[-0.34775,42.57968],[-0.34744,42.5801],[-0.34715,42.5818],[-0.34668,42.58295],[-0.34499,42.58543],[-0.33987,42.58702],[-0.33969,42.58875],[-0.3389,42.58909],[-0.33847,42.58941],[-0.33812,42.58999],[-0.3367,42.58962],[-0.33611,42.59005],[-0.33451,42.59069],[-0.33389,42.59082],[-0.33289,42.59081],[-0.33151,42.59059],[-0.33065,42.5909],[-0.33024,42.59038],[-0.32988,42.59098],[-0.32906,42.5905],[-0.32846,42.59028],[-0.3269,42.59012],[-0.32458,42.59007],[-0.32189,42.59037],[-0.32183,42.58982],[-0.32199,42.58892],[-0.32289,42.58665],[-0.32274,42.58437],[-0.32289,42.5838],[-0.32422,42.58232],[-0.32438,42.58183],[-0.32438,42.58106],[-0.32366,42.57873],[-0.32163,42.57454],[-0.321,42.57355],[-0.32169,42.57005],[-0.3223,42.56809],[-0.32349,42.56763],[-0.32358,42.56694],[-0.32318,42.5656],[-0.32264,42.56466],[-0.32045,42.56279],[-0.31949,42.56216],[-0.31823,42.56174],[-0.31421,42.56008],[-0.31354,42.56018],[-0.31065,42.56148],[-0.30784,42.56251],[-0.30587,42.56288],[-0.30484,42.56293],[-0.30555,42.56242],[-0.3068,42.56112],[-0.30685,42.56071],[-0.30657,42.56041],[-0.30396,42.55954],[-0.2957,42.55762],[-0.29561,42.55745],[-0.29597,42.55728],[-0.30729,42.55606],[-0.31033,42.55434],[-0.31294,42.55255],[-0.31209,42.55167],[-0.31169,42.55104],[-0.315,42.55027],[-0.32,42.54796],[-0.32197,42.54648],[-0.32442,42.54417],[-0.32596,42.54312],[-0.32917,42.54298],[-0.32943,42.54255],[-0.33042,42.54187],[-0.33658,42.54007],[-0.33611,42.53979]]]}},{"type":"Feature","properties":{"id":"2219901003"},"geometry":{"type":"Polygon","coordinates":[[[-0.36346,42.51839],[-0.36683,42.51821],[-0.36728,42.51825],[-0.36782,42.51845],[-0.36715,42.5193],[-0.36607,42.51913],[-0.36651,42.51961],[-0.36605,42.52021],[-0.36717,42.52088],[-0.36731,42.52081],[-0.36915,42.52167],[-0.36943,42.52168],[-0.36975,42.5225],[-0.37016,42.52242],[-0.37026,42.5227],[-0.37034,42.52266],[-0.37104,42.52452],[-0.37026,42.52477],[-0.36999,42.52414],[-0.3677,42.52388],[-0.36556,42.52442],[-0.36509,42.52305],[-0.36604,42.5229],[-0.36548,42.5216],[-0.36505,42.52115],[-0.36522,42.52105],[-0.36384,42.5193],[-0.36376,42.51897],[-0.3635,42.51871],[-0.36346,42.51839]]]}},{"type":"Feature","properties":{"id":"2219901004"},"geometry":{"type":"Polygon","coordinates":[[[-0.36782,42.51845],[-0.37286,42.52034],[-0.37258,42.5208],[-0.3716,42.52044],[-0.37134,42.52089],[-0.37068,42.52145],[-0.37026,42.5227],[-0.37016,42.52242],[-0.36975,42.5225],[-0.36943,42.52168],[-0.36915,42.52167],[-0.36731,42.52081],[-0.36717,42.52088],[-0.36605,42.52021],[-0.36651,42.51961],[-0.36607,42.51913],[-0.36715,42.5193],[-0.36782,42.51845]]]}},{"type":"Feature","properties":{"id":"2219901005"},"geometry":{"type":"Polygon","coordinates":[[[-0.42889,42.72073],[-0.42973,42.71949],[-0.43089,42.7188],[-0.43137,42.71797],[-0.43224,42.71731],[-0.4323,42.71668],[-0.43178,42.71598],[-0.43161,42.71546],[-0.43209,42.71444],[-0.43047,42.71399],[-0.4304,42.71296],[-0.42993,42.71259],[-0.42921,42.7123],[-0.42789,42.71203],[-0.42581,42.71181],[-0.42393,42.711],[-0.42344,42.71059],[-0.42331,42.71006],[-0.42284,42.70958],[-0.42152,42.70896],[-0.42088,42.70816],[-0.42072,42.7076],[-0.42078,42.70717],[-0.42138,42.70583],[-0.42237,42.70475],[-0.41954,42.70457],[-0.41894,42.70432],[-0.4183,42.7039],[-0.41725,42.70398],[-0.41747,42.70337],[-0.41657,42.70241],[-0.41414,42.69799],[-0.41378,42.69778],[-0.41269,42.69766],[-0.41197,42.69782],[-0.41075,42.69855],[-0.40851,42.69877],[-0.40637,42.69815],[-0.40425,42.69659],[-0.40312,42.6962],[-0.40055,42.6956],[-0.39996,42.69515],[-0.3994,42.69492],[-0.39732,42.69461],[-0.39594,42.69475],[-0.39489,42.69443],[-0.39369,42.69428],[-0.39176,42.69431],[-0.39072,42.69405],[-0.38994,42.69402],[-0.3892,42.69413],[-0.38768,42.69479],[-0.38684,42.69476],[-0.38633,42.69453],[-0.38642,42.69337],[-0.38684,42.69122],[-0.38665,42.68979],[-0.38598,42.68793],[-0.38591,42.6868],[-0.38642,42.6851],[-0.38739,42.68287],[-0.38809,42.68157],[-0.38879,42.67795],[-0.38975,42.67487],[-0.39001,42.67295],[-0.39106,42.67042],[-0.39125,42.6697],[-0.39117,42.66809],[-0.39136,42.66772],[-0.39202,42.66706],[-0.39353,42.666],[-0.3944,42.66523],[-0.39598,42.66357],[-0.39796,42.66063],[-0.39852,42.65724],[-0.39832,42.65659],[-0.39763,42.65544],[-0.39735,42.65437],[-0.39735,42.65335],[-0.39801,42.65115],[-0.39802,42.65073],[-0.39743,42.64888],[-0.39625,42.64634],[-0.39583,42.64587],[-0.39445,42.64525],[-0.39385,42.64462],[-0.39355,42.644],[-0.39112,42.64045],[-0.38891,42.63802],[-0.38736,42.63444],[-0.38686,42.63377],[-0.38444,42.63282],[-0.38251,42.63232],[-0.38203,42.63204],[-0.37897,42.62871],[-0.37702,42.62706],[-0.37582,42.62622],[-0.37428,42.62439],[-0.3739,42.62379],[-0.37325,42.62313],[-0.37263,42.62269],[-0.37086,42.62209],[-0.36969,42.62148],[-0.36924,42.62091],[-0.36926,42.6205],[-0.36998,42.61871],[-0.37,42.61769],[-0.36984,42.61607],[-0.37033,42.6151],[-0.37038,42.61468],[-0.37029,42.61408],[-0.36998,42.61348],[-0.37121,42.60984],[-0.37423,42.60875],[-0.3769,42.60765],[-0.37955,42.60689],[-0.38177,42.60654],[-0.38314,42.60621],[-0.38386,42.60585],[-0.38419,42.60557],[-0.38461,42.60478],[-0.38484,42.60368],[-0.38485,42.60218],[-0.38554,42.60024],[-0.38605,42.59964],[-0.38775,42.59817],[-0.39022,42.5957],[-0.39072,42.59488],[-0.39051,42.59191],[-0.3907,42.59142],[-0.39163,42.58989],[-0.39237,42.58776],[-0.3927,42.58638],[-0.3928,42.58504],[-0.39269,42.58471],[-0.39145,42.58635],[-0.39076,42.58677],[-0.38473,42.58947],[-0.38308,42.59047],[-0.37994,42.58918],[-0.37905,42.58892],[-0.37804,42.58876],[-0.37526,42.58852],[-0.37236,42.58799],[-0.36914,42.58764],[-0.36749,42.58766],[-0.36195,42.58517],[-0.3577,42.58398],[-0.35566,42.58313],[-0.35368,42.58207],[-0.35266,42.57911],[-0.35312,42.57552],[-0.34979,42.5747],[-0.34795,42.57376],[-0.34522,42.573],[-0.34385,42.57243],[-0.3426,42.57206],[-0.33981,42.5708],[-0.33906,42.56976],[-0.33942,42.5697],[-0.34131,42.56862],[-0.34258,42.56717],[-0.34352,42.56566],[-0.34534,42.56382],[-0.34575,42.56358],[-0.34651,42.56328],[-0.34719,42.5632],[-0.34831,42.56331],[-0.34992,42.56374],[-0.35234,42.564],[-0.35504,42.56302],[-0.35535,42.56266],[-0.35566,42.56203],[-0.35621,42.55992],[-0.35754,42.55784],[-0.35888,42.55613],[-0.35905,42.55546],[-0.35973,42.55491],[-0.36024,42.55411],[-0.36186,42.54891],[-0.36313,42.54413],[-0.36359,42.54379],[-0.36397,42.54316],[-0.36377,42.54232],[-0.36396,42.54211],[-0.36453,42.54184],[-0.36473,42.54115],[-0.36469,42.54089],[-0.36504,42.54071],[-0.36646,42.54065],[-0.36676,42.54049],[-0.3674,42.53974],[-0.36777,42.53962],[-0.368,42.53936],[-0.36706,42.53777],[-0.36703,42.53709],[-0.36833,42.53697],[-0.36913,42.5368],[-0.36956,42.53658],[-0.36993,42.53626],[-0.37032,42.53553],[-0.37059,42.53466],[-0.37127,42.53511],[-0.37238,42.53491],[-0.37228,42.53439],[-0.37268,42.53408],[-0.37251,42.53373],[-0.37289,42.53337],[-0.37251,42.53308],[-0.37225,42.53197],[-0.37244,42.53161],[-0.37252,42.531],[-0.37195,42.53044],[-0.37138,42.52936],[-0.37101,42.529],[-0.37067,42.52844],[-0.37092,42.5275],[-0.36967,42.52711],[-0.36962,42.52638],[-0.37058,42.52574],[-0.37035,42.52474],[-0.37104,42.52452],[-0.37034,42.52266],[-0.37068,42.52145],[-0.37134,42.52089],[-0.3716,42.52044],[-0.37258,42.5208],[-0.37286,42.52034],[-0.37499,42.52099],[-0.37728,42.52181],[-0.37765,42.52178],[-0.37909,42.52252],[-0.37917,42.52239],[-0.3807,42.52243],[-0.38104,42.5228],[-0.38144,42.52302],[-0.38247,42.52334],[-0.38374,42.52397],[-0.38623,42.52448],[-0.38656,42.52466],[-0.38712,42.52528],[-0.38774,42.52574],[-0.38829,42.52595],[-0.38996,42.52612],[-0.3909,42.52647],[-0.39256,42.52809],[-0.39296,42.52836],[-0.39313,42.52856],[-0.3931,42.52879],[-0.39333,42.52936],[-0.39443,42.52957],[-0.39468,42.52972],[-0.39491,42.53017],[-0.39586,42.53129],[-0.3962,42.53148],[-0.39804,42.53153],[-0.39919,42.53207],[-0.39963,42.53202],[-0.40024,42.53228],[-0.40117,42.53222],[-0.4016,42.53234],[-0.40117,42.53318],[-0.40068,42.53383],[-0.40027,42.53414],[-0.40049,42.53431],[-0.40066,42.5351],[-0.40057,42.5365],[-0.40083,42.53696],[-0.40228,42.5374],[-0.40544,42.53935],[-0.40527,42.54007],[-0.40495,42.54013],[-0.40479,42.54134],[-0.40491,42.54196],[-0.40536,42.54279],[-0.40551,42.54393],[-0.40668,42.54382],[-0.40704,42.54524],[-0.40749,42.54528],[-0.40754,42.54592],[-0.40794,42.54669],[-0.40746,42.54715],[-0.40747,42.54726],[-0.40776,42.54743],[-0.41051,42.54805],[-0.41019,42.54897],[-0.41016,42.54979],[-0.41124,42.55008],[-0.41198,42.55216],[-0.41234,42.55287],[-0.41289,42.55344],[-0.41493,42.55497],[-0.41578,42.55547],[-0.41642,42.55562],[-0.41708,42.5559],[-0.41888,42.55716],[-0.42008,42.55739],[-0.41962,42.55824],[-0.42101,42.55905],[-0.41969,42.56032],[-0.41942,42.56117],[-0.41924,42.56243],[-0.42015,42.56323],[-0.42153,42.56325],[-0.42197,42.56584],[-0.42229,42.56617],[-0.42326,42.56678],[-0.42436,42.567],[-0.42228,42.57018],[-0.42211,42.57307],[-0.42108,42.57434],[-0.42038,42.57547],[-0.41934,42.57646],[-0.41922,42.57672],[-0.41922,42.57839],[-0.4184,42.57944],[-0.41776,42.58007],[-0.41686,42.58076],[-0.41787,42.58222],[-0.41872,42.58318],[-0.41935,42.58375],[-0.42061,42.58459],[-0.42088,42.58489],[-0.421,42.5859],[-0.42077,42.58839],[-0.42741,42.5903],[-0.43052,42.5911],[-0.43127,42.5912],[-0.43227,42.59205],[-0.43335,42.5928],[-0.43426,42.59327],[-0.43652,42.59519],[-0.43778,42.59599],[-0.43835,42.59621],[-0.44074,42.59677],[-0.44243,42.59701],[-0.44446,42.59801],[-0.44504,42.59846],[-0.44656,42.60009],[-0.4474,42.6013],[-0.44851,42.60339],[-0.44974,42.60541],[-0.44876,42.6062],[-0.44471,42.60998],[-0.44292,42.61212],[-0.4428,42.61245],[-0.44283,42.613],[-0.44262,42.61375],[-0.44243,42.61394],[-0.4413,42.61469],[-0.4401,42.61526],[-0.43812,42.61587],[-0.43717,42.61592],[-0.43601,42.61581],[-0.43561,42.61591],[-0.43505,42.61623],[-0.43336,42.61751],[-0.43192,42.61909],[-0.43133,42.62023],[-0.43127,42.62061],[-0.4314,42.62146],[-0.43123,42.62297],[-0.43157,42.62369],[-0.43203,42.62414],[-0.43296,42.62479],[-0.4336,42.62509],[-0.43469,42.62725],[-0.43536,42.62911],[-0.43589,42.62963],[-0.43655,42.62999],[-0.43706,42.63043],[-0.43762,42.63155],[-0.43761,42.63188],[-0.4372,42.63267],[-0.4361,42.63387],[-0.43563,42.63556],[-0.43581,42.6364],[-0.43678,42.63753],[-0.43719,42.63852],[-0.43721,42.63898],[-0.4368,42.64072],[-0.43747,42.64268],[-0.43793,42.64464],[-0.43852,42.64607],[-0.44003,42.64805],[-0.44126,42.64939],[-0.44207,42.65011],[-0.44325,42.65087],[-0.44495,42.65256],[-0.4452,42.65298],[-0.44549,42.65395],[-0.44557,42.65548],[-0.44574,42.6563],[-0.44638,42.65795],[-0.44677,42.65862],[-0.44748,42.65951],[-0.44876,42.66077],[-0.45351,42.66403],[-0.45365,42.66433],[-0.45373,42.66544],[-0.45407,42.66682],[-0.454,42.66691],[-0.45582,42.66931],[-0.45642,42.67037],[-0.45758,42.67163],[-0.45925,42.67377],[-0.46122,42.67575],[-0.4625,42.67686],[-0.46441,42.67819],[-0.46552,42.67881],[-0.46422,42.68085],[-0.46365,42.68154],[-0.46347,42.68313],[-0.46318,42.68361],[-0.46269,42.6841],[-0.46187,42.68449],[-0.46051,42.68496],[-0.45794,42.68521],[-0.45662,42.68798],[-0.45564,42.68863],[-0.45447,42.68921],[-0.45301,42.69029],[-0.45228,42.69131],[-0.45177,42.6924],[-0.45124,42.6929],[-0.44836,42.69432],[-0.44491,42.69649],[-0.44311,42.69782],[-0.44254,42.69837],[-0.44208,42.69964],[-0.44207,42.70071],[-0.44229,42.70154],[-0.44305,42.70273],[-0.44406,42.70383],[-0.44656,42.70528],[-0.4499,42.70887],[-0.44686,42.71027],[-0.4439,42.71178],[-0.44322,42.71189],[-0.44248,42.71181],[-0.44216,42.71188],[-0.4419,42.71219],[-0.44133,42.71463],[-0.44085,42.71512],[-0.43995,42.71561],[-0.43942,42.7184],[-0.43963,42.72082],[-0.44096,42.72237],[-0.44199,42.72522],[-0.44251,42.72586],[-0.44298,42.72668],[-0.4429,42.72805],[-0.44261,42.72922],[-0.44205,42.73008],[-0.44038,42.73135],[-0.43929,42.73238],[-0.43648,42.72994],[-0.43888,42.72792],[-0.43752,42.72728],[-0.43779,42.72623],[-0.43753,42.72573],[-0.43694,42.7227],[-0.43579,42.72258],[-0.43314,42.72203],[-0.42889,42.72073]]]}},{"type":"Feature","properties":{"id":"2219901006"},"geometry":{"type":"Polygon","coordinates":[[[-0.31296,42.46242],[-0.31238,42.46211],[-0.3115,42.46185],[-0.30754,42.46165],[-0.30734,42.46115],[-0.30739,42.45835],[-0.30511,42.45346],[-0.30598,42.45039],[-0.30603,42.44845],[-0.30724,42.44198],[-0.30731,42.44042],[-0.30718,42.44006],[-0.30675,42.43968],[-0.30552,42.43901],[-0.30513,42.43871],[-0.30421,42.43758],[-0.30386,42.43739],[-0.30333,42.43728],[-0.30211,42.43743],[-0.30075,42.43776],[-0.30073,42.43811],[-0.30085,42.43838],[-0.30127,42.43885],[-0.30114,42.44049],[-0.30132,42.44102],[-0.30184,42.44182],[-0.30144,42.44232],[-0.30094,42.4426],[-0.30043,42.44345],[-0.29977,42.44518],[-0.29929,42.44691],[-0.29901,42.44735],[-0.29562,42.45012],[-0.29492,42.45109],[-0.29482,42.45139],[-0.29483,42.45173],[-0.29577,42.45326],[-0.29624,42.4551],[-0.29678,42.45667],[-0.29708,42.45848],[-0.29364,42.45682],[-0.29147,42.45612],[-0.29018,42.45561],[-0.2877,42.45524],[-0.28629,42.45521],[-0.28492,42.45507],[-0.28342,42.45504],[-0.28207,42.45523],[-0.2811,42.45498],[-0.27831,42.4546],[-0.2733,42.45337],[-0.27029,42.45213],[-0.26928,42.45183],[-0.26297,42.45065],[-0.26021,42.44992],[-0.25809,42.44915],[-0.2544,42.44833],[-0.25347,42.44826],[-0.25183,42.4484],[-0.24881,42.44921],[-0.24814,42.4491],[-0.24554,42.44808],[-0.24492,42.44807],[-0.24442,42.44841],[-0.24391,42.4486],[-0.24221,42.44886],[-0.2417,42.44912],[-0.24037,42.4494],[-0.23966,42.44935],[-0.23833,42.44859],[-0.23685,42.44747],[-0.23655,42.44703],[-0.23198,42.44523],[-0.23017,42.44535],[-0.22966,42.44572],[-0.2291,42.44577],[-0.22802,42.44565],[-0.22694,42.44601],[-0.22415,42.44669],[-0.22357,42.44678],[-0.22295,42.44677],[-0.22102,42.44642],[-0.21991,42.44635],[-0.21336,42.4465],[-0.21094,42.44618],[-0.21039,42.44599],[-0.20947,42.44535],[-0.20403,42.44561],[-0.20171,42.44581],[-0.19818,42.44533],[-0.19506,42.44431],[-0.19464,42.44496],[-0.19351,42.44742],[-0.19316,42.4486],[-0.19192,42.45091],[-0.19162,42.45177],[-0.18829,42.45579],[-0.18748,42.45718],[-0.1864,42.46022],[-0.18622,42.46129],[-0.18633,42.46198],[-0.18691,42.46324],[-0.18472,42.46544],[-0.18189,42.4676],[-0.179,42.46872],[-0.17845,42.46925],[-0.17802,42.46993],[-0.17679,42.47039],[-0.17429,42.47191],[-0.17412,42.47214],[-0.17402,42.47265],[-0.17288,42.47212],[-0.17129,42.47205],[-0.17021,42.47145],[-0.16715,42.47036],[-0.16629,42.46981],[-0.16397,42.46787],[-0.16082,42.46784],[-0.15957,42.46832],[-0.15896,42.46876],[-0.15732,42.47047],[-0.15411,42.47153],[-0.15373,42.47154],[-0.15182,42.47092],[-0.14948,42.4705],[-0.14744,42.46989],[-0.14608,42.4691],[-0.14351,42.4681],[-0.14201,42.46728],[-0.13981,42.4659],[-0.13925,42.46572],[-0.13409,42.46512],[-0.13333,42.46336],[-0.13282,42.46265],[-0.13132,42.4614],[-0.13136,42.46111],[-0.13208,42.46026],[-0.13244,42.45955],[-0.13291,42.45749],[-0.13274,42.4565],[-0.13176,42.45453],[-0.13116,42.45352],[-0.13037,42.45251],[-0.13029,42.45136],[-0.12933,42.45018],[-0.12868,42.4491],[-0.12887,42.44299],[-0.12843,42.44227],[-0.12765,42.4416],[-0.12548,42.44026],[-0.1243,42.43873],[-0.12346,42.43692],[-0.122,42.43694],[-0.12005,42.43669],[-0.1184,42.43632],[-0.11739,42.43584],[-0.11655,42.43562],[-0.11343,42.43506],[-0.11229,42.43478],[-0.11075,42.43388],[-0.10728,42.43319],[-0.1052,42.43326],[-0.10456,42.43291],[-0.10309,42.43336],[-0.10031,42.43248],[-0.09646,42.43089],[-0.0926,42.43076],[-0.09047,42.42976],[-0.08952,42.42965],[-0.08859,42.42942],[-0.08745,42.42933],[-0.08597,42.42861],[-0.08143,42.42841],[-0.07942,42.42787],[-0.07628,42.42768],[-0.07374,42.42738],[-0.07216,42.42742],[-0.07144,42.4254],[-0.07059,42.42478],[-0.06862,42.42303],[-0.06586,42.42203],[-0.06721,42.42178],[-0.06842,42.41846],[-0.06837,42.41706],[-0.0697,42.415],[-0.07105,42.41441],[-0.07135,42.41411],[-0.07141,42.41369],[-0.07092,42.41306],[-0.07173,42.41242],[-0.07366,42.4103],[-0.0761,42.40737],[-0.07858,42.40577],[-0.08901,42.40478],[-0.08838,42.40372],[-0.09076,42.40352],[-0.09127,42.40341],[-0.09261,42.40178],[-0.09741,42.40003],[-0.10251,42.40079],[-0.10289,42.39964],[-0.10354,42.39931],[-0.10479,42.39887],[-0.10542,42.39797],[-0.10581,42.39652],[-0.10595,42.3944],[-0.10663,42.39052],[-0.09769,42.38897],[-0.10045,42.38484],[-0.10104,42.38428],[-0.10954,42.37776],[-0.11469,42.37628],[-0.11389,42.37496],[-0.12466,42.37455],[-0.12919,42.37367],[-0.13006,42.37199],[-0.12732,42.37073],[-0.12145,42.37105],[-0.12197,42.36981],[-0.11424,42.3691],[-0.1135,42.36542],[-0.1207,42.36115],[-0.12177,42.36123],[-0.12681,42.3588],[-0.12594,42.35784],[-0.12571,42.35653],[-0.12548,42.35624],[-0.12507,42.35612],[-0.1244,42.35616],[-0.12373,42.35635],[-0.12295,42.35602],[-0.12201,42.35417],[-0.12141,42.35425],[-0.12113,42.35415],[-0.11952,42.35286],[-0.11911,42.35274],[-0.11821,42.35266],[-0.11786,42.35252],[-0.09863,42.34165],[-0.07915,42.33969],[-0.08344,42.33298],[-0.08608,42.33211],[-0.08779,42.33166],[-0.09005,42.3335],[-0.09331,42.33552],[-0.0992,42.33329],[-0.09957,42.33308],[-0.10004,42.33259],[-0.11022,42.32541],[-0.11757,42.32111],[-0.11836,42.32044],[-0.11963,42.31974],[-0.12186,42.31872],[-0.12694,42.31673],[-0.1311,42.3155],[-0.13254,42.31333],[-0.13321,42.31204],[-0.13483,42.3098],[-0.13681,42.3076],[-0.13983,42.30629],[-0.1416,42.3054],[-0.14905,42.30217],[-0.15758,42.29861],[-0.15799,42.29799],[-0.16127,42.29403],[-0.16369,42.29401],[-0.16755,42.29381],[-0.16713,42.29789],[-0.16674,42.30004],[-0.16458,42.30911],[-0.16435,42.31158],[-0.15842,42.3209],[-0.15824,42.32247],[-0.15806,42.32294],[-0.15524,42.32634],[-0.15186,42.33082],[-0.14963,42.33413],[-0.14967,42.33453],[-0.14988,42.33496],[-0.14987,42.33561],[-0.14916,42.3366],[-0.14925,42.33701],[-0.15026,42.33753],[-0.1504,42.33875],[-0.15144,42.33983],[-0.15212,42.34091],[-0.15223,42.34144],[-0.15214,42.34183],[-0.15167,42.34204],[-0.14137,42.3438],[-0.14871,42.34511],[-0.15201,42.3458],[-0.15293,42.34607],[-0.15353,42.34607],[-0.15362,42.3443],[-0.15384,42.34399],[-0.15722,42.34092],[-0.15898,42.33957],[-0.16541,42.33706],[-0.16842,42.33625],[-0.17201,42.33554],[-0.17067,42.33242],[-0.17608,42.33087],[-0.17174,42.32312],[-0.16587,42.31359],[-0.16602,42.31231],[-0.16603,42.30923],[-0.16627,42.30619],[-0.16855,42.29869],[-0.17452,42.29855],[-0.17595,42.29781],[-0.18278,42.29866],[-0.18683,42.29932],[-0.18749,42.2992],[-0.18974,42.29851],[-0.19235,42.29902],[-0.19224,42.30024],[-0.19253,42.30156],[-0.19249,42.30272],[-0.19369,42.30494],[-0.19739,42.30444],[-0.19809,42.30402],[-0.19969,42.30403],[-0.20125,42.30353],[-0.20219,42.30308],[-0.20297,42.30299],[-0.20358,42.30304],[-0.20506,42.30338],[-0.20623,42.30334],[-0.20684,42.30345],[-0.20903,42.30435],[-0.21105,42.3041],[-0.21276,42.30426],[-0.21329,42.30409],[-0.21418,42.30356],[-0.2146,42.30367],[-0.21506,42.30412],[-0.21683,42.30485],[-0.22097,42.30567],[-0.22264,42.30574],[-0.22206,42.30754],[-0.22051,42.30924],[-0.22071,42.30984],[-0.22172,42.31117],[-0.2214,42.31212],[-0.22176,42.31337],[-0.22348,42.31448],[-0.22505,42.31503],[-0.22599,42.31526],[-0.22904,42.31757],[-0.2299,42.31916],[-0.23026,42.31943],[-0.23258,42.32034],[-0.2349,42.32229],[-0.23374,42.32296],[-0.23199,42.32357],[-0.23193,42.32461],[-0.23079,42.32714],[-0.23005,42.32828],[-0.23003,42.32866],[-0.23033,42.32985],[-0.23102,42.33143],[-0.22954,42.33227],[-0.23125,42.33342],[-0.2329,42.33494],[-0.23404,42.3365],[-0.23544,42.33809],[-0.23593,42.33833],[-0.23654,42.33849],[-0.23716,42.33853],[-0.23879,42.33832],[-0.24038,42.33791],[-0.24082,42.33787],[-0.24426,42.33845],[-0.24646,42.3393],[-0.24867,42.33997],[-0.24958,42.34035],[-0.25005,42.34044],[-0.25129,42.3402],[-0.25439,42.33868],[-0.25708,42.33903],[-0.25976,42.34217],[-0.26047,42.34223],[-0.26318,42.34272],[-0.26455,42.3425],[-0.27049,42.34109],[-0.27091,42.34058],[-0.27206,42.33956],[-0.27233,42.33813],[-0.27384,42.33603],[-0.27436,42.33387],[-0.2727,42.33461],[-0.2717,42.33349],[-0.27414,42.33236],[-0.27289,42.33024],[-0.27272,42.32891],[-0.27185,42.3273],[-0.27254,42.32721],[-0.27351,42.32677],[-0.27512,42.3259],[-0.27623,42.3251],[-0.27644,42.32308],[-0.27859,42.32367],[-0.28136,42.32393],[-0.28243,42.32481],[-0.28424,42.32672],[-0.28444,42.32817],[-0.28474,42.32862],[-0.28559,42.32834],[-0.28735,42.32753],[-0.29077,42.32577],[-0.29359,42.32409],[-0.29495,42.32405],[-0.29679,42.32613],[-0.29913,42.32638],[-0.30068,42.32623],[-0.30321,42.32789],[-0.30375,42.3284],[-0.30417,42.32916],[-0.30413,42.32985],[-0.30358,42.33099],[-0.3015,42.33432],[-0.30105,42.33539],[-0.30127,42.33637],[-0.30106,42.33719],[-0.30109,42.33755],[-0.30168,42.33837],[-0.30244,42.33892],[-0.30381,42.34037],[-0.30418,42.34127],[-0.30566,42.34225],[-0.3059,42.34299],[-0.30593,42.34358],[-0.31124,42.34412],[-0.31318,42.34417],[-0.31431,42.34361],[-0.31712,42.34324],[-0.31793,42.34415],[-0.31869,42.34468],[-0.31983,42.34487],[-0.32051,42.34489],[-0.32093,42.34481],[-0.32313,42.34389],[-0.32363,42.34467],[-0.32411,42.34579],[-0.32415,42.34692],[-0.32429,42.34719],[-0.32495,42.34751],[-0.32622,42.34786],[-0.32757,42.34808],[-0.3291,42.34807],[-0.32994,42.34833],[-0.33155,42.34917],[-0.33568,42.34985],[-0.33806,42.34945],[-0.34075,42.34941],[-0.34402,42.34798],[-0.345,42.34767],[-0.34808,42.34839],[-0.34889,42.34823],[-0.35004,42.34819],[-0.35242,42.34838],[-0.35451,42.34831],[-0.35578,42.34845],[-0.35683,42.34829],[-0.35984,42.34715],[-0.36118,42.34709],[-0.3636,42.34726],[-0.36462,42.34698],[-0.36615,42.34752],[-0.3693,42.34781],[-0.37027,42.34816],[-0.37047,42.34862],[-0.37035,42.34943],[-0.37039,42.35099],[-0.37052,42.3516],[-0.37139,42.35373],[-0.37162,42.35402],[-0.37251,42.35427],[-0.37334,42.35479],[-0.37407,42.35623],[-0.37441,42.35649],[-0.37685,42.35699],[-0.37769,42.35727],[-0.37792,42.35766],[-0.37794,42.35815],[-0.3772,42.35931],[-0.37708,42.35986],[-0.37713,42.36089],[-0.37729,42.36125],[-0.3774,42.36212],[-0.37794,42.36342],[-0.37753,42.36429],[-0.37758,42.36473],[-0.37845,42.36695],[-0.3779,42.36919],[-0.37795,42.37003],[-0.37827,42.37096],[-0.3782,42.37209],[-0.37897,42.37286],[-0.37948,42.37383],[-0.37955,42.3744],[-0.37939,42.37617],[-0.38153,42.37566],[-0.38615,42.37511],[-0.38739,42.37504],[-0.38865,42.37517],[-0.38896,42.37537],[-0.38994,42.37662],[-0.39035,42.37695],[-0.39483,42.37887],[-0.39686,42.37915],[-0.39721,42.3793],[-0.39905,42.38092],[-0.39988,42.3811],[-0.40114,42.38189],[-0.40501,42.38288],[-0.407,42.38323],[-0.40741,42.38321],[-0.4091,42.38243],[-0.4095,42.38234],[-0.40992,42.38242],[-0.41106,42.38302],[-0.41156,42.38316],[-0.41215,42.38322],[-0.41359,42.38314],[-0.41403,42.3832],[-0.41502,42.38353],[-0.41562,42.38356],[-0.41679,42.38347],[-0.41724,42.38353],[-0.41773,42.38369],[-0.41872,42.38442],[-0.41942,42.3856],[-0.41974,42.3859],[-0.421,42.38597],[-0.42181,42.38617],[-0.42521,42.38764],[-0.42552,42.38796],[-0.42983,42.38882],[-0.43144,42.39094],[-0.43182,42.39119],[-0.43299,42.39153],[-0.43388,42.39254],[-0.43417,42.39313],[-0.4349,42.39365],[-0.43633,42.39403],[-0.43742,42.39394],[-0.43767,42.39402],[-0.43856,42.39512],[-0.43891,42.39535],[-0.43926,42.39545],[-0.44143,42.39552],[-0.44314,42.39541],[-0.44449,42.39515],[-0.44491,42.39579],[-0.4457,42.39783],[-0.4458,42.39888],[-0.44565,42.40118],[-0.445,42.4044],[-0.4451,42.40485],[-0.44604,42.40645],[-0.44812,42.4094],[-0.45041,42.41234],[-0.45216,42.41444],[-0.45243,42.41449],[-0.45402,42.41441],[-0.45566,42.4145],[-0.45856,42.41371],[-0.45966,42.41353],[-0.45978,42.41364],[-0.4593,42.41462],[-0.4584,42.41594],[-0.45769,42.41739],[-0.45704,42.41911],[-0.457,42.41961],[-0.45718,42.41973],[-0.46151,42.42071],[-0.46329,42.42234],[-0.46388,42.42304],[-0.46399,42.42357],[-0.46392,42.42455],[-0.46594,42.4253],[-0.46967,42.42739],[-0.47011,42.42807],[-0.47043,42.42834],[-0.47134,42.42883],[-0.4724,42.42918],[-0.4736,42.43034],[-0.47528,42.43089],[-0.47666,42.43155],[-0.47703,42.43163],[-0.47975,42.43132],[-0.48032,42.43138],[-0.48129,42.43179],[-0.48313,42.43198],[-0.4835,42.43214],[-0.48447,42.43285],[-0.48612,42.43338],[-0.48754,42.4341],[-0.48999,42.43437],[-0.49082,42.43459],[-0.49192,42.4351],[-0.49259,42.43575],[-0.49304,42.43592],[-0.49409,42.43605],[-0.4947,42.43625],[-0.49598,42.43721],[-0.49648,42.43737],[-0.49752,42.43745],[-0.49812,42.43763],[-0.50396,42.43979],[-0.50464,42.44027],[-0.50524,42.44085],[-0.50583,42.44215],[-0.50562,42.44355],[-0.50582,42.44396],[-0.50582,42.44429],[-0.50528,42.44558],[-0.50536,42.44588],[-0.50613,42.44626],[-0.50628,42.44656],[-0.50622,42.44846],[-0.50606,42.44871],[-0.50576,42.44886],[-0.50211,42.44972],[-0.50148,42.44978],[-0.50095,42.44972],[-0.49923,42.4499],[-0.49765,42.45024],[-0.49415,42.4513],[-0.49311,42.45174],[-0.48868,42.45303],[-0.48497,42.4544],[-0.48429,42.455],[-0.48385,42.4558],[-0.47859,42.45563],[-0.47681,42.45523],[-0.47517,42.45502],[-0.47255,42.45509],[-0.47063,42.45461],[-0.46817,42.45424],[-0.46708,42.45437],[-0.46576,42.45427],[-0.4633,42.45384],[-0.46144,42.45377],[-0.45798,42.45287],[-0.45402,42.4525],[-0.45335,42.45256],[-0.4525,42.45279],[-0.4483,42.4551],[-0.44174,42.45724],[-0.43933,42.45754],[-0.43669,42.45757],[-0.43342,42.45729],[-0.42749,42.45658],[-0.4274,42.45846],[-0.42896,42.4605],[-0.42952,42.46141],[-0.43057,42.46222],[-0.43179,42.4649],[-0.43205,42.46519],[-0.4335,42.46609],[-0.43457,42.46649],[-0.4373,42.46712],[-0.43771,42.46793],[-0.43978,42.47025],[-0.4406,42.47188],[-0.44381,42.47597],[-0.44485,42.47445],[-0.44529,42.47401],[-0.44585,42.47375],[-0.449,42.47256],[-0.45392,42.47125],[-0.4547,42.47122],[-0.45521,42.47133],[-0.46046,42.4732],[-0.46183,42.47355],[-0.46095,42.4746],[-0.45637,42.481],[-0.45592,42.4815],[-0.45452,42.48262],[-0.4517,42.48523],[-0.44912,42.48798],[-0.44902,42.48827],[-0.44908,42.48894],[-0.44942,42.49028],[-0.44939,42.49074],[-0.44734,42.4936],[-0.44621,42.49548],[-0.44235,42.49464],[-0.43927,42.49353],[-0.43661,42.49236],[-0.4333,42.49118],[-0.43174,42.49046],[-0.42764,42.48833],[-0.42736,42.48809],[-0.42702,42.48735],[-0.427,42.48672],[-0.42627,42.48707],[-0.42693,42.4865],[-0.42775,42.48525],[-0.42876,42.48241],[-0.42912,42.48083],[-0.42917,42.48004],[-0.42697,42.47793],[-0.42609,42.47724],[-0.42363,42.47631],[-0.42129,42.47509],[-0.41848,42.47316],[-0.41464,42.47185],[-0.41381,42.47123],[-0.41292,42.47086],[-0.41217,42.46998],[-0.41104,42.46911],[-0.41024,42.46883],[-0.40828,42.46764],[-0.40742,42.46739],[-0.40658,42.46748],[-0.4034,42.46681],[-0.40083,42.46665],[-0.39966,42.46644],[-0.39889,42.46605],[-0.39794,42.46594],[-0.39663,42.46552],[-0.39519,42.46519],[-0.39255,42.4642],[-0.39218,42.4647],[-0.39205,42.4652],[-0.39213,42.46565],[-0.39272,42.46622],[-0.39291,42.46672],[-0.3927,42.46721],[-0.39115,42.46765],[-0.3905,42.46802],[-0.39028,42.46859],[-0.39036,42.46994],[-0.39017,42.47099],[-0.38981,42.47173],[-0.3876,42.47301],[-0.38785,42.47314],[-0.38482,42.47368],[-0.38411,42.47389],[-0.38348,42.47413],[-0.38052,42.4758],[-0.37877,42.47778],[-0.37667,42.47976],[-0.37633,42.48031],[-0.37629,42.4807],[-0.37661,42.48136],[-0.3781,42.48251],[-0.37814,42.48283],[-0.37799,42.48321],[-0.37738,42.48383],[-0.37729,42.48441],[-0.37679,42.48551],[-0.37561,42.48681],[-0.37344,42.48793],[-0.37308,42.48827],[-0.37286,42.48875],[-0.37298,42.48974],[-0.37286,42.49005],[-0.37243,42.49042],[-0.36968,42.49125],[-0.36923,42.49198],[-0.37082,42.49227],[-0.37249,42.49296],[-0.37409,42.49414],[-0.37649,42.49698],[-0.37691,42.49931],[-0.37684,42.50103],[-0.37463,42.50456],[-0.37152,42.50506],[-0.37012,42.50514],[-0.36811,42.50509],[-0.36614,42.50539],[-0.36108,42.50548],[-0.36065,42.50589],[-0.36039,42.50709],[-0.36001,42.50775],[-0.35951,42.50817],[-0.3585,42.50938],[-0.35611,42.51027],[-0.35616,42.50981],[-0.35673,42.50902],[-0.35793,42.50689],[-0.36238,42.49869],[-0.36255,42.49871],[-0.36263,42.49861],[-0.36284,42.49802],[-0.36328,42.4975],[-0.36307,42.49718],[-0.36279,42.49719],[-0.36271,42.49707],[-0.3629,42.49673],[-0.36244,42.49665],[-0.362,42.4964],[-0.36237,42.49597],[-0.36337,42.49566],[-0.36447,42.4948],[-0.36562,42.49334],[-0.36312,42.49305],[-0.35715,42.49112],[-0.35555,42.49074],[-0.35225,42.48948],[-0.34598,42.48678],[-0.34265,42.48499],[-0.33117,42.4844],[-0.3301,42.48472],[-0.32789,42.48579],[-0.32779,42.48689],[-0.32649,42.48726],[-0.32469,42.48655],[-0.3226,42.48729],[-0.32252,42.48782],[-0.32327,42.48841],[-0.32518,42.48952],[-0.32648,42.49043],[-0.32579,42.49098],[-0.32598,42.49141],[-0.32506,42.49241],[-0.32124,42.49129],[-0.31945,42.49047],[-0.3184,42.48967],[-0.31797,42.48823],[-0.31834,42.48619],[-0.31806,42.48447],[-0.3197,42.47925],[-0.32052,42.47433],[-0.32088,42.47013],[-0.32439,42.46872],[-0.32926,42.46693],[-0.33078,42.46376],[-0.33188,42.4623],[-0.33204,42.46169],[-0.33144,42.46008],[-0.33063,42.45966],[-0.3293,42.45869],[-0.32771,42.45822],[-0.32523,42.45817],[-0.32331,42.4583],[-0.32279,42.45847],[-0.3207,42.45948],[-0.31296,42.46242]]]}},{"type":"Feature","properties":{"id":"2219901007"},"geometry":{"type":"Polygon","coordinates":[[[-0.27486,42.52944],[-0.27414,42.52893],[-0.27337,42.5281],[-0.27195,42.52691],[-0.27085,42.52664],[-0.27212,42.52471],[-0.27314,42.52337],[-0.2759,42.52006],[-0.2787,42.51603],[-0.27884,42.51481],[-0.27799,42.5125],[-0.27664,42.50951],[-0.27673,42.50707],[-0.27695,42.50591],[-0.28364,42.50192],[-0.28518,42.50088],[-0.28841,42.49809],[-0.28984,42.49717],[-0.2916,42.49647],[-0.29278,42.49612],[-0.29387,42.49677],[-0.29562,42.49813],[-0.29607,42.49833],[-0.2992,42.49569],[-0.29969,42.49392],[-0.29987,42.49226],[-0.30091,42.49003],[-0.30075,42.48907],[-0.30105,42.48863],[-0.30179,42.48797],[-0.30167,42.48596],[-0.30064,42.48571],[-0.29988,42.48536],[-0.29794,42.48416],[-0.2981,42.48352],[-0.29832,42.48304],[-0.29925,42.48212],[-0.29991,42.48127],[-0.30047,42.4796],[-0.3026,42.47668],[-0.30289,42.47583],[-0.30291,42.47537],[-0.30361,42.4745],[-0.30505,42.47168],[-0.30603,42.47083],[-0.30705,42.47028],[-0.30919,42.46949],[-0.30951,42.46928],[-0.31151,42.4652],[-0.31218,42.46423],[-0.31314,42.46252],[-0.31296,42.46242],[-0.3207,42.45948],[-0.32279,42.45847],[-0.32331,42.4583],[-0.32523,42.45817],[-0.32771,42.45822],[-0.3293,42.45869],[-0.33063,42.45966],[-0.33144,42.46008],[-0.33204,42.46169],[-0.33188,42.4623],[-0.33078,42.46376],[-0.32926,42.46693],[-0.32439,42.46872],[-0.32088,42.47013],[-0.32052,42.47433],[-0.3197,42.47925],[-0.31806,42.48447],[-0.31834,42.48619],[-0.31797,42.48823],[-0.3184,42.48967],[-0.31945,42.49047],[-0.32124,42.49129],[-0.32506,42.49241],[-0.32598,42.49141],[-0.32579,42.49098],[-0.32648,42.49043],[-0.32518,42.48952],[-0.32327,42.48841],[-0.32252,42.48782],[-0.3226,42.48729],[-0.32286,42.48714],[-0.32469,42.48655],[-0.32649,42.48726],[-0.32779,42.48689],[-0.32789,42.48579],[-0.3301,42.48472],[-0.33117,42.4844],[-0.34265,42.48499],[-0.34598,42.48678],[-0.35225,42.48948],[-0.35555,42.49074],[-0.35715,42.49112],[-0.36312,42.49305],[-0.36562,42.49334],[-0.36447,42.4948],[-0.36337,42.49566],[-0.36237,42.49597],[-0.362,42.4964],[-0.36244,42.49665],[-0.3629,42.49673],[-0.36271,42.49707],[-0.36279,42.49719],[-0.36307,42.49718],[-0.36328,42.4975],[-0.36284,42.49802],[-0.36263,42.49861],[-0.36255,42.49871],[-0.36238,42.49869],[-0.35793,42.50689],[-0.35673,42.50902],[-0.35616,42.50981],[-0.35611,42.51027],[-0.35559,42.51046],[-0.35514,42.51077],[-0.35434,42.51203],[-0.35318,42.51214],[-0.35,42.51311],[-0.34889,42.51309],[-0.34837,42.51366],[-0.34815,42.51377],[-0.34782,42.51497],[-0.34783,42.51599],[-0.34772,42.51632],[-0.34739,42.51725],[-0.34668,42.51813],[-0.34619,42.51841],[-0.34451,42.51907],[-0.34313,42.51989],[-0.34306,42.52017],[-0.34442,42.52183],[-0.34562,42.52418],[-0.34683,42.5259],[-0.34702,42.5264],[-0.34728,42.52743],[-0.34732,42.52857],[-0.34697,42.53093],[-0.34674,42.5315],[-0.34629,42.53189],[-0.34577,42.5321],[-0.34504,42.53213],[-0.34366,42.53186],[-0.34302,42.53184],[-0.3419,42.53204],[-0.34117,42.53234],[-0.34101,42.53254],[-0.34102,42.53293],[-0.34129,42.53362],[-0.34178,42.53662],[-0.34132,42.53749],[-0.34057,42.53824],[-0.339,42.53912],[-0.33611,42.53979],[-0.33407,42.53855],[-0.3332,42.53788],[-0.33008,42.53494],[-0.32965,42.53426],[-0.32938,42.53225],[-0.3273,42.53247],[-0.325,42.533],[-0.32179,42.53396],[-0.31272,42.53208],[-0.3098,42.53136],[-0.30871,42.53103],[-0.3065,42.53009],[-0.30624,42.53036],[-0.30379,42.53017],[-0.30204,42.5302],[-0.29456,42.53082],[-0.29331,42.53078],[-0.28787,42.52999],[-0.28404,42.52989],[-0.2785,42.52946],[-0.27517,42.52936],[-0.27486,42.52944]]]}}]}