{"type":"FeatureCollection","features":[{"type":"Feature","properties":{"id":"2221301001"},"geometry":{"type":"Polygon","coordinates":[[[-0.03677,41.81623],[-0.03885,41.81574],[-0.04919,41.81168],[-0.05229,41.81056],[-0.05584,41.80962],[-0.05659,41.80974],[-0.05721,41.80861],[-0.0583,41.80704],[-0.06046,41.80433],[-0.06066,41.80371],[-0.06068,41.80225],[-0.06406,41.80136],[-0.06842,41.79878],[-0.06978,41.79786],[-0.07219,41.79597],[-0.07507,41.79324],[-0.07622,41.79232],[-0.07704,41.7918],[-0.07995,41.78936],[-0.08214,41.78783],[-0.08456,41.78643],[-0.08639,41.78577],[-0.0872,41.78538],[-0.08793,41.78491],[-0.08831,41.78452],[-0.0884,41.78416],[-0.08827,41.78346],[-0.09067,41.78098],[-0.09108,41.78032],[-0.09135,41.7794],[-0.09061,41.77769],[-0.09025,41.77748],[-0.08766,41.77777],[-0.0868,41.77739],[-0.08664,41.7772],[-0.08682,41.77664],[-0.08705,41.7764],[-0.08772,41.77607],[-0.09131,41.7756],[-0.09218,41.77479],[-0.09217,41.77441],[-0.09121,41.77374],[-0.09174,41.773],[-0.09198,41.77246],[-0.092,41.77189],[-0.09177,41.77067],[-0.09086,41.76833],[-0.09083,41.76776],[-0.091,41.76682],[-0.09134,41.76623],[-0.09131,41.76551],[-0.09099,41.76492],[-0.0902,41.76395],[-0.08953,41.76335],[-0.08885,41.76191],[-0.08961,41.76158],[-0.0933,41.76041],[-0.09981,41.75887],[-0.10181,41.75815],[-0.10119,41.7567],[-0.11071,41.75184],[-0.1419,41.78259],[-0.14503,41.78492],[-0.14552,41.78538],[-0.14593,41.7865],[-0.14703,41.78802],[-0.14731,41.78864],[-0.14727,41.79096],[-0.14758,41.7913],[-0.14836,41.7915],[-0.15785,41.79312],[-0.15846,41.79298],[-0.15866,41.79276],[-0.15958,41.79077],[-0.15948,41.79051],[-0.16003,41.79027],[-0.16123,41.79026],[-0.16157,41.78976],[-0.16226,41.78808],[-0.16418,41.78529],[-0.16704,41.78686],[-0.16572,41.78748],[-0.16629,41.78829],[-0.16726,41.79009],[-0.16671,41.79846],[-0.16823,41.79851],[-0.17293,41.80334],[-0.18556,41.80874],[-0.18475,41.81037],[-0.19203,41.82292],[-0.19068,41.82252],[-0.18948,41.8219],[-0.18872,41.82163],[-0.18558,41.82121],[-0.18269,41.82106],[-0.17726,41.82135],[-0.17243,41.82214],[-0.17127,41.82252],[-0.16928,41.82348],[-0.16467,41.82729],[-0.16384,41.82821],[-0.16338,41.82897],[-0.16272,41.83042],[-0.16172,41.83149],[-0.16129,41.8321],[-0.16039,41.83469],[-0.16001,41.83807],[-0.16023,41.8392],[-0.16012,41.84078],[-0.15989,41.84156],[-0.16206,41.84479],[-0.16325,41.84792],[-0.16461,41.85022],[-0.16475,41.85102],[-0.16548,41.85167],[-0.16491,41.85205],[-0.16406,41.85222],[-0.16251,41.85273],[-0.16195,41.85328],[-0.16142,41.85361],[-0.16006,41.85397],[-0.16151,41.85589],[-0.16638,41.86086],[-0.16747,41.86232],[-0.16826,41.86375],[-0.16969,41.86519],[-0.16999,41.86631],[-0.16952,41.86669],[-0.1647,41.87386],[-0.16411,41.87459],[-0.16236,41.87584],[-0.16124,41.87327],[-0.15992,41.87109],[-0.15908,41.87047],[-0.15559,41.86866],[-0.15214,41.86705],[-0.15158,41.86693],[-0.14973,41.86686],[-0.14924,41.86698],[-0.14796,41.86762],[-0.1471,41.86828],[-0.14524,41.86899],[-0.14333,41.86986],[-0.14275,41.87036],[-0.14042,41.87337],[-0.13973,41.87529],[-0.1395,41.87563],[-0.13683,41.87693],[-0.13315,41.87899],[-0.13242,41.87961],[-0.13068,41.88162],[-0.12915,41.88274],[-0.1277,41.88354],[-0.12687,41.88389],[-0.12627,41.88402],[-0.12444,41.88401],[-0.12228,41.88318],[-0.12072,41.88245],[-0.12028,41.88237],[-0.11982,41.88326],[-0.11886,41.88405],[-0.11823,41.88435],[-0.11695,41.88524],[-0.11614,41.88601],[-0.11551,41.88633],[-0.1152,41.88597],[-0.11435,41.8856],[-0.11271,41.88456],[-0.11102,41.88317],[-0.10957,41.88217],[-0.10877,41.8819],[-0.10521,41.88133],[-0.10344,41.88094],[-0.09846,41.87918],[-0.09735,41.87865],[-0.09348,41.87727],[-0.09121,41.87688],[-0.08993,41.87681],[-0.08699,41.87694],[-0.08505,41.87713],[-0.08449,41.87711],[-0.08391,41.87692],[-0.0798,41.87616],[-0.07896,41.87565],[-0.07203,41.87288],[-0.07133,41.87231],[-0.0688,41.87062],[-0.06696,41.86964],[-0.06467,41.86819],[-0.06273,41.86655],[-0.06022,41.86468],[-0.05958,41.86396],[-0.06027,41.86341],[-0.06119,41.86343],[-0.06157,41.86248],[-0.06189,41.86012],[-0.06293,41.85857],[-0.06149,41.85708],[-0.05885,41.85832],[-0.05658,41.86047],[-0.05484,41.86173],[-0.05314,41.86098],[-0.05194,41.86056],[-0.05168,41.86034],[-0.05153,41.85998],[-0.05162,41.85956],[-0.05196,41.85911],[-0.052,41.85866],[-0.05141,41.85418],[-0.0508,41.85394],[-0.0505,41.8537],[-0.04977,41.85254],[-0.04985,41.85232],[-0.05026,41.85224],[-0.05192,41.8527],[-0.05282,41.84968],[-0.053,41.84805],[-0.05327,41.84724],[-0.05314,41.84679],[-0.05268,41.84634],[-0.05198,41.84591],[-0.04739,41.84362],[-0.0462,41.84239],[-0.04557,41.84208],[-0.04442,41.84184],[-0.04175,41.84062],[-0.03633,41.83657],[-0.03445,41.83625],[-0.03422,41.83601],[-0.0338,41.83477],[-0.03351,41.83451],[-0.03105,41.83451],[-0.03074,41.83427],[-0.03045,41.83352],[-0.03042,41.83309],[-0.0306,41.83274],[-0.03109,41.83223],[-0.03085,41.83082],[-0.03258,41.83028],[-0.03328,41.82999],[-0.03401,41.82954],[-0.03523,41.82835],[-0.03656,41.8268],[-0.03774,41.82586],[-0.03796,41.82549],[-0.03797,41.82491],[-0.03745,41.82338],[-0.03686,41.8225],[-0.03766,41.82139],[-0.03708,41.81987],[-0.03796,41.81901],[-0.03702,41.8182],[-0.03682,41.81785],[-0.03677,41.81623]]]}},{"type":"Feature","properties":{"id":"2221301002"},"geometry":{"type":"Polygon","coordinates":[[[-0.11071,41.75184],[-0.11388,41.75006],[-0.11806,41.74813],[-0.12363,41.74595],[-0.12656,41.74517],[-0.12706,41.74511],[-0.12857,41.74649],[-0.1297,41.74727],[-0.13067,41.74774],[-0.13182,41.74813],[-0.13298,41.74839],[-0.13574,41.74849],[-0.1397,41.7485],[-0.14087,41.74836],[-0.14091,41.74998],[-0.14069,41.75092],[-0.1391,41.75479],[-0.13959,41.7559],[-0.14177,41.75843],[-0.14226,41.75855],[-0.14365,41.75835],[-0.14692,41.75752],[-0.14858,41.75838],[-0.15176,41.75944],[-0.15205,41.75944],[-0.15241,41.7593],[-0.15263,41.75908],[-0.15348,41.75686],[-0.15369,41.75549],[-0.15401,41.75442],[-0.15422,41.7524],[-0.15459,41.75144],[-0.15488,41.74952],[-0.15507,41.74903],[-0.1544,41.74753],[-0.15518,41.74656],[-0.15705,41.74469],[-0.15879,41.74345],[-0.15946,41.74309],[-0.16008,41.74294],[-0.16357,41.74258],[-0.16432,41.74237],[-0.1652,41.74203],[-0.16696,41.74093],[-0.17216,41.73745],[-0.17353,41.73635],[-0.17395,41.7358],[-0.17468,41.73428],[-0.17501,41.73285],[-0.17527,41.72945],[-0.17522,41.72363],[-0.17486,41.72303],[-0.17395,41.72194],[-0.1728,41.72104],[-0.17162,41.72023],[-0.1704,41.71954],[-0.1695,41.71926],[-0.16809,41.71904],[-0.16628,41.71893],[-0.16412,41.71902],[-0.16195,41.71953],[-0.15617,41.72068],[-0.15488,41.72075],[-0.15203,41.72013],[-0.15088,41.71914],[-0.14987,41.71783],[-0.14965,41.71746],[-0.14928,41.71625],[-0.1498,41.71611],[-0.15276,41.71318],[-0.15439,41.71354],[-0.15498,41.71355],[-0.15699,41.71316],[-0.16221,41.71152],[-0.17191,41.70753],[-0.17846,41.69863],[-0.17986,41.69627],[-0.1808,41.69444],[-0.18175,41.69217],[-0.18172,41.68857],[-0.18224,41.68046],[-0.18312,41.67708],[-0.17972,41.67401],[-0.17905,41.66986],[-0.17901,41.66726],[-0.17927,41.66674],[-0.17999,41.66337],[-0.17862,41.66104],[-0.17843,41.66021],[-0.1788,41.65869],[-0.17998,41.6558],[-0.18045,41.65522],[-0.18152,41.6543],[-0.18237,41.65311],[-0.18312,41.65228],[-0.18352,41.65199],[-0.18647,41.65324],[-0.18748,41.65347],[-0.19126,41.65383],[-0.19388,41.65395],[-0.19566,41.65566],[-0.19708,41.65641],[-0.19771,41.65655],[-0.19974,41.65557],[-0.20151,41.65509],[-0.20177,41.65351],[-0.20282,41.65279],[-0.20631,41.65403],[-0.20829,41.65486],[-0.20856,41.6536],[-0.20893,41.65275],[-0.21028,41.65152],[-0.21123,41.65117],[-0.21269,41.65176],[-0.21322,41.65185],[-0.21561,41.653],[-0.21642,41.65307],[-0.21731,41.65369],[-0.21738,41.65432],[-0.21972,41.65559],[-0.2199,41.65621],[-0.22095,41.65703],[-0.22017,41.66163],[-0.21856,41.66352],[-0.22159,41.66755],[-0.22236,41.6699],[-0.22228,41.67295],[-0.22294,41.67357],[-0.22277,41.67389],[-0.22219,41.67426],[-0.22213,41.67466],[-0.22171,41.6749],[-0.2216,41.67562],[-0.22339,41.67652],[-0.22333,41.67692],[-0.22136,41.68068],[-0.21945,41.68248],[-0.20953,41.70211],[-0.21346,41.70481],[-0.212,41.70691],[-0.20849,41.70753],[-0.20647,41.70698],[-0.20018,41.72398],[-0.19387,41.73101],[-0.19359,41.73278],[-0.19258,41.73384],[-0.19201,41.73754],[-0.18653,41.74869],[-0.18662,41.75588],[-0.18654,41.75632],[-0.18156,41.75846],[-0.17867,41.75994],[-0.1761,41.76167],[-0.1757,41.76289],[-0.17715,41.76586],[-0.17061,41.77566],[-0.16511,41.78258],[-0.1655,41.78314],[-0.16418,41.78529],[-0.16226,41.78808],[-0.16157,41.78976],[-0.16123,41.79026],[-0.16003,41.79027],[-0.15948,41.79051],[-0.15958,41.79077],[-0.15866,41.79276],[-0.15846,41.79298],[-0.15785,41.79312],[-0.14836,41.7915],[-0.14758,41.7913],[-0.14727,41.79096],[-0.14731,41.78864],[-0.14703,41.78802],[-0.14593,41.7865],[-0.14552,41.78538],[-0.14503,41.78492],[-0.1419,41.78259],[-0.11071,41.75184]]]}},{"type":"Feature","properties":{"id":"2221301003"},"geometry":{"type":"Polygon","coordinates":[[[-0.19203,41.82292],[-0.18475,41.81037],[-0.18556,41.80874],[-0.17293,41.80334],[-0.16823,41.79851],[-0.16671,41.79846],[-0.16726,41.79009],[-0.16629,41.78829],[-0.16572,41.78748],[-0.16704,41.78686],[-0.16414,41.78526],[-0.1655,41.78314],[-0.16511,41.78258],[-0.17061,41.77566],[-0.17715,41.76586],[-0.1757,41.76289],[-0.1761,41.76167],[-0.17867,41.75994],[-0.18156,41.75846],[-0.18654,41.75632],[-0.18662,41.75588],[-0.18653,41.74869],[-0.19201,41.73754],[-0.19258,41.73384],[-0.19359,41.73278],[-0.19387,41.73101],[-0.20018,41.72398],[-0.20647,41.70698],[-0.20849,41.70753],[-0.212,41.70691],[-0.21346,41.70481],[-0.20953,41.70211],[-0.21945,41.68248],[-0.22136,41.68068],[-0.22333,41.67692],[-0.22339,41.67652],[-0.2216,41.67562],[-0.22171,41.6749],[-0.22213,41.67466],[-0.22219,41.67426],[-0.22277,41.67389],[-0.22294,41.67357],[-0.22228,41.67295],[-0.22236,41.6699],[-0.22159,41.66755],[-0.21856,41.66352],[-0.22017,41.66163],[-0.22095,41.65703],[-0.2199,41.65621],[-0.21972,41.65559],[-0.21738,41.65432],[-0.21731,41.65369],[-0.21642,41.65307],[-0.21561,41.653],[-0.21322,41.65185],[-0.21269,41.65176],[-0.21123,41.65117],[-0.21205,41.65118],[-0.21393,41.65149],[-0.21945,41.65356],[-0.22136,41.65331],[-0.22206,41.65241],[-0.22273,41.65079],[-0.22836,41.65056],[-0.22937,41.65163],[-0.22897,41.65284],[-0.23452,41.65611],[-0.23848,41.6561],[-0.23923,41.65709],[-0.24199,41.6582],[-0.24472,41.65973],[-0.24588,41.66064],[-0.24736,41.66055],[-0.24915,41.66069],[-0.25077,41.66105],[-0.25308,41.66046],[-0.25675,41.66287],[-0.25646,41.66522],[-0.25799,41.66528],[-0.25976,41.66676],[-0.26042,41.66755],[-0.26196,41.66851],[-0.26576,41.67009],[-0.26625,41.67053],[-0.26663,41.67124],[-0.26689,41.67152],[-0.26729,41.67178],[-0.26991,41.67293],[-0.27209,41.67468],[-0.27258,41.67533],[-0.27264,41.67622],[-0.27314,41.67658],[-0.27495,41.67725],[-0.27625,41.67913],[-0.27742,41.67962],[-0.27793,41.6801],[-0.27927,41.68102],[-0.28027,41.68151],[-0.28095,41.68203],[-0.28155,41.68222],[-0.28339,41.68224],[-0.28581,41.6832],[-0.288,41.68458],[-0.28931,41.68643],[-0.29338,41.6864],[-0.29445,41.68705],[-0.29661,41.68775],[-0.29746,41.68783],[-0.29825,41.68763],[-0.30037,41.68739],[-0.3022,41.68698],[-0.30446,41.68711],[-0.30535,41.68756],[-0.30726,41.68813],[-0.30759,41.68904],[-0.30811,41.68961],[-0.30779,41.69035],[-0.30671,41.69201],[-0.30573,41.69393],[-0.3043,41.69553],[-0.30354,41.6962],[-0.30253,41.69687],[-0.30253,41.70008],[-0.30233,41.7018],[-0.30258,41.70292],[-0.30237,41.70393],[-0.30239,41.70439],[-0.30279,41.70545],[-0.30262,41.70627],[-0.30248,41.70858],[-0.30271,41.71054],[-0.30143,41.71286],[-0.30093,41.71532],[-0.30023,41.71701],[-0.29987,41.71858],[-0.30085,41.71884],[-0.3005,41.72027],[-0.30049,41.72067],[-0.30063,41.72104],[-0.30141,41.7219],[-0.30241,41.72324],[-0.3037,41.7246],[-0.30381,41.72951],[-0.30237,41.7342],[-0.30178,41.73542],[-0.30171,41.73588],[-0.30179,41.73635],[-0.30357,41.74113],[-0.30349,41.74252],[-0.30299,41.74327],[-0.29958,41.74568],[-0.29806,41.74689],[-0.29558,41.74926],[-0.29497,41.75012],[-0.29405,41.75279],[-0.29314,41.75469],[-0.29311,41.75629],[-0.29248,41.75797],[-0.29024,41.75925],[-0.28879,41.75982],[-0.28781,41.75997],[-0.28654,41.75984],[-0.28476,41.76034],[-0.28477,41.76119],[-0.28462,41.76164],[-0.28438,41.76202],[-0.28408,41.76227],[-0.28339,41.76258],[-0.27666,41.76503],[-0.27598,41.76516],[-0.27288,41.76506],[-0.27158,41.76512],[-0.27073,41.76533],[-0.26984,41.76572],[-0.26798,41.76631],[-0.26403,41.76655],[-0.2622,41.7668],[-0.26152,41.76713],[-0.26094,41.76764],[-0.26081,41.76787],[-0.26087,41.76816],[-0.26072,41.76898],[-0.26054,41.76932],[-0.25839,41.77212],[-0.25819,41.77259],[-0.2577,41.77534],[-0.2578,41.77563],[-0.25918,41.77659],[-0.2594,41.77687],[-0.25891,41.7773],[-0.25809,41.77765],[-0.25765,41.77809],[-0.25668,41.7794],[-0.25561,41.78045],[-0.2548,41.78142],[-0.25019,41.78543],[-0.24632,41.78629],[-0.2486,41.79177],[-0.24887,41.79277],[-0.24917,41.79494],[-0.2497,41.79573],[-0.25084,41.79794],[-0.24971,41.79782],[-0.24874,41.79785],[-0.24632,41.79819],[-0.23802,41.79961],[-0.23348,41.79962],[-0.2315,41.79971],[-0.22692,41.8004],[-0.22464,41.80098],[-0.2205,41.80245],[-0.21896,41.80313],[-0.21423,41.8056],[-0.21062,41.81025],[-0.21049,41.81056],[-0.21099,41.81811],[-0.21163,41.82183],[-0.21184,41.82431],[-0.21236,41.82824],[-0.21247,41.83259],[-0.21054,41.83197],[-0.20918,41.83132],[-0.20288,41.82675],[-0.20157,41.82565],[-0.19985,41.8249],[-0.19787,41.82432],[-0.19203,41.82292]]]}}]}