{"type":"FeatureCollection","features":[{"type":"Feature","properties":{"id":"2300701001"},"geometry":{"type":"Polygon","coordinates":[[[-4.09531,37.97159],[-4.09574,37.9706],[-4.09716,37.97085],[-4.09693,37.97126],[-4.09835,37.97186],[-4.09813,37.97223],[-4.09911,37.97264],[-4.10031,37.97278],[-4.10082,37.97275],[-4.10086,37.97292],[-4.10106,37.97295],[-4.1015,37.9729],[-4.10151,37.97275],[-4.10186,37.97283],[-4.10185,37.97225],[-4.10149,37.97154],[-4.1017,37.97081],[-4.10665,37.96901],[-4.10831,37.96944],[-4.10833,37.96971],[-4.10857,37.97012],[-4.10845,37.97073],[-4.10748,37.97188],[-4.10651,37.97374],[-4.10554,37.97358],[-4.10406,37.97364],[-4.10352,37.97358],[-4.10255,37.97393],[-4.10222,37.97426],[-4.09531,37.97159]]]}},{"type":"Feature","properties":{"id":"2300701002"},"geometry":{"type":"Polygon","coordinates":[[[-4.09501,37.97234],[-4.09531,37.97159],[-4.10222,37.97426],[-4.10255,37.97393],[-4.10352,37.97358],[-4.10406,37.97364],[-4.10554,37.97358],[-4.10651,37.97374],[-4.10641,37.97402],[-4.10521,37.97463],[-4.10505,37.97495],[-4.10456,37.97531],[-4.10441,37.97581],[-4.1045,37.97602],[-4.10327,37.97626],[-4.10324,37.97612],[-4.10292,37.97628],[-4.10254,37.97598],[-4.10238,37.97598],[-4.10183,37.97623],[-4.10104,37.97537],[-4.10129,37.97521],[-4.10072,37.97492],[-4.10083,37.97486],[-4.10074,37.97475],[-4.10059,37.97488],[-4.10037,37.97476],[-4.10053,37.97461],[-4.10015,37.97425],[-4.10026,37.97404],[-4.09906,37.9735],[-4.09886,37.97363],[-4.09872,37.9735],[-4.09849,37.97384],[-4.09794,37.97351],[-4.09807,37.9733],[-4.09752,37.97305],[-4.09732,37.97335],[-4.09678,37.97314],[-4.09692,37.97293],[-4.09675,37.97307],[-4.09634,37.97287],[-4.0964,37.97271],[-4.09501,37.97234]]]}},{"type":"Feature","properties":{"id":"2300702001"},"geometry":{"type":"Polygon","coordinates":[[[-4.10459,37.97529],[-4.10505,37.97495],[-4.10521,37.97463],[-4.10641,37.97402],[-4.1065,37.97377],[-4.10822,37.9743],[-4.10875,37.97408],[-4.10999,37.97384],[-4.11101,37.97384],[-4.11115,37.97377],[-4.11171,37.97295],[-4.11306,37.97331],[-4.11311,37.97366],[-4.11153,37.97408],[-4.11137,37.97437],[-4.11149,37.97439],[-4.11143,37.97452],[-4.11121,37.97446],[-4.11105,37.97463],[-4.11136,37.97476],[-4.11128,37.97486],[-4.11169,37.97526],[-4.11239,37.97436],[-4.1129,37.97486],[-4.11259,37.97507],[-4.11327,37.9753],[-4.113,37.97552],[-4.11427,37.97573],[-4.11499,37.97636],[-4.11606,37.97554],[-4.1163,37.97568],[-4.11516,37.9766],[-4.11601,37.97684],[-4.11492,37.97782],[-4.11261,37.97649],[-4.11228,37.97677],[-4.11206,37.97642],[-4.11089,37.97736],[-4.11002,37.97665],[-4.10974,37.97686],[-4.10918,37.97645],[-4.1089,37.97674],[-4.1087,37.97652],[-4.10813,37.97708],[-4.10784,37.97691],[-4.10814,37.97596],[-4.10775,37.97598],[-4.10698,37.97633],[-4.10678,37.97631],[-4.10536,37.97592],[-4.10459,37.97529]]]}},{"type":"Feature","properties":{"id":"2300702002"},"geometry":{"type":"Polygon","coordinates":[[[-4.06575,38.00012],[-4.06624,38.00013],[-4.07448,37.99239],[-4.08084,37.98418],[-4.08495,37.98079],[-4.0858,37.9792],[-4.08909,37.97645],[-4.08948,37.97596],[-4.09105,37.97543],[-4.09381,37.97411],[-4.09443,37.97338],[-4.09501,37.97234],[-4.0964,37.97271],[-4.09634,37.97287],[-4.09675,37.97307],[-4.09692,37.97293],[-4.09678,37.97314],[-4.09732,37.97335],[-4.09752,37.97305],[-4.09807,37.9733],[-4.09794,37.97351],[-4.09849,37.97384],[-4.09872,37.9735],[-4.09886,37.97363],[-4.09906,37.9735],[-4.10026,37.97404],[-4.10015,37.97425],[-4.10053,37.97461],[-4.10037,37.97476],[-4.10059,37.97488],[-4.10074,37.97475],[-4.10083,37.97486],[-4.10072,37.97492],[-4.10129,37.97521],[-4.10104,37.97537],[-4.10183,37.97623],[-4.10238,37.97598],[-4.10254,37.97598],[-4.10292,37.97628],[-4.10324,37.97612],[-4.10327,37.97626],[-4.1045,37.97602],[-4.10441,37.97581],[-4.10459,37.97529],[-4.10536,37.97592],[-4.10678,37.97631],[-4.10698,37.97633],[-4.10775,37.97598],[-4.10814,37.97596],[-4.10784,37.97691],[-4.10813,37.97708],[-4.1087,37.97652],[-4.1089,37.97674],[-4.10918,37.97645],[-4.10974,37.97686],[-4.11002,37.97665],[-4.11089,37.97736],[-4.11206,37.97642],[-4.11228,37.97677],[-4.11261,37.97649],[-4.11492,37.97782],[-4.11601,37.97684],[-4.11516,37.9766],[-4.1163,37.97568],[-4.11606,37.97554],[-4.11499,37.97636],[-4.11427,37.97573],[-4.113,37.97552],[-4.11327,37.9753],[-4.11259,37.97507],[-4.1129,37.97486],[-4.11239,37.97436],[-4.11169,37.97526],[-4.11128,37.97486],[-4.11136,37.97476],[-4.11105,37.97463],[-4.11121,37.97446],[-4.11143,37.97452],[-4.11149,37.97439],[-4.11137,37.97437],[-4.11153,37.97408],[-4.11311,37.97366],[-4.11306,37.97331],[-4.11171,37.97295],[-4.11115,37.97377],[-4.11101,37.97384],[-4.10999,37.97384],[-4.10875,37.97408],[-4.10822,37.9743],[-4.1065,37.97377],[-4.10748,37.97188],[-4.10845,37.97073],[-4.10857,37.97012],[-4.10833,37.96971],[-4.10831,37.96944],[-4.10665,37.96901],[-4.1017,37.97081],[-4.10149,37.97154],[-4.10185,37.97225],[-4.10186,37.97283],[-4.10151,37.97275],[-4.1015,37.9729],[-4.10106,37.97295],[-4.10086,37.97292],[-4.10082,37.97275],[-4.10031,37.97278],[-4.09911,37.97264],[-4.09813,37.97223],[-4.09835,37.97186],[-4.09693,37.97126],[-4.09716,37.97085],[-4.09574,37.9706],[-4.09589,37.97025],[-4.09698,37.96886],[-4.09981,37.96601],[-4.09997,37.96421],[-4.10684,37.9567],[-4.10711,37.95433],[-4.10945,37.95264],[-4.11317,37.94886],[-4.12727,37.94348],[-4.13046,37.94513],[-4.13641,37.94624],[-4.14456,37.94895],[-4.14587,37.95251],[-4.14518,37.95633],[-4.14755,37.95873],[-4.1497,37.96219],[-4.1526,37.9653],[-4.15539,37.96634],[-4.15636,37.96776],[-4.1589,37.97077],[-4.1607,37.97357],[-4.16242,37.9754],[-4.1641,37.97695],[-4.16452,37.97755],[-4.16474,37.97819],[-4.16547,37.97937],[-4.16582,37.98113],[-4.16881,37.98407],[-4.1726,37.98731],[-4.17189,37.98779],[-4.17051,37.9884],[-4.16979,37.9886],[-4.16887,37.98907],[-4.16831,37.98961],[-4.16641,37.99258],[-4.16465,37.99477],[-4.16221,37.99745],[-4.16133,37.99922],[-4.15692,37.99983],[-4.15653,38.00011],[-4.15305,38.00128],[-4.15336,38.0023],[-4.15428,38.00454],[-4.15312,38.00485],[-4.15217,38.00488],[-4.15125,38.00511],[-4.15044,38.00565],[-4.14911,38.00554],[-4.14874,38.00556],[-4.14812,38.0058],[-4.1478,38.00571],[-4.14694,38.0058],[-4.14572,38.00563],[-4.1444,38.00604],[-4.14412,38.00608],[-4.14347,38.00597],[-4.14258,38.0061],[-4.14204,38.0063],[-4.14136,38.00701],[-4.14093,38.00702],[-4.14064,38.0073],[-4.14046,38.00736],[-4.13971,38.00718],[-4.13818,38.00818],[-4.13667,38.00827],[-4.1354,38.00897],[-4.13536,38.00905],[-4.13555,38.00914],[-4.13557,38.00929],[-4.13539,38.00943],[-4.13398,38.00924],[-4.13387,38.00947],[-4.13417,38.00978],[-4.13388,38.0102],[-4.13274,38.01034],[-4.13226,38.01063],[-4.13193,38.01067],[-4.13071,38.0111],[-4.13043,38.01179],[-4.1298,38.01179],[-4.12981,38.01211],[-4.12939,38.01286],[-4.1292,38.01302],[-4.12855,38.01294],[-4.12837,38.01308],[-4.12855,38.01355],[-4.12821,38.01405],[-4.12831,38.01485],[-4.12825,38.01502],[-4.12795,38.01486],[-4.12778,38.0151],[-4.12777,38.01539],[-4.12817,38.01584],[-4.12802,38.01606],[-4.12786,38.01682],[-4.12763,38.01699],[-4.12756,38.01726],[-4.12761,38.0175],[-4.1281,38.01771],[-4.12816,38.01785],[-4.12791,38.01799],[-4.12783,38.01818],[-4.12782,38.01872],[-4.12739,38.01912],[-4.12661,38.01962],[-4.12675,38.01999],[-4.12668,38.02009],[-4.12592,38.02037],[-4.12554,38.02122],[-4.12536,38.02109],[-4.12519,38.02109],[-4.12424,38.02153],[-4.12404,38.02144],[-4.12388,38.02155],[-4.12376,38.02148],[-4.12376,38.02078],[-4.12384,38.02059],[-4.12471,38.01985],[-4.12467,38.01953],[-4.12451,38.01932],[-4.12359,38.01948],[-4.123,38.0197],[-4.12269,38.01969],[-4.12254,38.01958],[-4.12208,38.01874],[-4.12229,38.01838],[-4.12162,38.01744],[-4.1218,38.01695],[-4.12163,38.0164],[-4.12112,38.01629],[-4.12101,38.01619],[-4.12058,38.01638],[-4.12048,38.0162],[-4.12052,38.01583],[-4.1204,38.01564],[-4.12069,38.01534],[-4.12054,38.01505],[-4.11923,38.01445],[-4.11804,38.01419],[-4.11771,38.01394],[-4.11769,38.01432],[-4.11725,38.01452],[-4.11709,38.01471],[-4.11683,38.01475],[-4.11606,38.01434],[-4.11532,38.01468],[-4.11517,38.01457],[-4.11494,38.01464],[-4.11469,38.01412],[-4.11445,38.01385],[-4.11457,38.01369],[-4.11454,38.01354],[-4.11503,38.01325],[-4.11523,38.01329],[-4.11545,38.01321],[-4.11532,38.01283],[-4.11498,38.01267],[-4.11398,38.01252],[-4.11367,38.01256],[-4.11344,38.01275],[-4.11311,38.01257],[-4.11288,38.0123],[-4.11282,38.0119],[-4.11291,38.01161],[-4.11281,38.01139],[-4.11251,38.01138],[-4.11226,38.01121],[-4.11198,38.01118],[-4.11185,38.01099],[-4.11128,38.01124],[-4.11097,38.01115],[-4.11048,38.01077],[-4.10983,38.01051],[-4.11013,38.00988],[-4.11013,38.00966],[-4.10985,38.00954],[-4.10951,38.00951],[-4.10902,38.0096],[-4.10872,38.00954],[-4.10788,38.00988],[-4.10719,38.00988],[-4.10649,38.0101],[-4.10506,38.00979],[-4.10342,38.00978],[-4.10089,38.01109],[-4.10041,38.01142],[-4.09998,38.01148],[-4.09911,38.01109],[-4.09743,38.01204],[-4.09586,38.01246],[-4.0954,38.01223],[-4.09512,38.01227],[-4.09449,38.01212],[-4.09453,38.01191],[-4.09477,38.01172],[-4.09503,38.01171],[-4.09503,38.01155],[-4.09517,38.01142],[-4.09517,38.01123],[-4.09494,38.0109],[-4.09504,38.01064],[-4.09495,38.01038],[-4.09455,38.00982],[-4.09429,38.00972],[-4.09402,38.00984],[-4.09376,38.01033],[-4.09354,38.0105],[-4.09321,38.01048],[-4.09283,38.01005],[-4.09247,38.00994],[-4.09243,38.00979],[-4.09307,38.00957],[-4.09327,38.00939],[-4.09343,38.00889],[-4.09322,38.0086],[-4.09289,38.00865],[-4.09188,38.0091],[-4.09155,38.009],[-4.09142,38.00875],[-4.09143,38.00839],[-4.09123,38.00829],[-4.09063,38.00862],[-4.09041,38.00897],[-4.09019,38.00912],[-4.08972,38.00918],[-4.08966,38.00936],[-4.08938,38.00951],[-4.08898,38.00949],[-4.08872,38.00936],[-4.08799,38.00929],[-4.0875,38.00899],[-4.08681,38.00888],[-4.08631,38.00827],[-4.08587,38.00844],[-4.08567,38.00869],[-4.08559,38.00957],[-4.08549,38.00969],[-4.08502,38.00945],[-4.08428,38.00953],[-4.08343,38.00922],[-4.08316,38.00893],[-4.08321,38.0084],[-4.08255,38.00825],[-4.0822,38.00795],[-4.08191,38.00788],[-4.08176,38.00806],[-4.08096,38.00835],[-4.08068,38.00816],[-4.08096,38.00763],[-4.08076,38.00743],[-4.08029,38.00721],[-4.07981,38.00715],[-4.07959,38.00657],[-4.07925,38.00643],[-4.07924,38.00589],[-4.07849,38.00494],[-4.07751,38.00397],[-4.07741,38.00361],[-4.07602,38.00283],[-4.07496,38.00248],[-4.0745,38.00241],[-4.07335,38.00246],[-4.07255,38.00212],[-4.07133,38.00133],[-4.06926,38.00062],[-4.06888,38.00033],[-4.06868,38.00034],[-4.06821,38.00093],[-4.06679,38.00104],[-4.06656,38.00119],[-4.06639,38.00118],[-4.0663,38.00128],[-4.06639,38.0016],[-4.06607,38.00179],[-4.06583,38.00176],[-4.06522,38.00134],[-4.06512,38.0011],[-4.06514,38.00093],[-4.06575,38.00012]]]}}]}