{"type":"FeatureCollection","features":[{"type":"Feature","properties":{"id":"2301001001"},"geometry":{"type":"Polygon","coordinates":[[[-3.77439,38.09725],[-3.77421,38.09659],[-3.77353,38.09658],[-3.77348,38.09646],[-3.77343,38.09616],[-3.7736,38.09541],[-3.7732,38.09428],[-3.77276,38.09389],[-3.77257,38.0925],[-3.77432,38.09252],[-3.77457,38.09299],[-3.77498,38.09279],[-3.77568,38.09311],[-3.77597,38.09312],[-3.77627,38.09328],[-3.77651,38.09373],[-3.77703,38.09591],[-3.77593,38.09613],[-3.77571,38.09629],[-3.77609,38.0966],[-3.77588,38.09676],[-3.77593,38.09686],[-3.77544,38.09708],[-3.7747,38.09765],[-3.77439,38.09725]]]}},{"type":"Feature","properties":{"id":"2301001002"},"geometry":{"type":"Polygon","coordinates":[[[-3.77257,38.0925],[-3.77276,38.09389],[-3.7732,38.09428],[-3.7736,38.09541],[-3.77343,38.09616],[-3.77348,38.09646],[-3.77353,38.09658],[-3.77421,38.09659],[-3.7744,38.09725],[-3.77405,38.0974],[-3.77367,38.09774],[-3.77355,38.09801],[-3.77257,38.09776],[-3.7728,38.09717],[-3.7725,38.09719],[-3.77209,38.0975],[-3.77199,38.09741],[-3.77192,38.09745],[-3.77166,38.09649],[-3.77071,38.09724],[-3.77017,38.09706],[-3.77069,38.09614],[-3.76991,38.09599],[-3.7701,38.0956],[-3.76807,38.09531],[-3.76999,38.09251],[-3.77068,38.09262],[-3.77257,38.0925]]]}},{"type":"Feature","properties":{"id":"2301002001"},"geometry":{"type":"Polygon","coordinates":[[[-3.77803,38.10053],[-3.77824,38.10047],[-3.77821,38.10039],[-3.77732,38.09962],[-3.77701,38.0976],[-3.77796,38.09764],[-3.77873,38.09759],[-3.7789,38.09751],[-3.78181,38.10102],[-3.78236,38.102],[-3.78031,38.10122],[-3.77803,38.10053]]]}},{"type":"Feature","properties":{"id":"2301002002"},"geometry":{"type":"Polygon","coordinates":[[[-3.77502,38.09825],[-3.77621,38.09779],[-3.77701,38.0976],[-3.77732,38.09962],[-3.77824,38.10047],[-3.77782,38.10058],[-3.77747,38.10024],[-3.77617,38.10045],[-3.77602,38.10007],[-3.7731,38.10057],[-3.77286,38.10146],[-3.77265,38.10025],[-3.77295,38.10025],[-3.77294,38.0998],[-3.77361,38.09975],[-3.77348,38.09905],[-3.77517,38.0986],[-3.77502,38.09825]]]}},{"type":"Feature","properties":{"id":"2301002003"},"geometry":{"type":"Polygon","coordinates":[[[-3.73634,38.14676],[-3.72773,38.14324],[-3.72453,38.14169],[-3.71703,38.13782],[-3.71502,38.13645],[-3.71026,38.13201],[-3.70799,38.13006],[-3.70639,38.12826],[-3.7066,38.12773],[-3.70703,38.12726],[-3.70753,38.1262],[-3.70854,38.1225],[-3.70908,38.12116],[-3.71104,38.11719],[-3.71208,38.11459],[-3.71332,38.11198],[-3.71349,38.11058],[-3.71349,38.1086],[-3.71364,38.10692],[-3.71462,38.10516],[-3.71495,38.10487],[-3.71863,38.10026],[-3.71917,38.09889],[-3.71929,38.09829],[-3.71927,38.0974],[-3.71855,38.09561],[-3.7178,38.0941],[-3.71716,38.09212],[-3.71616,38.09114],[-3.71513,38.09052],[-3.71343,38.0893],[-3.71202,38.08763],[-3.71189,38.08716],[-3.71205,38.08633],[-3.71302,38.08398],[-3.71306,38.08352],[-3.71272,38.08305],[-3.71144,38.08228],[-3.71108,38.08198],[-3.71082,38.08159],[-3.71074,38.08116],[-3.71087,38.07914],[-3.71158,38.07828],[-3.71343,38.07711],[-3.71526,38.07684],[-3.71822,38.07577],[-3.72027,38.07521],[-3.72367,38.07452],[-3.72602,38.07427],[-3.72705,38.07402],[-3.72731,38.07384],[-3.72781,38.07311],[-3.72923,38.0707],[-3.73194,38.06763],[-3.73295,38.06679],[-3.73413,38.06512],[-3.73508,38.06413],[-3.73624,38.06355],[-3.73779,38.06341],[-3.73855,38.06313],[-3.7393,38.06278],[-3.74008,38.06222],[-3.74093,38.06119],[-3.74151,38.05943],[-3.74173,38.05903],[-3.7428,38.05767],[-3.74349,38.05709],[-3.74411,38.05665],[-3.74543,38.05619],[-3.74671,38.05654],[-3.74777,38.05652],[-3.74917,38.05687],[-3.74973,38.0569],[-3.75014,38.05683],[-3.75133,38.05626],[-3.75186,38.05577],[-3.75235,38.05498],[-3.75281,38.05293],[-3.75305,38.05234],[-3.75338,38.0519],[-3.75526,38.05046],[-3.75638,38.04906],[-3.75673,38.04829],[-3.75688,38.04578],[-3.75699,38.04543],[-3.75928,38.04382],[-3.76044,38.04236],[-3.76095,38.04143],[-3.76193,38.03879],[-3.76205,38.03772],[-3.76905,38.03561],[-3.76945,38.03556],[-3.77163,38.03565],[-3.77348,38.03563],[-3.77723,38.03533],[-3.7789,38.03502],[-3.78034,38.03461],[-3.78263,38.03379],[-3.79098,38.03158],[-3.79148,38.03152],[-3.79265,38.03151],[-3.7939,38.03162],[-3.8015,38.03326],[-3.8068,38.03307],[-3.80813,38.03317],[-3.81034,38.03302],[-3.81348,38.03265],[-3.81524,38.03265],[-3.81698,38.03299],[-3.81895,38.03366],[-3.82022,38.03429],[-3.82236,38.03607],[-3.82573,38.03933],[-3.82667,38.03988],[-3.82715,38.04001],[-3.82961,38.0401],[-3.83275,38.03999],[-3.83661,38.04002],[-3.84043,38.0397],[-3.8419,38.0398],[-3.84435,38.04039],[-3.84714,38.04079],[-3.84898,38.0409],[-3.84995,38.04085],[-3.85294,38.04031],[-3.85522,38.03961],[-3.85598,38.03953],[-3.85676,38.03959],[-3.85925,38.04063],[-3.86061,38.04151],[-3.86261,38.04243],[-3.86604,38.04364],[-3.86631,38.04378],[-3.86672,38.04421],[-3.86703,38.04436],[-3.86786,38.04432],[-3.86755,38.04488],[-3.86737,38.04547],[-3.86752,38.04731],[-3.86731,38.04788],[-3.86643,38.04922],[-3.86484,38.04988],[-3.86353,38.05059],[-3.86274,38.05129],[-3.86256,38.0516],[-3.86248,38.05205],[-3.86167,38.05284],[-3.86148,38.05404],[-3.861,38.05491],[-3.86057,38.05519],[-3.85963,38.05535],[-3.85919,38.05554],[-3.85874,38.05615],[-3.85776,38.05708],[-3.85644,38.05888],[-3.85601,38.05927],[-3.85517,38.05984],[-3.8543,38.06003],[-3.85353,38.06055],[-3.85312,38.06108],[-3.85277,38.06184],[-3.85249,38.06295],[-3.85229,38.06325],[-3.85127,38.06419],[-3.84975,38.06478],[-3.84843,38.06549],[-3.84797,38.06588],[-3.84694,38.06723],[-3.8464,38.06828],[-3.84612,38.06858],[-3.84576,38.06877],[-3.84325,38.06953],[-3.84077,38.07015],[-3.83776,38.07],[-3.83593,38.07034],[-3.83479,38.07045],[-3.82399,38.07081],[-3.82166,38.07507],[-3.82068,38.07725],[-3.82026,38.07864],[-3.81885,38.08144],[-3.81873,38.08351],[-3.81893,38.08631],[-3.81952,38.09025],[-3.81897,38.09184],[-3.81611,38.09767],[-3.81494,38.09955],[-3.81294,38.10361],[-3.81777,38.10765],[-3.81787,38.10785],[-3.81898,38.11694],[-3.8205,38.1235],[-3.82186,38.12654],[-3.82267,38.12967],[-3.82386,38.13341],[-3.82596,38.13683],[-3.82976,38.1413],[-3.83069,38.14219],[-3.83218,38.14398],[-3.83217,38.14531],[-3.83128,38.14575],[-3.82949,38.14732],[-3.82653,38.14947],[-3.82599,38.14982],[-3.82216,38.15179],[-3.82076,38.15275],[-3.81955,38.1538],[-3.81488,38.1525],[-3.80844,38.15041],[-3.80307,38.1485],[-3.79786,38.14696],[-3.77525,38.14942],[-3.77107,38.15014],[-3.76605,38.15027],[-3.76265,38.15017],[-3.76173,38.15025],[-3.75941,38.15067],[-3.75768,38.15113],[-3.75236,38.14903],[-3.75184,38.14895],[-3.74999,38.14919],[-3.74451,38.14873],[-3.74007,38.14773],[-3.73634,38.14676]],[[-3.78165,38.10085],[-3.78266,38.10059],[-3.7832,38.10068],[-3.78372,38.10056],[-3.7841,38.10038],[-3.78488,38.09979],[-3.78507,38.09848],[-3.78541,38.09758],[-3.78606,38.09746],[-3.78589,38.09684],[-3.78603,38.09683],[-3.78601,38.09656],[-3.78576,38.09601],[-3.78539,38.0955],[-3.7865,38.09439],[-3.78637,38.09369],[-3.78644,38.09352],[-3.78857,38.09301],[-3.7882,38.09133],[-3.78645,38.09095],[-3.78573,38.09068],[-3.78292,38.08995],[-3.78038,38.08942],[-3.77928,38.08906],[-3.77845,38.08895],[-3.77809,38.0894],[-3.77766,38.09118],[-3.77656,38.09165],[-3.77641,38.0919],[-3.77644,38.09249],[-3.77627,38.09328],[-3.77498,38.09279],[-3.77457,38.09299],[-3.77432,38.09252],[-3.77253,38.09249],[-3.77068,38.09262],[-3.76999,38.09251],[-3.76807,38.09531],[-3.7701,38.0956],[-3.76991,38.09599],[-3.77069,38.09614],[-3.77017,38.09706],[-3.77071,38.09724],[-3.77166,38.09649],[-3.77192,38.09745],[-3.77199,38.09741],[-3.77209,38.0975],[-3.7725,38.09719],[-3.7728,38.09717],[-3.77257,38.09776],[-3.77355,38.09801],[-3.77369,38.09772],[-3.77405,38.0974],[-3.77439,38.09725],[-3.7747,38.09765],[-3.77463,38.09774],[-3.77502,38.09825],[-3.77517,38.0986],[-3.77348,38.09905],[-3.77361,38.09975],[-3.77294,38.0998],[-3.77295,38.10025],[-3.77265,38.10025],[-3.77286,38.10146],[-3.7731,38.10057],[-3.77602,38.10007],[-3.77617,38.10045],[-3.77747,38.10024],[-3.77782,38.10058],[-3.77803,38.10053],[-3.78031,38.10122],[-3.78236,38.102],[-3.78165,38.10085]]]}},{"type":"Feature","properties":{"id":"2301003001"},"geometry":{"type":"Polygon","coordinates":[[[-3.77973,38.09848],[-3.78066,38.09794],[-3.78125,38.09795],[-3.78269,38.09752],[-3.78306,38.09828],[-3.78398,38.09815],[-3.7839,38.0979],[-3.78541,38.09758],[-3.78507,38.09848],[-3.78488,38.09979],[-3.7841,38.10038],[-3.78336,38.10065],[-3.78266,38.10059],[-3.78165,38.10085],[-3.77973,38.09848]]]}},{"type":"Feature","properties":{"id":"2301003002"},"geometry":{"type":"Polygon","coordinates":[[[-3.77463,38.09774],[-3.77544,38.09708],[-3.77593,38.09686],[-3.77588,38.09676],[-3.77609,38.0966],[-3.77571,38.09629],[-3.77593,38.09613],[-3.77704,38.09591],[-3.77811,38.09546],[-3.77826,38.09572],[-3.7788,38.09554],[-3.77893,38.09561],[-3.7813,38.09482],[-3.78167,38.09554],[-3.78133,38.09618],[-3.77979,38.0969],[-3.77962,38.09676],[-3.7787,38.09725],[-3.7789,38.09751],[-3.77873,38.09759],[-3.77696,38.0976],[-3.77621,38.09779],[-3.77502,38.09825],[-3.77463,38.09774]]]}},{"type":"Feature","properties":{"id":"2301003003"},"geometry":{"type":"Polygon","coordinates":[[[-3.78223,38.09664],[-3.7813,38.09482],[-3.78121,38.09481],[-3.78139,38.09462],[-3.7818,38.09455],[-3.78181,38.09432],[-3.78142,38.09429],[-3.78121,38.09403],[-3.78084,38.09307],[-3.78053,38.09191],[-3.78063,38.09126],[-3.78054,38.09071],[-3.77992,38.0906],[-3.77954,38.09039],[-3.78013,38.08989],[-3.78038,38.08942],[-3.78255,38.08986],[-3.78278,38.09125],[-3.78421,38.0943],[-3.7831,38.09462],[-3.78318,38.09552],[-3.78493,38.09581],[-3.78481,38.09591],[-3.78333,38.09625],[-3.78223,38.09664]]]}},{"type":"Feature","properties":{"id":"2301003004"},"geometry":{"type":"Polygon","coordinates":[[[-3.77651,38.09373],[-3.7781,38.09359],[-3.77936,38.09359],[-3.78089,38.0932],[-3.78121,38.09403],[-3.78142,38.09429],[-3.78181,38.09432],[-3.7818,38.09455],[-3.78139,38.09462],[-3.78123,38.09484],[-3.77905,38.09558],[-3.77884,38.09563],[-3.7788,38.09554],[-3.77826,38.09572],[-3.77811,38.09546],[-3.77703,38.09591],[-3.77651,38.09373]]]}},{"type":"Feature","properties":{"id":"2301003005"},"geometry":{"type":"Polygon","coordinates":[[[-3.78255,38.08986],[-3.78573,38.09068],[-3.78645,38.09095],[-3.7882,38.09133],[-3.78857,38.09301],[-3.78644,38.09352],[-3.78637,38.09369],[-3.7865,38.09439],[-3.78561,38.09535],[-3.78493,38.09581],[-3.78318,38.09552],[-3.7831,38.09462],[-3.78421,38.0943],[-3.78278,38.09125],[-3.78255,38.08986]]]}},{"type":"Feature","properties":{"id":"2301003006"},"geometry":{"type":"Polygon","coordinates":[[[-3.77973,38.09848],[-3.7787,38.09725],[-3.77962,38.09676],[-3.77979,38.0969],[-3.78133,38.09618],[-3.78167,38.09554],[-3.78223,38.09664],[-3.78333,38.09625],[-3.78481,38.09591],[-3.78539,38.0955],[-3.78576,38.09601],[-3.78601,38.09656],[-3.78603,38.09683],[-3.78589,38.09684],[-3.78606,38.09746],[-3.7844,38.09776],[-3.7839,38.0979],[-3.78398,38.09815],[-3.78339,38.09823],[-3.78306,38.09828],[-3.78269,38.09752],[-3.78125,38.09795],[-3.78066,38.09794],[-3.77973,38.09848]]]}},{"type":"Feature","properties":{"id":"2301003007"},"geometry":{"type":"Polygon","coordinates":[[[-3.77651,38.09373],[-3.77627,38.09328],[-3.77644,38.09249],[-3.77641,38.0919],[-3.77656,38.09165],[-3.77766,38.09118],[-3.77809,38.0894],[-3.77845,38.08895],[-3.77928,38.08906],[-3.7804,38.08938],[-3.78013,38.08989],[-3.77954,38.09039],[-3.77992,38.0906],[-3.78054,38.09071],[-3.78063,38.09126],[-3.78053,38.09191],[-3.78089,38.0932],[-3.77936,38.09359],[-3.7781,38.09359],[-3.77651,38.09373]]]}}]}