{"type":"FeatureCollection","features":[{"type":"Feature","properties":{"id":"2301701001"},"geometry":{"type":"Polygon","coordinates":[[[-3.22569,37.83164],[-3.22616,37.83098],[-3.22646,37.83033],[-3.2264,37.82991],[-3.22552,37.82882],[-3.22182,37.8229],[-3.22133,37.82241],[-3.22053,37.82186],[-3.22035,37.82157],[-3.22361,37.81683],[-3.22362,37.81646],[-3.22317,37.81195],[-3.22288,37.81041],[-3.22146,37.80745],[-3.22073,37.80403],[-3.22041,37.80196],[-3.22148,37.79873],[-3.22333,37.79463],[-3.22413,37.79314],[-3.2246,37.79184],[-3.22522,37.78783],[-3.22541,37.78346],[-3.22525,37.77783],[-3.2251,37.77617],[-3.22508,37.77239],[-3.22488,37.76988],[-3.22488,37.76752],[-3.22498,37.76653],[-3.22553,37.76534],[-3.22692,37.76315],[-3.2271,37.76262],[-3.22709,37.76199],[-3.23012,37.76073],[-3.23091,37.76027],[-3.23175,37.75922],[-3.23246,37.75797],[-3.2334,37.75495],[-3.23381,37.75324],[-3.23391,37.7514],[-3.23376,37.74987],[-3.23294,37.74717],[-3.22994,37.74229],[-3.22777,37.74016],[-3.22575,37.73917],[-3.22477,37.73846],[-3.22387,37.73798],[-3.22336,37.73778],[-3.22166,37.7378],[-3.22078,37.73743],[-3.21952,37.7373],[-3.21768,37.73666],[-3.21681,37.73645],[-3.21575,37.73649],[-3.21423,37.73677],[-3.21298,37.73677],[-3.21026,37.73626],[-3.20944,37.73602],[-3.20901,37.73598],[-3.20799,37.73627],[-3.20744,37.73627],[-3.2065,37.73567],[-3.20556,37.73488],[-3.20475,37.73446],[-3.20349,37.73331],[-3.20203,37.73321],[-3.20026,37.73253],[-3.19965,37.73202],[-3.19903,37.73077],[-3.19848,37.72907],[-3.19829,37.72812],[-3.19727,37.72744],[-3.19708,37.7264],[-3.19191,37.72301],[-3.19162,37.72236],[-3.1903,37.72176],[-3.19011,37.72148],[-3.18998,37.72084],[-3.18969,37.72042],[-3.18904,37.71997],[-3.18762,37.71909],[-3.18427,37.71793],[-3.18274,37.71733],[-3.18229,37.71705],[-3.1806,37.71487],[-3.17901,37.71259],[-3.17783,37.71127],[-3.17641,37.70989],[-3.1748,37.70738],[-3.17186,37.70379],[-3.17123,37.70274],[-3.17075,37.70149],[-3.16998,37.7003],[-3.16764,37.69593],[-3.16658,37.69433],[-3.16606,37.69323],[-3.16543,37.69054],[-3.16509,37.68972],[-3.16456,37.689],[-3.16401,37.687],[-3.16368,37.68641],[-3.16188,37.68408],[-3.16035,37.68108],[-3.16127,37.67751],[-3.16122,37.67642],[-3.16139,37.67559],[-3.16267,37.67285],[-3.16431,37.66985],[-3.16451,37.6692],[-3.16423,37.66677],[-3.16469,37.66502],[-3.16567,37.66293],[-3.16569,37.66182],[-3.16481,37.66014],[-3.16454,37.65987],[-3.16328,37.65907],[-3.16278,37.65861],[-3.1625,37.65793],[-3.16206,37.65628],[-3.16187,37.65596],[-3.15999,37.6543],[-3.1595,37.6536],[-3.15883,37.65289],[-3.15862,37.65251],[-3.15778,37.64961],[-3.15768,37.64729],[-3.15778,37.64474],[-3.15749,37.64168],[-3.15738,37.64143],[-3.15548,37.63908],[-3.15496,37.6383],[-3.1546,37.63749],[-3.1541,37.63541],[-3.15387,37.63517],[-3.15362,37.63506],[-3.15244,37.63494],[-3.15219,37.63478],[-3.15171,37.63333],[-3.15102,37.63226],[-3.15069,37.63203],[-3.14966,37.63161],[-3.14942,37.63131],[-3.14913,37.63055],[-3.14887,37.62887],[-3.14855,37.6277],[-3.14824,37.62667],[-3.14783,37.62592],[-3.14968,37.62611],[-3.15047,37.62635],[-3.15226,37.62746],[-3.15426,37.62916],[-3.15475,37.6298],[-3.15611,37.63055],[-3.15726,37.63133],[-3.16096,37.63468],[-3.16422,37.63723],[-3.16797,37.63915],[-3.16916,37.6404],[-3.17061,37.64146],[-3.1711,37.64194],[-3.17184,37.64236],[-3.17206,37.64287],[-3.18012,37.64394],[-3.18108,37.64414],[-3.18393,37.64441],[-3.18639,37.64449],[-3.18874,37.64437],[-3.19215,37.64434],[-3.19462,37.6439],[-3.19591,37.64391],[-3.19906,37.64369],[-3.20262,37.64408],[-3.20447,37.64384],[-3.20579,37.64378],[-3.2083,37.64432],[-3.20876,37.64434],[-3.21305,37.64373],[-3.21415,37.64372],[-3.21519,37.64411],[-3.21575,37.64419],[-3.2168,37.64393],[-3.21846,37.64305],[-3.21932,37.64282],[-3.21979,37.64262],[-3.21992,37.64247],[-3.22095,37.6421],[-3.22147,37.64169],[-3.22239,37.64059],[-3.2247,37.63991],[-3.2258,37.63925],[-3.22637,37.63917],[-3.22826,37.63919],[-3.23353,37.63801],[-3.2378,37.63861],[-3.24368,37.63913],[-3.26249,37.63921],[-3.26296,37.63564],[-3.26289,37.63536],[-3.26221,37.63453],[-3.26112,37.63371],[-3.26112,37.63335],[-3.26148,37.63294],[-3.26333,37.63181],[-3.26351,37.63161],[-3.2638,37.62942],[-3.26655,37.62577],[-3.26726,37.62495],[-3.26954,37.62253],[-3.27172,37.62054],[-3.27313,37.61842],[-3.27458,37.61771],[-3.2756,37.6174],[-3.27593,37.6174],[-3.2764,37.61713],[-3.27762,37.61609],[-3.27951,37.61513],[-3.28031,37.6145],[-3.28139,37.61324],[-3.28266,37.61099],[-3.28341,37.60994],[-3.28508,37.60861],[-3.28611,37.60762],[-3.28878,37.60395],[-3.28864,37.60283],[-3.28907,37.59987],[-3.28943,37.59841],[-3.29039,37.59653],[-3.29047,37.5957],[-3.2908,37.59448],[-3.29115,37.59398],[-3.29152,37.59379],[-3.29207,37.59307],[-3.29255,37.59273],[-3.29303,37.59195],[-3.29347,37.59174],[-3.29399,37.59114],[-3.29534,37.59052],[-3.29565,37.59028],[-3.29587,37.58996],[-3.29574,37.58889],[-3.29584,37.5886],[-3.29623,37.58825],[-3.29693,37.58796],[-3.29899,37.58993],[-3.30171,37.59336],[-3.30104,37.5989],[-3.30511,37.60797],[-3.30481,37.61033],[-3.30618,37.61301],[-3.30713,37.61446],[-3.30768,37.61658],[-3.30865,37.61919],[-3.30852,37.62256],[-3.30992,37.62466],[-3.31055,37.62702],[-3.31128,37.62914],[-3.31151,37.63025],[-3.31164,37.63274],[-3.31223,37.63555],[-3.30635,37.64596],[-3.30516,37.66681],[-3.30536,37.66798],[-3.30573,37.66893],[-3.30732,37.6721],[-3.30868,37.67576],[-3.30928,37.67775],[-3.3115,37.68285],[-3.31313,37.68698],[-3.31353,37.68835],[-3.3138,37.69056],[-3.31368,37.69194],[-3.31386,37.69609],[-3.31376,37.69931],[-3.31347,37.70031],[-3.31121,37.70581],[-3.30998,37.70833],[-3.30896,37.71005],[-3.30785,37.71239],[-3.30671,37.7151],[-3.30381,37.72077],[-3.30227,37.7248],[-3.30185,37.72629],[-3.30104,37.73046],[-3.29986,37.73851],[-3.30129,37.7403],[-3.30826,37.74988],[-3.30877,37.75019],[-3.30827,37.75059],[-3.30732,37.75177],[-3.30597,37.75253],[-3.30462,37.75294],[-3.29659,37.75477],[-3.29332,37.75578],[-3.28667,37.75702],[-3.28483,37.75748],[-3.28224,37.75843],[-3.27363,37.76057],[-3.27109,37.76142],[-3.27113,37.76378],[-3.26931,37.77629],[-3.26894,37.78075],[-3.26829,37.783],[-3.26811,37.78756],[-3.26818,37.79093],[-3.26847,37.79298],[-3.26863,37.79561],[-3.26865,37.80092],[-3.26902,37.80486],[-3.26942,37.80601],[-3.27038,37.80805],[-3.27117,37.81083],[-3.27136,37.81193],[-3.27356,37.81964],[-3.27206,37.81979],[-3.26806,37.82065],[-3.25935,37.82208],[-3.25519,37.82255],[-3.2534,37.82252],[-3.2492,37.82287],[-3.24161,37.82391],[-3.2407,37.82414],[-3.2399,37.82449],[-3.23863,37.82543],[-3.2368,37.82565],[-3.23485,37.82571],[-3.23256,37.82561],[-3.23176,37.82593],[-3.22927,37.82732],[-3.22871,37.8281],[-3.2283,37.82919],[-3.22788,37.83086],[-3.2276,37.8314],[-3.22707,37.83159],[-3.22633,37.83168],[-3.22569,37.83164]],[[-3.28707,37.70694],[-3.28762,37.70737],[-3.28802,37.70746],[-3.28841,37.70725],[-3.28868,37.70686],[-3.28837,37.70624],[-3.28953,37.70656],[-3.29,37.70664],[-3.29054,37.70659],[-3.29069,37.70628],[-3.29079,37.7056],[-3.29112,37.70549],[-3.29163,37.7049],[-3.29238,37.70468],[-3.29216,37.70447],[-3.29078,37.70427],[-3.29037,37.70437],[-3.28982,37.70506],[-3.28584,37.70469],[-3.28465,37.7048],[-3.28262,37.70479],[-3.28269,37.70597],[-3.28306,37.70648],[-3.28421,37.70683],[-3.28539,37.70687],[-3.28592,37.70676],[-3.28663,37.70643],[-3.28707,37.70694]]]}},{"type":"Feature","properties":{"id":"2301702001"},"geometry":{"type":"Polygon","coordinates":[[[-3.28707,37.70694],[-3.28663,37.70643],[-3.28592,37.70676],[-3.28539,37.70687],[-3.28421,37.70683],[-3.28306,37.70648],[-3.28269,37.70597],[-3.28262,37.70479],[-3.28465,37.7048],[-3.28584,37.70469],[-3.28982,37.70506],[-3.29037,37.70437],[-3.29078,37.70427],[-3.29216,37.70447],[-3.29238,37.70468],[-3.29163,37.7049],[-3.29112,37.70549],[-3.29079,37.7056],[-3.29069,37.70628],[-3.29054,37.70659],[-3.29,37.70664],[-3.28953,37.70656],[-3.28837,37.70624],[-3.28868,37.70686],[-3.28841,37.70725],[-3.28802,37.70746],[-3.28762,37.70737],[-3.28707,37.70694]]]}}]}