{"type":"FeatureCollection","features":[{"type":"Feature","properties":{"id":"2302001001"},"geometry":{"type":"Polygon","coordinates":[[[-3.50499,38.07334],[-3.50187,38.07306],[-3.49981,38.07305],[-3.4958,38.07368],[-3.49523,38.07362],[-3.49347,38.07248],[-3.49104,38.0705],[-3.48558,38.06562],[-3.48488,38.06536],[-3.4835,38.0654],[-3.48282,38.06554],[-3.48224,38.06528],[-3.47846,38.06104],[-3.47715,38.05939],[-3.47657,38.05835],[-3.47667,38.05759],[-3.47777,38.05557],[-3.4789,38.05414],[-3.478,38.05376],[-3.47561,38.05235],[-3.47667,38.04863],[-3.47687,38.04875],[-3.47765,38.04874],[-3.47903,38.04846],[-3.47946,38.04849],[-3.47999,38.04857],[-3.48069,38.04884],[-3.48123,38.04863],[-3.48164,38.0487],[-3.4815,38.0484],[-3.48175,38.04826],[-3.48248,38.04846],[-3.48293,38.0484],[-3.48338,38.04765],[-3.48386,38.04722],[-3.48434,38.04627],[-3.48315,38.04608],[-3.47892,38.04516],[-3.47628,38.04487],[-3.47586,38.0443],[-3.47563,38.04351],[-3.47558,38.04216],[-3.47531,38.04094],[-3.47444,38.03952],[-3.47479,38.0389],[-3.47529,38.03865],[-3.47635,38.03854],[-3.47813,38.03906],[-3.47882,38.03915],[-3.47964,38.03856],[-3.48032,38.03788],[-3.4813,38.03735],[-3.48238,38.03721],[-3.48397,38.0377],[-3.48627,38.03866],[-3.49013,38.04069],[-3.49049,38.04076],[-3.49246,38.03992],[-3.49346,38.04088],[-3.49397,38.04088],[-3.49428,38.0407],[-3.49752,38.03785],[-3.49799,38.03815],[-3.49849,38.0387],[-3.49925,38.03984],[-3.50033,38.04117],[-3.50101,38.04186],[-3.5024,38.04286],[-3.50319,38.04324],[-3.50452,38.04354],[-3.50657,38.04415],[-3.50792,38.04487],[-3.50959,38.04641],[-3.51042,38.04842],[-3.51103,38.04883],[-3.5119,38.0497],[-3.5127,38.05003],[-3.51396,38.05018],[-3.5162,38.05013],[-3.51707,38.05032],[-3.518,38.0508],[-3.51887,38.05155],[-3.52096,38.05371],[-3.52305,38.05634],[-3.52464,38.05865],[-3.52727,38.06163],[-3.52847,38.06329],[-3.5302,38.06662],[-3.53037,38.06737],[-3.53062,38.06785],[-3.53236,38.0705],[-3.53345,38.07267],[-3.53361,38.07395],[-3.53216,38.07602],[-3.53127,38.0775],[-3.52881,38.08095],[-3.52828,38.08073],[-3.524,38.07753],[-3.52263,38.07775],[-3.52095,38.07827],[-3.52018,38.07863],[-3.51912,38.07874],[-3.5183,38.07864],[-3.51666,38.0779],[-3.51241,38.07533],[-3.51123,38.07474],[-3.50499,38.07334]]]}},{"type":"Feature","properties":{"id":"2302001002"},"geometry":{"type":"Polygon","coordinates":[[[-3.47667,38.04863],[-3.47719,38.04628],[-3.47628,38.04487],[-3.47892,38.04516],[-3.48315,38.04608],[-3.48434,38.04627],[-3.48386,38.04722],[-3.48338,38.04765],[-3.48293,38.0484],[-3.48248,38.04846],[-3.48175,38.04826],[-3.4815,38.0484],[-3.48164,38.0487],[-3.48123,38.04863],[-3.48069,38.04884],[-3.47999,38.04857],[-3.47946,38.04849],[-3.47903,38.04846],[-3.47765,38.04874],[-3.47687,38.04875],[-3.47667,38.04863]]]}}]}