{"type":"FeatureCollection","features":[{"type":"Feature","properties":{"id":"2304901001"},"geometry":{"type":"Polygon","coordinates":[[[-3.68845,38.00217],[-3.69181,38.00021],[-3.69265,37.99997],[-3.69501,37.99899],[-3.69823,37.99843],[-3.6995,37.99799],[-3.70031,37.99757],[-3.70104,37.99706],[-3.70274,37.99523],[-3.7038,37.99444],[-3.70734,37.9922],[-3.70874,37.99087],[-3.71117,37.98788],[-3.71233,37.98696],[-3.71307,37.98675],[-3.71697,37.98702],[-3.72024,37.98702],[-3.72409,37.9872],[-3.72649,37.98712],[-3.73028,37.98577],[-3.73152,37.98561],[-3.73355,37.98563],[-3.7373,37.98612],[-3.73836,37.98644],[-3.7422,37.98845],[-3.74405,37.98928],[-3.74493,37.98953],[-3.74596,37.98968],[-3.74703,37.9897],[-3.7484,37.98954],[-3.75002,37.98919],[-3.75138,37.98877],[-3.75226,37.98839],[-3.75295,37.98794],[-3.75341,37.98737],[-3.7554,37.98373],[-3.75616,37.98283],[-3.76164,37.97895],[-3.76308,37.97813],[-3.76471,37.9776],[-3.76629,37.9772],[-3.76761,37.97706],[-3.76901,37.97711],[-3.77,37.97731],[-3.77099,37.97763],[-3.77189,37.97824],[-3.77303,37.97945],[-3.77592,37.98352],[-3.77692,37.98456],[-3.77815,37.9853],[-3.77942,37.9857],[-3.78197,37.98626],[-3.78266,37.98632],[-3.78413,37.98627],[-3.78623,37.98609],[-3.78911,37.98689],[-3.79024,37.98693],[-3.79145,37.98674],[-3.79284,37.98645],[-3.79931,37.98426],[-3.80265,37.98275],[-3.80415,37.98221],[-3.8052,37.9819],[-3.80617,37.98178],[-3.80705,37.9818],[-3.80781,37.98201],[-3.8086,37.98243],[-3.80911,37.98293],[-3.80941,37.98358],[-3.80949,37.98435],[-3.80942,37.9853],[-3.80906,37.98663],[-3.80858,37.9877],[-3.80763,37.98881],[-3.80717,37.98968],[-3.80677,37.99081],[-3.80651,37.99236],[-3.80649,37.99407],[-3.80665,37.99524],[-3.80697,37.99679],[-3.8081,38.00015],[-3.80823,38.00149],[-3.80827,38.0049],[-3.80786,38.00637],[-3.80691,38.0073],[-3.80624,38.00817],[-3.80532,38.00897],[-3.80464,38.00979],[-3.80408,38.01081],[-3.80401,38.01131],[-3.80419,38.01207],[-3.80449,38.01266],[-3.80481,38.01285],[-3.80545,38.01302],[-3.80619,38.013],[-3.80841,38.01269],[-3.81047,38.01256],[-3.81141,38.01228],[-3.81285,38.01156],[-3.81652,38.00942],[-3.81706,38.0092],[-3.8181,38.00851],[-3.81976,38.008],[-3.82044,38.00805],[-3.82147,38.0084],[-3.82232,38.00899],[-3.82282,38.00951],[-3.8232,38.01008],[-3.82376,38.01137],[-3.82481,38.01259],[-3.82457,38.01424],[-3.82472,38.01753],[-3.8245,38.01929],[-3.82457,38.01973],[-3.82482,38.02013],[-3.82549,38.02057],[-3.82792,38.02124],[-3.82873,38.02155],[-3.82953,38.02208],[-3.8299,38.02244],[-3.83061,38.0233],[-3.83099,38.02396],[-3.83154,38.02459],[-3.83209,38.02496],[-3.83396,38.02593],[-3.83461,38.0262],[-3.8364,38.02667],[-3.83695,38.02697],[-3.83491,38.03041],[-3.83392,38.03259],[-3.83369,38.03369],[-3.83319,38.03497],[-3.83202,38.03695],[-3.83162,38.03847],[-3.8315,38.04004],[-3.82961,38.0401],[-3.82715,38.04001],[-3.82667,38.03988],[-3.82573,38.03933],[-3.82236,38.03607],[-3.82022,38.03429],[-3.81895,38.03366],[-3.81698,38.03299],[-3.81568,38.0327],[-3.81348,38.03265],[-3.81034,38.03302],[-3.80813,38.03317],[-3.8068,38.03307],[-3.8015,38.03326],[-3.7939,38.03162],[-3.79265,38.03151],[-3.79098,38.03158],[-3.78263,38.03379],[-3.78034,38.03461],[-3.7789,38.03502],[-3.77723,38.03533],[-3.77348,38.03563],[-3.77163,38.03565],[-3.76945,38.03556],[-3.76905,38.03561],[-3.76205,38.03772],[-3.76142,38.038],[-3.76025,38.03876],[-3.75796,38.04104],[-3.75651,38.04264],[-3.75386,38.04591],[-3.75166,38.04846],[-3.75119,38.04986],[-3.75096,38.05023],[-3.74997,38.05099],[-3.74745,38.05242],[-3.73761,38.05715],[-3.73327,38.05892],[-3.73068,38.05934],[-3.72973,38.06011],[-3.729,38.06048],[-3.72837,38.06053],[-3.72674,38.05943],[-3.72499,38.05772],[-3.72426,38.05682],[-3.72378,38.05647],[-3.72241,38.05571],[-3.71812,38.05444],[-3.71733,38.0541],[-3.71485,38.05242],[-3.71431,38.05215],[-3.7126,38.05174],[-3.70973,38.05143],[-3.70762,38.05067],[-3.7058,38.0499],[-3.70273,38.04907],[-3.70118,38.04856],[-3.70067,38.04848],[-3.69806,38.04899],[-3.69634,38.04922],[-3.69541,38.04898],[-3.69304,38.04692],[-3.68858,38.04387],[-3.68729,38.04262],[-3.68657,38.04177],[-3.68548,38.0408],[-3.68591,38.03919],[-3.68615,38.0374],[-3.68235,38.0349],[-3.68528,38.03336],[-3.68661,38.03218],[-3.68692,38.03097],[-3.68689,38.03002],[-3.68674,38.02908],[-3.68574,38.02896],[-3.68576,38.02649],[-3.68587,38.02574],[-3.6869,38.02477],[-3.6874,38.02399],[-3.68754,38.02031],[-3.68741,38.01987],[-3.68515,38.01737],[-3.68343,38.01449],[-3.68288,38.01378],[-3.68907,38.00829],[-3.68972,38.00761],[-3.69118,38.00523],[-3.68845,38.00217]],[[-3.72797,38.02107],[-3.72829,38.02143],[-3.72843,38.02209],[-3.72889,38.02232],[-3.72953,38.02206],[-3.72956,38.02153],[-3.72899,38.02099],[-3.73062,38.0212],[-3.73052,38.02061],[-3.73098,38.02052],[-3.73202,38.0206],[-3.73218,38.0212],[-3.7325,38.02126],[-3.73268,38.02189],[-3.73485,38.02174],[-3.734,38.02005],[-3.73424,38.01909],[-3.73378,38.01899],[-3.73359,38.01845],[-3.73264,38.01822],[-3.73246,38.01798],[-3.73163,38.01828],[-3.73106,38.01829],[-3.72982,38.01853],[-3.72839,38.01901],[-3.72796,38.01902],[-3.72814,38.01919],[-3.72821,38.02009],[-3.72766,38.02043],[-3.72747,38.0208],[-3.72797,38.02107]]]}},{"type":"Feature","properties":{"id":"2304902001"},"geometry":{"type":"Polygon","coordinates":[[[-3.72797,38.02107],[-3.72747,38.0208],[-3.72766,38.02043],[-3.72821,38.02009],[-3.72814,38.01919],[-3.72796,38.01902],[-3.72839,38.01901],[-3.72982,38.01853],[-3.73106,38.01829],[-3.73163,38.01828],[-3.73246,38.01798],[-3.73264,38.01822],[-3.73359,38.01845],[-3.73378,38.01899],[-3.73424,38.01909],[-3.734,38.02005],[-3.73485,38.02174],[-3.73268,38.02189],[-3.7325,38.02126],[-3.73218,38.0212],[-3.73202,38.0206],[-3.73098,38.02052],[-3.73052,38.02061],[-3.73062,38.0212],[-3.72899,38.02099],[-3.72956,38.02153],[-3.72953,38.02206],[-3.72889,38.02232],[-3.72843,38.02209],[-3.72829,38.02143],[-3.72797,38.02107]]]}}]}