{"type":"FeatureCollection","features":[{"type":"Feature","properties":{"id":"2306601001"},"geometry":{"type":"Polygon","coordinates":[[[-3.121,37.91678],[-3.12192,37.91372],[-3.12354,37.91344],[-3.12556,37.91322],[-3.13042,37.91467],[-3.13076,37.9149],[-3.12915,37.91622],[-3.1266,37.91671],[-3.12325,37.91642],[-3.12272,37.91745],[-3.12066,37.91749],[-3.121,37.91678]]]}},{"type":"Feature","properties":{"id":"2306601002"},"geometry":{"type":"Polygon","coordinates":[[[-3.10695,37.91401],[-3.10934,37.91402],[-3.11064,37.91389],[-3.12028,37.91376],[-3.12193,37.91367],[-3.12101,37.91678],[-3.11972,37.91688],[-3.12001,37.91615],[-3.11958,37.91618],[-3.11798,37.91585],[-3.11764,37.91607],[-3.11725,37.91586],[-3.11481,37.91575],[-3.11492,37.91649],[-3.11351,37.91649],[-3.11259,37.9167],[-3.11011,37.91663],[-3.10913,37.91699],[-3.10614,37.91684],[-3.10598,37.9141],[-3.10695,37.91401]]]}},{"type":"Feature","properties":{"id":"2306602001"},"geometry":{"type":"Polygon","coordinates":[[[-3.10695,37.91401],[-3.10699,37.91218],[-3.10717,37.91163],[-3.10739,37.91157],[-3.10929,37.907],[-3.1149,37.9067],[-3.11394,37.91234],[-3.11473,37.91195],[-3.11561,37.91211],[-3.11623,37.91195],[-3.11689,37.91144],[-3.11886,37.91075],[-3.12105,37.91076],[-3.12233,37.90993],[-3.12256,37.90958],[-3.12347,37.90964],[-3.1249,37.9114],[-3.12562,37.91324],[-3.12354,37.91344],[-3.12192,37.91372],[-3.11447,37.9138],[-3.11064,37.91389],[-3.10934,37.91402],[-3.10695,37.91401]]]}},{"type":"Feature","properties":{"id":"2306603001"},"geometry":{"type":"MultiPolygon","coordinates":[[[[-3.19333,37.95568],[-3.19291,37.95567],[-3.19253,37.95583],[-3.19207,37.95618],[-3.19154,37.95712],[-3.19047,37.95631],[-3.18761,37.95326],[-3.18749,37.95277],[-3.18677,37.95195],[-3.18605,37.95138],[-3.18464,37.9505],[-3.18386,37.95033],[-3.18178,37.95018],[-3.17944,37.94967],[-3.17903,37.94943],[-3.17701,37.94745],[-3.1741,37.94433],[-3.17164,37.94415],[-3.16965,37.94376],[-3.16775,37.94301],[-3.16682,37.9425],[-3.16532,37.94145],[-3.16241,37.93764],[-3.16125,37.93625],[-3.16073,37.93587],[-3.15999,37.93552],[-3.15954,37.93543],[-3.15607,37.9352],[-3.15556,37.93509],[-3.1525,37.93306],[-3.15225,37.93297],[-3.15177,37.93297],[-3.14748,37.93369],[-3.14586,37.93382],[-3.14521,37.93376],[-3.1416,37.93301],[-3.1399,37.93285],[-3.1361,37.93274],[-3.13355,37.93301],[-3.13123,37.93287],[-3.12497,37.93333],[-3.12296,37.93384],[-3.1202,37.93425],[-3.11909,37.93124],[-3.11575,37.93104],[-3.11344,37.93038],[-3.11181,37.93013],[-3.11101,37.92963],[-3.10945,37.92918],[-3.10915,37.92885],[-3.10845,37.92725],[-3.10501,37.92374],[-3.10469,37.92316],[-3.10355,37.9202],[-3.10312,37.91945],[-3.10268,37.91905],[-3.09892,37.91645],[-3.10047,37.91491],[-3.10074,37.91452],[-3.10037,37.91372],[-3.10013,37.91285],[-3.10013,37.91223],[-3.10021,37.9118],[-3.10152,37.90892],[-3.10093,37.90548],[-3.10074,37.90512],[-3.09859,37.9037],[-3.09784,37.90303],[-3.09733,37.90214],[-3.09591,37.90077],[-3.09693,37.90006],[-3.09738,37.89986],[-3.09913,37.89943],[-3.10015,37.89863],[-3.10043,37.89824],[-3.10065,37.89749],[-3.10065,37.89716],[-3.1005,37.89677],[-3.09962,37.89556],[-3.09961,37.89541],[-3.10025,37.89478],[-3.10031,37.89451],[-3.09987,37.89367],[-3.09916,37.89177],[-3.10064,37.89111],[-3.10073,37.89098],[-3.1007,37.88876],[-3.10081,37.88848],[-3.10338,37.88646],[-3.10388,37.88618],[-3.10562,37.88567],[-3.10655,37.88497],[-3.10808,37.88361],[-3.1093,37.88278],[-3.11333,37.88116],[-3.11616,37.87949],[-3.11733,37.87863],[-3.12066,37.8758],[-3.12194,37.8741],[-3.12897,37.87036],[-3.13118,37.86977],[-3.1318,37.86953],[-3.13236,37.86917],[-3.13297,37.86854],[-3.1335,37.86762],[-3.13419,37.8657],[-3.13447,37.86531],[-3.13502,37.86486],[-3.13598,37.86434],[-3.13726,37.86342],[-3.14075,37.85996],[-3.14262,37.8583],[-3.14487,37.85597],[-3.14704,37.85461],[-3.14938,37.85273],[-3.15155,37.85141],[-3.15529,37.84947],[-3.15623,37.84909],[-3.15875,37.84834],[-3.16376,37.84734],[-3.16467,37.84706],[-3.1656,37.8466],[-3.1696,37.84424],[-3.17026,37.84377],[-3.17132,37.84269],[-3.17271,37.84101],[-3.17573,37.84014],[-3.17892,37.83947],[-3.17945,37.83926],[-3.18116,37.83802],[-3.18176,37.83774],[-3.18257,37.83752],[-3.18361,37.83741],[-3.18406,37.83728],[-3.18445,37.83706],[-3.18475,37.83661],[-3.18524,37.83541],[-3.18553,37.83515],[-3.18657,37.83477],[-3.18683,37.83457],[-3.18732,37.83405],[-3.18761,37.83343],[-3.18907,37.83229],[-3.18999,37.8318],[-3.19077,37.83162],[-3.19098,37.83342],[-3.19227,37.83443],[-3.19392,37.83514],[-3.19581,37.83674],[-3.19675,37.83718],[-3.1989,37.83771],[-3.19983,37.83784],[-3.20123,37.83783],[-3.20575,37.83753],[-3.20706,37.83771],[-3.2075,37.83789],[-3.20806,37.83854],[-3.20816,37.8395],[-3.20748,37.84082],[-3.20662,37.84208],[-3.20624,37.8442],[-3.20553,37.84481],[-3.20466,37.84519],[-3.20416,37.84559],[-3.20397,37.84606],[-3.20392,37.84653],[-3.2054,37.85079],[-3.20607,37.85233],[-3.2062,37.85292],[-3.20604,37.85427],[-3.20626,37.855],[-3.20664,37.85546],[-3.20729,37.85577],[-3.20811,37.85593],[-3.20969,37.85602],[-3.21091,37.85594],[-3.21261,37.85553],[-3.21368,37.85508],[-3.21476,37.85484],[-3.21533,37.85489],[-3.21656,37.85548],[-3.21726,37.85615],[-3.21796,37.85706],[-3.21882,37.85843],[-3.21926,37.85962],[-3.21942,37.86054],[-3.21928,37.86123],[-3.21863,37.86197],[-3.2154,37.86421],[-3.21382,37.86547],[-3.2128,37.86585],[-3.21172,37.86608],[-3.20947,37.86673],[-3.20863,37.86725],[-3.20843,37.86764],[-3.20852,37.86816],[-3.20838,37.86908],[-3.20842,37.86965],[-3.20893,37.87059],[-3.20926,37.87084],[-3.20996,37.87109],[-3.21184,37.87149],[-3.21226,37.87178],[-3.21338,37.87309],[-3.21328,37.87358],[-3.2125,37.8745],[-3.21187,37.87494],[-3.2116,37.87535],[-3.21159,37.87702],[-3.21188,37.87747],[-3.21269,37.87809],[-3.21274,37.87845],[-3.21268,37.87873],[-3.21224,37.8794],[-3.21211,37.87979],[-3.21141,37.8844],[-3.21088,37.88668],[-3.21047,37.88788],[-3.20962,37.88956],[-3.20952,37.8904],[-3.20958,37.891],[-3.21044,37.89218],[-3.2112,37.89275],[-3.21482,37.89458],[-3.21534,37.89502],[-3.216,37.89608],[-3.21605,37.8967],[-3.21591,37.89724],[-3.21545,37.89794],[-3.21348,37.90037],[-3.21343,37.90116],[-3.21291,37.90265],[-3.21306,37.90299],[-3.21368,37.90362],[-3.2143,37.9038],[-3.2148,37.90382],[-3.21589,37.90359],[-3.21719,37.90356],[-3.21778,37.90346],[-3.21848,37.90313],[-3.22001,37.90204],[-3.22053,37.90207],[-3.224,37.90258],[-3.22429,37.90272],[-3.22553,37.90396],[-3.22563,37.90436],[-3.22555,37.90484],[-3.22505,37.90606],[-3.22431,37.90714],[-3.22388,37.90823],[-3.2235,37.90865],[-3.22298,37.90872],[-3.22236,37.90867],[-3.22183,37.90885],[-3.22149,37.90914],[-3.22129,37.90955],[-3.22137,37.9099],[-3.22245,37.91082],[-3.22272,37.91124],[-3.22277,37.91191],[-3.22267,37.91279],[-3.22283,37.91385],[-3.22269,37.91466],[-3.22236,37.91529],[-3.22229,37.91577],[-3.22241,37.91624],[-3.2234,37.91713],[-3.22464,37.91777],[-3.22598,37.91823],[-3.22742,37.91845],[-3.22888,37.91851],[-3.23016,37.91842],[-3.23321,37.91788],[-3.23381,37.91794],[-3.23443,37.91854],[-3.2345,37.91892],[-3.23431,37.9193],[-3.23322,37.92042],[-3.23271,37.92117],[-3.23244,37.92184],[-3.23227,37.92403],[-3.23206,37.92464],[-3.23122,37.92515],[-3.23061,37.92593],[-3.23047,37.92666],[-3.231,37.92786],[-3.23153,37.92814],[-3.23225,37.92826],[-3.23487,37.92835],[-3.23623,37.92809],[-3.23709,37.92781],[-3.24123,37.92552],[-3.24186,37.92549],[-3.24258,37.92566],[-3.24331,37.92608],[-3.24373,37.92656],[-3.24399,37.92715],[-3.24351,37.93133],[-3.24357,37.9319],[-3.24375,37.93216],[-3.24414,37.93238],[-3.24588,37.93273],[-3.24642,37.93259],[-3.24669,37.93232],[-3.24679,37.93189],[-3.24613,37.92954],[-3.2462,37.92911],[-3.24655,37.92879],[-3.2491,37.92857],[-3.24941,37.92825],[-3.24997,37.92683],[-3.25033,37.92619],[-3.25128,37.92544],[-3.25252,37.92494],[-3.25339,37.92477],[-3.254,37.92487],[-3.25442,37.92506],[-3.25485,37.92541],[-3.25502,37.92602],[-3.25506,37.92676],[-3.25485,37.92742],[-3.25375,37.92866],[-3.2536,37.92931],[-3.25378,37.92976],[-3.25417,37.92997],[-3.25481,37.93007],[-3.25594,37.93005],[-3.25701,37.93016],[-3.25757,37.93042],[-3.25788,37.93084],[-3.25787,37.93126],[-3.25712,37.93345],[-3.25658,37.93453],[-3.2561,37.93501],[-3.2556,37.9352],[-3.25512,37.9352],[-3.25308,37.93431],[-3.25244,37.93422],[-3.25098,37.93438],[-3.25044,37.93468],[-3.24993,37.93538],[-3.24983,37.93608],[-3.25012,37.93759],[-3.2501,37.93808],[-3.2498,37.93847],[-3.24841,37.93956],[-3.24665,37.94051],[-3.24511,37.94154],[-3.24406,37.94248],[-3.24316,37.94301],[-3.24259,37.94306],[-3.24192,37.94292],[-3.24148,37.94257],[-3.24128,37.94221],[-3.24127,37.94191],[-3.24179,37.94023],[-3.24193,37.93942],[-3.24194,37.93871],[-3.24169,37.93803],[-3.24117,37.93742],[-3.24016,37.93669],[-3.23837,37.93489],[-3.23793,37.93458],[-3.23638,37.93399],[-3.23576,37.93396],[-3.23238,37.93526],[-3.23183,37.93561],[-3.23151,37.9362],[-3.23146,37.93668],[-3.23171,37.93775],[-3.23215,37.93894],[-3.23246,37.9394],[-3.2334,37.93988],[-3.23559,37.94001],[-3.23602,37.94033],[-3.2361,37.94063],[-3.23593,37.94196],[-3.23647,37.94396],[-3.23639,37.94446],[-3.2361,37.945],[-3.23473,37.94655],[-3.23414,37.94702],[-3.23341,37.94726],[-3.23268,37.94723],[-3.23146,37.94675],[-3.2292,37.94546],[-3.2284,37.94526],[-3.22734,37.94525],[-3.2248,37.94542],[-3.2225,37.94507],[-3.22082,37.94449],[-3.2203,37.9445],[-3.21938,37.94479],[-3.21849,37.94521],[-3.21827,37.9455],[-3.21828,37.94582],[-3.21874,37.94713],[-3.21874,37.94918],[-3.21903,37.94965],[-3.22066,37.95114],[-3.22126,37.95187],[-3.22139,37.95217],[-3.22127,37.95279],[-3.22048,37.95454],[-3.21962,37.95566],[-3.2187,37.95648],[-3.21808,37.95677],[-3.21732,37.95689],[-3.21648,37.95684],[-3.21577,37.95655],[-3.21516,37.95617],[-3.21503,37.9559],[-3.2146,37.9534],[-3.21413,37.95215],[-3.2133,37.95079],[-3.21293,37.95068],[-3.21233,37.95073],[-3.21119,37.9511],[-3.20927,37.95192],[-3.2069,37.95322],[-3.20603,37.95379],[-3.20486,37.95497],[-3.2025,37.9566],[-3.20168,37.9569],[-3.20021,37.95718],[-3.19982,37.95745],[-3.19847,37.958],[-3.19778,37.95803],[-3.19708,37.95793],[-3.19615,37.95767],[-3.19543,37.95735],[-3.19485,37.95691],[-3.19379,37.95587],[-3.19333,37.95568]],[[-3.12272,37.91745],[-3.12325,37.91642],[-3.1266,37.91671],[-3.12915,37.91622],[-3.13076,37.9149],[-3.13042,37.91467],[-3.12562,37.91324],[-3.1249,37.9114],[-3.12347,37.90964],[-3.12256,37.90958],[-3.12233,37.90993],[-3.12105,37.91076],[-3.11886,37.91075],[-3.11689,37.91144],[-3.11623,37.91195],[-3.11561,37.91211],[-3.11473,37.91195],[-3.11394,37.91234],[-3.1149,37.9067],[-3.10929,37.907],[-3.10739,37.91157],[-3.10717,37.91163],[-3.10699,37.91218],[-3.10695,37.91401],[-3.10598,37.9141],[-3.10614,37.91684],[-3.10913,37.91699],[-3.11011,37.91663],[-3.11259,37.9167],[-3.11351,37.91649],[-3.11492,37.91649],[-3.11481,37.91575],[-3.11725,37.91586],[-3.11764,37.91607],[-3.11798,37.91585],[-3.11958,37.91618],[-3.12001,37.91615],[-3.11972,37.91688],[-3.121,37.91678],[-3.12066,37.91749],[-3.12272,37.91745]]],[[[-2.95774,37.87144],[-2.95748,37.87139],[-2.95724,37.87147],[-2.957,37.87176],[-2.95608,37.87391],[-2.95579,37.8742],[-2.95541,37.87426],[-2.9549,37.8742],[-2.95455,37.87406],[-2.95407,37.87367],[-2.9535,37.87267],[-2.95279,37.87196],[-2.95259,37.87142],[-2.95243,37.87045],[-2.95074,37.86933],[-2.94975,37.86838],[-2.949,37.86812],[-2.94359,37.86703],[-2.94294,37.86704],[-2.94068,37.86761],[-2.93954,37.86774],[-2.93823,37.86777],[-2.93709,37.86767],[-2.93638,37.86751],[-2.9343,37.8664],[-2.93374,37.86619],[-2.93288,37.86602],[-2.93167,37.86605],[-2.93038,37.86595],[-2.92993,37.86603],[-2.92883,37.86676],[-2.92676,37.86787],[-2.92597,37.86825],[-2.92535,37.86844],[-2.92452,37.86853],[-2.92388,37.86846],[-2.91999,37.86771],[-2.91818,37.86759],[-2.91749,37.86734],[-2.91325,37.86852],[-2.91259,37.86859],[-2.91229,37.86875],[-2.91195,37.86913],[-2.91165,37.86924],[-2.91138,37.86919],[-2.91111,37.86896],[-2.91075,37.8684],[-2.91049,37.86742],[-2.91073,37.86517],[-2.91057,37.86425],[-2.91005,37.86336],[-2.90888,37.86194],[-2.90778,37.86019],[-2.90726,37.85966],[-2.90686,37.8594],[-2.90375,37.85843],[-2.90316,37.85813],[-2.90271,37.85769],[-2.90248,37.85688],[-2.90263,37.8562],[-2.90307,37.85479],[-2.9036,37.85383],[-2.90394,37.85247],[-2.90376,37.85131],[-2.90352,37.85086],[-2.90255,37.84972],[-2.90209,37.84951],[-2.90032,37.84915],[-2.89896,37.84898],[-2.89941,37.84752],[-2.89974,37.84695],[-2.9004,37.8463],[-2.90174,37.84541],[-2.90196,37.84512],[-2.90208,37.8447],[-2.90212,37.84364],[-2.9013,37.84318],[-2.90095,37.84288],[-2.90062,37.8424],[-2.90045,37.8418],[-2.90061,37.84009],[-2.90168,37.83837],[-2.90191,37.83775],[-2.90184,37.83643],[-2.90139,37.83507],[-2.9014,37.83452],[-2.90155,37.83396],[-2.90185,37.83341],[-2.90204,37.83194],[-2.90252,37.83091],[-2.90251,37.83051],[-2.9023,37.82987],[-2.90045,37.82668],[-2.90042,37.82543],[-2.90061,37.82386],[-2.90023,37.82152],[-2.89985,37.82042],[-2.89983,37.81955],[-2.90026,37.81687],[-2.90054,37.81611],[-2.90019,37.81239],[-2.90024,37.81157],[-2.90011,37.81002],[-2.89985,37.80839],[-2.89919,37.80609],[-2.89877,37.80536],[-2.89814,37.80478],[-2.89542,37.80426],[-2.89411,37.80317],[-2.89159,37.80224],[-2.89115,37.80186],[-2.8907,37.80112],[-2.88964,37.79885],[-2.88867,37.79783],[-2.88586,37.79612],[-2.88536,37.79607],[-2.88477,37.79617],[-2.88243,37.79399],[-2.87761,37.79157],[-2.87645,37.79111],[-2.87406,37.7918],[-2.87271,37.79203],[-2.87316,37.79149],[-2.87356,37.79078],[-2.87394,37.7888],[-2.87418,37.78821],[-2.87479,37.78731],[-2.87462,37.78661],[-2.8747,37.78602],[-2.87536,37.78538],[-2.87601,37.78337],[-2.87604,37.78287],[-2.87484,37.77815],[-2.87644,37.7729],[-2.87677,37.77242],[-2.87739,37.77188],[-2.87763,37.77153],[-2.87798,37.76815],[-2.87848,37.76548],[-2.87986,37.76091],[-2.88029,37.75995],[-2.8844,37.76039],[-2.88654,37.76083],[-2.8884,37.761],[-2.89006,37.76146],[-2.89035,37.76212],[-2.89147,37.76329],[-2.89375,37.76535],[-2.89436,37.76566],[-2.90009,37.76787],[-2.89947,37.76964],[-2.89846,37.77412],[-2.89873,37.77473],[-2.90011,37.77677],[-2.9001,37.77698],[-2.89996,37.77719],[-2.89965,37.77726],[-2.89887,37.77722],[-2.89773,37.77731],[-2.89654,37.77755],[-2.89585,37.77803],[-2.89516,37.77875],[-2.8949,37.77958],[-2.89509,37.78006],[-2.89546,37.78039],[-2.89672,37.78087],[-2.89951,37.78152],[-2.90147,37.7825],[-2.90328,37.78401],[-2.90354,37.7845],[-2.90357,37.78521],[-2.90344,37.78569],[-2.90303,37.78617],[-2.90036,37.78754],[-2.9,37.78779],[-2.89992,37.78806],[-2.90108,37.78896],[-2.90229,37.79008],[-2.90271,37.79068],[-2.90281,37.79091],[-2.90277,37.79159],[-2.90292,37.79272],[-2.90351,37.79539],[-2.90344,37.7958],[-2.90276,37.79747],[-2.90277,37.79793],[-2.90393,37.80002],[-2.9038,37.80022],[-2.90187,37.80126],[-2.90164,37.80153],[-2.90158,37.80189],[-2.9018,37.80422],[-2.90209,37.80483],[-2.90248,37.80533],[-2.9035,37.80605],[-2.90677,37.80732],[-2.9132,37.81052],[-2.91642,37.81383],[-2.9178,37.81486],[-2.91854,37.81529],[-2.91922,37.81554],[-2.92037,37.81567],[-2.92622,37.81587],[-2.93027,37.81621],[-2.93142,37.81618],[-2.93181,37.81627],[-2.93601,37.81988],[-2.93982,37.82355],[-2.93997,37.82468],[-2.94019,37.82512],[-2.94271,37.8275],[-2.94703,37.83042],[-2.94965,37.83144],[-2.95458,37.83286],[-2.95584,37.8335],[-2.95544,37.83449],[-2.95543,37.83557],[-2.95559,37.83603],[-2.95697,37.83813],[-2.95706,37.83869],[-2.9569,37.84017],[-2.95693,37.84101],[-2.95773,37.84259],[-2.95772,37.84303],[-2.95713,37.84444],[-2.95727,37.8453],[-2.95683,37.84672],[-2.96141,37.84913],[-2.96598,37.84642],[-2.97344,37.85218],[-2.9749,37.85302],[-2.97735,37.85408],[-2.97956,37.85517],[-2.98205,37.8569],[-2.9871,37.85986],[-2.98775,37.86013],[-2.99005,37.86073],[-2.99448,37.86166],[-2.99543,37.86194],[-2.99525,37.86555],[-2.99508,37.86672],[-2.99313,37.87192],[-2.99294,37.87255],[-2.99288,37.87351],[-2.99336,37.87728],[-2.99352,37.87786],[-2.99445,37.87893],[-2.99485,37.87968],[-2.99493,37.88112],[-2.99481,37.88145],[-2.9929,37.88415],[-2.99228,37.88483],[-2.99164,37.88481],[-2.98982,37.88437],[-2.98578,37.8838],[-2.98049,37.88274],[-2.97212,37.87977],[-2.96681,37.87772],[-2.9604,37.87569],[-2.95865,37.87494],[-2.95784,37.8745],[-2.95816,37.87284],[-2.95808,37.8719],[-2.95774,37.87144]]]]}}]}