{"type":"FeatureCollection","features":[{"type":"Feature","properties":{"id":"2390301001"},"geometry":{"type":"Polygon","coordinates":[[[-3.63959,37.95608],[-3.63799,37.95832],[-3.63667,37.95969],[-3.63534,37.96083],[-3.63478,37.96104],[-3.63438,37.96109],[-3.63385,37.96095],[-3.63357,37.96067],[-3.63289,37.95767],[-3.6312,37.95545],[-3.63095,37.95491],[-3.63065,37.95374],[-3.63168,37.95274],[-3.63227,37.95023],[-3.63269,37.9491],[-3.63315,37.94618],[-3.63368,37.94446],[-3.63534,37.94072],[-3.63666,37.93728],[-3.63707,37.93564],[-3.63703,37.93541],[-3.63603,37.93454],[-3.63389,37.933],[-3.63023,37.93094],[-3.62885,37.92916],[-3.62844,37.92883],[-3.62575,37.92777],[-3.62473,37.92745],[-3.62483,37.92644],[-3.6252,37.92527],[-3.62558,37.92449],[-3.6271,37.92261],[-3.62766,37.92167],[-3.62807,37.92079],[-3.62818,37.92017],[-3.62807,37.91888],[-3.62761,37.91768],[-3.62656,37.91653],[-3.62594,37.91609],[-3.62589,37.91566],[-3.62619,37.91476],[-3.62606,37.91434],[-3.62521,37.91337],[-3.62477,37.91268],[-3.62491,37.91076],[-3.62531,37.90786],[-3.62384,37.90885],[-3.62191,37.91033],[-3.62059,37.91162],[-3.61827,37.91358],[-3.61737,37.91448],[-3.61653,37.91577],[-3.61623,37.91641],[-3.6115,37.91836],[-3.60994,37.91879],[-3.60963,37.91878],[-3.60935,37.91843],[-3.60877,37.91718],[-3.60813,37.91512],[-3.60741,37.91435],[-3.6072,37.91383],[-3.60717,37.91254],[-3.60359,37.90815],[-3.60079,37.90405],[-3.60514,37.90014],[-3.60909,37.89632],[-3.61155,37.89439],[-3.61477,37.89143],[-3.61495,37.88809],[-3.61493,37.88515],[-3.6169,37.88629],[-3.61837,37.88699],[-3.621,37.88798],[-3.62209,37.88867],[-3.62322,37.88925],[-3.62438,37.88947],[-3.62657,37.88972],[-3.62767,37.88976],[-3.62859,37.88952],[-3.63083,37.89071],[-3.633,37.89163],[-3.63429,37.89318],[-3.64153,37.89534],[-3.6433,37.89562],[-3.64495,37.89491],[-3.64576,37.89482],[-3.6487,37.8948],[-3.64896,37.89554],[-3.64991,37.89695],[-3.65047,37.89704],[-3.6531,37.89711],[-3.65385,37.89725],[-3.65522,37.89767],[-3.65691,37.89731],[-3.65899,37.89666],[-3.66303,37.89577],[-3.66535,37.89535],[-3.6725,37.8944],[-3.6728,37.89447],[-3.67366,37.8959],[-3.67437,37.89791],[-3.67418,37.89912],[-3.67445,37.89973],[-3.67482,37.9002],[-3.67517,37.90181],[-3.67537,37.9021],[-3.67597,37.90238],[-3.67634,37.90269],[-3.6764,37.90321],[-3.67612,37.90381],[-3.67537,37.90479],[-3.67496,37.90637],[-3.67479,37.90665],[-3.674,37.90712],[-3.67394,37.9074],[-3.674,37.90858],[-3.67451,37.90959],[-3.675,37.90997],[-3.67531,37.91047],[-3.67525,37.91071],[-3.67379,37.91158],[-3.67381,37.91189],[-3.67483,37.91293],[-3.67475,37.91459],[-3.67524,37.9147],[-3.67685,37.91456],[-3.6801,37.91464],[-3.68154,37.91507],[-3.68199,37.91507],[-3.68308,37.91482],[-3.68628,37.91451],[-3.68947,37.91437],[-3.69218,37.91398],[-3.69856,37.91401],[-3.70104,37.91377],[-3.70155,37.91392],[-3.70218,37.91426],[-3.70359,37.91536],[-3.70462,37.91636],[-3.70515,37.91611],[-3.7058,37.91562],[-3.70621,37.91514],[-3.70667,37.91489],[-3.70743,37.91568],[-3.70809,37.91617],[-3.71342,37.9175],[-3.71532,37.91776],[-3.7205,37.91817],[-3.72079,37.91787],[-3.72255,37.91826],[-3.72629,37.91936],[-3.72904,37.92035],[-3.72981,37.92054],[-3.73094,37.92013],[-3.73274,37.92047],[-3.73404,37.92003],[-3.73438,37.91808],[-3.73545,37.91608],[-3.73668,37.9132],[-3.7374,37.91114],[-3.73778,37.91051],[-3.73815,37.91041],[-3.74106,37.91039],[-3.74161,37.91052],[-3.74265,37.91127],[-3.74342,37.91106],[-3.74413,37.91069],[-3.74459,37.91062],[-3.75024,37.9111],[-3.75509,37.91103],[-3.75695,37.91117],[-3.76046,37.91163],[-3.76349,37.91307],[-3.76855,37.91629],[-3.77253,37.91926],[-3.77433,37.92075],[-3.77563,37.9215],[-3.77602,37.92152],[-3.7766,37.92249],[-3.77756,37.92378],[-3.77795,37.92518],[-3.77755,37.9259],[-3.77662,37.92649],[-3.77606,37.92718],[-3.77574,37.92799],[-3.77537,37.92855],[-3.77472,37.92923],[-3.77452,37.92965],[-3.7749,37.93103],[-3.7749,37.93181],[-3.7742,37.93326],[-3.77402,37.93433],[-3.77377,37.93481],[-3.77293,37.93569],[-3.77298,37.9365],[-3.7727,37.93788],[-3.77629,37.93989],[-3.77647,37.94022],[-3.77641,37.94048],[-3.77567,37.9411],[-3.77479,37.94163],[-3.77487,37.94226],[-3.77526,37.94255],[-3.77704,37.9428],[-3.77754,37.94299],[-3.77823,37.94378],[-3.77827,37.94464],[-3.77795,37.94623],[-3.77789,37.94713],[-3.77801,37.94739],[-3.78009,37.94735],[-3.78053,37.94755],[-3.78077,37.94794],[-3.78072,37.94831],[-3.7799,37.94937],[-3.78035,37.95046],[-3.77915,37.95078],[-3.77399,37.95069],[-3.75739,37.95097],[-3.75719,37.95141],[-3.757,37.95279],[-3.75672,37.95346],[-3.75663,37.9544],[-3.75489,37.95464],[-3.75484,37.9562],[-3.75449,37.95782],[-3.75417,37.95856],[-3.7542,37.95869],[-3.75491,37.95904],[-3.75428,37.96046],[-3.75308,37.96249],[-3.75284,37.96262],[-3.75225,37.96272],[-3.75175,37.96308],[-3.75126,37.9638],[-3.75094,37.96469],[-3.75072,37.96488],[-3.74942,37.96499],[-3.74925,37.96518],[-3.74903,37.96679],[-3.74804,37.96704],[-3.74714,37.96709],[-3.7455,37.96678],[-3.74439,37.9665],[-3.74155,37.96545],[-3.74031,37.96469],[-3.73984,37.96462],[-3.73899,37.96471],[-3.73815,37.96467],[-3.7377,37.96487],[-3.7374,37.96516],[-3.7371,37.96521],[-3.73666,37.96516],[-3.73633,37.96534],[-3.73599,37.96571],[-3.73687,37.96611],[-3.73701,37.96635],[-3.73699,37.96735],[-3.73709,37.96792],[-3.73761,37.96835],[-3.73784,37.96869],[-3.73805,37.9703],[-3.73852,37.97147],[-3.73895,37.97357],[-3.73968,37.97862],[-3.73998,37.97963],[-3.74055,37.981],[-3.74006,37.98117],[-3.73805,37.98128],[-3.73732,37.98117],[-3.73574,37.98067],[-3.7345,37.97981],[-3.7342,37.97921],[-3.73428,37.97884],[-3.73549,37.97637],[-3.73571,37.97547],[-3.73561,37.97424],[-3.7354,37.97388],[-3.7348,37.9733],[-3.73399,37.97272],[-3.73227,37.97172],[-3.72857,37.96986],[-3.72567,37.96813],[-3.72481,37.968],[-3.72357,37.96809],[-3.72051,37.96898],[-3.71945,37.96902],[-3.71883,37.96877],[-3.71573,37.96606],[-3.71457,37.96479],[-3.71403,37.96454],[-3.71308,37.96426],[-3.71137,37.9634],[-3.7107,37.96257],[-3.71034,37.95933],[-3.7097,37.95826],[-3.70909,37.95762],[-3.70788,37.95671],[-3.70656,37.95593],[-3.70498,37.95517],[-3.70171,37.95401],[-3.70064,37.9538],[-3.69978,37.95378],[-3.69731,37.95455],[-3.6951,37.95546],[-3.69278,37.95597],[-3.69052,37.95581],[-3.68936,37.95554],[-3.68827,37.95509],[-3.68715,37.9545],[-3.68667,37.95405],[-3.68602,37.95324],[-3.68478,37.951],[-3.68398,37.95035],[-3.68253,37.94942],[-3.68071,37.94856],[-3.67744,37.94665],[-3.67568,37.94582],[-3.67435,37.94535],[-3.67329,37.94518],[-3.67252,37.94536],[-3.67182,37.94563],[-3.67115,37.94628],[-3.66975,37.9485],[-3.6694,37.94889],[-3.66901,37.94917],[-3.66856,37.94934],[-3.66804,37.94936],[-3.66747,37.94908],[-3.66707,37.94849],[-3.66455,37.94579],[-3.66382,37.94543],[-3.6624,37.94501],[-3.66088,37.94481],[-3.65362,37.94542],[-3.65293,37.94532],[-3.65011,37.94438],[-3.64926,37.94426],[-3.64846,37.94437],[-3.64777,37.94466],[-3.64535,37.94644],[-3.64421,37.94712],[-3.64278,37.94756],[-3.64221,37.94791],[-3.64214,37.94854],[-3.64225,37.94976],[-3.64219,37.95057],[-3.642,37.95124],[-3.64059,37.95444],[-3.63959,37.95608]],[[-3.73016,37.94608],[-3.73374,37.94484],[-3.73466,37.94435],[-3.73557,37.94458],[-3.73598,37.94458],[-3.73632,37.94445],[-3.73645,37.94433],[-3.73659,37.94383],[-3.73645,37.94248],[-3.73665,37.94214],[-3.73701,37.94182],[-3.73701,37.94161],[-3.7367,37.94138],[-3.73461,37.9409],[-3.73246,37.94026],[-3.73176,37.94022],[-3.73147,37.94007],[-3.73069,37.9407],[-3.72988,37.94042],[-3.72881,37.94029],[-3.72911,37.93951],[-3.72916,37.93887],[-3.72931,37.93875],[-3.7296,37.93796],[-3.72979,37.93766],[-3.72995,37.93759],[-3.73049,37.93652],[-3.73121,37.93554],[-3.73118,37.93528],[-3.73132,37.93505],[-3.73128,37.93485],[-3.72769,37.93419],[-3.72769,37.93436],[-3.72692,37.93587],[-3.72694,37.93613],[-3.72512,37.93614],[-3.72528,37.93658],[-3.72512,37.93676],[-3.72509,37.93729],[-3.72462,37.93842],[-3.72412,37.9385],[-3.72319,37.93884],[-3.72256,37.93931],[-3.72185,37.93939],[-3.72105,37.93927],[-3.72139,37.93965],[-3.72172,37.94032],[-3.72253,37.94094],[-3.72349,37.94256],[-3.7253,37.94357],[-3.72526,37.94374],[-3.72549,37.94416],[-3.72593,37.94427],[-3.72631,37.94467],[-3.72699,37.94485],[-3.72785,37.94525],[-3.72817,37.9458],[-3.72838,37.94593],[-3.72925,37.94574],[-3.72976,37.94584],[-3.73016,37.94608]]]}},{"type":"Feature","properties":{"id":"2390301002"},"geometry":{"type":"Polygon","coordinates":[[[-3.72139,37.93965],[-3.72105,37.93927],[-3.72185,37.93939],[-3.72256,37.93931],[-3.72319,37.93884],[-3.72412,37.9385],[-3.72462,37.93842],[-3.72509,37.93729],[-3.72512,37.93676],[-3.72528,37.93658],[-3.72512,37.93614],[-3.72694,37.93613],[-3.72692,37.93587],[-3.72769,37.93436],[-3.72769,37.93419],[-3.73128,37.93485],[-3.73121,37.93554],[-3.73049,37.93652],[-3.72995,37.93759],[-3.72979,37.93766],[-3.7296,37.93796],[-3.72931,37.93875],[-3.72916,37.93887],[-3.72911,37.93951],[-3.72881,37.94029],[-3.72794,37.94009],[-3.72748,37.9402],[-3.72418,37.94015],[-3.72226,37.9399],[-3.72139,37.93965]]]}},{"type":"Feature","properties":{"id":"2390302001"},"geometry":{"type":"Polygon","coordinates":[[[-3.72909,37.94031],[-3.72988,37.94042],[-3.73069,37.9407],[-3.73147,37.94007],[-3.73176,37.94022],[-3.73246,37.94026],[-3.73461,37.9409],[-3.7367,37.94138],[-3.73701,37.94161],[-3.73701,37.94182],[-3.73665,37.94214],[-3.73645,37.94248],[-3.73659,37.94383],[-3.73645,37.94433],[-3.73598,37.94458],[-3.73557,37.94458],[-3.73466,37.94435],[-3.73374,37.94484],[-3.73016,37.94608],[-3.72969,37.94496],[-3.72909,37.94272],[-3.72909,37.94031]]]}},{"type":"Feature","properties":{"id":"2390302002"},"geometry":{"type":"Polygon","coordinates":[[[-3.72139,37.93965],[-3.72226,37.9399],[-3.72418,37.94015],[-3.72748,37.9402],[-3.72794,37.94009],[-3.7285,37.94026],[-3.72909,37.94031],[-3.72909,37.94272],[-3.72969,37.94496],[-3.73016,37.94608],[-3.72976,37.94584],[-3.72925,37.94574],[-3.72838,37.94593],[-3.72817,37.9458],[-3.72785,37.94525],[-3.72699,37.94485],[-3.72631,37.94467],[-3.72593,37.94427],[-3.72549,37.94416],[-3.72526,37.94374],[-3.7253,37.94357],[-3.72349,37.94256],[-3.72253,37.94094],[-3.72172,37.94032],[-3.72139,37.93965]]]}}]}