{"type":"FeatureCollection","features":[{"type":"Feature","properties":{"id":"2390401001"},"geometry":{"type":"Polygon","coordinates":[[[-2.54792,38.1149],[-2.54885,38.11451],[-2.54919,38.11412],[-2.5487,38.11305],[-2.54813,38.11237],[-2.54816,38.11201],[-2.5489,38.11109],[-2.54935,38.11085],[-2.5498,38.11043],[-2.55004,38.11],[-2.55081,38.10924],[-2.55112,38.10879],[-2.55161,38.10896],[-2.55251,38.10868],[-2.55374,38.10814],[-2.55467,38.10824],[-2.55509,38.10778],[-2.556,38.10732],[-2.55689,38.10754],[-2.55659,38.10787],[-2.55612,38.10794],[-2.55526,38.10897],[-2.55538,38.10937],[-2.55648,38.10947],[-2.55699,38.10965],[-2.55713,38.11004],[-2.5563,38.11002],[-2.55515,38.11017],[-2.55453,38.11037],[-2.55403,38.11039],[-2.55373,38.11069],[-2.55367,38.11216],[-2.55422,38.11312],[-2.5528,38.11386],[-2.55273,38.11427],[-2.55241,38.11478],[-2.55159,38.11485],[-2.55116,38.11502],[-2.55064,38.11491],[-2.55013,38.11455],[-2.5496,38.11461],[-2.54798,38.11535],[-2.54792,38.1149]]]}},{"type":"Feature","properties":{"id":"2390401002"},"geometry":{"type":"Polygon","coordinates":[[[-2.4537,38.21825],[-2.45363,38.2174],[-2.4542,38.21609],[-2.45434,38.21497],[-2.45423,38.21445],[-2.45403,38.21408],[-2.45306,38.21326],[-2.45281,38.21291],[-2.45269,38.21248],[-2.45315,38.21112],[-2.45313,38.21071],[-2.45299,38.21047],[-2.45233,38.20991],[-2.44998,38.20867],[-2.4486,38.20812],[-2.4473,38.20778],[-2.44706,38.20757],[-2.44558,38.20494],[-2.44551,38.20452],[-2.44585,38.20357],[-2.44584,38.20284],[-2.44603,38.20215],[-2.44603,38.20174],[-2.44565,38.19984],[-2.4457,38.19952],[-2.44667,38.19739],[-2.44704,38.19528],[-2.44649,38.19402],[-2.44647,38.19373],[-2.44659,38.19327],[-2.4474,38.19183],[-2.44758,38.19112],[-2.44751,38.19079],[-2.44635,38.18903],[-2.44624,38.18857],[-2.44618,38.18572],[-2.44627,38.18519],[-2.44685,38.18434],[-2.44837,38.18296],[-2.44946,38.1822],[-2.45237,38.18068],[-2.45369,38.18019],[-2.4557,38.17988],[-2.45689,38.17749],[-2.45796,38.17625],[-2.45924,38.17538],[-2.46133,38.17455],[-2.46317,38.17315],[-2.46389,38.17285],[-2.4643,38.17286],[-2.46466,38.17298],[-2.46553,38.17362],[-2.46591,38.17371],[-2.46759,38.17353],[-2.46802,38.17319],[-2.46846,38.1728],[-2.46853,38.17258],[-2.46839,38.17179],[-2.46763,38.1703],[-2.4679,38.16846],[-2.468,38.16804],[-2.46822,38.1677],[-2.46922,38.16699],[-2.46924,38.1668],[-2.46846,38.1658],[-2.4684,38.16549],[-2.46849,38.16498],[-2.4699,38.16283],[-2.47148,38.16212],[-2.47298,38.16008],[-2.47345,38.15847],[-2.4737,38.15639],[-2.47412,38.15578],[-2.47452,38.15541],[-2.47634,38.15433],[-2.47693,38.15386],[-2.47847,38.15363],[-2.47914,38.1537],[-2.47968,38.15362],[-2.48037,38.15333],[-2.48091,38.15291],[-2.48117,38.15256],[-2.48141,38.15108],[-2.48187,38.15048],[-2.48233,38.15031],[-2.48372,38.15011],[-2.48592,38.14876],[-2.48615,38.14796],[-2.48704,38.14716],[-2.48776,38.14623],[-2.48866,38.14575],[-2.48838,38.14463],[-2.48841,38.14412],[-2.48856,38.14388],[-2.48933,38.1433],[-2.49184,38.14033],[-2.49316,38.13823],[-2.49407,38.13706],[-2.4951,38.13528],[-2.49536,38.13497],[-2.49722,38.13364],[-2.49776,38.13265],[-2.49858,38.13171],[-2.50055,38.13093],[-2.50218,38.13042],[-2.50467,38.12995],[-2.50771,38.12927],[-2.50851,38.12901],[-2.50951,38.12722],[-2.5099,38.12676],[-2.51063,38.1264],[-2.51224,38.12662],[-2.51268,38.1266],[-2.51293,38.12649],[-2.513,38.12628],[-2.51223,38.12552],[-2.51191,38.12427],[-2.51191,38.12327],[-2.51205,38.12289],[-2.51232,38.1227],[-2.51456,38.12182],[-2.51536,38.12129],[-2.51612,38.1205],[-2.51654,38.11982],[-2.5165,38.11922],[-2.5163,38.11883],[-2.51588,38.11857],[-2.51548,38.11813],[-2.51541,38.11682],[-2.51567,38.11644],[-2.51719,38.11508],[-2.51748,38.11312],[-2.51763,38.11274],[-2.51939,38.1116],[-2.5196,38.11132],[-2.51975,38.11099],[-2.51966,38.11006],[-2.51984,38.10885],[-2.52027,38.10777],[-2.52092,38.10731],[-2.522,38.10734],[-2.52348,38.10723],[-2.52434,38.10705],[-2.52489,38.10675],[-2.52519,38.10634],[-2.52548,38.10554],[-2.52559,38.10417],[-2.52595,38.10335],[-2.52696,38.10252],[-2.53002,38.10116],[-2.53178,38.10075],[-2.53388,38.10003],[-2.53517,38.09911],[-2.53696,38.09827],[-2.53752,38.0978],[-2.53782,38.09733],[-2.53829,38.09573],[-2.53906,38.09449],[-2.53941,38.09286],[-2.53967,38.09261],[-2.54012,38.09246],[-2.54169,38.09232],[-2.54227,38.09209],[-2.54421,38.09065],[-2.54528,38.09012],[-2.54587,38.08952],[-2.54633,38.08946],[-2.54674,38.08952],[-2.54709,38.08967],[-2.54741,38.09002],[-2.54778,38.09015],[-2.54827,38.09001],[-2.54853,38.08984],[-2.5492,38.08883],[-2.54891,38.08815],[-2.54844,38.08776],[-2.54837,38.08748],[-2.5487,38.08702],[-2.54904,38.08677],[-2.5494,38.0867],[-2.55049,38.08542],[-2.55129,38.0841],[-2.55243,38.08294],[-2.55305,38.08251],[-2.55358,38.08236],[-2.55419,38.08243],[-2.55513,38.08266],[-2.55571,38.0829],[-2.55594,38.08283],[-2.5564,38.08187],[-2.55682,38.0817],[-2.55785,38.08154],[-2.55945,38.08203],[-2.5601,38.08213],[-2.56147,38.08205],[-2.56202,38.08225],[-2.56351,38.08365],[-2.564,38.08382],[-2.56465,38.08375],[-2.56538,38.08354],[-2.56602,38.08321],[-2.56803,38.08065],[-2.56869,38.0801],[-2.56934,38.07928],[-2.56995,38.07872],[-2.57053,38.07855],[-2.57101,38.07864],[-2.57158,38.07848],[-2.573,38.07783],[-2.5732,38.07735],[-2.57303,38.07705],[-2.57255,38.07669],[-2.57174,38.07631],[-2.57135,38.07579],[-2.57158,38.0754],[-2.57188,38.07535],[-2.57275,38.07575],[-2.57309,38.07568],[-2.57333,38.07518],[-2.5734,38.07426],[-2.57376,38.07412],[-2.57599,38.07411],[-2.57693,38.07356],[-2.5774,38.0734],[-2.57835,38.0741],[-2.57997,38.0743],[-2.58063,38.07424],[-2.5811,38.07398],[-2.58115,38.07312],[-2.58138,38.07264],[-2.5817,38.07234],[-2.58214,38.07226],[-2.58309,38.07275],[-2.58379,38.07287],[-2.58553,38.07254],[-2.58593,38.07224],[-2.58621,38.0718],[-2.58649,38.07038],[-2.58676,38.07013],[-2.59188,38.07211],[-2.59469,38.07412],[-2.59467,38.07768],[-2.59675,38.07963],[-2.59715,38.08259],[-2.59719,38.08583],[-2.59791,38.089],[-2.59859,38.08965],[-2.60003,38.08985],[-2.60268,38.09112],[-2.60402,38.09228],[-2.60474,38.09273],[-2.60555,38.09308],[-2.60582,38.09338],[-2.60653,38.09384],[-2.60708,38.09439],[-2.60718,38.09465],[-2.60799,38.09561],[-2.6079,38.09645],[-2.60806,38.09718],[-2.60844,38.09807],[-2.60865,38.09831],[-2.61011,38.09919],[-2.61218,38.1008],[-2.61335,38.1013],[-2.61374,38.1018],[-2.61403,38.10261],[-2.61564,38.10383],[-2.61621,38.10414],[-2.61728,38.10512],[-2.61851,38.10535],[-2.62234,38.10637],[-2.62408,38.1051],[-2.62547,38.1045],[-2.62776,38.10371],[-2.62859,38.1033],[-2.6313,38.10225],[-2.63237,38.1017],[-2.63279,38.1014],[-2.63408,38.10004],[-2.6355,38.09955],[-2.63623,38.09884],[-2.6379,38.09821],[-2.63859,38.09764],[-2.63981,38.09639],[-2.64037,38.09598],[-2.64072,38.09581],[-2.64134,38.09587],[-2.64179,38.09568],[-2.64271,38.09493],[-2.64526,38.09363],[-2.64564,38.09336],[-2.64633,38.09252],[-2.64681,38.09238],[-2.6477,38.09255],[-2.64808,38.09236],[-2.64894,38.09136],[-2.64977,38.0909],[-2.65053,38.09025],[-2.65154,38.09106],[-2.65239,38.0915],[-2.65277,38.0916],[-2.65383,38.09143],[-2.65503,38.09087],[-2.65574,38.08974],[-2.6572,38.08856],[-2.6601,38.08531],[-2.66161,38.08488],[-2.66381,38.08402],[-2.66712,38.08153],[-2.66878,38.08066],[-2.67111,38.08002],[-2.67197,38.07956],[-2.67271,38.07897],[-2.67363,38.07754],[-2.67498,38.07661],[-2.67569,38.07632],[-2.67592,38.07604],[-2.67595,38.07574],[-2.67615,38.07544],[-2.67689,38.07513],[-2.67724,38.07479],[-2.67759,38.07459],[-2.67932,38.0742],[-2.67962,38.07406],[-2.68013,38.07403],[-2.68114,38.07343],[-2.6825,38.07278],[-2.68442,38.07149],[-2.68515,38.07113],[-2.68568,38.07101],[-2.68611,38.07104],[-2.68674,38.07134],[-2.68721,38.07088],[-2.68758,38.07014],[-2.68778,38.06926],[-2.68825,38.06869],[-2.68886,38.06825],[-2.69047,38.06743],[-2.69111,38.0669],[-2.6918,38.06664],[-2.69272,38.0659],[-2.69531,38.06411],[-2.69639,38.06357],[-2.69783,38.06326],[-2.698,38.063],[-2.69894,38.06226],[-2.70102,38.06189],[-2.70277,38.06146],[-2.70308,38.06125],[-2.70349,38.06076],[-2.70481,38.06031],[-2.70613,38.05927],[-2.70745,38.05848],[-2.70783,38.05816],[-2.70846,38.05825],[-2.70894,38.05816],[-2.70929,38.05785],[-2.70978,38.0571],[-2.71024,38.05674],[-2.7107,38.0566],[-2.71222,38.05656],[-2.71279,38.05645],[-2.714,38.05593],[-2.7152,38.05499],[-2.72121,38.05285],[-2.72215,38.05263],[-2.72295,38.05218],[-2.72359,38.05157],[-2.72641,38.04991],[-2.72737,38.04976],[-2.7284,38.04903],[-2.72933,38.0489],[-2.72978,38.04873],[-2.7316,38.04833],[-2.73198,38.04818],[-2.73253,38.04762],[-2.73339,38.04732],[-2.73407,38.04725],[-2.73445,38.04735],[-2.73719,38.04735],[-2.73853,38.04658],[-2.7398,38.04635],[-2.74056,38.04639],[-2.74133,38.04665],[-2.74348,38.04648],[-2.74404,38.04655],[-2.74449,38.04641],[-2.74594,38.04649],[-2.74664,38.046],[-2.74714,38.04531],[-2.74799,38.04383],[-2.74808,38.04346],[-2.74869,38.04326],[-2.74932,38.04319],[-2.74989,38.04282],[-2.75052,38.04263],[-2.75161,38.04174],[-2.75295,38.04164],[-2.75333,38.04154],[-2.75432,38.04089],[-2.7563,38.04011],[-2.75659,38.03974],[-2.758,38.03841],[-2.75839,38.03782],[-2.75877,38.03746],[-2.75959,38.03698],[-2.76027,38.03632],[-2.7632,38.03498],[-2.76399,38.03477],[-2.76497,38.03486],[-2.76609,38.03445],[-2.76762,38.03486],[-2.76807,38.03489],[-2.76894,38.0351],[-2.77055,38.03565],[-2.77183,38.03567],[-2.77284,38.03554],[-2.77364,38.03554],[-2.77372,38.03529],[-2.77429,38.03488],[-2.77463,38.03483],[-2.77614,38.03495],[-2.77663,38.0349],[-2.77712,38.0347],[-2.77775,38.03466],[-2.77915,38.03493],[-2.78008,38.03467],[-2.7806,38.03438],[-2.78146,38.03434],[-2.78226,38.03462],[-2.78263,38.03443],[-2.7833,38.03487],[-2.78441,38.03515],[-2.78527,38.03499],[-2.78561,38.03503],[-2.78602,38.03484],[-2.78665,38.03421],[-2.78738,38.03385],[-2.78956,38.03387],[-2.78981,38.03427],[-2.79108,38.0346],[-2.79148,38.0348],[-2.79227,38.03533],[-2.79248,38.03562],[-2.79273,38.03604],[-2.79275,38.03635],[-2.79246,38.03729],[-2.79239,38.03795],[-2.79264,38.03847],[-2.79266,38.03906],[-2.79236,38.03987],[-2.79367,38.04312],[-2.79415,38.04336],[-2.79457,38.04385],[-2.79499,38.04505],[-2.79592,38.04602],[-2.79624,38.04655],[-2.79619,38.04825],[-2.79697,38.04907],[-2.79788,38.04943],[-2.79849,38.04943],[-2.79871,38.05028],[-2.79899,38.05047],[-2.80021,38.05052],[-2.80068,38.05062],[-2.80035,38.05099],[-2.80045,38.05152],[-2.801,38.05198],[-2.80249,38.05242],[-2.80315,38.05229],[-2.80484,38.0532],[-2.80555,38.05297],[-2.80631,38.05335],[-2.80781,38.0529],[-2.80847,38.05286],[-2.80938,38.05329],[-2.81016,38.05338],[-2.81086,38.05323],[-2.811,38.05282],[-2.81132,38.05269],[-2.81287,38.05307],[-2.81302,38.05303],[-2.81293,38.05286],[-2.81418,38.05284],[-2.81452,38.05298],[-2.8153,38.05273],[-2.81634,38.05196],[-2.81695,38.05182],[-2.81801,38.05205],[-2.81833,38.0524],[-2.81925,38.05291],[-2.81882,38.0541],[-2.82011,38.05626],[-2.82052,38.05653],[-2.82142,38.05667],[-2.82164,38.05691],[-2.82182,38.05726],[-2.82179,38.05791],[-2.82223,38.05837],[-2.82256,38.05933],[-2.8228,38.05951],[-2.82358,38.0595],[-2.82402,38.0596],[-2.82423,38.05981],[-2.82496,38.06013],[-2.82519,38.06039],[-2.82542,38.06182],[-2.82601,38.06271],[-2.82646,38.06309],[-2.82662,38.06348],[-2.82712,38.06395],[-2.82696,38.06446],[-2.8274,38.06497],[-2.82703,38.06598],[-2.82666,38.06639],[-2.82627,38.06657],[-2.82732,38.06723],[-2.82766,38.06764],[-2.82814,38.068],[-2.82917,38.06855],[-2.83027,38.06875],[-2.83141,38.06875],[-2.83184,38.06906],[-2.83271,38.06944],[-2.83436,38.06986],[-2.83493,38.07033],[-2.83516,38.07087],[-2.83548,38.07127],[-2.83652,38.07163],[-2.83734,38.07241],[-2.8379,38.0727],[-2.83819,38.07301],[-2.83908,38.07462],[-2.84002,38.07478],[-2.8413,38.07525],[-2.84307,38.07518],[-2.84355,38.07526],[-2.84397,38.0754],[-2.84433,38.07565],[-2.84473,38.07655],[-2.84448,38.07726],[-2.84437,38.07804],[-2.84448,38.0783],[-2.84451,38.08021],[-2.84488,38.08104],[-2.84479,38.08145],[-2.84444,38.08172],[-2.8444,38.08201],[-2.844,38.08262],[-2.84397,38.08292],[-2.84374,38.08338],[-2.84377,38.08395],[-2.844,38.08428],[-2.84412,38.08481],[-2.84551,38.08604],[-2.84551,38.08668],[-2.84744,38.08901],[-2.84738,38.08934],[-2.84757,38.09121],[-2.84747,38.09187],[-2.84834,38.09292],[-2.84886,38.09325],[-2.84924,38.09407],[-2.85127,38.09648],[-2.85077,38.09672],[-2.84937,38.09712],[-2.84798,38.09736],[-2.84788,38.09787],[-2.84768,38.09827],[-2.8471,38.09885],[-2.84587,38.10046],[-2.84361,38.10201],[-2.84276,38.10293],[-2.84159,38.10363],[-2.84125,38.10401],[-2.84082,38.10475],[-2.8406,38.10546],[-2.84049,38.10631],[-2.84054,38.10697],[-2.84042,38.10763],[-2.83874,38.11136],[-2.83859,38.11212],[-2.83864,38.11354],[-2.83846,38.11431],[-2.83819,38.11499],[-2.83724,38.11655],[-2.83691,38.11776],[-2.83594,38.11922],[-2.83503,38.11999],[-2.83422,38.1211],[-2.8334,38.12376],[-2.8321,38.12715],[-2.83078,38.12934],[-2.82968,38.1316],[-2.8287,38.13311],[-2.82762,38.13431],[-2.82666,38.13658],[-2.82635,38.13707],[-2.82433,38.13919],[-2.82282,38.14117],[-2.82218,38.14245],[-2.82229,38.14325],[-2.82311,38.145],[-2.82349,38.14623],[-2.82351,38.14804],[-2.82322,38.14895],[-2.82253,38.15006],[-2.82165,38.15103],[-2.82095,38.15203],[-2.82029,38.15381],[-2.81983,38.15463],[-2.81501,38.1597],[-2.81365,38.16177],[-2.81158,38.16459],[-2.81068,38.16564],[-2.80932,38.1668],[-2.80833,38.16713],[-2.80701,38.16845],[-2.80537,38.17069],[-2.8044,38.17177],[-2.80357,38.17248],[-2.80273,38.17304],[-2.80172,38.17344],[-2.80065,38.1737],[-2.79722,38.1737],[-2.7959,38.17405],[-2.79525,38.17237],[-2.79471,38.17162],[-2.79404,38.17104],[-2.79034,38.16937],[-2.78954,38.1692],[-2.78882,38.16917],[-2.78788,38.16939],[-2.78664,38.16984],[-2.78586,38.16992],[-2.78512,38.16978],[-2.78385,38.16901],[-2.78333,38.16883],[-2.77754,38.16869],[-2.77602,38.16858],[-2.77435,38.16825],[-2.77202,38.16803],[-2.76756,38.16783],[-2.76553,38.16727],[-2.76333,38.16739],[-2.75937,38.167],[-2.75543,38.16706],[-2.75419,38.16684],[-2.75335,38.16612],[-2.75182,38.16537],[-2.75134,38.16531],[-2.75051,38.16535],[-2.74836,38.1659],[-2.74791,38.16621],[-2.74778,38.16684],[-2.74728,38.1672],[-2.74622,38.16756],[-2.74239,38.1682],[-2.74172,38.16849],[-2.74051,38.16931],[-2.73932,38.16991],[-2.73851,38.17026],[-2.73766,38.17049],[-2.73608,38.1706],[-2.73243,38.17065],[-2.72783,38.17101],[-2.72452,38.17299],[-2.72322,38.17402],[-2.71977,38.17721],[-2.71947,38.17738],[-2.71784,38.17727],[-2.71606,38.17735],[-2.71361,38.17725],[-2.71029,38.17746],[-2.70983,38.17767],[-2.70687,38.17581],[-2.70333,38.17679],[-2.7008,38.17771],[-2.70006,38.17765],[-2.69589,38.17647],[-2.69487,38.17628],[-2.69134,38.17596],[-2.6905,38.17502],[-2.68781,38.17476],[-2.6876,38.17334],[-2.68488,38.17304],[-2.68271,38.17296],[-2.68082,38.17319],[-2.6739,38.17359],[-2.67308,38.17356],[-2.67214,38.1732],[-2.67126,38.17298],[-2.66947,38.17289],[-2.66356,38.17187],[-2.65455,38.17054],[-2.65287,38.17002],[-2.64841,38.16902],[-2.64604,38.16836],[-2.6426,38.16763],[-2.64063,38.1671],[-2.64011,38.16685],[-2.63913,38.16667],[-2.63709,38.16664],[-2.63491,38.16638],[-2.63421,38.1664],[-2.6325,38.16684],[-2.6324,38.16642],[-2.63176,38.16569],[-2.63096,38.16503],[-2.63008,38.16448],[-2.62933,38.16372],[-2.62883,38.16255],[-2.62846,38.1621],[-2.62549,38.15995],[-2.62434,38.15944],[-2.6224,38.15814],[-2.62117,38.15759],[-2.62055,38.1574],[-2.61989,38.15734],[-2.61916,38.15757],[-2.61894,38.15781],[-2.61888,38.15827],[-2.61908,38.15876],[-2.61959,38.15954],[-2.61972,38.15999],[-2.61971,38.16031],[-2.61951,38.16067],[-2.61899,38.16102],[-2.61737,38.1617],[-2.61678,38.16207],[-2.61634,38.16254],[-2.61598,38.16324],[-2.61468,38.16404],[-2.6141,38.16428],[-2.61324,38.1653],[-2.61213,38.16591],[-2.61165,38.16632],[-2.61152,38.16683],[-2.61124,38.16726],[-2.6093,38.16827],[-2.60834,38.16896],[-2.60754,38.16982],[-2.60717,38.17043],[-2.60634,38.17267],[-2.60719,38.1733],[-2.60859,38.17391],[-2.60902,38.17427],[-2.60916,38.17474],[-2.60904,38.17506],[-2.60853,38.17564],[-2.60833,38.1761],[-2.60835,38.17635],[-2.60973,38.17805],[-2.61118,38.17941],[-2.61148,38.17983],[-2.61147,38.18009],[-2.61103,38.1805],[-2.60995,38.18122],[-2.60972,38.18161],[-2.60942,38.18287],[-2.60833,38.18446],[-2.60828,38.18486],[-2.6091,38.18647],[-2.60912,38.18681],[-2.60879,38.18895],[-2.60823,38.18976],[-2.60819,38.18995],[-2.60829,38.1902],[-2.60857,38.19044],[-2.61093,38.19164],[-2.61138,38.19216],[-2.61242,38.19448],[-2.61304,38.19546],[-2.61364,38.19602],[-2.61394,38.19613],[-2.61646,38.19618],[-2.61698,38.1964],[-2.61747,38.19684],[-2.61844,38.19885],[-2.61885,38.19987],[-2.61898,38.20092],[-2.61966,38.20232],[-2.61947,38.20321],[-2.61797,38.20635],[-2.61696,38.20795],[-2.61642,38.20931],[-2.61627,38.21012],[-2.61636,38.2113],[-2.61729,38.21417],[-2.61744,38.2151],[-2.61702,38.21837],[-2.61712,38.2193],[-2.61764,38.22011],[-2.6176,38.22047],[-2.6166,38.22228],[-2.61617,38.22434],[-2.61472,38.22613],[-2.61434,38.22748],[-2.61389,38.22774],[-2.61299,38.22771],[-2.61215,38.22753],[-2.61145,38.22708],[-2.6084,38.22632],[-2.60789,38.226],[-2.60696,38.22473],[-2.60662,38.22467],[-2.60623,38.22478],[-2.60362,38.22617],[-2.60262,38.22656],[-2.59843,38.22787],[-2.59744,38.22801],[-2.59579,38.2284],[-2.59178,38.22872],[-2.58754,38.22956],[-2.58284,38.22976],[-2.58245,38.23086],[-2.58185,38.23209],[-2.58142,38.2334],[-2.58101,38.23413],[-2.58016,38.23502],[-2.57946,38.23557],[-2.57815,38.23431],[-2.57696,38.23454],[-2.57528,38.235],[-2.57256,38.23593],[-2.56971,38.23705],[-2.56902,38.23741],[-2.56848,38.23832],[-2.56574,38.2415],[-2.56558,38.2422],[-2.56578,38.24365],[-2.56566,38.24398],[-2.56415,38.2457],[-2.56176,38.2444],[-2.56096,38.24419],[-2.56046,38.24424],[-2.55998,38.2445],[-2.55939,38.24501],[-2.55834,38.24632],[-2.55717,38.24817],[-2.55624,38.25003],[-2.55566,38.2514],[-2.55507,38.25374],[-2.55282,38.25633],[-2.55181,38.25729],[-2.54949,38.25741],[-2.54903,38.25753],[-2.5481,38.2581],[-2.54753,38.25824],[-2.54676,38.25928],[-2.5467,38.25981],[-2.54685,38.26056],[-2.54665,38.2612],[-2.54403,38.26137],[-2.54255,38.26173],[-2.54198,38.26203],[-2.54158,38.26244],[-2.54133,38.26379],[-2.53979,38.26576],[-2.53865,38.26685],[-2.53791,38.26735],[-2.53366,38.26762],[-2.53286,38.26788],[-2.5317,38.26861],[-2.5304,38.26999],[-2.53011,38.27054],[-2.53033,38.27172],[-2.53008,38.27314],[-2.53008,38.27412],[-2.53034,38.2754],[-2.53064,38.27583],[-2.52934,38.27545],[-2.52885,38.27544],[-2.52611,38.27633],[-2.52441,38.27641],[-2.52092,38.27608],[-2.51993,38.2759],[-2.51878,38.27596],[-2.51666,38.27632],[-2.51433,38.27701],[-2.51138,38.27817],[-2.51092,38.27816],[-2.50975,38.27783],[-2.50909,38.27736],[-2.50855,38.27678],[-2.50596,38.27331],[-2.50535,38.272],[-2.50487,38.27011],[-2.5045,38.26945],[-2.50192,38.26623],[-2.50146,38.26552],[-2.5006,38.26454],[-2.49943,38.26348],[-2.4977,38.26226],[-2.49699,38.26188],[-2.4957,38.26146],[-2.4931,38.26105],[-2.49193,38.26097],[-2.49208,38.26007],[-2.49365,38.25468],[-2.49411,38.2494],[-2.49463,38.2466],[-2.49492,38.24563],[-2.49495,38.24359],[-2.49403,38.24335],[-2.49317,38.24333],[-2.49189,38.24337],[-2.4908,38.2436],[-2.4887,38.24474],[-2.48743,38.24575],[-2.48292,38.24901],[-2.48245,38.24909],[-2.4817,38.24906],[-2.47878,38.24817],[-2.47816,38.24782],[-2.47735,38.24701],[-2.47547,38.2444],[-2.47439,38.24354],[-2.47356,38.24273],[-2.4725,38.24144],[-2.47062,38.23982],[-2.46981,38.23946],[-2.46551,38.23832],[-2.46503,38.23813],[-2.46185,38.23636],[-2.45954,38.23535],[-2.4591,38.23347],[-2.45824,38.23129],[-2.45806,38.23102],[-2.45779,38.23084],[-2.45655,38.23029],[-2.45578,38.22858],[-2.45578,38.22429],[-2.45606,38.22334],[-2.45675,38.22271],[-2.45687,38.22244],[-2.45684,38.22167],[-2.45648,38.22073],[-2.455,38.2192],[-2.45443,38.21829],[-2.45425,38.21816],[-2.4537,38.21825]],[[-2.78125,38.14568],[-2.78405,38.14634],[-2.7849,38.14636],[-2.78671,38.14596],[-2.78735,38.14598],[-2.78866,38.14633],[-2.78925,38.14617],[-2.7914,38.14611],[-2.7939,38.14585],[-2.79502,38.14581],[-2.79568,38.14603],[-2.79642,38.14603],[-2.79799,38.14551],[-2.80049,38.14414],[-2.80146,38.14252],[-2.80253,38.14024],[-2.80331,38.13911],[-2.80373,38.13866],[-2.80448,38.13835],[-2.80486,38.13835],[-2.80666,38.139],[-2.8101,38.13836],[-2.81189,38.13784],[-2.81759,38.11672],[-2.81841,38.11551],[-2.82026,38.11348],[-2.82319,38.10929],[-2.8232,38.10882],[-2.82372,38.10754],[-2.82455,38.10652],[-2.82544,38.10562],[-2.8258,38.1051],[-2.82614,38.10394],[-2.82627,38.10293],[-2.82883,38.09764],[-2.82829,38.09626],[-2.828,38.09603],[-2.82721,38.0959],[-2.82562,38.09581],[-2.82423,38.09556],[-2.82328,38.09547],[-2.82191,38.09552],[-2.82093,38.09536],[-2.82033,38.09503],[-2.81954,38.09396],[-2.8162,38.0923],[-2.8142,38.09171],[-2.81353,38.09136],[-2.81346,38.09077],[-2.81387,38.08939],[-2.8139,38.08839],[-2.8129,38.08809],[-2.81206,38.08584],[-2.80977,38.08497],[-2.8088,38.08415],[-2.80824,38.08342],[-2.80782,38.08305],[-2.80714,38.08261],[-2.8064,38.08241],[-2.80528,38.08237],[-2.80414,38.08245],[-2.80311,38.0829],[-2.80225,38.08366],[-2.80123,38.08499],[-2.8008,38.08592],[-2.80084,38.0863],[-2.80105,38.08676],[-2.80162,38.08727],[-2.80206,38.08791],[-2.80221,38.08845],[-2.80097,38.09104],[-2.80042,38.09189],[-2.79972,38.09385],[-2.79874,38.09485],[-2.79804,38.09538],[-2.79716,38.09585],[-2.79634,38.09601],[-2.7953,38.0959],[-2.79395,38.09542],[-2.79309,38.09532],[-2.79253,38.09552],[-2.79194,38.09606],[-2.79174,38.0965],[-2.79143,38.09819],[-2.79108,38.09847],[-2.79054,38.09872],[-2.78823,38.09897],[-2.7877,38.09913],[-2.78658,38.09994],[-2.78582,38.10021],[-2.78489,38.1002],[-2.78273,38.09969],[-2.78196,38.09928],[-2.78061,38.09834],[-2.77945,38.09835],[-2.77742,38.09858],[-2.77571,38.10031],[-2.77396,38.10138],[-2.77223,38.10287],[-2.77147,38.10329],[-2.77075,38.10387],[-2.76986,38.10418],[-2.76853,38.10366],[-2.76798,38.1036],[-2.76759,38.10377],[-2.76671,38.10459],[-2.76627,38.10531],[-2.76557,38.10586],[-2.76473,38.10685],[-2.76446,38.10737],[-2.76442,38.10821],[-2.7646,38.10938],[-2.76445,38.10972],[-2.76257,38.11107],[-2.76139,38.11264],[-2.76135,38.11296],[-2.76162,38.11343],[-2.76347,38.11554],[-2.76373,38.11614],[-2.76424,38.12027],[-2.76423,38.12287],[-2.76444,38.12376],[-2.76481,38.1243],[-2.76524,38.12464],[-2.76605,38.12489],[-2.76786,38.12522],[-2.76947,38.12538],[-2.77046,38.12538],[-2.77295,38.12508],[-2.77552,38.12446],[-2.7761,38.12624],[-2.77671,38.12722],[-2.77752,38.12761],[-2.77807,38.12754],[-2.77916,38.12662],[-2.78061,38.12491],[-2.78149,38.1236],[-2.78191,38.12336],[-2.78312,38.12421],[-2.78397,38.12494],[-2.78437,38.12553],[-2.78453,38.12599],[-2.78416,38.12686],[-2.78232,38.12902],[-2.78109,38.13006],[-2.78053,38.13042],[-2.77987,38.13069],[-2.77938,38.13156],[-2.77915,38.13234],[-2.77921,38.13286],[-2.77988,38.13409],[-2.77995,38.13446],[-2.77968,38.13614],[-2.77929,38.13676],[-2.77773,38.13804],[-2.77765,38.13837],[-2.77882,38.14184],[-2.77918,38.14246],[-2.78142,38.14432],[-2.78164,38.14492],[-2.78125,38.14568]],[[-2.54885,38.11451],[-2.54792,38.1149],[-2.54798,38.11535],[-2.5496,38.11461],[-2.55013,38.11455],[-2.55064,38.11491],[-2.55116,38.11502],[-2.55159,38.11485],[-2.55241,38.11478],[-2.55273,38.11427],[-2.5528,38.11386],[-2.55422,38.11312],[-2.55367,38.11216],[-2.55373,38.11069],[-2.55403,38.11039],[-2.55453,38.11037],[-2.55515,38.11017],[-2.5563,38.11002],[-2.55713,38.11004],[-2.55699,38.10965],[-2.55648,38.10947],[-2.55538,38.10937],[-2.55526,38.10897],[-2.55612,38.10794],[-2.55659,38.10787],[-2.55689,38.10754],[-2.556,38.10732],[-2.55509,38.10778],[-2.55467,38.10824],[-2.55374,38.10814],[-2.55251,38.10868],[-2.55161,38.10896],[-2.55112,38.10879],[-2.55081,38.10924],[-2.55004,38.11],[-2.5498,38.11043],[-2.54935,38.11085],[-2.5489,38.11109],[-2.54816,38.11201],[-2.54813,38.11237],[-2.5487,38.11305],[-2.54919,38.11412],[-2.54885,38.11451]]]}},{"type":"Feature","properties":{"id":"2390402002"},"geometry":{"type":"Polygon","coordinates":[[[-2.58676,38.07013],[-2.58719,38.07002],[-2.59143,38.06953],[-2.59175,38.06911],[-2.59206,38.068],[-2.59225,38.06766],[-2.59405,38.06701],[-2.59428,38.06677],[-2.59384,38.06538],[-2.59397,38.06495],[-2.59483,38.06484],[-2.59549,38.06491],[-2.59643,38.06414],[-2.59712,38.06371],[-2.60026,38.06281],[-2.60238,38.06205],[-2.60319,38.0622],[-2.60412,38.06255],[-2.60473,38.06256],[-2.6052,38.06247],[-2.60579,38.06223],[-2.60632,38.06186],[-2.60663,38.06145],[-2.60672,38.06019],[-2.60506,38.06029],[-2.60407,38.06014],[-2.59896,38.05877],[-2.59795,38.05687],[-2.59697,38.05605],[-2.59641,38.05531],[-2.5961,38.05455],[-2.59585,38.05319],[-2.59628,38.05059],[-2.59664,38.04954],[-2.59794,38.0467],[-2.59915,38.0452],[-2.59994,38.04362],[-2.59928,38.03744],[-2.59935,38.03623],[-2.59949,38.03576],[-2.59934,38.0351],[-2.59858,38.03395],[-2.59853,38.03352],[-2.59881,38.03045],[-2.59874,38.02927],[-2.59903,38.02495],[-2.59815,38.01968],[-2.59822,38.01687],[-2.59869,38.01353],[-2.59866,38.01187],[-2.59848,38.01078],[-2.59766,38.00887],[-2.59783,38.00842],[-2.59771,38.00721],[-2.5982,38.00558],[-2.59943,38.00384],[-2.60051,38.003],[-2.60318,38.00219],[-2.60453,38.0014],[-2.60473,38.00079],[-2.60406,37.99942],[-2.60427,37.99906],[-2.60512,37.99815],[-2.60623,37.99743],[-2.60682,37.99722],[-2.60931,37.9968],[-2.60968,37.99658],[-2.61088,37.99516],[-2.61267,37.99379],[-2.6146,37.99201],[-2.61787,37.98971],[-2.62033,37.98822],[-2.62135,37.98788],[-2.62388,37.98744],[-2.62487,37.98708],[-2.62619,37.98635],[-2.62783,37.98507],[-2.62879,37.98452],[-2.63082,37.98427],[-2.63169,37.98396],[-2.63236,37.98361],[-2.63335,37.98338],[-2.63499,37.9832],[-2.63664,37.98313],[-2.63786,37.98333],[-2.63829,37.98325],[-2.64016,37.98201],[-2.64253,37.98108],[-2.64314,37.98033],[-2.64333,37.97945],[-2.64365,37.97905],[-2.64491,37.97797],[-2.64603,37.97654],[-2.64748,37.97541],[-2.64914,37.97313],[-2.64985,37.97251],[-2.65037,37.97138],[-2.65388,37.97334],[-2.65468,37.97416],[-2.65514,37.97482],[-2.65569,37.97616],[-2.65616,37.97677],[-2.65776,37.97826],[-2.65926,37.97906],[-2.65997,37.97929],[-2.66151,37.97957],[-2.66193,37.97978],[-2.66256,37.9803],[-2.66374,37.98052],[-2.664,37.98069],[-2.66355,37.98149],[-2.66297,37.98216],[-2.66166,37.98303],[-2.66056,37.98389],[-2.65969,37.98497],[-2.65973,37.98548],[-2.65929,37.98619],[-2.65938,37.98642],[-2.66003,37.98695],[-2.66093,37.9873],[-2.66116,37.98749],[-2.65701,37.99032],[-2.65606,37.99077],[-2.65588,37.99095],[-2.6558,37.9916],[-2.65563,37.99189],[-2.6553,37.99214],[-2.65466,37.99234],[-2.6543,37.9927],[-2.65406,37.99316],[-2.65328,37.9936],[-2.65312,37.99382],[-2.65287,37.99497],[-2.65273,37.9952],[-2.65161,37.99572],[-2.65137,37.99594],[-2.65127,37.99623],[-2.65141,37.99717],[-2.65134,37.99813],[-2.65119,37.99863],[-2.65148,37.99965],[-2.65129,38.00017],[-2.65135,38.00073],[-2.65189,38.00136],[-2.65227,38.00246],[-2.65286,38.00321],[-2.65309,38.00387],[-2.65311,38.00652],[-2.65298,38.0069],[-2.65162,38.00805],[-2.64964,38.01034],[-2.64907,38.01129],[-2.64848,38.01175],[-2.64785,38.0125],[-2.64711,38.01369],[-2.64666,38.01467],[-2.64614,38.01747],[-2.64565,38.01819],[-2.6447,38.01882],[-2.64421,38.0194],[-2.644,38.02142],[-2.64421,38.02331],[-2.64698,38.02249],[-2.6488,38.02223],[-2.64948,38.02231],[-2.65119,38.02306],[-2.65175,38.02321],[-2.65214,38.02317],[-2.65261,38.02298],[-2.65394,38.02177],[-2.65452,38.02143],[-2.65596,38.02115],[-2.65689,38.02112],[-2.65758,38.02093],[-2.6582,38.02087],[-2.6589,38.02065],[-2.6595,38.02061],[-2.66015,38.02077],[-2.66061,38.02076],[-2.66095,38.02056],[-2.66198,38.01964],[-2.6626,38.01941],[-2.66237,38.01876],[-2.66111,38.01732],[-2.66091,38.01684],[-2.6611,38.01607],[-2.66098,38.0157],[-2.6614,38.01503],[-2.66155,38.01366],[-2.66284,38.01244],[-2.6646,38.00942],[-2.66669,38.00679],[-2.66805,38.00457],[-2.67028,38.00176],[-2.67096,38.00118],[-2.67174,38.00018],[-2.67206,37.99906],[-2.67236,37.99872],[-2.67308,37.99838],[-2.67341,37.99777],[-2.67374,37.99753],[-2.67417,37.99652],[-2.67536,37.99576],[-2.6764,37.99466],[-2.67734,37.99399],[-2.67926,37.99129],[-2.68024,37.99084],[-2.68253,37.99034],[-2.68348,37.98984],[-2.68395,37.98941],[-2.68554,37.98763],[-2.68713,37.98502],[-2.6861,37.98376],[-2.68735,37.98245],[-2.68762,37.98186],[-2.6876,37.98153],[-2.68749,37.9813],[-2.68516,37.97871],[-2.68731,37.97724],[-2.68808,37.97682],[-2.68835,37.97656],[-2.6888,37.97541],[-2.68894,37.97432],[-2.69039,37.97328],[-2.69145,37.97281],[-2.69224,37.97336],[-2.69426,37.97445],[-2.69941,37.97245],[-2.70267,37.97153],[-2.70391,37.96925],[-2.7061,37.96733],[-2.70745,37.96717],[-2.70804,37.96727],[-2.70943,37.9678],[-2.71023,37.96793],[-2.71403,37.9647],[-2.71484,37.96373],[-2.7154,37.96275],[-2.71556,37.96223],[-2.71873,37.9637],[-2.72286,37.96246],[-2.72412,37.957],[-2.72418,37.95583],[-2.72589,37.95532],[-2.72778,37.95549],[-2.72807,37.9553],[-2.72924,37.95354],[-2.7313,37.94885],[-2.73205,37.94853],[-2.73421,37.94908],[-2.73668,37.94733],[-2.73761,37.94626],[-2.73786,37.94573],[-2.73876,37.94459],[-2.7389,37.94429],[-2.73908,37.94278],[-2.73946,37.94158],[-2.74107,37.93969],[-2.74204,37.9373],[-2.74315,37.93578],[-2.74373,37.93523],[-2.74432,37.93491],[-2.74864,37.93316],[-2.75081,37.93196],[-2.75248,37.93121],[-2.75402,37.92832],[-2.75477,37.92743],[-2.7556,37.92667],[-2.75744,37.92591],[-2.75899,37.92457],[-2.75936,37.92399],[-2.76145,37.92278],[-2.76285,37.9218],[-2.76467,37.92096],[-2.76616,37.9205],[-2.76717,37.91934],[-2.76745,37.91935],[-2.76724,37.92027],[-2.76821,37.92228],[-2.76862,37.92281],[-2.7703,37.92401],[-2.77265,37.92508],[-2.77255,37.92557],[-2.7732,37.92594],[-2.77431,37.92558],[-2.77363,37.9271],[-2.77365,37.92734],[-2.77517,37.92952],[-2.77569,37.92999],[-2.77613,37.93024],[-2.77969,37.93144],[-2.78105,37.93161],[-2.78142,37.93186],[-2.78188,37.93238],[-2.78242,37.93332],[-2.78252,37.934],[-2.78215,37.93607],[-2.78056,37.9395],[-2.78073,37.94109],[-2.78063,37.94221],[-2.78019,37.94311],[-2.78074,37.94415],[-2.78133,37.94477],[-2.78203,37.94519],[-2.7827,37.9453],[-2.78397,37.94498],[-2.78523,37.94519],[-2.78603,37.94499],[-2.78727,37.94499],[-2.78821,37.9448],[-2.78919,37.94473],[-2.78969,37.94439],[-2.79014,37.9435],[-2.79052,37.94311],[-2.7917,37.94269],[-2.79217,37.94197],[-2.79306,37.94137],[-2.79398,37.94091],[-2.79431,37.94093],[-2.79472,37.94117],[-2.79546,37.94252],[-2.79585,37.94271],[-2.79766,37.94323],[-2.7979,37.94348],[-2.79793,37.94424],[-2.79908,37.94466],[-2.79974,37.94519],[-2.80067,37.94654],[-2.80109,37.94735],[-2.80112,37.948],[-2.80101,37.94831],[-2.79994,37.94951],[-2.79956,37.95016],[-2.79941,37.95067],[-2.79942,37.9513],[-2.8006,37.95347],[-2.8001,37.95557],[-2.80012,37.95592],[-2.80031,37.95609],[-2.80108,37.95644],[-2.80205,37.95666],[-2.80301,37.95663],[-2.80424,37.95609],[-2.80458,37.95606],[-2.8052,37.95629],[-2.80535,37.95654],[-2.80493,37.95789],[-2.80493,37.95834],[-2.80507,37.95872],[-2.80543,37.95903],[-2.80619,37.95946],[-2.80845,37.96023],[-2.8092,37.96064],[-2.80956,37.96129],[-2.81047,37.96226],[-2.81095,37.96252],[-2.81401,37.96374],[-2.81521,37.965],[-2.81554,37.96558],[-2.81538,37.96659],[-2.81491,37.9677],[-2.81486,37.96793],[-2.81499,37.96814],[-2.81537,37.96832],[-2.81665,37.96861],[-2.81819,37.96833],[-2.81893,37.96856],[-2.81921,37.96936],[-2.81877,37.97049],[-2.81878,37.97214],[-2.81863,37.9734],[-2.81883,37.97427],[-2.8186,37.97491],[-2.81827,37.97538],[-2.81532,37.9777],[-2.81509,37.97801],[-2.81502,37.97838],[-2.81428,37.97929],[-2.81472,37.98082],[-2.81502,37.98138],[-2.81484,37.98204],[-2.81538,37.98269],[-2.81547,37.98304],[-2.81541,37.98388],[-2.81456,37.986],[-2.81453,37.98638],[-2.81492,37.98695],[-2.81552,37.98752],[-2.81599,37.98782],[-2.81638,37.98796],[-2.81782,37.98794],[-2.81896,37.9882],[-2.82031,37.98794],[-2.82069,37.98797],[-2.82275,37.98862],[-2.82485,37.98874],[-2.82538,37.9892],[-2.8264,37.98972],[-2.82714,37.99066],[-2.82733,37.99115],[-2.8279,37.992],[-2.82865,37.99376],[-2.829,37.99426],[-2.82964,37.99474],[-2.83078,37.99522],[-2.83246,37.99532],[-2.83385,37.99558],[-2.83448,37.9958],[-2.83663,37.99719],[-2.83857,37.9981],[-2.84097,37.99882],[-2.84141,37.99885],[-2.84173,37.99917],[-2.84253,37.99964],[-2.84277,37.99968],[-2.84374,37.99949],[-2.844,37.99952],[-2.84444,37.99997],[-2.84416,38.0003],[-2.84401,38.00068],[-2.84414,38.00102],[-2.84478,38.00132],[-2.84577,38.0014],[-2.84822,38.00204],[-2.84871,38.00236],[-2.84903,38.00271],[-2.84935,38.00334],[-2.84993,38.00407],[-2.84991,38.00425],[-2.84965,38.00443],[-2.84875,38.00566],[-2.84881,38.00589],[-2.84911,38.00606],[-2.8505,38.00632],[-2.85073,38.00655],[-2.85101,38.00747],[-2.85134,38.00789],[-2.85178,38.00806],[-2.85243,38.00805],[-2.85427,38.0076],[-2.85527,38.00804],[-2.85589,38.00878],[-2.85633,38.00899],[-2.85811,38.00891],[-2.85866,38.00898],[-2.85892,38.00917],[-2.8593,38.01028],[-2.8597,38.01208],[-2.85978,38.01427],[-2.86006,38.01472],[-2.8606,38.01512],[-2.86121,38.01539],[-2.86178,38.01589],[-2.8623,38.01619],[-2.86308,38.01633],[-2.86588,38.0167],[-2.86765,38.0168],[-2.86794,38.01667],[-2.8683,38.01559],[-2.86886,38.01526],[-2.86964,38.01501],[-2.87028,38.01454],[-2.87064,38.01411],[-2.87101,38.01316],[-2.87169,38.01214],[-2.87349,38.01024],[-2.87368,38.00992],[-2.87376,38.00965],[-2.87304,38.00821],[-2.8729,38.00747],[-2.87323,38.00709],[-2.87509,38.0059],[-2.87662,38.00472],[-2.87786,38.00331],[-2.87809,38.00281],[-2.87811,38.00231],[-2.87781,38.00102],[-2.87788,38.00063],[-2.8786,38.0001],[-2.87909,37.99918],[-2.87942,37.9988],[-2.87984,37.99787],[-2.88075,37.99717],[-2.88128,37.99696],[-2.88343,37.99673],[-2.8844,37.99677],[-2.88462,37.99708],[-2.88461,37.99737],[-2.88388,37.99734],[-2.88298,37.99761],[-2.88253,37.99793],[-2.88192,37.99896],[-2.88198,37.99938],[-2.88256,37.99972],[-2.88347,38.00116],[-2.88404,38.00179],[-2.88427,38.00265],[-2.88421,38.00433],[-2.88448,38.00502],[-2.88487,38.00546],[-2.88654,38.00639],[-2.88744,38.00706],[-2.8882,38.00788],[-2.88894,38.00845],[-2.88995,38.00867],[-2.89167,38.00874],[-2.89229,38.009],[-2.89329,38.00959],[-2.89442,38.01006],[-2.89776,38.01066],[-2.89951,38.0153],[-2.89923,38.01635],[-2.90026,38.01919],[-2.90087,38.02047],[-2.90134,38.02096],[-2.90213,38.02271],[-2.90259,38.02326],[-2.90308,38.02354],[-2.90366,38.02371],[-2.90413,38.02368],[-2.9041,38.02488],[-2.90384,38.02544],[-2.90223,38.02743],[-2.90215,38.02779],[-2.90237,38.02882],[-2.90225,38.02912],[-2.90117,38.03022],[-2.89955,38.03316],[-2.89876,38.03397],[-2.89798,38.03501],[-2.89754,38.03591],[-2.89715,38.03772],[-2.89982,38.0398],[-2.89977,38.04231],[-2.90028,38.04516],[-2.90026,38.04603],[-2.90289,38.04819],[-2.90317,38.05019],[-2.9018,38.05148],[-2.90021,38.05513],[-2.90065,38.05602],[-2.90224,38.05739],[-2.90203,38.05969],[-2.90114,38.06039],[-2.89915,38.06248],[-2.89767,38.06257],[-2.89564,38.06283],[-2.89346,38.06437],[-2.88889,38.06477],[-2.88831,38.06504],[-2.88379,38.06755],[-2.88315,38.06933],[-2.88068,38.07017],[-2.87976,38.07157],[-2.87887,38.07237],[-2.87822,38.07261],[-2.87784,38.07266],[-2.87585,38.07211],[-2.87419,38.07273],[-2.87256,38.07577],[-2.87183,38.07683],[-2.87145,38.07783],[-2.87061,38.08096],[-2.87031,38.08156],[-2.86976,38.08229],[-2.86821,38.08385],[-2.86731,38.08444],[-2.86672,38.08469],[-2.86503,38.0846],[-2.8628,38.08498],[-2.86217,38.08477],[-2.86186,38.08476],[-2.86122,38.08518],[-2.86078,38.08528],[-2.8605,38.08526],[-2.85974,38.08445],[-2.85843,38.08572],[-2.85763,38.08755],[-2.8573,38.08794],[-2.85542,38.08921],[-2.85527,38.08951],[-2.8554,38.09118],[-2.85604,38.09325],[-2.85633,38.09469],[-2.85624,38.09491],[-2.85573,38.09521],[-2.8546,38.09565],[-2.85428,38.09564],[-2.85307,38.09587],[-2.85127,38.09648],[-2.84924,38.09407],[-2.84886,38.09325],[-2.84834,38.09292],[-2.84747,38.09187],[-2.84757,38.09121],[-2.84738,38.08934],[-2.84744,38.08901],[-2.84551,38.08668],[-2.84551,38.08604],[-2.84412,38.08481],[-2.844,38.08428],[-2.84377,38.08395],[-2.84374,38.08338],[-2.84397,38.08292],[-2.844,38.08262],[-2.8444,38.08201],[-2.84444,38.08172],[-2.84479,38.08145],[-2.84488,38.08104],[-2.84451,38.08021],[-2.84448,38.0783],[-2.84437,38.07804],[-2.84448,38.07726],[-2.84473,38.07655],[-2.84433,38.07565],[-2.84397,38.0754],[-2.84355,38.07526],[-2.84307,38.07518],[-2.8413,38.07525],[-2.84002,38.07478],[-2.83908,38.07462],[-2.83819,38.07301],[-2.8379,38.0727],[-2.83734,38.07241],[-2.83652,38.07163],[-2.83548,38.07127],[-2.83516,38.07087],[-2.83493,38.07033],[-2.83436,38.06986],[-2.83271,38.06944],[-2.83184,38.06906],[-2.83141,38.06875],[-2.83027,38.06875],[-2.82917,38.06855],[-2.82814,38.068],[-2.82766,38.06764],[-2.82732,38.06723],[-2.82627,38.06657],[-2.82666,38.06639],[-2.82703,38.06598],[-2.8274,38.06497],[-2.82696,38.06446],[-2.82712,38.06395],[-2.82662,38.06348],[-2.82646,38.06309],[-2.82601,38.06271],[-2.82542,38.06182],[-2.82519,38.06039],[-2.82496,38.06013],[-2.82423,38.05981],[-2.82402,38.0596],[-2.82358,38.0595],[-2.8228,38.05951],[-2.82256,38.05933],[-2.82223,38.05837],[-2.82179,38.05791],[-2.82182,38.05726],[-2.82164,38.05691],[-2.82142,38.05667],[-2.82052,38.05653],[-2.82011,38.05626],[-2.81882,38.0541],[-2.81925,38.05291],[-2.81833,38.0524],[-2.81801,38.05205],[-2.81695,38.05182],[-2.81634,38.05196],[-2.8153,38.05273],[-2.81452,38.05298],[-2.81418,38.05284],[-2.81293,38.05286],[-2.81302,38.05303],[-2.81287,38.05307],[-2.81132,38.05269],[-2.811,38.05282],[-2.81086,38.05323],[-2.81016,38.05338],[-2.80938,38.05329],[-2.80847,38.05286],[-2.80781,38.0529],[-2.80631,38.05335],[-2.80555,38.05297],[-2.80484,38.0532],[-2.80315,38.05229],[-2.80249,38.05242],[-2.801,38.05198],[-2.80045,38.05152],[-2.80035,38.05099],[-2.80068,38.05062],[-2.80021,38.05052],[-2.79899,38.05047],[-2.79871,38.05028],[-2.79849,38.04943],[-2.79788,38.04943],[-2.79697,38.04907],[-2.79619,38.04825],[-2.79624,38.04655],[-2.79592,38.04602],[-2.79499,38.04505],[-2.79457,38.04385],[-2.79415,38.04336],[-2.79367,38.04312],[-2.79236,38.03987],[-2.79266,38.03906],[-2.79264,38.03847],[-2.79239,38.03795],[-2.79246,38.03729],[-2.79273,38.03662],[-2.79273,38.03604],[-2.79227,38.03533],[-2.79187,38.03503],[-2.79108,38.0346],[-2.78981,38.03427],[-2.78956,38.03387],[-2.78738,38.03385],[-2.78665,38.03421],[-2.78602,38.03484],[-2.78561,38.03503],[-2.78527,38.03499],[-2.78441,38.03515],[-2.7833,38.03487],[-2.78263,38.03443],[-2.78226,38.03462],[-2.78146,38.03434],[-2.7806,38.03438],[-2.78008,38.03467],[-2.77915,38.03493],[-2.77775,38.03466],[-2.77712,38.0347],[-2.77663,38.0349],[-2.77614,38.03495],[-2.77463,38.03483],[-2.77429,38.03488],[-2.77372,38.03529],[-2.77364,38.03554],[-2.77284,38.03554],[-2.77183,38.03567],[-2.77055,38.03565],[-2.76894,38.0351],[-2.76807,38.03489],[-2.76762,38.03486],[-2.76609,38.03445],[-2.76497,38.03486],[-2.76399,38.03477],[-2.7632,38.03498],[-2.76027,38.03632],[-2.75959,38.03698],[-2.75877,38.03746],[-2.75839,38.03782],[-2.758,38.03841],[-2.75659,38.03974],[-2.7563,38.04011],[-2.75432,38.04089],[-2.75333,38.04154],[-2.75295,38.04164],[-2.75161,38.04174],[-2.75052,38.04263],[-2.74989,38.04282],[-2.74932,38.04319],[-2.74869,38.04326],[-2.74808,38.04346],[-2.74799,38.04383],[-2.74714,38.04531],[-2.74664,38.046],[-2.74594,38.04649],[-2.74449,38.04641],[-2.74404,38.04655],[-2.74348,38.04648],[-2.74133,38.04665],[-2.74056,38.04639],[-2.7398,38.04635],[-2.73853,38.04658],[-2.73719,38.04735],[-2.73445,38.04735],[-2.73407,38.04725],[-2.73339,38.04732],[-2.73253,38.04762],[-2.73198,38.04818],[-2.7316,38.04833],[-2.72978,38.04873],[-2.72933,38.0489],[-2.7284,38.04903],[-2.72737,38.04976],[-2.72641,38.04991],[-2.72359,38.05157],[-2.72295,38.05218],[-2.72215,38.05263],[-2.72121,38.05285],[-2.7152,38.05499],[-2.714,38.05593],[-2.71279,38.05645],[-2.71222,38.05656],[-2.7107,38.0566],[-2.71024,38.05674],[-2.70978,38.0571],[-2.70929,38.05785],[-2.70894,38.05816],[-2.70846,38.05825],[-2.70783,38.05816],[-2.70745,38.05848],[-2.70613,38.05927],[-2.70481,38.06031],[-2.70349,38.06076],[-2.70308,38.06125],[-2.70277,38.06146],[-2.70102,38.06189],[-2.69894,38.06226],[-2.698,38.063],[-2.69783,38.06326],[-2.69639,38.06357],[-2.69531,38.06411],[-2.69272,38.0659],[-2.6918,38.06664],[-2.69111,38.0669],[-2.69047,38.06743],[-2.68886,38.06825],[-2.68825,38.06869],[-2.68778,38.06926],[-2.68758,38.07014],[-2.68721,38.07088],[-2.68674,38.07134],[-2.68611,38.07104],[-2.68568,38.07101],[-2.68515,38.07113],[-2.68442,38.07149],[-2.6825,38.07278],[-2.68114,38.07343],[-2.68013,38.07403],[-2.67962,38.07406],[-2.67932,38.0742],[-2.67759,38.07459],[-2.67724,38.07479],[-2.67689,38.07513],[-2.67615,38.07544],[-2.67595,38.07574],[-2.67592,38.07604],[-2.67569,38.07632],[-2.67498,38.07661],[-2.67363,38.07754],[-2.67271,38.07897],[-2.67197,38.07956],[-2.67111,38.08002],[-2.66878,38.08066],[-2.66712,38.08153],[-2.66381,38.08402],[-2.66161,38.08488],[-2.6601,38.08531],[-2.6572,38.08856],[-2.65574,38.08974],[-2.65503,38.09087],[-2.65383,38.09143],[-2.65277,38.0916],[-2.65239,38.0915],[-2.65154,38.09106],[-2.65053,38.09025],[-2.64977,38.0909],[-2.64894,38.09136],[-2.64808,38.09236],[-2.6477,38.09255],[-2.64681,38.09238],[-2.64633,38.09252],[-2.64564,38.09336],[-2.64526,38.09363],[-2.64271,38.09493],[-2.64179,38.09568],[-2.64134,38.09587],[-2.64072,38.09581],[-2.64037,38.09598],[-2.63981,38.09639],[-2.63859,38.09764],[-2.6379,38.09821],[-2.63623,38.09884],[-2.6355,38.09955],[-2.63408,38.10004],[-2.63279,38.1014],[-2.63237,38.1017],[-2.6313,38.10225],[-2.62859,38.1033],[-2.62776,38.10371],[-2.62547,38.1045],[-2.62408,38.1051],[-2.62234,38.10637],[-2.61851,38.10535],[-2.61728,38.10512],[-2.61621,38.10414],[-2.61564,38.10383],[-2.61403,38.10261],[-2.61374,38.1018],[-2.61335,38.1013],[-2.61218,38.1008],[-2.61011,38.09919],[-2.60865,38.09831],[-2.60844,38.09807],[-2.60806,38.09718],[-2.6079,38.09645],[-2.60799,38.09561],[-2.60718,38.09465],[-2.60708,38.09439],[-2.60653,38.09384],[-2.60582,38.09338],[-2.60555,38.09308],[-2.60474,38.09273],[-2.60402,38.09228],[-2.60268,38.09112],[-2.60003,38.08985],[-2.59859,38.08965],[-2.59791,38.089],[-2.59719,38.08583],[-2.59715,38.08259],[-2.59675,38.07963],[-2.59467,38.07768],[-2.59469,38.07412],[-2.59188,38.07211],[-2.58676,38.07013]],[[-2.63141,38.02943],[-2.63285,38.02936],[-2.6341,38.02942],[-2.63586,38.02872],[-2.63641,38.0283],[-2.63679,38.02762],[-2.63747,38.02541],[-2.63727,38.02384],[-2.63696,38.0227],[-2.63651,38.02167],[-2.63644,38.02102],[-2.63802,38.01893],[-2.63933,38.01551],[-2.63898,38.01384],[-2.63794,38.01239],[-2.63747,38.01156],[-2.63728,38.00943],[-2.6374,38.00898],[-2.63791,38.00807],[-2.6382,38.00693],[-2.63816,38.00567],[-2.63749,38.00445],[-2.6369,38.00375],[-2.6358,38.00266],[-2.63497,38.00201],[-2.63393,38.00136],[-2.63319,38.00071],[-2.63317,38.00016],[-2.6333,37.99959],[-2.63315,37.9993],[-2.63194,37.99846],[-2.62838,37.99541],[-2.62771,37.99501],[-2.62746,37.99466],[-2.6269,37.9943],[-2.62684,37.99404],[-2.62737,37.99289],[-2.62731,37.99239],[-2.62436,37.99138],[-2.62314,37.99088],[-2.62256,37.99053],[-2.61956,37.99267],[-2.61652,37.99414],[-2.61595,37.99468],[-2.61538,37.99641],[-2.61475,37.99775],[-2.61311,37.999],[-2.61257,38.00015],[-2.61212,38.00057],[-2.612,38.00095],[-2.61224,38.00202],[-2.61259,38.00277],[-2.61302,38.00412],[-2.61374,38.00528],[-2.61403,38.00649],[-2.61437,38.00704],[-2.61488,38.00744],[-2.6158,38.0079],[-2.61676,38.00853],[-2.61745,38.00906],[-2.61803,38.00933],[-2.62046,38.00938],[-2.62264,38.01015],[-2.62365,38.01113],[-2.62525,38.01194],[-2.62629,38.01227],[-2.62713,38.01282],[-2.62829,38.01378],[-2.6297,38.01581],[-2.6303,38.01723],[-2.63044,38.01833],[-2.63041,38.01949],[-2.63008,38.0221],[-2.62919,38.02621],[-2.6289,38.02694],[-2.62797,38.02844],[-2.62798,38.02869],[-2.62828,38.02892],[-2.62968,38.02929],[-2.63141,38.02943]]]}}]}