{"type":"FeatureCollection","features":[{"type":"Feature","properties":{"id":"2400801001"},"geometry":{"type":"Polygon","coordinates":[[[-6.05081,42.45454],[-6.05027,42.45314],[-6.05026,42.45265],[-6.05039,42.45247],[-6.05118,42.45233],[-6.05199,42.45207],[-6.05259,42.4523],[-6.05353,42.45294],[-6.05353,42.45302],[-6.05745,42.45475],[-6.0567,42.45532],[-6.05578,42.45488],[-6.05513,42.45557],[-6.05432,42.45609],[-6.05364,42.45638],[-6.05355,42.45633],[-6.05289,42.45685],[-6.05279,42.45675],[-6.05288,42.45669],[-6.05164,42.45597],[-6.05081,42.45454]]]}},{"type":"Feature","properties":{"id":"2400801002"},"geometry":{"type":"Polygon","coordinates":[[[-6.05352,42.45786],[-6.05289,42.45685],[-6.05355,42.45633],[-6.05364,42.45638],[-6.05432,42.45609],[-6.05513,42.45557],[-6.05578,42.45488],[-6.0567,42.45532],[-6.05745,42.45475],[-6.05888,42.45536],[-6.05893,42.45528],[-6.06027,42.45573],[-6.06058,42.45603],[-6.05871,42.45767],[-6.05764,42.45902],[-6.05422,42.45819],[-6.05352,42.45786]]]}},{"type":"Feature","properties":{"id":"2400802001"},"geometry":{"type":"Polygon","coordinates":[[[-6.04753,42.47054],[-6.04949,42.46913],[-6.05031,42.46802],[-6.05056,42.46562],[-6.05057,42.46425],[-6.05022,42.46298],[-6.05044,42.46246],[-6.05258,42.45999],[-6.05329,42.459],[-6.05342,42.45863],[-6.05333,42.45767],[-6.0537,42.45796],[-6.05465,42.45831],[-6.05744,42.45892],[-6.05764,42.45907],[-6.0594,42.45939],[-6.06055,42.46381],[-6.06064,42.46462],[-6.0622,42.46731],[-6.06258,42.46773],[-6.0627,42.46813],[-6.06249,42.46876],[-6.06263,42.46954],[-6.06244,42.47101],[-6.06248,42.47256],[-6.06275,42.4736],[-6.0625,42.47447],[-6.06268,42.47532],[-6.06159,42.47498],[-6.05921,42.47228],[-6.05648,42.47157],[-6.05156,42.47057],[-6.05094,42.47037],[-6.04806,42.47042],[-6.04753,42.47054]]]}},{"type":"Feature","properties":{"id":"2400802002"},"geometry":{"type":"Polygon","coordinates":[[[-6.08852,42.47983],[-6.08236,42.47883],[-6.08027,42.47814],[-6.07534,42.47704],[-6.07414,42.47687],[-6.07104,42.4759],[-6.07002,42.47646],[-6.06571,42.47594],[-6.06359,42.4756],[-6.06268,42.47532],[-6.06255,42.47491],[-6.0625,42.47447],[-6.06275,42.4736],[-6.06248,42.47256],[-6.06244,42.47101],[-6.06263,42.46954],[-6.06249,42.46876],[-6.0627,42.46813],[-6.06258,42.46773],[-6.0622,42.46731],[-6.06064,42.46462],[-6.06055,42.46381],[-6.0594,42.45939],[-6.06443,42.46025],[-6.0656,42.46062],[-6.07412,42.46516],[-6.07675,42.46295],[-6.0763,42.46269],[-6.07643,42.46249],[-6.07594,42.46233],[-6.07519,42.46187],[-6.07558,42.4615],[-6.07488,42.46048],[-6.0746,42.46025],[-6.07442,42.45922],[-6.07652,42.45907],[-6.07984,42.44047],[-6.08543,42.44155],[-6.08684,42.44134],[-6.08801,42.44162],[-6.09118,42.44253],[-6.10165,42.44582],[-6.10473,42.44611],[-6.10881,42.44682],[-6.11184,42.44709],[-6.11543,42.44717],[-6.12038,42.44708],[-6.12116,42.44731],[-6.12658,42.44827],[-6.13,42.44909],[-6.13123,42.44957],[-6.14326,42.45242],[-6.15447,42.45024],[-6.15928,42.44799],[-6.16089,42.44849],[-6.16185,42.44918],[-6.16322,42.44967],[-6.16494,42.44997],[-6.16635,42.45042],[-6.16964,42.45105],[-6.1726,42.45216],[-6.17471,42.45272],[-6.17571,42.45286],[-6.17692,42.45324],[-6.17844,42.45387],[-6.1794,42.45409],[-6.18181,42.45504],[-6.18398,42.45681],[-6.18489,42.45726],[-6.18768,42.45808],[-6.19054,42.45911],[-6.19656,42.47086],[-6.20632,42.48049],[-6.18808,42.4802],[-6.18047,42.48958],[-6.14236,42.48162],[-6.11677,42.47806],[-6.11318,42.47773],[-6.11083,42.47735],[-6.10873,42.47721],[-6.10547,42.47683],[-6.10408,42.47649],[-6.10217,42.47619],[-6.09806,42.4751],[-6.09724,42.47478],[-6.09598,42.47451],[-6.08852,42.47983]]]}},{"type":"Feature","properties":{"id":"2400802003"},"geometry":{"type":"Polygon","coordinates":[[[-6.06443,42.46025],[-6.05764,42.45902],[-6.05871,42.45767],[-6.06082,42.45581],[-6.06077,42.45571],[-6.06217,42.45379],[-6.0641,42.4507],[-6.06452,42.44968],[-6.06766,42.44425],[-6.07255,42.43934],[-6.07908,42.44023],[-6.07984,42.44047],[-6.07652,42.45907],[-6.07442,42.45922],[-6.0746,42.46025],[-6.07488,42.46048],[-6.07558,42.4615],[-6.07519,42.46187],[-6.07594,42.46233],[-6.07643,42.46249],[-6.0763,42.46269],[-6.07675,42.46295],[-6.07412,42.46516],[-6.0656,42.46062],[-6.06443,42.46025]]]}},{"type":"Feature","properties":{"id":"2400803001"},"geometry":{"type":"Polygon","coordinates":[[[-6.04676,42.47051],[-6.04689,42.46939],[-6.04663,42.46862],[-6.04661,42.46758],[-6.04647,42.4673],[-6.04623,42.46578],[-6.04585,42.46516],[-6.04511,42.4646],[-6.04477,42.46411],[-6.04482,42.46307],[-6.04507,42.46219],[-6.04492,42.46182],[-6.04499,42.46049],[-6.0448,42.4599],[-6.04455,42.45916],[-6.04365,42.45896],[-6.04315,42.45874],[-6.04287,42.45825],[-6.04325,42.45706],[-6.04311,42.45637],[-6.04315,42.45578],[-6.03861,42.45504],[-6.03849,42.45435],[-6.0482,42.45476],[-6.0487,42.45495],[-6.05011,42.45453],[-6.05026,42.45468],[-6.05081,42.45454],[-6.05164,42.45597],[-6.05288,42.45669],[-6.05279,42.45675],[-6.05333,42.45767],[-6.05336,42.45887],[-6.05258,42.45999],[-6.05044,42.46246],[-6.05022,42.46298],[-6.05057,42.46425],[-6.05056,42.46562],[-6.05031,42.46802],[-6.04949,42.46913],[-6.04876,42.46972],[-6.04753,42.47054],[-6.04676,42.47051]]]}},{"type":"Feature","properties":{"id":"2400803002"},"geometry":{"type":"Polygon","coordinates":[[[-6.05888,42.45536],[-6.05353,42.45302],[-6.05353,42.45294],[-6.05259,42.4523],[-6.05199,42.45207],[-6.05118,42.45233],[-6.05039,42.45247],[-6.05026,42.45265],[-6.05027,42.45314],[-6.05081,42.45454],[-6.05026,42.45468],[-6.05011,42.45453],[-6.0487,42.45495],[-6.0482,42.45476],[-6.03849,42.45435],[-6.03859,42.45503],[-6.03673,42.45235],[-6.03699,42.45129],[-6.03671,42.45053],[-6.03641,42.45027],[-6.03588,42.45005],[-6.03268,42.44429],[-6.03009,42.43904],[-6.03353,42.43911],[-6.03746,42.43941],[-6.03853,42.43959],[-6.04057,42.43968],[-6.04391,42.43948],[-6.04636,42.43916],[-6.05131,42.43876],[-6.05612,42.43778],[-6.05771,42.43799],[-6.05943,42.43793],[-6.06336,42.43745],[-6.06486,42.4386],[-6.06963,42.43895],[-6.07255,42.43934],[-6.06766,42.44425],[-6.06452,42.44968],[-6.0641,42.4507],[-6.06217,42.45379],[-6.06077,42.45571],[-6.06082,42.45581],[-6.06058,42.45603],[-6.06027,42.45573],[-6.05893,42.45528],[-6.05888,42.45536]]]}}]}