{"type":"FeatureCollection","features":[{"type":"Feature","properties":{"id":"2407001001"},"geometry":{"type":"Polygon","coordinates":[[[-6.62422,42.77113],[-6.62425,42.7708],[-6.62412,42.77066],[-6.62515,42.76823],[-6.62543,42.7667],[-6.62539,42.7661],[-6.62707,42.76403],[-6.62721,42.76377],[-6.62715,42.76351],[-6.62688,42.76328],[-6.62664,42.76322],[-6.62713,42.76283],[-6.62816,42.763],[-6.62847,42.76286],[-6.62886,42.76222],[-6.63029,42.76172],[-6.63189,42.76099],[-6.63229,42.76074],[-6.63244,42.76037],[-6.63422,42.75988],[-6.63926,42.75908],[-6.64052,42.75867],[-6.6438,42.75799],[-6.64417,42.75834],[-6.64843,42.76001],[-6.64821,42.7592],[-6.6486,42.75814],[-6.64901,42.75763],[-6.6508,42.75602],[-6.65185,42.7542],[-6.65445,42.75467],[-6.65832,42.7562],[-6.66087,42.75433],[-6.66369,42.75356],[-6.66486,42.75396],[-6.66829,42.7549],[-6.66984,42.75706],[-6.67121,42.75813],[-6.6715,42.7586],[-6.67102,42.76016],[-6.67097,42.76067],[-6.67127,42.76263],[-6.67107,42.7638],[-6.67119,42.76546],[-6.66891,42.76617],[-6.66706,42.76649],[-6.66571,42.76691],[-6.66294,42.76735],[-6.661,42.76802],[-6.6587,42.76823],[-6.65609,42.76828],[-6.64928,42.76809],[-6.64655,42.76753],[-6.64481,42.76705],[-6.6428,42.7668],[-6.64019,42.76672],[-6.63911,42.76654],[-6.63843,42.76663],[-6.63502,42.76875],[-6.63482,42.76911],[-6.63479,42.76948],[-6.63386,42.77048],[-6.63299,42.77109],[-6.62913,42.77318],[-6.62422,42.77113]]]}},{"type":"Feature","properties":{"id":"2407001002"},"geometry":{"type":"Polygon","coordinates":[[[-6.62515,42.76293],[-6.62688,42.76328],[-6.62715,42.76351],[-6.62721,42.76377],[-6.62539,42.7661],[-6.6254,42.76695],[-6.62515,42.76823],[-6.62491,42.76876],[-6.62424,42.76881],[-6.62252,42.77028],[-6.62221,42.77013],[-6.62155,42.77015],[-6.62094,42.77029],[-6.62011,42.77011],[-6.61947,42.77047],[-6.61894,42.77044],[-6.61753,42.7702],[-6.61701,42.76999],[-6.61608,42.76906],[-6.61584,42.76849],[-6.6158,42.76778],[-6.61434,42.76567],[-6.61471,42.76492],[-6.61589,42.76469],[-6.61871,42.76475],[-6.61876,42.76424],[-6.61936,42.76315],[-6.61926,42.76237],[-6.61983,42.76263],[-6.62086,42.76293],[-6.62348,42.76309],[-6.62515,42.76293]]]}},{"type":"Feature","properties":{"id":"2407001003"},"geometry":{"type":"Polygon","coordinates":[[[-6.62137,42.8309],[-6.61892,42.82937],[-6.61786,42.82855],[-6.61667,42.82731],[-6.61549,42.82557],[-6.61436,42.82424],[-6.6107,42.82076],[-6.61013,42.82003],[-6.6092,42.81921],[-6.60659,42.81719],[-6.6046,42.81596],[-6.6008,42.81275],[-6.59968,42.8117],[-6.5969,42.80843],[-6.59561,42.80611],[-6.59487,42.80516],[-6.5992,42.79938],[-6.59826,42.79892],[-6.59741,42.7988],[-6.59443,42.79872],[-6.59242,42.79844],[-6.58961,42.79606],[-6.58891,42.79529],[-6.58831,42.79488],[-6.58761,42.79456],[-6.58515,42.79438],[-6.58307,42.79436],[-6.57832,42.7945],[-6.5765,42.79414],[-6.57472,42.79428],[-6.57549,42.79014],[-6.57697,42.78571],[-6.56752,42.78609],[-6.561,42.78442],[-6.55726,42.78178],[-6.5556,42.77821],[-6.55672,42.77244],[-6.55891,42.76921],[-6.55914,42.76865],[-6.55881,42.76855],[-6.55901,42.76792],[-6.55897,42.76748],[-6.55854,42.76617],[-6.55927,42.76458],[-6.55952,42.76427],[-6.56062,42.76341],[-6.56119,42.76261],[-6.56332,42.76218],[-6.56403,42.76195],[-6.56514,42.76118],[-6.566,42.76012],[-6.56631,42.75949],[-6.56923,42.75961],[-6.56975,42.75887],[-6.56986,42.75833],[-6.56913,42.7563],[-6.57034,42.75586],[-6.57263,42.75574],[-6.57374,42.75501],[-6.57496,42.75461],[-6.5757,42.75385],[-6.57617,42.75367],[-6.57711,42.75354],[-6.57891,42.75349],[-6.58114,42.75221],[-6.5843,42.75104],[-6.58484,42.75028],[-6.58913,42.74915],[-6.59033,42.7493],[-6.59148,42.74901],[-6.59184,42.74903],[-6.5927,42.74941],[-6.59372,42.7496],[-6.59561,42.74882],[-6.59631,42.74888],[-6.59677,42.74913],[-6.59735,42.74991],[-6.59853,42.75039],[-6.59903,42.75043],[-6.59975,42.75035],[-6.60071,42.74983],[-6.60454,42.74874],[-6.60536,42.74864],[-6.60627,42.74808],[-6.60654,42.74768],[-6.60667,42.74703],[-6.60697,42.74676],[-6.60957,42.74604],[-6.6114,42.74465],[-6.61178,42.74458],[-6.61227,42.74397],[-6.61341,42.74399],[-6.61409,42.74342],[-6.61439,42.7428],[-6.6154,42.74253],[-6.61565,42.74219],[-6.61652,42.74201],[-6.61657,42.74119],[-6.61858,42.7401],[-6.61903,42.74014],[-6.61964,42.73985],[-6.62046,42.74004],[-6.62102,42.73948],[-6.62281,42.7385],[-6.62392,42.73849],[-6.62396,42.73951],[-6.62501,42.74393],[-6.62576,42.74402],[-6.62673,42.74439],[-6.62794,42.74453],[-6.62897,42.74487],[-6.63104,42.74572],[-6.63162,42.74624],[-6.63294,42.74682],[-6.63368,42.74744],[-6.63457,42.7491],[-6.63444,42.74951],[-6.63502,42.75027],[-6.63598,42.75111],[-6.63889,42.75299],[-6.6391,42.75357],[-6.6438,42.75799],[-6.64052,42.75867],[-6.63926,42.75908],[-6.63422,42.75988],[-6.63244,42.76037],[-6.63229,42.76074],[-6.63189,42.76099],[-6.63029,42.76172],[-6.62886,42.76222],[-6.62847,42.76286],[-6.62816,42.763],[-6.62713,42.76283],[-6.62664,42.76322],[-6.62515,42.76293],[-6.62348,42.76309],[-6.62086,42.76293],[-6.61983,42.76263],[-6.61926,42.76237],[-6.61936,42.76315],[-6.61876,42.76424],[-6.61871,42.76475],[-6.61589,42.76469],[-6.61471,42.76492],[-6.61434,42.76567],[-6.6158,42.76778],[-6.61584,42.76849],[-6.61608,42.76906],[-6.61701,42.76999],[-6.61753,42.7702],[-6.61894,42.77044],[-6.61947,42.77047],[-6.62011,42.77011],[-6.62094,42.77029],[-6.62155,42.77015],[-6.62221,42.77013],[-6.62252,42.77028],[-6.62147,42.77167],[-6.62073,42.77233],[-6.62006,42.77324],[-6.61897,42.77432],[-6.6178,42.77523],[-6.61866,42.77571],[-6.62059,42.7762],[-6.62338,42.77636],[-6.62422,42.77615],[-6.62411,42.7745],[-6.62422,42.77113],[-6.62913,42.77318],[-6.63299,42.77109],[-6.63386,42.77048],[-6.63479,42.76948],[-6.63482,42.76911],[-6.63502,42.76875],[-6.63843,42.76663],[-6.63911,42.76654],[-6.64019,42.76672],[-6.6428,42.7668],[-6.64481,42.76705],[-6.64655,42.76753],[-6.64928,42.76809],[-6.65609,42.76828],[-6.6587,42.76823],[-6.661,42.76802],[-6.66294,42.76735],[-6.66571,42.76691],[-6.66706,42.76649],[-6.66891,42.76617],[-6.67119,42.76546],[-6.67114,42.76658],[-6.67393,42.76823],[-6.67475,42.76818],[-6.67623,42.76929],[-6.67724,42.77058],[-6.67698,42.77099],[-6.67767,42.77189],[-6.67771,42.77264],[-6.67802,42.77291],[-6.67864,42.77423],[-6.67985,42.77507],[-6.68117,42.77579],[-6.68284,42.77695],[-6.68613,42.77994],[-6.67895,42.78115],[-6.6718,42.78527],[-6.66775,42.78739],[-6.66558,42.79073],[-6.66278,42.78956],[-6.66004,42.78815],[-6.65825,42.78711],[-6.65357,42.78588],[-6.65043,42.78246],[-6.6472,42.78068],[-6.64604,42.78227],[-6.64607,42.78351],[-6.64502,42.78564],[-6.64553,42.78679],[-6.64598,42.78859],[-6.64611,42.79082],[-6.64642,42.79137],[-6.64697,42.79168],[-6.64727,42.79206],[-6.64747,42.79406],[-6.64771,42.79459],[-6.65132,42.79751],[-6.65101,42.80113],[-6.64975,42.8042],[-6.64621,42.81018],[-6.65179,42.81484],[-6.63029,42.82092],[-6.62967,42.82433],[-6.62838,42.8252],[-6.62185,42.83017],[-6.62174,42.8309],[-6.6214,42.8307],[-6.62137,42.8309]]]}},{"type":"Feature","properties":{"id":"2407001004"},"geometry":{"type":"Polygon","coordinates":[[[-6.62252,42.77028],[-6.62424,42.76881],[-6.62491,42.76876],[-6.62412,42.77066],[-6.62425,42.7708],[-6.62411,42.7745],[-6.62422,42.77615],[-6.62338,42.77636],[-6.62059,42.7762],[-6.61866,42.77571],[-6.6178,42.77523],[-6.61897,42.77432],[-6.62006,42.77324],[-6.62073,42.77233],[-6.62147,42.77167],[-6.62252,42.77028]]]}}]}