{"type":"FeatureCollection","features":[{"type":"Feature","properties":{"id":"2413401001"},"geometry":{"type":"Polygon","coordinates":[[[-5.62141,42.80087],[-5.62262,42.80056],[-5.62342,42.80045],[-5.62408,42.80059],[-5.62486,42.80132],[-5.62525,42.80145],[-5.62591,42.80154],[-5.62668,42.8012],[-5.6269,42.8012],[-5.6285,42.80148],[-5.62892,42.80168],[-5.62897,42.80184],[-5.62868,42.80312],[-5.62931,42.80331],[-5.62968,42.80384],[-5.63039,42.80424],[-5.63058,42.80423],[-5.63198,42.80572],[-5.6333,42.80622],[-5.6322,42.80739],[-5.63152,42.80887],[-5.6301,42.81062],[-5.62884,42.8116],[-5.62846,42.81214],[-5.62771,42.8128],[-5.6268,42.81319],[-5.62543,42.81477],[-5.62465,42.8147],[-5.62354,42.81378],[-5.62287,42.81294],[-5.62185,42.81281],[-5.62143,42.81205],[-5.62125,42.81113],[-5.62088,42.8102],[-5.62104,42.80907],[-5.62099,42.80787],[-5.62076,42.80739],[-5.61972,42.80684],[-5.6188,42.80614],[-5.61586,42.80436],[-5.61348,42.80305],[-5.61296,42.80265],[-5.61248,42.80196],[-5.62141,42.80087]]]}},{"type":"Feature","properties":{"id":"2413401002"},"geometry":{"type":"Polygon","coordinates":[[[-5.52558,42.80293],[-5.52843,42.79989],[-5.5309,42.79874],[-5.53226,42.79775],[-5.53345,42.7967],[-5.53527,42.79559],[-5.53826,42.79098],[-5.54228,42.78574],[-5.54407,42.78394],[-5.54729,42.78129],[-5.55002,42.78044],[-5.55209,42.78017],[-5.55744,42.7797],[-5.56046,42.78004],[-5.56156,42.77986],[-5.56229,42.77613],[-5.56531,42.77417],[-5.56735,42.7722],[-5.57866,42.77186],[-5.58421,42.77011],[-5.59315,42.76832],[-5.6018,42.76591],[-5.61029,42.76542],[-5.61506,42.76929],[-5.61937,42.77372],[-5.62259,42.77507],[-5.62587,42.77565],[-5.62767,42.77568],[-5.63519,42.77748],[-5.63487,42.77936],[-5.63423,42.78197],[-5.63854,42.77557],[-5.64065,42.77463],[-5.64693,42.7762],[-5.65085,42.77417],[-5.65863,42.77259],[-5.65873,42.77147],[-5.66394,42.77163],[-5.66823,42.77549],[-5.67243,42.77489],[-5.67594,42.77674],[-5.68016,42.78032],[-5.68699,42.78462],[-5.69139,42.78217],[-5.69371,42.78132],[-5.69879,42.78031],[-5.70758,42.78178],[-5.71463,42.77964],[-5.71474,42.77972],[-5.70885,42.78494],[-5.71237,42.78911],[-5.71563,42.79192],[-5.71611,42.79743],[-5.71519,42.80067],[-5.71525,42.80279],[-5.71083,42.80731],[-5.70872,42.81099],[-5.70908,42.81764],[-5.71187,42.8224],[-5.71271,42.82442],[-5.71311,42.82716],[-5.71206,42.82945],[-5.70848,42.8298],[-5.70959,42.83186],[-5.70698,42.83194],[-5.70382,42.83139],[-5.70254,42.83041],[-5.69403,42.8291],[-5.6932,42.82879],[-5.69177,42.82687],[-5.68984,42.82569],[-5.68802,42.82409],[-5.68393,42.82428],[-5.68226,42.82248],[-5.67897,42.82098],[-5.67673,42.82083],[-5.67543,42.82037],[-5.67509,42.81925],[-5.67457,42.81885],[-5.67071,42.81763],[-5.66627,42.81875],[-5.66528,42.81958],[-5.664,42.81916],[-5.6619,42.81951],[-5.66002,42.81828],[-5.65967,42.81826],[-5.65651,42.81674],[-5.65328,42.81592],[-5.65138,42.81662],[-5.64841,42.81725],[-5.64499,42.81706],[-5.64335,42.81569],[-5.63988,42.81636],[-5.63893,42.81693],[-5.63803,42.81655],[-5.63393,42.8199],[-5.62919,42.82782],[-5.62569,42.82874],[-5.62257,42.83047],[-5.61967,42.82965],[-5.61701,42.82975],[-5.61335,42.83082],[-5.60688,42.82901],[-5.60555,42.83189],[-5.59709,42.83099],[-5.59008,42.83345],[-5.58789,42.83431],[-5.58256,42.83596],[-5.57243,42.84001],[-5.56572,42.84019],[-5.5517,42.84183],[-5.55076,42.83714],[-5.55026,42.83358],[-5.54795,42.83213],[-5.54634,42.83026],[-5.54527,42.82964],[-5.54234,42.82754],[-5.54001,42.82427],[-5.539,42.82248],[-5.53572,42.81871],[-5.53347,42.81573],[-5.53195,42.81397],[-5.53066,42.81132],[-5.5292,42.80918],[-5.52813,42.80726],[-5.52853,42.80589],[-5.52734,42.80554],[-5.5272,42.8048],[-5.52698,42.80433],[-5.52613,42.80337],[-5.52558,42.80293]],[[-5.63329,42.80622],[-5.63435,42.80383],[-5.63405,42.80323],[-5.63347,42.80271],[-5.63313,42.80219],[-5.63299,42.80085],[-5.63325,42.80029],[-5.63487,42.80022],[-5.63529,42.79971],[-5.63607,42.79846],[-5.63636,42.79773],[-5.63592,42.79674],[-5.63529,42.79602],[-5.63439,42.79634],[-5.63287,42.79602],[-5.6323,42.79477],[-5.63147,42.79415],[-5.63165,42.79359],[-5.63218,42.79305],[-5.63198,42.79203],[-5.63131,42.79122],[-5.63014,42.79072],[-5.62889,42.79046],[-5.62673,42.79019],[-5.62614,42.79023],[-5.62565,42.79089],[-5.62682,42.79229],[-5.62694,42.79417],[-5.62674,42.79514],[-5.62642,42.79596],[-5.62604,42.79644],[-5.62541,42.7966],[-5.62548,42.79721],[-5.62519,42.79787],[-5.62274,42.79915],[-5.62169,42.79982],[-5.62141,42.80087],[-5.61248,42.80196],[-5.61296,42.80265],[-5.61348,42.80305],[-5.61586,42.80436],[-5.6188,42.80614],[-5.61972,42.80684],[-5.62076,42.80739],[-5.62099,42.80787],[-5.62104,42.80907],[-5.62088,42.8102],[-5.62125,42.81113],[-5.62143,42.81205],[-5.62185,42.81281],[-5.62287,42.81294],[-5.62354,42.81378],[-5.62465,42.8147],[-5.62543,42.81477],[-5.6268,42.81319],[-5.62771,42.8128],[-5.62846,42.81214],[-5.62884,42.8116],[-5.6301,42.81062],[-5.63152,42.80887],[-5.6322,42.80739],[-5.63329,42.80622]]]}},{"type":"Feature","properties":{"id":"2413401003"},"geometry":{"type":"Polygon","coordinates":[[[-5.62141,42.80087],[-5.62169,42.79982],[-5.62274,42.79915],[-5.62519,42.79787],[-5.62548,42.79721],[-5.62541,42.7966],[-5.62604,42.79644],[-5.62642,42.79596],[-5.62674,42.79514],[-5.62694,42.79417],[-5.62682,42.79229],[-5.62565,42.79089],[-5.62614,42.79023],[-5.62673,42.79019],[-5.62889,42.79046],[-5.63014,42.79072],[-5.63131,42.79122],[-5.63198,42.79203],[-5.63218,42.79305],[-5.63165,42.79359],[-5.63147,42.79415],[-5.6323,42.79477],[-5.63287,42.79602],[-5.63439,42.79634],[-5.63529,42.79602],[-5.63592,42.79674],[-5.63636,42.79773],[-5.63607,42.79846],[-5.63487,42.80022],[-5.63325,42.80029],[-5.63299,42.80085],[-5.63313,42.80219],[-5.63347,42.80271],[-5.63405,42.80323],[-5.63435,42.80383],[-5.63329,42.80622],[-5.63198,42.80572],[-5.63058,42.80423],[-5.63039,42.80424],[-5.62968,42.80384],[-5.62931,42.80331],[-5.62868,42.80312],[-5.62897,42.80184],[-5.62892,42.80168],[-5.6285,42.80148],[-5.6269,42.8012],[-5.62668,42.8012],[-5.62591,42.80154],[-5.62525,42.80145],[-5.62486,42.80132],[-5.62408,42.80059],[-5.62342,42.80045],[-5.62262,42.80056],[-5.62141,42.80087]]]}}]}