{"type":"FeatureCollection","features":[{"type":"Feature","properties":{"id":"2416301001"},"geometry":{"type":"Polygon","coordinates":[[[-5.61086,42.65088],[-5.613,42.65189],[-5.61513,42.65214],[-5.6201,42.64999],[-5.61811,42.64741],[-5.6195,42.64671],[-5.62018,42.64511],[-5.62387,42.64158],[-5.62796,42.64032],[-5.6279,42.63891],[-5.63012,42.63898],[-5.63182,42.63866],[-5.63323,42.63867],[-5.63416,42.63852],[-5.63431,42.63827],[-5.63549,42.6381],[-5.63619,42.63787],[-5.63705,42.63818],[-5.64154,42.63901],[-5.64467,42.63936],[-5.6458,42.63967],[-5.64853,42.64074],[-5.64943,42.64084],[-5.65017,42.6407],[-5.65183,42.64088],[-5.65347,42.6412],[-5.65483,42.63728],[-5.65539,42.63601],[-5.65626,42.63503],[-5.66394,42.63655],[-5.66744,42.63773],[-5.66835,42.63794],[-5.67001,42.63807],[-5.67659,42.63787],[-5.67729,42.63798],[-5.68033,42.63971],[-5.6819,42.64119],[-5.68487,42.64509],[-5.68644,42.6476],[-5.68764,42.64893],[-5.69165,42.65208],[-5.69243,42.66173],[-5.69516,42.66565],[-5.69434,42.66551],[-5.69209,42.66466],[-5.68967,42.66391],[-5.68695,42.6634],[-5.67713,42.66504],[-5.67219,42.66551],[-5.65618,42.66648],[-5.65116,42.66709],[-5.65005,42.66704],[-5.64853,42.6671],[-5.64662,42.66741],[-5.645,42.66715],[-5.64339,42.66703],[-5.64126,42.66712],[-5.63857,42.66706],[-5.63016,42.66259],[-5.62782,42.66216],[-5.62626,42.66159],[-5.62466,42.66153],[-5.62164,42.6612],[-5.61589,42.65995],[-5.61441,42.66174],[-5.61452,42.66591],[-5.61572,42.66684],[-5.61536,42.66777],[-5.61305,42.66829],[-5.6125,42.66754],[-5.61072,42.66567],[-5.60973,42.66295],[-5.61177,42.65734],[-5.61245,42.65386],[-5.61086,42.65088]]]}},{"type":"Feature","properties":{"id":"2416301002"},"geometry":{"type":"Polygon","coordinates":[[[-5.59288,42.70066],[-5.59051,42.6974],[-5.58956,42.69476],[-5.58797,42.69236],[-5.58787,42.69108],[-5.58714,42.68868],[-5.58523,42.68549],[-5.58413,42.68464],[-5.58264,42.68101],[-5.58019,42.67817],[-5.58005,42.67689],[-5.58785,42.66782],[-5.59359,42.66299],[-5.59001,42.65593],[-5.59006,42.65557],[-5.60233,42.65786],[-5.60759,42.65794],[-5.60752,42.65763],[-5.61178,42.65729],[-5.60973,42.66295],[-5.61072,42.66567],[-5.6125,42.66754],[-5.61305,42.66829],[-5.61536,42.66777],[-5.6153,42.66794],[-5.61553,42.67024],[-5.61732,42.67483],[-5.61883,42.68001],[-5.61744,42.68241],[-5.61753,42.68288],[-5.61745,42.6839],[-5.61673,42.68535],[-5.61723,42.68605],[-5.61687,42.68715],[-5.61893,42.69202],[-5.61479,42.69393],[-5.61493,42.70042],[-5.61127,42.69851],[-5.60596,42.69886],[-5.59731,42.70029],[-5.59288,42.70066]]]}},{"type":"Feature","properties":{"id":"2416301003"},"geometry":{"type":"Polygon","coordinates":[[[-5.59006,42.65557],[-5.59108,42.64826],[-5.59311,42.64434],[-5.59291,42.64383],[-5.59289,42.64295],[-5.593,42.64246],[-5.59335,42.64187],[-5.59342,42.64127],[-5.59331,42.64062],[-5.59307,42.64031],[-5.59327,42.64032],[-5.59492,42.63947],[-5.59846,42.63882],[-5.60207,42.6387],[-5.6036,42.63843],[-5.60701,42.6374],[-5.60841,42.63713],[-5.60851,42.63748],[-5.60825,42.63803],[-5.60767,42.63837],[-5.60698,42.63922],[-5.60655,42.64019],[-5.60622,42.64166],[-5.60559,42.64252],[-5.60549,42.64313],[-5.60667,42.64453],[-5.60703,42.64533],[-5.60656,42.64762],[-5.61082,42.65081],[-5.61245,42.65386],[-5.61178,42.65729],[-5.60752,42.65763],[-5.60759,42.65794],[-5.60233,42.65786],[-5.59006,42.65557]]]}},{"type":"Feature","properties":{"id":"2416301004"},"geometry":{"type":"Polygon","coordinates":[[[-5.61086,42.65088],[-5.60656,42.64762],[-5.60703,42.64533],[-5.60667,42.64453],[-5.60556,42.6433],[-5.6055,42.64275],[-5.60622,42.64166],[-5.60655,42.64019],[-5.60698,42.63922],[-5.60767,42.63837],[-5.60825,42.63803],[-5.60853,42.63732],[-5.60841,42.63713],[-5.6081,42.63716],[-5.6042,42.6382],[-5.60417,42.63194],[-5.60371,42.63136],[-5.60451,42.63144],[-5.60484,42.63111],[-5.60535,42.63127],[-5.60557,42.63165],[-5.60719,42.63183],[-5.60821,42.63216],[-5.60948,42.63219],[-5.61036,42.632],[-5.6103,42.63187],[-5.61128,42.63161],[-5.61171,42.63171],[-5.62193,42.62955],[-5.62281,42.62983],[-5.62871,42.62837],[-5.63082,42.63204],[-5.63611,42.63219],[-5.63822,42.63159],[-5.63929,42.63141],[-5.64093,42.63135],[-5.64197,42.63157],[-5.64362,42.63227],[-5.64694,42.63318],[-5.65626,42.63503],[-5.65539,42.63601],[-5.65483,42.63728],[-5.65347,42.6412],[-5.65183,42.64088],[-5.65017,42.6407],[-5.64943,42.64084],[-5.64853,42.64074],[-5.6458,42.63967],[-5.64467,42.63936],[-5.64154,42.63901],[-5.63705,42.63818],[-5.63619,42.63787],[-5.63549,42.6381],[-5.63431,42.63827],[-5.63416,42.63852],[-5.63323,42.63867],[-5.63182,42.63866],[-5.63012,42.63898],[-5.6279,42.63891],[-5.62796,42.64032],[-5.62387,42.64158],[-5.62018,42.64511],[-5.6195,42.64671],[-5.61811,42.64741],[-5.6201,42.64999],[-5.61513,42.65214],[-5.613,42.65189],[-5.61086,42.65088]]]}}]}