{"type":"FeatureCollection","features":[{"type":"Feature","properties":{"id":"2420901001"},"geometry":{"type":"Polygon","coordinates":[[[-6.81587,42.60302],[-6.81622,42.60339],[-6.81635,42.60335],[-6.817,42.60306],[-6.81753,42.60233],[-6.81948,42.60187],[-6.82071,42.60175],[-6.82107,42.60184],[-6.82124,42.60218],[-6.82129,42.60264],[-6.8198,42.6033],[-6.81937,42.60399],[-6.81934,42.60564],[-6.81878,42.60644],[-6.81867,42.60701],[-6.81828,42.60761],[-6.81782,42.60806],[-6.8168,42.60878],[-6.81605,42.60968],[-6.81586,42.6106],[-6.8161,42.61183],[-6.81608,42.61231],[-6.81581,42.61288],[-6.81533,42.61336],[-6.81489,42.61349],[-6.81449,42.61313],[-6.81409,42.61301],[-6.81395,42.61271],[-6.8141,42.61195],[-6.81283,42.61071],[-6.81241,42.61017],[-6.81204,42.61007],[-6.8115,42.61038],[-6.81044,42.61126],[-6.80972,42.6115],[-6.80898,42.61197],[-6.80815,42.61269],[-6.80748,42.613],[-6.80567,42.6149],[-6.80235,42.61428],[-6.80172,42.61344],[-6.80192,42.61324],[-6.80219,42.61255],[-6.80278,42.61176],[-6.80284,42.61107],[-6.8011,42.60993],[-6.801,42.60917],[-6.80297,42.60906],[-6.80435,42.60872],[-6.80522,42.60902],[-6.80621,42.60834],[-6.80636,42.60761],[-6.80785,42.60623],[-6.80875,42.607],[-6.8086,42.60759],[-6.80866,42.60795],[-6.81088,42.60766],[-6.81089,42.60852],[-6.81178,42.60869],[-6.81234,42.60806],[-6.81313,42.6076],[-6.81436,42.60711],[-6.81531,42.60644],[-6.81575,42.60588],[-6.81494,42.60388],[-6.81503,42.60324],[-6.81587,42.60302]]]}},{"type":"Feature","properties":{"id":"2420901002"},"geometry":{"type":"Polygon","coordinates":[[[-6.77747,42.58203],[-6.78547,42.57974],[-6.79214,42.57922],[-6.80484,42.5817],[-6.80586,42.58343],[-6.80601,42.5839],[-6.80929,42.58921],[-6.80963,42.59112],[-6.81017,42.59244],[-6.80997,42.59302],[-6.81089,42.59415],[-6.80985,42.59457],[-6.81033,42.59583],[-6.81041,42.5963],[-6.81055,42.59635],[-6.81094,42.59817],[-6.81411,42.60116],[-6.81587,42.60302],[-6.81503,42.60324],[-6.81494,42.60388],[-6.81575,42.60588],[-6.81531,42.60644],[-6.81436,42.60711],[-6.81313,42.6076],[-6.81234,42.60806],[-6.81178,42.60869],[-6.81089,42.60852],[-6.81088,42.60766],[-6.80866,42.60795],[-6.8086,42.60759],[-6.80875,42.607],[-6.80785,42.60623],[-6.80636,42.60761],[-6.80621,42.60834],[-6.80522,42.60902],[-6.80435,42.60872],[-6.80297,42.60906],[-6.801,42.60917],[-6.8011,42.60993],[-6.80284,42.61107],[-6.80278,42.61176],[-6.80219,42.61255],[-6.80192,42.61324],[-6.80172,42.61344],[-6.80235,42.61428],[-6.80567,42.6149],[-6.80748,42.613],[-6.80815,42.61269],[-6.80898,42.61197],[-6.80972,42.6115],[-6.81044,42.61126],[-6.8115,42.61038],[-6.81204,42.61007],[-6.81241,42.61017],[-6.81283,42.61071],[-6.8141,42.61195],[-6.81395,42.61271],[-6.81409,42.61301],[-6.81449,42.61313],[-6.81489,42.61349],[-6.81533,42.61336],[-6.81581,42.61288],[-6.81608,42.61231],[-6.8161,42.61183],[-6.81586,42.6106],[-6.81605,42.60968],[-6.8168,42.60878],[-6.81782,42.60806],[-6.81828,42.60761],[-6.81867,42.60701],[-6.81878,42.60644],[-6.81934,42.60564],[-6.81937,42.60399],[-6.8198,42.6033],[-6.82129,42.60264],[-6.82124,42.60218],[-6.82107,42.60184],[-6.82174,42.60195],[-6.82209,42.60239],[-6.82229,42.60245],[-6.82327,42.60262],[-6.82335,42.60248],[-6.82367,42.60244],[-6.82487,42.60276],[-6.82594,42.60361],[-6.8263,42.60377],[-6.82698,42.6037],[-6.82756,42.60351],[-6.82787,42.60359],[-6.82809,42.60378],[-6.82842,42.60384],[-6.82889,42.60373],[-6.82966,42.60374],[-6.83031,42.6036],[-6.83086,42.60364],[-6.83122,42.60354],[-6.83152,42.6033],[-6.83167,42.60281],[-6.83272,42.60261],[-6.83293,42.60269],[-6.83313,42.60316],[-6.83359,42.60321],[-6.83227,42.60494],[-6.83033,42.60696],[-6.82984,42.60778],[-6.83617,42.61148],[-6.8346,42.61687],[-6.83322,42.61803],[-6.829,42.61992],[-6.82215,42.62187],[-6.82224,42.62256],[-6.82257,42.62307],[-6.82342,42.62391],[-6.82484,42.62509],[-6.82618,42.62744],[-6.82775,42.6289],[-6.82834,42.62916],[-6.82966,42.62949],[-6.83174,42.62964],[-6.83402,42.6304],[-6.83746,42.63274],[-6.83881,42.63383],[-6.83841,42.63397],[-6.8371,42.63373],[-6.83639,42.63372],[-6.83614,42.63442],[-6.83579,42.6348],[-6.83505,42.63505],[-6.83424,42.63548],[-6.83231,42.63684],[-6.83194,42.63678],[-6.8314,42.63684],[-6.83166,42.63766],[-6.82975,42.637],[-6.82863,42.63765],[-6.82755,42.63852],[-6.82678,42.63993],[-6.82617,42.6402],[-6.82373,42.64181],[-6.82144,42.64311],[-6.82064,42.64335],[-6.81865,42.64252],[-6.81723,42.64156],[-6.81613,42.64124],[-6.81541,42.64125],[-6.81491,42.64117],[-6.81456,42.64124],[-6.81225,42.64237],[-6.81089,42.64261],[-6.80967,42.6424],[-6.80914,42.6419],[-6.80815,42.64233],[-6.80753,42.6428],[-6.80679,42.64414],[-6.80674,42.64444],[-6.80739,42.64559],[-6.80741,42.64595],[-6.80716,42.6467],[-6.80728,42.64739],[-6.80707,42.64782],[-6.80584,42.64885],[-6.8058,42.64942],[-6.80616,42.65037],[-6.80615,42.65108],[-6.80553,42.65195],[-6.80556,42.65211],[-6.80594,42.65245],[-6.80809,42.65325],[-6.80844,42.65351],[-6.80874,42.65423],[-6.80869,42.6545],[-6.80813,42.6554],[-6.80813,42.6556],[-6.80831,42.65577],[-6.80939,42.65589],[-6.80969,42.65637],[-6.81004,42.65631],[-6.81092,42.65584],[-6.81236,42.65577],[-6.81263,42.65594],[-6.81299,42.6565],[-6.814,42.65735],[-6.81506,42.65761],[-6.81574,42.65789],[-6.81602,42.65813],[-6.81606,42.65871],[-6.81624,42.65887],[-6.81747,42.65891],[-6.8181,42.6591],[-6.81862,42.6604],[-6.81962,42.66091],[-6.81988,42.66095],[-6.82098,42.66079],[-6.82138,42.66095],[-6.82146,42.6615],[-6.82199,42.66212],[-6.82192,42.66259],[-6.82151,42.66329],[-6.8214,42.66564],[-6.82102,42.66619],[-6.82125,42.66676],[-6.82085,42.6683],[-6.82165,42.67049],[-6.82161,42.67115],[-6.82207,42.67151],[-6.82393,42.67215],[-6.82731,42.67266],[-6.83099,42.67448],[-6.83151,42.67502],[-6.83191,42.67617],[-6.83224,42.67677],[-6.83305,42.6777],[-6.83582,42.67976],[-6.83744,42.68071],[-6.83931,42.68152],[-6.84268,42.68556],[-6.84368,42.68621],[-6.84424,42.6868],[-6.84557,42.68922],[-6.84889,42.69259],[-6.84981,42.69289],[-6.85108,42.693],[-6.85204,42.69333],[-6.85473,42.69482],[-6.85564,42.69498],[-6.85757,42.69552],[-6.85962,42.6973],[-6.86186,42.70042],[-6.86325,42.70188],[-6.86457,42.70453],[-6.8652,42.706],[-6.86465,42.70775],[-6.86702,42.71325],[-6.90455,42.75956],[-6.90185,42.76128],[-6.90175,42.76225],[-6.90193,42.76316],[-6.90187,42.76357],[-6.90156,42.76376],[-6.90054,42.76411],[-6.90003,42.76491],[-6.89967,42.7651],[-6.89884,42.76525],[-6.89658,42.7651],[-6.8982,42.76676],[-6.89821,42.76762],[-6.8984,42.76878],[-6.89728,42.77189],[-6.89693,42.77236],[-6.89577,42.77325],[-6.89387,42.77502],[-6.89293,42.77554],[-6.89115,42.77728],[-6.89039,42.77759],[-6.88798,42.77765],[-6.88651,42.77832],[-6.88483,42.7794],[-6.88328,42.77985],[-6.88285,42.78044],[-6.88022,42.78228],[-6.87935,42.78255],[-6.87613,42.78246],[-6.87522,42.78375],[-6.87344,42.78432],[-6.87274,42.78476],[-6.87189,42.78557],[-6.87099,42.78617],[-6.8678,42.78717],[-6.86623,42.78954],[-6.86517,42.79157],[-6.86459,42.79235],[-6.86437,42.79287],[-6.86437,42.7954],[-6.8646,42.79667],[-6.86488,42.79744],[-6.86561,42.79786],[-6.86911,42.79918],[-6.86962,42.80079],[-6.86829,42.80214],[-6.86769,42.80351],[-6.86736,42.80395],[-6.86541,42.80561],[-6.86463,42.80616],[-6.86326,42.80694],[-6.86243,42.80756],[-6.86136,42.8079],[-6.86049,42.80807],[-6.85973,42.80855],[-6.85888,42.80936],[-6.8584,42.81003],[-6.85755,42.81035],[-6.8564,42.81056],[-6.85472,42.81061],[-6.85278,42.80959],[-6.85046,42.80902],[-6.84955,42.80659],[-6.84875,42.80552],[-6.84539,42.80261],[-6.84363,42.80142],[-6.84235,42.80081],[-6.84121,42.79723],[-6.84077,42.79645],[-6.83832,42.79536],[-6.83772,42.79499],[-6.83714,42.79431],[-6.83321,42.7921],[-6.83193,42.79157],[-6.83091,42.79126],[-6.82933,42.79103],[-6.8268,42.79081],[-6.82333,42.79087],[-6.82186,42.79117],[-6.82058,42.79128],[-6.81843,42.79121],[-6.81699,42.79133],[-6.81448,42.78672],[-6.81439,42.78595],[-6.81287,42.78491],[-6.81304,42.78426],[-6.81234,42.78405],[-6.81213,42.78341],[-6.81233,42.78254],[-6.80945,42.77826],[-6.80643,42.77735],[-6.80637,42.77645],[-6.80702,42.77285],[-6.80755,42.77209],[-6.80766,42.7716],[-6.80708,42.77089],[-6.80707,42.76992],[-6.80668,42.76911],[-6.80607,42.76829],[-6.80521,42.76665],[-6.80419,42.76543],[-6.80349,42.76369],[-6.80239,42.76275],[-6.80543,42.76224],[-6.80412,42.76001],[-6.8029,42.75881],[-6.80124,42.75773],[-6.79897,42.75655],[-6.79574,42.75556],[-6.79389,42.75514],[-6.78993,42.75557],[-6.78782,42.75607],[-6.78655,42.75621],[-6.78114,42.75571],[-6.77986,42.75583],[-6.77802,42.75578],[-6.77579,42.75533],[-6.774,42.75581],[-6.77295,42.75512],[-6.77229,42.75442],[-6.76765,42.75448],[-6.76526,42.75438],[-6.76326,42.75389],[-6.76208,42.75347],[-6.76035,42.75318],[-6.75805,42.7509],[-6.75985,42.74818],[-6.75868,42.7459],[-6.75866,42.74403],[-6.76306,42.73997],[-6.75331,42.73066],[-6.74327,42.71469],[-6.74273,42.71177],[-6.73604,42.70093],[-6.73041,42.69569],[-6.7296,42.69319],[-6.73361,42.69079],[-6.73313,42.6903],[-6.73523,42.68448],[-6.73533,42.68076],[-6.73652,42.67705],[-6.72719,42.66954],[-6.72321,42.6675],[-6.73208,42.66446],[-6.73547,42.66341],[-6.74252,42.66105],[-6.74606,42.65998],[-6.74852,42.65904],[-6.75182,42.65681],[-6.75223,42.65637],[-6.75317,42.65442],[-6.75372,42.6541],[-6.75496,42.65361],[-6.75752,42.65279],[-6.7612,42.65312],[-6.76621,42.64317],[-6.7669,42.64147],[-6.76723,42.63989],[-6.7673,42.63874],[-6.76749,42.63814],[-6.7673,42.63721],[-6.76609,42.63532],[-6.76556,42.63469],[-6.76392,42.63425],[-6.76272,42.63372],[-6.76148,42.63295],[-6.76019,42.63152],[-6.7581,42.63066],[-6.75838,42.62999],[-6.75789,42.62898],[-6.75703,42.62769],[-6.75518,42.62445],[-6.75496,42.62425],[-6.75291,42.62315],[-6.75246,42.62267],[-6.7524,42.62199],[-6.75214,42.6216],[-6.75117,42.62132],[-6.75003,42.62113],[-6.74873,42.62052],[-6.74779,42.61991],[-6.75876,42.61546],[-6.75922,42.60901],[-6.7608,42.60596],[-6.75601,42.60302],[-6.75299,42.59643],[-6.75253,42.59576],[-6.7518,42.594],[-6.75117,42.59297],[-6.74787,42.5895],[-6.75381,42.5853],[-6.75465,42.58529],[-6.75848,42.58491],[-6.77331,42.58709],[-6.78213,42.58584],[-6.77942,42.58344],[-6.77747,42.58203]]]}}]}