{"type":"FeatureCollection","features":[{"type":"Feature","properties":{"id":"2501601001"},"geometry":{"type":"Polygon","coordinates":[[[0.56349,41.75917],[0.57568,41.75777],[0.58516,41.75761],[0.58597,41.7528],[0.58611,41.75063],[0.58642,41.75013],[0.58666,41.74876],[0.5857,41.74422],[0.58718,41.74135],[0.58528,41.74041],[0.58555,41.73971],[0.58555,41.73921],[0.58524,41.73833],[0.58465,41.7379],[0.5847,41.73784],[0.58608,41.73791],[0.58632,41.73778],[0.58603,41.73693],[0.58543,41.73636],[0.58605,41.73487],[0.58571,41.73379],[0.58595,41.73301],[0.58626,41.73258],[0.58669,41.73223],[0.58806,41.73157],[0.58975,41.73105],[0.591,41.73034],[0.59237,41.72344],[0.59432,41.72018],[0.5948,41.71171],[0.59023,41.71117],[0.58789,41.71136],[0.58459,41.711],[0.58335,41.71103],[0.58123,41.71125],[0.57805,41.71201],[0.57735,41.71207],[0.57499,41.7106],[0.57198,41.71284],[0.56606,41.71336],[0.56152,41.71391],[0.55942,41.71451],[0.5576,41.71485],[0.5542,41.71518],[0.5515,41.71528],[0.5507,41.71522],[0.5498,41.71503],[0.54845,41.71461],[0.54644,41.71494],[0.54089,41.71537],[0.53359,41.71674],[0.53059,41.71624],[0.52954,41.71623],[0.52713,41.71709],[0.52588,41.71744],[0.52427,41.71768],[0.52133,41.71791],[0.51844,41.71797],[0.51721,41.72645],[0.51541,41.72595],[0.51203,41.72535],[0.50633,41.72377],[0.50276,41.72924],[0.50297,41.72958],[0.50329,41.72979],[0.49627,41.74226],[0.49381,41.74588],[0.49195,41.74787],[0.49624,41.75377],[0.49893,41.75418],[0.5014,41.75444],[0.50064,41.75707],[0.50319,41.75955],[0.50543,41.76009],[0.50903,41.76069],[0.50965,41.76075],[0.51054,41.76061],[0.51295,41.76181],[0.51571,41.76144],[0.51724,41.76277],[0.53249,41.76369],[0.5376,41.76206],[0.54661,41.76105],[0.55079,41.76074],[0.55558,41.75999],[0.55895,41.75958],[0.56349,41.75917]]]}},{"type":"Feature","properties":{"id":"2501601002"},"geometry":{"type":"Polygon","coordinates":[[[0.62901,41.76121],[0.62751,41.76022],[0.62674,41.76006],[0.62564,41.75948],[0.62367,41.75826],[0.62483,41.75678],[0.62666,41.75629],[0.62806,41.7554],[0.62798,41.75503],[0.62548,41.75238],[0.62414,41.75005],[0.6239,41.74944],[0.62485,41.74868],[0.62451,41.74817],[0.62433,41.74736],[0.62114,41.74314],[0.6216,41.74252],[0.62148,41.74191],[0.62068,41.74165],[0.6205,41.73974],[0.62591,41.73642],[0.62348,41.73352],[0.62379,41.73287],[0.62361,41.73212],[0.62324,41.73142],[0.62292,41.72827],[0.62504,41.7279],[0.6262,41.72557],[0.62571,41.72374],[0.62531,41.72324],[0.62392,41.72212],[0.62298,41.72174],[0.622,41.7221],[0.62028,41.72144],[0.61768,41.72259],[0.61586,41.72208],[0.61294,41.72173],[0.61273,41.72183],[0.61273,41.72223],[0.61294,41.72323],[0.6117,41.72269],[0.61108,41.7226],[0.60828,41.72301],[0.60787,41.72258],[0.60758,41.72205],[0.60741,41.72141],[0.60707,41.72097],[0.60621,41.72047],[0.6047,41.71933],[0.59928,41.71665],[0.59676,41.71194],[0.5948,41.71171],[0.59432,41.72018],[0.59237,41.72344],[0.591,41.73034],[0.58975,41.73105],[0.58806,41.73157],[0.58669,41.73223],[0.58626,41.73258],[0.58595,41.73301],[0.58571,41.73379],[0.58605,41.73487],[0.58543,41.73636],[0.58603,41.73693],[0.58632,41.73778],[0.58608,41.73791],[0.5847,41.73784],[0.58465,41.7379],[0.58524,41.73833],[0.58555,41.73921],[0.58555,41.73971],[0.58528,41.74041],[0.58718,41.74135],[0.5857,41.74422],[0.58666,41.74876],[0.58642,41.75013],[0.58611,41.75063],[0.58597,41.7528],[0.58516,41.75761],[0.58822,41.75756],[0.59337,41.75842],[0.59629,41.7579],[0.59834,41.75804],[0.60157,41.7587],[0.60265,41.75829],[0.60356,41.7585],[0.605,41.75916],[0.60591,41.75945],[0.60818,41.75984],[0.61034,41.76079],[0.61258,41.76132],[0.61832,41.76424],[0.61936,41.76505],[0.6217,41.76652],[0.62672,41.76224],[0.62734,41.76181],[0.62901,41.76121]]]}}]}