{"type":"FeatureCollection","features":[{"type":"Feature","properties":{"id":"2501901001"},"geometry":{"type":"Polygon","coordinates":[[[0.43533,41.72654],[0.43958,41.72931],[0.44416,41.72523],[0.44188,41.72382],[0.44165,41.72405],[0.44009,41.7245],[0.44043,41.72517],[0.44031,41.72525],[0.44052,41.72569],[0.43977,41.72635],[0.43972,41.72628],[0.4382,41.72765],[0.43605,41.72632],[0.43533,41.72654]]]}},{"type":"Feature","properties":{"id":"2501901002"},"geometry":{"type":"Polygon","coordinates":[[[0.43958,41.72931],[0.43533,41.72654],[0.43483,41.72665],[0.43309,41.72347],[0.43168,41.7239],[0.4338,41.72697],[0.433,41.72725],[0.43272,41.72717],[0.43214,41.7273],[0.43064,41.72802],[0.43092,41.72835],[0.43019,41.72934],[0.43356,41.73142],[0.43218,41.73267],[0.43434,41.73399],[0.43958,41.72931]]]}},{"type":"Feature","properties":{"id":"2501902001"},"geometry":{"type":"Polygon","coordinates":[[[0.43958,41.72931],[0.43433,41.73398],[0.43474,41.73425],[0.43577,41.73525],[0.43702,41.73387],[0.43747,41.73419],[0.4384,41.73391],[0.43867,41.73418],[0.43982,41.73354],[0.43807,41.73253],[0.43841,41.73225],[0.43862,41.73234],[0.43901,41.73222],[0.43932,41.73241],[0.44043,41.73202],[0.44134,41.73187],[0.44174,41.73107],[0.44169,41.73073],[0.4407,41.73003],[0.44053,41.73008],[0.4405,41.7299],[0.43958,41.72931]]]}},{"type":"Feature","properties":{"id":"2501902002"},"geometry":{"type":"Polygon","coordinates":[[[0.46475,41.76323],[0.46814,41.76228],[0.47516,41.75736],[0.47956,41.75373],[0.48038,41.75245],[0.48152,41.74992],[0.48282,41.74797],[0.48786,41.74581],[0.49381,41.74588],[0.49627,41.74226],[0.50329,41.72979],[0.50297,41.72958],[0.50276,41.72924],[0.50633,41.72377],[0.51203,41.72535],[0.51541,41.72595],[0.51721,41.72645],[0.51844,41.71797],[0.5172,41.71611],[0.50922,41.70135],[0.50653,41.69801],[0.50388,41.69555],[0.50293,41.69407],[0.5004,41.69384],[0.49496,41.69448],[0.49319,41.69481],[0.48805,41.69609],[0.4857,41.69649],[0.47956,41.69781],[0.47573,41.6984],[0.46981,41.69981],[0.46126,41.7026],[0.45622,41.70446],[0.45428,41.70529],[0.4421,41.71238],[0.43982,41.71342],[0.42871,41.71959],[0.42124,41.72306],[0.40568,41.72837],[0.39684,41.73151],[0.39579,41.73198],[0.39565,41.73359],[0.39586,41.73553],[0.39523,41.73747],[0.39529,41.73793],[0.39812,41.74685],[0.39978,41.75163],[0.39976,41.75269],[0.39892,41.7543],[0.39861,41.75514],[0.39943,41.75641],[0.39903,41.75781],[0.40053,41.75702],[0.40097,41.75669],[0.40551,41.75812],[0.40837,41.75923],[0.4092,41.7593],[0.41291,41.75928],[0.42034,41.75958],[0.42384,41.75992],[0.42515,41.76015],[0.43008,41.76145],[0.43072,41.76153],[0.43506,41.76118],[0.43798,41.76123],[0.43863,41.76132],[0.44802,41.76467],[0.45642,41.7642],[0.46475,41.76323]],[[0.43474,41.73425],[0.43218,41.73267],[0.43356,41.73142],[0.43019,41.72934],[0.43092,41.72835],[0.43064,41.72802],[0.43214,41.7273],[0.43272,41.72717],[0.433,41.72725],[0.4338,41.72697],[0.43168,41.7239],[0.43309,41.72347],[0.43483,41.72665],[0.43605,41.72632],[0.4382,41.72765],[0.43972,41.72628],[0.43977,41.72635],[0.44052,41.72569],[0.44031,41.72525],[0.44043,41.72517],[0.44009,41.7245],[0.44165,41.72405],[0.44188,41.72382],[0.44416,41.72523],[0.43958,41.72931],[0.4405,41.7299],[0.44053,41.73008],[0.4407,41.73003],[0.44169,41.73073],[0.44174,41.73107],[0.44134,41.73187],[0.44043,41.73202],[0.43932,41.73241],[0.43901,41.73222],[0.43862,41.73234],[0.43841,41.73225],[0.43807,41.73253],[0.43982,41.73354],[0.43867,41.73418],[0.4384,41.73391],[0.43747,41.73419],[0.43702,41.73387],[0.43577,41.73525],[0.43474,41.73425]]]}}]}