{"type":"FeatureCollection","features":[{"type":"Feature","properties":{"id":"2517101001"},"geometry":{"type":"Polygon","coordinates":[[[0.96361,42.22124],[0.96123,42.2224],[0.95992,42.22258],[0.95761,42.22342],[0.95687,42.2261],[0.95515,42.22846],[0.95531,42.23086],[0.95339,42.23755],[0.95315,42.23988],[0.94837,42.24868],[0.94248,42.26772],[0.94515,42.27233],[0.94684,42.27485],[0.9467,42.27582],[0.94753,42.27588],[0.94861,42.27629],[0.94939,42.2767],[0.94979,42.27667],[0.95028,42.27684],[0.95053,42.27676],[0.95055,42.27664],[0.95034,42.27565],[0.95044,42.27521],[0.95087,42.27482],[0.95074,42.27421],[0.95094,42.27392],[0.95069,42.27367],[0.95067,42.2735],[0.95092,42.27323],[0.95154,42.27289],[0.95199,42.27239],[0.95189,42.27155],[0.95123,42.27095],[0.95193,42.27024],[0.95229,42.2696],[0.95269,42.26921],[0.95298,42.26843],[0.95372,42.26763],[0.95379,42.26646],[0.95299,42.26503],[0.95304,42.26443],[0.95436,42.2636],[0.95471,42.26352],[0.95537,42.26355],[0.9555,42.26348],[0.95552,42.26335],[0.95509,42.263],[0.95501,42.26269],[0.95502,42.26248],[0.95528,42.26219],[0.95554,42.26208],[0.95665,42.26212],[0.95722,42.26203],[0.95826,42.26128],[0.95892,42.26117],[0.95918,42.2608],[0.95958,42.26059],[0.96142,42.25905],[0.96238,42.25788],[0.96276,42.25686],[0.96356,42.25586],[0.96461,42.25403],[0.96511,42.25341],[0.96535,42.25286],[0.96615,42.25202],[0.96647,42.24853],[0.96682,42.24815],[0.96843,42.24718],[0.96846,42.24709],[0.96814,42.2467],[0.96528,42.24529],[0.96623,42.24384],[0.96711,42.24317],[0.96796,42.24206],[0.96811,42.24183],[0.96826,42.24114],[0.96812,42.23992],[0.96738,42.23864],[0.96562,42.23659],[0.96547,42.23332],[0.96378,42.22843],[0.96373,42.22724],[0.9641,42.22361],[0.96396,42.22236],[0.96361,42.22124]]]}},{"type":"Feature","properties":{"id":"2517101002"},"geometry":{"type":"Polygon","coordinates":[[[1.0396,42.28202],[1.03952,42.28145],[1.03915,42.28083],[1.03872,42.28043],[1.03786,42.28029],[1.03549,42.27958],[1.035,42.2792],[1.0343,42.27792],[1.03427,42.27748],[1.03481,42.27658],[1.03653,42.27496],[1.0359,42.27444],[1.03523,42.27436],[1.03382,42.27456],[1.03144,42.2747],[1.03018,42.27418],[1.02962,42.27363],[1.02935,42.273],[1.02936,42.27226],[1.03006,42.26921],[1.02983,42.26887],[1.02929,42.26849],[1.02814,42.26813],[1.0236,42.26572],[1.02012,42.26409],[1.01679,42.26356],[1.01473,42.26344],[1.01113,42.2638],[1.00785,42.26294],[1.00641,42.26271],[1.00358,42.2621],[1.00004,42.26096],[0.99925,42.261],[0.99549,42.26216],[0.99426,42.2624],[0.99343,42.26244],[0.99229,42.26199],[0.99057,42.26102],[0.98626,42.25953],[0.98529,42.25937],[0.97957,42.25886],[0.97884,42.25865],[0.97792,42.25791],[0.97741,42.25732],[0.97798,42.25555],[0.97808,42.25456],[0.97795,42.25301],[0.97799,42.24992],[0.97766,42.24876],[0.97726,42.24813],[0.97664,42.24767],[0.972,42.24582],[0.97152,42.24531],[0.97102,42.24445],[0.97026,42.24074],[0.97,42.23758],[0.97005,42.23566],[0.97071,42.23381],[0.97256,42.23007],[0.97267,42.22952],[0.97257,42.22899],[0.97218,42.22828],[0.97032,42.22617],[0.97018,42.22553],[0.97002,42.22212],[0.96974,42.22139],[0.96844,42.21959],[0.96361,42.22124],[0.96396,42.22236],[0.9641,42.22361],[0.96373,42.22724],[0.96378,42.22843],[0.96547,42.23332],[0.96562,42.23659],[0.96738,42.23864],[0.96812,42.23992],[0.96826,42.24114],[0.96811,42.24183],[0.96796,42.24206],[0.96711,42.24317],[0.96623,42.24384],[0.96528,42.24529],[0.96814,42.2467],[0.96846,42.24709],[0.96843,42.24718],[0.96682,42.24815],[0.96647,42.24853],[0.96615,42.25202],[0.96535,42.25286],[0.96511,42.25341],[0.96461,42.25403],[0.96356,42.25586],[0.96276,42.25686],[0.96238,42.25788],[0.96142,42.25905],[0.95958,42.26059],[0.95918,42.2608],[0.95892,42.26117],[0.95826,42.26128],[0.95722,42.26203],[0.95665,42.26212],[0.95554,42.26208],[0.95528,42.26219],[0.95502,42.26248],[0.95501,42.26269],[0.95509,42.263],[0.95552,42.26335],[0.9555,42.26348],[0.95537,42.26355],[0.95471,42.26352],[0.95436,42.2636],[0.95391,42.26384],[0.95296,42.26456],[0.95299,42.26503],[0.95379,42.26646],[0.95372,42.26763],[0.95298,42.26843],[0.95269,42.26921],[0.95229,42.2696],[0.95193,42.27024],[0.95123,42.27095],[0.95189,42.27155],[0.95199,42.27239],[0.95154,42.27289],[0.95092,42.27323],[0.95067,42.2735],[0.95069,42.27367],[0.95094,42.27392],[0.95074,42.27421],[0.95087,42.27482],[0.95044,42.27521],[0.95034,42.27565],[0.95053,42.27631],[0.95053,42.27676],[0.95028,42.27684],[0.94979,42.27667],[0.94939,42.2767],[0.94861,42.27629],[0.94753,42.27588],[0.9467,42.27582],[0.94668,42.27598],[0.94812,42.27729],[0.95,42.28361],[0.95044,42.28442],[0.95119,42.28536],[0.95179,42.28582],[0.95664,42.28752],[0.95778,42.28773],[0.95902,42.28782],[0.96131,42.28779],[0.9617,42.2883],[0.96405,42.30402],[0.96446,42.30506],[0.96655,42.30879],[0.97402,42.3138],[0.97469,42.31172],[0.97458,42.3074],[0.97513,42.30675],[0.97449,42.30391],[0.97538,42.30092],[0.97478,42.29849],[0.97509,42.29813],[0.976,42.29778],[0.98067,42.29684],[0.98261,42.2974],[0.98422,42.29727],[0.98844,42.29761],[0.98936,42.29753],[0.99348,42.29669],[0.99466,42.29686],[0.99711,42.29482],[0.99759,42.29368],[1.00219,42.29256],[1.00284,42.2919],[1.01193,42.29188],[1.01392,42.29129],[1.01524,42.28933],[1.02545,42.28515],[1.0282,42.2893],[1.03886,42.28554],[1.03915,42.28323],[1.0396,42.28202]]]}}]}