{"type":"FeatureCollection","features":[{"type":"Feature","properties":{"id":"2517301001"},"geometry":{"type":"Polygon","coordinates":[[[0.85593,42.45454],[0.87217,42.44579],[0.87252,42.44499],[0.87266,42.44367],[0.87109,42.44025],[0.86971,42.43823],[0.8685,42.437],[0.86775,42.43572],[0.86707,42.43481],[0.86514,42.43289],[0.86481,42.43249],[0.8644,42.43165],[0.8632,42.43021],[0.86178,42.42905],[0.8558,42.42545],[0.85372,42.4251],[0.85242,42.42468],[0.82987,42.42463],[0.82865,42.41974],[0.8285,42.41867],[0.82859,42.41811],[0.82329,42.41544],[0.83465,42.40369],[0.8226,42.39176],[0.82385,42.39198],[0.82427,42.39088],[0.82477,42.3903],[0.82514,42.3893],[0.82553,42.38877],[0.82864,42.38627],[0.82974,42.38478],[0.83105,42.38334],[0.83351,42.37977],[0.83379,42.37968],[0.83494,42.3799],[0.83684,42.38089],[0.8371,42.37919],[0.83701,42.37612],[0.83716,42.37502],[0.83737,42.37474],[0.83912,42.37337],[0.84264,42.37328],[0.84635,42.36931],[0.84703,42.36874],[0.84821,42.3687],[0.84958,42.36839],[0.85027,42.36849],[0.85278,42.36923],[0.85464,42.3693],[0.85655,42.36906],[0.86163,42.36797],[0.86814,42.36145],[0.86568,42.35908],[0.86588,42.35715],[0.86788,42.35651],[0.87057,42.35169],[0.86998,42.34794],[0.87166,42.34656],[0.8728,42.34635],[0.87315,42.34523],[0.87305,42.34174],[0.87519,42.34239],[0.87666,42.3419],[0.87828,42.34172],[0.8862,42.33665],[0.89163,42.33459],[0.89183,42.33346],[0.89188,42.33172],[0.89205,42.33073],[0.88932,42.32714],[0.88946,42.32339],[0.88921,42.32203],[0.88783,42.32094],[0.8879,42.32007],[0.8871,42.31956],[0.88786,42.31731],[0.88747,42.31552],[0.887,42.30533],[0.88325,42.30477],[0.88084,42.30088],[0.87435,42.29887],[0.8739,42.30002],[0.87082,42.30174],[0.86796,42.30202],[0.86611,42.30253],[0.86466,42.30503],[0.86379,42.30558],[0.85989,42.30613],[0.85696,42.30665],[0.85844,42.30965],[0.85327,42.31081],[0.85167,42.31237],[0.85085,42.31297],[0.84827,42.31398],[0.84659,42.31441],[0.84015,42.31469],[0.83898,42.31411],[0.83748,42.31441],[0.83652,42.31396],[0.83554,42.3144],[0.83443,42.31421],[0.83207,42.31457],[0.83053,42.31528],[0.82842,42.3151],[0.82572,42.31533],[0.82331,42.31529],[0.81765,42.31489],[0.81534,42.31486],[0.80401,42.31887],[0.79976,42.32023],[0.79458,42.32453],[0.79098,42.32779],[0.78834,42.32841],[0.77365,42.33257],[0.77157,42.33343],[0.7763,42.34104],[0.77363,42.34202],[0.77197,42.34288],[0.77088,42.34288],[0.76955,42.34356],[0.76904,42.34361],[0.76854,42.34354],[0.76823,42.34373],[0.76767,42.34486],[0.767,42.34566],[0.76595,42.3461],[0.76548,42.34646],[0.7644,42.34689],[0.76362,42.34774],[0.76737,42.34883],[0.77073,42.34744],[0.77295,42.34629],[0.77852,42.34611],[0.78165,42.34743],[0.78774,42.34782],[0.79095,42.34731],[0.79592,42.34761],[0.79809,42.35215],[0.80371,42.35335],[0.80438,42.35373],[0.80629,42.3543],[0.80912,42.35773],[0.80728,42.35858],[0.80494,42.36018],[0.80307,42.36086],[0.79963,42.36265],[0.7975,42.36486],[0.797,42.36717],[0.79114,42.37369],[0.78995,42.37167],[0.78646,42.37105],[0.78513,42.37264],[0.78265,42.37433],[0.7775,42.37514],[0.77418,42.3755],[0.77322,42.37529],[0.7719,42.37536],[0.77084,42.37588],[0.76668,42.36966],[0.76419,42.36851],[0.76169,42.36668],[0.76279,42.36055],[0.76279,42.36011],[0.76242,42.3596],[0.76023,42.35844],[0.76096,42.35706],[0.76048,42.35722],[0.75901,42.35721],[0.75375,42.35634],[0.75166,42.35662],[0.75034,42.35694],[0.74959,42.35757],[0.7486,42.35728],[0.74824,42.35669],[0.74741,42.35666],[0.74651,42.35685],[0.74329,42.35803],[0.73983,42.35985],[0.739,42.36045],[0.73863,42.3611],[0.73771,42.36186],[0.73713,42.36204],[0.73408,42.36186],[0.72886,42.36319],[0.72824,42.36342],[0.7259,42.36537],[0.72363,42.36563],[0.72259,42.36742],[0.72316,42.36875],[0.72586,42.37019],[0.73463,42.37151],[0.73601,42.37406],[0.7353,42.37616],[0.73705,42.37641],[0.73808,42.37667],[0.74005,42.37748],[0.74341,42.37911],[0.74333,42.38007],[0.74349,42.38087],[0.7447,42.38352],[0.74509,42.38402],[0.74646,42.38477],[0.74464,42.38713],[0.74337,42.38794],[0.74298,42.39064],[0.74211,42.39186],[0.74079,42.39161],[0.73951,42.39611],[0.73806,42.39811],[0.73807,42.39859],[0.73851,42.39964],[0.73685,42.39925],[0.73554,42.40025],[0.73469,42.40068],[0.73069,42.40217],[0.72875,42.40397],[0.72793,42.40451],[0.72631,42.40523],[0.72863,42.40792],[0.73168,42.4081],[0.73384,42.40727],[0.73488,42.40786],[0.73614,42.4129],[0.73621,42.41402],[0.73473,42.4169],[0.7341,42.41767],[0.73169,42.42004],[0.72941,42.42254],[0.7279,42.42515],[0.7266,42.42693],[0.7262,42.42715],[0.72247,42.42764],[0.71916,42.42899],[0.71782,42.43125],[0.7172,42.43176],[0.7149,42.43301],[0.71421,42.43328],[0.71345,42.43407],[0.71297,42.43429],[0.71168,42.43517],[0.71099,42.43577],[0.7105,42.43638],[0.71028,42.43699],[0.71107,42.43883],[0.71108,42.43941],[0.70944,42.4417],[0.70917,42.44267],[0.70923,42.4443],[0.7091,42.44476],[0.70791,42.44627],[0.70769,42.44683],[0.70798,42.44771],[0.70788,42.44808],[0.70685,42.44932],[0.70778,42.44953],[0.70839,42.45],[0.71275,42.45399],[0.72034,42.45487],[0.72395,42.45573],[0.72507,42.45632],[0.72804,42.45701],[0.72886,42.45734],[0.73149,42.45869],[0.73217,42.45781],[0.73732,42.4646],[0.74048,42.46967],[0.74553,42.47333],[0.74816,42.47732],[0.74886,42.47817],[0.74936,42.47763],[0.75016,42.47709],[0.75164,42.47562],[0.75437,42.47245],[0.75606,42.46972],[0.75754,42.46678],[0.75822,42.46484],[0.76503,42.46194],[0.76691,42.46058],[0.76903,42.46131],[0.76988,42.46175],[0.77032,42.46226],[0.77061,42.46323],[0.77098,42.4637],[0.77135,42.4639],[0.77209,42.46396],[0.77277,42.46523],[0.77332,42.46558],[0.77498,42.46617],[0.77568,42.46625],[0.77698,42.46609],[0.788,42.46527],[0.79129,42.46472],[0.79616,42.46487],[0.80275,42.46416],[0.80322,42.46364],[0.80546,42.46274],[0.80641,42.46138],[0.80989,42.45923],[0.81542,42.45695],[0.81704,42.45709],[0.82698,42.45973],[0.82936,42.46202],[0.83714,42.4606],[0.84694,42.45607],[0.84944,42.45561],[0.85095,42.45513],[0.85324,42.45413],[0.85593,42.45454]],[[0.74077,42.41315],[0.73863,42.4132],[0.73815,42.41314],[0.73723,42.41285],[0.73686,42.41259],[0.73682,42.41234],[0.73955,42.4102],[0.73999,42.40958],[0.74172,42.41009],[0.74228,42.40948],[0.74275,42.40915],[0.74438,42.40868],[0.74253,42.40771],[0.74272,42.40745],[0.74252,42.40682],[0.74217,42.40718],[0.74153,42.40661],[0.74131,42.40695],[0.73996,42.4064],[0.7389,42.40641],[0.73885,42.40484],[0.73924,42.40449],[0.74008,42.40339],[0.73959,42.40178],[0.7399,42.40111],[0.73985,42.40067],[0.7402,42.39981],[0.74314,42.40029],[0.74278,42.4026],[0.74336,42.40531],[0.74342,42.40662],[0.74391,42.40788],[0.74475,42.4084],[0.74539,42.40861],[0.74546,42.40883],[0.74498,42.4092],[0.74399,42.40955],[0.74341,42.41008],[0.74261,42.41048],[0.74135,42.41139],[0.74122,42.41184],[0.74123,42.41248],[0.74138,42.4127],[0.74133,42.41303],[0.74077,42.41315]]]}},{"type":"Feature","properties":{"id":"2517301002"},"geometry":{"type":"Polygon","coordinates":[[[0.74077,42.41315],[0.74133,42.41303],[0.74138,42.4127],[0.74123,42.41248],[0.74122,42.41184],[0.74135,42.41139],[0.74261,42.41048],[0.74341,42.41008],[0.74399,42.40955],[0.74498,42.4092],[0.74546,42.40883],[0.74539,42.40861],[0.74475,42.4084],[0.74391,42.40788],[0.74342,42.40662],[0.74336,42.40531],[0.74278,42.4026],[0.74314,42.40029],[0.7402,42.39981],[0.73985,42.40067],[0.7399,42.40111],[0.73959,42.40178],[0.74008,42.40339],[0.73924,42.40449],[0.73885,42.40484],[0.7389,42.40641],[0.73996,42.4064],[0.74131,42.40695],[0.74153,42.40661],[0.74217,42.40718],[0.74252,42.40682],[0.74272,42.40745],[0.74253,42.40771],[0.74438,42.40868],[0.74275,42.40915],[0.74228,42.40948],[0.74172,42.41009],[0.73999,42.40958],[0.73955,42.4102],[0.73682,42.41234],[0.73686,42.41259],[0.73723,42.41285],[0.73815,42.41314],[0.73863,42.4132],[0.74077,42.41315]]]}}]}