{"type":"FeatureCollection","features":[{"type":"Feature","properties":{"id":"2602101001"},"geometry":{"type":"Polygon","coordinates":[[[-2.00738,42.26822],[-1.99921,42.26411],[-1.9938,42.26239],[-1.9909,42.259],[-1.99108,42.25739],[-1.99038,42.25467],[-1.98928,42.253],[-1.98598,42.25132],[-1.98324,42.24779],[-1.98302,42.24618],[-1.97982,42.2449],[-1.97921,42.2436],[-1.97716,42.24303],[-1.97724,42.23503],[-2.00059,42.23274],[-2.00418,42.21973],[-2.00511,42.21772],[-2.00488,42.21764],[-2.00539,42.2148],[-2.0057,42.21481],[-2.00581,42.21464],[-2.00599,42.21464],[-2.00599,42.21448],[-2.00675,42.21442],[-2.00791,42.21494],[-2.00787,42.21513],[-2.00809,42.21519],[-2.00854,42.21555],[-2.00912,42.21573],[-2.00994,42.21541],[-2.01186,42.21561],[-2.01386,42.21545],[-2.01518,42.21548],[-2.01653,42.2164],[-2.01745,42.21689],[-2.02081,42.21837],[-2.02398,42.21958],[-2.02478,42.2201],[-2.0261,42.22054],[-2.02695,42.22069],[-2.01868,42.23384],[-2.01524,42.24184],[-2.0169,42.2459],[-2.01807,42.26071],[-2.01678,42.26526],[-2.01711,42.2669],[-2.01628,42.26779],[-2.01511,42.27176],[-2.01479,42.27364],[-2.01364,42.27209],[-2.00881,42.2683],[-2.00738,42.26822]]]}},{"type":"Feature","properties":{"id":"2602101002"},"geometry":{"type":"Polygon","coordinates":[[[-1.96665,42.23731],[-1.96822,42.23624],[-1.96778,42.23205],[-1.96711,42.23248],[-1.96423,42.23234],[-1.96211,42.23111],[-1.96014,42.229],[-1.95958,42.22616],[-1.95737,42.22597],[-1.9559,42.2247],[-1.95071,42.2235],[-1.94628,42.22107],[-1.9456,42.22247],[-1.94036,42.22065],[-1.9327,42.2202],[-1.93061,42.21958],[-1.93125,42.2178],[-1.92852,42.2163],[-1.95642,42.20811],[-1.95688,42.20808],[-1.9576,42.20823],[-1.97507,42.21355],[-1.97724,42.21341],[-1.97801,42.21305],[-1.9787,42.21285],[-1.97971,42.21283],[-1.98048,42.21312],[-1.98199,42.21425],[-1.98453,42.2147],[-1.98569,42.21538],[-1.98611,42.21552],[-1.98694,42.21545],[-1.98798,42.21518],[-1.98884,42.2146],[-1.99038,42.21391],[-1.99363,42.21299],[-1.99595,42.21303],[-1.99748,42.21276],[-1.9992,42.21275],[-2.00068,42.21257],[-2.00249,42.2133],[-2.0024,42.21346],[-2.00308,42.21409],[-2.00279,42.21425],[-2.00539,42.2148],[-2.00488,42.21764],[-2.00511,42.21772],[-2.00418,42.21973],[-2.00059,42.23274],[-1.97724,42.23503],[-1.97716,42.24303],[-1.97286,42.24184],[-1.97163,42.24005],[-1.96665,42.23731]]]}},{"type":"Feature","properties":{"id":"2602102001"},"geometry":{"type":"Polygon","coordinates":[[[-2.0057,42.21481],[-2.00279,42.21425],[-2.00308,42.21409],[-2.0024,42.21346],[-2.00249,42.2133],[-2.00068,42.21257],[-1.9992,42.21275],[-1.99748,42.21276],[-1.99595,42.21303],[-1.99363,42.21299],[-1.99038,42.21391],[-1.98884,42.2146],[-1.98798,42.21518],[-1.98694,42.21545],[-1.98611,42.21552],[-1.98569,42.21538],[-1.98453,42.2147],[-1.98199,42.21425],[-1.98048,42.21312],[-1.97971,42.21283],[-1.9787,42.21285],[-1.97801,42.21305],[-1.97724,42.21341],[-1.97507,42.21355],[-1.9576,42.20823],[-1.95688,42.20808],[-1.95642,42.20811],[-1.92852,42.2163],[-1.92735,42.21565],[-1.92171,42.20936],[-1.91974,42.20342],[-1.92269,42.19868],[-1.92501,42.18951],[-1.92751,42.1882],[-1.92885,42.1882],[-1.93049,42.18729],[-1.92995,42.18476],[-1.93036,42.18274],[-1.93354,42.17756],[-1.93377,42.17301],[-1.93586,42.17172],[-1.93715,42.16941],[-1.94318,42.16361],[-1.946,42.16238],[-1.94931,42.16174],[-1.9504,42.16053],[-1.95199,42.15996],[-1.95347,42.15859],[-1.95753,42.15784],[-1.95834,42.15621],[-1.96274,42.15319],[-1.96506,42.15061],[-1.96651,42.15017],[-1.96813,42.14882],[-1.96766,42.14639],[-1.96875,42.14474],[-1.97227,42.14353],[-1.97674,42.14024],[-1.97906,42.14014],[-1.98381,42.14092],[-1.98383,42.13989],[-1.98578,42.13844],[-1.98776,42.13807],[-1.99009,42.13642],[-1.99246,42.13647],[-1.99281,42.13505],[-1.9967,42.13311],[-2.0233,42.15401],[-2.02997,42.16686],[-2.03125,42.16992],[-2.03175,42.17772],[-2.03542,42.19647],[-2.03155,42.21336],[-2.02695,42.22069],[-2.0261,42.22054],[-2.02478,42.2201],[-2.02398,42.21958],[-2.02081,42.21837],[-2.01745,42.21689],[-2.01658,42.21644],[-2.01549,42.21563],[-2.01513,42.21547],[-2.01329,42.21547],[-2.01189,42.21561],[-2.00994,42.21541],[-2.00921,42.21573],[-2.00854,42.21555],[-2.00809,42.21519],[-2.00787,42.21513],[-2.00791,42.21494],[-2.00675,42.21442],[-2.00599,42.21448],[-2.00599,42.21464],[-2.00581,42.21464],[-2.0057,42.21481]]]}}]}