{"type":"FeatureCollection","features":[{"type":"Feature","properties":{"id":"2700301001"},"geometry":{"type":"Polygon","coordinates":[[[-7.87847,42.78702],[-7.87977,42.7851],[-7.87911,42.78313],[-7.88282,42.78183],[-7.88421,42.78028],[-7.88587,42.77649],[-7.88697,42.77643],[-7.88655,42.77493],[-7.88683,42.77429],[-7.88618,42.77369],[-7.88893,42.76977],[-7.89133,42.76979],[-7.89155,42.7699],[-7.89214,42.76985],[-7.89283,42.76862],[-7.89333,42.76879],[-7.89455,42.77135],[-7.89467,42.77141],[-7.8949,42.77493],[-7.89563,42.77596],[-7.89572,42.77594],[-7.89667,42.77711],[-7.89992,42.77873],[-7.90163,42.77889],[-7.9028,42.77938],[-7.90911,42.78051],[-7.90705,42.78405],[-7.89486,42.78437],[-7.89228,42.78503],[-7.8925,42.78589],[-7.8931,42.78714],[-7.89155,42.78947],[-7.89257,42.79487],[-7.88958,42.79488],[-7.88742,42.7964],[-7.88352,42.79721],[-7.87884,42.79504],[-7.88015,42.79034],[-7.87825,42.78816],[-7.87847,42.78702]]]}},{"type":"Feature","properties":{"id":"2700301002"},"geometry":{"type":"Polygon","coordinates":[[[-7.85663,42.79067],[-7.85565,42.79009],[-7.85484,42.79032],[-7.85332,42.78995],[-7.85248,42.78996],[-7.85211,42.78983],[-7.85141,42.78979],[-7.85085,42.78986],[-7.84855,42.78909],[-7.84773,42.78912],[-7.84705,42.78888],[-7.84685,42.78873],[-7.84661,42.78831],[-7.84567,42.78755],[-7.84324,42.78651],[-7.84269,42.78638],[-7.84211,42.78638],[-7.84159,42.78624],[-7.84158,42.78593],[-7.84194,42.78533],[-7.84194,42.78502],[-7.84091,42.7834],[-7.84058,42.78248],[-7.83974,42.7813],[-7.83945,42.77924],[-7.83865,42.77823],[-7.83814,42.77808],[-7.83742,42.77762],[-7.83736,42.77722],[-7.83754,42.77552],[-7.83822,42.77493],[-7.83838,42.77457],[-7.83838,42.77376],[-7.83851,42.77347],[-7.83912,42.77296],[-7.83902,42.77265],[-7.83844,42.77248],[-7.83754,42.77246],[-7.83724,42.77232],[-7.83698,42.77193],[-7.83668,42.77041],[-7.83619,42.76947],[-7.83632,42.76907],[-7.8369,42.76874],[-7.83702,42.76831],[-7.83811,42.76741],[-7.8377,42.76624],[-7.83916,42.76582],[-7.83935,42.7654],[-7.83995,42.76525],[-7.83994,42.76469],[-7.84024,42.76422],[-7.84076,42.76389],[-7.84241,42.76322],[-7.84476,42.76284],[-7.84548,42.7624],[-7.84789,42.76169],[-7.84704,42.76122],[-7.84628,42.76059],[-7.84394,42.75652],[-7.84098,42.75335],[-7.83798,42.75176],[-7.83127,42.75007],[-7.83109,42.74848],[-7.83083,42.74862],[-7.83023,42.74929],[-7.82989,42.74944],[-7.82922,42.74924],[-7.82886,42.74942],[-7.82835,42.75005],[-7.82809,42.75018],[-7.82783,42.75006],[-7.8264,42.74822],[-7.8243,42.74757],[-7.82368,42.74724],[-7.82307,42.74669],[-7.82208,42.74479],[-7.8219,42.74462],[-7.82002,42.74471],[-7.81881,42.74406],[-7.8186,42.74017],[-7.81965,42.73972],[-7.81992,42.73947],[-7.82031,42.7383],[-7.82065,42.73796],[-7.82215,42.73699],[-7.82279,42.7363],[-7.82563,42.73614],[-7.8275,42.73315],[-7.82788,42.73275],[-7.82979,42.73118],[-7.83083,42.73056],[-7.82798,42.72837],[-7.82756,42.7268],[-7.82576,42.72404],[-7.82938,42.72193],[-7.83475,42.71807],[-7.85063,42.71696],[-7.85902,42.72096],[-7.8605,42.72158],[-7.86232,42.72215],[-7.86251,42.72275],[-7.86321,42.72321],[-7.8664,42.72064],[-7.87323,42.72021],[-7.87526,42.721],[-7.88046,42.72331],[-7.88645,42.72574],[-7.88894,42.72637],[-7.89483,42.72921],[-7.89548,42.72962],[-7.89784,42.73173],[-7.8997,42.73172],[-7.9026,42.73334],[-7.91165,42.73466],[-7.91647,42.73431],[-7.91847,42.73424],[-7.92504,42.73561],[-7.93522,42.73965],[-7.93553,42.7397],[-7.93495,42.74005],[-7.92701,42.74378],[-7.92305,42.74589],[-7.91745,42.74829],[-7.91583,42.74968],[-7.91323,42.75225],[-7.90963,42.75659],[-7.90888,42.75797],[-7.90691,42.75892],[-7.90269,42.76203],[-7.90024,42.7653],[-7.89459,42.77131],[-7.89333,42.76879],[-7.89283,42.76862],[-7.89214,42.76985],[-7.89155,42.7699],[-7.89133,42.76979],[-7.88893,42.76977],[-7.88618,42.77369],[-7.88683,42.77429],[-7.88655,42.77493],[-7.88697,42.77643],[-7.88587,42.77649],[-7.88421,42.78028],[-7.88282,42.78183],[-7.87911,42.78313],[-7.87977,42.7851],[-7.87847,42.78702],[-7.87087,42.78542],[-7.8664,42.7853],[-7.8605,42.78733],[-7.85796,42.7898],[-7.85821,42.79082],[-7.85663,42.79067]]]}},{"type":"Feature","properties":{"id":"2700301003"},"geometry":{"type":"Polygon","coordinates":[[[-7.88706,42.81987],[-7.88603,42.81774],[-7.88574,42.81597],[-7.88499,42.81506],[-7.88469,42.8145],[-7.8845,42.81429],[-7.8841,42.81418],[-7.88345,42.81423],[-7.88296,42.81416],[-7.88259,42.81396],[-7.88252,42.81363],[-7.8826,42.81311],[-7.88284,42.81257],[-7.88417,42.81084],[-7.88432,42.80982],[-7.88428,42.80953],[-7.88405,42.8093],[-7.88278,42.80935],[-7.88128,42.80863],[-7.88034,42.80892],[-7.8794,42.809],[-7.87902,42.80921],[-7.87883,42.80943],[-7.87762,42.80977],[-7.87741,42.80991],[-7.87703,42.80992],[-7.87609,42.80949],[-7.87494,42.8094],[-7.87448,42.80894],[-7.87401,42.80876],[-7.87335,42.80814],[-7.87019,42.80746],[-7.86977,42.80722],[-7.86919,42.80648],[-7.86911,42.80572],[-7.86868,42.80428],[-7.86888,42.80285],[-7.86858,42.80262],[-7.86756,42.80224],[-7.86682,42.80145],[-7.86644,42.80123],[-7.86531,42.8009],[-7.86493,42.80066],[-7.86449,42.80052],[-7.86321,42.80055],[-7.86285,42.80044],[-7.86259,42.79999],[-7.86326,42.79909],[-7.86314,42.79878],[-7.86234,42.79817],[-7.86175,42.79823],[-7.8612,42.79815],[-7.86068,42.79796],[-7.86042,42.79768],[-7.86027,42.79738],[-7.86087,42.79705],[-7.86103,42.79685],[-7.86112,42.79599],[-7.86088,42.79588],[-7.86048,42.7962],[-7.86021,42.79605],[-7.86045,42.79537],[-7.86028,42.79513],[-7.85973,42.79504],[-7.85958,42.79476],[-7.86003,42.79315],[-7.86032,42.79294],[-7.86093,42.79284],[-7.86114,42.79262],[-7.86099,42.79236],[-7.86004,42.79162],[-7.85945,42.79092],[-7.85901,42.79112],[-7.85873,42.79145],[-7.85831,42.79133],[-7.85831,42.79101],[-7.85796,42.7898],[-7.8605,42.78733],[-7.8664,42.7853],[-7.87087,42.78542],[-7.87847,42.78702],[-7.87825,42.78816],[-7.88015,42.79034],[-7.87884,42.79504],[-7.88352,42.79721],[-7.88742,42.7964],[-7.88958,42.79488],[-7.89257,42.79487],[-7.89155,42.78947],[-7.8931,42.78714],[-7.8925,42.78589],[-7.89228,42.78503],[-7.89486,42.78437],[-7.90705,42.78405],[-7.90911,42.78051],[-7.9028,42.77938],[-7.90163,42.77889],[-7.89992,42.77873],[-7.89667,42.77711],[-7.89572,42.77594],[-7.89563,42.77596],[-7.8949,42.77493],[-7.89467,42.77141],[-7.89455,42.77135],[-7.90024,42.7653],[-7.90269,42.76203],[-7.90691,42.75892],[-7.90888,42.75797],[-7.90963,42.75659],[-7.91323,42.75225],[-7.91583,42.74968],[-7.91745,42.74829],[-7.92305,42.74589],[-7.92701,42.74378],[-7.93495,42.74005],[-7.93553,42.7397],[-7.93574,42.73973],[-7.9385,42.74492],[-7.93982,42.7465],[-7.94147,42.74805],[-7.94314,42.74952],[-7.94861,42.75323],[-7.95186,42.75353],[-7.95282,42.7539],[-7.95411,42.75511],[-7.95645,42.75776],[-7.95928,42.76201],[-7.96087,42.76308],[-7.96165,42.76375],[-7.96577,42.76933],[-7.96793,42.77145],[-7.96884,42.77215],[-7.97058,42.7732],[-7.97878,42.77869],[-7.97896,42.77895],[-7.97906,42.77991],[-7.97976,42.78251],[-7.98148,42.78586],[-7.98235,42.78796],[-7.98239,42.79036],[-7.98128,42.79436],[-7.98183,42.79705],[-7.9812,42.79984],[-7.98133,42.80407],[-7.9823,42.80635],[-7.98085,42.81133],[-7.97595,42.81723],[-7.97504,42.8207],[-7.97322,42.82396],[-7.9712,42.82799],[-7.96301,42.83545],[-7.96077,42.83723],[-7.9583,42.83893],[-7.95641,42.83975],[-7.95721,42.8388],[-7.95735,42.83828],[-7.95698,42.83727],[-7.95656,42.83707],[-7.95511,42.83703],[-7.9552,42.83657],[-7.95567,42.8361],[-7.95655,42.8356],[-7.95691,42.83517],[-7.95689,42.83489],[-7.95661,42.83459],[-7.95565,42.83391],[-7.95517,42.8334],[-7.95499,42.83314],[-7.95479,42.83223],[-7.95573,42.8313],[-7.95574,42.83076],[-7.95597,42.83038],[-7.95588,42.83007],[-7.95438,42.8298],[-7.95358,42.82993],[-7.95259,42.83024],[-7.95204,42.83028],[-7.95109,42.83018],[-7.95026,42.82949],[-7.95002,42.82872],[-7.94936,42.82829],[-7.94864,42.82842],[-7.94706,42.82954],[-7.94673,42.82963],[-7.94653,42.82958],[-7.94636,42.82937],[-7.9463,42.82907],[-7.9466,42.82839],[-7.94663,42.82805],[-7.94649,42.82757],[-7.94607,42.82701],[-7.9457,42.82693],[-7.94543,42.82691],[-7.94372,42.82718],[-7.94278,42.82709],[-7.94088,42.82679],[-7.93935,42.82628],[-7.9379,42.82638],[-7.93641,42.82701],[-7.93555,42.82686],[-7.93495,42.82645],[-7.93501,42.82614],[-7.93596,42.82526],[-7.93558,42.82512],[-7.93347,42.82486],[-7.93271,42.82489],[-7.93172,42.8251],[-7.93142,42.8249],[-7.93117,42.82438],[-7.93095,42.82264],[-7.93108,42.82237],[-7.93183,42.82169],[-7.93178,42.82143],[-7.93076,42.82059],[-7.93027,42.82042],[-7.92718,42.82056],[-7.92606,42.82026],[-7.92551,42.82037],[-7.92526,42.82058],[-7.92525,42.82091],[-7.92623,42.82161],[-7.92642,42.82196],[-7.92632,42.8223],[-7.92597,42.82279],[-7.92568,42.82295],[-7.92472,42.82293],[-7.92427,42.82284],[-7.92287,42.82236],[-7.92211,42.82182],[-7.92173,42.8213],[-7.92169,42.82053],[-7.92156,42.82041],[-7.92023,42.82073],[-7.91955,42.82064],[-7.91795,42.8194],[-7.91556,42.81972],[-7.91396,42.82003],[-7.91383,42.81772],[-7.91361,42.8173],[-7.91307,42.81717],[-7.91281,42.81687],[-7.91241,42.81667],[-7.91179,42.81668],[-7.91119,42.81696],[-7.90792,42.82038],[-7.90725,42.82057],[-7.90227,42.82079],[-7.89947,42.82076],[-7.89775,42.82159],[-7.89675,42.82172],[-7.8962,42.82154],[-7.89398,42.82046],[-7.89365,42.82043],[-7.89269,42.82082],[-7.89154,42.82077],[-7.89118,42.82092],[-7.88982,42.82214],[-7.88913,42.82216],[-7.88878,42.82212],[-7.88706,42.81987]]]}}]}