{"type":"FeatureCollection","features":[{"type":"Feature","properties":{"id":"2700601001"},"geometry":{"type":"Polygon","coordinates":[[[-7.15547,42.86015],[-7.15427,42.85977],[-7.15344,42.85865],[-7.15209,42.85406],[-7.14847,42.85179],[-7.14668,42.84951],[-7.14675,42.84848],[-7.14723,42.84774],[-7.1492,42.84609],[-7.15019,42.84484],[-7.15111,42.84427],[-7.15229,42.84383],[-7.15402,42.84358],[-7.15608,42.84353],[-7.15878,42.84276],[-7.16098,42.84238],[-7.16203,42.84296],[-7.16346,42.84349],[-7.16463,42.84363],[-7.16671,42.84358],[-7.17008,42.84382],[-7.17309,42.84379],[-7.17443,42.84416],[-7.17766,42.84534],[-7.17821,42.84568],[-7.18126,42.8487],[-7.18138,42.84913],[-7.18119,42.8505],[-7.18045,42.85244],[-7.17687,42.8526],[-7.17322,42.85293],[-7.17095,42.85325],[-7.16937,42.85443],[-7.16794,42.85512],[-7.16758,42.85657],[-7.16968,42.85877],[-7.16578,42.85921],[-7.16119,42.85847],[-7.16044,42.85911],[-7.15845,42.86014],[-7.15547,42.86015]]]}},{"type":"Feature","properties":{"id":"2700601002"},"geometry":{"type":"Polygon","coordinates":[[[-7.06876,42.88994],[-7.06928,42.88908],[-7.07099,42.88769],[-7.07138,42.88695],[-7.07142,42.88595],[-7.0713,42.88544],[-7.07032,42.88442],[-7.07023,42.88381],[-7.07181,42.88265],[-7.07266,42.88225],[-7.07576,42.88139],[-7.07829,42.87923],[-7.07854,42.87841],[-7.07843,42.87809],[-7.07775,42.87731],[-7.07611,42.87609],[-7.07549,42.87516],[-7.07578,42.87452],[-7.07673,42.87345],[-7.07956,42.86322],[-7.08331,42.85992],[-7.08872,42.85875],[-7.09713,42.8578],[-7.1047,42.85333],[-7.10978,42.85279],[-7.11305,42.84809],[-7.11533,42.83734],[-7.11503,42.82438],[-7.1153,42.81663],[-7.11888,42.81402],[-7.1207,42.8138],[-7.12109,42.81362],[-7.12162,42.81319],[-7.12263,42.81168],[-7.12551,42.81166],[-7.12682,42.81228],[-7.13002,42.81073],[-7.13568,42.81343],[-7.13751,42.81183],[-7.14088,42.81098],[-7.14632,42.81358],[-7.14685,42.81265],[-7.14725,42.8122],[-7.15301,42.80678],[-7.15928,42.80638],[-7.16042,42.8045],[-7.15795,42.80207],[-7.16304,42.79974],[-7.17123,42.79907],[-7.17121,42.79777],[-7.172,42.79711],[-7.17528,42.79576],[-7.18254,42.79369],[-7.18498,42.79235],[-7.1877,42.79002],[-7.18865,42.7902],[-7.1906,42.79036],[-7.19229,42.79017],[-7.19356,42.78979],[-7.19559,42.7889],[-7.19912,42.78879],[-7.20242,42.78785],[-7.20359,42.789],[-7.20424,42.79022],[-7.21022,42.79952],[-7.21133,42.79983],[-7.21261,42.80004],[-7.21416,42.80068],[-7.21475,42.8008],[-7.21848,42.80094],[-7.22145,42.80088],[-7.22213,42.80095],[-7.22339,42.8014],[-7.22401,42.80152],[-7.23071,42.80999],[-7.22056,42.82217],[-7.21938,42.82582],[-7.22126,42.83055],[-7.22231,42.83243],[-7.22248,42.83296],[-7.22222,42.83342],[-7.21629,42.83906],[-7.20967,42.84214],[-7.20649,42.84564],[-7.20257,42.84514],[-7.19663,42.84411],[-7.19203,42.84358],[-7.19156,42.84424],[-7.18857,42.84966],[-7.18754,42.8511],[-7.18611,42.85257],[-7.18526,42.85325],[-7.18457,42.85423],[-7.18349,42.85362],[-7.18045,42.85244],[-7.18119,42.8505],[-7.18138,42.84913],[-7.18126,42.8487],[-7.17821,42.84568],[-7.17766,42.84534],[-7.17443,42.84416],[-7.17309,42.84379],[-7.17008,42.84382],[-7.16671,42.84358],[-7.16463,42.84363],[-7.16346,42.84349],[-7.16203,42.84296],[-7.16098,42.84238],[-7.15878,42.84276],[-7.15608,42.84353],[-7.15402,42.84358],[-7.15229,42.84383],[-7.15111,42.84427],[-7.15019,42.84484],[-7.1492,42.84609],[-7.14723,42.84774],[-7.14675,42.84848],[-7.14668,42.84951],[-7.14847,42.85179],[-7.15209,42.85406],[-7.15344,42.85865],[-7.15427,42.85977],[-7.15547,42.86015],[-7.15495,42.8602],[-7.15451,42.8638],[-7.15503,42.86588],[-7.15558,42.86686],[-7.15598,42.86729],[-7.15774,42.86789],[-7.15817,42.86844],[-7.15877,42.86977],[-7.1587,42.87027],[-7.15736,42.87284],[-7.15718,42.87374],[-7.15715,42.87493],[-7.15732,42.87556],[-7.15808,42.87662],[-7.16061,42.87918],[-7.16139,42.88028],[-7.1606,42.88099],[-7.15871,42.88218],[-7.15757,42.88305],[-7.15573,42.88495],[-7.15481,42.88624],[-7.15363,42.88871],[-7.15354,42.89131],[-7.15332,42.89267],[-7.15343,42.8937],[-7.15255,42.89734],[-7.15237,42.90154],[-7.15207,42.90279],[-7.15118,42.9045],[-7.15017,42.90524],[-7.14924,42.90357],[-7.14846,42.90126],[-7.14779,42.90067],[-7.14717,42.90046],[-7.14409,42.90003],[-7.14123,42.89888],[-7.13963,42.89873],[-7.13861,42.89879],[-7.13624,42.8993],[-7.13546,42.89972],[-7.13401,42.90103],[-7.13284,42.90246],[-7.13152,42.90381],[-7.13053,42.90465],[-7.12993,42.90498],[-7.12849,42.90536],[-7.123,42.90631],[-7.12179,42.90637],[-7.11947,42.90624],[-7.11721,42.90596],[-7.11428,42.90539],[-7.11295,42.90498],[-7.11077,42.90402],[-7.10877,42.9029],[-7.10834,42.90249],[-7.10518,42.90173],[-7.10031,42.90311],[-7.09964,42.90347],[-7.0989,42.90444],[-7.09819,42.90394],[-7.0976,42.90368],[-7.09576,42.90378],[-7.09229,42.90375],[-7.09155,42.90356],[-7.09022,42.90301],[-7.0891,42.90203],[-7.08712,42.89982],[-7.08624,42.89947],[-7.0828,42.89881],[-7.08215,42.89842],[-7.08131,42.89811],[-7.08022,42.89602],[-7.08024,42.8958],[-7.07899,42.89545],[-7.07715,42.89526],[-7.07534,42.8946],[-7.06876,42.88994]]]}},{"type":"Feature","properties":{"id":"2700601003"},"geometry":{"type":"Polygon","coordinates":[[[-7.05544,42.93208],[-7.06532,42.9245],[-7.06236,42.91646],[-7.06312,42.91614],[-7.06491,42.91592],[-7.06507,42.9157],[-7.06545,42.91438],[-7.06569,42.91415],[-7.06604,42.914],[-7.06728,42.91401],[-7.06873,42.91423],[-7.06939,42.91419],[-7.06974,42.91411],[-7.07005,42.91368],[-7.06999,42.91341],[-7.06975,42.91316],[-7.06825,42.91269],[-7.06739,42.91236],[-7.06682,42.91201],[-7.06612,42.91096],[-7.06604,42.9104],[-7.06619,42.90921],[-7.06749,42.90798],[-7.06787,42.90746],[-7.06794,42.90641],[-7.06754,42.90547],[-7.06713,42.90494],[-7.06572,42.90394],[-7.06465,42.90346],[-7.06418,42.90344],[-7.06257,42.90376],[-7.06158,42.90358],[-7.05642,42.90154],[-7.0562,42.90127],[-7.05624,42.90098],[-7.0573,42.90032],[-7.05811,42.90006],[-7.06162,42.89953],[-7.0623,42.89928],[-7.06292,42.89894],[-7.06339,42.89847],[-7.06403,42.89721],[-7.06436,42.89615],[-7.06543,42.89437],[-7.0664,42.89335],[-7.06876,42.88994],[-7.07534,42.8946],[-7.07715,42.89526],[-7.07899,42.89545],[-7.08024,42.8958],[-7.08022,42.89602],[-7.08131,42.89811],[-7.08215,42.89842],[-7.0828,42.89881],[-7.08624,42.89947],[-7.08712,42.89982],[-7.0891,42.90203],[-7.09022,42.90301],[-7.09155,42.90356],[-7.09229,42.90375],[-7.09576,42.90378],[-7.0976,42.90368],[-7.09819,42.90394],[-7.0989,42.90444],[-7.09964,42.90347],[-7.10031,42.90311],[-7.10518,42.90173],[-7.10834,42.90249],[-7.10877,42.9029],[-7.11077,42.90402],[-7.11295,42.90498],[-7.11428,42.90539],[-7.11721,42.90596],[-7.11947,42.90624],[-7.12179,42.90637],[-7.123,42.90631],[-7.12849,42.90536],[-7.12993,42.90498],[-7.13053,42.90465],[-7.13152,42.90381],[-7.13284,42.90246],[-7.13401,42.90103],[-7.13546,42.89972],[-7.13624,42.8993],[-7.13861,42.89879],[-7.13963,42.89873],[-7.14123,42.89888],[-7.14409,42.90003],[-7.14717,42.90046],[-7.14779,42.90067],[-7.14846,42.90126],[-7.14924,42.90357],[-7.15017,42.90524],[-7.15118,42.9045],[-7.15207,42.90279],[-7.15237,42.90154],[-7.15255,42.89734],[-7.15343,42.8937],[-7.15332,42.89267],[-7.15354,42.89131],[-7.15363,42.88871],[-7.15481,42.88624],[-7.15573,42.88495],[-7.15757,42.88305],[-7.15871,42.88218],[-7.1606,42.88099],[-7.16139,42.88028],[-7.16061,42.87918],[-7.15808,42.87662],[-7.15732,42.87556],[-7.15715,42.87493],[-7.15718,42.87374],[-7.15736,42.87284],[-7.1587,42.87027],[-7.15877,42.86977],[-7.15817,42.86844],[-7.15774,42.86789],[-7.15598,42.86729],[-7.15558,42.86686],[-7.15503,42.86588],[-7.15451,42.8638],[-7.15495,42.8602],[-7.15845,42.86014],[-7.16044,42.85911],[-7.16119,42.85847],[-7.16578,42.85921],[-7.16968,42.85877],[-7.16758,42.85657],[-7.16794,42.85512],[-7.16937,42.85443],[-7.17095,42.85325],[-7.17322,42.85293],[-7.17687,42.8526],[-7.18045,42.85244],[-7.18349,42.85362],[-7.18457,42.85423],[-7.18526,42.85325],[-7.18611,42.85257],[-7.18754,42.8511],[-7.18857,42.84966],[-7.19156,42.84424],[-7.19203,42.84358],[-7.19663,42.84411],[-7.20257,42.84514],[-7.20649,42.84564],[-7.20571,42.84649],[-7.20561,42.84686],[-7.20798,42.8569],[-7.21539,42.87439],[-7.217,42.88408],[-7.21595,42.88792],[-7.21418,42.89172],[-7.21405,42.89642],[-7.21708,42.90001],[-7.21769,42.89987],[-7.21867,42.89985],[-7.21929,42.90004],[-7.22177,42.90117],[-7.22279,42.90185],[-7.22304,42.90378],[-7.21467,42.90766],[-7.21482,42.91041],[-7.2144,42.91053],[-7.20893,42.91126],[-7.19855,42.91352],[-7.18703,42.91703],[-7.18025,42.91775],[-7.17649,42.91719],[-7.16947,42.92695],[-7.16359,42.93358],[-7.16329,42.94322],[-7.1624,42.95187],[-7.15954,42.95476],[-7.14525,42.94861],[-7.13801,42.94982],[-7.11508,42.96742],[-7.09572,42.9804],[-7.08294,42.97764],[-7.06847,42.9699],[-7.07156,42.9546],[-7.07155,42.95437],[-7.07091,42.95364],[-7.07064,42.95266],[-7.07003,42.95207],[-7.07215,42.94904],[-7.07024,42.94508],[-7.06879,42.94287],[-7.06809,42.93759],[-7.06934,42.93544],[-7.06958,42.9347],[-7.0673,42.93337],[-7.06663,42.93312],[-7.06596,42.93244],[-7.06225,42.93162],[-7.0598,42.9314],[-7.05544,42.93208]]]}}]}