{"type":"FeatureCollection","features":[{"type":"Feature","properties":{"id":"2700701001"},"geometry":{"type":"Polygon","coordinates":[[[-7.69473,43.19495],[-7.67025,43.17744],[-7.66876,43.17665],[-7.66053,43.17693],[-7.65996,43.17645],[-7.66127,43.17478],[-7.65982,43.17319],[-7.66061,43.17208],[-7.66332,43.17168],[-7.66712,43.16921],[-7.67033,43.16821],[-7.66689,43.16556],[-7.66773,43.16412],[-7.66565,43.16385],[-7.66474,43.16132],[-7.66156,43.1601],[-7.6591,43.1601],[-7.65998,43.15424],[-7.65935,43.15181],[-7.65651,43.14988],[-7.64745,43.14482],[-7.64562,43.1369],[-7.63929,43.13358],[-7.6356,43.12664],[-7.63791,43.1257],[-7.6376,43.12495],[-7.63908,43.1221],[-7.63894,43.12109],[-7.63868,43.12053],[-7.63747,43.11927],[-7.63684,43.1179],[-7.6364,43.11588],[-7.63636,43.11516],[-7.63517,43.11234],[-7.63769,43.1106],[-7.63785,43.11014],[-7.63748,43.1091],[-7.63868,43.10724],[-7.64072,43.10671],[-7.64371,43.10499],[-7.64577,43.10426],[-7.64643,43.10354],[-7.64753,43.10459],[-7.64798,43.10523],[-7.64929,43.10783],[-7.64985,43.10826],[-7.65339,43.10951],[-7.65492,43.11015],[-7.65551,43.11078],[-7.65683,43.11185],[-7.65718,43.11229],[-7.65763,43.1138],[-7.6576,43.11463],[-7.65678,43.11614],[-7.65671,43.1168],[-7.65714,43.11809],[-7.65681,43.11958],[-7.65701,43.12021],[-7.65792,43.12104],[-7.6587,43.12203],[-7.66018,43.12338],[-7.66119,43.12456],[-7.66327,43.13015],[-7.66464,43.13219],[-7.66513,43.13262],[-7.66652,43.13335],[-7.67061,43.13502],[-7.67188,43.13563],[-7.67389,43.13764],[-7.67535,43.13871],[-7.6769,43.1396],[-7.6783,43.14015],[-7.68032,43.14068],[-7.68192,43.14124],[-7.68364,43.14225],[-7.68494,43.14319],[-7.68619,43.14435],[-7.68879,43.14602],[-7.69152,43.15103],[-7.69275,43.15235],[-7.69383,43.15284],[-7.69679,43.15339],[-7.69947,43.15531],[-7.70276,43.15822],[-7.70367,43.15879],[-7.70552,43.15935],[-7.70737,43.15954],[-7.70776,43.15967],[-7.70812,43.16037],[-7.70773,43.16097],[-7.70553,43.16376],[-7.70276,43.16694],[-7.70179,43.16849],[-7.70159,43.16933],[-7.70168,43.16996],[-7.70241,43.17056],[-7.70487,43.17106],[-7.7094,43.17143],[-7.71186,43.17208],[-7.71321,43.17275],[-7.71354,43.17114],[-7.71437,43.16915],[-7.71551,43.16712],[-7.71737,43.16469],[-7.71922,43.16307],[-7.72012,43.1625],[-7.72151,43.16376],[-7.72454,43.166],[-7.72583,43.16632],[-7.72659,43.16627],[-7.72809,43.1666],[-7.7296,43.16734],[-7.73026,43.16746],[-7.732,43.16755],[-7.73426,43.16747],[-7.73784,43.16717],[-7.74035,43.16747],[-7.74121,43.16765],[-7.74215,43.16812],[-7.74314,43.16835],[-7.74481,43.16857],[-7.74719,43.16841],[-7.74782,43.16869],[-7.74876,43.16958],[-7.7498,43.16987],[-7.75031,43.16981],[-7.75099,43.16949],[-7.75195,43.1686],[-7.75324,43.16823],[-7.75384,43.16823],[-7.759,43.17064],[-7.76032,43.17087],[-7.76207,43.17095],[-7.76621,43.16998],[-7.76906,43.16965],[-7.77152,43.16959],[-7.77433,43.16977],[-7.77732,43.17065],[-7.77922,43.17085],[-7.78157,43.17037],[-7.78443,43.17012],[-7.78591,43.1702],[-7.78624,43.17093],[-7.78431,43.17207],[-7.78408,43.17445],[-7.78322,43.17753],[-7.78364,43.18055],[-7.78178,43.18619],[-7.78089,43.18755],[-7.77873,43.19158],[-7.77738,43.19765],[-7.7755,43.19881],[-7.77413,43.2004],[-7.77325,43.20201],[-7.77178,43.20285],[-7.76996,43.20235],[-7.76961,43.20242],[-7.76939,43.20259],[-7.76847,43.20246],[-7.76826,43.20218],[-7.76782,43.20192],[-7.76573,43.20131],[-7.76317,43.2],[-7.76287,43.19999],[-7.76258,43.2001],[-7.76233,43.20047],[-7.76198,43.20156],[-7.76186,43.20241],[-7.76112,43.20448],[-7.76009,43.20498],[-7.75867,43.20536],[-7.75737,43.20532],[-7.75668,43.20509],[-7.75596,43.20458],[-7.75278,43.20399],[-7.74864,43.20132],[-7.7484,43.20105],[-7.74851,43.2004],[-7.74817,43.20017],[-7.74743,43.20037],[-7.74651,43.20044],[-7.74542,43.20073],[-7.74384,43.20018],[-7.74282,43.19966],[-7.74202,43.19952],[-7.74174,43.19926],[-7.7415,43.1988],[-7.74155,43.1982],[-7.74239,43.19747],[-7.7429,43.19721],[-7.74323,43.19673],[-7.74289,43.19646],[-7.74197,43.1961],[-7.74146,43.19603],[-7.73916,43.1962],[-7.73879,43.19599],[-7.73877,43.19526],[-7.73736,43.19371],[-7.73583,43.19294],[-7.73516,43.19264],[-7.73334,43.1925],[-7.73177,43.19265],[-7.73098,43.19224],[-7.73004,43.19208],[-7.72946,43.19252],[-7.72895,43.19271],[-7.72831,43.19229],[-7.72624,43.19236],[-7.72579,43.19254],[-7.72516,43.19185],[-7.72449,43.19186],[-7.72412,43.19199],[-7.71039,43.19336],[-7.70748,43.19431],[-7.69473,43.19495]]]}},{"type":"Feature","properties":{"id":"2700701002"},"geometry":{"type":"Polygon","coordinates":[[[-7.658,43.21423],[-7.6558,43.21333],[-7.65116,43.21083],[-7.64755,43.20783],[-7.64497,43.20549],[-7.64406,43.205],[-7.64315,43.20424],[-7.64162,43.20267],[-7.64116,43.19989],[-7.64119,43.19906],[-7.64087,43.19817],[-7.63926,43.19471],[-7.63806,43.19299],[-7.63904,43.19038],[-7.63464,43.18918],[-7.63038,43.18767],[-7.62792,43.18906],[-7.62567,43.19014],[-7.62367,43.19124],[-7.61919,43.18913],[-7.61783,43.18858],[-7.61698,43.18834],[-7.61594,43.18824],[-7.61441,43.18785],[-7.61029,43.18633],[-7.60914,43.18605],[-7.60713,43.18537],[-7.59689,43.18266],[-7.5965,43.18176],[-7.59529,43.17966],[-7.59532,43.1793],[-7.59554,43.17893],[-7.59668,43.17769],[-7.59866,43.17603],[-7.59887,43.17522],[-7.59887,43.17483],[-7.59841,43.17398],[-7.59831,43.17352],[-7.59851,43.17113],[-7.59803,43.16674],[-7.59746,43.16596],[-7.60156,43.15844],[-7.60181,43.15686],[-7.60136,43.15477],[-7.60114,43.15287],[-7.60121,43.15189],[-7.60157,43.15102],[-7.60174,43.14955],[-7.60224,43.14748],[-7.60254,43.14493],[-7.6042,43.14216],[-7.60468,43.14002],[-7.60514,43.13901],[-7.6057,43.13657],[-7.61399,43.13904],[-7.62003,43.13738],[-7.62504,43.13511],[-7.63079,43.13132],[-7.63329,43.12775],[-7.6356,43.12664],[-7.63929,43.13358],[-7.64562,43.1369],[-7.64745,43.14482],[-7.65651,43.14988],[-7.65935,43.15181],[-7.65998,43.15424],[-7.6591,43.1601],[-7.66156,43.1601],[-7.66474,43.16132],[-7.66565,43.16385],[-7.66773,43.16412],[-7.66689,43.16556],[-7.67033,43.16821],[-7.66712,43.16921],[-7.66332,43.17168],[-7.66061,43.17208],[-7.65982,43.17319],[-7.66127,43.17478],[-7.65996,43.17645],[-7.66053,43.17693],[-7.66876,43.17665],[-7.67025,43.17744],[-7.69473,43.19495],[-7.68938,43.20489],[-7.67985,43.21126],[-7.67762,43.21198],[-7.67638,43.2127],[-7.67426,43.2132],[-7.67327,43.21289],[-7.67104,43.213],[-7.66878,43.21363],[-7.66514,43.21426],[-7.66104,43.21444],[-7.658,43.21423]]]}},{"type":"Feature","properties":{"id":"2700701003"},"geometry":{"type":"Polygon","coordinates":[[[-7.66327,43.13014],[-7.66428,43.12937],[-7.66541,43.12895],[-7.66656,43.12874],[-7.6719,43.13032],[-7.67757,43.13109],[-7.68346,43.13096],[-7.68077,43.12829],[-7.68545,43.12662],[-7.69069,43.12361],[-7.69669,43.11734],[-7.69849,43.11524],[-7.70046,43.11222],[-7.70782,43.11225],[-7.71897,43.10796],[-7.71932,43.10774],[-7.71996,43.10671],[-7.71999,43.10629],[-7.71974,43.10533],[-7.72032,43.105],[-7.7194,43.10372],[-7.7192,43.10245],[-7.71959,43.10176],[-7.71961,43.10131],[-7.71915,43.09847],[-7.71962,43.0979],[-7.72117,43.09689],[-7.72289,43.09524],[-7.72462,43.09444],[-7.72654,43.093],[-7.74274,43.09585],[-7.76285,43.0992],[-7.76771,43.10274],[-7.76884,43.11392],[-7.76069,43.12055],[-7.74963,43.12514],[-7.75463,43.13865],[-7.75418,43.1432],[-7.75383,43.14396],[-7.75514,43.15206],[-7.76575,43.15506],[-7.77144,43.15931],[-7.78054,43.16105],[-7.78251,43.1668],[-7.78356,43.16815],[-7.78551,43.16935],[-7.78591,43.1702],[-7.78443,43.17012],[-7.78157,43.17037],[-7.77922,43.17085],[-7.77732,43.17065],[-7.77433,43.16977],[-7.77152,43.16959],[-7.76906,43.16965],[-7.76621,43.16998],[-7.76207,43.17095],[-7.76032,43.17087],[-7.759,43.17064],[-7.75384,43.16823],[-7.75324,43.16823],[-7.75195,43.1686],[-7.75099,43.16949],[-7.75031,43.16981],[-7.7498,43.16987],[-7.74876,43.16958],[-7.74782,43.16869],[-7.74719,43.16841],[-7.74481,43.16857],[-7.74314,43.16835],[-7.74215,43.16812],[-7.74121,43.16765],[-7.74035,43.16747],[-7.73784,43.16717],[-7.73426,43.16747],[-7.732,43.16755],[-7.73026,43.16746],[-7.7296,43.16734],[-7.72809,43.1666],[-7.72659,43.16627],[-7.72583,43.16632],[-7.72454,43.166],[-7.72151,43.16376],[-7.72012,43.1625],[-7.71922,43.16307],[-7.71737,43.16469],[-7.71551,43.16712],[-7.71437,43.16915],[-7.71354,43.17114],[-7.71321,43.17275],[-7.71186,43.17208],[-7.7094,43.17143],[-7.70487,43.17106],[-7.70241,43.17056],[-7.70168,43.16996],[-7.70159,43.16933],[-7.70179,43.16849],[-7.70276,43.16694],[-7.70553,43.16376],[-7.70773,43.16097],[-7.70812,43.16037],[-7.70776,43.15967],[-7.70737,43.15954],[-7.70552,43.15935],[-7.70367,43.15879],[-7.70276,43.15822],[-7.69947,43.15531],[-7.69679,43.15339],[-7.69383,43.15284],[-7.69275,43.15235],[-7.69152,43.15103],[-7.68879,43.14602],[-7.68619,43.14435],[-7.68494,43.14319],[-7.68364,43.14225],[-7.68192,43.14124],[-7.68032,43.14068],[-7.6783,43.14015],[-7.6769,43.1396],[-7.67535,43.13871],[-7.67389,43.13764],[-7.67188,43.13563],[-7.67061,43.13502],[-7.66652,43.13335],[-7.66513,43.13262],[-7.66464,43.13219],[-7.66327,43.13014]]]}}]}