{"type":"FeatureCollection","features":[{"type":"Feature","properties":{"id":"2701401001"},"geometry":{"type":"Polygon","coordinates":[[[-7.42282,43.00085],[-7.41975,43.00015],[-7.41497,42.99941],[-7.40575,42.99255],[-7.38794,42.9897],[-7.37117,42.98757],[-7.36764,42.98238],[-7.37114,42.98101],[-7.37119,42.97556],[-7.38062,42.97413],[-7.38314,42.9694],[-7.38472,42.96877],[-7.3821,42.95994],[-7.38366,42.95801],[-7.38496,42.95601],[-7.38566,42.95224],[-7.38556,42.95169],[-7.38681,42.94912],[-7.38784,42.94828],[-7.38876,42.9478],[-7.39004,42.94808],[-7.39223,42.94928],[-7.39902,42.94764],[-7.40127,42.94557],[-7.4054,42.94503],[-7.40729,42.94373],[-7.40686,42.9423],[-7.40529,42.93844],[-7.4047,42.93816],[-7.40459,42.93784],[-7.40158,42.93461],[-7.40191,42.93438],[-7.40187,42.93475],[-7.40214,42.93437],[-7.40159,42.9299],[-7.40601,42.92633],[-7.40963,42.92244],[-7.41275,42.91794],[-7.41365,42.91578],[-7.41656,42.91666],[-7.41866,42.91705],[-7.42077,42.91727],[-7.4234,42.91743],[-7.42861,42.91699],[-7.43117,42.9164],[-7.43307,42.9156],[-7.4344,42.91482],[-7.4358,42.91356],[-7.44111,42.90738],[-7.44396,42.90429],[-7.4431,42.90034],[-7.43531,42.89446],[-7.43371,42.89128],[-7.43669,42.89118],[-7.43858,42.89091],[-7.44264,42.88958],[-7.44928,42.89186],[-7.45181,42.89284],[-7.45338,42.89331],[-7.45631,42.89376],[-7.45782,42.89364],[-7.45935,42.89759],[-7.46363,42.90056],[-7.46446,42.90181],[-7.47232,42.90859],[-7.47508,42.91317],[-7.47279,42.91448],[-7.47156,42.91536],[-7.46506,42.91721],[-7.46264,42.9199],[-7.46373,42.92281],[-7.46123,42.92488],[-7.46104,42.92582],[-7.46492,42.92596],[-7.46692,42.93126],[-7.46813,42.93155],[-7.46594,42.93161],[-7.46265,42.93278],[-7.4582,42.93761],[-7.44303,42.93829],[-7.44401,42.93929],[-7.44456,42.94007],[-7.44521,42.94111],[-7.44545,42.94193],[-7.4453,42.94398],[-7.44491,42.94486],[-7.44401,42.9456],[-7.44286,42.94622],[-7.44146,42.94675],[-7.44006,42.94713],[-7.43782,42.94746],[-7.43681,42.94741],[-7.43282,42.95346],[-7.43679,42.95608],[-7.44002,42.9564],[-7.44374,42.95663],[-7.44326,42.9634],[-7.43775,42.96486],[-7.43498,42.96611],[-7.43272,42.96732],[-7.43209,42.96789],[-7.43061,42.96975],[-7.42685,42.97556],[-7.42703,42.9778],[-7.43212,42.97912],[-7.43282,42.97893],[-7.43368,42.97909],[-7.43394,42.97959],[-7.4362,42.98018],[-7.4458,42.97943],[-7.44847,42.97913],[-7.45561,42.97665],[-7.45566,42.97645],[-7.45606,42.97619],[-7.4565,42.97605],[-7.45823,42.97583],[-7.45604,42.97644],[-7.46503,42.98211],[-7.46768,42.98502],[-7.47128,42.98775],[-7.47171,42.98981],[-7.47006,42.99052],[-7.47036,42.99379],[-7.47001,42.9948],[-7.46795,42.99511],[-7.46712,42.99738],[-7.46674,42.9974],[-7.46648,42.99759],[-7.46617,42.99767],[-7.4652,42.9977],[-7.46425,42.99751],[-7.46383,42.99753],[-7.46306,43.00011],[-7.46349,43.00176],[-7.46298,43.00455],[-7.46036,43.00578],[-7.45837,43.00556],[-7.45613,43.00664],[-7.44462,43.00013],[-7.44233,42.99901],[-7.43646,42.99447],[-7.4362,42.9946],[-7.43609,42.99448],[-7.4318,42.99672],[-7.43174,42.99723],[-7.43146,42.99744],[-7.43109,42.99757],[-7.43048,42.99759],[-7.42978,42.99806],[-7.42921,42.99817],[-7.42846,42.99872],[-7.42769,42.99901],[-7.42717,43.00015],[-7.42443,43.00063],[-7.42361,43.00059],[-7.42282,43.00085]]]}},{"type":"Feature","properties":{"id":"2701401002"},"geometry":{"type":"Polygon","coordinates":[[[-7.46813,42.93155],[-7.46692,42.93126],[-7.46492,42.92596],[-7.46104,42.92582],[-7.46123,42.92488],[-7.46373,42.92281],[-7.46264,42.9199],[-7.46506,42.91721],[-7.47156,42.91536],[-7.47279,42.91448],[-7.47508,42.91317],[-7.47232,42.90859],[-7.46446,42.90181],[-7.46363,42.90056],[-7.45935,42.89759],[-7.45782,42.89364],[-7.45631,42.89376],[-7.45338,42.89331],[-7.45181,42.89284],[-7.44928,42.89186],[-7.44264,42.88958],[-7.43858,42.89091],[-7.43669,42.89118],[-7.43371,42.89128],[-7.43531,42.89446],[-7.4431,42.90034],[-7.44396,42.90429],[-7.44111,42.90738],[-7.4358,42.91356],[-7.4344,42.91482],[-7.43307,42.9156],[-7.43117,42.9164],[-7.42861,42.91699],[-7.4234,42.91743],[-7.42077,42.91727],[-7.41866,42.91705],[-7.41656,42.91666],[-7.41365,42.91578],[-7.40996,42.9145],[-7.40382,42.91201],[-7.40337,42.91162],[-7.4008,42.90839],[-7.39776,42.90535],[-7.40125,42.9033],[-7.40253,42.90288],[-7.40627,42.90225],[-7.40773,42.89864],[-7.40949,42.89351],[-7.4095,42.89235],[-7.41737,42.88637],[-7.41756,42.88617],[-7.41742,42.88576],[-7.41875,42.88323],[-7.41981,42.88185],[-7.42175,42.88072],[-7.42271,42.88001],[-7.42319,42.87987],[-7.42411,42.87981],[-7.42492,42.88026],[-7.42669,42.88155],[-7.42712,42.88138],[-7.42771,42.8802],[-7.42773,42.87963],[-7.42691,42.87524],[-7.43782,42.87211],[-7.44189,42.87061],[-7.44414,42.87253],[-7.44455,42.87275],[-7.44538,42.87291],[-7.44584,42.87281],[-7.44663,42.87242],[-7.44692,42.87217],[-7.44748,42.87137],[-7.44808,42.8709],[-7.44895,42.87066],[-7.4493,42.87073],[-7.4498,42.87099],[-7.45123,42.87243],[-7.45182,42.87256],[-7.45211,42.87249],[-7.45472,42.87489],[-7.45513,42.87516],[-7.45632,42.87525],[-7.45904,42.87502],[-7.46097,42.87513],[-7.46231,42.875],[-7.46408,42.87519],[-7.46477,42.875],[-7.46533,42.8745],[-7.46621,42.87288],[-7.46773,42.87131],[-7.46865,42.86985],[-7.47004,42.86902],[-7.47115,42.86867],[-7.47251,42.86895],[-7.47246,42.85815],[-7.48111,42.85932],[-7.48119,42.86045],[-7.48332,42.86019],[-7.48487,42.86025],[-7.48815,42.86056],[-7.48962,42.86079],[-7.49122,42.8613],[-7.49203,42.86141],[-7.49236,42.8618],[-7.49319,42.86234],[-7.49437,42.86374],[-7.49471,42.86399],[-7.4953,42.86402],[-7.49675,42.86312],[-7.49899,42.86207],[-7.50028,42.86171],[-7.50158,42.86157],[-7.50271,42.86162],[-7.50468,42.86205],[-7.50586,42.86219],[-7.50643,42.86217],[-7.50821,42.86171],[-7.50967,42.86171],[-7.51134,42.86219],[-7.51558,42.86254],[-7.51665,42.86319],[-7.51829,42.86573],[-7.51995,42.86752],[-7.52075,42.86932],[-7.52174,42.87025],[-7.52239,42.87037],[-7.52293,42.87031],[-7.52349,42.87],[-7.52409,42.86985],[-7.52458,42.86988],[-7.5251,42.87005],[-7.52573,42.87046],[-7.52709,42.87195],[-7.52835,42.87311],[-7.52928,42.87375],[-7.53116,42.87542],[-7.53164,42.87573],[-7.53225,42.87597],[-7.53289,42.87611],[-7.53361,42.87614],[-7.53616,42.87602],[-7.53603,42.87672],[-7.53566,42.8776],[-7.53561,42.87871],[-7.53544,42.87942],[-7.53391,42.88228],[-7.53347,42.88338],[-7.53352,42.8853],[-7.5328,42.88639],[-7.53211,42.88686],[-7.53121,42.88723],[-7.52693,42.88837],[-7.52481,42.88814],[-7.52397,42.8882],[-7.52338,42.88837],[-7.5223,42.88955],[-7.52103,42.89055],[-7.52071,42.89068],[-7.51954,42.89175],[-7.51899,42.89274],[-7.51876,42.89413],[-7.51903,42.89482],[-7.51976,42.89587],[-7.52029,42.89636],[-7.52372,42.89849],[-7.52511,42.89975],[-7.52573,42.90065],[-7.52623,42.90185],[-7.52653,42.9043],[-7.52739,42.90756],[-7.52733,42.90855],[-7.52709,42.90947],[-7.52481,42.91255],[-7.52352,42.91486],[-7.52218,42.91696],[-7.51913,42.91999],[-7.51819,42.91951],[-7.51247,42.92053],[-7.51014,42.92085],[-7.50783,42.92083],[-7.50264,42.92039],[-7.49808,42.9203],[-7.49266,42.92037],[-7.49074,42.92028],[-7.48933,42.92078],[-7.4891,42.92103],[-7.48838,42.92117],[-7.48819,42.92102],[-7.48657,42.92134],[-7.4858,42.92211],[-7.48387,42.92651],[-7.48376,42.92822],[-7.48386,42.93062],[-7.48293,42.93102],[-7.47937,42.93159],[-7.47164,42.93182],[-7.46813,42.93155]]]}},{"type":"Feature","properties":{"id":"2701401003"},"geometry":{"type":"Polygon","coordinates":[[[-7.31425,42.94248],[-7.32176,42.93035],[-7.33383,42.92352],[-7.34941,42.92227],[-7.35281,42.9232],[-7.3594,42.92389],[-7.36008,42.92417],[-7.3643,42.92537],[-7.36795,42.9248],[-7.36861,42.92417],[-7.37022,42.92301],[-7.37754,42.91821],[-7.387,42.91254],[-7.38673,42.91224],[-7.38175,42.90879],[-7.38089,42.90851],[-7.37278,42.90507],[-7.37527,42.90249],[-7.39085,42.89355],[-7.3946,42.89249],[-7.39523,42.88733],[-7.40577,42.8874],[-7.4095,42.89235],[-7.40949,42.89351],[-7.40773,42.89864],[-7.40627,42.90225],[-7.40253,42.90288],[-7.40125,42.9033],[-7.39776,42.90535],[-7.4008,42.90839],[-7.40337,42.91162],[-7.40382,42.91201],[-7.40996,42.9145],[-7.41365,42.91578],[-7.41275,42.91794],[-7.40963,42.92244],[-7.40601,42.92633],[-7.40159,42.9299],[-7.40214,42.93437],[-7.40187,42.93475],[-7.40191,42.93438],[-7.40158,42.93461],[-7.40459,42.93784],[-7.4047,42.93816],[-7.40529,42.93844],[-7.40686,42.9423],[-7.40729,42.94373],[-7.4054,42.94503],[-7.40127,42.94557],[-7.39902,42.94764],[-7.39223,42.94928],[-7.39004,42.94808],[-7.38876,42.9478],[-7.38784,42.94828],[-7.38681,42.94912],[-7.38556,42.95169],[-7.38566,42.95224],[-7.38496,42.95601],[-7.38366,42.95801],[-7.3821,42.95994],[-7.38472,42.96877],[-7.38314,42.9694],[-7.38062,42.97413],[-7.37119,42.97556],[-7.37114,42.98101],[-7.36764,42.98238],[-7.365,42.97854],[-7.36476,42.97834],[-7.35808,42.97595],[-7.35774,42.97549],[-7.35766,42.9747],[-7.35776,42.97437],[-7.35807,42.97393],[-7.3589,42.97338],[-7.35991,42.97305],[-7.36069,42.97294],[-7.36126,42.97221],[-7.36153,42.97223],[-7.36204,42.97251],[-7.36243,42.97254],[-7.36348,42.97208],[-7.36386,42.97171],[-7.36423,42.97151],[-7.36532,42.97138],[-7.36541,42.97119],[-7.36516,42.97079],[-7.36559,42.97029],[-7.3654,42.96946],[-7.36554,42.96888],[-7.3654,42.96865],[-7.36224,42.96609],[-7.3568,42.96098],[-7.35496,42.95972],[-7.34934,42.9525],[-7.34456,42.95425],[-7.33983,42.95629],[-7.33555,42.95791],[-7.33176,42.95798],[-7.32641,42.95691],[-7.3248,42.95369],[-7.3176,42.94845],[-7.31705,42.9479],[-7.31425,42.94248]]]}},{"type":"Feature","properties":{"id":"2701401004"},"geometry":{"type":"Polygon","coordinates":[[[-7.46813,42.93155],[-7.47164,42.93182],[-7.47937,42.93159],[-7.48293,42.93102],[-7.48386,42.93062],[-7.48376,42.92822],[-7.48387,42.92651],[-7.4858,42.92211],[-7.48657,42.92134],[-7.48819,42.92102],[-7.48838,42.92117],[-7.4891,42.92103],[-7.48933,42.92078],[-7.49074,42.92028],[-7.49266,42.92037],[-7.49808,42.9203],[-7.50264,42.92039],[-7.50783,42.92083],[-7.51014,42.92085],[-7.51247,42.92053],[-7.51819,42.91951],[-7.51913,42.91999],[-7.51739,42.92159],[-7.51668,42.92257],[-7.51592,42.92416],[-7.51567,42.92588],[-7.51594,42.92912],[-7.5157,42.93038],[-7.51549,42.93362],[-7.51455,42.93658],[-7.51372,42.93844],[-7.5135,42.93861],[-7.51202,42.93869],[-7.50939,42.93845],[-7.50856,42.9386],[-7.50823,42.93883],[-7.50759,42.9395],[-7.50688,42.9408],[-7.50597,42.94115],[-7.5054,42.94112],[-7.50355,42.94077],[-7.50149,42.94011],[-7.50091,42.93944],[-7.50079,42.93895],[-7.50028,42.9386],[-7.49896,42.93887],[-7.49806,42.93854],[-7.49628,42.93877],[-7.49554,42.93897],[-7.49448,42.93877],[-7.49371,42.9381],[-7.4929,42.93674],[-7.49225,42.93646],[-7.49158,42.93684],[-7.49075,42.93768],[-7.49056,42.93824],[-7.49078,42.93895],[-7.49073,42.93925],[-7.49005,42.93975],[-7.48986,42.94005],[-7.48962,42.94012],[-7.48864,42.93983],[-7.48838,42.93988],[-7.48828,42.94011],[-7.48834,42.94037],[-7.48888,42.94109],[-7.48834,42.94258],[-7.48722,42.94366],[-7.48734,42.94489],[-7.48706,42.946],[-7.48803,42.94722],[-7.48817,42.94762],[-7.48818,42.94855],[-7.4888,42.94958],[-7.48868,42.95141],[-7.48632,42.95142],[-7.48616,42.95158],[-7.48597,42.95222],[-7.48564,42.95235],[-7.48549,42.9526],[-7.48577,42.95334],[-7.48574,42.9536],[-7.48461,42.95419],[-7.48454,42.95488],[-7.4851,42.95592],[-7.48491,42.95649],[-7.48496,42.95719],[-7.48527,42.95757],[-7.48565,42.95778],[-7.48597,42.95895],[-7.48605,42.96106],[-7.48545,42.96124],[-7.48464,42.96119],[-7.48366,42.96125],[-7.48205,42.96161],[-7.48146,42.96188],[-7.48078,42.96181],[-7.48094,42.96279],[-7.48017,42.96268],[-7.47982,42.96303],[-7.4789,42.96349],[-7.4788,42.96379],[-7.47886,42.96436],[-7.47846,42.96509],[-7.47871,42.96627],[-7.47861,42.96662],[-7.47833,42.96677],[-7.47803,42.96672],[-7.47711,42.96632],[-7.47681,42.96627],[-7.4766,42.96641],[-7.47657,42.96759],[-7.47631,42.96789],[-7.47618,42.96837],[-7.47596,42.96861],[-7.47583,42.96864],[-7.47375,42.96711],[-7.47183,42.96827],[-7.4701,42.96826],[-7.46559,42.97251],[-7.46251,42.97331],[-7.46183,42.97483],[-7.46058,42.97517],[-7.45942,42.97568],[-7.4565,42.97605],[-7.45606,42.97619],[-7.45566,42.97645],[-7.45561,42.97665],[-7.44847,42.97913],[-7.4458,42.97943],[-7.4362,42.98018],[-7.43394,42.97959],[-7.43368,42.97909],[-7.43282,42.97893],[-7.43212,42.97912],[-7.42703,42.9778],[-7.42685,42.97556],[-7.43061,42.96975],[-7.43209,42.96789],[-7.43272,42.96732],[-7.43498,42.96611],[-7.43775,42.96486],[-7.44326,42.9634],[-7.44374,42.95663],[-7.44002,42.9564],[-7.43679,42.95608],[-7.43282,42.95346],[-7.43681,42.94741],[-7.43782,42.94746],[-7.44006,42.94713],[-7.44146,42.94675],[-7.44286,42.94622],[-7.44401,42.9456],[-7.44491,42.94486],[-7.4453,42.94398],[-7.44545,42.94193],[-7.44521,42.94111],[-7.44456,42.94007],[-7.44401,42.93929],[-7.44303,42.93829],[-7.4582,42.93761],[-7.46265,42.93278],[-7.46594,42.93161],[-7.46813,42.93155]]]}}]}