{"type":"FeatureCollection","features":[{"type":"Feature","properties":{"id":"2703001001"},"geometry":{"type":"Polygon","coordinates":[[[-7.35966,43.43968],[-7.36072,43.43865],[-7.36238,43.43778],[-7.36401,43.4371],[-7.36331,43.4356],[-7.36284,43.43503],[-7.36258,43.43509],[-7.36227,43.43484],[-7.3625,43.43467],[-7.36199,43.4341],[-7.36203,43.434],[-7.36311,43.43333],[-7.36318,43.43295],[-7.36243,43.43269],[-7.3622,43.4328],[-7.36039,43.43187],[-7.36041,43.43177],[-7.36199,43.43014],[-7.3622,43.42974],[-7.36212,43.42916],[-7.36312,43.42857],[-7.36394,43.42822],[-7.36446,43.4278],[-7.36371,43.42745],[-7.36326,43.42749],[-7.36382,43.42699],[-7.36441,43.42662],[-7.36513,43.42641],[-7.36609,43.42584],[-7.36791,43.42418],[-7.36865,43.42269],[-7.36909,43.42063],[-7.37194,43.41681],[-7.37678,43.41252],[-7.38131,43.40914],[-7.38806,43.40656],[-7.39381,43.4057],[-7.40567,43.40482],[-7.41429,43.40571],[-7.42271,43.40687],[-7.4301,43.40872],[-7.42737,43.40898],[-7.42685,43.40927],[-7.42413,43.41184],[-7.42408,43.41286],[-7.4262,43.41463],[-7.42872,43.41699],[-7.43378,43.41862],[-7.4369,43.41933],[-7.44392,43.41939],[-7.44596,43.41972],[-7.44938,43.42052],[-7.45072,43.42263],[-7.4527,43.42725],[-7.4526,43.44041],[-7.44972,43.44586],[-7.44854,43.44884],[-7.44801,43.45082],[-7.44777,43.45274],[-7.44793,43.45469],[-7.44642,43.45445],[-7.44279,43.45335],[-7.43909,43.45277],[-7.43453,43.45158],[-7.42845,43.45073],[-7.4232,43.45017],[-7.41701,43.44976],[-7.41137,43.44928],[-7.40583,43.44916],[-7.40226,43.4479],[-7.3974,43.44711],[-7.39505,43.44611],[-7.39396,43.44545],[-7.39206,43.44405],[-7.38947,43.44336],[-7.38237,43.44383],[-7.38008,43.44424],[-7.37807,43.44506],[-7.3725,43.44591],[-7.36853,43.44541],[-7.36606,43.44449],[-7.36349,43.44312],[-7.36144,43.44115],[-7.35966,43.43968]]]}},{"type":"Feature","properties":{"id":"2703001002"},"geometry":{"type":"Polygon","coordinates":[[[-7.32738,43.43859],[-7.32555,43.43838],[-7.32481,43.43856],[-7.32439,43.43852],[-7.32169,43.4378],[-7.32019,43.43718],[-7.31837,43.43704],[-7.31696,43.43678],[-7.31506,43.43615],[-7.31422,43.43575],[-7.31363,43.43534],[-7.31252,43.43394],[-7.31207,43.4335],[-7.31161,43.43321],[-7.30826,43.43203],[-7.30687,43.43119],[-7.3055,43.42948],[-7.30623,43.42895],[-7.30723,43.42864],[-7.30855,43.42788],[-7.30909,43.42738],[-7.30932,43.42683],[-7.31083,43.42475],[-7.31105,43.42413],[-7.31151,43.42345],[-7.3119,43.42316],[-7.31258,43.42232],[-7.31296,43.42145],[-7.31294,43.42083],[-7.31235,43.42023],[-7.31181,43.4192],[-7.31175,43.41797],[-7.31191,43.41764],[-7.31241,43.41718],[-7.31274,43.41624],[-7.31234,43.41555],[-7.31168,43.41501],[-7.31122,43.41482],[-7.30855,43.41447],[-7.30567,43.41585],[-7.30513,43.41604],[-7.30432,43.41602],[-7.30333,43.41586],[-7.30266,43.41601],[-7.30164,43.41648],[-7.29937,43.41854],[-7.29886,43.41872],[-7.29742,43.41883],[-7.29642,43.41874],[-7.29576,43.41826],[-7.29529,43.41765],[-7.29462,43.41711],[-7.2942,43.41707],[-7.29238,43.41742],[-7.29191,43.41743],[-7.29152,43.41737],[-7.29055,43.41645],[-7.29004,43.41636],[-7.28759,43.41644],[-7.28684,43.41502],[-7.28593,43.41367],[-7.28526,43.41187],[-7.28473,43.40937],[-7.28442,43.40848],[-7.28328,43.40677],[-7.28188,43.40396],[-7.28026,43.40245],[-7.27722,43.39766],[-7.27663,43.39705],[-7.27422,43.39667],[-7.27112,43.39585],[-7.26953,43.39494],[-7.26928,43.39472],[-7.2692,43.39445],[-7.27141,43.39527],[-7.27173,43.39528],[-7.27564,43.3936],[-7.27644,43.39365],[-7.2779,43.39265],[-7.2769,43.39072],[-7.27695,43.39021],[-7.27669,43.3893],[-7.27669,43.38873],[-7.27686,43.38774],[-7.27773,43.38479],[-7.27778,43.38429],[-7.27746,43.38261],[-7.27861,43.3811],[-7.28017,43.38093],[-7.28423,43.38084],[-7.28589,43.38096],[-7.28642,43.38109],[-7.28741,43.38225],[-7.28951,43.38428],[-7.28967,43.38462],[-7.28968,43.38536],[-7.28886,43.3867],[-7.2887,43.38716],[-7.28982,43.38813],[-7.28985,43.38836],[-7.28969,43.3886],[-7.28942,43.39013],[-7.29002,43.39152],[-7.28967,43.39275],[-7.29637,43.38926],[-7.30158,43.38696],[-7.30272,43.38623],[-7.30645,43.38423],[-7.31136,43.38187],[-7.31356,43.38068],[-7.31524,43.37998],[-7.317,43.37874],[-7.31805,43.37775],[-7.31976,43.3758],[-7.32073,43.37341],[-7.32264,43.37116],[-7.32424,43.36886],[-7.32697,43.37027],[-7.32943,43.37109],[-7.331,43.37088],[-7.3332,43.37171],[-7.3343,43.37154],[-7.33536,43.37263],[-7.33487,43.37316],[-7.3361,43.37326],[-7.33589,43.37369],[-7.33547,43.37413],[-7.335,43.37504],[-7.33498,43.37631],[-7.33476,43.37692],[-7.33508,43.37746],[-7.336,43.37801],[-7.33597,43.37883],[-7.33642,43.37953],[-7.33637,43.37998],[-7.33654,43.3802],[-7.33722,43.38053],[-7.33765,43.38054],[-7.34004,43.38014],[-7.34186,43.37994],[-7.34228,43.3801],[-7.34267,43.38104],[-7.34304,43.38131],[-7.34354,43.38139],[-7.34451,43.38124],[-7.34586,43.38154],[-7.3507,43.37959],[-7.35311,43.37915],[-7.35359,43.37919],[-7.35603,43.3801],[-7.35655,43.38071],[-7.36368,43.38371],[-7.36634,43.38533],[-7.36697,43.38552],[-7.3675,43.38555],[-7.36826,43.38551],[-7.36915,43.38532],[-7.37196,43.38355],[-7.37458,43.38221],[-7.37631,43.3812],[-7.37769,43.38027],[-7.37759,43.38241],[-7.37844,43.38272],[-7.37953,43.38285],[-7.38349,43.38401],[-7.38799,43.38669],[-7.38919,43.38775],[-7.39023,43.38973],[-7.39064,43.39115],[-7.39095,43.39147],[-7.39174,43.3917],[-7.39226,43.39141],[-7.39275,43.39052],[-7.39301,43.39035],[-7.39379,43.39025],[-7.39542,43.39042],[-7.39651,43.38939],[-7.39688,43.38923],[-7.39748,43.3891],[-7.39835,43.38867],[-7.39905,43.38863],[-7.40059,43.38788],[-7.40154,43.38777],[-7.4027,43.38711],[-7.40411,43.38739],[-7.40523,43.38708],[-7.40557,43.38679],[-7.40649,43.38557],[-7.40717,43.38537],[-7.40771,43.38509],[-7.40823,43.38432],[-7.40878,43.38406],[-7.4101,43.38368],[-7.41065,43.38335],[-7.41094,43.38299],[-7.41186,43.38268],[-7.41224,43.38246],[-7.41281,43.38193],[-7.4136,43.38182],[-7.41454,43.38194],[-7.41561,43.38191],[-7.41714,43.38161],[-7.4192,43.38159],[-7.42005,43.38186],[-7.42072,43.38214],[-7.42119,43.38259],[-7.42182,43.38357],[-7.42229,43.38406],[-7.42362,43.38506],[-7.42536,43.38593],[-7.42762,43.38434],[-7.4286,43.38379],[-7.42934,43.38538],[-7.42989,43.38692],[-7.43069,43.38825],[-7.43092,43.38903],[-7.43166,43.39063],[-7.43261,43.39343],[-7.43216,43.39402],[-7.43118,43.39628],[-7.43091,43.39705],[-7.43086,43.3976],[-7.43182,43.39934],[-7.43222,43.39974],[-7.43505,43.40051],[-7.43681,43.40116],[-7.43441,43.40407],[-7.43399,43.40446],[-7.43206,43.40556],[-7.43166,43.40604],[-7.43069,43.40792],[-7.4301,43.40872],[-7.42271,43.40687],[-7.41429,43.40571],[-7.40567,43.40482],[-7.39381,43.4057],[-7.38806,43.40656],[-7.38131,43.40914],[-7.37678,43.41252],[-7.37194,43.41681],[-7.36909,43.42063],[-7.36865,43.42269],[-7.36791,43.42418],[-7.36609,43.42584],[-7.36513,43.42641],[-7.36441,43.42662],[-7.36382,43.42699],[-7.36326,43.42749],[-7.36371,43.42745],[-7.36446,43.4278],[-7.36394,43.42822],[-7.36312,43.42857],[-7.36212,43.42916],[-7.3622,43.42974],[-7.36199,43.43014],[-7.36041,43.43177],[-7.36039,43.43187],[-7.3622,43.4328],[-7.36243,43.43269],[-7.36318,43.43295],[-7.36311,43.43333],[-7.36203,43.434],[-7.36199,43.4341],[-7.3625,43.43467],[-7.36227,43.43484],[-7.36258,43.43509],[-7.36284,43.43503],[-7.36331,43.4356],[-7.36401,43.4371],[-7.36238,43.43778],[-7.36072,43.43865],[-7.35937,43.43996],[-7.35907,43.44013],[-7.35828,43.43954],[-7.35695,43.43998],[-7.35464,43.44127],[-7.35111,43.44425],[-7.34926,43.44517],[-7.34765,43.44571],[-7.34477,43.44564],[-7.34275,43.44523],[-7.33994,43.44273],[-7.3348,43.44107],[-7.33173,43.44063],[-7.33027,43.44019],[-7.32844,43.43888],[-7.32738,43.43859]]]}},{"type":"Feature","properties":{"id":"2703001003"},"geometry":{"type":"Polygon","coordinates":[[[-7.32984,43.52044],[-7.33055,43.51957],[-7.32851,43.51455],[-7.32728,43.51338],[-7.32699,43.51254],[-7.3251,43.51164],[-7.32397,43.51014],[-7.32522,43.5054],[-7.32659,43.50519],[-7.32645,43.50263],[-7.32525,43.50205],[-7.32207,43.50017],[-7.3201,43.49922],[-7.31936,43.49877],[-7.31908,43.49842],[-7.31841,43.49699],[-7.31666,43.49482],[-7.31464,43.49054],[-7.31499,43.49005],[-7.31486,43.48717],[-7.31502,43.48675],[-7.3165,43.48498],[-7.31632,43.48268],[-7.31739,43.48141],[-7.31646,43.48102],[-7.31666,43.48013],[-7.31616,43.47896],[-7.31612,43.47764],[-7.31594,43.47723],[-7.31591,43.47674],[-7.31604,43.47627],[-7.31633,43.47582],[-7.31688,43.47532],[-7.31901,43.47382],[-7.31847,43.47183],[-7.3166,43.47157],[-7.31772,43.46989],[-7.31883,43.46877],[-7.31948,43.46776],[-7.32037,43.46568],[-7.32085,43.46405],[-7.32187,43.46266],[-7.32246,43.46147],[-7.32365,43.46035],[-7.32431,43.4579],[-7.32679,43.45724],[-7.32443,43.45587],[-7.32697,43.45326],[-7.32364,43.45162],[-7.32237,43.45258],[-7.32188,43.4528],[-7.31951,43.45351],[-7.31902,43.45358],[-7.31571,43.45279],[-7.31267,43.44781],[-7.31708,43.44168],[-7.32209,43.44014],[-7.32349,43.43983],[-7.32738,43.43859],[-7.32844,43.43888],[-7.33027,43.44019],[-7.33173,43.44063],[-7.3348,43.44107],[-7.33994,43.44273],[-7.34275,43.44523],[-7.34477,43.44564],[-7.34765,43.44571],[-7.34926,43.44517],[-7.35111,43.44425],[-7.35464,43.44127],[-7.35695,43.43998],[-7.35828,43.43954],[-7.35907,43.44013],[-7.35966,43.43968],[-7.36144,43.44115],[-7.36349,43.44312],[-7.36606,43.44449],[-7.36853,43.44541],[-7.3725,43.44591],[-7.37807,43.44506],[-7.38008,43.44424],[-7.38237,43.44383],[-7.38947,43.44336],[-7.39206,43.44405],[-7.39396,43.44545],[-7.39505,43.44611],[-7.3974,43.44711],[-7.40226,43.4479],[-7.40583,43.44916],[-7.41137,43.44928],[-7.41701,43.44976],[-7.4232,43.45017],[-7.42845,43.45073],[-7.43453,43.45158],[-7.43909,43.45277],[-7.44279,43.45335],[-7.44642,43.45445],[-7.44793,43.45469],[-7.4484,43.45758],[-7.44734,43.45885],[-7.44742,43.45984],[-7.44732,43.46145],[-7.44318,43.46513],[-7.43962,43.46855],[-7.43007,43.4769],[-7.4278,43.47739],[-7.42508,43.4797],[-7.42349,43.48079],[-7.42236,43.48071],[-7.42174,43.48078],[-7.4196,43.48241],[-7.41714,43.48403],[-7.4177,43.48513],[-7.41754,43.48553],[-7.41666,43.4865],[-7.41622,43.48684],[-7.4097,43.48737],[-7.40739,43.48749],[-7.39829,43.48748],[-7.39774,43.48775],[-7.38964,43.49331],[-7.38837,43.49404],[-7.3821,43.49718],[-7.38079,43.49988],[-7.37988,43.50003],[-7.37825,43.49993],[-7.37819,43.50016],[-7.37685,43.50065],[-7.37551,43.50083],[-7.3743,43.50125],[-7.37337,43.50171],[-7.37303,43.50253],[-7.37141,43.50367],[-7.37074,43.5039],[-7.36947,43.50319],[-7.36821,43.50482],[-7.36753,43.50554],[-7.36728,43.50627],[-7.36815,43.50795],[-7.36843,43.50872],[-7.36766,43.51056],[-7.3682,43.51116],[-7.36754,43.51151],[-7.36721,43.51191],[-7.36702,43.51249],[-7.36694,43.51409],[-7.36563,43.51609],[-7.36445,43.51589],[-7.36366,43.51601],[-7.36174,43.51657],[-7.36108,43.51701],[-7.36064,43.51811],[-7.35756,43.52148],[-7.3557,43.52051],[-7.35446,43.52003],[-7.35179,43.51934],[-7.3509,43.51885],[-7.35097,43.5191],[-7.35053,43.51885],[-7.35084,43.51995],[-7.35126,43.5209],[-7.35111,43.52293],[-7.35088,43.5235],[-7.34894,43.52579],[-7.34882,43.52683],[-7.3477,43.52637],[-7.34531,43.52558],[-7.34083,43.52364],[-7.3403,43.52331],[-7.33916,43.52221],[-7.33814,43.52199],[-7.33583,43.5218],[-7.33361,43.52147],[-7.33117,43.52043],[-7.32984,43.52044]]]}}]}