{"type":"FeatureCollection","features":[{"type":"Feature","properties":{"id":"2703901001"},"geometry":{"type":"Polygon","coordinates":[[[-7.55561,43.11729],[-7.55667,43.11634],[-7.5564,43.1156],[-7.5551,43.11446],[-7.5538,43.11405],[-7.55198,43.11394],[-7.55083,43.11259],[-7.54971,43.11173],[-7.55175,43.11025],[-7.55801,43.1047],[-7.55779,43.10314],[-7.55699,43.10127],[-7.55713,43.10073],[-7.5584,43.09912],[-7.56113,43.10018],[-7.5624,43.09935],[-7.56619,43.09169],[-7.56916,43.08876],[-7.57168,43.08301],[-7.57014,43.07822],[-7.57926,43.06999],[-7.58021,43.06927],[-7.58644,43.06565],[-7.59335,43.0659],[-7.59481,43.06791],[-7.59574,43.0679],[-7.59679,43.06829],[-7.59998,43.06838],[-7.60029,43.06963],[-7.60065,43.07013],[-7.60341,43.07259],[-7.60394,43.07322],[-7.60558,43.07792],[-7.61111,43.07769],[-7.61875,43.07602],[-7.62051,43.0736],[-7.6212,43.0734],[-7.6228,43.07069],[-7.62983,43.06889],[-7.63139,43.07784],[-7.63095,43.07897],[-7.63202,43.0791],[-7.63173,43.08003],[-7.62984,43.08013],[-7.6249,43.08428],[-7.62207,43.08941],[-7.61844,43.09259],[-7.62012,43.09543],[-7.61845,43.09873],[-7.61945,43.09966],[-7.61941,43.10026],[-7.61923,43.10064],[-7.61836,43.10102],[-7.61822,43.1012],[-7.61961,43.10594],[-7.62206,43.1093],[-7.62072,43.11076],[-7.62014,43.1112],[-7.61939,43.11222],[-7.61793,43.11369],[-7.61648,43.11461],[-7.61395,43.1155],[-7.61282,43.11624],[-7.61244,43.11687],[-7.6122,43.11743],[-7.61135,43.12155],[-7.61138,43.12443],[-7.61041,43.12783],[-7.61003,43.12863],[-7.60988,43.12945],[-7.60429,43.12905],[-7.6054,43.12425],[-7.6052,43.12316],[-7.59927,43.12084],[-7.60432,43.11842],[-7.60414,43.11743],[-7.60147,43.11487],[-7.59285,43.11189],[-7.59167,43.11068],[-7.58197,43.11562],[-7.5781,43.11403],[-7.57459,43.11337],[-7.57411,43.11364],[-7.57536,43.1158],[-7.57687,43.11703],[-7.57208,43.11794],[-7.57071,43.11869],[-7.56948,43.11823],[-7.56908,43.11842],[-7.56766,43.11825],[-7.56658,43.11831],[-7.56574,43.11853],[-7.56478,43.11783],[-7.56421,43.11768],[-7.56397,43.11753],[-7.55855,43.11751],[-7.55769,43.11792],[-7.55691,43.11811],[-7.55656,43.11779],[-7.55561,43.11729]]]}},{"type":"Feature","properties":{"id":"2703901002"},"geometry":{"type":"Polygon","coordinates":[[[-7.49074,43.09846],[-7.49168,43.09569],[-7.49294,43.08668],[-7.49547,43.08324],[-7.49824,43.08319],[-7.51041,43.0812],[-7.51622,43.07828],[-7.52104,43.07686],[-7.52956,43.07459],[-7.52993,43.07458],[-7.54408,43.07774],[-7.54992,43.076],[-7.55109,43.07765],[-7.55902,43.07769],[-7.5632,43.07667],[-7.56837,43.07982],[-7.57014,43.07822],[-7.57168,43.08301],[-7.56916,43.08876],[-7.56619,43.09169],[-7.5624,43.09935],[-7.56113,43.10018],[-7.5584,43.09912],[-7.55713,43.10073],[-7.55699,43.10127],[-7.55779,43.10314],[-7.55801,43.1047],[-7.55175,43.11025],[-7.54971,43.11173],[-7.55083,43.11259],[-7.55198,43.11394],[-7.5538,43.11405],[-7.5551,43.11446],[-7.5564,43.1156],[-7.55667,43.11634],[-7.5556,43.11728],[-7.55537,43.11808],[-7.55442,43.11895],[-7.55153,43.11855],[-7.54663,43.12155],[-7.5467,43.12314],[-7.54567,43.1235],[-7.54293,43.12287],[-7.53591,43.12384],[-7.53586,43.12704],[-7.53202,43.12979],[-7.52913,43.13333],[-7.52957,43.13633],[-7.52866,43.13676],[-7.52768,43.13745],[-7.52714,43.13801],[-7.52596,43.13996],[-7.52642,43.14097],[-7.52238,43.14298],[-7.52153,43.14239],[-7.51934,43.1417],[-7.51868,43.14107],[-7.51793,43.13989],[-7.51689,43.13924],[-7.51567,43.13892],[-7.51514,43.1389],[-7.51197,43.1393],[-7.51093,43.13905],[-7.5094,43.13836],[-7.5086,43.13792],[-7.50673,43.13662],[-7.50576,43.13631],[-7.50507,43.13594],[-7.50489,43.13566],[-7.50467,43.13463],[-7.50445,43.13431],[-7.50231,43.13321],[-7.50222,43.13297],[-7.50248,43.13193],[-7.50279,43.1316],[-7.50185,43.12863],[-7.50057,43.12735],[-7.50024,43.12684],[-7.5001,43.12614],[-7.50046,43.12228],[-7.50025,43.12149],[-7.50114,43.12043],[-7.50241,43.11742],[-7.50364,43.11361],[-7.50569,43.11097],[-7.49074,43.09846]]]}},{"type":"Feature","properties":{"id":"2703901003"},"geometry":{"type":"Polygon","coordinates":[[[-7.56113,43.16494],[-7.56035,43.16173],[-7.55996,43.15683],[-7.55865,43.1549],[-7.55194,43.15146],[-7.55025,43.15134],[-7.54872,43.15057],[-7.54767,43.15017],[-7.54457,43.14922],[-7.54381,43.14913],[-7.54257,43.141],[-7.53744,43.13682],[-7.53638,43.13575],[-7.53335,43.13354],[-7.53121,43.13555],[-7.52957,43.13633],[-7.52913,43.13333],[-7.53202,43.12979],[-7.53586,43.12704],[-7.53591,43.12384],[-7.54293,43.12287],[-7.54567,43.1235],[-7.5467,43.12314],[-7.54663,43.12155],[-7.55153,43.11855],[-7.55442,43.11895],[-7.55537,43.11808],[-7.55561,43.11729],[-7.55656,43.11779],[-7.55691,43.11811],[-7.55769,43.11792],[-7.55855,43.11751],[-7.56397,43.11753],[-7.56421,43.11768],[-7.56478,43.11783],[-7.56574,43.11853],[-7.56658,43.11831],[-7.56766,43.11825],[-7.56908,43.11842],[-7.56948,43.11823],[-7.57071,43.11869],[-7.57208,43.11794],[-7.57687,43.11703],[-7.57536,43.1158],[-7.57411,43.11364],[-7.57459,43.11337],[-7.5781,43.11403],[-7.58197,43.11562],[-7.59167,43.11068],[-7.59285,43.11189],[-7.60147,43.11487],[-7.60414,43.11743],[-7.60432,43.11842],[-7.59927,43.12084],[-7.6052,43.12316],[-7.6054,43.12425],[-7.60429,43.12905],[-7.60988,43.12945],[-7.60954,43.13022],[-7.60911,43.13087],[-7.60743,43.1326],[-7.60657,43.13441],[-7.6057,43.13657],[-7.60514,43.13901],[-7.60468,43.14002],[-7.6042,43.14216],[-7.60254,43.14493],[-7.60224,43.14748],[-7.60174,43.14955],[-7.60157,43.15102],[-7.60121,43.15189],[-7.60114,43.15287],[-7.60136,43.15477],[-7.60181,43.15686],[-7.60156,43.15844],[-7.59746,43.16596],[-7.59711,43.16613],[-7.59465,43.1666],[-7.59397,43.16662],[-7.59317,43.16632],[-7.59262,43.16571],[-7.59217,43.16483],[-7.59203,43.16421],[-7.59261,43.16171],[-7.59255,43.16089],[-7.59142,43.15649],[-7.591,43.15552],[-7.59057,43.15492],[-7.58984,43.15437],[-7.58935,43.15419],[-7.58653,43.15367],[-7.58318,43.15365],[-7.57926,43.1532],[-7.57854,43.15329],[-7.57791,43.15351],[-7.57647,43.15456],[-7.57577,43.15495],[-7.57538,43.15529],[-7.57502,43.15624],[-7.57459,43.15698],[-7.57399,43.15752],[-7.57185,43.15859],[-7.57135,43.15904],[-7.57096,43.15957],[-7.57075,43.16028],[-7.57048,43.16305],[-7.56999,43.16398],[-7.56949,43.1644],[-7.5689,43.16478],[-7.56792,43.16512],[-7.56671,43.16542],[-7.56557,43.16556],[-7.56461,43.16562],[-7.56379,43.16553],[-7.56286,43.1652],[-7.56113,43.16494]]]}},{"type":"Feature","properties":{"id":"2703901004"},"geometry":{"type":"Polygon","coordinates":[[[-7.66327,43.13014],[-7.66119,43.12456],[-7.66018,43.12338],[-7.6587,43.12203],[-7.65792,43.12104],[-7.65701,43.12021],[-7.65681,43.11958],[-7.65714,43.11809],[-7.65671,43.1168],[-7.65678,43.11614],[-7.6576,43.11463],[-7.65763,43.1138],[-7.65718,43.11229],[-7.65683,43.11185],[-7.65551,43.11078],[-7.65492,43.11015],[-7.65339,43.10951],[-7.64985,43.10826],[-7.64929,43.10783],[-7.64798,43.10523],[-7.64753,43.10459],[-7.64643,43.10354],[-7.64577,43.10426],[-7.64371,43.10499],[-7.64072,43.10671],[-7.63868,43.10724],[-7.63748,43.1091],[-7.63785,43.11014],[-7.63769,43.1106],[-7.63517,43.11234],[-7.6338,43.11279],[-7.63332,43.11289],[-7.63028,43.11311],[-7.62875,43.11344],[-7.62737,43.11347],[-7.62611,43.11362],[-7.6247,43.11392],[-7.62352,43.11233],[-7.62109,43.11076],[-7.62092,43.11089],[-7.62072,43.11077],[-7.62206,43.1093],[-7.61961,43.10594],[-7.61822,43.1012],[-7.61836,43.10102],[-7.61923,43.10064],[-7.61941,43.10026],[-7.61945,43.09966],[-7.61845,43.09873],[-7.62012,43.09543],[-7.61844,43.09259],[-7.62207,43.08941],[-7.6249,43.08428],[-7.62984,43.08013],[-7.63173,43.08003],[-7.63202,43.0791],[-7.63095,43.07897],[-7.63139,43.07784],[-7.62981,43.06877],[-7.62542,43.0643],[-7.62571,43.05991],[-7.62545,43.05942],[-7.62945,43.06244],[-7.62992,43.06145],[-7.63003,43.06095],[-7.62946,43.05796],[-7.62747,43.05259],[-7.62844,43.0527],[-7.63296,43.05359],[-7.63697,43.05313],[-7.63997,43.05337],[-7.64208,43.05515],[-7.6464,43.05484],[-7.65533,43.05297],[-7.67134,43.05981],[-7.67534,43.05783],[-7.67675,43.05776],[-7.67706,43.05766],[-7.67718,43.05748],[-7.67732,43.0561],[-7.67752,43.05563],[-7.67806,43.05491],[-7.67885,43.05414],[-7.68016,43.05317],[-7.68264,43.05283],[-7.68387,43.05214],[-7.68472,43.05143],[-7.68533,43.05107],[-7.68604,43.05094],[-7.68881,43.05109],[-7.68932,43.051],[-7.6898,43.05077],[-7.69141,43.04952],[-7.69185,43.04884],[-7.69209,43.04819],[-7.69255,43.04769],[-7.69308,43.04743],[-7.69364,43.04731],[-7.69658,43.04711],[-7.69612,43.05039],[-7.69899,43.05781],[-7.71184,43.07063],[-7.71234,43.07914],[-7.71589,43.08665],[-7.72462,43.09047],[-7.72654,43.093],[-7.72462,43.09444],[-7.72289,43.09524],[-7.72117,43.09689],[-7.71962,43.0979],[-7.71915,43.09847],[-7.71961,43.10131],[-7.71959,43.10176],[-7.7192,43.10245],[-7.7194,43.10372],[-7.72032,43.105],[-7.71974,43.10533],[-7.71999,43.10629],[-7.71996,43.10671],[-7.71932,43.10774],[-7.71897,43.10796],[-7.70782,43.11225],[-7.70046,43.11222],[-7.69849,43.11524],[-7.69669,43.11734],[-7.69069,43.12361],[-7.68545,43.12662],[-7.68077,43.12829],[-7.68346,43.13096],[-7.67757,43.13109],[-7.6719,43.13032],[-7.66656,43.12874],[-7.66541,43.12895],[-7.66428,43.12937],[-7.66327,43.13014]]]}},{"type":"Feature","properties":{"id":"2703901005"},"geometry":{"type":"Polygon","coordinates":[[[-7.59335,43.0659],[-7.59592,43.066],[-7.6062,43.0536],[-7.62017,43.05546],[-7.62545,43.05942],[-7.62571,43.05991],[-7.62542,43.0643],[-7.62981,43.06877],[-7.62983,43.06889],[-7.6228,43.07069],[-7.6212,43.0734],[-7.62051,43.0736],[-7.61875,43.07602],[-7.61111,43.07769],[-7.60558,43.07792],[-7.60394,43.07322],[-7.60341,43.07259],[-7.60065,43.07013],[-7.60029,43.06963],[-7.59998,43.06838],[-7.59679,43.06829],[-7.59574,43.0679],[-7.59481,43.06791],[-7.59335,43.0659]]]}}]}