{"type":"FeatureCollection","features":[{"type":"Feature","properties":{"id":"2704701001"},"geometry":{"type":"Polygon","coordinates":[[[-7.28563,42.60811],[-7.28486,42.60744],[-7.28365,42.60664],[-7.28286,42.60625],[-7.28234,42.60571],[-7.28129,42.60291],[-7.28039,42.59824],[-7.28035,42.59731],[-7.27935,42.5966],[-7.27427,42.59432],[-7.27267,42.59248],[-7.26878,42.58872],[-7.26638,42.58589],[-7.26486,42.58337],[-7.26382,42.58044],[-7.26357,42.57799],[-7.26362,42.57657],[-7.26427,42.57386],[-7.26456,42.57333],[-7.26533,42.57233],[-7.2662,42.57083],[-7.26681,42.57049],[-7.26779,42.5701],[-7.26848,42.56795],[-7.27205,42.56612],[-7.27374,42.56475],[-7.27599,42.56545],[-7.27547,42.56403],[-7.27601,42.56332],[-7.27359,42.5592],[-7.2743,42.55869],[-7.28081,42.55495],[-7.28242,42.55392],[-7.2843,42.55241],[-7.28477,42.55162],[-7.28627,42.54971],[-7.28852,42.54969],[-7.28914,42.54946],[-7.29072,42.54857],[-7.29405,42.54744],[-7.29467,42.54703],[-7.29479,42.54685],[-7.29463,42.54588],[-7.29305,42.54482],[-7.2924,42.54399],[-7.29127,42.54293],[-7.29106,42.54251],[-7.29139,42.53979],[-7.29107,42.53875],[-7.29074,42.53832],[-7.2901,42.53776],[-7.2919,42.53696],[-7.29725,42.53506],[-7.29775,42.53514],[-7.29795,42.53498],[-7.29867,42.53359],[-7.29953,42.53272],[-7.29991,42.53254],[-7.30066,42.53252],[-7.30121,42.53309],[-7.30249,42.53568],[-7.30303,42.5371],[-7.30343,42.53752],[-7.30435,42.5377],[-7.3055,42.53767],[-7.30723,42.53787],[-7.30851,42.5382],[-7.31008,42.53827],[-7.31093,42.53792],[-7.31189,42.5373],[-7.31387,42.53568],[-7.31556,42.53491],[-7.31618,42.53451],[-7.31994,42.53017],[-7.32159,42.52851],[-7.32247,42.52791],[-7.32345,42.52745],[-7.32473,42.52717],[-7.32689,42.52696],[-7.32875,42.52666],[-7.32984,42.52638],[-7.33202,42.52545],[-7.33264,42.52508],[-7.33767,42.52052],[-7.34365,42.52675],[-7.34769,42.5292],[-7.35486,42.52969],[-7.35795,42.53114],[-7.36307,42.53193],[-7.37776,42.53452],[-7.3827,42.54186],[-7.38922,42.54612],[-7.39724,42.54783],[-7.39818,42.55189],[-7.40209,42.55325],[-7.40619,42.55697],[-7.40694,42.55933],[-7.40629,42.56154],[-7.40039,42.56638],[-7.4052,42.56961],[-7.41044,42.57156],[-7.41203,42.58149],[-7.41027,42.58369],[-7.40332,42.58841],[-7.40178,42.59067],[-7.39352,42.58854],[-7.38949,42.58828],[-7.38243,42.58514],[-7.3767,42.58491],[-7.37053,42.58577],[-7.36687,42.58851],[-7.36676,42.59291],[-7.36613,42.59614],[-7.36425,42.60044],[-7.36364,42.60068],[-7.35835,42.60525],[-7.3534,42.60758],[-7.34838,42.61278],[-7.3433,42.61546],[-7.34313,42.61667],[-7.33936,42.61735],[-7.33821,42.61746],[-7.3352,42.61851],[-7.33372,42.61951],[-7.33206,42.61995],[-7.32963,42.61986],[-7.32892,42.61991],[-7.32819,42.62011],[-7.32698,42.62067],[-7.32605,42.62093],[-7.32157,42.62206],[-7.32059,42.62217],[-7.3177,42.62338],[-7.315,42.62403],[-7.31212,42.6242],[-7.30817,42.62371],[-7.30717,42.62338],[-7.29864,42.61848],[-7.29741,42.61771],[-7.29462,42.61533],[-7.29362,42.61412],[-7.29311,42.61267],[-7.29282,42.6113],[-7.29286,42.61074],[-7.29266,42.61045],[-7.28877,42.60808],[-7.28563,42.60811]]]}},{"type":"Feature","properties":{"id":"2704701002"},"geometry":{"type":"Polygon","coordinates":[[[-7.34313,42.61667],[-7.3433,42.61546],[-7.34838,42.61278],[-7.3534,42.60758],[-7.35835,42.60525],[-7.36364,42.60068],[-7.36425,42.60044],[-7.36613,42.59614],[-7.36676,42.59291],[-7.36687,42.58851],[-7.37053,42.58577],[-7.3767,42.58491],[-7.38243,42.58514],[-7.38949,42.58828],[-7.39352,42.58854],[-7.40178,42.59067],[-7.40332,42.58841],[-7.41027,42.58369],[-7.41203,42.58149],[-7.41044,42.57156],[-7.4052,42.56961],[-7.40039,42.56638],[-7.40629,42.56154],[-7.40694,42.55933],[-7.40619,42.55697],[-7.40209,42.55325],[-7.39818,42.55189],[-7.39724,42.54783],[-7.38922,42.54612],[-7.3827,42.54186],[-7.37776,42.53452],[-7.36307,42.53193],[-7.35795,42.53114],[-7.35486,42.52969],[-7.34769,42.5292],[-7.34365,42.52675],[-7.33767,42.52052],[-7.33794,42.51977],[-7.33781,42.51797],[-7.33811,42.51736],[-7.33998,42.51552],[-7.34166,42.51336],[-7.34176,42.51305],[-7.34159,42.51252],[-7.34004,42.51112],[-7.33998,42.51077],[-7.34011,42.51051],[-7.34036,42.51031],[-7.34149,42.51],[-7.34246,42.50997],[-7.34303,42.51035],[-7.34349,42.51046],[-7.3439,42.51],[-7.34377,42.50921],[-7.34203,42.50656],[-7.34169,42.50595],[-7.3417,42.5056],[-7.34187,42.50524],[-7.343,42.50386],[-7.34335,42.50322],[-7.3443,42.50222],[-7.34466,42.50208],[-7.34513,42.50212],[-7.34705,42.50443],[-7.34753,42.5047],[-7.34807,42.50478],[-7.34849,42.50468],[-7.34924,42.50401],[-7.35061,42.50404],[-7.35106,42.50434],[-7.3518,42.50454],[-7.353,42.50462],[-7.35541,42.50455],[-7.35693,42.50426],[-7.35816,42.50433],[-7.35821,42.50672],[-7.35853,42.50639],[-7.35879,42.50574],[-7.35931,42.50355],[-7.35993,42.50293],[-7.36105,42.50216],[-7.36116,42.5019],[-7.36107,42.50116],[-7.36038,42.5002],[-7.35915,42.49754],[-7.36025,42.49694],[-7.36402,42.49586],[-7.36804,42.49398],[-7.37029,42.49503],[-7.37636,42.496],[-7.37743,42.49168],[-7.37028,42.48076],[-7.36883,42.46272],[-7.3703,42.46044],[-7.37132,42.45863],[-7.37119,42.45757],[-7.36963,42.45386],[-7.37072,42.45393],[-7.37623,42.45325],[-7.37875,42.45327],[-7.38452,42.4536],[-7.38657,42.45293],[-7.38996,42.45133],[-7.39522,42.4505],[-7.39763,42.44947],[-7.39922,42.44863],[-7.40052,42.44768],[-7.40905,42.44512],[-7.41007,42.4459],[-7.41128,42.44609],[-7.41207,42.44706],[-7.41269,42.44734],[-7.41257,42.45054],[-7.41213,42.45316],[-7.41266,42.45403],[-7.41257,42.45454],[-7.41218,42.45493],[-7.41019,42.45574],[-7.40786,42.4571],[-7.40598,42.45848],[-7.40568,42.45885],[-7.40546,42.45943],[-7.40559,42.4607],[-7.40552,42.46182],[-7.4051,42.46235],[-7.40483,42.46337],[-7.40411,42.46459],[-7.40335,42.46753],[-7.40246,42.46846],[-7.4022,42.46914],[-7.40009,42.47073],[-7.39951,42.4719],[-7.39058,42.48162],[-7.39216,42.48203],[-7.39473,42.48329],[-7.39666,42.48374],[-7.40044,42.48611],[-7.40339,42.48749],[-7.40627,42.48905],[-7.40867,42.49111],[-7.40958,42.49176],[-7.41312,42.4936],[-7.41502,42.49621],[-7.41614,42.49959],[-7.415,42.5001],[-7.41051,42.50272],[-7.40937,42.50352],[-7.4057,42.50837],[-7.40639,42.51439],[-7.40683,42.51487],[-7.41008,42.51635],[-7.41358,42.51834],[-7.41502,42.51863],[-7.41541,42.51878],[-7.41556,42.51899],[-7.41557,42.51956],[-7.41474,42.52108],[-7.41487,42.52184],[-7.41525,42.52243],[-7.41754,42.52338],[-7.41928,42.5252],[-7.41974,42.52592],[-7.42081,42.52824],[-7.42063,42.52846],[-7.42114,42.53137],[-7.42001,42.53239],[-7.41904,42.53518],[-7.41867,42.53575],[-7.41684,42.53736],[-7.42114,42.53979],[-7.42781,42.54841],[-7.4293,42.55236],[-7.4331,42.55375],[-7.43535,42.5538],[-7.43611,42.55373],[-7.4413,42.55371],[-7.44237,42.55336],[-7.44346,42.55254],[-7.44387,42.55249],[-7.44447,42.55256],[-7.44578,42.55309],[-7.44646,42.55359],[-7.44786,42.5549],[-7.45074,42.55496],[-7.45375,42.55529],[-7.45475,42.556],[-7.45596,42.55734],[-7.45653,42.55778],[-7.4572,42.55852],[-7.45787,42.55991],[-7.45984,42.56099],[-7.45536,42.57384],[-7.45355,42.57632],[-7.45176,42.58557],[-7.45637,42.58913],[-7.45635,42.59195],[-7.45612,42.59435],[-7.45554,42.59484],[-7.45474,42.59522],[-7.45454,42.59543],[-7.45389,42.5967],[-7.45352,42.5969],[-7.45242,42.59788],[-7.45127,42.59994],[-7.45107,42.60135],[-7.4503,42.60371],[-7.45033,42.60461],[-7.44999,42.6052],[-7.44984,42.60607],[-7.45026,42.60698],[-7.44737,42.60738],[-7.44415,42.60803],[-7.4428,42.60874],[-7.44138,42.60902],[-7.44079,42.60928],[-7.4385,42.61063],[-7.43455,42.60867],[-7.4311,42.60807],[-7.43027,42.6078],[-7.42888,42.60775],[-7.42808,42.60789],[-7.42669,42.60843],[-7.42575,42.60781],[-7.42474,42.60851],[-7.42441,42.60852],[-7.42364,42.60832],[-7.42314,42.60845],[-7.42242,42.60881],[-7.42084,42.60881],[-7.41836,42.60921],[-7.41568,42.61034],[-7.41522,42.6108],[-7.41489,42.6117],[-7.41421,42.61223],[-7.41418,42.6125],[-7.41432,42.61289],[-7.41509,42.61345],[-7.41582,42.6136],[-7.41675,42.6136],[-7.41739,42.6139],[-7.42019,42.6183],[-7.42074,42.61956],[-7.42079,42.62073],[-7.42001,42.62377],[-7.41958,42.62662],[-7.41958,42.62742],[-7.41975,42.6281],[-7.4189,42.62791],[-7.41525,42.62754],[-7.41302,42.62978],[-7.4118,42.63121],[-7.40478,42.63531],[-7.40081,42.63889],[-7.4005,42.63993],[-7.40037,42.64152],[-7.39645,42.64675],[-7.39505,42.64748],[-7.39329,42.64806],[-7.39175,42.64871],[-7.39014,42.64919],[-7.38664,42.65004],[-7.38255,42.65184],[-7.37703,42.65208],[-7.37706,42.65113],[-7.37735,42.64935],[-7.37571,42.64731],[-7.37364,42.64437],[-7.37199,42.64107],[-7.37129,42.63806],[-7.37162,42.63712],[-7.37234,42.63571],[-7.36884,42.63148],[-7.36809,42.63084],[-7.36843,42.62947],[-7.36879,42.62887],[-7.36924,42.62829],[-7.37024,42.62748],[-7.36407,42.62513],[-7.36216,42.62428],[-7.36112,42.62399],[-7.36021,42.62349],[-7.35964,42.62296],[-7.35879,42.6224],[-7.35694,42.62196],[-7.3562,42.62169],[-7.35388,42.62012],[-7.35144,42.61793],[-7.34828,42.61729],[-7.34475,42.61632],[-7.34313,42.61667]]]}}]}