{"type":"FeatureCollection","features":[{"type":"Feature","properties":{"id":"2706501001"},"geometry":{"type":"Polygon","coordinates":[[[-7.67046,43.29432],[-7.67959,43.29662],[-7.68054,43.29679],[-7.68173,43.29678],[-7.682,43.2977],[-7.68185,43.29789],[-7.66835,43.30432],[-7.66763,43.30368],[-7.66776,43.30335],[-7.6674,43.30151],[-7.66773,43.30141],[-7.66711,43.30078],[-7.66724,43.29873],[-7.66787,43.29796],[-7.66773,43.29791],[-7.66782,43.29777],[-7.66833,43.29764],[-7.66894,43.29697],[-7.66984,43.2954],[-7.67041,43.29543],[-7.67127,43.2957],[-7.6717,43.29538],[-7.67024,43.29471],[-7.66826,43.29422],[-7.66855,43.294],[-7.66731,43.29374],[-7.66717,43.29387],[-7.66641,43.29398],[-7.66628,43.29387],[-7.66606,43.29389],[-7.66471,43.29359],[-7.66452,43.29306],[-7.67043,43.29437],[-7.67046,43.29432]]]}},{"type":"Feature","properties":{"id":"2706501002"},"geometry":{"type":"Polygon","coordinates":[[[-7.68176,43.30267],[-7.67939,43.30147],[-7.6791,43.30121],[-7.67886,43.30089],[-7.67871,43.30042],[-7.67886,43.29932],[-7.68286,43.29733],[-7.68371,43.29735],[-7.68394,43.29722],[-7.68431,43.29626],[-7.68395,43.29549],[-7.68374,43.2946],[-7.68344,43.29417],[-7.68344,43.29377],[-7.68363,43.29358],[-7.68442,43.29323],[-7.68484,43.29271],[-7.68572,43.29244],[-7.68546,43.2919],[-7.68665,43.29059],[-7.68718,43.29127],[-7.6875,43.29126],[-7.68763,43.29337],[-7.68733,43.29444],[-7.68762,43.29552],[-7.68782,43.29576],[-7.68848,43.29616],[-7.68917,43.29651],[-7.68989,43.29674],[-7.6903,43.29702],[-7.69047,43.29787],[-7.69036,43.29819],[-7.69026,43.29838],[-7.68967,43.2988],[-7.68851,43.29992],[-7.6879,43.30026],[-7.6874,43.30028],[-7.68679,43.30082],[-7.68592,43.30188],[-7.68589,43.30212],[-7.68609,43.30261],[-7.68453,43.30267],[-7.68439,43.3028],[-7.68382,43.30282],[-7.68317,43.30249],[-7.68223,43.30247],[-7.68176,43.30267]]]}},{"type":"Feature","properties":{"id":"2706501003"},"geometry":{"type":"Polygon","coordinates":[[[-7.68847,43.32093],[-7.68593,43.31972],[-7.68363,43.31821],[-7.6823,43.31708],[-7.68036,43.3158],[-7.67912,43.31521],[-7.67813,43.31489],[-7.67674,43.31462],[-7.67535,43.31454],[-7.67547,43.31261],[-7.67445,43.31256],[-7.67391,43.31445],[-7.67107,43.31429],[-7.66615,43.31427],[-7.6588,43.31491],[-7.6585,43.31247],[-7.65812,43.3109],[-7.65826,43.31011],[-7.65939,43.30714],[-7.65946,43.30647],[-7.65891,43.30387],[-7.6585,43.30294],[-7.65938,43.30211],[-7.65565,43.29896],[-7.65819,43.29719],[-7.65713,43.29677],[-7.65272,43.29732],[-7.65028,43.29452],[-7.64872,43.29312],[-7.64934,43.29203],[-7.64829,43.28968],[-7.64752,43.28894],[-7.64647,43.29038],[-7.64653,43.29085],[-7.64635,43.29132],[-7.64587,43.29106],[-7.64143,43.29015],[-7.64175,43.28816],[-7.63987,43.28652],[-7.63603,43.28889],[-7.63414,43.28868],[-7.63454,43.28776],[-7.63448,43.28486],[-7.63499,43.28212],[-7.6399,43.27758],[-7.64057,43.27659],[-7.64286,43.27379],[-7.64541,43.27131],[-7.64808,43.26916],[-7.65325,43.2704],[-7.65782,43.2719],[-7.65939,43.27213],[-7.66118,43.27198],[-7.66282,43.27239],[-7.66417,43.27317],[-7.66501,43.2742],[-7.66655,43.27515],[-7.668,43.27575],[-7.67265,43.27702],[-7.67269,43.27802],[-7.67287,43.2786],[-7.67354,43.27865],[-7.67434,43.27812],[-7.6751,43.27697],[-7.67619,43.27411],[-7.67679,43.27345],[-7.6779,43.27379],[-7.679,43.2738],[-7.67949,43.27356],[-7.68067,43.27244],[-7.68157,43.27225],[-7.68214,43.27262],[-7.68316,43.27388],[-7.68369,43.27389],[-7.68527,43.27259],[-7.68671,43.2722],[-7.68644,43.27092],[-7.68689,43.27045],[-7.68627,43.26979],[-7.68587,43.26871],[-7.68596,43.26762],[-7.68689,43.26601],[-7.68727,43.26479],[-7.68745,43.26364],[-7.68795,43.26385],[-7.68834,43.26429],[-7.68956,43.26442],[-7.69227,43.26498],[-7.69342,43.26552],[-7.69429,43.26615],[-7.69497,43.26613],[-7.69633,43.26651],[-7.69842,43.26745],[-7.69944,43.26819],[-7.70182,43.26921],[-7.70265,43.26931],[-7.70344,43.26912],[-7.70353,43.26943],[-7.70533,43.26981],[-7.70724,43.27046],[-7.7087,43.27148],[-7.71116,43.27261],[-7.71582,43.27354],[-7.71762,43.27414],[-7.71856,43.27463],[-7.72053,43.27532],[-7.72222,43.27616],[-7.72559,43.2782],[-7.72877,43.27899],[-7.72868,43.281],[-7.72821,43.28401],[-7.72746,43.28542],[-7.72659,43.2856],[-7.7245,43.28562],[-7.72404,43.28533],[-7.72212,43.28477],[-7.72075,43.28593],[-7.72091,43.288],[-7.72131,43.28863],[-7.72217,43.28921],[-7.7203,43.2899],[-7.71816,43.29038],[-7.71671,43.29055],[-7.71347,43.29014],[-7.71239,43.29029],[-7.71115,43.29083],[-7.71051,43.29132],[-7.70917,43.29282],[-7.70694,43.29439],[-7.70321,43.29522],[-7.7064,43.29883],[-7.7073,43.3001],[-7.70857,43.30288],[-7.70931,43.3038],[-7.71008,43.30376],[-7.71081,43.30442],[-7.71062,43.30467],[-7.7119,43.30527],[-7.71637,43.30564],[-7.71854,43.30618],[-7.71421,43.31152],[-7.71277,43.31253],[-7.70927,43.31405],[-7.7089,43.31468],[-7.70822,43.31503],[-7.70786,43.3144],[-7.70784,43.31413],[-7.70653,43.31425],[-7.70671,43.31559],[-7.70444,43.31627],[-7.70383,43.31665],[-7.7032,43.31774],[-7.69725,43.32004],[-7.69293,43.32077],[-7.69111,43.32092],[-7.68847,43.32093]],[[-7.68176,43.30267],[-7.68223,43.30247],[-7.68317,43.30249],[-7.68382,43.30282],[-7.68439,43.3028],[-7.68453,43.30267],[-7.68609,43.30261],[-7.68589,43.30212],[-7.68592,43.30188],[-7.68679,43.30082],[-7.6874,43.30028],[-7.6879,43.30026],[-7.68851,43.29992],[-7.68967,43.2988],[-7.69026,43.29838],[-7.69036,43.29819],[-7.69047,43.29787],[-7.6903,43.29702],[-7.68989,43.29674],[-7.68917,43.29651],[-7.68848,43.29616],[-7.68782,43.29576],[-7.68762,43.29552],[-7.68733,43.29444],[-7.68763,43.29337],[-7.6875,43.29126],[-7.68718,43.29127],[-7.68665,43.29059],[-7.68514,43.29226],[-7.68053,43.29125],[-7.67951,43.29134],[-7.67969,43.29179],[-7.67927,43.29183],[-7.67903,43.29155],[-7.67794,43.29141],[-7.67749,43.29219],[-7.67732,43.29279],[-7.67509,43.29234],[-7.67407,43.29391],[-7.67678,43.29457],[-7.67659,43.29485],[-7.6764,43.29481],[-7.67612,43.29498],[-7.67433,43.29463],[-7.67446,43.29443],[-7.67398,43.29433],[-7.67388,43.2945],[-7.67374,43.29446],[-7.67362,43.29467],[-7.67405,43.29479],[-7.67385,43.29518],[-7.67046,43.29432],[-7.67043,43.29437],[-7.66452,43.29306],[-7.66471,43.29359],[-7.66606,43.29389],[-7.66628,43.29387],[-7.66641,43.29398],[-7.66717,43.29387],[-7.66731,43.29374],[-7.66855,43.294],[-7.66826,43.29422],[-7.67024,43.29471],[-7.6717,43.29538],[-7.67127,43.2957],[-7.67041,43.29543],[-7.66984,43.2954],[-7.66894,43.29697],[-7.66833,43.29764],[-7.66782,43.29777],[-7.66773,43.29791],[-7.66787,43.29796],[-7.66724,43.29873],[-7.66711,43.30078],[-7.66773,43.30141],[-7.6674,43.30151],[-7.66776,43.30335],[-7.66763,43.30368],[-7.66835,43.30432],[-7.66683,43.30507],[-7.6673,43.30569],[-7.66901,43.30491],[-7.67006,43.30531],[-7.67153,43.30569],[-7.67197,43.30533],[-7.67281,43.30568],[-7.67323,43.30608],[-7.67423,43.30629],[-7.6777,43.30626],[-7.6793,43.30645],[-7.6814,43.30597],[-7.68167,43.30408],[-7.68116,43.30338],[-7.68211,43.30303],[-7.68176,43.30267]]]}},{"type":"Feature","properties":{"id":"2706501004"},"geometry":{"type":"Polygon","coordinates":[[[-7.58171,43.32768],[-7.58243,43.32566],[-7.58434,43.32527],[-7.58401,43.32306],[-7.58402,43.32125],[-7.5843,43.32001],[-7.58509,43.3187],[-7.58648,43.31697],[-7.58833,43.31572],[-7.59035,43.31495],[-7.59156,43.31462],[-7.59304,43.31346],[-7.5956,43.31193],[-7.60379,43.31011],[-7.60726,43.30942],[-7.60964,43.30914],[-7.61151,43.30852],[-7.61351,43.30765],[-7.61558,43.3063],[-7.61806,43.30426],[-7.62072,43.30171],[-7.62245,43.29962],[-7.62383,43.29729],[-7.62464,43.29553],[-7.62517,43.29352],[-7.62697,43.29406],[-7.63008,43.29447],[-7.63027,43.29162],[-7.62965,43.29142],[-7.62861,43.29077],[-7.6282,43.2901],[-7.62852,43.28933],[-7.6294,43.28882],[-7.631,43.28859],[-7.63142,43.28648],[-7.63453,43.28698],[-7.63454,43.28776],[-7.63414,43.28868],[-7.63603,43.28889],[-7.63987,43.28652],[-7.64175,43.28816],[-7.64143,43.29015],[-7.64587,43.29106],[-7.64635,43.29132],[-7.64653,43.29085],[-7.64647,43.29038],[-7.64752,43.28894],[-7.64829,43.28968],[-7.64934,43.29203],[-7.64872,43.29312],[-7.65028,43.29452],[-7.65272,43.29732],[-7.65713,43.29677],[-7.65819,43.29719],[-7.65565,43.29896],[-7.65938,43.30211],[-7.6585,43.30294],[-7.65891,43.30387],[-7.65946,43.30647],[-7.65939,43.30714],[-7.65826,43.31011],[-7.65812,43.3109],[-7.6585,43.31247],[-7.6588,43.31491],[-7.66615,43.31427],[-7.67107,43.31429],[-7.67391,43.31445],[-7.67445,43.31256],[-7.67547,43.31261],[-7.67535,43.31454],[-7.67674,43.31462],[-7.67813,43.31489],[-7.67912,43.31521],[-7.68036,43.3158],[-7.6823,43.31708],[-7.68363,43.31821],[-7.68593,43.31972],[-7.68847,43.32093],[-7.68845,43.32128],[-7.68821,43.32147],[-7.68618,43.32255],[-7.68573,43.32297],[-7.6853,43.32382],[-7.68552,43.32619],[-7.68629,43.32838],[-7.68618,43.32993],[-7.68637,43.33041],[-7.687,43.33107],[-7.6887,43.3322],[-7.69014,43.33343],[-7.69122,43.33478],[-7.6915,43.3361],[-7.69111,43.33697],[-7.68786,43.33895],[-7.68748,43.33944],[-7.68817,43.34059],[-7.68792,43.34072],[-7.68811,43.3413],[-7.68881,43.34127],[-7.69007,43.34227],[-7.69174,43.34386],[-7.69502,43.34866],[-7.69658,43.35054],[-7.69787,43.35247],[-7.69793,43.35581],[-7.69821,43.35731],[-7.70109,43.36562],[-7.70235,43.36881],[-7.70321,43.37153],[-7.70379,43.37271],[-7.70379,43.37315],[-7.7035,43.37381],[-7.70389,43.37524],[-7.70233,43.37614],[-7.7008,43.37645],[-7.69753,43.37602],[-7.69615,43.37603],[-7.69231,43.37632],[-7.69165,43.37612],[-7.68741,43.3758],[-7.68494,43.376],[-7.68235,43.37665],[-7.68178,43.37667],[-7.68099,43.37654],[-7.67862,43.37724],[-7.67742,43.37739],[-7.67523,43.37729],[-7.66996,43.37647],[-7.66541,43.37588],[-7.65961,43.37536],[-7.65226,43.37523],[-7.6492,43.37578],[-7.64652,43.37682],[-7.64407,43.37754],[-7.64221,43.37868],[-7.64167,43.37749],[-7.64077,43.37666],[-7.63951,43.37577],[-7.63805,43.37514],[-7.63581,43.37283],[-7.63426,43.372],[-7.63266,43.37134],[-7.63354,43.36933],[-7.63229,43.36896],[-7.6294,43.36944],[-7.62884,43.3691],[-7.62682,43.36728],[-7.62544,43.36509],[-7.62448,43.3633],[-7.62184,43.36046],[-7.61929,43.35933],[-7.62076,43.35856],[-7.62254,43.35742],[-7.62362,43.35646],[-7.62562,43.35502],[-7.62326,43.35448],[-7.62151,43.35396],[-7.6199,43.35308],[-7.61893,43.35233],[-7.61552,43.35238],[-7.61157,43.35121],[-7.61194,43.3484],[-7.61032,43.34803],[-7.6092,43.34764],[-7.60656,43.34629],[-7.60331,43.34572],[-7.6013,43.3452],[-7.59968,43.34441],[-7.5971,43.34274],[-7.5952,43.34214],[-7.59207,43.34081],[-7.59148,43.34047],[-7.58955,43.3411],[-7.58691,43.33966],[-7.58858,43.33814],[-7.58843,43.33798],[-7.58725,43.33425],[-7.5857,43.33053],[-7.58519,43.32845],[-7.58207,43.32878],[-7.58171,43.32768]]]}},{"type":"Feature","properties":{"id":"2706501006"},"geometry":{"type":"Polygon","coordinates":[[[-7.67385,43.29518],[-7.67405,43.29479],[-7.67362,43.29467],[-7.67374,43.29446],[-7.67388,43.2945],[-7.67398,43.29433],[-7.67446,43.29443],[-7.67433,43.29463],[-7.67612,43.29498],[-7.6764,43.29481],[-7.67659,43.29485],[-7.67678,43.29457],[-7.67407,43.29391],[-7.67509,43.29234],[-7.67732,43.29279],[-7.67749,43.29219],[-7.67794,43.29141],[-7.67903,43.29155],[-7.67927,43.29183],[-7.67969,43.29179],[-7.67951,43.29134],[-7.68053,43.29125],[-7.68514,43.29226],[-7.68546,43.2919],[-7.68572,43.29244],[-7.68484,43.29271],[-7.68442,43.29323],[-7.68363,43.29358],[-7.68344,43.29377],[-7.68344,43.29417],[-7.68374,43.2946],[-7.68395,43.29549],[-7.68431,43.29626],[-7.68394,43.29722],[-7.68371,43.29735],[-7.68302,43.29728],[-7.682,43.2977],[-7.68173,43.29678],[-7.68054,43.29679],[-7.67959,43.29662],[-7.67385,43.29518]]]}},{"type":"Feature","properties":{"id":"2706501007"},"geometry":{"type":"Polygon","coordinates":[[[-7.66683,43.30507],[-7.67886,43.29932],[-7.67871,43.30042],[-7.67886,43.30089],[-7.6791,43.30121],[-7.67939,43.30147],[-7.68161,43.30257],[-7.68211,43.30303],[-7.68116,43.30338],[-7.68167,43.30408],[-7.6814,43.30597],[-7.6793,43.30645],[-7.6777,43.30626],[-7.67423,43.30629],[-7.67323,43.30608],[-7.67281,43.30568],[-7.67197,43.30533],[-7.67153,43.30569],[-7.67006,43.30531],[-7.66901,43.30491],[-7.6673,43.30569],[-7.66683,43.30507]]]}},{"type":"Feature","properties":{"id":"2706502001"},"geometry":{"type":"Polygon","coordinates":[[[-7.76168,43.29139],[-7.75097,43.29224],[-7.74956,43.29208],[-7.7484,43.29183],[-7.74555,43.29092],[-7.74408,43.29064],[-7.74115,43.28952],[-7.7384,43.28875],[-7.73743,43.28828],[-7.7347,43.2878],[-7.73253,43.28724],[-7.7299,43.28634],[-7.72724,43.28583],[-7.72821,43.28401],[-7.72868,43.281],[-7.72877,43.27899],[-7.72559,43.2782],[-7.72222,43.27616],[-7.72053,43.27532],[-7.71856,43.27463],[-7.71762,43.27414],[-7.71582,43.27354],[-7.71116,43.27261],[-7.7087,43.27148],[-7.70724,43.27046],[-7.70533,43.26981],[-7.70353,43.26943],[-7.70344,43.26912],[-7.70265,43.26931],[-7.70182,43.26921],[-7.69944,43.26819],[-7.69842,43.26745],[-7.69633,43.26651],[-7.69497,43.26613],[-7.69429,43.26615],[-7.69342,43.26552],[-7.69227,43.26498],[-7.68956,43.26442],[-7.68834,43.26429],[-7.68795,43.26385],[-7.68745,43.26364],[-7.68699,43.26241],[-7.6868,43.26103],[-7.68689,43.25955],[-7.6891,43.25571],[-7.68992,43.25446],[-7.69179,43.25284],[-7.69373,43.25142],[-7.69651,43.24896],[-7.69826,43.24676],[-7.69864,43.24613],[-7.69869,43.24504],[-7.69818,43.24378],[-7.69726,43.24208],[-7.6943,43.24212],[-7.69303,43.24231],[-7.69196,43.24273],[-7.68688,43.24605],[-7.68594,43.2471],[-7.68289,43.24636],[-7.68116,43.24615],[-7.67877,43.24783],[-7.67581,43.24699],[-7.6736,43.246],[-7.67596,43.24369],[-7.67311,43.24286],[-7.6702,43.24302],[-7.66938,43.24341],[-7.66863,43.24274],[-7.66679,43.24036],[-7.66545,43.23804],[-7.66414,43.23539],[-7.66236,43.23108],[-7.66078,43.22798],[-7.65734,43.22431],[-7.65627,43.22342],[-7.65452,43.22065],[-7.6536,43.21958],[-7.65277,43.21893],[-7.658,43.21423],[-7.66104,43.21444],[-7.66514,43.21426],[-7.66878,43.21363],[-7.67104,43.213],[-7.67327,43.21289],[-7.67426,43.2132],[-7.67638,43.2127],[-7.67762,43.21198],[-7.67985,43.21126],[-7.68938,43.20489],[-7.69193,43.20655],[-7.70282,43.21558],[-7.70384,43.21629],[-7.71148,43.21986],[-7.71458,43.22096],[-7.71705,43.22165],[-7.72013,43.22377],[-7.72366,43.2251],[-7.72406,43.22517],[-7.7247,43.22555],[-7.72686,43.22631],[-7.72803,43.22641],[-7.72977,43.22676],[-7.73043,43.22718],[-7.73055,43.22743],[-7.73138,43.22755],[-7.73274,43.22678],[-7.73334,43.22714],[-7.73803,43.22712],[-7.74161,43.23039],[-7.74129,43.23188],[-7.74215,43.23251],[-7.74476,43.23827],[-7.7456,43.23926],[-7.74811,43.24371],[-7.74911,43.24477],[-7.75066,43.24728],[-7.75241,43.24586],[-7.75398,43.24498],[-7.75861,43.24463],[-7.7603,43.24458],[-7.76154,43.24439],[-7.76256,43.24403],[-7.76415,43.24298],[-7.7651,43.24277],[-7.76524,43.24228],[-7.76459,43.24157],[-7.76447,43.24057],[-7.76477,43.2397],[-7.76458,43.23874],[-7.76403,43.23726],[-7.76415,43.23665],[-7.76485,43.23574],[-7.76492,43.23506],[-7.76446,43.23371],[-7.76479,43.23318],[-7.76616,43.23335],[-7.76676,43.23297],[-7.76901,43.2332],[-7.76959,43.23317],[-7.77073,43.23276],[-7.78305,43.22634],[-7.78396,43.22831],[-7.7853,43.23081],[-7.7864,43.23401],[-7.78648,43.23464],[-7.79233,43.23553],[-7.79324,43.23969],[-7.79242,43.24108],[-7.79392,43.24294],[-7.79548,43.24512],[-7.7985,43.24606],[-7.79996,43.24711],[-7.79995,43.24809],[-7.80107,43.2515],[-7.80097,43.25185],[-7.80061,43.25226],[-7.80039,43.2536],[-7.80039,43.25647],[-7.80003,43.25742],[-7.79991,43.25919],[-7.80053,43.26455],[-7.80087,43.26575],[-7.80204,43.26333],[-7.804,43.26444],[-7.80576,43.26497],[-7.80714,43.26622],[-7.80867,43.26858],[-7.81107,43.27049],[-7.81556,43.27452],[-7.81863,43.27607],[-7.82062,43.27732],[-7.82253,43.27903],[-7.82489,43.2818],[-7.82571,43.28215],[-7.82388,43.28309],[-7.82459,43.28386],[-7.82266,43.28449],[-7.82218,43.28547],[-7.81727,43.28805],[-7.81374,43.28854],[-7.81132,43.28924],[-7.80541,43.29031],[-7.79591,43.29248],[-7.79427,43.29263],[-7.79091,43.29232],[-7.78278,43.28995],[-7.78069,43.28994],[-7.77935,43.2895],[-7.77799,43.28932],[-7.77476,43.2885],[-7.77222,43.28847],[-7.77026,43.28908],[-7.76934,43.28841],[-7.76812,43.28848],[-7.76311,43.29116],[-7.76168,43.29139]]]}},{"type":"Feature","properties":{"id":"2706502002"},"geometry":{"type":"MultiPolygon","coordinates":[[[[-7.6079,43.27088],[-7.60511,43.26968],[-7.60774,43.26719],[-7.60686,43.26656],[-7.60279,43.26662],[-7.601,43.26784],[-7.5972,43.26598],[-7.60057,43.26529],[-7.6008,43.26378],[-7.60027,43.26357],[-7.60039,43.26294],[-7.60009,43.2623],[-7.59877,43.26151],[-7.59829,43.25976],[-7.59866,43.25828],[-7.5969,43.25702],[-7.59673,43.2559],[-7.60218,43.25064],[-7.60338,43.25007],[-7.60504,43.24869],[-7.60918,43.24247],[-7.61371,43.24057],[-7.61487,43.23996],[-7.62045,43.23658],[-7.62286,43.23499],[-7.62447,43.23375],[-7.62626,43.23253],[-7.63187,43.22943],[-7.64222,43.23087],[-7.64349,43.23212],[-7.64792,43.22331],[-7.65277,43.21893],[-7.6536,43.21958],[-7.65452,43.22065],[-7.65627,43.22342],[-7.65734,43.22431],[-7.66078,43.22798],[-7.66236,43.23108],[-7.66414,43.23539],[-7.66545,43.23804],[-7.66679,43.24036],[-7.66863,43.24274],[-7.66938,43.24341],[-7.6702,43.24302],[-7.67311,43.24286],[-7.67596,43.24369],[-7.6736,43.246],[-7.67581,43.24699],[-7.67877,43.24783],[-7.68116,43.24615],[-7.68289,43.24636],[-7.68594,43.2471],[-7.68688,43.24605],[-7.69196,43.24273],[-7.69303,43.24231],[-7.6943,43.24212],[-7.69726,43.24208],[-7.69818,43.24378],[-7.69869,43.24504],[-7.69864,43.24613],[-7.69826,43.24676],[-7.69651,43.24896],[-7.69373,43.25142],[-7.69179,43.25284],[-7.68992,43.25446],[-7.6891,43.25571],[-7.68689,43.25955],[-7.6868,43.26103],[-7.68699,43.26241],[-7.68745,43.26364],[-7.68727,43.26479],[-7.68689,43.26601],[-7.68596,43.26762],[-7.68587,43.26871],[-7.68627,43.26979],[-7.68689,43.27045],[-7.68644,43.27092],[-7.68671,43.2722],[-7.68527,43.27259],[-7.68369,43.27389],[-7.68316,43.27388],[-7.68214,43.27262],[-7.68157,43.27225],[-7.68067,43.27244],[-7.67949,43.27356],[-7.679,43.2738],[-7.6779,43.27379],[-7.67679,43.27345],[-7.67619,43.27411],[-7.6751,43.27697],[-7.67434,43.27812],[-7.67354,43.27865],[-7.67287,43.2786],[-7.67269,43.27802],[-7.67265,43.27702],[-7.668,43.27575],[-7.66655,43.27515],[-7.66501,43.2742],[-7.66417,43.27317],[-7.66282,43.27239],[-7.66118,43.27198],[-7.65939,43.27213],[-7.65782,43.2719],[-7.65325,43.2704],[-7.64808,43.26916],[-7.64541,43.27131],[-7.64286,43.27379],[-7.64057,43.27659],[-7.6399,43.27758],[-7.63499,43.28212],[-7.63294,43.28064],[-7.63013,43.27913],[-7.62584,43.2773],[-7.62489,43.27668],[-7.6245,43.27621],[-7.62381,43.27618],[-7.62249,43.27576],[-7.62141,43.27446],[-7.62001,43.27305],[-7.61837,43.27235],[-7.61384,43.2719],[-7.6079,43.27088]]],[[[-7.62792,43.18906],[-7.63038,43.18767],[-7.63464,43.18918],[-7.63904,43.19038],[-7.63806,43.19299],[-7.63926,43.19471],[-7.64087,43.19817],[-7.64119,43.19906],[-7.64116,43.19989],[-7.64162,43.20267],[-7.64315,43.20424],[-7.64406,43.205],[-7.64497,43.20549],[-7.64755,43.20783],[-7.65116,43.21083],[-7.6558,43.21333],[-7.65691,43.21378],[-7.6548,43.2135],[-7.65389,43.21316],[-7.65195,43.21265],[-7.64912,43.2121],[-7.6449,43.21106],[-7.6388,43.20861],[-7.63533,43.20772],[-7.63209,43.20662],[-7.62906,43.20585],[-7.62465,43.20459],[-7.6237,43.20428],[-7.61912,43.20154],[-7.61955,43.20108],[-7.6189,43.20065],[-7.6187,43.19953],[-7.61948,43.19888],[-7.61999,43.19431],[-7.61992,43.19196],[-7.62367,43.19124],[-7.62567,43.19014],[-7.62792,43.18906]]]]}},{"type":"Feature","properties":{"id":"2706503001"},"geometry":{"type":"Polygon","coordinates":[[[-7.59329,43.41706],[-7.59302,43.41659],[-7.59246,43.41607],[-7.59176,43.4157],[-7.59115,43.4155],[-7.58997,43.41553],[-7.58946,43.41445],[-7.5883,43.41471],[-7.58747,43.41472],[-7.58612,43.41448],[-7.5857,43.41433],[-7.58523,43.41355],[-7.58492,43.41333],[-7.58202,43.41248],[-7.58149,43.41241],[-7.58115,43.41245],[-7.57957,43.4136],[-7.57881,43.41489],[-7.57632,43.41537],[-7.5711,43.41603],[-7.56734,43.41528],[-7.56584,43.4154],[-7.56292,43.41608],[-7.56241,43.41569],[-7.56263,43.41475],[-7.56262,43.4138],[-7.56172,43.41112],[-7.56112,43.40853],[-7.55263,43.40548],[-7.55463,43.40203],[-7.55303,43.39827],[-7.55411,43.39422],[-7.54639,43.3909],[-7.54211,43.38763],[-7.5383,43.38523],[-7.53926,43.38454],[-7.54044,43.38389],[-7.5445,43.3819],[-7.54574,43.38024],[-7.54567,43.37986],[-7.54438,43.37829],[-7.54427,43.3779],[-7.54608,43.37635],[-7.54617,43.37602],[-7.54585,43.37485],[-7.54597,43.37445],[-7.54729,43.37236],[-7.54755,43.37167],[-7.54729,43.37092],[-7.54661,43.37048],[-7.5456,43.3701],[-7.5454,43.36975],[-7.54549,43.36912],[-7.54678,43.36701],[-7.5466,43.36643],[-7.54628,43.36589],[-7.54557,43.36554],[-7.54393,43.3651],[-7.54372,43.36467],[-7.54385,43.36372],[-7.54369,43.36279],[-7.54373,43.36165],[-7.54293,43.36085],[-7.54659,43.35904],[-7.54922,43.35832],[-7.55145,43.34862],[-7.55203,43.34708],[-7.55162,43.34483],[-7.55076,43.34368],[-7.55059,43.34219],[-7.55,43.34137],[-7.54992,43.34015],[-7.54949,43.33949],[-7.54937,43.3391],[-7.54971,43.33806],[-7.54962,43.33771],[-7.54971,43.33727],[-7.5507,43.3361],[-7.5518,43.33566],[-7.55239,43.33524],[-7.55382,43.33386],[-7.55385,43.33339],[-7.55419,43.33282],[-7.55486,43.33235],[-7.55498,43.33122],[-7.55576,43.33004],[-7.55616,43.32966],[-7.55736,43.3292],[-7.55766,43.32892],[-7.55833,43.32666],[-7.55995,43.32769],[-7.56075,43.32797],[-7.56153,43.32804],[-7.56464,43.32714],[-7.56552,43.32702],[-7.5666,43.32709],[-7.56796,43.32769],[-7.57,43.32892],[-7.57128,43.32935],[-7.57476,43.32745],[-7.57662,43.32786],[-7.57729,43.32868],[-7.57977,43.32825],[-7.58171,43.32768],[-7.58207,43.32878],[-7.58519,43.32845],[-7.5857,43.33053],[-7.58725,43.33425],[-7.58843,43.33798],[-7.58858,43.33814],[-7.58691,43.33966],[-7.58955,43.3411],[-7.59148,43.34047],[-7.59207,43.34081],[-7.5952,43.34214],[-7.5971,43.34274],[-7.59968,43.34441],[-7.6013,43.3452],[-7.60331,43.34572],[-7.60656,43.34629],[-7.6092,43.34764],[-7.61032,43.34803],[-7.61194,43.3484],[-7.61157,43.35121],[-7.61552,43.35238],[-7.61893,43.35233],[-7.6199,43.35308],[-7.62151,43.35396],[-7.62326,43.35448],[-7.62562,43.35502],[-7.62362,43.35646],[-7.62254,43.35742],[-7.62076,43.35856],[-7.61929,43.35933],[-7.62184,43.36046],[-7.62448,43.3633],[-7.62544,43.36509],[-7.62682,43.36728],[-7.62884,43.3691],[-7.6294,43.36944],[-7.63229,43.36896],[-7.63354,43.36933],[-7.63266,43.37134],[-7.63426,43.372],[-7.63581,43.37283],[-7.63805,43.37514],[-7.63951,43.37577],[-7.64077,43.37666],[-7.64167,43.37749],[-7.64221,43.37868],[-7.64407,43.37754],[-7.64652,43.37682],[-7.6492,43.37578],[-7.65226,43.37523],[-7.65961,43.37536],[-7.66541,43.37588],[-7.66996,43.37647],[-7.67523,43.37729],[-7.67742,43.37739],[-7.67862,43.37724],[-7.68099,43.37654],[-7.68178,43.37667],[-7.68235,43.37665],[-7.68494,43.376],[-7.68741,43.3758],[-7.69165,43.37612],[-7.69231,43.37632],[-7.69615,43.37603],[-7.69753,43.37602],[-7.7008,43.37645],[-7.70233,43.37614],[-7.70389,43.37524],[-7.706,43.37703],[-7.70669,43.37786],[-7.70792,43.38041],[-7.70796,43.3809],[-7.70765,43.38324],[-7.7076,43.38556],[-7.70778,43.38645],[-7.70772,43.38752],[-7.70727,43.38987],[-7.70698,43.39064],[-7.70604,43.39206],[-7.7045,43.39381],[-7.70397,43.39456],[-7.70325,43.396],[-7.70124,43.39758],[-7.70085,43.39807],[-7.7,43.40007],[-7.69961,43.40074],[-7.69794,43.40211],[-7.69609,43.40508],[-7.69442,43.40931],[-7.69409,43.40974],[-7.6921,43.41152],[-7.6895,43.41412],[-7.68899,43.41448],[-7.68714,43.41536],[-7.68645,43.41593],[-7.68465,43.41802],[-7.68478,43.41842],[-7.68687,43.42078],[-7.68654,43.42175],[-7.68559,43.42381],[-7.68539,43.42479],[-7.68396,43.42566],[-7.68333,43.42626],[-7.68279,43.427],[-7.68216,43.42832],[-7.68139,43.43042],[-7.68122,43.4314],[-7.67842,43.43353],[-7.6764,43.43527],[-7.67636,43.43568],[-7.67674,43.43634],[-7.67652,43.43804],[-7.67659,43.43852],[-7.67764,43.44093],[-7.67833,43.44206],[-7.67826,43.44292],[-7.67768,43.44323],[-7.67429,43.4444],[-7.66989,43.44559],[-7.66946,43.44558],[-7.66693,43.44485],[-7.66562,43.44464],[-7.66335,43.44548],[-7.66147,43.44699],[-7.66031,43.44769],[-7.65965,43.44736],[-7.65915,43.44723],[-7.65617,43.44742],[-7.65544,43.44734],[-7.65389,43.44688],[-7.65345,43.44665],[-7.65295,43.44592],[-7.65293,43.44555],[-7.65328,43.44478],[-7.65314,43.44431],[-7.65282,43.44389],[-7.65227,43.44369],[-7.65159,43.44366],[-7.65034,43.44383],[-7.64978,43.44402],[-7.64968,43.44439],[-7.64977,43.4447],[-7.65032,43.44547],[-7.65023,43.44593],[-7.64994,43.44625],[-7.64911,43.4466],[-7.64823,43.44674],[-7.64773,43.4467],[-7.6473,43.44649],[-7.64667,43.44512],[-7.64619,43.44466],[-7.64155,43.44103],[-7.64121,43.44054],[-7.64083,43.43791],[-7.63986,43.43689],[-7.63965,43.43649],[-7.63925,43.43435],[-7.63932,43.43322],[-7.63994,43.43207],[-7.63988,43.43086],[-7.6396,43.43042],[-7.63786,43.42849],[-7.63751,43.42775],[-7.63704,43.42713],[-7.63662,43.42694],[-7.63613,43.42685],[-7.63585,43.42662],[-7.63548,43.42575],[-7.63456,43.42488],[-7.6332,43.42452],[-7.63292,43.42429],[-7.63264,43.42339],[-7.63284,43.42237],[-7.63273,43.42199],[-7.63137,43.42059],[-7.63081,43.42021],[-7.63017,43.41995],[-7.6288,43.4196],[-7.62519,43.4194],[-7.62435,43.41912],[-7.62065,43.41741],[-7.62014,43.41731],[-7.61892,43.41733],[-7.61858,43.41721],[-7.61833,43.41699],[-7.61832,43.41665],[-7.6187,43.41591],[-7.61845,43.4157],[-7.61725,43.41576],[-7.61546,43.41532],[-7.61506,43.41517],[-7.61472,43.41485],[-7.61427,43.41462],[-7.61377,43.41477],[-7.61308,43.4153],[-7.61247,43.41543],[-7.61118,43.41519],[-7.60888,43.41428],[-7.60809,43.41414],[-7.60604,43.41443],[-7.60468,43.41484],[-7.60383,43.41466],[-7.60302,43.41494],[-7.60045,43.41652],[-7.6,43.41695],[-7.59953,43.41721],[-7.5987,43.41746],[-7.59806,43.41758],[-7.59676,43.41749],[-7.59624,43.41719],[-7.59565,43.41714],[-7.5943,43.41737],[-7.59375,43.41728],[-7.59329,43.41706]]]}},{"type":"Feature","properties":{"id":"2706503002"},"geometry":{"type":"Polygon","coordinates":[[[-7.70389,43.37524],[-7.7035,43.37381],[-7.70379,43.37315],[-7.70379,43.37271],[-7.70321,43.37153],[-7.70235,43.36881],[-7.70109,43.36562],[-7.69821,43.35731],[-7.69793,43.35581],[-7.69787,43.35247],[-7.69658,43.35054],[-7.69502,43.34866],[-7.69174,43.34386],[-7.69007,43.34227],[-7.68881,43.34127],[-7.68811,43.3413],[-7.68792,43.34072],[-7.68817,43.34059],[-7.68748,43.33944],[-7.68786,43.33895],[-7.69111,43.33697],[-7.6915,43.3361],[-7.69122,43.33478],[-7.69014,43.33343],[-7.6887,43.3322],[-7.687,43.33107],[-7.68637,43.33041],[-7.68618,43.32993],[-7.68629,43.32838],[-7.68552,43.32619],[-7.6853,43.32382],[-7.68573,43.32297],[-7.68618,43.32255],[-7.68821,43.32147],[-7.68845,43.32128],[-7.68847,43.32093],[-7.69111,43.32092],[-7.69293,43.32077],[-7.69725,43.32004],[-7.7032,43.31774],[-7.70383,43.31665],[-7.70444,43.31627],[-7.70671,43.31559],[-7.70653,43.31425],[-7.70784,43.31413],[-7.70786,43.3144],[-7.70822,43.31503],[-7.7089,43.31468],[-7.70927,43.31405],[-7.71277,43.31253],[-7.71421,43.31152],[-7.71854,43.30618],[-7.71637,43.30564],[-7.7119,43.30527],[-7.71062,43.30467],[-7.71081,43.30442],[-7.71008,43.30376],[-7.70931,43.3038],[-7.70857,43.30288],[-7.7073,43.3001],[-7.7064,43.29883],[-7.70321,43.29522],[-7.70694,43.29439],[-7.70917,43.29282],[-7.71051,43.29132],[-7.71115,43.29083],[-7.71239,43.29029],[-7.71347,43.29014],[-7.71671,43.29055],[-7.71816,43.29038],[-7.7203,43.2899],[-7.72217,43.28921],[-7.72131,43.28863],[-7.72091,43.288],[-7.72075,43.28593],[-7.72212,43.28477],[-7.72404,43.28533],[-7.7245,43.28562],[-7.72659,43.2856],[-7.72746,43.28542],[-7.72724,43.28583],[-7.7299,43.28634],[-7.73253,43.28724],[-7.7347,43.2878],[-7.73743,43.28828],[-7.7384,43.28875],[-7.74115,43.28952],[-7.74408,43.29064],[-7.74555,43.29092],[-7.7484,43.29183],[-7.74956,43.29208],[-7.75097,43.29224],[-7.76168,43.29139],[-7.75774,43.29527],[-7.75827,43.29713],[-7.75929,43.29914],[-7.76194,43.30192],[-7.76322,43.30225],[-7.76346,43.30309],[-7.76463,43.30479],[-7.76528,43.30555],[-7.76629,43.30777],[-7.76791,43.30861],[-7.76839,43.30913],[-7.7695,43.31155],[-7.77258,43.31164],[-7.77341,43.31187],[-7.77428,43.31369],[-7.77688,43.31694],[-7.77893,43.31986],[-7.77943,43.32086],[-7.78079,43.32193],[-7.78283,43.32304],[-7.78389,43.32343],[-7.78654,43.32364],[-7.78779,43.32389],[-7.79196,43.3231],[-7.79694,43.32265],[-7.80324,43.32146],[-7.80593,43.32146],[-7.80967,43.32027],[-7.81521,43.31992],[-7.82006,43.31972],[-7.82102,43.31929],[-7.82513,43.31903],[-7.82875,43.31868],[-7.83058,43.31867],[-7.83046,43.32103],[-7.8312,43.32277],[-7.83175,43.32464],[-7.83168,43.32683],[-7.83149,43.32737],[-7.83103,43.3278],[-7.83088,43.32825],[-7.83157,43.32932],[-7.83177,43.33057],[-7.83141,43.33112],[-7.83019,43.33192],[-7.83002,43.33231],[-7.83015,43.33266],[-7.83102,43.3332],[-7.82837,43.33329],[-7.82777,43.33321],[-7.8268,43.33286],[-7.82539,43.3326],[-7.8235,43.33275],[-7.81942,43.33282],[-7.81757,43.33239],[-7.81209,43.33288],[-7.80836,43.33275],[-7.8012,43.33026],[-7.80005,43.33028],[-7.79918,43.33047],[-7.79516,43.33172],[-7.79262,43.33189],[-7.78959,43.33157],[-7.78836,43.33115],[-7.78765,43.33111],[-7.78694,43.33123],[-7.78583,43.33201],[-7.78547,43.33258],[-7.7852,43.33403],[-7.78427,43.33422],[-7.78378,43.33475],[-7.78227,43.33537],[-7.78122,43.33536],[-7.77999,43.33656],[-7.77907,43.33681],[-7.7746,43.33861],[-7.77229,43.33921],[-7.77059,43.33942],[-7.76961,43.3397],[-7.76824,43.34047],[-7.76362,43.34219],[-7.76177,43.34304],[-7.7568,43.34667],[-7.7551,43.34866],[-7.75464,43.34851],[-7.75456,43.34908],[-7.75392,43.35055],[-7.75351,43.35116],[-7.753,43.35155],[-7.75387,43.35311],[-7.75398,43.3538],[-7.75206,43.36378],[-7.75131,43.36432],[-7.75109,43.36461],[-7.75046,43.36653],[-7.74917,43.36928],[-7.74863,43.37009],[-7.74802,43.37074],[-7.74618,43.37227],[-7.74501,43.37298],[-7.74221,43.3729],[-7.73729,43.37304],[-7.73263,43.37333],[-7.73073,43.37334],[-7.72298,43.37388],[-7.71903,43.37454],[-7.71438,43.3749],[-7.70665,43.37502],[-7.70482,43.37522],[-7.70389,43.37524]]]}},{"type":"Feature","properties":{"id":"2706504001"},"geometry":{"type":"Polygon","coordinates":[[[-7.55995,43.32769],[-7.55758,43.32613],[-7.55624,43.32466],[-7.55424,43.32395],[-7.55374,43.32398],[-7.5522,43.32461],[-7.55168,43.32463],[-7.55133,43.32441],[-7.5501,43.32312],[-7.54997,43.32286],[-7.55055,43.32245],[-7.55068,43.32222],[-7.55053,43.32166],[-7.55097,43.32082],[-7.55065,43.32006],[-7.55038,43.31981],[-7.54833,43.31954],[-7.54781,43.31939],[-7.54747,43.31915],[-7.54685,43.31898],[-7.5465,43.31898],[-7.5464,43.31882],[-7.54644,43.3186],[-7.547,43.31823],[-7.54712,43.31803],[-7.54686,43.31726],[-7.54572,43.31636],[-7.54542,43.31509],[-7.54543,43.31444],[-7.54477,43.31365],[-7.54417,43.31314],[-7.54392,43.3125],[-7.54143,43.31301],[-7.53992,43.31279],[-7.53861,43.3128],[-7.53687,43.31297],[-7.53612,43.31322],[-7.53541,43.31321],[-7.53348,43.31352],[-7.52753,43.31366],[-7.52823,43.3122],[-7.52671,43.30948],[-7.52498,43.30738],[-7.52397,43.30632],[-7.52182,43.3049],[-7.51777,43.29998],[-7.51594,43.29808],[-7.51592,43.29766],[-7.51667,43.29735],[-7.51686,43.29652],[-7.51718,43.29652],[-7.52104,43.29384],[-7.52251,43.2932],[-7.52042,43.29105],[-7.52059,43.29032],[-7.51921,43.28861],[-7.51881,43.28732],[-7.51856,43.2869],[-7.51807,43.28631],[-7.51731,43.28566],[-7.51669,43.28485],[-7.51627,43.28077],[-7.51661,43.27994],[-7.51888,43.27737],[-7.52104,43.27523],[-7.52202,43.27446],[-7.52235,43.27399],[-7.5226,43.27324],[-7.52559,43.27191],[-7.52744,43.27042],[-7.53095,43.26488],[-7.53186,43.26402],[-7.53447,43.26098],[-7.53434,43.2605],[-7.53533,43.25955],[-7.53668,43.25861],[-7.53736,43.25758],[-7.53778,43.25726],[-7.53819,43.25715],[-7.54017,43.25726],[-7.54106,43.25749],[-7.54443,43.25866],[-7.54699,43.25971],[-7.54887,43.26081],[-7.55109,43.26152],[-7.55816,43.26446],[-7.56332,43.2685],[-7.56495,43.2699],[-7.56784,43.27149],[-7.57287,43.27366],[-7.57334,43.27364],[-7.57578,43.27502],[-7.57636,43.2776],[-7.57582,43.28119],[-7.57499,43.28388],[-7.57401,43.28602],[-7.57139,43.28914],[-7.56999,43.29028],[-7.56784,43.29157],[-7.56727,43.29213],[-7.56692,43.29394],[-7.56648,43.29508],[-7.56406,43.29838],[-7.56828,43.29928],[-7.57033,43.29957],[-7.57318,43.30033],[-7.57461,43.30123],[-7.57596,43.30231],[-7.57846,43.30583],[-7.57925,43.30827],[-7.57964,43.30998],[-7.58074,43.31242],[-7.58287,43.31467],[-7.58468,43.31597],[-7.58648,43.31697],[-7.58509,43.3187],[-7.5843,43.32001],[-7.58402,43.32125],[-7.58401,43.32306],[-7.58434,43.32527],[-7.58243,43.32566],[-7.58166,43.3277],[-7.57977,43.32825],[-7.57729,43.32868],[-7.57662,43.32786],[-7.57476,43.32745],[-7.57128,43.32935],[-7.57,43.32892],[-7.56796,43.32769],[-7.5666,43.32709],[-7.56552,43.32702],[-7.56464,43.32714],[-7.56153,43.32804],[-7.56075,43.32797],[-7.55995,43.32769]]]}},{"type":"Feature","properties":{"id":"2706504002"},"geometry":{"type":"Polygon","coordinates":[[[-7.57578,43.27502],[-7.57729,43.27456],[-7.5781,43.2745],[-7.58045,43.27297],[-7.58669,43.2697],[-7.58891,43.26947],[-7.58934,43.26911],[-7.59342,43.2671],[-7.5941,43.26719],[-7.59493,43.26671],[-7.5972,43.26598],[-7.601,43.26784],[-7.60279,43.26662],[-7.60686,43.26656],[-7.60774,43.26719],[-7.60511,43.26968],[-7.6079,43.27088],[-7.61384,43.2719],[-7.61837,43.27235],[-7.62001,43.27305],[-7.62141,43.27446],[-7.62249,43.27576],[-7.62381,43.27618],[-7.6245,43.27621],[-7.62489,43.27668],[-7.62584,43.2773],[-7.63013,43.27913],[-7.63294,43.28064],[-7.63499,43.28212],[-7.63448,43.28486],[-7.63453,43.28698],[-7.63142,43.28648],[-7.631,43.28859],[-7.6294,43.28882],[-7.62852,43.28933],[-7.6282,43.2901],[-7.62861,43.29077],[-7.62965,43.29142],[-7.63027,43.29162],[-7.63008,43.29447],[-7.62697,43.29406],[-7.62517,43.29352],[-7.62464,43.29553],[-7.62383,43.29729],[-7.62245,43.29962],[-7.62072,43.30171],[-7.61806,43.30426],[-7.61558,43.3063],[-7.61351,43.30765],[-7.61151,43.30852],[-7.60964,43.30914],[-7.60726,43.30942],[-7.60379,43.31011],[-7.5956,43.31193],[-7.59304,43.31346],[-7.59156,43.31462],[-7.59035,43.31495],[-7.58833,43.31572],[-7.58648,43.31697],[-7.58468,43.31597],[-7.58287,43.31467],[-7.58074,43.31242],[-7.57964,43.30998],[-7.57925,43.30827],[-7.57846,43.30583],[-7.57596,43.30231],[-7.57461,43.30123],[-7.57318,43.30033],[-7.57033,43.29957],[-7.56828,43.29928],[-7.56406,43.29838],[-7.56648,43.29508],[-7.56692,43.29394],[-7.56727,43.29213],[-7.56784,43.29157],[-7.56999,43.29028],[-7.57139,43.28914],[-7.57401,43.28602],[-7.57499,43.28388],[-7.57582,43.28119],[-7.57636,43.2776],[-7.57578,43.27502]]]}}]}