{"type":"FeatureCollection","features":[{"type":"Feature","properties":{"id":"2801301001"},"geometry":{"type":"Polygon","coordinates":[[[-3.60252,40.03517],[-3.59806,40.03393],[-3.59795,40.03373],[-3.5982,40.03164],[-3.60292,40.03189],[-3.60252,40.03517]]]}},{"type":"Feature","properties":{"id":"2801301002"},"geometry":{"type":"Polygon","coordinates":[[[-3.59791,40.03563],[-3.5978,40.03544],[-3.59741,40.03559],[-3.59251,40.03523],[-3.59281,40.03253],[-3.5977,40.03384],[-3.598,40.03372],[-3.59806,40.03393],[-3.60011,40.03451],[-3.59989,40.03577],[-3.59791,40.03563]]]}},{"type":"Feature","properties":{"id":"2801301003"},"geometry":{"type":"Polygon","coordinates":[[[-3.59238,40.03665],[-3.5931,40.03671],[-3.59313,40.03688],[-3.59764,40.03641],[-3.59776,40.03574],[-3.59791,40.03563],[-3.59989,40.03577],[-3.60011,40.03451],[-3.60168,40.03493],[-3.60153,40.03647],[-3.60168,40.03687],[-3.59186,40.03845],[-3.59169,40.03794],[-3.59053,40.03808],[-3.59064,40.038],[-3.59056,40.03694],[-3.59103,40.03689],[-3.59113,40.03672],[-3.59238,40.03665]]]}},{"type":"Feature","properties":{"id":"2801301004"},"geometry":{"type":"Polygon","coordinates":[[[-3.59496,40.03541],[-3.59741,40.03559],[-3.5978,40.03544],[-3.59791,40.03563],[-3.59776,40.03574],[-3.59764,40.03641],[-3.59482,40.03669],[-3.59496,40.03541]]]}},{"type":"Feature","properties":{"id":"2801301005"},"geometry":{"type":"Polygon","coordinates":[[[-3.59238,40.03665],[-3.59251,40.03523],[-3.59496,40.03541],[-3.59482,40.03669],[-3.59313,40.03688],[-3.5931,40.03671],[-3.59238,40.03665]]]}},{"type":"Feature","properties":{"id":"2801301006"},"geometry":{"type":"Polygon","coordinates":[[[-3.58818,40.03489],[-3.59251,40.03523],[-3.59238,40.03665],[-3.59113,40.03672],[-3.59103,40.03689],[-3.59056,40.03694],[-3.59064,40.038],[-3.59053,40.03808],[-3.59169,40.03794],[-3.59186,40.03845],[-3.58922,40.03886],[-3.58818,40.03489]]]}},{"type":"Feature","properties":{"id":"2801301007"},"geometry":{"type":"Polygon","coordinates":[[[-3.58818,40.03489],[-3.58761,40.0327],[-3.59261,40.03228],[-3.59275,40.03199],[-3.59307,40.032],[-3.59319,40.03229],[-3.59311,40.03247],[-3.59281,40.03253],[-3.59251,40.03523],[-3.58818,40.03489]]]}},{"type":"Feature","properties":{"id":"2801301008"},"geometry":{"type":"Polygon","coordinates":[[[-3.57767,40.03477],[-3.57776,40.03459],[-3.57929,40.0341],[-3.57936,40.03416],[-3.57975,40.0341],[-3.57986,40.03419],[-3.58231,40.03372],[-3.58228,40.03358],[-3.58387,40.03352],[-3.58435,40.03328],[-3.5851,40.03309],[-3.58761,40.0327],[-3.58922,40.03886],[-3.58298,40.04004],[-3.58118,40.04018],[-3.57643,40.04096],[-3.57686,40.03958],[-3.57759,40.039],[-3.57798,40.03824],[-3.57545,40.03699],[-3.57732,40.03616],[-3.57788,40.0349],[-3.57767,40.03477]]]}},{"type":"Feature","properties":{"id":"2801301009"},"geometry":{"type":"Polygon","coordinates":[[[-3.59281,40.03253],[-3.59311,40.03247],[-3.59319,40.03223],[-3.59529,40.03203],[-3.59536,40.03153],[-3.5982,40.03164],[-3.59795,40.03373],[-3.5977,40.03384],[-3.59281,40.03253]]]}},{"type":"Feature","properties":{"id":"2801302001"},"geometry":{"type":"Polygon","coordinates":[[[-3.60054,40.03175],[-3.6009,40.0288],[-3.60328,40.02891],[-3.60292,40.03189],[-3.60054,40.03175]]]}},{"type":"Feature","properties":{"id":"2801302002"},"geometry":{"type":"Polygon","coordinates":[[[-3.60104,40.02802],[-3.59623,40.02767],[-3.59568,40.02703],[-3.59478,40.02662],[-3.59418,40.02555],[-3.59531,40.02597],[-3.59674,40.02414],[-3.5982,40.02279],[-3.59928,40.02223],[-3.59876,40.02185],[-3.59838,40.0217],[-3.59771,40.02178],[-3.59614,40.02229],[-3.59582,40.02189],[-3.59835,40.02059],[-3.60115,40.02259],[-3.60186,40.02285],[-3.60372,40.02435],[-3.60352,40.02486],[-3.60104,40.02802]]]}},{"type":"Feature","properties":{"id":"2801302003"},"geometry":{"type":"Polygon","coordinates":[[[-3.60054,40.03175],[-3.59724,40.0316],[-3.59779,40.0278],[-3.60104,40.02802],[-3.60054,40.03175]]]}},{"type":"Feature","properties":{"id":"2801302004"},"geometry":{"type":"Polygon","coordinates":[[[-3.59084,40.02626],[-3.59119,40.02582],[-3.59183,40.0253],[-3.59322,40.02447],[-3.59393,40.025],[-3.59478,40.02662],[-3.59568,40.02703],[-3.59623,40.02767],[-3.59529,40.02812],[-3.59517,40.02829],[-3.59498,40.0283],[-3.59435,40.02878],[-3.59311,40.02908],[-3.59241,40.02954],[-3.59233,40.02895],[-3.59255,40.02878],[-3.59187,40.02841],[-3.59224,40.02779],[-3.5921,40.02772],[-3.59241,40.0273],[-3.59203,40.02713],[-3.59084,40.02626]]]}},{"type":"Feature","properties":{"id":"2801302005"},"geometry":{"type":"Polygon","coordinates":[[[-3.59307,40.032],[-3.5959,40.02898],[-3.59517,40.02829],[-3.59529,40.02812],[-3.59623,40.02767],[-3.59779,40.0278],[-3.59724,40.0316],[-3.59536,40.03153],[-3.59529,40.03203],[-3.59319,40.03223],[-3.59307,40.032]]]}},{"type":"Feature","properties":{"id":"2801302006"},"geometry":{"type":"Polygon","coordinates":[[[-3.59284,40.03196],[-3.59241,40.02954],[-3.59311,40.02908],[-3.59435,40.02878],[-3.59498,40.0283],[-3.59517,40.02829],[-3.5959,40.02898],[-3.59307,40.032],[-3.59284,40.03196]]]}},{"type":"Feature","properties":{"id":"2801302007"},"geometry":{"type":"Polygon","coordinates":[[[-3.59084,40.02626],[-3.59203,40.02713],[-3.59241,40.0273],[-3.5921,40.02772],[-3.59224,40.02779],[-3.59187,40.02841],[-3.59255,40.02878],[-3.59233,40.02895],[-3.59284,40.03196],[-3.59268,40.03204],[-3.58958,40.03034],[-3.58826,40.03137],[-3.58732,40.0316],[-3.58733,40.03176],[-3.58609,40.03207],[-3.58607,40.03225],[-3.58544,40.03241],[-3.58556,40.033],[-3.58435,40.03328],[-3.58387,40.03352],[-3.58228,40.03358],[-3.58231,40.03372],[-3.57986,40.03419],[-3.57975,40.0341],[-3.57936,40.03416],[-3.57929,40.0341],[-3.57776,40.03459],[-3.57767,40.03477],[-3.57561,40.03332],[-3.57374,40.03241],[-3.57464,40.03077],[-3.57847,40.03187],[-3.58011,40.03171],[-3.58117,40.03062],[-3.58475,40.02896],[-3.587,40.02823],[-3.58819,40.02769],[-3.58865,40.02683],[-3.58748,40.02603],[-3.58886,40.0253],[-3.58974,40.02606],[-3.59084,40.02626]]]}},{"type":"Feature","properties":{"id":"2801302008"},"geometry":{"type":"Polygon","coordinates":[[[-3.59268,40.03204],[-3.59261,40.03228],[-3.58757,40.0327],[-3.58556,40.033],[-3.58544,40.03241],[-3.58607,40.03225],[-3.58609,40.03207],[-3.58733,40.03176],[-3.58732,40.0316],[-3.58826,40.03137],[-3.58958,40.03034],[-3.59268,40.03204]]]}},{"type":"Feature","properties":{"id":"2801303001"},"geometry":{"type":"Polygon","coordinates":[[[-3.60292,40.03189],[-3.60328,40.02891],[-3.60551,40.02903],[-3.60521,40.03199],[-3.60292,40.03189]]]}},{"type":"Feature","properties":{"id":"2801303002"},"geometry":{"type":"Polygon","coordinates":[[[-3.60551,40.02903],[-3.6009,40.0288],[-3.60104,40.02802],[-3.60352,40.02486],[-3.60372,40.02435],[-3.60186,40.02285],[-3.60115,40.02259],[-3.60016,40.0219],[-3.60096,40.02201],[-3.60132,40.02197],[-3.6022,40.02162],[-3.60277,40.02129],[-3.60357,40.02034],[-3.60379,40.02025],[-3.60461,40.02028],[-3.60475,40.02087],[-3.60507,40.02104],[-3.60496,40.02128],[-3.60479,40.02131],[-3.6047,40.02217],[-3.60478,40.02307],[-3.60571,40.02557],[-3.60574,40.027],[-3.60561,40.0288],[-3.60551,40.02903]]]}},{"type":"Feature","properties":{"id":"2801303003"},"geometry":{"type":"Polygon","coordinates":[[[-3.60521,40.03199],[-3.60531,40.03052],[-3.60561,40.0288],[-3.60745,40.02887],[-3.60833,40.02843],[-3.60914,40.02838],[-3.60876,40.03216],[-3.60521,40.03199]]]}},{"type":"Feature","properties":{"id":"2801303004"},"geometry":{"type":"Polygon","coordinates":[[[-3.60561,40.0288],[-3.60574,40.027],[-3.61207,40.02573],[-3.61242,40.02821],[-3.60844,40.02842],[-3.60803,40.02854],[-3.60769,40.0288],[-3.60745,40.02887],[-3.60561,40.0288]]]}},{"type":"Feature","properties":{"id":"2801303005"},"geometry":{"type":"Polygon","coordinates":[[[-3.60876,40.03216],[-3.60914,40.02838],[-3.61242,40.02821],[-3.61254,40.02862],[-3.61363,40.0295],[-3.61023,40.03226],[-3.60876,40.03216]]]}},{"type":"Feature","properties":{"id":"2801303006"},"geometry":{"type":"Polygon","coordinates":[[[-3.61363,40.0295],[-3.61254,40.02862],[-3.61207,40.02573],[-3.61432,40.02529],[-3.61445,40.02631],[-3.61605,40.02614],[-3.61613,40.027],[-3.61696,40.02693],[-3.61715,40.02796],[-3.6207,40.02778],[-3.62086,40.02748],[-3.62199,40.02742],[-3.62282,40.02713],[-3.6235,40.02653],[-3.62247,40.02791],[-3.61913,40.0317],[-3.6188,40.03172],[-3.61873,40.03158],[-3.61508,40.03041],[-3.61363,40.0295]]]}},{"type":"Feature","properties":{"id":"2801303007"},"geometry":{"type":"Polygon","coordinates":[[[-3.61432,40.02529],[-3.61716,40.02475],[-3.61773,40.02794],[-3.61715,40.02796],[-3.61696,40.02693],[-3.61613,40.027],[-3.61605,40.02614],[-3.61445,40.02631],[-3.61432,40.02529]]]}},{"type":"Feature","properties":{"id":"2801303008"},"geometry":{"type":"Polygon","coordinates":[[[-3.60475,40.02087],[-3.60403,40.01875],[-3.60651,40.01912],[-3.60917,40.01937],[-3.61123,40.01925],[-3.61695,40.01868],[-3.61904,40.01896],[-3.6208,40.01954],[-3.61861,40.02016],[-3.61862,40.02039],[-3.61883,40.02056],[-3.61861,40.02078],[-3.61901,40.02188],[-3.61626,40.02265],[-3.61634,40.02288],[-3.61443,40.02326],[-3.61517,40.02514],[-3.60574,40.027],[-3.60571,40.02557],[-3.60478,40.02307],[-3.6047,40.02257],[-3.60479,40.02131],[-3.60496,40.02128],[-3.60507,40.02104],[-3.60475,40.02087]]]}},{"type":"Feature","properties":{"id":"2801303009"},"geometry":{"type":"Polygon","coordinates":[[[-3.6208,40.01954],[-3.62256,40.02079],[-3.62336,40.02172],[-3.62379,40.02251],[-3.62407,40.0234],[-3.61517,40.02514],[-3.61443,40.02326],[-3.61634,40.02288],[-3.61626,40.02265],[-3.61901,40.02188],[-3.61861,40.02078],[-3.61883,40.02056],[-3.61862,40.02039],[-3.61861,40.02016],[-3.6208,40.01954]]]}},{"type":"Feature","properties":{"id":"2801303010"},"geometry":{"type":"Polygon","coordinates":[[[-3.61716,40.02475],[-3.62407,40.0234],[-3.62417,40.02394],[-3.62407,40.02492],[-3.6239,40.02565],[-3.6235,40.02653],[-3.62282,40.02713],[-3.62199,40.02742],[-3.62086,40.02748],[-3.6207,40.02778],[-3.61773,40.02794],[-3.61716,40.02475]]]}},{"type":"Feature","properties":{"id":"2801304001"},"geometry":{"type":"Polygon","coordinates":[[[-3.60262,40.0343],[-3.60292,40.03189],[-3.60876,40.03216],[-3.60861,40.03378],[-3.60515,40.03359],[-3.6051,40.03446],[-3.60262,40.0343]]]}},{"type":"Feature","properties":{"id":"2801304002"},"geometry":{"type":"Polygon","coordinates":[[[-3.60861,40.03378],[-3.60876,40.03216],[-3.61023,40.03226],[-3.61363,40.0295],[-3.61508,40.03041],[-3.61873,40.03158],[-3.6188,40.03172],[-3.61913,40.0317],[-3.61884,40.03235],[-3.61039,40.03557],[-3.60993,40.0355],[-3.60969,40.03555],[-3.60951,40.03582],[-3.60827,40.03575],[-3.60861,40.03378]]]}},{"type":"Feature","properties":{"id":"2801304003"},"geometry":{"type":"Polygon","coordinates":[[[-3.55759,40.12524],[-3.55995,40.12111],[-3.5638,40.11957],[-3.56503,40.11816],[-3.56859,40.1158],[-3.56986,40.11515],[-3.57241,40.11497],[-3.57483,40.11416],[-3.57567,40.1133],[-3.57662,40.11104],[-3.57717,40.10825],[-3.57839,40.10697],[-3.57931,40.10313],[-3.5806,40.10225],[-3.58093,40.09898],[-3.58355,40.09561],[-3.58534,40.0926],[-3.58535,40.0908],[-3.58432,40.08818],[-3.58591,40.08445],[-3.58749,40.07882],[-3.58924,40.07678],[-3.59099,40.07285],[-3.59116,40.07142],[-3.5909,40.06955],[-3.59128,40.0685],[-3.59217,40.06765],[-3.59405,40.06703],[-3.59401,40.06688],[-3.59427,40.0672],[-3.59444,40.06823],[-3.59573,40.06827],[-3.59624,40.06818],[-3.59859,40.0674],[-3.59906,40.06746],[-3.59982,40.06799],[-3.60008,40.06797],[-3.60182,40.06735],[-3.60309,40.0671],[-3.60439,40.06633],[-3.60713,40.06555],[-3.61025,40.06664],[-3.61164,40.06155],[-3.6133,40.05455],[-3.61105,40.05307],[-3.61065,40.05304],[-3.60934,40.05267],[-3.60776,40.05237],[-3.60683,40.05244],[-3.60558,40.05272],[-3.60459,40.05274],[-3.60289,40.05298],[-3.60092,40.053],[-3.59906,40.05316],[-3.5968,40.05371],[-3.59636,40.05365],[-3.59471,40.05308],[-3.59354,40.05304],[-3.59098,40.05318],[-3.58918,40.05363],[-3.58761,40.05385],[-3.58733,40.05536],[-3.58703,40.05597],[-3.58722,40.05625],[-3.58781,40.05661],[-3.58957,40.05748],[-3.59025,40.05817],[-3.59074,40.05967],[-3.59059,40.05974],[-3.58945,40.05817],[-3.58758,40.05788],[-3.58577,40.05817],[-3.58332,40.05876],[-3.58116,40.05948],[-3.58,40.0605],[-3.57607,40.06184],[-3.57023,40.06434],[-3.5666,40.06533],[-3.56411,40.06562],[-3.56268,40.06615],[-3.56188,40.06632],[-3.56049,40.06652],[-3.55672,40.06653],[-3.5414,40.06802],[-3.53552,40.0682],[-3.53449,40.05766],[-3.53383,40.05204],[-3.54009,40.05219],[-3.54598,40.05059],[-3.54417,40.04927],[-3.54107,40.05027],[-3.54035,40.05039],[-3.53933,40.05042],[-3.5381,40.05018],[-3.53686,40.04931],[-3.536,40.04906],[-3.53546,40.04916],[-3.53505,40.0494],[-3.53437,40.05018],[-3.53381,40.05112],[-3.53294,40.05175],[-3.53177,40.05192],[-3.53003,40.05173],[-3.529,40.05172],[-3.52872,40.05164],[-3.52849,40.05143],[-3.52838,40.0499],[-3.52796,40.04868],[-3.52703,40.04777],[-3.5264,40.04759],[-3.52582,40.04778],[-3.52532,40.04826],[-3.52507,40.04873],[-3.52496,40.04962],[-3.5245,40.05025],[-3.52392,40.05071],[-3.52297,40.05126],[-3.52088,40.05218],[-3.51911,40.05237],[-3.51857,40.0521],[-3.51836,40.0518],[-3.51838,40.05157],[-3.51885,40.05078],[-3.51887,40.05025],[-3.51871,40.04956],[-3.51891,40.04876],[-3.51844,40.0478],[-3.51824,40.04709],[-3.518,40.04684],[-3.51734,40.04673],[-3.51665,40.04684],[-3.51608,40.04743],[-3.51542,40.04847],[-3.51511,40.04869],[-3.51456,40.04873],[-3.51399,40.04838],[-3.5137,40.04788],[-3.51354,40.04665],[-3.51378,40.04542],[-3.514,40.04491],[-3.5142,40.04473],[-3.51469,40.0446],[-3.51502,40.04464],[-3.51568,40.04488],[-3.51635,40.04487],[-3.5172,40.04464],[-3.51753,40.04431],[-3.51752,40.04382],[-3.51728,40.04353],[-3.51575,40.04325],[-3.5152,40.04328],[-3.51602,40.04242],[-3.51644,40.04141],[-3.51729,40.04012],[-3.51707,40.03971],[-3.51689,40.03719],[-3.52004,40.03085],[-3.52116,40.02837],[-3.522,40.02601],[-3.52027,40.02256],[-3.51969,40.02107],[-3.51992,40.02099],[-3.51988,40.02087],[-3.52092,40.02037],[-3.52261,40.01987],[-3.52388,40.01964],[-3.52715,40.01867],[-3.53058,40.0181],[-3.54975,40.01818],[-3.55065,40.0176],[-3.5511,40.01812],[-3.57258,40.0159],[-3.57469,40.01561],[-3.57483,40.01434],[-3.57523,40.0137],[-3.5833,40.01271],[-3.58512,40.01311],[-3.58753,40.01321],[-3.59,40.01317],[-3.59101,40.01212],[-3.59193,40.00915],[-3.59312,40.00611],[-3.59331,40.00485],[-3.5946,40.0017],[-3.59533,40.00114],[-3.59688,40.00048],[-3.60222,40.00008],[-3.60802,39.99819],[-3.60907,39.99814],[-3.61034,39.99824],[-3.61111,39.99774],[-3.61302,39.99615],[-3.6141,39.99506],[-3.61562,39.99395],[-3.61665,39.99342],[-3.61799,39.99292],[-3.61895,39.99226],[-3.62109,39.99162],[-3.62247,39.99104],[-3.62382,39.99165],[-3.62572,39.99204],[-3.6268,39.99253],[-3.62926,39.99263],[-3.63081,39.99168],[-3.63196,39.99148],[-3.63303,39.99117],[-3.63417,39.98985],[-3.63528,39.98898],[-3.63795,39.98835],[-3.63783,39.98706],[-3.63696,39.98479],[-3.6362,39.9838],[-3.6352,39.98126],[-3.63497,39.9789],[-3.63423,39.97767],[-3.63351,39.97488],[-3.63359,39.97345],[-3.63142,39.9696],[-3.63103,39.96869],[-3.63395,39.96899],[-3.63352,39.96723],[-3.6345,39.96589],[-3.6367,39.96558],[-3.64634,39.96597],[-3.65353,39.96601],[-3.65905,39.9659],[-3.66012,39.96607],[-3.6616,39.96582],[-3.66264,39.96549],[-3.66583,39.96354],[-3.66838,39.96285],[-3.674,39.96152],[-3.67765,39.96077],[-3.68339,39.95546],[-3.69241,39.95032],[-3.69759,39.94672],[-3.6989,39.9477],[-3.70387,39.9496],[-3.7057,39.95085],[-3.70888,39.95354],[-3.71111,39.95471],[-3.71327,39.9534],[-3.7169,39.95082],[-3.71941,39.9498],[-3.72179,39.94857],[-3.7274,39.94606],[-3.73058,39.94442],[-3.73474,39.94316],[-3.74387,39.9408],[-3.74486,39.93994],[-3.74569,39.93558],[-3.74641,39.933],[-3.74846,39.92942],[-3.75405,39.9242],[-3.75527,39.92249],[-3.75658,39.92111],[-3.75937,39.91907],[-3.77,39.91464],[-3.77133,39.91532],[-3.77204,39.91467],[-3.77478,39.91255],[-3.7788,39.91085],[-3.78218,39.90734],[-3.78487,39.90426],[-3.78978,39.89912],[-3.79581,39.89497],[-3.80058,39.89087],[-3.80642,39.88739],[-3.80446,39.8848],[-3.81205,39.8858],[-3.81484,39.8858],[-3.81962,39.88914],[-3.8223,39.89057],[-3.82511,39.89234],[-3.82972,39.89727],[-3.83455,39.89996],[-3.84002,39.90155],[-3.84488,39.90263],[-3.84798,39.9029],[-3.85259,39.90312],[-3.85671,39.90305],[-3.85977,39.90253],[-3.86544,39.90359],[-3.86835,39.90489],[-3.86893,39.90527],[-3.86879,39.90629],[-3.86969,39.90766],[-3.87105,39.90799],[-3.87248,39.90821],[-3.8735,39.90866],[-3.87252,39.90951],[-3.87391,39.90969],[-3.87539,39.91073],[-3.87448,39.9116],[-3.87353,39.91303],[-3.87313,39.91337],[-3.87132,39.91432],[-3.86948,39.91509],[-3.86889,39.91546],[-3.86753,39.91681],[-3.86745,39.91704],[-3.86768,39.91795],[-3.86854,39.91947],[-3.87119,39.92234],[-3.87344,39.92459],[-3.87548,39.9269],[-3.87566,39.92733],[-3.87569,39.92773],[-3.87519,39.92874],[-3.87439,39.92957],[-3.87392,39.92982],[-3.87324,39.93004],[-3.87127,39.93027],[-3.8697,39.93129],[-3.86744,39.93212],[-3.86689,39.9313],[-3.86396,39.93331],[-3.85662,39.93717],[-3.85633,39.93744],[-3.85428,39.93855],[-3.85316,39.93934],[-3.85228,39.93951],[-3.84969,39.93955],[-3.84819,39.93981],[-3.8446,39.94085],[-3.84188,39.94148],[-3.83936,39.9424],[-3.83902,39.9424],[-3.83858,39.94227],[-3.83819,39.94199],[-3.83762,39.94106],[-3.83745,39.93894],[-3.83704,39.93607],[-3.83709,39.93332],[-3.83732,39.93105],[-3.83708,39.93022],[-3.83639,39.92979],[-3.83544,39.92953],[-3.83415,39.92947],[-3.83268,39.92975],[-3.83105,39.93056],[-3.83023,39.93129],[-3.8299,39.93192],[-3.8297,39.93278],[-3.82965,39.93379],[-3.82928,39.93538],[-3.82948,39.93765],[-3.82937,39.93877],[-3.82887,39.94086],[-3.8285,39.94179],[-3.82746,39.94308],[-3.82579,39.94551],[-3.82477,39.94676],[-3.82436,39.94694],[-3.82382,39.94697],[-3.82199,39.94656],[-3.82039,39.94632],[-3.81894,39.94647],[-3.81833,39.9467],[-3.8159,39.94997],[-3.81523,39.95074],[-3.81442,39.95209],[-3.81396,39.95251],[-3.8132,39.95301],[-3.81218,39.95348],[-3.80952,39.95446],[-3.80819,39.95479],[-3.80573,39.95477],[-3.8048,39.95456],[-3.80411,39.95423],[-3.8035,39.95385],[-3.80267,39.95308],[-3.80234,39.95268],[-3.80206,39.95208],[-3.80239,39.94837],[-3.80234,39.94784],[-3.80216,39.94731],[-3.80181,39.94679],[-3.80107,39.94646],[-3.80047,39.94648],[-3.79865,39.94712],[-3.7966,39.94831],[-3.79623,39.9484],[-3.79282,39.94741],[-3.79142,39.94683],[-3.79072,39.94627],[-3.78955,39.94612],[-3.78701,39.94652],[-3.78619,39.94717],[-3.78566,39.9494],[-3.78591,39.95044],[-3.78628,39.95127],[-3.78775,39.95237],[-3.78862,39.95321],[-3.78866,39.95417],[-3.78793,39.95483],[-3.78637,39.95531],[-3.78321,39.95594],[-3.77981,39.95683],[-3.77599,39.95839],[-3.77445,39.95887],[-3.77041,39.95866],[-3.76986,39.95877],[-3.7691,39.95917],[-3.7684,39.96],[-3.76733,39.96084],[-3.76608,39.9624],[-3.76484,39.96639],[-3.76434,39.96619],[-3.7636,39.96752],[-3.7632,39.96739],[-3.76313,39.96715],[-3.75797,39.95832],[-3.75937,39.95747],[-3.76035,39.95697],[-3.76108,39.9567],[-3.76412,39.95617],[-3.76475,39.9559],[-3.76557,39.95583],[-3.76773,39.95542],[-3.76913,39.95494],[-3.77017,39.95403],[-3.7707,39.95295],[-3.77083,39.95177],[-3.77049,39.95055],[-3.76948,39.94903],[-3.76896,39.94858],[-3.76779,39.94785],[-3.76641,39.94727],[-3.76563,39.9472],[-3.76413,39.94736],[-3.7627,39.94781],[-3.76051,39.94906],[-3.76,39.94925],[-3.75572,39.95001],[-3.75437,39.95044],[-3.75315,39.95115],[-3.75183,39.95225],[-3.75148,39.95279],[-3.75112,39.95453],[-3.75116,39.95658],[-3.75142,39.9579],[-3.75271,39.95913],[-3.75417,39.96144],[-3.75715,39.96571],[-3.75878,39.96814],[-3.75882,39.96889],[-3.75564,39.96829],[-3.75402,39.96782],[-3.75308,39.96739],[-3.75217,39.96675],[-3.75171,39.96607],[-3.75125,39.96474],[-3.7508,39.96417],[-3.75005,39.96346],[-3.74938,39.96305],[-3.74792,39.96264],[-3.7462,39.96247],[-3.74084,39.96155],[-3.73945,39.96149],[-3.73436,39.96247],[-3.73294,39.96285],[-3.7317,39.9639],[-3.72949,39.96464],[-3.72764,39.96554],[-3.72608,39.9665],[-3.72511,39.9672],[-3.72447,39.96834],[-3.72427,39.96925],[-3.72422,39.97024],[-3.7246,39.97126],[-3.7255,39.97169],[-3.72666,39.97201],[-3.72888,39.97224],[-3.73133,39.96941],[-3.73716,39.96844],[-3.73802,39.96874],[-3.74123,39.97076],[-3.74339,39.97399],[-3.74377,39.97489],[-3.7441,39.97613],[-3.74478,39.97721],[-3.74578,39.97812],[-3.74664,39.97932],[-3.74674,39.98034],[-3.74621,39.98109],[-3.74514,39.98188],[-3.74467,39.98211],[-3.74385,39.98238],[-3.74261,39.98254],[-3.74142,39.98244],[-3.73929,39.98173],[-3.73807,39.98083],[-3.73729,39.97911],[-3.73644,39.97679],[-3.73573,39.97602],[-3.73494,39.97578],[-3.73481,39.97709],[-3.73438,39.97829],[-3.73372,39.97939],[-3.73466,39.97998],[-3.73495,39.98029],[-3.73519,39.98063],[-3.7358,39.98209],[-3.73588,39.98248],[-3.73585,39.98396],[-3.7355,39.98463],[-3.73441,39.98574],[-3.73322,39.98648],[-3.73248,39.98671],[-3.73075,39.98692],[-3.72968,39.98683],[-3.72857,39.98938],[-3.72738,39.98973],[-3.72624,39.98939],[-3.72523,39.98878],[-3.72381,39.98742],[-3.72291,39.98776],[-3.72424,39.99496],[-3.72421,39.9967],[-3.72396,39.9976],[-3.7224,40.00042],[-3.72175,40.00111],[-3.72075,40.00144],[-3.71852,40.00201],[-3.71645,40.00291],[-3.71482,40.00387],[-3.71386,40.00476],[-3.71283,40.0065],[-3.71227,40.00889],[-3.7117,40.00992],[-3.71041,40.01117],[-3.7054,40.01542],[-3.70346,40.01641],[-3.70265,40.01697],[-3.70035,40.0189],[-3.69931,40.01956],[-3.69758,40.02043],[-3.6964,40.02083],[-3.69555,40.02094],[-3.69516,40.02087],[-3.6943,40.02091],[-3.69193,40.02128],[-3.68703,40.02166],[-3.68652,40.02154],[-3.68615,40.02134],[-3.68609,40.02104],[-3.68624,40.01919],[-3.68601,40.01868],[-3.68564,40.01823],[-3.68504,40.01777],[-3.68238,40.01634],[-3.68143,40.01599],[-3.6806,40.01578],[-3.67961,40.0161],[-3.67915,40.0164],[-3.67887,40.01679],[-3.6773,40.02004],[-3.67673,40.02098],[-3.67592,40.02185],[-3.67412,40.02311],[-3.67245,40.02409],[-3.6707,40.02497],[-3.66974,40.0257],[-3.66878,40.02658],[-3.66836,40.02711],[-3.66776,40.02809],[-3.66816,40.03063],[-3.66824,40.03198],[-3.66816,40.03279],[-3.66797,40.0334],[-3.66752,40.03407],[-3.66647,40.03504],[-3.66349,40.03665],[-3.66279,40.03688],[-3.66176,40.03708],[-3.66059,40.03718],[-3.65938,40.03715],[-3.65837,40.03699],[-3.65734,40.0366],[-3.65632,40.03533],[-3.65601,40.03463],[-3.65552,40.03288],[-3.65533,40.03263],[-3.65417,40.03205],[-3.65215,40.03164],[-3.65144,40.03164],[-3.65064,40.03176],[-3.65004,40.03196],[-3.64965,40.03219],[-3.64925,40.03259],[-3.64895,40.03358],[-3.64888,40.03456],[-3.6493,40.03682],[-3.64924,40.03881],[-3.64902,40.0394],[-3.64837,40.04061],[-3.64787,40.04119],[-3.64728,40.04162],[-3.64625,40.04196],[-3.64563,40.04202],[-3.64514,40.04196],[-3.64442,40.04181],[-3.64308,40.0411],[-3.64127,40.0405],[-3.64039,40.04027],[-3.63931,40.04022],[-3.63834,40.04033],[-3.63675,40.04103],[-3.63626,40.04144],[-3.63555,40.0424],[-3.63526,40.04313],[-3.63539,40.04346],[-3.63572,40.04372],[-3.63829,40.04518],[-3.6391,40.04585],[-3.63972,40.04675],[-3.63993,40.04724],[-3.64005,40.04854],[-3.63988,40.04965],[-3.63944,40.05036],[-3.63911,40.05059],[-3.63842,40.05083],[-3.63631,40.05109],[-3.63509,40.05149],[-3.63352,40.05231],[-3.63108,40.05375],[-3.63015,40.05388],[-3.6264,40.05329],[-3.62512,40.05339],[-3.62336,40.05397],[-3.62193,40.0548],[-3.62162,40.05515],[-3.62121,40.05628],[-3.62068,40.05633],[-3.62013,40.05701],[-3.62006,40.05801],[-3.62151,40.05874],[-3.62428,40.06062],[-3.62365,40.06132],[-3.6224,40.06393],[-3.62145,40.06446],[-3.62021,40.06483],[-3.61915,40.06534],[-3.61823,40.06595],[-3.6175,40.06663],[-3.61723,40.06728],[-3.61709,40.06809],[-3.61726,40.06868],[-3.61758,40.06932],[-3.61805,40.06988],[-3.61881,40.0704],[-3.61989,40.07098],[-3.62354,40.07249],[-3.62564,40.0735],[-3.6279,40.07514],[-3.62824,40.07546],[-3.62872,40.07645],[-3.62899,40.07758],[-3.62895,40.07833],[-3.62499,40.08072],[-3.62332,40.08121],[-3.61924,40.0799],[-3.61696,40.08041],[-3.61152,40.08226],[-3.6107,40.08194],[-3.60953,40.08348],[-3.6081,40.08622],[-3.60766,40.08768],[-3.60682,40.08888],[-3.60497,40.09109],[-3.60434,40.09219],[-3.6039,40.09352],[-3.60405,40.09402],[-3.60488,40.09527],[-3.60582,40.09556],[-3.60641,40.09554],[-3.61009,40.09441],[-3.61075,40.09436],[-3.6112,40.09451],[-3.61325,40.09679],[-3.6139,40.09778],[-3.61428,40.09875],[-3.61436,40.09953],[-3.61382,40.10073],[-3.61325,40.10127],[-3.61037,40.10293],[-3.60968,40.1034],[-3.60932,40.10382],[-3.60649,40.10899],[-3.60671,40.10921],[-3.60527,40.10927],[-3.60425,40.10915],[-3.60308,40.10886],[-3.60237,40.10882],[-3.6009,40.10894],[-3.6001,40.10944],[-3.59874,40.11058],[-3.59732,40.11229],[-3.59708,40.11323],[-3.59706,40.11379],[-3.59744,40.11495],[-3.59967,40.11738],[-3.60054,40.11885],[-3.60065,40.11935],[-3.60062,40.12053],[-3.60045,40.12103],[-3.60017,40.12132],[-3.59878,40.12221],[-3.59828,40.12233],[-3.59617,40.12232],[-3.59543,40.12241],[-3.59486,40.12257],[-3.5937,40.12308],[-3.5933,40.12341],[-3.59298,40.12388],[-3.59239,40.1259],[-3.59198,40.12666],[-3.59156,40.12701],[-3.5905,40.12758],[-3.58926,40.12797],[-3.58856,40.12802],[-3.58573,40.12791],[-3.58455,40.12816],[-3.58374,40.12851],[-3.58188,40.12877],[-3.58159,40.12875],[-3.58112,40.12857],[-3.58092,40.12878],[-3.58115,40.12914],[-3.58082,40.1294],[-3.58131,40.12951],[-3.58138,40.12963],[-3.5808,40.13037],[-3.58051,40.13033],[-3.58007,40.1299],[-3.57954,40.12988],[-3.57963,40.12955],[-3.57947,40.12944],[-3.57932,40.12953],[-3.57909,40.13006],[-3.57912,40.13053],[-3.5789,40.13062],[-3.57847,40.13062],[-3.57832,40.13052],[-3.57836,40.13037],[-3.57865,40.13014],[-3.57855,40.13002],[-3.57759,40.13021],[-3.57897,40.12776],[-3.57883,40.12577],[-3.57501,40.12165],[-3.57356,40.12223],[-3.57079,40.1238],[-3.56768,40.1244],[-3.56161,40.12586],[-3.55931,40.12557],[-3.55759,40.12524]],[[-3.58922,40.03886],[-3.60168,40.03687],[-3.60153,40.03647],[-3.60168,40.03493],[-3.60252,40.03517],[-3.60262,40.0343],[-3.6051,40.03446],[-3.60515,40.03359],[-3.60861,40.03378],[-3.60827,40.03575],[-3.60951,40.03582],[-3.60969,40.03555],[-3.60993,40.0355],[-3.61039,40.03557],[-3.61884,40.03235],[-3.61913,40.0317],[-3.62096,40.02968],[-3.62337,40.02679],[-3.6239,40.02565],[-3.62417,40.02414],[-3.62402,40.02317],[-3.62336,40.02172],[-3.62256,40.02079],[-3.62081,40.01954],[-3.61904,40.01896],[-3.61695,40.01868],[-3.61123,40.01925],[-3.60917,40.01937],[-3.60651,40.01912],[-3.60403,40.01875],[-3.60458,40.02028],[-3.60379,40.02025],[-3.60357,40.02034],[-3.60277,40.02129],[-3.6022,40.02162],[-3.60132,40.02197],[-3.60096,40.02201],[-3.60016,40.0219],[-3.59835,40.02059],[-3.59582,40.02189],[-3.59614,40.02229],[-3.59771,40.02178],[-3.59838,40.0217],[-3.59876,40.02185],[-3.59928,40.02223],[-3.5982,40.02279],[-3.59674,40.02414],[-3.59531,40.02597],[-3.59418,40.02555],[-3.59393,40.025],[-3.59322,40.02447],[-3.59183,40.0253],[-3.59119,40.02582],[-3.59084,40.02626],[-3.58974,40.02606],[-3.58886,40.0253],[-3.58748,40.02603],[-3.58865,40.02683],[-3.58819,40.02769],[-3.587,40.02823],[-3.58475,40.02896],[-3.58117,40.03062],[-3.58011,40.03171],[-3.57847,40.03187],[-3.57464,40.03077],[-3.57374,40.03241],[-3.57561,40.03332],[-3.57788,40.0349],[-3.57732,40.03616],[-3.57545,40.03699],[-3.57798,40.03824],[-3.57759,40.039],[-3.57686,40.03958],[-3.57643,40.04096],[-3.58118,40.04018],[-3.58298,40.04004],[-3.58922,40.03886]]]}},{"type":"Feature","properties":{"id":"2801304004"},"geometry":{"type":"Polygon","coordinates":[[[-3.59401,40.06688],[-3.59354,40.06498],[-3.59387,40.06495],[-3.59453,40.06521],[-3.59556,40.0653],[-3.59625,40.06547],[-3.59664,40.06487],[-3.59706,40.0638],[-3.59696,40.06328],[-3.59638,40.06229],[-3.60076,40.06077],[-3.60108,40.05966],[-3.6011,40.05907],[-3.60656,40.0572],[-3.60578,40.05585],[-3.60858,40.05489],[-3.6089,40.05467],[-3.61105,40.05528],[-3.6131,40.05558],[-3.61025,40.06664],[-3.60713,40.06555],[-3.60439,40.06633],[-3.60309,40.0671],[-3.60182,40.06735],[-3.60036,40.06792],[-3.59982,40.06799],[-3.59906,40.06746],[-3.59859,40.0674],[-3.59685,40.06803],[-3.59573,40.06827],[-3.59444,40.06823],[-3.59427,40.0672],[-3.59401,40.06688]]]}},{"type":"Feature","properties":{"id":"2801304005"},"geometry":{"type":"Polygon","coordinates":[[[-3.58921,40.05731],[-3.58722,40.05625],[-3.58703,40.05597],[-3.58733,40.05536],[-3.58761,40.05385],[-3.58918,40.05363],[-3.59098,40.05318],[-3.59354,40.05304],[-3.59471,40.05308],[-3.59636,40.05365],[-3.5968,40.05371],[-3.59906,40.05316],[-3.60092,40.053],[-3.60289,40.05298],[-3.60459,40.05274],[-3.60558,40.05272],[-3.60683,40.05244],[-3.60776,40.05237],[-3.60934,40.05267],[-3.61065,40.05304],[-3.61105,40.05307],[-3.6133,40.05455],[-3.6131,40.05558],[-3.61105,40.05528],[-3.6089,40.05467],[-3.60858,40.05489],[-3.60578,40.05585],[-3.60656,40.0572],[-3.6011,40.05907],[-3.60108,40.05966],[-3.60076,40.06077],[-3.59946,40.06119],[-3.5969,40.05672],[-3.59069,40.05625],[-3.58914,40.05697],[-3.58921,40.05731]]]}},{"type":"Feature","properties":{"id":"2801304006"},"geometry":{"type":"Polygon","coordinates":[[[-3.58921,40.05731],[-3.58914,40.05697],[-3.59069,40.05625],[-3.5969,40.05672],[-3.59946,40.06119],[-3.59638,40.06229],[-3.59696,40.06328],[-3.59706,40.0638],[-3.59664,40.06487],[-3.59625,40.06547],[-3.59556,40.0653],[-3.59453,40.06521],[-3.59387,40.06495],[-3.59354,40.06498],[-3.59227,40.06205],[-3.59059,40.05974],[-3.59074,40.05967],[-3.59025,40.05817],[-3.58969,40.05758],[-3.58921,40.05731]]]}}]}