{"type":"FeatureCollection","features":[{"type":"Feature","properties":{"id":"2802301001"},"geometry":{"type":"Polygon","coordinates":[[[-3.89368,40.71145],[-3.89503,40.7099],[-3.8969,40.70823],[-3.89803,40.70796],[-3.89897,40.70794],[-3.8995,40.70724],[-3.90117,40.70582],[-3.90225,40.70515],[-3.9026,40.70511],[-3.90509,40.70559],[-3.90567,40.70521],[-3.9063,40.7045],[-3.90699,40.70435],[-3.90796,40.70362],[-3.90962,40.70284],[-3.91029,40.70234],[-3.91038,40.70177],[-3.91051,40.70164],[-3.91243,40.70249],[-3.91449,40.70383],[-3.91752,40.70554],[-3.92056,40.70678],[-3.92416,40.70764],[-3.9267,40.70876],[-3.92992,40.71067],[-3.93325,40.71299],[-3.93453,40.71367],[-3.93621,40.71432],[-3.93709,40.71506],[-3.93678,40.71541],[-3.93641,40.71544],[-3.93606,40.7158],[-3.93639,40.71655],[-3.93425,40.72229],[-3.93306,40.72488],[-3.93427,40.7263],[-3.93302,40.72545],[-3.93088,40.72671],[-3.92917,40.72756],[-3.92677,40.72911],[-3.92522,40.72988],[-3.92501,40.73016],[-3.92482,40.7317],[-3.9242,40.73428],[-3.92296,40.73696],[-3.92172,40.73889],[-3.92048,40.74046],[-3.91866,40.74227],[-3.91628,40.74142],[-3.9147,40.7415],[-3.91224,40.74035],[-3.9119,40.73983],[-3.90663,40.73867],[-3.90546,40.73653],[-3.90484,40.73492],[-3.90346,40.73208],[-3.90094,40.72989],[-3.90006,40.72818],[-3.89975,40.72647],[-3.89864,40.72345],[-3.89838,40.72167],[-3.89749,40.71865],[-3.89323,40.71495],[-3.89368,40.71145]]]}},{"type":"Feature","properties":{"id":"2802301002"},"geometry":{"type":"Polygon","coordinates":[[[-3.93709,40.71506],[-3.93621,40.71432],[-3.93453,40.71367],[-3.93325,40.71299],[-3.92992,40.71067],[-3.9267,40.70876],[-3.92416,40.70764],[-3.92056,40.70678],[-3.91823,40.70584],[-3.91943,40.70527],[-3.92196,40.70304],[-3.92586,40.70167],[-3.92751,40.70144],[-3.92836,40.70121],[-3.93054,40.70006],[-3.93095,40.69975],[-3.93102,40.69929],[-3.93137,40.69924],[-3.93176,40.69877],[-3.93215,40.69859],[-3.93361,40.69803],[-3.93434,40.69791],[-3.93536,40.6975],[-3.93774,40.697],[-3.93793,40.69658],[-3.93936,40.69489],[-3.94419,40.69238],[-3.94661,40.69033],[-3.94928,40.68929],[-3.94954,40.68945],[-3.95183,40.69183],[-3.95245,40.69301],[-3.95239,40.69871],[-3.95289,40.70029],[-3.95182,40.70155],[-3.95165,40.70233],[-3.95036,40.70315],[-3.94841,40.70504],[-3.94541,40.70819],[-3.94126,40.71156],[-3.94072,40.71255],[-3.93829,40.71392],[-3.93709,40.71506]]]}},{"type":"Feature","properties":{"id":"2802301003"},"geometry":{"type":"Polygon","coordinates":[[[-3.91866,40.74227],[-3.92048,40.74046],[-3.92172,40.73889],[-3.92296,40.73696],[-3.9242,40.73428],[-3.92482,40.7317],[-3.92501,40.73016],[-3.92522,40.72988],[-3.92677,40.72911],[-3.92917,40.72756],[-3.93088,40.72671],[-3.93302,40.72545],[-3.93425,40.72631],[-3.93556,40.72583],[-3.93632,40.72645],[-3.93737,40.72706],[-3.93792,40.72724],[-3.93847,40.72714],[-3.93857,40.72712],[-3.93854,40.72699],[-3.93905,40.72687],[-3.95155,40.72168],[-3.95156,40.72176],[-3.95121,40.72196],[-3.95351,40.72314],[-3.95461,40.72525],[-3.95829,40.72917],[-3.95775,40.73095],[-3.95932,40.73403],[-3.95959,40.73547],[-3.95962,40.73692],[-3.96047,40.74146],[-3.9606,40.74587],[-3.96117,40.75081],[-3.96017,40.75445],[-3.96065,40.75842],[-3.96062,40.75986],[-3.96279,40.76508],[-3.96858,40.76713],[-3.96866,40.76746],[-3.96809,40.76798],[-3.96518,40.76837],[-3.95915,40.76545],[-3.95397,40.76453],[-3.95161,40.76367],[-3.9502,40.76136],[-3.94672,40.75856],[-3.94209,40.75526],[-3.93866,40.75425],[-3.9335,40.7524],[-3.9288,40.74856],[-3.92514,40.74669],[-3.92261,40.74489],[-3.9207,40.74302],[-3.91866,40.74227]]]}},{"type":"Feature","properties":{"id":"2802301004"},"geometry":{"type":"MultiPolygon","coordinates":[[[[-3.89578,40.68093],[-3.8961,40.68025],[-3.89549,40.68036],[-3.895,40.68066],[-3.89472,40.6804],[-3.89453,40.68037],[-3.89442,40.6802],[-3.89445,40.67984],[-3.8943,40.6796],[-3.89438,40.6794],[-3.89414,40.67939],[-3.89399,40.67949],[-3.89379,40.67929],[-3.89363,40.6794],[-3.89351,40.67928],[-3.89312,40.67922],[-3.89266,40.67927],[-3.89218,40.67945],[-3.89103,40.67925],[-3.89066,40.67957],[-3.88996,40.67962],[-3.88902,40.67948],[-3.88679,40.68003],[-3.88576,40.68008],[-3.88539,40.68027],[-3.88461,40.68019],[-3.88327,40.68032],[-3.88167,40.68109],[-3.88104,40.68127],[-3.87903,40.68139],[-3.87884,40.68147],[-3.87845,40.68141],[-3.87827,40.68181],[-3.87713,40.68167],[-3.87597,40.68119],[-3.87552,40.68127],[-3.87525,40.68113],[-3.87387,40.68106],[-3.87761,40.67887],[-3.87819,40.67599],[-3.87658,40.67078],[-3.87315,40.66479],[-3.86856,40.66153],[-3.87238,40.65783],[-3.87337,40.65709],[-3.8787,40.65981],[-3.88017,40.66044],[-3.88118,40.66149],[-3.88411,40.66354],[-3.88637,40.66461],[-3.88893,40.66603],[-3.89136,40.66765],[-3.89594,40.66971],[-3.89701,40.67044],[-3.8985,40.67039],[-3.90186,40.67007],[-3.90411,40.66898],[-3.90458,40.66731],[-3.90405,40.66578],[-3.90403,40.66358],[-3.90316,40.65974],[-3.90325,40.6569],[-3.90442,40.65389],[-3.90842,40.65193],[-3.91183,40.65007],[-3.91513,40.6497],[-3.91619,40.64951],[-3.91783,40.6494],[-3.91822,40.64929],[-3.91679,40.65254],[-3.91508,40.65542],[-3.91417,40.65674],[-3.91469,40.65908],[-3.91591,40.66017],[-3.92298,40.65881],[-3.92418,40.65805],[-3.92785,40.65726],[-3.92936,40.65941],[-3.92989,40.66093],[-3.92865,40.66316],[-3.92867,40.66383],[-3.92702,40.6642],[-3.91665,40.66374],[-3.91777,40.66684],[-3.91959,40.67121],[-3.92008,40.67282],[-3.91924,40.67285],[-3.91724,40.67188],[-3.91466,40.6717],[-3.91186,40.67263],[-3.90959,40.67274],[-3.90659,40.67318],[-3.90279,40.67431],[-3.90322,40.67542],[-3.90249,40.67756],[-3.9027,40.67862],[-3.9034,40.679],[-3.90743,40.67764],[-3.90967,40.67569],[-3.91328,40.67476],[-3.91594,40.6753],[-3.91512,40.67591],[-3.91383,40.67613],[-3.91182,40.67665],[-3.90959,40.6777],[-3.90841,40.67855],[-3.90715,40.67875],[-3.90367,40.68059],[-3.90249,40.6797],[-3.90213,40.67923],[-3.90154,40.67917],[-3.90121,40.67925],[-3.90126,40.68173],[-3.90097,40.68223],[-3.90059,40.68263],[-3.89963,40.68319],[-3.89862,40.68325],[-3.89801,40.68319],[-3.89727,40.68298],[-3.89692,40.68274],[-3.89667,40.68235],[-3.8962,40.68195],[-3.89554,40.68159],[-3.89494,40.68146],[-3.89547,40.681],[-3.89578,40.68093]]],[[[-3.89208,40.70572],[-3.89165,40.70457],[-3.89321,40.70304],[-3.89372,40.70274],[-3.89594,40.70229],[-3.90274,40.69903],[-3.90586,40.69657],[-3.90795,40.69427],[-3.90784,40.69385],[-3.91089,40.68972],[-3.91284,40.68765],[-3.91734,40.6852],[-3.923,40.68102],[-3.92492,40.67978],[-3.92576,40.67895],[-3.92668,40.67994],[-3.92977,40.68026],[-3.93413,40.68152],[-3.93714,40.68332],[-3.93937,40.68425],[-3.94117,40.68518],[-3.94474,40.68652],[-3.94928,40.68929],[-3.94661,40.69033],[-3.94419,40.69238],[-3.93936,40.69489],[-3.93793,40.69658],[-3.93774,40.697],[-3.93536,40.6975],[-3.93434,40.69791],[-3.93361,40.69803],[-3.93215,40.69859],[-3.93176,40.69877],[-3.93137,40.69924],[-3.93102,40.69929],[-3.93095,40.69975],[-3.93054,40.70006],[-3.92836,40.70121],[-3.92751,40.70144],[-3.92586,40.70167],[-3.92196,40.70304],[-3.91943,40.70527],[-3.91823,40.70584],[-3.91752,40.70554],[-3.91449,40.70383],[-3.91243,40.70249],[-3.91051,40.70164],[-3.91038,40.70177],[-3.91029,40.70234],[-3.90962,40.70284],[-3.90796,40.70362],[-3.90699,40.70435],[-3.9063,40.7045],[-3.90567,40.70521],[-3.90509,40.70559],[-3.9026,40.70511],[-3.90225,40.70515],[-3.90117,40.70582],[-3.8995,40.70724],[-3.89897,40.70794],[-3.89803,40.70796],[-3.8969,40.70823],[-3.89503,40.7099],[-3.8936,40.71153],[-3.89384,40.70941],[-3.89349,40.70848],[-3.89208,40.70572]]],[[[-3.83739,40.66719],[-3.84039,40.66596],[-3.84558,40.6675],[-3.84697,40.6687],[-3.84474,40.67177],[-3.83829,40.67357],[-3.83512,40.67545],[-3.83203,40.677],[-3.83316,40.67463],[-3.83739,40.66719]]]]}}]}