{"type":"FeatureCollection","features":[{"type":"Feature","properties":{"id":"2803301001"},"geometry":{"type":"Polygon","coordinates":[[[-3.31286,40.32862],[-3.31957,40.32462],[-3.32227,40.32275],[-3.32849,40.31907],[-3.32984,40.31808],[-3.33372,40.31563],[-3.33472,40.31259],[-3.33798,40.30405],[-3.33911,40.30029],[-3.34005,40.29618],[-3.34093,40.28991],[-3.34454,40.28162],[-3.34645,40.27793],[-3.34759,40.27601],[-3.34838,40.2738],[-3.35338,40.27172],[-3.35735,40.27059],[-3.35978,40.26926],[-3.3626,40.26815],[-3.36513,40.26689],[-3.36682,40.26627],[-3.36831,40.266],[-3.36975,40.26533],[-3.37156,40.26737],[-3.37402,40.27099],[-3.37763,40.27471],[-3.38438,40.28094],[-3.38173,40.28339],[-3.37795,40.2889],[-3.37683,40.29204],[-3.37672,40.29388],[-3.37941,40.29788],[-3.3803,40.29775],[-3.38235,40.29779],[-3.38232,40.29943],[-3.38328,40.29983],[-3.38117,40.30166],[-3.37662,40.30766],[-3.38755,40.31102],[-3.38436,40.31695],[-3.38512,40.31857],[-3.38586,40.31956],[-3.38671,40.32211],[-3.38632,40.32348],[-3.38609,40.32482],[-3.38509,40.32621],[-3.38333,40.32916],[-3.38386,40.33052],[-3.38527,40.33163],[-3.38533,40.33242],[-3.38188,40.33366],[-3.38135,40.3351],[-3.38174,40.33563],[-3.38009,40.33604],[-3.38172,40.33697],[-3.38191,40.3372],[-3.382,40.3378],[-3.38232,40.33817],[-3.38159,40.33831],[-3.38107,40.33851],[-3.3813,40.339],[-3.38123,40.33946],[-3.38131,40.33966],[-3.3805,40.33957],[-3.37893,40.33978],[-3.37784,40.34009],[-3.37595,40.34],[-3.37394,40.34052],[-3.37078,40.34079],[-3.37015,40.34092],[-3.3699,40.3411],[-3.3695,40.34191],[-3.36762,40.34308],[-3.36567,40.3436],[-3.36519,40.3438],[-3.36152,40.34391],[-3.36013,40.34422],[-3.35847,40.34432],[-3.35832,40.34471],[-3.35765,40.34502],[-3.35693,40.34578],[-3.35624,40.34692],[-3.35602,40.34713],[-3.3554,40.34734],[-3.35173,40.3502],[-3.3486,40.35042],[-3.34784,40.35028],[-3.34654,40.34961],[-3.34582,40.34948],[-3.34511,40.34947],[-3.34438,40.34959],[-3.34364,40.35011],[-3.3423,40.3518],[-3.34081,40.35261],[-3.33841,40.35096],[-3.33559,40.34856],[-3.32811,40.34343],[-3.32546,40.34195],[-3.32016,40.33761],[-3.31735,40.33557],[-3.31398,40.33209],[-3.3134,40.33061],[-3.31286,40.32862]]]}},{"type":"Feature","properties":{"id":"2803301002"},"geometry":{"type":"Polygon","coordinates":[[[-3.38129,40.33993],[-3.38123,40.33946],[-3.3813,40.339],[-3.38107,40.33851],[-3.38159,40.33831],[-3.38232,40.33817],[-3.382,40.3378],[-3.38191,40.3372],[-3.38172,40.33697],[-3.38009,40.33604],[-3.38174,40.33563],[-3.38135,40.3351],[-3.38188,40.33366],[-3.38533,40.33242],[-3.38527,40.33163],[-3.38386,40.33052],[-3.38333,40.32916],[-3.38509,40.32621],[-3.38609,40.32482],[-3.38632,40.32348],[-3.38671,40.32211],[-3.38586,40.31956],[-3.38512,40.31857],[-3.38436,40.31695],[-3.38755,40.31102],[-3.37662,40.30766],[-3.38117,40.30166],[-3.38328,40.29983],[-3.38383,40.30007],[-3.3853,40.29956],[-3.38666,40.29954],[-3.39169,40.30043],[-3.3953,40.3018],[-3.39608,40.30261],[-3.39614,40.30344],[-3.39722,40.30408],[-3.39845,40.30424],[-3.40045,40.30298],[-3.40218,40.30518],[-3.40379,40.30531],[-3.40832,40.30627],[-3.40836,40.30771],[-3.40796,40.30908],[-3.41225,40.31116],[-3.41559,40.31337],[-3.42185,40.31419],[-3.42468,40.31482],[-3.42972,40.3171],[-3.43199,40.32186],[-3.43145,40.32937],[-3.43114,40.33198],[-3.43146,40.33383],[-3.43158,40.33879],[-3.42962,40.34277],[-3.42892,40.34516],[-3.4273,40.34667],[-3.42623,40.34971],[-3.4201,40.35108],[-3.41568,40.35223],[-3.41307,40.35161],[-3.40926,40.35212],[-3.40886,40.353],[-3.40527,40.35341],[-3.4043,40.3547],[-3.40369,40.35624],[-3.40301,40.35691],[-3.40069,40.35766],[-3.39852,40.35875],[-3.39441,40.35978],[-3.39186,40.35945],[-3.39025,40.35899],[-3.38944,40.35921],[-3.38862,40.35963],[-3.38804,40.35969],[-3.38531,40.36063],[-3.38342,40.36087],[-3.38223,40.36149],[-3.38218,40.36159],[-3.38089,40.36219],[-3.38022,40.36234],[-3.37951,40.36124],[-3.37871,40.36029],[-3.37889,40.35982],[-3.37848,40.35904],[-3.37839,40.35851],[-3.37916,40.3575],[-3.37933,40.35666],[-3.37942,40.35518],[-3.37923,40.35404],[-3.37966,40.35244],[-3.38007,40.35173],[-3.38168,40.34999],[-3.38252,40.34829],[-3.38295,40.34764],[-3.38298,40.34732],[-3.38262,40.34605],[-3.38223,40.34551],[-3.38193,40.34447],[-3.38141,40.34402],[-3.38088,40.34317],[-3.38065,40.34302],[-3.38047,40.34221],[-3.38096,40.34183],[-3.38162,40.34182],[-3.38146,40.34074],[-3.38155,40.34022],[-3.38129,40.33993]]]}},{"type":"Feature","properties":{"id":"2803301003"},"geometry":{"type":"Polygon","coordinates":[[[-3.35608,40.36225],[-3.35015,40.35915],[-3.34758,40.35679],[-3.34483,40.35547],[-3.34081,40.35261],[-3.3423,40.3518],[-3.34364,40.35011],[-3.34438,40.34959],[-3.34511,40.34947],[-3.34582,40.34948],[-3.34654,40.34961],[-3.34784,40.35028],[-3.3486,40.35042],[-3.35173,40.3502],[-3.3554,40.34734],[-3.35602,40.34713],[-3.35624,40.34692],[-3.35693,40.34578],[-3.35765,40.34502],[-3.35832,40.34471],[-3.35847,40.34432],[-3.36013,40.34422],[-3.36152,40.34391],[-3.36519,40.3438],[-3.36567,40.3436],[-3.36762,40.34308],[-3.3695,40.34191],[-3.3699,40.3411],[-3.37015,40.34092],[-3.37078,40.34079],[-3.37394,40.34052],[-3.37595,40.34],[-3.37784,40.34009],[-3.37893,40.33978],[-3.3805,40.33957],[-3.38131,40.33966],[-3.38129,40.33993],[-3.38155,40.34022],[-3.38146,40.34074],[-3.38162,40.34182],[-3.38096,40.34183],[-3.38047,40.34221],[-3.38065,40.34302],[-3.38088,40.34317],[-3.38141,40.34402],[-3.38193,40.34447],[-3.38223,40.34551],[-3.38262,40.34605],[-3.38298,40.34732],[-3.38295,40.34764],[-3.38252,40.34829],[-3.38168,40.34999],[-3.38007,40.35173],[-3.37966,40.35244],[-3.37923,40.35404],[-3.37942,40.35518],[-3.37933,40.35666],[-3.37916,40.3575],[-3.37839,40.35851],[-3.37848,40.35904],[-3.37889,40.35982],[-3.37871,40.36029],[-3.37951,40.36124],[-3.38022,40.36234],[-3.3765,40.36328],[-3.37468,40.36292],[-3.37255,40.36164],[-3.37272,40.36067],[-3.37224,40.36028],[-3.37177,40.36056],[-3.36797,40.36068],[-3.36629,40.36082],[-3.36145,40.36217],[-3.35608,40.36225]]]}}]}