{"type":"FeatureCollection","features":[{"type":"Feature","properties":{"id":"2803701001"},"geometry":{"type":"Polygon","coordinates":[[[-4.46416,40.27913],[-4.46523,40.27788],[-4.46545,40.27713],[-4.46527,40.27688],[-4.46486,40.27659],[-4.46359,40.27594],[-4.46243,40.2752],[-4.46205,40.27448],[-4.46156,40.27283],[-4.46066,40.2718],[-4.4614,40.27034],[-4.46317,40.26766],[-4.46363,40.26641],[-4.46448,40.26543],[-4.46475,40.26474],[-4.46584,40.26427],[-4.46656,40.26426],[-4.4663,40.26473],[-4.4678,40.26523],[-4.46807,40.26498],[-4.46797,40.26436],[-4.46686,40.26384],[-4.46685,40.26367],[-4.46697,40.2636],[-4.46689,40.263],[-4.46758,40.26313],[-4.46759,40.26273],[-4.46832,40.2612],[-4.46826,40.26081],[-4.46837,40.26053],[-4.46989,40.25996],[-4.47047,40.25939],[-4.4706,40.25866],[-4.47119,40.25754],[-4.47144,40.25482],[-4.47189,40.25445],[-4.473,40.25248],[-4.47393,40.25136],[-4.47404,40.25105],[-4.47415,40.24934],[-4.4747,40.24743],[-4.47514,40.24683],[-4.47681,40.24566],[-4.47726,40.24523],[-4.47784,40.24343],[-4.47816,40.24187],[-4.4792,40.24058],[-4.4793,40.23931],[-4.47963,40.23845],[-4.48281,40.23445],[-4.48303,40.2336],[-4.48309,40.23209],[-4.48294,40.23158],[-4.4826,40.23101],[-4.48174,40.23108],[-4.48033,40.22985],[-4.48067,40.22951],[-4.48137,40.22847],[-4.48293,40.2273],[-4.48623,40.22603],[-4.4874,40.22542],[-4.49034,40.22434],[-4.49554,40.22289],[-4.4975,40.22161],[-4.49921,40.22177],[-4.50003,40.222],[-4.50031,40.22197],[-4.50089,40.22187],[-4.50085,40.22107],[-4.50156,40.22072],[-4.50269,40.22061],[-4.50368,40.22091],[-4.5044,40.22068],[-4.50494,40.22078],[-4.50609,40.22029],[-4.50717,40.22001],[-4.5076,40.21956],[-4.50813,40.21926],[-4.50866,40.21926],[-4.50894,40.21935],[-4.50979,40.21919],[-4.5119,40.21768],[-4.51396,40.21711],[-4.51442,40.21688],[-4.51468,40.21629],[-4.51533,40.21593],[-4.51608,40.21523],[-4.51669,40.21492],[-4.51711,40.21446],[-4.51733,40.21367],[-4.51669,40.2117],[-4.51652,40.21155],[-4.51723,40.21032],[-4.5175,40.20829],[-4.51723,40.20786],[-4.51701,40.20718],[-4.51688,40.20551],[-4.51729,40.20491],[-4.51817,40.20396],[-4.51891,40.20337],[-4.51951,40.20304],[-4.52214,40.2024],[-4.52321,40.20239],[-4.52431,40.20224],[-4.52842,40.20056],[-4.53321,40.20099],[-4.53586,40.19956],[-4.54043,40.20023],[-4.5454,40.20067],[-4.54642,40.20084],[-4.55169,40.2021],[-4.55854,40.20319],[-4.56095,40.20373],[-4.56726,40.20556],[-4.57517,40.20708],[-4.57353,40.2092],[-4.57263,40.21301],[-4.57431,40.21389],[-4.57549,40.21593],[-4.57901,40.2174],[-4.57868,40.21749],[-4.57828,40.21774],[-4.57672,40.21916],[-4.57632,40.21938],[-4.57557,40.21959],[-4.57449,40.21971],[-4.57044,40.21842],[-4.56894,40.21807],[-4.56715,40.21785],[-4.56563,40.21804],[-4.56378,40.22032],[-4.56075,40.22276],[-4.56013,40.22533],[-4.56008,40.2262],[-4.55964,40.22844],[-4.55892,40.23128],[-4.55902,40.23401],[-4.55915,40.2346],[-4.5602,40.23637],[-4.56381,40.23899],[-4.5649,40.2394],[-4.56591,40.23965],[-4.56626,40.2406],[-4.5664,40.24149],[-4.56633,40.24494],[-4.56672,40.24643],[-4.56689,40.25053],[-4.56714,40.2511],[-4.56739,40.25232],[-4.56922,40.2572],[-4.56869,40.25793],[-4.56806,40.25856],[-4.56739,40.25906],[-4.56314,40.26126],[-4.56158,40.26167],[-4.56114,40.26161],[-4.56047,40.26187],[-4.5564,40.26452],[-4.55592,40.26606],[-4.556,40.26622],[-4.54374,40.26837],[-4.51711,40.27036],[-4.5121,40.27503],[-4.51139,40.27689],[-4.50989,40.27732],[-4.50704,40.27882],[-4.50492,40.28036],[-4.50026,40.27948],[-4.49661,40.27758],[-4.49444,40.27852],[-4.49141,40.27833],[-4.48958,40.27866],[-4.48792,40.27852],[-4.48442,40.27877],[-4.48162,40.28099],[-4.47858,40.28244],[-4.47848,40.28257],[-4.47665,40.28296],[-4.47376,40.28194],[-4.47016,40.28093],[-4.46814,40.28048],[-4.46582,40.27956],[-4.46416,40.27913]]]}},{"type":"Feature","properties":{"id":"2803701002"},"geometry":{"type":"Polygon","coordinates":[[[-4.43841,40.2635],[-4.43501,40.25928],[-4.43526,40.25899],[-4.43603,40.25572],[-4.43639,40.25505],[-4.43607,40.25344],[-4.43607,40.25012],[-4.43505,40.24686],[-4.43453,40.24441],[-4.43452,40.24388],[-4.43618,40.23907],[-4.43718,40.2381],[-4.43745,40.23769],[-4.43813,40.23723],[-4.43857,40.23709],[-4.4387,40.23715],[-4.44099,40.23643],[-4.44378,40.23539],[-4.44677,40.23389],[-4.44751,40.23361],[-4.44996,40.23331],[-4.45275,40.23315],[-4.45436,40.23268],[-4.45554,40.23257],[-4.45891,40.23277],[-4.46538,40.23201],[-4.46945,40.23132],[-4.47216,40.2313],[-4.47372,40.23146],[-4.47519,40.23079],[-4.47585,40.23059],[-4.47708,40.22998],[-4.47766,40.22996],[-4.47931,40.23011],[-4.4797,40.23007],[-4.48033,40.22985],[-4.48174,40.23108],[-4.4826,40.23101],[-4.48294,40.23158],[-4.48309,40.23209],[-4.48303,40.2336],[-4.48281,40.23445],[-4.47963,40.23845],[-4.4793,40.23931],[-4.4792,40.24058],[-4.47816,40.24187],[-4.47784,40.24343],[-4.47726,40.24523],[-4.47681,40.24566],[-4.47514,40.24683],[-4.4747,40.24743],[-4.47415,40.24934],[-4.47404,40.25105],[-4.47393,40.25136],[-4.473,40.25248],[-4.47189,40.25445],[-4.47144,40.25482],[-4.47119,40.25754],[-4.4706,40.25866],[-4.47047,40.25939],[-4.46989,40.25996],[-4.46837,40.26053],[-4.46826,40.26081],[-4.46832,40.2612],[-4.46759,40.26273],[-4.46758,40.26313],[-4.46689,40.263],[-4.46697,40.2636],[-4.46685,40.26367],[-4.46686,40.26384],[-4.46797,40.26436],[-4.46807,40.26498],[-4.4678,40.26523],[-4.4663,40.26473],[-4.46656,40.26426],[-4.46584,40.26427],[-4.46475,40.26474],[-4.46448,40.26543],[-4.46363,40.26641],[-4.46317,40.26766],[-4.4614,40.27034],[-4.46066,40.2718],[-4.46156,40.27283],[-4.46205,40.27448],[-4.46243,40.2752],[-4.46359,40.27594],[-4.46486,40.27659],[-4.46527,40.27688],[-4.46545,40.27713],[-4.46523,40.27788],[-4.46416,40.27913],[-4.45645,40.27581],[-4.4542,40.27456],[-4.45258,40.27392],[-4.44875,40.27275],[-4.44819,40.27219],[-4.44712,40.27007],[-4.44405,40.26709],[-4.44131,40.26516],[-4.43946,40.26451],[-4.43841,40.2635]]]}}]}