{"type":"FeatureCollection","features":[{"type":"Feature","properties":{"id":"2807501001"},"geometry":{"type":"Polygon","coordinates":[[[-3.3526,40.36655],[-3.35608,40.36225],[-3.36145,40.36217],[-3.36629,40.36082],[-3.36797,40.36068],[-3.37177,40.36056],[-3.37224,40.36028],[-3.37272,40.36067],[-3.37255,40.36164],[-3.37468,40.36292],[-3.3765,40.36328],[-3.38089,40.36219],[-3.38218,40.36159],[-3.38223,40.36149],[-3.38342,40.36087],[-3.38531,40.36063],[-3.38804,40.35969],[-3.38862,40.35963],[-3.38944,40.35921],[-3.39025,40.35899],[-3.39186,40.35945],[-3.39441,40.35978],[-3.39852,40.35875],[-3.40069,40.35766],[-3.40301,40.35691],[-3.40369,40.35624],[-3.4043,40.3547],[-3.40527,40.35341],[-3.40886,40.353],[-3.40926,40.35212],[-3.41307,40.35161],[-3.41568,40.35223],[-3.4201,40.35108],[-3.42623,40.34971],[-3.42567,40.35063],[-3.42397,40.35575],[-3.42344,40.35761],[-3.4216,40.36569],[-3.42099,40.3675],[-3.41788,40.37245],[-3.41733,40.37314],[-3.4167,40.37374],[-3.41395,40.37548],[-3.41405,40.37592],[-3.41367,40.37645],[-3.41228,40.37765],[-3.41217,40.37797],[-3.4125,40.37845],[-3.41251,40.37866],[-3.41101,40.38228],[-3.41154,40.38293],[-3.41177,40.38352],[-3.4109,40.38396],[-3.41025,40.38366],[-3.40904,40.38369],[-3.40832,40.38473],[-3.40842,40.38515],[-3.40762,40.38564],[-3.40717,40.3841],[-3.40651,40.38433],[-3.40185,40.38499],[-3.4003,40.38571],[-3.39859,40.38755],[-3.39772,40.38814],[-3.39538,40.38931],[-3.39458,40.38953],[-3.39371,40.38952],[-3.39324,40.38995],[-3.39293,40.39061],[-3.39279,40.39134],[-3.3923,40.39169],[-3.38751,40.39383],[-3.38685,40.39308],[-3.38461,40.38997],[-3.38077,40.38716],[-3.37988,40.38545],[-3.37906,40.38349],[-3.37653,40.38098],[-3.3763,40.38039],[-3.37501,40.37859],[-3.37147,40.37488],[-3.36874,40.37322],[-3.3656,40.37164],[-3.3638,40.37145],[-3.36228,40.37043],[-3.36061,40.37091],[-3.35962,40.37046],[-3.35524,40.36797],[-3.3538,40.36789],[-3.3526,40.36655]]]}},{"type":"Feature","properties":{"id":"2807501002"},"geometry":{"type":"Polygon","coordinates":[[[-3.41369,40.38565],[-3.41399,40.38705],[-3.41362,40.38727],[-3.4131,40.3883],[-3.41245,40.38874],[-3.41227,40.38933],[-3.41243,40.39054],[-3.41183,40.39245],[-3.41467,40.39606],[-3.42157,40.40407],[-3.42336,40.40509],[-3.42521,40.40792],[-3.42576,40.41051],[-3.42584,40.41506],[-3.42611,40.41866],[-3.42682,40.42027],[-3.42817,40.42172],[-3.42974,40.42274],[-3.43243,40.42398],[-3.43373,40.42538],[-3.43443,40.42649],[-3.43518,40.42718],[-3.43649,40.42769],[-3.43814,40.43229],[-3.43571,40.4317],[-3.43368,40.42996],[-3.43008,40.42626],[-3.4272,40.42524],[-3.42524,40.42512],[-3.42197,40.42439],[-3.42057,40.42387],[-3.41475,40.42467],[-3.41304,40.4248],[-3.41187,40.42556],[-3.40889,40.42298],[-3.40701,40.42121],[-3.40539,40.41731],[-3.40289,40.41447],[-3.40215,40.41186],[-3.39996,40.40762],[-3.39688,40.40422],[-3.39196,40.39982],[-3.38907,40.3956],[-3.38751,40.39383],[-3.3923,40.39169],[-3.39279,40.39134],[-3.39293,40.39061],[-3.39324,40.38995],[-3.39371,40.38952],[-3.39458,40.38953],[-3.39538,40.38931],[-3.39772,40.38814],[-3.39859,40.38755],[-3.4003,40.38571],[-3.40185,40.38499],[-3.40651,40.38433],[-3.40717,40.3841],[-3.40762,40.38564],[-3.40842,40.38515],[-3.40832,40.38473],[-3.40904,40.38369],[-3.41008,40.38365],[-3.41088,40.38395],[-3.41102,40.38392],[-3.41305,40.38531],[-3.41369,40.38565]]]}},{"type":"Feature","properties":{"id":"2807501003"},"geometry":{"type":"Polygon","coordinates":[[[-3.4591,40.37724],[-3.45761,40.37783],[-3.45433,40.37848],[-3.45252,40.37835],[-3.45168,40.37814],[-3.44894,40.3778],[-3.44845,40.37783],[-3.44753,40.37814],[-3.4468,40.37823],[-3.44559,40.3781],[-3.44392,40.37828],[-3.44044,40.37798],[-3.43992,40.37821],[-3.43956,40.37854],[-3.43887,40.37882],[-3.43688,40.3792],[-3.43624,40.37941],[-3.43507,40.37927],[-3.43371,40.37987],[-3.43295,40.38004],[-3.43087,40.37989],[-3.42989,40.38011],[-3.42745,40.37956],[-3.42551,40.37965],[-3.42415,40.37923],[-3.42405,40.37929],[-3.42149,40.37923],[-3.42106,40.37958],[-3.42026,40.37964],[-3.4183,40.38087],[-3.41581,40.38226],[-3.41541,40.38241],[-3.41312,40.38287],[-3.41174,40.38349],[-3.41154,40.38293],[-3.41101,40.38228],[-3.41251,40.37866],[-3.4125,40.37845],[-3.41217,40.37797],[-3.41228,40.37765],[-3.41367,40.37645],[-3.41405,40.37592],[-3.41395,40.37548],[-3.4167,40.37374],[-3.41733,40.37314],[-3.41788,40.37245],[-3.42099,40.3675],[-3.4216,40.36569],[-3.42344,40.35761],[-3.42397,40.35575],[-3.42567,40.35063],[-3.42625,40.3498],[-3.42665,40.35134],[-3.43174,40.35199],[-3.4326,40.35229],[-3.43555,40.35205],[-3.43653,40.35159],[-3.43793,40.35122],[-3.43962,40.35022],[-3.44043,40.34989],[-3.44106,40.3497],[-3.44287,40.34946],[-3.44548,40.34776],[-3.44788,40.34571],[-3.45218,40.34313],[-3.45347,40.34326],[-3.45293,40.35282],[-3.45127,40.355],[-3.45155,40.35665],[-3.45148,40.35775],[-3.45288,40.35984],[-3.45475,40.36175],[-3.45531,40.36467],[-3.45584,40.36656],[-3.45757,40.37113],[-3.45849,40.37298],[-3.45909,40.3753],[-3.4591,40.37724]]]}},{"type":"Feature","properties":{"id":"2807501004"},"geometry":{"type":"Polygon","coordinates":[[[-3.41369,40.38565],[-3.4141,40.38587],[-3.4153,40.38624],[-3.41996,40.38868],[-3.4258,40.39067],[-3.42797,40.39106],[-3.4289,40.39138],[-3.4298,40.39154],[-3.43247,40.39171],[-3.43637,40.39122],[-3.44055,40.3892],[-3.44221,40.38908],[-3.4447,40.38928],[-3.44749,40.38902],[-3.45027,40.38848],[-3.45465,40.38805],[-3.45882,40.38678],[-3.46159,40.38498],[-3.46384,40.38369],[-3.4623,40.38503],[-3.46316,40.38703],[-3.46582,40.38849],[-3.46417,40.38934],[-3.46244,40.38873],[-3.46127,40.38868],[-3.45935,40.38959],[-3.45862,40.39024],[-3.45845,40.39106],[-3.45585,40.3939],[-3.4552,40.39349],[-3.45434,40.3932],[-3.45107,40.39512],[-3.44902,40.39496],[-3.44975,40.39738],[-3.44729,40.39851],[-3.44545,40.4012],[-3.44446,40.4009],[-3.4441,40.40199],[-3.44372,40.40248],[-3.44145,40.40409],[-3.44122,40.40502],[-3.44042,40.40521],[-3.44158,40.40816],[-3.44114,40.40945],[-3.44014,40.41008],[-3.44084,40.41076],[-3.4415,40.41253],[-3.43993,40.41255],[-3.44006,40.41216],[-3.43496,40.41306],[-3.4317,40.41555],[-3.43236,40.41941],[-3.43474,40.42362],[-3.43649,40.42769],[-3.43518,40.42718],[-3.43443,40.42649],[-3.43373,40.42538],[-3.43243,40.42398],[-3.42974,40.42274],[-3.42817,40.42172],[-3.42682,40.42027],[-3.42611,40.41866],[-3.42584,40.41506],[-3.42576,40.41051],[-3.42521,40.40792],[-3.42336,40.40509],[-3.42157,40.40407],[-3.41467,40.39606],[-3.41183,40.39245],[-3.41243,40.39054],[-3.41227,40.38933],[-3.41245,40.38874],[-3.4131,40.3883],[-3.41362,40.38727],[-3.41399,40.38705],[-3.41369,40.38565]]]}},{"type":"Feature","properties":{"id":"2807501005"},"geometry":{"type":"Polygon","coordinates":[[[-3.4141,40.38587],[-3.41305,40.38531],[-3.41102,40.38392],[-3.41262,40.38304],[-3.41312,40.38287],[-3.41541,40.38241],[-3.41581,40.38226],[-3.4183,40.38087],[-3.42026,40.37964],[-3.42106,40.37958],[-3.42149,40.37923],[-3.42405,40.37929],[-3.42415,40.37923],[-3.42551,40.37965],[-3.42745,40.37956],[-3.42989,40.38011],[-3.43087,40.37989],[-3.43295,40.38004],[-3.43371,40.37987],[-3.43507,40.37927],[-3.43624,40.37941],[-3.43688,40.3792],[-3.43887,40.37882],[-3.43956,40.37854],[-3.44017,40.37807],[-3.44068,40.37797],[-3.44177,40.37814],[-3.44392,40.37828],[-3.44559,40.3781],[-3.44626,40.37821],[-3.44719,40.3782],[-3.44845,40.37783],[-3.44894,40.3778],[-3.45168,40.37814],[-3.45252,40.37835],[-3.45433,40.37848],[-3.45761,40.37783],[-3.4591,40.37724],[-3.45925,40.37895],[-3.45965,40.38023],[-3.46142,40.38114],[-3.46421,40.38336],[-3.46384,40.38369],[-3.46159,40.38498],[-3.45882,40.38678],[-3.45465,40.38805],[-3.45027,40.38848],[-3.44749,40.38902],[-3.4447,40.38928],[-3.44221,40.38908],[-3.44055,40.3892],[-3.43637,40.39122],[-3.43247,40.39171],[-3.4298,40.39154],[-3.4289,40.39138],[-3.42797,40.39106],[-3.4258,40.39067],[-3.41996,40.38868],[-3.4153,40.38624],[-3.4141,40.38587]]]}}]}