{"type":"FeatureCollection","features":[{"type":"Feature","properties":{"id":"2808201001"},"geometry":{"type":"Polygon","coordinates":[[[-3.83817,40.81231],[-3.83803,40.81136],[-3.83864,40.80949],[-3.83564,40.80025],[-3.83482,40.79855],[-3.83023,40.79311],[-3.83037,40.79111],[-3.83022,40.78968],[-3.82949,40.78744],[-3.82831,40.78316],[-3.82857,40.78156],[-3.82637,40.77515],[-3.82594,40.77266],[-3.82561,40.77253],[-3.8245,40.76871],[-3.8232,40.7617],[-3.82257,40.75663],[-3.82109,40.75333],[-3.82002,40.75016],[-3.81994,40.74986],[-3.81994,40.74707],[-3.81976,40.74596],[-3.8188,40.74335],[-3.8183,40.74132],[-3.81785,40.73874],[-3.81444,40.73945],[-3.81328,40.73458],[-3.81261,40.73306],[-3.80958,40.72734],[-3.80813,40.72396],[-3.80747,40.72095],[-3.80366,40.71691],[-3.80168,40.71549],[-3.8006,40.71109],[-3.80128,40.7114],[-3.80289,40.70951],[-3.80444,40.71076],[-3.80483,40.71052],[-3.80593,40.71077],[-3.80597,40.71027],[-3.80637,40.70965],[-3.80686,40.7093],[-3.80772,40.70937],[-3.80926,40.70789],[-3.8091,40.70776],[-3.81033,40.70649],[-3.81055,40.70593],[-3.81141,40.70567],[-3.81439,40.70384],[-3.82068,40.70667],[-3.82583,40.70991],[-3.82862,40.71229],[-3.83156,40.71525],[-3.83624,40.71674],[-3.84242,40.7175],[-3.85051,40.719],[-3.8574,40.71681],[-3.86164,40.71556],[-3.86988,40.71714],[-3.86957,40.71996],[-3.8694,40.72277],[-3.86954,40.72357],[-3.86778,40.72497],[-3.86427,40.72506],[-3.86417,40.72513],[-3.86473,40.72523],[-3.86504,40.7254],[-3.86558,40.72582],[-3.86597,40.72597],[-3.86611,40.72606],[-3.86699,40.72601],[-3.868,40.72677],[-3.86989,40.72732],[-3.87112,40.72806],[-3.87218,40.72852],[-3.87253,40.72873],[-3.86782,40.72924],[-3.86794,40.72997],[-3.8684,40.72988],[-3.86855,40.7303],[-3.86949,40.73362],[-3.86757,40.73397],[-3.86784,40.73455],[-3.86804,40.73474],[-3.86827,40.73504],[-3.86891,40.73625],[-3.869,40.73631],[-3.86956,40.73703],[-3.86904,40.73712],[-3.87105,40.75327],[-3.88491,40.78505],[-3.90077,40.80452],[-3.89849,40.80467],[-3.89711,40.80531],[-3.89531,40.80561],[-3.89317,40.80578],[-3.891,40.80649],[-3.88835,40.80661],[-3.88739,40.80684],[-3.88591,40.80744],[-3.88536,40.80758],[-3.88291,40.80588],[-3.87911,40.80529],[-3.87733,40.80647],[-3.87412,40.80893],[-3.87095,40.81022],[-3.8685,40.8123],[-3.86608,40.81393],[-3.86512,40.81414],[-3.8644,40.81412],[-3.86184,40.81501],[-3.85452,40.81454],[-3.85257,40.81368],[-3.85123,40.81332],[-3.84406,40.81355],[-3.83936,40.81235],[-3.83817,40.81231]],[[-3.86753,40.73395],[-3.86946,40.7336],[-3.86838,40.72991],[-3.86793,40.72998],[-3.86779,40.72923],[-3.87249,40.72873],[-3.87112,40.72808],[-3.86988,40.72734],[-3.868,40.72679],[-3.86697,40.72602],[-3.8661,40.72608],[-3.86555,40.72582],[-3.86473,40.72525],[-3.86415,40.72513],[-3.86432,40.72641],[-3.86457,40.72667],[-3.86467,40.72661],[-3.86483,40.72692],[-3.86502,40.72793],[-3.86477,40.72794],[-3.86445,40.72779],[-3.86374,40.72779],[-3.8638,40.72824],[-3.86402,40.72837],[-3.86402,40.72853],[-3.86364,40.72869],[-3.86372,40.72925],[-3.86229,40.72944],[-3.8622,40.72968],[-3.86231,40.73001],[-3.86149,40.73136],[-3.8613,40.73205],[-3.86052,40.73264],[-3.85987,40.73338],[-3.85903,40.73377],[-3.85741,40.73484],[-3.85743,40.73517],[-3.85777,40.73566],[-3.85854,40.73627],[-3.85857,40.73675],[-3.85981,40.73689],[-3.86059,40.73724],[-3.86139,40.737],[-3.86172,40.737],[-3.86206,40.73728],[-3.86381,40.73707],[-3.86381,40.73734],[-3.86419,40.73828],[-3.8668,40.73748],[-3.86953,40.73702],[-3.86889,40.73626],[-3.86825,40.73504],[-3.86781,40.73454],[-3.86753,40.73395]]]}},{"type":"Feature","properties":{"id":"2808201002"},"geometry":{"type":"MultiPolygon","coordinates":[[[[-3.91679,40.65254],[-3.91822,40.64929],[-3.92218,40.65013],[-3.92666,40.652],[-3.92619,40.65413],[-3.92624,40.65453],[-3.92785,40.65726],[-3.92418,40.65805],[-3.92298,40.65881],[-3.91591,40.66017],[-3.91469,40.65908],[-3.91417,40.65674],[-3.91508,40.65542],[-3.91679,40.65254]]],[[[-3.86708,40.73284],[-3.8665,40.73044],[-3.86624,40.73048],[-3.86608,40.72957],[-3.86516,40.72946],[-3.86494,40.72723],[-3.86467,40.72661],[-3.86457,40.72667],[-3.86432,40.72641],[-3.86415,40.72513],[-3.86473,40.72525],[-3.86555,40.72582],[-3.8661,40.72608],[-3.86697,40.72602],[-3.868,40.72679],[-3.86988,40.72734],[-3.87112,40.72808],[-3.87249,40.72873],[-3.86779,40.72923],[-3.86793,40.72998],[-3.86838,40.72991],[-3.86946,40.7336],[-3.86753,40.73395],[-3.86708,40.73284]]]]}},{"type":"Feature","properties":{"id":"2808201003"},"geometry":{"type":"MultiPolygon","coordinates":[[[[-3.90077,40.80452],[-3.88491,40.78505],[-3.87105,40.75327],[-3.86904,40.73712],[-3.86956,40.73703],[-3.86891,40.73625],[-3.86757,40.73397],[-3.86949,40.73362],[-3.8684,40.72988],[-3.86794,40.72997],[-3.86782,40.72924],[-3.87253,40.72873],[-3.87112,40.72806],[-3.86989,40.72732],[-3.868,40.72677],[-3.86699,40.72601],[-3.86611,40.72606],[-3.86558,40.72582],[-3.86473,40.72523],[-3.86417,40.72513],[-3.86427,40.72506],[-3.86778,40.72497],[-3.86954,40.72357],[-3.8694,40.72277],[-3.86957,40.71996],[-3.86988,40.71714],[-3.86164,40.71556],[-3.8574,40.71681],[-3.85051,40.719],[-3.84242,40.7175],[-3.83624,40.71674],[-3.83156,40.71525],[-3.82862,40.71229],[-3.82583,40.70991],[-3.82068,40.70667],[-3.81439,40.70384],[-3.81511,40.70337],[-3.81825,40.6999],[-3.81925,40.69866],[-3.82085,40.69488],[-3.82074,40.69415],[-3.82054,40.69368],[-3.82056,40.69344],[-3.82106,40.69246],[-3.82171,40.69166],[-3.82268,40.69103],[-3.82359,40.69077],[-3.82408,40.69085],[-3.82425,40.69044],[-3.82521,40.68903],[-3.82636,40.68764],[-3.82674,40.68734],[-3.82701,40.68629],[-3.8284,40.68318],[-3.82996,40.68068],[-3.83091,40.68126],[-3.83265,40.68211],[-3.83515,40.6835],[-3.83592,40.68381],[-3.83638,40.6839],[-3.83743,40.68452],[-3.83819,40.68467],[-3.83872,40.68501],[-3.83903,40.68602],[-3.83909,40.68667],[-3.84197,40.68687],[-3.84872,40.68624],[-3.84974,40.68517],[-3.85402,40.68492],[-3.86105,40.68618],[-3.862,40.68604],[-3.86342,40.68567],[-3.86498,40.68381],[-3.86773,40.68159],[-3.87091,40.68093],[-3.87525,40.68113],[-3.87552,40.68127],[-3.87597,40.68119],[-3.87713,40.68167],[-3.87827,40.68181],[-3.87845,40.68141],[-3.87884,40.68147],[-3.87903,40.68139],[-3.88104,40.68127],[-3.88167,40.68109],[-3.88327,40.68032],[-3.88461,40.68019],[-3.88539,40.68027],[-3.88576,40.68008],[-3.88679,40.68003],[-3.88902,40.67948],[-3.88996,40.67962],[-3.89066,40.67957],[-3.89103,40.67925],[-3.89218,40.67945],[-3.89266,40.67927],[-3.89312,40.67922],[-3.89351,40.67928],[-3.89363,40.6794],[-3.89379,40.67929],[-3.89399,40.67949],[-3.89414,40.67939],[-3.89438,40.6794],[-3.8943,40.6796],[-3.89445,40.67984],[-3.89444,40.68027],[-3.895,40.68066],[-3.89549,40.68036],[-3.8961,40.68025],[-3.89585,40.68086],[-3.89547,40.681],[-3.89494,40.68146],[-3.89554,40.68159],[-3.8962,40.68195],[-3.89667,40.68235],[-3.89692,40.68274],[-3.89727,40.68298],[-3.89801,40.68319],[-3.89896,40.68326],[-3.8999,40.6831],[-3.90059,40.68263],[-3.90097,40.68223],[-3.90127,40.68162],[-3.90121,40.67925],[-3.902,40.67917],[-3.90249,40.6797],[-3.90557,40.68203],[-3.90598,40.68221],[-3.90797,40.68357],[-3.90894,40.68445],[-3.91325,40.68244],[-3.91527,40.681],[-3.9199,40.67723],[-3.92089,40.67693],[-3.92434,40.6775],[-3.9245,40.67846],[-3.92576,40.67895],[-3.92492,40.67978],[-3.923,40.68102],[-3.91734,40.6852],[-3.91284,40.68765],[-3.91089,40.68972],[-3.90784,40.69385],[-3.90795,40.69427],[-3.90586,40.69657],[-3.90274,40.69903],[-3.89594,40.70229],[-3.89372,40.70274],[-3.89288,40.70331],[-3.89193,40.70424],[-3.89165,40.70457],[-3.89208,40.70572],[-3.89349,40.70848],[-3.89384,40.70941],[-3.89323,40.71495],[-3.89749,40.71865],[-3.89838,40.72167],[-3.89864,40.72345],[-3.89975,40.72647],[-3.90006,40.72818],[-3.90094,40.72989],[-3.90346,40.73208],[-3.90484,40.73492],[-3.90546,40.73653],[-3.90663,40.73867],[-3.9119,40.73983],[-3.91224,40.74035],[-3.9147,40.7415],[-3.91628,40.74142],[-3.9207,40.74302],[-3.92261,40.74489],[-3.92514,40.74669],[-3.9288,40.74856],[-3.9335,40.7524],[-3.93866,40.75425],[-3.94209,40.75526],[-3.94672,40.75856],[-3.9502,40.76136],[-3.95161,40.76367],[-3.95397,40.76453],[-3.95915,40.76545],[-3.96518,40.76837],[-3.96809,40.76798],[-3.96866,40.76746],[-3.96858,40.76713],[-3.9692,40.76802],[-3.97089,40.76937],[-3.97283,40.77066],[-3.97236,40.77504],[-3.97149,40.77695],[-3.97406,40.77908],[-3.97471,40.78113],[-3.97609,40.78409],[-3.97953,40.78449],[-3.97941,40.78468],[-3.97941,40.78511],[-3.97928,40.78549],[-3.97815,40.78733],[-3.97587,40.78773],[-3.97456,40.78841],[-3.97321,40.78931],[-3.97106,40.78986],[-3.96862,40.79087],[-3.96623,40.79141],[-3.96453,40.79192],[-3.96302,40.7915],[-3.96265,40.79267],[-3.96008,40.79487],[-3.95052,40.79466],[-3.94728,40.79549],[-3.94301,40.79567],[-3.9386,40.79602],[-3.93801,40.79621],[-3.93496,40.79764],[-3.93288,40.79946],[-3.93122,40.80051],[-3.93038,40.80064],[-3.92245,40.80015],[-3.92134,40.80029],[-3.91915,40.79983],[-3.91365,40.8007],[-3.91202,40.80131],[-3.9102,40.80243],[-3.90308,40.80437],[-3.90077,40.80452]]],[[[-3.93632,40.72645],[-3.93556,40.72583],[-3.93427,40.7263],[-3.93306,40.72488],[-3.93425,40.72229],[-3.93639,40.71655],[-3.93606,40.7158],[-3.93641,40.71544],[-3.93678,40.71541],[-3.93829,40.71392],[-3.94072,40.71255],[-3.94088,40.7144],[-3.9429,40.71583],[-3.94532,40.71646],[-3.94868,40.71776],[-3.94983,40.71696],[-3.95148,40.72109],[-3.95155,40.72168],[-3.93905,40.72687],[-3.93854,40.72699],[-3.93857,40.72712],[-3.93792,40.72724],[-3.93737,40.72706],[-3.93632,40.72645]]]]}},{"type":"Feature","properties":{"id":"2808201004"},"geometry":{"type":"Polygon","coordinates":[[[-3.86502,40.72793],[-3.86516,40.72946],[-3.86608,40.72957],[-3.86624,40.73048],[-3.8665,40.73044],[-3.86717,40.73312],[-3.86767,40.73426],[-3.86825,40.73504],[-3.86889,40.73626],[-3.86953,40.73702],[-3.8668,40.73748],[-3.86419,40.73828],[-3.86381,40.73734],[-3.86381,40.73707],[-3.86206,40.73728],[-3.86172,40.737],[-3.86139,40.737],[-3.86059,40.73724],[-3.85981,40.73689],[-3.85857,40.73675],[-3.85854,40.73627],[-3.85768,40.73557],[-3.85743,40.73517],[-3.85741,40.73484],[-3.85903,40.73377],[-3.85987,40.73338],[-3.86052,40.73264],[-3.8613,40.73205],[-3.86149,40.73136],[-3.86231,40.73001],[-3.8622,40.72968],[-3.86229,40.72944],[-3.86372,40.72925],[-3.86364,40.72869],[-3.86402,40.72853],[-3.86402,40.72837],[-3.8638,40.72824],[-3.86374,40.72779],[-3.86445,40.72779],[-3.86477,40.72794],[-3.86502,40.72793]]]}}]}