{"type":"FeatureCollection","features":[{"type":"Feature","properties":{"id":"2808401001"},"geometry":{"type":"Polygon","coordinates":[[[-3.48408,40.40175],[-3.48468,40.40108],[-3.48485,40.40076],[-3.4851,40.40068],[-3.48526,40.4005],[-3.48532,40.39997],[-3.48776,40.40006],[-3.48756,40.39951],[-3.48779,40.39945],[-3.48747,40.39847],[-3.48845,40.39827],[-3.48852,40.39817],[-3.48842,40.39811],[-3.48829,40.39759],[-3.4883,40.39697],[-3.49062,40.39676],[-3.4928,40.396],[-3.49317,40.39603],[-3.49353,40.39681],[-3.49354,40.3981],[-3.49368,40.39812],[-3.49295,40.39977],[-3.49303,40.40145],[-3.49283,40.4016],[-3.49133,40.40221],[-3.49034,40.40245],[-3.4894,40.40234],[-3.48794,40.40183],[-3.4875,40.40183],[-3.48665,40.40211],[-3.48576,40.40222],[-3.48493,40.40205],[-3.48408,40.40175]]]}},{"type":"Feature","properties":{"id":"2808401002"},"geometry":{"type":"Polygon","coordinates":[[[-3.48532,40.39997],[-3.48554,40.3973],[-3.4866,40.3971],[-3.4883,40.39697],[-3.48829,40.39759],[-3.48842,40.39811],[-3.48852,40.39817],[-3.48845,40.39827],[-3.48747,40.39847],[-3.48779,40.39945],[-3.48756,40.39951],[-3.48776,40.40006],[-3.48532,40.39997]]]}},{"type":"Feature","properties":{"id":"2808401003"},"geometry":{"type":"Polygon","coordinates":[[[-3.48369,40.39584],[-3.48402,40.39586],[-3.48519,40.39551],[-3.48798,40.39533],[-3.4883,40.39521],[-3.48874,40.39474],[-3.48984,40.39543],[-3.49008,40.39521],[-3.49306,40.39477],[-3.49317,40.39603],[-3.4928,40.396],[-3.49043,40.39679],[-3.48939,40.39682],[-3.48584,40.39719],[-3.48406,40.39767],[-3.48411,40.39753],[-3.48369,40.39584]]]}},{"type":"Feature","properties":{"id":"2808401004"},"geometry":{"type":"Polygon","coordinates":[[[-3.48369,40.39584],[-3.48391,40.39444],[-3.48384,40.39225],[-3.48545,40.39217],[-3.48634,40.39195],[-3.48663,40.39259],[-3.4879,40.39405],[-3.48873,40.39476],[-3.4883,40.39521],[-3.48798,40.39533],[-3.48519,40.39551],[-3.48402,40.39586],[-3.48369,40.39584]]]}},{"type":"Feature","properties":{"id":"2808401005"},"geometry":{"type":"Polygon","coordinates":[[[-3.48039,40.39573],[-3.48047,40.39343],[-3.48028,40.39266],[-3.48036,40.39214],[-3.48151,40.39232],[-3.48384,40.39225],[-3.48391,40.39444],[-3.48369,40.39584],[-3.4831,40.39567],[-3.48039,40.39573]]]}},{"type":"Feature","properties":{"id":"2808401006"},"geometry":{"type":"Polygon","coordinates":[[[-3.48036,40.39214],[-3.48066,40.39125],[-3.48384,40.39134],[-3.48566,40.39034],[-3.48634,40.39195],[-3.48528,40.39219],[-3.48277,40.39229],[-3.48151,40.39232],[-3.48036,40.39214]]]}},{"type":"Feature","properties":{"id":"2808401007"},"geometry":{"type":"Polygon","coordinates":[[[-3.47458,40.41637],[-3.47544,40.41569],[-3.47619,40.41466],[-3.47681,40.41257],[-3.47787,40.41114],[-3.47816,40.41059],[-3.4784,40.40878],[-3.47947,40.40676],[-3.48197,40.40293],[-3.48284,40.40214],[-3.48339,40.40187],[-3.48408,40.40175],[-3.48493,40.40205],[-3.48576,40.40222],[-3.48639,40.40217],[-3.48773,40.40182],[-3.48818,40.40188],[-3.4894,40.40234],[-3.49034,40.40245],[-3.49186,40.40202],[-3.49273,40.40166],[-3.49303,40.40145],[-3.49295,40.39977],[-3.49368,40.39812],[-3.49354,40.3981],[-3.49353,40.39681],[-3.49311,40.39569],[-3.49306,40.39424],[-3.49334,40.39255],[-3.49303,40.39166],[-3.49223,40.39081],[-3.49188,40.39147],[-3.49182,40.39243],[-3.49161,40.39299],[-3.49145,40.39293],[-3.4908,40.39227],[-3.48873,40.39476],[-3.4879,40.39405],[-3.48659,40.39254],[-3.48566,40.39034],[-3.48514,40.39069],[-3.48383,40.39128],[-3.48381,40.39018],[-3.48096,40.3902],[-3.45585,40.3939],[-3.45845,40.39106],[-3.45862,40.39024],[-3.45935,40.38959],[-3.46127,40.38868],[-3.46244,40.38873],[-3.46417,40.38934],[-3.46582,40.38849],[-3.46505,40.38693],[-3.4659,40.38658],[-3.46641,40.38709],[-3.46962,40.38473],[-3.47424,40.38202],[-3.47818,40.38065],[-3.48461,40.37894],[-3.48902,40.37808],[-3.49179,40.37834],[-3.49691,40.37802],[-3.50029,40.37797],[-3.50053,40.37923],[-3.50162,40.38059],[-3.50348,40.38179],[-3.50512,40.38196],[-3.50599,40.38263],[-3.50509,40.38461],[-3.5049,40.38428],[-3.5005,40.38524],[-3.50073,40.38731],[-3.5012,40.38728],[-3.5018,40.3875],[-3.50241,40.38789],[-3.50281,40.38832],[-3.50292,40.38992],[-3.50169,40.39042],[-3.50239,40.39291],[-3.50379,40.39187],[-3.50484,40.38924],[-3.50665,40.3886],[-3.5068,40.3891],[-3.5063,40.39035],[-3.50528,40.39217],[-3.50549,40.39346],[-3.50862,40.3954],[-3.50915,40.39536],[-3.50921,40.39599],[-3.50908,40.3971],[-3.50885,40.39767],[-3.50766,40.3993],[-3.5048,40.40229],[-3.50156,40.40499],[-3.50077,40.4058],[-3.50075,40.40626],[-3.50123,40.4069],[-3.50195,40.40718],[-3.50317,40.40726],[-3.50313,40.40785],[-3.50272,40.40843],[-3.50174,40.40938],[-3.50057,40.40963],[-3.49932,40.40941],[-3.49834,40.40941],[-3.49801,40.40928],[-3.49758,40.40926],[-3.49701,40.40935],[-3.49649,40.40958],[-3.49625,40.41045],[-3.49588,40.41103],[-3.49543,40.41153],[-3.49489,40.41188],[-3.49349,40.41202],[-3.49273,40.41199],[-3.49214,40.41216],[-3.49191,40.41239],[-3.49008,40.41328],[-3.48787,40.41372],[-3.4857,40.41302],[-3.48454,40.41311],[-3.4836,40.41344],[-3.48321,40.41426],[-3.48205,40.41458],[-3.47862,40.41528],[-3.47506,40.41638],[-3.47458,40.41637]]]}},{"type":"Feature","properties":{"id":"2808401008"},"geometry":{"type":"Polygon","coordinates":[[[-3.48109,40.3983],[-3.48039,40.39778],[-3.48015,40.39742],[-3.48013,40.39697],[-3.47974,40.39598],[-3.48034,40.39574],[-3.48086,40.39571],[-3.4831,40.39567],[-3.48369,40.39584],[-3.48411,40.39753],[-3.48406,40.39767],[-3.48554,40.3973],[-3.48529,40.40039],[-3.4851,40.40068],[-3.48485,40.40076],[-3.48473,40.40052],[-3.48433,40.40026],[-3.48109,40.3983]]]}},{"type":"Feature","properties":{"id":"2808401009"},"geometry":{"type":"Polygon","coordinates":[[[-3.44154,40.40807],[-3.44042,40.40521],[-3.44122,40.40502],[-3.44145,40.40409],[-3.44372,40.40248],[-3.4441,40.40199],[-3.44446,40.4009],[-3.44545,40.4012],[-3.44729,40.39851],[-3.44975,40.39738],[-3.44902,40.39496],[-3.45107,40.39512],[-3.45434,40.3932],[-3.4552,40.39349],[-3.45585,40.3939],[-3.48096,40.3902],[-3.48381,40.39018],[-3.48384,40.39134],[-3.48066,40.39125],[-3.48028,40.39254],[-3.48047,40.39343],[-3.48039,40.39573],[-3.47974,40.39598],[-3.48013,40.39697],[-3.48015,40.39742],[-3.48039,40.39778],[-3.48109,40.3983],[-3.47951,40.3997],[-3.47839,40.40017],[-3.47696,40.40049],[-3.47308,40.40184],[-3.47244,40.40226],[-3.47206,40.40274],[-3.47144,40.4032],[-3.46883,40.40473],[-3.46707,40.40545],[-3.46535,40.40602],[-3.46336,40.40693],[-3.4625,40.40757],[-3.46131,40.40826],[-3.45815,40.40978],[-3.45724,40.41005],[-3.4555,40.41033],[-3.45386,40.41028],[-3.45154,40.41034],[-3.4486,40.41053],[-3.44746,40.41025],[-3.44568,40.40946],[-3.44447,40.40918],[-3.44351,40.40881],[-3.44335,40.40867],[-3.44154,40.40807]]]}},{"type":"Feature","properties":{"id":"2808401010"},"geometry":{"type":"Polygon","coordinates":[[[-3.48874,40.39474],[-3.4908,40.39227],[-3.49145,40.39293],[-3.49161,40.39299],[-3.49182,40.39243],[-3.49188,40.39147],[-3.49223,40.39081],[-3.49303,40.39166],[-3.4933,40.3923],[-3.49334,40.39273],[-3.49312,40.39368],[-3.49306,40.39477],[-3.49008,40.39521],[-3.48984,40.39543],[-3.48874,40.39474]]]}},{"type":"Feature","properties":{"id":"2808401011"},"geometry":{"type":"Polygon","coordinates":[[[-3.43993,40.41255],[-3.4415,40.41253],[-3.44084,40.41076],[-3.44014,40.41008],[-3.44114,40.40945],[-3.44154,40.40807],[-3.44335,40.40867],[-3.44351,40.40881],[-3.44447,40.40918],[-3.44568,40.40946],[-3.44746,40.41025],[-3.4486,40.41053],[-3.45154,40.41034],[-3.45386,40.41028],[-3.4555,40.41033],[-3.45612,40.41026],[-3.45783,40.40991],[-3.45815,40.40978],[-3.46131,40.40826],[-3.4625,40.40757],[-3.46336,40.40693],[-3.46535,40.40602],[-3.46707,40.40545],[-3.46883,40.40473],[-3.47144,40.4032],[-3.47206,40.40274],[-3.47244,40.40226],[-3.47308,40.40184],[-3.47696,40.40049],[-3.47839,40.40017],[-3.47951,40.3997],[-3.48109,40.3983],[-3.4848,40.40061],[-3.48485,40.40076],[-3.48468,40.40108],[-3.48408,40.40175],[-3.48315,40.40195],[-3.48197,40.40293],[-3.47947,40.40676],[-3.4784,40.40878],[-3.47816,40.41059],[-3.47787,40.41114],[-3.47686,40.41248],[-3.47619,40.41466],[-3.47544,40.41569],[-3.47458,40.41637],[-3.47228,40.41634],[-3.46917,40.41796],[-3.46153,40.41893],[-3.45703,40.41901],[-3.45318,40.42026],[-3.45254,40.42164],[-3.44928,40.42159],[-3.44212,40.41868],[-3.43993,40.41255]]]}}]}