{"type":"FeatureCollection","features":[{"type":"Feature","properties":{"id":"2809001001"},"geometry":{"type":"Polygon","coordinates":[[[-3.97137,40.70403],[-3.97307,40.69815],[-3.97272,40.69802],[-3.97308,40.69259],[-3.97341,40.69122],[-3.9746,40.69003],[-3.97404,40.68735],[-3.97415,40.68677],[-3.97368,40.68584],[-3.97293,40.68334],[-3.97248,40.68247],[-3.97231,40.68219],[-3.97109,40.68113],[-3.97038,40.68099],[-3.9691,40.6811],[-3.96959,40.68078],[-3.97104,40.67903],[-3.97115,40.67854],[-3.97128,40.67847],[-3.97129,40.67813],[-3.97095,40.67789],[-3.97174,40.67757],[-3.97266,40.67735],[-3.97266,40.67771],[-3.97317,40.67887],[-3.9735,40.67883],[-3.97417,40.67897],[-3.97406,40.67933],[-3.97543,40.67947],[-3.97557,40.67965],[-3.97656,40.68018],[-3.97703,40.68086],[-3.97775,40.67995],[-3.97855,40.6793],[-3.97893,40.67853],[-3.97956,40.67808],[-3.97947,40.67734],[-3.97915,40.67715],[-3.97891,40.67678],[-3.979,40.6761],[-3.9788,40.6756],[-3.97913,40.67517],[-3.97935,40.67505],[-3.97941,40.67474],[-3.97922,40.67455],[-3.97847,40.67432],[-3.97808,40.67407],[-3.97898,40.67332],[-3.97766,40.67197],[-3.97617,40.67021],[-3.97501,40.66921],[-3.97976,40.66465],[-3.98078,40.66274],[-3.98359,40.66357],[-3.9869,40.66502],[-3.99328,40.66668],[-3.994,40.66742],[-3.99499,40.67517],[-3.99552,40.67743],[-3.99547,40.67931],[-3.99526,40.6811],[-3.99479,40.68241],[-3.99478,40.6848],[-3.99584,40.68775],[-3.9975,40.69043],[-3.99505,40.69173],[-3.99217,40.69361],[-3.99014,40.69447],[-3.98822,40.69553],[-3.98615,40.69846],[-3.98502,40.70198],[-3.98128,40.70607],[-3.97979,40.70678],[-3.97769,40.70676],[-3.97685,40.70659],[-3.97642,40.70638],[-3.9753,40.70631],[-3.97389,40.70586],[-3.97319,40.70527],[-3.97255,40.70515],[-3.97195,40.70448],[-3.97137,40.70403]]]}},{"type":"Feature","properties":{"id":"2809001002"},"geometry":{"type":"Polygon","coordinates":[[[-3.94072,40.71255],[-3.94126,40.71156],[-3.94541,40.70819],[-3.94841,40.70504],[-3.95036,40.70315],[-3.95165,40.70233],[-3.95182,40.70155],[-3.95289,40.70029],[-3.95239,40.69871],[-3.95245,40.69301],[-3.95183,40.69183],[-3.94954,40.68945],[-3.94928,40.68929],[-3.95054,40.68888],[-3.9523,40.68804],[-3.95229,40.68712],[-3.95334,40.68661],[-3.95429,40.68589],[-3.95488,40.68451],[-3.95522,40.68308],[-3.9572,40.68091],[-3.96417,40.67825],[-3.96663,40.67767],[-3.96943,40.67559],[-3.96933,40.67626],[-3.96948,40.67664],[-3.96994,40.67719],[-3.97122,40.67803],[-3.97128,40.67847],[-3.97115,40.67854],[-3.97104,40.67903],[-3.97069,40.67954],[-3.96976,40.6805],[-3.96959,40.68078],[-3.96853,40.6814],[-3.96827,40.68167],[-3.9676,40.68268],[-3.96679,40.68425],[-3.96674,40.68488],[-3.96713,40.68618],[-3.96729,40.68649],[-3.96784,40.68706],[-3.96795,40.68768],[-3.96772,40.68802],[-3.96654,40.68866],[-3.96624,40.68922],[-3.96624,40.6895],[-3.96672,40.69089],[-3.96602,40.6935],[-3.96569,40.69394],[-3.96305,40.69563],[-3.96197,40.6965],[-3.96116,40.69751],[-3.96061,40.69901],[-3.95982,40.69983],[-3.95867,40.70196],[-3.95841,40.70216],[-3.95781,40.70239],[-3.95683,40.70337],[-3.95542,40.70451],[-3.95511,40.70493],[-3.95462,40.70658],[-3.95538,40.70709],[-3.95835,40.70721],[-3.95995,40.70716],[-3.95988,40.70736],[-3.95796,40.70967],[-3.95415,40.71307],[-3.95195,40.71489],[-3.95156,40.71618],[-3.94983,40.71696],[-3.94868,40.71776],[-3.94532,40.71646],[-3.9429,40.71583],[-3.94088,40.7144],[-3.94072,40.71255]]]}},{"type":"Feature","properties":{"id":"2809001003"},"geometry":{"type":"Polygon","coordinates":[[[-3.93979,40.68447],[-3.93782,40.68071],[-3.9375,40.67951],[-3.93779,40.67684],[-3.93826,40.67628],[-3.94101,40.67447],[-3.94261,40.67382],[-3.94436,40.67379],[-3.95255,40.67416],[-3.95519,40.6745],[-3.95907,40.67479],[-3.96143,40.67294],[-3.96368,40.67287],[-3.96528,40.67247],[-3.96657,40.67202],[-3.96718,40.67216],[-3.96779,40.6725],[-3.96912,40.67343],[-3.96993,40.67467],[-3.96943,40.67559],[-3.96663,40.67767],[-3.96417,40.67825],[-3.9572,40.68091],[-3.95522,40.68308],[-3.95488,40.68451],[-3.95429,40.68589],[-3.95334,40.68661],[-3.95229,40.68712],[-3.9523,40.68804],[-3.95054,40.68888],[-3.94928,40.68929],[-3.94474,40.68652],[-3.94117,40.68518],[-3.93979,40.68447]]]}},{"type":"Feature","properties":{"id":"2809001004"},"geometry":{"type":"Polygon","coordinates":[[[-3.97095,40.67789],[-3.96994,40.67719],[-3.96948,40.67664],[-3.96933,40.67626],[-3.96943,40.67559],[-3.97004,40.67446],[-3.97083,40.67376],[-3.97214,40.67293],[-3.9728,40.67235],[-3.97501,40.66921],[-3.97617,40.67021],[-3.97766,40.67197],[-3.97898,40.67332],[-3.97808,40.67407],[-3.97847,40.67432],[-3.97922,40.67455],[-3.97941,40.67474],[-3.97935,40.67505],[-3.97913,40.67517],[-3.9788,40.6756],[-3.979,40.6761],[-3.97891,40.67678],[-3.97915,40.67715],[-3.97947,40.67734],[-3.97956,40.67808],[-3.97893,40.67853],[-3.97855,40.6793],[-3.97775,40.67995],[-3.97703,40.68086],[-3.97656,40.68018],[-3.97557,40.67965],[-3.97543,40.67947],[-3.97406,40.67933],[-3.97417,40.67897],[-3.9735,40.67883],[-3.97317,40.67887],[-3.97266,40.67771],[-3.97266,40.67735],[-3.97174,40.67757],[-3.97095,40.67789]]]}},{"type":"Feature","properties":{"id":"2809001005"},"geometry":{"type":"Polygon","coordinates":[[[-3.9691,40.6811],[-3.97038,40.68099],[-3.97109,40.68113],[-3.97231,40.68219],[-3.97248,40.68247],[-3.97293,40.68334],[-3.97368,40.68584],[-3.97415,40.68677],[-3.97404,40.68735],[-3.9746,40.69003],[-3.97341,40.69122],[-3.97308,40.69259],[-3.97272,40.69802],[-3.97307,40.69815],[-3.97137,40.70403],[-3.971,40.70383],[-3.97034,40.70369],[-3.9691,40.70463],[-3.96817,40.70605],[-3.96751,40.70635],[-3.96485,40.70592],[-3.96305,40.70686],[-3.96003,40.70696],[-3.95995,40.70716],[-3.95945,40.70719],[-3.95538,40.70709],[-3.95462,40.70658],[-3.95511,40.70493],[-3.95527,40.70469],[-3.95683,40.70337],[-3.95781,40.70239],[-3.95841,40.70216],[-3.95867,40.70196],[-3.95982,40.69983],[-3.96061,40.69901],[-3.96116,40.69751],[-3.96197,40.6965],[-3.96305,40.69563],[-3.96569,40.69394],[-3.96602,40.6935],[-3.96672,40.69089],[-3.96624,40.6895],[-3.96624,40.68922],[-3.96654,40.68866],[-3.96772,40.68802],[-3.96795,40.68768],[-3.96784,40.68706],[-3.96729,40.68649],[-3.96713,40.68618],[-3.9667,40.68458],[-3.96694,40.68386],[-3.96815,40.68183],[-3.96853,40.6814],[-3.9691,40.6811]]]}},{"type":"Feature","properties":{"id":"2809001006"},"geometry":{"type":"MultiPolygon","coordinates":[[[[-3.96993,40.67467],[-3.96912,40.67343],[-3.96779,40.6725],[-3.96718,40.67216],[-3.96657,40.67202],[-3.96528,40.67247],[-3.96368,40.67287],[-3.96143,40.67294],[-3.95907,40.67479],[-3.95519,40.6745],[-3.95255,40.67416],[-3.94436,40.67379],[-3.94261,40.67382],[-3.94101,40.67447],[-3.93826,40.67628],[-3.93779,40.67684],[-3.9375,40.67951],[-3.93782,40.68071],[-3.93979,40.68447],[-3.93714,40.68332],[-3.93413,40.68152],[-3.92977,40.68026],[-3.92668,40.67994],[-3.92576,40.67895],[-3.9245,40.67846],[-3.92434,40.6775],[-3.92089,40.67693],[-3.9199,40.67723],[-3.91527,40.681],[-3.91325,40.68244],[-3.90894,40.68445],[-3.90797,40.68357],[-3.90598,40.68221],[-3.90912,40.68043],[-3.9109,40.67861],[-3.91406,40.67629],[-3.91512,40.67591],[-3.91924,40.67285],[-3.92008,40.67282],[-3.91959,40.67121],[-3.91777,40.66684],[-3.91665,40.66374],[-3.92702,40.6642],[-3.92867,40.66383],[-3.92865,40.66316],[-3.92989,40.66093],[-3.92936,40.65941],[-3.92785,40.65726],[-3.92624,40.65453],[-3.92619,40.65413],[-3.92666,40.652],[-3.92218,40.65013],[-3.91822,40.64929],[-3.91783,40.6494],[-3.91619,40.64951],[-3.91513,40.6497],[-3.91183,40.65007],[-3.90842,40.65193],[-3.90442,40.65389],[-3.90325,40.6569],[-3.90316,40.65974],[-3.90403,40.66358],[-3.90405,40.66578],[-3.90458,40.66731],[-3.90411,40.66898],[-3.90186,40.67007],[-3.8985,40.67039],[-3.89701,40.67044],[-3.89594,40.66971],[-3.89136,40.66765],[-3.88893,40.66603],[-3.88637,40.66461],[-3.88411,40.66354],[-3.88118,40.66149],[-3.88017,40.66044],[-3.8787,40.65981],[-3.87337,40.65709],[-3.87519,40.65308],[-3.87967,40.65153],[-3.88242,40.65198],[-3.8863,40.65247],[-3.88809,40.65234],[-3.89039,40.65193],[-3.89343,40.65093],[-3.89672,40.64852],[-3.90279,40.64512],[-3.90781,40.64293],[-3.91007,40.64232],[-3.91276,40.64192],[-3.91405,40.64123],[-3.91758,40.63978],[-3.92033,40.6388],[-3.92113,40.63825],[-3.92196,40.63724],[-3.9243,40.63482],[-3.92525,40.63415],[-3.92648,40.6331],[-3.93258,40.62725],[-3.93417,40.62536],[-3.93761,40.62283],[-3.93951,40.62185],[-3.94085,40.62037],[-3.94195,40.6187],[-3.94267,40.61723],[-3.94322,40.61658],[-3.94419,40.61486],[-3.94459,40.61366],[-3.94671,40.61086],[-3.9469,40.60864],[-3.9482,40.60631],[-3.94893,40.60476],[-3.94928,40.60358],[-3.9506,40.60022],[-3.95167,40.59887],[-3.95234,40.59828],[-3.95306,40.59744],[-3.95392,40.59831],[-3.9561,40.60002],[-3.9573,40.6006],[-3.95907,40.60167],[-3.95905,40.60488],[-3.95923,40.60966],[-3.95919,40.61156],[-3.95881,40.61591],[-3.95884,40.61717],[-3.96004,40.61909],[-3.95849,40.62416],[-3.95837,40.62718],[-3.95813,40.62905],[-3.95807,40.6312],[-3.95793,40.63213],[-3.95809,40.63285],[-3.95661,40.63475],[-3.95291,40.63774],[-3.94998,40.64136],[-3.94704,40.64312],[-3.94651,40.64445],[-3.94761,40.64706],[-3.94765,40.64916],[-3.94827,40.6511],[-3.9477,40.65237],[-3.94802,40.65317],[-3.94826,40.65464],[-3.94923,40.65713],[-3.95028,40.65759],[-3.95341,40.65775],[-3.9557,40.65805],[-3.95925,40.65832],[-3.96336,40.65797],[-3.96674,40.65818],[-3.96901,40.66023],[-3.97181,40.6609],[-3.97803,40.66175],[-3.98078,40.66274],[-3.97976,40.66465],[-3.97501,40.66921],[-3.9728,40.67235],[-3.97214,40.67293],[-3.97056,40.67397],[-3.96993,40.67467]]],[[[-3.90279,40.67431],[-3.90659,40.67318],[-3.90726,40.67557],[-3.90743,40.67764],[-3.9034,40.679],[-3.9027,40.67862],[-3.90249,40.67756],[-3.90322,40.67542],[-3.90279,40.67431]]]]}}]}