{"type":"FeatureCollection","features":[{"type":"Feature","properties":{"id":"2811301001"},"geometry":{"type":"Polygon","coordinates":[[[-3.69938,40.2429],[-3.69819,40.24185],[-3.6979,40.2417],[-3.69783,40.24139],[-3.69798,40.24096],[-3.69935,40.24102],[-3.70041,40.24083],[-3.70038,40.2407],[-3.70083,40.24063],[-3.7009,40.24098],[-3.70046,40.24104],[-3.70052,40.24148],[-3.70022,40.24163],[-3.69959,40.24277],[-3.69938,40.2429]]]}},{"type":"Feature","properties":{"id":"2811301002"},"geometry":{"type":"Polygon","coordinates":[[[-3.70076,40.24302],[-3.69958,40.24292],[-3.6995,40.24299],[-3.69938,40.2429],[-3.6997,40.24262],[-3.70022,40.24163],[-3.70052,40.24148],[-3.70046,40.24104],[-3.7009,40.24098],[-3.70084,40.24069],[-3.70143,40.24047],[-3.70164,40.24071],[-3.70369,40.23971],[-3.7038,40.24236],[-3.70193,40.24246],[-3.70197,40.24279],[-3.70076,40.24302]]]}},{"type":"Feature","properties":{"id":"2811301003"},"geometry":{"type":"Polygon","coordinates":[[[-3.70305,40.24728],[-3.70265,40.24649],[-3.70274,40.24645],[-3.70223,40.24525],[-3.70152,40.2441],[-3.70123,40.24391],[-3.70113,40.24396],[-3.69995,40.24294],[-3.70076,40.24302],[-3.70197,40.24279],[-3.70193,40.24246],[-3.7038,40.24236],[-3.70404,40.24858],[-3.70305,40.24728]]]}},{"type":"Feature","properties":{"id":"2811301004"},"geometry":{"type":"Polygon","coordinates":[[[-3.70014,40.2459],[-3.70022,40.2457],[-3.69974,40.24446],[-3.69975,40.24366],[-3.69951,40.24298],[-3.69958,40.24292],[-3.69995,40.24294],[-3.70113,40.24396],[-3.70123,40.24391],[-3.70148,40.24404],[-3.70213,40.24507],[-3.70274,40.24645],[-3.70214,40.24673],[-3.70067,40.24591],[-3.70014,40.2459]]]}},{"type":"Feature","properties":{"id":"2811301005"},"geometry":{"type":"Polygon","coordinates":[[[-3.70164,40.24071],[-3.70037,40.23946],[-3.70018,40.2394],[-3.70006,40.23913],[-3.6987,40.23767],[-3.69607,40.23406],[-3.69403,40.22987],[-3.69384,40.22953],[-3.69355,40.22936],[-3.69314,40.22821],[-3.69421,40.22903],[-3.70121,40.2355],[-3.70069,40.23588],[-3.70049,40.23615],[-3.70038,40.23763],[-3.70267,40.2389],[-3.70349,40.23979],[-3.70164,40.24071]]]}},{"type":"Feature","properties":{"id":"2811301006"},"geometry":{"type":"Polygon","coordinates":[[[-3.7037,40.23972],[-3.70407,40.23945],[-3.70669,40.2381],[-3.708,40.23698],[-3.70924,40.23637],[-3.71543,40.23417],[-3.71601,40.23419],[-3.71949,40.23152],[-3.71983,40.23077],[-3.72246,40.22827],[-3.72436,40.22618],[-3.72555,40.2257],[-3.72861,40.22416],[-3.73176,40.22297],[-3.73563,40.22186],[-3.73667,40.22138],[-3.73734,40.22134],[-3.73776,40.22575],[-3.7387,40.22746],[-3.7392,40.23026],[-3.73819,40.23691],[-3.7379,40.23994],[-3.73808,40.24485],[-3.73766,40.24542],[-3.73754,40.24599],[-3.73716,40.25069],[-3.7358,40.25301],[-3.74118,40.25428],[-3.73954,40.27094],[-3.73716,40.27087],[-3.73637,40.27217],[-3.73509,40.27252],[-3.73485,40.27251],[-3.73423,40.27221],[-3.73354,40.27218],[-3.73177,40.27222],[-3.73065,40.27248],[-3.7293,40.2722],[-3.72838,40.27249],[-3.72723,40.27216],[-3.7268,40.27156],[-3.72613,40.27155],[-3.72432,40.27082],[-3.72385,40.27037],[-3.72291,40.26973],[-3.7224,40.26961],[-3.72131,40.26985],[-3.71987,40.26986],[-3.71971,40.26974],[-3.71955,40.26915],[-3.71881,40.26867],[-3.71797,40.2685],[-3.71616,40.26789],[-3.71499,40.26794],[-3.71437,40.26746],[-3.71303,40.26714],[-3.71146,40.2669],[-3.70908,40.26696],[-3.70869,40.26705],[-3.70817,40.26747],[-3.7078,40.26761],[-3.70631,40.26776],[-3.70518,40.26759],[-3.70452,40.26784],[-3.70438,40.25956],[-3.7037,40.23972]]]}},{"type":"Feature","properties":{"id":"2811301007"},"geometry":{"type":"Polygon","coordinates":[[[-3.70121,40.2355],[-3.70213,40.23645],[-3.703,40.23763],[-3.70366,40.23942],[-3.70369,40.23971],[-3.70349,40.23979],[-3.70267,40.2389],[-3.70038,40.23763],[-3.70049,40.23615],[-3.70069,40.23588],[-3.70121,40.2355]]]}},{"type":"Feature","properties":{"id":"2811301008"},"geometry":{"type":"Polygon","coordinates":[[[-3.69798,40.24096],[-3.69884,40.23987],[-3.6994,40.2396],[-3.70018,40.2394],[-3.70037,40.23946],[-3.70143,40.24047],[-3.70084,40.24069],[-3.70083,40.24063],[-3.70038,40.2407],[-3.70041,40.24083],[-3.69935,40.24102],[-3.69798,40.24096]]]}},{"type":"Feature","properties":{"id":"2811301009"},"geometry":{"type":"Polygon","coordinates":[[[-3.69892,40.24989],[-3.69976,40.24679],[-3.70014,40.2459],[-3.70067,40.24591],[-3.70214,40.24673],[-3.70265,40.24649],[-3.70305,40.24728],[-3.70258,40.24738],[-3.70154,40.24791],[-3.6996,40.24946],[-3.69892,40.24989]]]}},{"type":"Feature","properties":{"id":"2811301010"},"geometry":{"type":"Polygon","coordinates":[[[-3.69889,40.24996],[-3.6996,40.24946],[-3.70154,40.24791],[-3.70258,40.24738],[-3.70305,40.24728],[-3.70404,40.24858],[-3.7041,40.25024],[-3.69955,40.25139],[-3.69953,40.25057],[-3.69889,40.24996]]]}},{"type":"Feature","properties":{"id":"2811301011"},"geometry":{"type":"Polygon","coordinates":[[[-3.69958,40.25369],[-3.69955,40.25139],[-3.7041,40.25024],[-3.70418,40.2537],[-3.69958,40.25369]]]}},{"type":"Feature","properties":{"id":"2811301012"},"geometry":{"type":"Polygon","coordinates":[[[-3.69974,40.2569],[-3.69958,40.25369],[-3.70418,40.2537],[-3.70427,40.25687],[-3.69974,40.2569]]]}},{"type":"Feature","properties":{"id":"2811301013"},"geometry":{"type":"Polygon","coordinates":[[[-3.69995,40.25913],[-3.69974,40.2569],[-3.70427,40.25687],[-3.70436,40.25915],[-3.69995,40.25913]]]}},{"type":"Feature","properties":{"id":"2811301014"},"geometry":{"type":"Polygon","coordinates":[[[-3.73734,40.22134],[-3.73667,40.22138],[-3.73563,40.22186],[-3.73176,40.22297],[-3.72861,40.22416],[-3.72555,40.2257],[-3.72436,40.22618],[-3.72246,40.22827],[-3.71983,40.23077],[-3.71949,40.23152],[-3.71601,40.23419],[-3.71543,40.23417],[-3.70924,40.23637],[-3.708,40.23698],[-3.70669,40.2381],[-3.70407,40.23945],[-3.7037,40.23972],[-3.70345,40.23869],[-3.703,40.23763],[-3.70213,40.23645],[-3.70121,40.2355],[-3.69421,40.22903],[-3.69314,40.22821],[-3.69285,40.22727],[-3.69071,40.2252],[-3.69021,40.22419],[-3.6896,40.22213],[-3.68873,40.22018],[-3.68852,40.2193],[-3.68794,40.21798],[-3.68719,40.21677],[-3.68689,40.21606],[-3.68675,40.21521],[-3.6869,40.21452],[-3.68734,40.2136],[-3.69222,40.21121],[-3.6949,40.20685],[-3.69811,40.20264],[-3.69901,40.20102],[-3.7,40.19893],[-3.70408,40.20156],[-3.70602,40.20229],[-3.70791,40.20315],[-3.724,40.20847],[-3.72925,40.21004],[-3.73211,40.21078],[-3.73285,40.21082],[-3.73345,40.21104],[-3.73882,40.21596],[-3.73855,40.21723],[-3.73876,40.2173],[-3.73734,40.22134]]]}},{"type":"Feature","properties":{"id":"2811301015"},"geometry":{"type":"Polygon","coordinates":[[[-3.69995,40.25913],[-3.70436,40.25915],[-3.7044,40.26179],[-3.70019,40.26176],[-3.69995,40.25913]]]}},{"type":"Feature","properties":{"id":"2811302001"},"geometry":{"type":"Polygon","coordinates":[[[-3.69654,40.2463],[-3.69798,40.24568],[-3.69877,40.24547],[-3.70003,40.2453],[-3.70022,40.2457],[-3.69933,40.24808],[-3.69916,40.24809],[-3.69654,40.2463]]]}},{"type":"Feature","properties":{"id":"2811302002"},"geometry":{"type":"Polygon","coordinates":[[[-3.6952,40.24595],[-3.69523,40.24575],[-3.69543,40.24558],[-3.69772,40.24433],[-3.69841,40.2438],[-3.69862,40.24299],[-3.69918,40.24278],[-3.69951,40.24298],[-3.69972,40.24339],[-3.69974,40.24446],[-3.70003,40.2453],[-3.69835,40.24556],[-3.69657,40.2463],[-3.69607,40.24591],[-3.6952,40.24595]]]}},{"type":"Feature","properties":{"id":"2811302003"},"geometry":{"type":"Polygon","coordinates":[[[-3.69478,40.24378],[-3.69478,40.24291],[-3.69584,40.24314],[-3.69661,40.24351],[-3.69648,40.24372],[-3.69655,40.24375],[-3.69694,40.24348],[-3.69771,40.24269],[-3.69812,40.24268],[-3.69869,40.24295],[-3.69841,40.2438],[-3.69772,40.24433],[-3.69561,40.24549],[-3.69477,40.24491],[-3.69424,40.24518],[-3.69413,40.24514],[-3.69478,40.24378]]]}},{"type":"Feature","properties":{"id":"2811302004"},"geometry":{"type":"Polygon","coordinates":[[[-3.64454,40.22911],[-3.6501,40.22593],[-3.65374,40.22428],[-3.6573,40.22285],[-3.66232,40.22112],[-3.66293,40.22143],[-3.66337,40.22088],[-3.66795,40.21993],[-3.67358,40.2195],[-3.67641,40.21984],[-3.68166,40.21616],[-3.68208,40.21641],[-3.68349,40.21526],[-3.68734,40.2136],[-3.6869,40.21452],[-3.68675,40.21521],[-3.68689,40.21606],[-3.68719,40.21677],[-3.68794,40.21798],[-3.68852,40.2193],[-3.68873,40.22018],[-3.6896,40.22213],[-3.69021,40.22419],[-3.69071,40.2252],[-3.69285,40.22727],[-3.69355,40.22936],[-3.69384,40.22953],[-3.69403,40.22987],[-3.69607,40.23406],[-3.69847,40.23739],[-3.70006,40.23913],[-3.70018,40.2394],[-3.6994,40.2396],[-3.69884,40.23987],[-3.69832,40.24052],[-3.69695,40.23972],[-3.69483,40.23797],[-3.69385,40.2385],[-3.69347,40.23889],[-3.6933,40.2395],[-3.69328,40.24081],[-3.6919,40.24081],[-3.68973,40.24097],[-3.68529,40.24145],[-3.68337,40.23967],[-3.68182,40.24081],[-3.68132,40.24145],[-3.67965,40.24122],[-3.67844,40.24075],[-3.67707,40.23943],[-3.67573,40.23884],[-3.67124,40.23754],[-3.66634,40.23643],[-3.66565,40.23617],[-3.66513,40.23571],[-3.6636,40.23484],[-3.66108,40.23401],[-3.65732,40.23229],[-3.64907,40.23055],[-3.64454,40.22911]]]}},{"type":"Feature","properties":{"id":"2811302005"},"geometry":{"type":"Polygon","coordinates":[[[-3.69538,40.24824],[-3.69525,40.24811],[-3.69493,40.24807],[-3.69654,40.2463],[-3.69916,40.24809],[-3.69586,40.24838],[-3.69538,40.24824]]]}},{"type":"Feature","properties":{"id":"2811302006"},"geometry":{"type":"Polygon","coordinates":[[[-3.62361,40.27086],[-3.6258,40.26953],[-3.62655,40.26943],[-3.62852,40.26943],[-3.63215,40.26968],[-3.63293,40.26966],[-3.63354,40.26952],[-3.63409,40.26916],[-3.63634,40.26556],[-3.63991,40.2637],[-3.64239,40.26198],[-3.64414,40.26183],[-3.64467,40.26159],[-3.64794,40.25868],[-3.64847,40.25845],[-3.6509,40.25805],[-3.65467,40.25645],[-3.65896,40.25595],[-3.66,40.25596],[-3.6614,40.25619],[-3.66293,40.25632],[-3.66642,40.25587],[-3.66783,40.25544],[-3.67214,40.25481],[-3.67395,40.25444],[-3.67724,40.25313],[-3.67891,40.25204],[-3.68196,40.25136],[-3.6834,40.25073],[-3.68624,40.24843],[-3.68718,40.24792],[-3.68825,40.24755],[-3.68991,40.24666],[-3.69056,40.24642],[-3.69113,40.24627],[-3.69323,40.24609],[-3.69327,40.24618],[-3.69347,40.24622],[-3.69355,40.24605],[-3.69594,40.2459],[-3.69613,40.24593],[-3.69654,40.2463],[-3.69493,40.24807],[-3.69471,40.24816],[-3.69397,40.24898],[-3.69341,40.25081],[-3.69272,40.25143],[-3.6923,40.25209],[-3.69221,40.25317],[-3.69251,40.25549],[-3.69253,40.2567],[-3.69026,40.25701],[-3.69033,40.26416],[-3.69055,40.26685],[-3.69063,40.27007],[-3.69056,40.27059],[-3.69022,40.27068],[-3.68988,40.27147],[-3.68929,40.27229],[-3.68898,40.27251],[-3.68857,40.27266],[-3.68776,40.2728],[-3.68719,40.27274],[-3.68611,40.27319],[-3.68467,40.27352],[-3.68312,40.2743],[-3.68252,40.27425],[-3.68115,40.27376],[-3.68062,40.27377],[-3.68014,40.27441],[-3.67925,40.27472],[-3.67882,40.27546],[-3.67761,40.27559],[-3.67658,40.27549],[-3.67634,40.27562],[-3.67593,40.27635],[-3.67494,40.27641],[-3.6736,40.2768],[-3.67348,40.27692],[-3.6734,40.27767],[-3.67297,40.27854],[-3.67284,40.27934],[-3.67253,40.27972],[-3.67207,40.27982],[-3.672,40.28029],[-3.66841,40.28268],[-3.668,40.28281],[-3.6665,40.283],[-3.66536,40.28385],[-3.66453,40.28412],[-3.66369,40.28504],[-3.66249,40.28576],[-3.6624,40.28598],[-3.66246,40.2868],[-3.66213,40.28749],[-3.6619,40.28776],[-3.66092,40.28796],[-3.65996,40.28838],[-3.65931,40.28882],[-3.65783,40.28884],[-3.65603,40.28904],[-3.65533,40.28969],[-3.65395,40.2904],[-3.6526,40.29132],[-3.6517,40.29179],[-3.65134,40.29184],[-3.64989,40.29267],[-3.64957,40.2927],[-3.64865,40.29245],[-3.64758,40.29241],[-3.64714,40.29249],[-3.64669,40.2928],[-3.64551,40.29275],[-3.64378,40.29229],[-3.64345,40.29192],[-3.64276,40.29146],[-3.64199,40.29149],[-3.64142,40.29173],[-3.64062,40.29167],[-3.63971,40.29184],[-3.63819,40.29169],[-3.63758,40.28961],[-3.63689,40.28594],[-3.6355,40.28362],[-3.6318,40.27849],[-3.62983,40.27731],[-3.62749,40.27685],[-3.62529,40.27325],[-3.62361,40.27086]]]}},{"type":"Feature","properties":{"id":"2811302007"},"geometry":{"type":"Polygon","coordinates":[[[-3.69478,40.24321],[-3.69335,40.24323],[-3.69332,40.24193],[-3.69494,40.24192],[-3.695,40.2416],[-3.69544,40.24103],[-3.69656,40.24139],[-3.69789,40.24166],[-3.69918,40.24278],[-3.69869,40.24295],[-3.69812,40.24268],[-3.69771,40.24269],[-3.69694,40.24348],[-3.69655,40.24375],[-3.69648,40.24372],[-3.69661,40.24351],[-3.69584,40.24314],[-3.69478,40.24291],[-3.69478,40.24321]]]}},{"type":"Feature","properties":{"id":"2811302008"},"geometry":{"type":"Polygon","coordinates":[[[-3.69654,40.25201],[-3.69722,40.25109],[-3.69544,40.2503],[-3.69594,40.24963],[-3.69505,40.24924],[-3.69504,40.2486],[-3.69534,40.2485],[-3.69538,40.24824],[-3.69586,40.24838],[-3.6994,40.24807],[-3.69889,40.24996],[-3.69953,40.25057],[-3.69956,40.25203],[-3.69654,40.25201]]]}},{"type":"Feature","properties":{"id":"2811302009"},"geometry":{"type":"Polygon","coordinates":[[[-3.69493,40.24807],[-3.69525,40.24811],[-3.69538,40.24824],[-3.69534,40.2485],[-3.69504,40.2486],[-3.69505,40.24924],[-3.69594,40.24963],[-3.69544,40.2503],[-3.69722,40.25109],[-3.69654,40.25201],[-3.69552,40.25201],[-3.69532,40.25179],[-3.69512,40.25176],[-3.69486,40.25183],[-3.69479,40.25201],[-3.6923,40.25209],[-3.69272,40.25143],[-3.69341,40.25081],[-3.69397,40.24898],[-3.69471,40.24816],[-3.69493,40.24807]]]}},{"type":"Feature","properties":{"id":"2811302010"},"geometry":{"type":"Polygon","coordinates":[[[-3.6923,40.25209],[-3.69479,40.25201],[-3.69486,40.25183],[-3.69512,40.25176],[-3.69532,40.25179],[-3.69552,40.25201],[-3.69956,40.25203],[-3.69962,40.25536],[-3.69462,40.2554],[-3.69448,40.25546],[-3.69251,40.25549],[-3.69221,40.25317],[-3.6923,40.25209]]]}},{"type":"Feature","properties":{"id":"2811302011"},"geometry":{"type":"Polygon","coordinates":[[[-3.68973,40.24097],[-3.6919,40.24081],[-3.69328,40.24081],[-3.69335,40.24323],[-3.68979,40.24327],[-3.68973,40.24097]]]}},{"type":"Feature","properties":{"id":"2811302012"},"geometry":{"type":"Polygon","coordinates":[[[-3.69332,40.24193],[-3.6933,40.2395],[-3.69347,40.23889],[-3.69385,40.2385],[-3.69483,40.23797],[-3.69695,40.23972],[-3.69832,40.24052],[-3.69789,40.24117],[-3.69789,40.24166],[-3.69656,40.24139],[-3.69544,40.24103],[-3.695,40.2416],[-3.69494,40.24192],[-3.69332,40.24193]]]}},{"type":"Feature","properties":{"id":"2811302013"},"geometry":{"type":"Polygon","coordinates":[[[-3.62291,40.26637],[-3.62606,40.26571],[-3.62859,40.26332],[-3.63144,40.26085],[-3.63264,40.25927],[-3.63297,40.25779],[-3.63357,40.25587],[-3.63375,40.25416],[-3.63376,40.25254],[-3.6339,40.25189],[-3.63409,40.25153],[-3.63414,40.25066],[-3.63453,40.25011],[-3.63498,40.2481],[-3.63499,40.24722],[-3.63543,40.24634],[-3.63695,40.24147],[-3.63766,40.23968],[-3.63876,40.23807],[-3.64192,40.23212],[-3.64335,40.23006],[-3.64454,40.22911],[-3.64907,40.23055],[-3.65732,40.23229],[-3.66108,40.23401],[-3.6636,40.23484],[-3.66513,40.23571],[-3.66565,40.23617],[-3.66634,40.23643],[-3.67124,40.23754],[-3.67573,40.23884],[-3.67707,40.23943],[-3.67844,40.24075],[-3.67965,40.24122],[-3.68132,40.24145],[-3.68182,40.24081],[-3.68337,40.23967],[-3.68529,40.24145],[-3.68973,40.24097],[-3.68979,40.24327],[-3.69478,40.24321],[-3.69478,40.24378],[-3.69413,40.24514],[-3.69424,40.24518],[-3.69477,40.24491],[-3.69542,40.24534],[-3.69561,40.24549],[-3.69523,40.24575],[-3.6952,40.24595],[-3.69355,40.24605],[-3.69347,40.24622],[-3.69327,40.24618],[-3.69323,40.24609],[-3.69113,40.24627],[-3.68991,40.24666],[-3.68825,40.24755],[-3.68718,40.24792],[-3.68624,40.24843],[-3.6834,40.25073],[-3.68196,40.25136],[-3.67891,40.25204],[-3.67724,40.25313],[-3.67395,40.25444],[-3.67214,40.25481],[-3.66783,40.25544],[-3.66642,40.25587],[-3.66293,40.25632],[-3.6614,40.25619],[-3.66,40.25596],[-3.65896,40.25595],[-3.65467,40.25645],[-3.6509,40.25805],[-3.64847,40.25845],[-3.64794,40.25868],[-3.64467,40.26159],[-3.64414,40.26183],[-3.64239,40.26198],[-3.63991,40.2637],[-3.63634,40.26556],[-3.63409,40.26916],[-3.63354,40.26952],[-3.63293,40.26966],[-3.63215,40.26968],[-3.62852,40.26943],[-3.62655,40.26943],[-3.6258,40.26953],[-3.62361,40.27086],[-3.62254,40.26983],[-3.62253,40.26878],[-3.62291,40.26637]]]}},{"type":"Feature","properties":{"id":"2811302014"},"geometry":{"type":"Polygon","coordinates":[[[-3.6903,40.25914],[-3.69026,40.25701],[-3.69253,40.2567],[-3.69249,40.25549],[-3.69448,40.25546],[-3.69462,40.2554],[-3.69962,40.25536],[-3.69974,40.25691],[-3.69553,40.25694],[-3.69527,40.25707],[-3.69526,40.25913],[-3.6903,40.25914]]]}},{"type":"Feature","properties":{"id":"2811302015"},"geometry":{"type":"Polygon","coordinates":[[[-3.69526,40.25912],[-3.69527,40.25707],[-3.69553,40.25694],[-3.69974,40.25691],[-3.70006,40.26029],[-3.69758,40.26029],[-3.69756,40.25911],[-3.69526,40.25912]]]}},{"type":"Feature","properties":{"id":"2811302016"},"geometry":{"type":"Polygon","coordinates":[[[-3.6903,40.25914],[-3.69756,40.25911],[-3.69758,40.26029],[-3.70006,40.26029],[-3.70019,40.26176],[-3.7044,40.26179],[-3.70452,40.26784],[-3.70377,40.26785],[-3.70307,40.26765],[-3.70241,40.26773],[-3.70175,40.26745],[-3.70117,40.26752],[-3.70052,40.26792],[-3.69873,40.26816],[-3.6982,40.26834],[-3.69761,40.2691],[-3.69741,40.26923],[-3.69709,40.26926],[-3.69569,40.26883],[-3.6944,40.26899],[-3.6933,40.26993],[-3.6931,40.26996],[-3.6922,40.26969],[-3.69159,40.27049],[-3.69056,40.27059],[-3.69063,40.27007],[-3.69055,40.26685],[-3.69033,40.26416],[-3.6903,40.25914]]]}}]}