{"type":"FeatureCollection","features":[{"type":"Feature","properties":{"id":"2818001001"},"geometry":{"type":"Polygon","coordinates":[[[-3.2757,40.16883],[-3.27626,40.16862],[-3.27727,40.16892],[-3.27992,40.16943],[-3.2808,40.16985],[-3.28969,40.17562],[-3.29117,40.17656],[-3.29185,40.17689],[-3.29443,40.17932],[-3.29714,40.1821],[-3.29839,40.18762],[-3.299,40.18937],[-3.29798,40.19053],[-3.29193,40.19665],[-3.2881,40.19989],[-3.28755,40.19896],[-3.28715,40.19856],[-3.28704,40.19812],[-3.28711,40.19732],[-3.2865,40.19653],[-3.28593,40.19457],[-3.2854,40.19384],[-3.28484,40.19245],[-3.28454,40.1921],[-3.28424,40.19139],[-3.28372,40.19079],[-3.28307,40.18952],[-3.28326,40.1888],[-3.28297,40.18853],[-3.28268,40.18774],[-3.28347,40.18656],[-3.28406,40.18589],[-3.28419,40.18545],[-3.28413,40.18477],[-3.2837,40.18404],[-3.28375,40.18315],[-3.28391,40.1826],[-3.28381,40.1823],[-3.28335,40.18161],[-3.28327,40.18102],[-3.28151,40.17999],[-3.28127,40.1796],[-3.28091,40.17804],[-3.28053,40.17722],[-3.28079,40.17586],[-3.28074,40.17537],[-3.28055,40.17502],[-3.27943,40.17359],[-3.27759,40.17294],[-3.27652,40.17205],[-3.27603,40.17054],[-3.2757,40.16883]]]}},{"type":"Feature","properties":{"id":"2818001002"},"geometry":{"type":"Polygon","coordinates":[[[-3.26569,40.19784],[-3.26708,40.19758],[-3.27002,40.19651],[-3.27162,40.19642],[-3.27207,40.1963],[-3.27237,40.19616],[-3.27265,40.19552],[-3.27257,40.1949],[-3.27214,40.19437],[-3.27057,40.19357],[-3.2693,40.19326],[-3.26833,40.19274],[-3.26833,40.19237],[-3.26879,40.19192],[-3.26885,40.18983],[-3.26874,40.18932],[-3.26881,40.18906],[-3.269,40.18874],[-3.26984,40.18812],[-3.27013,40.18767],[-3.26989,40.18666],[-3.26996,40.18634],[-3.27037,40.18577],[-3.27044,40.18454],[-3.27036,40.1838],[-3.27003,40.1832],[-3.26947,40.18273],[-3.26839,40.1826],[-3.26801,40.18234],[-3.2677,40.18208],[-3.26756,40.18112],[-3.26816,40.17929],[-3.26876,40.17793],[-3.26951,40.17672],[-3.26948,40.17642],[-3.26896,40.17591],[-3.26897,40.17568],[-3.26968,40.17409],[-3.27059,40.17266],[-3.27113,40.17069],[-3.27439,40.16917],[-3.2757,40.16883],[-3.27603,40.17054],[-3.27652,40.17205],[-3.27759,40.17294],[-3.27943,40.17359],[-3.28055,40.17502],[-3.28074,40.17537],[-3.28079,40.17586],[-3.28053,40.17722],[-3.28091,40.17804],[-3.28127,40.1796],[-3.28151,40.17999],[-3.28327,40.18102],[-3.28335,40.18161],[-3.28381,40.1823],[-3.28391,40.1826],[-3.28375,40.18315],[-3.2837,40.18404],[-3.28413,40.18477],[-3.28419,40.18545],[-3.28406,40.18589],[-3.28347,40.18656],[-3.28268,40.18774],[-3.28297,40.18853],[-3.28326,40.1888],[-3.28307,40.18952],[-3.28372,40.19079],[-3.28424,40.19139],[-3.28454,40.1921],[-3.28484,40.19245],[-3.2854,40.19384],[-3.28593,40.19457],[-3.2865,40.19653],[-3.28711,40.19732],[-3.28704,40.19812],[-3.28715,40.19856],[-3.28755,40.19896],[-3.2881,40.19989],[-3.28429,40.20289],[-3.28151,40.20699],[-3.27886,40.20962],[-3.27643,40.21062],[-3.27426,40.21203],[-3.27043,40.21478],[-3.27069,40.20822],[-3.26941,40.20083],[-3.26569,40.19784]]]}},{"type":"Feature","properties":{"id":"2818001003"},"geometry":{"type":"Polygon","coordinates":[[[-3.27727,40.16892],[-3.27516,40.1682],[-3.27472,40.16831],[-3.27396,40.16791],[-3.26691,40.16328],[-3.26461,40.16172],[-3.26306,40.16035],[-3.25912,40.15732],[-3.25786,40.15683],[-3.25511,40.15635],[-3.25395,40.156],[-3.25329,40.15572],[-3.25084,40.15403],[-3.24913,40.15306],[-3.24772,40.1526],[-3.24511,40.15211],[-3.238,40.15128],[-3.23533,40.15087],[-3.23459,40.15064],[-3.23236,40.14947],[-3.22906,40.14872],[-3.22716,40.14809],[-3.22567,40.148],[-3.22411,40.1482],[-3.22258,40.14851],[-3.22188,40.14859],[-3.22121,40.14857],[-3.21942,40.14876],[-3.21879,40.14862],[-3.21849,40.14845],[-3.21808,40.14788],[-3.21768,40.14705],[-3.21612,40.14568],[-3.21449,40.14456],[-3.21037,40.14236],[-3.20853,40.14169],[-3.20525,40.1409],[-3.20241,40.1406],[-3.2002,40.1406],[-3.20056,40.13913],[-3.20143,40.13754],[-3.20233,40.13558],[-3.20305,40.13242],[-3.20326,40.12789],[-3.20252,40.12302],[-3.20195,40.12046],[-3.20296,40.11811],[-3.20378,40.11689],[-3.20446,40.11542],[-3.20436,40.11392],[-3.2046,40.10926],[-3.20227,40.10681],[-3.20158,40.09888],[-3.2012,40.09698],[-3.20187,40.09542],[-3.20123,40.08932],[-3.20074,40.08806],[-3.20104,40.08559],[-3.20148,40.08553],[-3.20185,40.0853],[-3.20208,40.08429],[-3.20218,40.08254],[-3.20186,40.08196],[-3.20181,40.08154],[-3.20226,40.08082],[-3.20343,40.08003],[-3.20411,40.07925],[-3.20553,40.07815],[-3.20633,40.07733],[-3.20664,40.07666],[-3.20662,40.07577],[-3.20684,40.07524],[-3.20713,40.07492],[-3.20744,40.07475],[-3.20865,40.07445],[-3.21213,40.07326],[-3.21269,40.07295],[-3.2141,40.07183],[-3.21555,40.0712],[-3.22055,40.06953],[-3.22193,40.07128],[-3.22315,40.07311],[-3.22376,40.07561],[-3.22578,40.07995],[-3.22647,40.08216],[-3.22816,40.08447],[-3.22872,40.08657],[-3.23162,40.08855],[-3.23503,40.09145],[-3.23794,40.09335],[-3.24064,40.09595],[-3.24167,40.09813],[-3.24481,40.10134],[-3.24612,40.1018],[-3.24816,40.10367],[-3.25023,40.10527],[-3.25637,40.10893],[-3.25891,40.11131],[-3.26158,40.11079],[-3.26373,40.10984],[-3.26473,40.10926],[-3.26381,40.11129],[-3.26374,40.11226],[-3.26424,40.11421],[-3.2646,40.11503],[-3.26623,40.11643],[-3.26616,40.11725],[-3.26702,40.11914],[-3.26787,40.11968],[-3.26843,40.12028],[-3.26908,40.12272],[-3.26923,40.12423],[-3.26972,40.12548],[-3.27016,40.12759],[-3.2708,40.12835],[-3.27145,40.13187],[-3.27152,40.13301],[-3.27259,40.13496],[-3.27259,40.13567],[-3.27349,40.13704],[-3.27361,40.13788],[-3.27447,40.13976],[-3.27535,40.14233],[-3.27676,40.14721],[-3.27674,40.14853],[-3.27563,40.14991],[-3.27571,40.15185],[-3.27525,40.15355],[-3.27531,40.15468],[-3.27558,40.15625],[-3.27576,40.15828],[-3.27593,40.15865],[-3.27661,40.15953],[-3.2773,40.16006],[-3.27766,40.16083],[-3.27757,40.1618],[-3.27657,40.16409],[-3.27775,40.16433],[-3.2781,40.16448],[-3.27846,40.16533],[-3.27827,40.16783],[-3.27757,40.1683],[-3.27727,40.16892]]]}},{"type":"Feature","properties":{"id":"2818001004"},"geometry":{"type":"Polygon","coordinates":[[[-3.19771,40.15614],[-3.1989,40.15477],[-3.20028,40.15168],[-3.20061,40.14971],[-3.19967,40.14633],[-3.19962,40.14453],[-3.19978,40.14277],[-3.2002,40.1406],[-3.20241,40.1406],[-3.20525,40.1409],[-3.20658,40.14117],[-3.20853,40.14169],[-3.21037,40.14236],[-3.21115,40.14273],[-3.21449,40.14456],[-3.21653,40.14599],[-3.21768,40.14705],[-3.21808,40.14788],[-3.21849,40.14845],[-3.21879,40.14862],[-3.21942,40.14876],[-3.22121,40.14857],[-3.22188,40.14859],[-3.22258,40.14851],[-3.22411,40.1482],[-3.22567,40.148],[-3.22716,40.14809],[-3.22906,40.14872],[-3.23236,40.14947],[-3.23459,40.15064],[-3.23533,40.15087],[-3.238,40.15128],[-3.24511,40.15211],[-3.24772,40.1526],[-3.24913,40.15306],[-3.24976,40.15337],[-3.25329,40.15572],[-3.25395,40.156],[-3.25511,40.15635],[-3.25786,40.15683],[-3.25912,40.15732],[-3.26306,40.16035],[-3.26461,40.16172],[-3.26691,40.16328],[-3.27396,40.16791],[-3.27472,40.16831],[-3.27516,40.1682],[-3.27626,40.16862],[-3.27439,40.16917],[-3.27113,40.17069],[-3.27059,40.17266],[-3.26968,40.17409],[-3.26897,40.17568],[-3.26896,40.17591],[-3.26948,40.17642],[-3.26951,40.17672],[-3.26876,40.17793],[-3.26816,40.17929],[-3.26756,40.18112],[-3.2677,40.18208],[-3.26801,40.18234],[-3.26839,40.1826],[-3.26947,40.18273],[-3.27003,40.1832],[-3.27036,40.1838],[-3.27044,40.18454],[-3.27037,40.18577],[-3.26996,40.18634],[-3.26989,40.18666],[-3.27013,40.18767],[-3.26984,40.18812],[-3.269,40.18874],[-3.26881,40.18906],[-3.26874,40.18932],[-3.26885,40.18983],[-3.26879,40.19192],[-3.26833,40.19237],[-3.26833,40.19274],[-3.2693,40.19326],[-3.27057,40.19357],[-3.27214,40.19437],[-3.27257,40.1949],[-3.27263,40.19526],[-3.27265,40.19552],[-3.27237,40.19616],[-3.27162,40.19642],[-3.27002,40.19651],[-3.26708,40.19758],[-3.26569,40.19784],[-3.26206,40.19492],[-3.25725,40.18977],[-3.25449,40.18807],[-3.24631,40.18244],[-3.23753,40.18005],[-3.23137,40.18208],[-3.22362,40.18484],[-3.22037,40.18096],[-3.2187,40.17435],[-3.21983,40.17107],[-3.2198,40.16906],[-3.21901,40.16548],[-3.21844,40.1639],[-3.21348,40.15964],[-3.20504,40.15632],[-3.19771,40.15614]]]}},{"type":"Feature","properties":{"id":"2818001005"},"geometry":{"type":"Polygon","coordinates":[[[-3.27727,40.16892],[-3.27757,40.1683],[-3.27827,40.16783],[-3.27846,40.16533],[-3.2781,40.16448],[-3.27775,40.16433],[-3.27657,40.16409],[-3.27757,40.1618],[-3.27766,40.16083],[-3.2773,40.16006],[-3.27661,40.15953],[-3.27593,40.15865],[-3.27576,40.15828],[-3.27525,40.15355],[-3.27571,40.15185],[-3.27563,40.14991],[-3.27674,40.14853],[-3.27676,40.14721],[-3.27535,40.14233],[-3.27447,40.13976],[-3.27361,40.13788],[-3.27349,40.13704],[-3.27259,40.13567],[-3.27259,40.13496],[-3.27152,40.13301],[-3.27145,40.13187],[-3.2708,40.12835],[-3.27016,40.12759],[-3.26972,40.12548],[-3.26923,40.12423],[-3.26908,40.12272],[-3.26843,40.12028],[-3.26787,40.11968],[-3.26702,40.11914],[-3.26616,40.11725],[-3.26623,40.11643],[-3.2646,40.11503],[-3.26424,40.11421],[-3.26374,40.11226],[-3.26381,40.11129],[-3.26473,40.10926],[-3.26841,40.10714],[-3.272,40.10428],[-3.27471,40.10235],[-3.27665,40.09744],[-3.27786,40.09229],[-3.27944,40.08766],[-3.27998,40.08418],[-3.27912,40.08124],[-3.27947,40.07924],[-3.28046,40.07622],[-3.28279,40.07095],[-3.2855,40.06629],[-3.28652,40.05872],[-3.28786,40.0555],[-3.28643,40.05233],[-3.2868,40.05175],[-3.28737,40.05155],[-3.28897,40.05184],[-3.28927,40.05203],[-3.2898,40.05267],[-3.29001,40.05274],[-3.29166,40.05218],[-3.29318,40.05221],[-3.29605,40.05166],[-3.29751,40.0517],[-3.29899,40.05214],[-3.30038,40.0528],[-3.30249,40.05331],[-3.30617,40.05845],[-3.30807,40.06067],[-3.31078,40.0662],[-3.31079,40.06734],[-3.31179,40.06825],[-3.31564,40.07024],[-3.3191,40.07419],[-3.32245,40.07607],[-3.32345,40.07622],[-3.32567,40.07747],[-3.32775,40.07913],[-3.33002,40.07971],[-3.33224,40.08048],[-3.33442,40.08105],[-3.34045,40.08043],[-3.34375,40.0803],[-3.34503,40.08011],[-3.3465,40.08263],[-3.34731,40.0851],[-3.34959,40.08968],[-3.34986,40.09068],[-3.34986,40.09146],[-3.34953,40.09305],[-3.34888,40.09441],[-3.34902,40.09551],[-3.34896,40.09658],[-3.34862,40.09778],[-3.34578,40.09974],[-3.3424,40.10268],[-3.34159,40.10355],[-3.34098,40.10446],[-3.33711,40.10669],[-3.33624,40.10752],[-3.33374,40.11081],[-3.33241,40.11122],[-3.33188,40.11274],[-3.33064,40.11407],[-3.32864,40.11514],[-3.32742,40.11591],[-3.32598,40.11631],[-3.32346,40.1198],[-3.32175,40.12129],[-3.31936,40.12378],[-3.31465,40.12791],[-3.31135,40.12994],[-3.30989,40.13115],[-3.30756,40.13181],[-3.30372,40.13176],[-3.29662,40.13131],[-3.29924,40.13883],[-3.3017,40.14482],[-3.30245,40.14731],[-3.30382,40.15061],[-3.30429,40.15147],[-3.31161,40.16153],[-3.31378,40.16597],[-3.3158,40.16971],[-3.31657,40.1715],[-3.32036,40.17798],[-3.31968,40.1789],[-3.31368,40.1831],[-3.3068,40.18521],[-3.30006,40.18817],[-3.299,40.18937],[-3.29839,40.18762],[-3.29714,40.1821],[-3.29443,40.17932],[-3.29185,40.17689],[-3.29117,40.17656],[-3.28969,40.17562],[-3.2808,40.16985],[-3.27992,40.16943],[-3.27727,40.16892]]]}}]}