{"type":"FeatureCollection","features":[{"type":"Feature","properties":{"id":"2903201001"},"geometry":{"type":"Polygon","coordinates":[[[-4.78331,37.00828],[-4.78235,37.00403],[-4.78182,37.0007],[-4.78194,37.00016],[-4.78183,36.99739],[-4.78155,36.99509],[-4.78121,36.9937],[-4.77848,36.99124],[-4.77791,36.99093],[-4.77722,36.98969],[-4.77594,36.98903],[-4.77614,36.98763],[-4.77645,36.98323],[-4.77681,36.98291],[-4.77776,36.98271],[-4.77814,36.98245],[-4.77876,36.98171],[-4.77895,36.98036],[-4.77876,36.9792],[-4.77834,36.97777],[-4.7789,36.97719],[-4.78045,36.97507],[-4.78112,36.97392],[-4.78146,36.97311],[-4.7817,36.97207],[-4.78168,36.97069],[-4.7819,36.96979],[-4.78267,36.9648],[-4.78408,36.96326],[-4.78394,36.96202],[-4.78385,36.95914],[-4.78401,36.95653],[-4.78449,36.95394],[-4.78456,36.95299],[-4.78406,36.9516],[-4.7836,36.9496],[-4.78314,36.94834],[-4.78014,36.94286],[-4.78036,36.94215],[-4.78074,36.93961],[-4.78199,36.9398],[-4.78468,36.9382],[-4.78619,36.93706],[-4.7902,36.93686],[-4.79305,36.9369],[-4.79641,36.93682],[-4.80061,36.93646],[-4.81484,36.9397],[-4.81588,36.9397],[-4.8215,36.93924],[-4.82644,36.93906],[-4.83512,36.93411],[-4.8366,36.93341],[-4.83808,36.93245],[-4.84187,36.93037],[-4.84442,36.92919],[-4.84605,36.928],[-4.8498,36.92585],[-4.85143,36.9295],[-4.85437,36.93707],[-4.85575,36.93992],[-4.85681,36.9415],[-4.85855,36.9435],[-4.8586,36.94366],[-4.85784,36.94408],[-4.85639,36.9441],[-4.85568,36.94431],[-4.85509,36.94463],[-4.85436,36.94553],[-4.85206,36.94493],[-4.85194,36.94499],[-4.84627,36.95904],[-4.84715,36.95927],[-4.84778,36.9593],[-4.84934,36.95898],[-4.84977,36.95881],[-4.85058,36.95918],[-4.85102,36.95858],[-4.85134,36.9583],[-4.85212,36.95804],[-4.8527,36.95813],[-4.85376,36.95847],[-4.85527,36.95961],[-4.85787,36.96051],[-4.85768,36.96104],[-4.85584,36.96435],[-4.85687,36.96475],[-4.8594,36.96176],[-4.85985,36.9614],[-4.86018,36.96127],[-4.86053,36.96149],[-4.86165,36.9629],[-4.86222,36.96341],[-4.86307,36.96369],[-4.86463,36.96381],[-4.86533,36.96395],[-4.86548,36.96413],[-4.86492,36.96503],[-4.86432,36.96565],[-4.86403,36.96677],[-4.86238,36.97089],[-4.86173,36.9709],[-4.86009,36.97224],[-4.85997,36.9725],[-4.85999,36.97375],[-4.8602,36.97408],[-4.86051,36.97419],[-4.86089,36.97418],[-4.86332,36.97356],[-4.86426,36.9735],[-4.86608,36.97379],[-4.86582,36.9743],[-4.86443,36.97618],[-4.86421,36.97666],[-4.86415,36.97744],[-4.86421,36.97764],[-4.8647,36.97818],[-4.86483,36.9786],[-4.86473,36.9789],[-4.86435,36.97933],[-4.86342,36.97989],[-4.86307,36.98025],[-4.86271,36.98104],[-4.85994,36.98289],[-4.85882,36.98353],[-4.85855,36.98352],[-4.85782,36.98317],[-4.85632,36.98209],[-4.85585,36.98241],[-4.85392,36.98115],[-4.85226,36.9805],[-4.84689,36.97892],[-4.8458,36.97845],[-4.84465,36.97985],[-4.84202,36.98167],[-4.84162,36.98188],[-4.84099,36.98203],[-4.84053,36.98135],[-4.84055,36.98109],[-4.84311,36.97911],[-4.84362,36.97886],[-4.84438,36.97865],[-4.84484,36.97794],[-4.84089,36.97707],[-4.83913,36.97684],[-4.83874,36.9767],[-4.83831,36.97603],[-4.83804,36.97604],[-4.83701,36.97642],[-4.83562,36.97676],[-4.8353,36.97676],[-4.83483,36.97626],[-4.83451,36.97558],[-4.83433,36.97373],[-4.83423,36.97368],[-4.83376,36.9741],[-4.83331,36.97503],[-4.83284,36.97676],[-4.83276,36.97752],[-4.83308,36.97821],[-4.83345,36.9787],[-4.83393,36.9791],[-4.83432,36.97971],[-4.83704,36.98532],[-4.83983,36.98398],[-4.84274,36.98653],[-4.84364,36.98745],[-4.84489,36.98834],[-4.84589,36.98928],[-4.846,36.98968],[-4.84576,36.99072],[-4.84575,36.99159],[-4.84545,36.99236],[-4.84536,36.99309],[-4.84542,36.99357],[-4.84558,36.99372],[-4.84652,36.99398],[-4.84695,36.99419],[-4.84726,36.99482],[-4.84762,36.99508],[-4.84935,36.99511],[-4.85332,36.99651],[-4.85436,36.99735],[-4.85925,37.00008],[-4.85943,37.00055],[-4.86115,37.00125],[-4.86567,37.00469],[-4.8665,37.00567],[-4.86701,37.00687],[-4.86745,37.00836],[-4.86817,37.00868],[-4.86963,37.00962],[-4.87041,37.01028],[-4.87135,37.01044],[-4.87238,37.01041],[-4.87499,37.00734],[-4.87711,37.00458],[-4.87922,37.00487],[-4.87962,37.0047],[-4.88153,37.00425],[-4.88289,37.00686],[-4.88155,37.0081],[-4.88029,37.00957],[-4.88072,37.01038],[-4.88156,37.01089],[-4.88166,37.01111],[-4.87736,37.016],[-4.8766,37.01705],[-4.87682,37.0175],[-4.87683,37.01777],[-4.87614,37.01893],[-4.87577,37.02044],[-4.87528,37.02373],[-4.87502,37.02456],[-4.87263,37.03077],[-4.87047,37.03511],[-4.86771,37.03897],[-4.86517,37.04301],[-4.86362,37.04484],[-4.86235,37.04687],[-4.86163,37.04638],[-4.86054,37.04757],[-4.85753,37.0448],[-4.8556,37.04402],[-4.85499,37.04367],[-4.85473,37.04326],[-4.85469,37.04301],[-4.85506,37.04265],[-4.85497,37.04214],[-4.85523,37.04203],[-4.85473,37.04179],[-4.85338,37.04049],[-4.85263,37.0392],[-4.85164,37.03799],[-4.84987,37.03648],[-4.84725,37.03396],[-4.84644,37.03291],[-4.84478,37.03029],[-4.84385,37.02927],[-4.84302,37.02877],[-4.84071,37.02787],[-4.83703,37.02669],[-4.83368,37.02649],[-4.83192,37.0261],[-4.83064,37.02617],[-4.83019,37.02597],[-4.82942,37.02507],[-4.82903,37.02487],[-4.82862,37.02485],[-4.82732,37.02506],[-4.82661,37.02499],[-4.826,37.02459],[-4.82493,37.02366],[-4.8245,37.02297],[-4.82416,37.02284],[-4.82217,37.02247],[-4.81925,37.02223],[-4.81632,37.02151],[-4.81365,37.02028],[-4.81083,37.01961],[-4.81051,37.01944],[-4.81007,37.01952],[-4.80813,37.01905],[-4.80741,37.01912],[-4.80668,37.01883],[-4.80554,37.01854],[-4.80483,37.01826],[-4.80337,37.01746],[-4.80156,37.01692],[-4.80119,37.01644],[-4.80088,37.01549],[-4.80018,37.01449],[-4.79952,37.0139],[-4.79818,37.01306],[-4.79658,37.01272],[-4.79586,37.01277],[-4.79546,37.01258],[-4.79496,37.01249],[-4.79424,37.01194],[-4.79407,37.01144],[-4.79384,37.01128],[-4.79354,37.01138],[-4.79272,37.01076],[-4.79037,37.00995],[-4.78889,37.00963],[-4.78623,37.00879],[-4.78395,37.00848],[-4.78331,37.00828]]]}},{"type":"Feature","properties":{"id":"2903201002"},"geometry":{"type":"Polygon","coordinates":[[[-4.81848,37.07804],[-4.79599,37.04496],[-4.796,37.04386],[-4.79566,37.04269],[-4.7934,37.03738],[-4.79231,37.0355],[-4.79027,37.03247],[-4.79121,37.03134],[-4.79118,37.03059],[-4.78961,37.02761],[-4.78631,37.02054],[-4.7849,37.0172],[-4.78338,37.01484],[-4.78314,37.01341],[-4.7836,37.01019],[-4.78331,37.00828],[-4.78395,37.00848],[-4.78623,37.00879],[-4.78889,37.00963],[-4.79037,37.00995],[-4.79272,37.01076],[-4.79354,37.01138],[-4.79384,37.01128],[-4.79407,37.01144],[-4.79424,37.01194],[-4.79496,37.01249],[-4.79546,37.01258],[-4.79586,37.01277],[-4.79658,37.01272],[-4.79818,37.01306],[-4.79952,37.0139],[-4.80018,37.01449],[-4.80088,37.01549],[-4.80119,37.01644],[-4.80156,37.01692],[-4.80337,37.01746],[-4.80483,37.01826],[-4.80554,37.01854],[-4.80668,37.01883],[-4.80741,37.01912],[-4.80813,37.01905],[-4.81007,37.01952],[-4.81051,37.01944],[-4.81083,37.01961],[-4.81365,37.02028],[-4.81632,37.02151],[-4.81925,37.02223],[-4.82217,37.02247],[-4.82416,37.02284],[-4.8245,37.02297],[-4.82493,37.02366],[-4.826,37.02459],[-4.82661,37.02499],[-4.82732,37.02506],[-4.82862,37.02485],[-4.82903,37.02487],[-4.82942,37.02507],[-4.83019,37.02597],[-4.83064,37.02617],[-4.83192,37.0261],[-4.83368,37.02649],[-4.83703,37.02669],[-4.84071,37.02787],[-4.84302,37.02877],[-4.84385,37.02927],[-4.84478,37.03029],[-4.84644,37.03291],[-4.84725,37.03396],[-4.84987,37.03648],[-4.85164,37.03799],[-4.85263,37.0392],[-4.85338,37.04049],[-4.85473,37.04179],[-4.85523,37.04203],[-4.85497,37.04214],[-4.85506,37.04265],[-4.85469,37.04301],[-4.85473,37.04326],[-4.85499,37.04367],[-4.8556,37.04402],[-4.85753,37.0448],[-4.86054,37.04757],[-4.86163,37.04638],[-4.86208,37.04673],[-4.86366,37.04746],[-4.86306,37.0486],[-4.8625,37.04914],[-4.8619,37.05027],[-4.86082,37.05181],[-4.85907,37.05387],[-4.8587,37.05484],[-4.85856,37.05564],[-4.85801,37.05719],[-4.85796,37.05757],[-4.85681,37.05793],[-4.85637,37.05822],[-4.85545,37.05985],[-4.85371,37.06147],[-4.85251,37.06244],[-4.8513,37.0639],[-4.85042,37.06454],[-4.84777,37.06561],[-4.84681,37.06583],[-4.84447,37.06602],[-4.84187,37.06709],[-4.83901,37.06781],[-4.83752,37.06851],[-4.83682,37.06897],[-4.83621,37.06941],[-4.83498,37.07056],[-4.83227,37.07241],[-4.83129,37.07284],[-4.83084,37.07319],[-4.83033,37.07324],[-4.82906,37.0731],[-4.82829,37.07314],[-4.82285,37.07457],[-4.82187,37.07508],[-4.82061,37.07589],[-4.81848,37.07804]]]}},{"type":"Feature","properties":{"id":"2903201003"},"geometry":{"type":"Polygon","coordinates":[[[-4.86377,37.0447],[-4.86524,37.04598],[-4.86563,37.0465],[-4.86694,37.04601],[-4.86794,37.04542],[-4.86994,37.04674],[-4.8698,37.04693],[-4.86928,37.04889],[-4.86811,37.04903],[-4.86807,37.0488],[-4.86713,37.04872],[-4.86635,37.04856],[-4.86449,37.04784],[-4.86235,37.04687],[-4.86377,37.0447]]]}},{"type":"Feature","properties":{"id":"2903201004"},"geometry":{"type":"Polygon","coordinates":[[[-4.86221,37.04988],[-4.8625,37.04914],[-4.86306,37.0486],[-4.86367,37.04746],[-4.86635,37.04856],[-4.86713,37.04872],[-4.86807,37.0488],[-4.86811,37.04903],[-4.86916,37.04886],[-4.8701,37.04902],[-4.87179,37.04912],[-4.87369,37.0489],[-4.87615,37.04906],[-4.87647,37.04895],[-4.87718,37.04844],[-4.88044,37.04678],[-4.88202,37.04624],[-4.8907,37.04461],[-4.90009,37.04414],[-4.90213,37.04392],[-4.90356,37.04353],[-4.90528,37.04282],[-4.90686,37.04264],[-4.90865,37.04205],[-4.90916,37.04182],[-4.91007,37.04115],[-4.91087,37.04077],[-4.91534,37.03941],[-4.91617,37.03929],[-4.91791,37.0393],[-4.91959,37.03915],[-4.92348,37.03806],[-4.92519,37.03815],[-4.9262,37.03849],[-4.9271,37.03869],[-4.92918,37.03884],[-4.93067,37.03914],[-4.9311,37.03916],[-4.93447,37.03805],[-4.93515,37.03756],[-4.94887,37.03978],[-4.96711,37.04871],[-4.96921,37.04965],[-4.97737,37.0562],[-4.98829,37.06458],[-4.98478,37.06683],[-4.98303,37.06758],[-4.98211,37.06846],[-4.98065,37.06896],[-4.97971,37.06947],[-4.97914,37.06998],[-4.97883,37.07046],[-4.97864,37.07218],[-4.97842,37.07301],[-4.97572,37.07358],[-4.97347,37.07456],[-4.97229,37.07535],[-4.97026,37.07805],[-4.9662,37.08057],[-4.96372,37.08249],[-4.96119,37.08535],[-4.95907,37.08664],[-4.95757,37.08856],[-4.95427,37.09169],[-4.95253,37.0911],[-4.95215,37.09089],[-4.95179,37.09055],[-4.95159,37.09008],[-4.95157,37.08959],[-4.95143,37.08914],[-4.95107,37.0888],[-4.95097,37.08822],[-4.95022,37.08709],[-4.94857,37.08637],[-4.9477,37.08614],[-4.94678,37.08615],[-4.94554,37.08635],[-4.9445,37.08635],[-4.94312,37.08623],[-4.94209,37.08601],[-4.94153,37.08577],[-4.94037,37.08499],[-4.93859,37.08318],[-4.93791,37.08278],[-4.9375,37.08265],[-4.93654,37.08306],[-4.93547,37.08383],[-4.93471,37.08422],[-4.9313,37.08567],[-4.9309,37.08569],[-4.92927,37.08467],[-4.92757,37.08346],[-4.92677,37.08238],[-4.92533,37.08159],[-4.92484,37.08112],[-4.92148,37.07951],[-4.91793,37.07762],[-4.91725,37.07659],[-4.91616,37.07589],[-4.91388,37.07464],[-4.91239,37.07427],[-4.91162,37.07385],[-4.91128,37.07329],[-4.91059,37.07266],[-4.90949,37.07136],[-4.90904,37.07112],[-4.9084,37.07051],[-4.90639,37.07005],[-4.90502,37.07018],[-4.90327,37.07019],[-4.90272,37.07001],[-4.90235,37.07006],[-4.90151,37.06964],[-4.89979,37.0695],[-4.89919,37.06917],[-4.89842,37.06904],[-4.89794,37.06878],[-4.89753,37.0684],[-4.89668,37.06797],[-4.89548,37.06784],[-4.89385,37.0678],[-4.88953,37.06583],[-4.88892,37.06537],[-4.88882,37.06515],[-4.88886,37.06452],[-4.88857,37.06384],[-4.88816,37.06321],[-4.88772,37.06285],[-4.88621,37.06232],[-4.88428,37.06143],[-4.88307,37.0607],[-4.87971,37.0596],[-4.87773,37.05881],[-4.87553,37.05816],[-4.87365,37.05734],[-4.87014,37.05527],[-4.86893,37.05434],[-4.86861,37.05402],[-4.86781,37.05218],[-4.86751,37.05203],[-4.86698,37.05195],[-4.86438,37.05036],[-4.86382,37.05082],[-4.86297,37.05018],[-4.86221,37.04988]]]}},{"type":"Feature","properties":{"id":"2903201005"},"geometry":{"type":"Polygon","coordinates":[[[-4.86218,37.04979],[-4.86221,37.04988],[-4.86297,37.05018],[-4.86382,37.05082],[-4.86438,37.05036],[-4.86698,37.05195],[-4.86751,37.05203],[-4.86781,37.05218],[-4.86861,37.05402],[-4.86893,37.05434],[-4.87014,37.05527],[-4.87365,37.05734],[-4.87553,37.05816],[-4.87773,37.05881],[-4.87971,37.0596],[-4.88307,37.0607],[-4.88428,37.06143],[-4.88621,37.06232],[-4.88772,37.06285],[-4.88816,37.06321],[-4.88857,37.06384],[-4.88886,37.06452],[-4.88882,37.06515],[-4.88892,37.06537],[-4.88953,37.06583],[-4.89385,37.0678],[-4.89548,37.06784],[-4.89668,37.06797],[-4.89753,37.0684],[-4.89794,37.06878],[-4.89842,37.06904],[-4.89919,37.06917],[-4.89979,37.0695],[-4.90151,37.06964],[-4.90235,37.07006],[-4.90272,37.07001],[-4.90327,37.07019],[-4.90502,37.07018],[-4.90639,37.07005],[-4.9084,37.07051],[-4.90904,37.07112],[-4.90949,37.07136],[-4.91059,37.07266],[-4.91128,37.07329],[-4.91162,37.07385],[-4.91239,37.07427],[-4.91388,37.07464],[-4.91616,37.07589],[-4.91725,37.07659],[-4.91793,37.07762],[-4.92148,37.07951],[-4.92484,37.08112],[-4.92533,37.08159],[-4.92677,37.08238],[-4.92757,37.08346],[-4.92927,37.08467],[-4.9309,37.08569],[-4.9313,37.08567],[-4.93471,37.08422],[-4.93547,37.08383],[-4.93654,37.08306],[-4.9375,37.08265],[-4.93791,37.08278],[-4.93859,37.08318],[-4.94037,37.08499],[-4.94153,37.08577],[-4.94209,37.08601],[-4.94312,37.08623],[-4.9445,37.08635],[-4.94554,37.08635],[-4.94678,37.08615],[-4.9477,37.08614],[-4.94857,37.08637],[-4.95022,37.08709],[-4.95097,37.08822],[-4.95107,37.0888],[-4.95143,37.08914],[-4.95157,37.08959],[-4.95159,37.09008],[-4.95179,37.09055],[-4.95215,37.09089],[-4.95253,37.0911],[-4.95427,37.09169],[-4.95315,37.09262],[-4.94758,37.09601],[-4.94644,37.09662],[-4.944,37.09769],[-4.93698,37.10028],[-4.93573,37.1005],[-4.93473,37.10024],[-4.93361,37.10024],[-4.93281,37.10013],[-4.93175,37.09986],[-4.93074,37.09992],[-4.92732,37.10335],[-4.92702,37.1035],[-4.92351,37.10316],[-4.92294,37.10314],[-4.92262,37.10323],[-4.92193,37.10365],[-4.92141,37.1043],[-4.92141,37.10464],[-4.92196,37.10688],[-4.92002,37.10739],[-4.91715,37.10796],[-4.91697,37.11101],[-4.91483,37.11229],[-4.91408,37.11264],[-4.90922,37.11441],[-4.90837,37.11465],[-4.8944,37.1112],[-4.89345,37.11033],[-4.88596,37.1084],[-4.88157,37.10713],[-4.8772,37.10607],[-4.85435,37.09946],[-4.85331,37.09926],[-4.84802,37.09726],[-4.84045,37.09529],[-4.83494,37.09334],[-4.83338,37.09293],[-4.82912,37.09219],[-4.82779,37.09175],[-4.81848,37.07804],[-4.82061,37.07589],[-4.82187,37.07508],[-4.82285,37.07457],[-4.82829,37.07314],[-4.82906,37.0731],[-4.83033,37.07324],[-4.83084,37.07319],[-4.83129,37.07284],[-4.83227,37.07241],[-4.83498,37.07056],[-4.83621,37.06941],[-4.83682,37.06897],[-4.83752,37.06851],[-4.83901,37.06781],[-4.84187,37.06709],[-4.84447,37.06602],[-4.84681,37.06583],[-4.84777,37.06561],[-4.85042,37.06454],[-4.8513,37.0639],[-4.85251,37.06244],[-4.85371,37.06147],[-4.85545,37.05985],[-4.85637,37.05822],[-4.85681,37.05793],[-4.85796,37.05757],[-4.85801,37.05719],[-4.85856,37.05564],[-4.8587,37.05484],[-4.85907,37.05387],[-4.86082,37.05181],[-4.86218,37.04979]]]}},{"type":"Feature","properties":{"id":"2903201006"},"geometry":{"type":"Polygon","coordinates":[[[-4.86928,37.04889],[-4.8698,37.04693],[-4.86994,37.04674],[-4.86794,37.04542],[-4.86694,37.04601],[-4.86563,37.0465],[-4.86524,37.04598],[-4.86377,37.0447],[-4.86517,37.04301],[-4.86787,37.03873],[-4.87014,37.03567],[-4.87263,37.03077],[-4.8738,37.02786],[-4.87526,37.02384],[-4.87589,37.01985],[-4.87619,37.01877],[-4.87667,37.01816],[-4.87683,37.01777],[-4.87682,37.0175],[-4.8766,37.01705],[-4.87736,37.016],[-4.88166,37.01111],[-4.88218,37.0118],[-4.88305,37.01227],[-4.88455,37.01295],[-4.88662,37.01355],[-4.88754,37.01363],[-4.88946,37.01363],[-4.89057,37.01277],[-4.89235,37.0129],[-4.89344,37.01479],[-4.89447,37.01398],[-4.89548,37.01354],[-4.89649,37.01509],[-4.91545,37.01721],[-4.91764,37.01987],[-4.91677,37.02559],[-4.93314,37.03722],[-4.93515,37.03756],[-4.93447,37.03805],[-4.9311,37.03916],[-4.93067,37.03914],[-4.92918,37.03884],[-4.9271,37.03869],[-4.9262,37.03849],[-4.92519,37.03815],[-4.92348,37.03806],[-4.91959,37.03915],[-4.91791,37.0393],[-4.91617,37.03929],[-4.91534,37.03941],[-4.91087,37.04077],[-4.91007,37.04115],[-4.90916,37.04182],[-4.90865,37.04205],[-4.90686,37.04264],[-4.90528,37.04282],[-4.90356,37.04353],[-4.90213,37.04392],[-4.90009,37.04414],[-4.8907,37.04461],[-4.88265,37.04611],[-4.88148,37.04638],[-4.88044,37.04678],[-4.87718,37.04844],[-4.87647,37.04895],[-4.87615,37.04906],[-4.87369,37.0489],[-4.87179,37.04912],[-4.8701,37.04902],[-4.86928,37.04889]]]}}]}