{"type":"FeatureCollection","features":[{"type":"Feature","properties":{"id":"2904501001"},"geometry":{"type":"Polygon","coordinates":[[[-3.97801,36.83814],[-3.9775,36.83775],[-3.97685,36.83781],[-3.97633,36.83804],[-3.97585,36.83812],[-3.97574,36.8384],[-3.97544,36.83833],[-3.97514,36.8379],[-3.97515,36.83749],[-3.97486,36.83694],[-3.97445,36.83684],[-3.97449,36.83672],[-3.97424,36.83632],[-3.97328,36.83621],[-3.97284,36.83607],[-3.97273,36.83592],[-3.97305,36.83537],[-3.97315,36.8348],[-3.97306,36.83459],[-3.97224,36.83441],[-3.97168,36.83444],[-3.97103,36.83424],[-3.97063,36.83439],[-3.9703,36.83492],[-3.97006,36.83493],[-3.96968,36.83634],[-3.96882,36.83629],[-3.96832,36.83599],[-3.96797,36.83588],[-3.96717,36.83588],[-3.96624,36.83608],[-3.96619,36.83596],[-3.96652,36.83552],[-3.96642,36.83527],[-3.96586,36.83513],[-3.96565,36.83473],[-3.96593,36.83376],[-3.96582,36.83321],[-3.96548,36.83235],[-3.9653,36.83218],[-3.96486,36.83127],[-3.96368,36.83094],[-3.96281,36.83054],[-3.96265,36.83012],[-3.96297,36.83004],[-3.96374,36.83039],[-3.96421,36.83024],[-3.96533,36.83036],[-3.96607,36.83064],[-3.96706,36.83076],[-3.96775,36.83097],[-3.96805,36.83138],[-3.96825,36.83081],[-3.96811,36.83002],[-3.96857,36.83011],[-3.96923,36.83069],[-3.97029,36.83008],[-3.97068,36.82998],[-3.97111,36.83014],[-3.97148,36.83068],[-3.97155,36.83116],[-3.97125,36.83174],[-3.97216,36.83273],[-3.9722,36.83297],[-3.97194,36.8334],[-3.97244,36.83313],[-3.97322,36.83322],[-3.9734,36.83299],[-3.97388,36.83309],[-3.97398,36.83296],[-3.9744,36.83307],[-3.97458,36.83297],[-3.9747,36.83316],[-3.975,36.83331],[-3.9754,36.83344],[-3.97557,36.83358],[-3.97587,36.83362],[-3.97666,36.83445],[-3.97733,36.83471],[-3.97888,36.83562],[-3.97926,36.83658],[-3.97876,36.83668],[-3.97852,36.83692],[-3.97816,36.83708],[-3.97817,36.83717],[-3.97852,36.83727],[-3.97915,36.83723],[-3.97968,36.83783],[-3.97943,36.83802],[-3.97915,36.83856],[-3.97801,36.83814]]]}},{"type":"Feature","properties":{"id":"2904501002"},"geometry":{"type":"Polygon","coordinates":[[[-3.92009,36.86907],[-3.9186,36.86808],[-3.91695,36.86839],[-3.91507,36.86932],[-3.91401,36.86954],[-3.91255,36.8694],[-3.91113,36.86853],[-3.91084,36.86803],[-3.90957,36.86748],[-3.90671,36.86777],[-3.90482,36.86823],[-3.90234,36.86749],[-3.8991,36.86744],[-3.89814,36.86622],[-3.89737,36.86639],[-3.8955,36.86536],[-3.89443,36.86618],[-3.89379,36.86604],[-3.89128,36.86657],[-3.89056,36.86755],[-3.8896,36.86671],[-3.88879,36.86569],[-3.88708,36.86477],[-3.88509,36.86348],[-3.88327,36.86087],[-3.88303,36.86036],[-3.88079,36.85988],[-3.88172,36.85916],[-3.88255,36.85769],[-3.87714,36.85693],[-3.8766,36.85617],[-3.87771,36.85477],[-3.87576,36.85301],[-3.86761,36.85068],[-3.86609,36.85244],[-3.86409,36.85297],[-3.86103,36.85104],[-3.85878,36.85153],[-3.85718,36.85252],[-3.85432,36.85309],[-3.85347,36.85356],[-3.85255,36.85427],[-3.85023,36.85558],[-3.84494,36.85718],[-3.84233,36.85821],[-3.83959,36.85693],[-3.83887,36.85647],[-3.8379,36.85626],[-3.83619,36.85631],[-3.83337,36.85673],[-3.83219,36.85679],[-3.83051,36.85665],[-3.82717,36.85553],[-3.82628,36.85505],[-3.82546,36.85404],[-3.8229,36.85213],[-3.82241,36.85154],[-3.82182,36.85049],[-3.82149,36.84935],[-3.82015,36.84883],[-3.81705,36.84784],[-3.81532,36.84685],[-3.81548,36.84651],[-3.81564,36.84565],[-3.81555,36.84325],[-3.8152,36.84184],[-3.81569,36.84181],[-3.81719,36.84147],[-3.82556,36.83825],[-3.82817,36.83702],[-3.82977,36.83673],[-3.83196,36.83683],[-3.83095,36.83548],[-3.83405,36.83553],[-3.83481,36.83545],[-3.83583,36.83518],[-3.83797,36.83504],[-3.83851,36.83486],[-3.83951,36.83475],[-3.84302,36.83488],[-3.84494,36.83476],[-3.84585,36.83447],[-3.8473,36.83567],[-3.84773,36.83581],[-3.84806,36.83582],[-3.8486,36.83572],[-3.84893,36.83548],[-3.84947,36.83493],[-3.85057,36.83415],[-3.85101,36.83369],[-3.85112,36.8334],[-3.85314,36.83221],[-3.85432,36.83213],[-3.8548,36.83218],[-3.85532,36.83206],[-3.85662,36.83201],[-3.85897,36.8326],[-3.85984,36.83272],[-3.86204,36.83248],[-3.86335,36.83273],[-3.86513,36.83341],[-3.86533,36.83373],[-3.86574,36.83387],[-3.86697,36.83394],[-3.86705,36.83355],[-3.86772,36.83351],[-3.87149,36.83424],[-3.87207,36.83439],[-3.87278,36.8348],[-3.87316,36.83483],[-3.87352,36.835],[-3.87369,36.83482],[-3.87342,36.83457],[-3.87527,36.83503],[-3.87647,36.83501],[-3.87899,36.83571],[-3.88128,36.83675],[-3.8823,36.83782],[-3.88249,36.8382],[-3.88246,36.83867],[-3.8835,36.83865],[-3.88422,36.83889],[-3.88478,36.83876],[-3.88594,36.83918],[-3.88619,36.83966],[-3.88643,36.83977],[-3.88686,36.84052],[-3.88723,36.84057],[-3.88903,36.84045],[-3.88925,36.84057],[-3.88948,36.84092],[-3.88943,36.84157],[-3.8898,36.84185],[-3.89148,36.84259],[-3.89198,36.84295],[-3.89265,36.84308],[-3.89318,36.84338],[-3.8937,36.84388],[-3.89411,36.8446],[-3.89436,36.84475],[-3.89507,36.84475],[-3.89551,36.84497],[-3.89635,36.84509],[-3.89736,36.84433],[-3.89759,36.84398],[-3.89796,36.8437],[-3.89871,36.84336],[-3.89911,36.84267],[-3.89965,36.84234],[-3.90059,36.842],[-3.90106,36.84157],[-3.90169,36.84155],[-3.90239,36.84199],[-3.90289,36.84196],[-3.90293,36.84178],[-3.90272,36.84133],[-3.90268,36.84085],[-3.90342,36.83999],[-3.90356,36.83915],[-3.90445,36.8385],[-3.9059,36.83834],[-3.9079,36.83847],[-3.91062,36.8377],[-3.91174,36.8369],[-3.9121,36.83677],[-3.91445,36.83653],[-3.91489,36.83639],[-3.91587,36.83571],[-3.91707,36.83549],[-3.91902,36.83479],[-3.92006,36.83474],[-3.92122,36.83448],[-3.92222,36.83476],[-3.92266,36.83477],[-3.92293,36.8345],[-3.92347,36.8336],[-3.92368,36.83345],[-3.92395,36.8328],[-3.9243,36.83231],[-3.92459,36.83134],[-3.92452,36.83103],[-3.92336,36.8304],[-3.92274,36.82988],[-3.92221,36.82702],[-3.92202,36.82675],[-3.92126,36.82633],[-3.92111,36.82595],[-3.921,36.82371],[-3.92074,36.822],[-3.92081,36.82087],[-3.92125,36.8192],[-3.92126,36.81882],[-3.92093,36.81831],[-3.92091,36.81809],[-3.92256,36.81726],[-3.92341,36.81709],[-3.9242,36.81635],[-3.92465,36.81614],[-3.92559,36.81612],[-3.9258,36.816],[-3.92608,36.81543],[-3.92737,36.81507],[-3.92865,36.81489],[-3.92931,36.81456],[-3.9307,36.81362],[-3.93123,36.81345],[-3.93363,36.81336],[-3.93415,36.81312],[-3.93466,36.81266],[-3.93506,36.81247],[-3.93578,36.81239],[-3.93681,36.81245],[-3.93777,36.81263],[-3.93803,36.81252],[-3.93883,36.81245],[-3.93929,36.81234],[-3.93966,36.81192],[-3.94001,36.8118],[-3.94025,36.81159],[-3.94028,36.81133],[-3.94056,36.81126],[-3.94095,36.81137],[-3.94118,36.81155],[-3.94151,36.81151],[-3.94209,36.81122],[-3.94238,36.81094],[-3.9427,36.81085],[-3.94323,36.81102],[-3.94363,36.81146],[-3.94434,36.81144],[-3.94461,36.81169],[-3.94481,36.81172],[-3.94515,36.81153],[-3.94598,36.81073],[-3.94783,36.80961],[-3.94815,36.80949],[-3.94895,36.8096],[-3.9497,36.8093],[-3.95009,36.80937],[-3.95138,36.80871],[-3.95349,36.80695],[-3.95407,36.80635],[-3.95446,36.80563],[-3.95506,36.80521],[-3.95566,36.80363],[-3.95673,36.80232],[-3.95774,36.80159],[-3.95906,36.80041],[-3.95927,36.80007],[-3.96084,36.79943],[-3.96216,36.79812],[-3.96256,36.79631],[-3.96322,36.79506],[-3.9633,36.79422],[-3.96357,36.79321],[-3.96483,36.79255],[-3.96529,36.7921],[-3.96573,36.79145],[-3.9662,36.7901],[-3.96721,36.78843],[-3.96752,36.78774],[-3.96776,36.78605],[-3.96825,36.78542],[-3.96958,36.78632],[-3.97069,36.78647],[-3.97099,36.78668],[-3.97142,36.78672],[-3.97246,36.7866],[-3.97291,36.78717],[-3.97323,36.78725],[-3.97345,36.7875],[-3.97386,36.78744],[-3.97437,36.78764],[-3.97462,36.78758],[-3.97595,36.78848],[-3.97623,36.7885],[-3.97646,36.78831],[-3.9772,36.78857],[-3.97769,36.7884],[-3.97849,36.78837],[-3.97871,36.78841],[-3.97937,36.7888],[-3.9804,36.78883],[-3.98056,36.78878],[-3.98091,36.78827],[-3.98139,36.7883],[-3.98266,36.78931],[-3.98293,36.78899],[-3.98313,36.78894],[-3.98348,36.78947],[-3.98401,36.78974],[-3.98436,36.79014],[-3.98512,36.78985],[-3.98568,36.79007],[-3.9862,36.78991],[-3.98657,36.78995],[-3.98685,36.79011],[-3.98715,36.79002],[-3.98808,36.79056],[-3.99077,36.79113],[-3.99216,36.79127],[-3.99246,36.79145],[-3.99268,36.79169],[-3.99356,36.79218],[-3.99382,36.79272],[-3.9941,36.79302],[-3.99413,36.79367],[-3.99446,36.79409],[-3.99439,36.79519],[-3.99471,36.79635],[-3.99446,36.7967],[-3.99363,36.79744],[-3.99371,36.79773],[-3.99428,36.79842],[-3.99453,36.79931],[-3.99389,36.80034],[-3.99312,36.80091],[-3.99305,36.80124],[-3.99345,36.80207],[-3.99292,36.80242],[-3.99229,36.80305],[-3.99103,36.80403],[-3.99022,36.80456],[-3.98925,36.80469],[-3.9888,36.80456],[-3.98848,36.80493],[-3.98877,36.8053],[-3.98829,36.80601],[-3.98815,36.80646],[-3.99002,36.81069],[-3.99007,36.81108],[-3.98969,36.81169],[-3.98963,36.81205],[-3.99061,36.81206],[-3.99061,36.81238],[-3.99042,36.81289],[-3.99003,36.81323],[-3.98927,36.81355],[-3.98708,36.81402],[-3.9868,36.81422],[-3.98671,36.81462],[-3.98714,36.81588],[-3.98726,36.81673],[-3.98738,36.81939],[-3.98762,36.82118],[-3.98722,36.82258],[-3.98627,36.82451],[-3.98568,36.82539],[-3.98534,36.82566],[-3.98506,36.82573],[-3.98499,36.82548],[-3.98477,36.82534],[-3.98394,36.82566],[-3.98346,36.82568],[-3.98344,36.82532],[-3.98315,36.82524],[-3.98252,36.82538],[-3.98244,36.82732],[-3.9833,36.82783],[-3.98342,36.82814],[-3.9834,36.82956],[-3.9832,36.83022],[-3.98331,36.83045],[-3.98417,36.83049],[-3.98452,36.83032],[-3.98496,36.83044],[-3.9854,36.83044],[-3.98571,36.83062],[-3.9859,36.83098],[-3.98579,36.8314],[-3.98586,36.83217],[-3.98564,36.83347],[-3.98579,36.83437],[-3.98574,36.83559],[-3.98463,36.83626],[-3.98371,36.83722],[-3.98287,36.83744],[-3.98289,36.83759],[-3.9831,36.83775],[-3.98342,36.83759],[-3.98372,36.83767],[-3.98409,36.83809],[-3.98419,36.83853],[-3.98383,36.83923],[-3.98325,36.83948],[-3.98234,36.83967],[-3.98069,36.83916],[-3.97913,36.83935],[-3.97845,36.83922],[-3.97782,36.83894],[-3.97655,36.83917],[-3.97477,36.8393],[-3.97391,36.8398],[-3.97284,36.83965],[-3.97082,36.84011],[-3.96906,36.83987],[-3.96844,36.84033],[-3.96793,36.84047],[-3.96683,36.84038],[-3.96532,36.8408],[-3.96461,36.84073],[-3.96414,36.84084],[-3.96396,36.84068],[-3.96349,36.84079],[-3.9624,36.84085],[-3.9608,36.84066],[-3.96058,36.84057],[-3.9603,36.84061],[-3.9599,36.84085],[-3.95956,36.8409],[-3.95895,36.84079],[-3.95786,36.84081],[-3.95687,36.84105],[-3.95633,36.84155],[-3.95583,36.84163],[-3.95549,36.84155],[-3.95495,36.84183],[-3.95403,36.84194],[-3.95332,36.84307],[-3.95292,36.84424],[-3.9538,36.84422],[-3.95421,36.84456],[-3.95425,36.8448],[-3.95397,36.84513],[-3.95339,36.84551],[-3.95276,36.8457],[-3.95143,36.84952],[-3.95109,36.84992],[-3.95061,36.84996],[-3.94986,36.84974],[-3.94934,36.84973],[-3.94884,36.84991],[-3.94835,36.8502],[-3.9466,36.85296],[-3.94567,36.85374],[-3.94486,36.85391],[-3.94394,36.85444],[-3.9431,36.85466],[-3.94289,36.85521],[-3.94241,36.85569],[-3.94215,36.85571],[-3.94177,36.85551],[-3.94116,36.85539],[-3.94062,36.85549],[-3.94027,36.85586],[-3.93867,36.8566],[-3.93845,36.85683],[-3.93828,36.8573],[-3.93764,36.85768],[-3.93751,36.85787],[-3.93777,36.85847],[-3.93768,36.85862],[-3.93696,36.85875],[-3.93684,36.8589],[-3.93692,36.85911],[-3.93728,36.85941],[-3.93735,36.85971],[-3.93727,36.85977],[-3.9358,36.85952],[-3.93497,36.8597],[-3.93437,36.85995],[-3.93372,36.86088],[-3.9334,36.86114],[-3.93293,36.86139],[-3.93074,36.86188],[-3.92988,36.86216],[-3.92917,36.8626],[-3.92882,36.86296],[-3.92851,36.86423],[-3.92836,36.86554],[-3.92788,36.86645],[-3.92724,36.8666],[-3.92654,36.86641],[-3.92613,36.8664],[-3.9255,36.86665],[-3.92546,36.8669],[-3.92576,36.86795],[-3.92567,36.8686],[-3.92594,36.86874],[-3.92616,36.869],[-3.92627,36.8698],[-3.92624,36.87037],[-3.9254,36.87211],[-3.92549,36.87235],[-3.92595,36.87267],[-3.92595,36.87284],[-3.9258,36.873],[-3.92433,36.87343],[-3.92243,36.87372],[-3.92219,36.87225],[-3.92161,36.8708],[-3.92064,36.86995],[-3.92009,36.86907]],[[-3.9775,36.83775],[-3.97801,36.83814],[-3.97915,36.83856],[-3.97943,36.83802],[-3.97968,36.83783],[-3.97915,36.83723],[-3.97852,36.83727],[-3.97817,36.83717],[-3.97816,36.83708],[-3.97852,36.83692],[-3.97876,36.83668],[-3.97926,36.83658],[-3.97888,36.83562],[-3.97733,36.83471],[-3.97666,36.83445],[-3.97587,36.83362],[-3.97557,36.83358],[-3.9754,36.83344],[-3.975,36.83331],[-3.9747,36.83316],[-3.97458,36.83297],[-3.9744,36.83307],[-3.97398,36.83296],[-3.97388,36.83309],[-3.9734,36.83299],[-3.97322,36.83322],[-3.97244,36.83313],[-3.97194,36.8334],[-3.9722,36.83297],[-3.97216,36.83273],[-3.97125,36.83174],[-3.97155,36.83116],[-3.97148,36.83068],[-3.97111,36.83014],[-3.97068,36.82998],[-3.97029,36.83008],[-3.96923,36.83069],[-3.96857,36.83011],[-3.96811,36.83002],[-3.96825,36.83081],[-3.96805,36.83138],[-3.96775,36.83097],[-3.96706,36.83076],[-3.96607,36.83064],[-3.96533,36.83036],[-3.96421,36.83024],[-3.96374,36.83039],[-3.96297,36.83004],[-3.96265,36.83012],[-3.96281,36.83054],[-3.96368,36.83094],[-3.96486,36.83127],[-3.9653,36.83218],[-3.96548,36.83235],[-3.96582,36.83321],[-3.96593,36.83376],[-3.96565,36.83473],[-3.96586,36.83513],[-3.96642,36.83527],[-3.96652,36.83552],[-3.96619,36.83596],[-3.96624,36.83608],[-3.96717,36.83588],[-3.96797,36.83588],[-3.96832,36.83599],[-3.96882,36.83629],[-3.96968,36.83634],[-3.97006,36.83493],[-3.9703,36.83492],[-3.97063,36.83439],[-3.97103,36.83424],[-3.97168,36.83444],[-3.97224,36.83441],[-3.97306,36.83459],[-3.97315,36.8348],[-3.97305,36.83537],[-3.97273,36.83592],[-3.97284,36.83607],[-3.97328,36.83621],[-3.97424,36.83632],[-3.97449,36.83672],[-3.97445,36.83684],[-3.97486,36.83694],[-3.97515,36.83749],[-3.97514,36.8379],[-3.97544,36.83833],[-3.97574,36.8384],[-3.97585,36.83812],[-3.97633,36.83804],[-3.97685,36.83781],[-3.9775,36.83775]]]}}]}