{"type":"FeatureCollection","features":[{"type":"Feature","properties":{"id":"2906901001"},"geometry":{"type":"Polygon","coordinates":[[[-4.88664,36.50933],[-4.88644,36.51039],[-4.8859,36.51077],[-4.88537,36.51098],[-4.88532,36.51112],[-4.88326,36.51162],[-4.88288,36.51079],[-4.88238,36.51011],[-4.88244,36.50975],[-4.88287,36.509],[-4.88469,36.50896],[-4.88479,36.50875],[-4.88664,36.50933]]]}},{"type":"Feature","properties":{"id":"2906901002"},"geometry":{"type":"Polygon","coordinates":[[[-4.87997,36.50945],[-4.88011,36.50908],[-4.88069,36.50875],[-4.88073,36.50862],[-4.88272,36.508],[-4.88287,36.509],[-4.88237,36.51],[-4.88215,36.51003],[-4.882,36.50981],[-4.88125,36.50976],[-4.87997,36.50945]]]}},{"type":"Feature","properties":{"id":"2906901003"},"geometry":{"type":"Polygon","coordinates":[[[-4.8816,36.51083],[-4.88058,36.51163],[-4.87999,36.51249],[-4.87976,36.51263],[-4.87949,36.50931],[-4.88125,36.50976],[-4.88203,36.50984],[-4.88215,36.51003],[-4.8816,36.51083]]]}},{"type":"Feature","properties":{"id":"2906901004"},"geometry":{"type":"Polygon","coordinates":[[[-4.8738,36.51042],[-4.87277,36.50909],[-4.87259,36.50909],[-4.87233,36.50871],[-4.87243,36.50741],[-4.87172,36.50701],[-4.87227,36.50691],[-4.87258,36.50651],[-4.87364,36.50569],[-4.87338,36.50541],[-4.87379,36.50558],[-4.8767,36.50564],[-4.87677,36.50572],[-4.87673,36.50582],[-4.87649,36.50585],[-4.87462,36.50579],[-4.87459,36.50593],[-4.87405,36.50595],[-4.87287,36.50668],[-4.87255,36.50695],[-4.87257,36.50736],[-4.87338,36.5074],[-4.87343,36.50796],[-4.87459,36.50794],[-4.87459,36.50686],[-4.87477,36.50686],[-4.8748,36.5078],[-4.87584,36.50776],[-4.87586,36.50676],[-4.87597,36.50676],[-4.87602,36.50732],[-4.87644,36.50734],[-4.87646,36.50741],[-4.87674,36.50727],[-4.87726,36.50672],[-4.87728,36.50683],[-4.87683,36.50735],[-4.87686,36.50746],[-4.87705,36.50759],[-4.8775,36.50766],[-4.87813,36.50765],[-4.87841,36.50751],[-4.8801,36.50724],[-4.88052,36.50706],[-4.88061,36.50692],[-4.88049,36.50631],[-4.88103,36.5054],[-4.88103,36.50558],[-4.88071,36.50609],[-4.88072,36.50623],[-4.88155,36.50656],[-4.88243,36.50661],[-4.88272,36.508],[-4.88073,36.50862],[-4.88069,36.50875],[-4.88011,36.50908],[-4.87997,36.50945],[-4.87932,36.50918],[-4.87851,36.50901],[-4.87747,36.50906],[-4.87758,36.51013],[-4.87612,36.51017],[-4.87542,36.51096],[-4.8738,36.51042]]]}},{"type":"Feature","properties":{"id":"2906901005"},"geometry":{"type":"Polygon","coordinates":[[[-4.87755,36.51496],[-4.87779,36.5145],[-4.87844,36.51384],[-4.87784,36.51356],[-4.87682,36.514],[-4.87647,36.51304],[-4.87634,36.51196],[-4.87618,36.51155],[-4.8778,36.51093],[-4.87958,36.51075],[-4.87976,36.51263],[-4.87936,36.51561],[-4.87841,36.51516],[-4.87755,36.51496]]]}},{"type":"Feature","properties":{"id":"2906901006"},"geometry":{"type":"Polygon","coordinates":[[[-4.88115,36.51119],[-4.8816,36.51083],[-4.88209,36.51007],[-4.88237,36.51],[-4.88307,36.51113],[-4.88232,36.51158],[-4.88175,36.51211],[-4.88115,36.51119]]]}},{"type":"Feature","properties":{"id":"2906901007"},"geometry":{"type":"Polygon","coordinates":[[[-4.88232,36.51384],[-4.88245,36.51283],[-4.88175,36.51211],[-4.88232,36.51158],[-4.88307,36.51113],[-4.88327,36.51183],[-4.8829,36.51303],[-4.8828,36.51385],[-4.88232,36.51384]]]}},{"type":"Feature","properties":{"id":"2906901008"},"geometry":{"type":"Polygon","coordinates":[[[-4.87976,36.51263],[-4.87999,36.51249],[-4.88058,36.51163],[-4.88115,36.51119],[-4.88175,36.51211],[-4.88099,36.51271],[-4.88091,36.51339],[-4.88001,36.51368],[-4.87962,36.51369],[-4.87976,36.51263]]]}},{"type":"Feature","properties":{"id":"2906901009"},"geometry":{"type":"Polygon","coordinates":[[[-4.88228,36.51376],[-4.8809,36.51364],[-4.88099,36.51271],[-4.88175,36.51211],[-4.88245,36.51283],[-4.88232,36.51384],[-4.88228,36.51376]]]}},{"type":"Feature","properties":{"id":"2906901010"},"geometry":{"type":"Polygon","coordinates":[[[-4.87699,36.51757],[-4.87596,36.51735],[-4.87671,36.5159],[-4.87746,36.51495],[-4.87841,36.51516],[-4.87936,36.51561],[-4.87911,36.51708],[-4.87779,36.51768],[-4.87704,36.51744],[-4.87699,36.51757]]]}},{"type":"Feature","properties":{"id":"2906901011"},"geometry":{"type":"Polygon","coordinates":[[[-4.87936,36.51561],[-4.88038,36.51522],[-4.88145,36.51497],[-4.88156,36.51454],[-4.88199,36.51371],[-4.88228,36.51376],[-4.88232,36.51384],[-4.8828,36.51385],[-4.88287,36.51432],[-4.88322,36.51484],[-4.88554,36.51701],[-4.8858,36.51706],[-4.88584,36.51733],[-4.88502,36.51704],[-4.8843,36.5169],[-4.88343,36.51651],[-4.88188,36.51641],[-4.88047,36.51582],[-4.87936,36.51561]]]}},{"type":"Feature","properties":{"id":"2906901012"},"geometry":{"type":"Polygon","coordinates":[[[-4.8828,36.51385],[-4.8829,36.51303],[-4.88323,36.51203],[-4.88326,36.51162],[-4.88532,36.51112],[-4.88537,36.51098],[-4.88557,36.51089],[-4.88582,36.5118],[-4.88551,36.51178],[-4.88586,36.51368],[-4.88503,36.51367],[-4.88424,36.51386],[-4.88387,36.51379],[-4.8838,36.51388],[-4.8828,36.51385]]]}},{"type":"Feature","properties":{"id":"2906901013"},"geometry":{"type":"Polygon","coordinates":[[[-4.88557,36.51089],[-4.88644,36.51039],[-4.88657,36.51051],[-4.88686,36.51103],[-4.8864,36.51111],[-4.8863,36.51139],[-4.88654,36.51228],[-4.88711,36.51298],[-4.88615,36.51361],[-4.88586,36.51368],[-4.88551,36.51178],[-4.88582,36.5118],[-4.88557,36.51089]]]}},{"type":"Feature","properties":{"id":"2906901014"},"geometry":{"type":"Polygon","coordinates":[[[-4.88687,36.51718],[-4.88584,36.51733],[-4.8858,36.51706],[-4.88554,36.51701],[-4.88322,36.51484],[-4.88287,36.51432],[-4.8828,36.51385],[-4.8838,36.51388],[-4.88387,36.51379],[-4.88424,36.51386],[-4.88503,36.51367],[-4.88586,36.51368],[-4.88648,36.51493],[-4.8872,36.51575],[-4.88608,36.51632],[-4.88687,36.51718]]]}},{"type":"Feature","properties":{"id":"2906901015"},"geometry":{"type":"Polygon","coordinates":[[[-4.8892,36.51493],[-4.88986,36.51613],[-4.89115,36.51766],[-4.8912,36.51783],[-4.88979,36.51789],[-4.88888,36.51704],[-4.88779,36.51631],[-4.88716,36.51572],[-4.88867,36.51503],[-4.8892,36.51493]]]}},{"type":"Feature","properties":{"id":"2906901016"},"geometry":{"type":"Polygon","coordinates":[[[-4.88586,36.51368],[-4.88615,36.51361],[-4.88711,36.51298],[-4.8865,36.5122],[-4.8863,36.51139],[-4.88638,36.51113],[-4.88661,36.51103],[-4.88853,36.511],[-4.88996,36.51134],[-4.88978,36.51189],[-4.88978,36.51225],[-4.88999,36.5126],[-4.89057,36.51306],[-4.89094,36.51368],[-4.89105,36.51491],[-4.8892,36.51493],[-4.88894,36.5145],[-4.88854,36.51414],[-4.88654,36.51501],[-4.88586,36.51368]]]}},{"type":"Feature","properties":{"id":"2906901017"},"geometry":{"type":"Polygon","coordinates":[[[-4.88644,36.51039],[-4.88664,36.50933],[-4.88835,36.50997],[-4.89041,36.51043],[-4.88996,36.51134],[-4.88832,36.51097],[-4.88686,36.51103],[-4.88644,36.51039]]]}},{"type":"Feature","properties":{"id":"2906901018"},"geometry":{"type":"Polygon","coordinates":[[[-4.8805,36.52027],[-4.88079,36.5224],[-4.88124,36.52333],[-4.88154,36.5254],[-4.88152,36.52646],[-4.8818,36.5272],[-4.88204,36.5275],[-4.8821,36.52785],[-4.88174,36.52842],[-4.87965,36.52915],[-4.8776,36.53029],[-4.87597,36.53087],[-4.87623,36.53008],[-4.87632,36.52944],[-4.87621,36.52913],[-4.87537,36.52825],[-4.8753,36.52762],[-4.8755,36.52736],[-4.87544,36.52688],[-4.87601,36.52635],[-4.87598,36.52589],[-4.87633,36.52537],[-4.87696,36.52503],[-4.87785,36.52501],[-4.87805,36.5249],[-4.87852,36.52431],[-4.87903,36.52428],[-4.87909,36.52302],[-4.87973,36.52288],[-4.87993,36.5227],[-4.8799,36.52242],[-4.8793,36.52228],[-4.87899,36.52209],[-4.87896,36.52173],[-4.87849,36.52067],[-4.87845,36.52033],[-4.8805,36.52027]]]}},{"type":"Feature","properties":{"id":"2906901019"},"geometry":{"type":"Polygon","coordinates":[[[-4.88654,36.51501],[-4.88854,36.51414],[-4.88894,36.5145],[-4.8892,36.51493],[-4.88867,36.51503],[-4.88716,36.51572],[-4.88654,36.51501]]]}},{"type":"Feature","properties":{"id":"2906901020"},"geometry":{"type":"Polygon","coordinates":[[[-4.89106,36.51494],[-4.89094,36.51368],[-4.89057,36.51306],[-4.88999,36.5126],[-4.88978,36.51225],[-4.88986,36.51163],[-4.89033,36.51054],[-4.89041,36.51043],[-4.8936,36.51041],[-4.89365,36.51146],[-4.89397,36.51177],[-4.89409,36.51217],[-4.89453,36.51279],[-4.89498,36.5131],[-4.89452,36.5133],[-4.89508,36.51416],[-4.89512,36.51511],[-4.89288,36.51576],[-4.89243,36.51512],[-4.89173,36.5149],[-4.89106,36.51494]]]}},{"type":"Feature","properties":{"id":"2906901021"},"geometry":{"type":"Polygon","coordinates":[[[-4.88737,36.50961],[-4.88479,36.50875],[-4.88469,36.50896],[-4.88287,36.509],[-4.88243,36.50661],[-4.88298,36.50658],[-4.8839,36.50632],[-4.88579,36.50629],[-4.88652,36.50616],[-4.88746,36.50577],[-4.88734,36.50708],[-4.88698,36.50811],[-4.88777,36.50877],[-4.88737,36.50961]]]}},{"type":"Feature","properties":{"id":"2906901022"},"geometry":{"type":"Polygon","coordinates":[[[-4.88737,36.50961],[-4.88777,36.50877],[-4.88698,36.50811],[-4.88734,36.50708],[-4.88746,36.50577],[-4.88787,36.50561],[-4.88808,36.50519],[-4.88748,36.50478],[-4.8876,36.50472],[-4.88828,36.50509],[-4.8917,36.5049],[-4.89168,36.50502],[-4.89124,36.50508],[-4.89121,36.50527],[-4.89096,36.50513],[-4.88918,36.50523],[-4.88846,36.50535],[-4.88827,36.50559],[-4.88815,36.50646],[-4.88959,36.50642],[-4.88983,36.50635],[-4.88972,36.50572],[-4.89022,36.50574],[-4.89078,36.50603],[-4.89078,36.50613],[-4.8904,36.50617],[-4.89038,36.50756],[-4.89008,36.5076],[-4.89012,36.50778],[-4.89042,36.50811],[-4.89092,36.50922],[-4.89087,36.50951],[-4.89062,36.50977],[-4.89041,36.51043],[-4.88889,36.51011],[-4.88737,36.50961]]]}},{"type":"Feature","properties":{"id":"2906901023"},"geometry":{"type":"Polygon","coordinates":[[[-4.89041,36.51043],[-4.89062,36.50977],[-4.89087,36.50951],[-4.89092,36.50922],[-4.89042,36.50811],[-4.89012,36.50778],[-4.89008,36.5076],[-4.89038,36.50756],[-4.89036,36.50638],[-4.89074,36.50683],[-4.89114,36.50691],[-4.89153,36.50689],[-4.89272,36.50658],[-4.89299,36.50646],[-4.89302,36.50588],[-4.89366,36.50512],[-4.89373,36.50515],[-4.89317,36.50613],[-4.89344,36.50635],[-4.89437,36.50665],[-4.89428,36.50778],[-4.89451,36.50818],[-4.89484,36.50818],[-4.89473,36.51039],[-4.89041,36.51043]]]}},{"type":"Feature","properties":{"id":"2906901024"},"geometry":{"type":"Polygon","coordinates":[[[-4.8738,36.51042],[-4.87542,36.51096],[-4.87594,36.51127],[-4.87631,36.51182],[-4.87638,36.51255],[-4.87406,36.51259],[-4.8738,36.51042]]]}},{"type":"Feature","properties":{"id":"2906901025"},"geometry":{"type":"Polygon","coordinates":[[[-4.87678,36.51777],[-4.87704,36.51744],[-4.87779,36.51768],[-4.87911,36.51708],[-4.87939,36.51817],[-4.88037,36.51947],[-4.8805,36.52027],[-4.87845,36.52033],[-4.87799,36.52018],[-4.87795,36.51995],[-4.87844,36.51982],[-4.87861,36.51964],[-4.87869,36.51886],[-4.87746,36.51856],[-4.87735,36.51879],[-4.87706,36.51849],[-4.87675,36.51796],[-4.87678,36.51777]]]}},{"type":"Feature","properties":{"id":"2906901026"},"geometry":{"type":"Polygon","coordinates":[[[-4.87542,36.51096],[-4.87612,36.51017],[-4.87758,36.51013],[-4.87747,36.50906],[-4.87851,36.50901],[-4.87948,36.50929],[-4.87958,36.51075],[-4.8778,36.51093],[-4.87618,36.51155],[-4.87594,36.51127],[-4.87542,36.51096]]]}},{"type":"Feature","properties":{"id":"2906901027"},"geometry":{"type":"Polygon","coordinates":[[[-4.88687,36.51718],[-4.88608,36.51632],[-4.8872,36.51575],[-4.88779,36.51631],[-4.88888,36.51704],[-4.88979,36.51789],[-4.88916,36.51789],[-4.88819,36.51743],[-4.88722,36.51718],[-4.88687,36.51718]]]}},{"type":"Feature","properties":{"id":"2906901028"},"geometry":{"type":"Polygon","coordinates":[[[-4.89435,36.52131],[-4.89608,36.52201],[-4.8966,36.52289],[-4.89749,36.52353],[-4.89809,36.52419],[-4.89897,36.52616],[-4.899,36.52724],[-4.8988,36.52839],[-4.89892,36.52868],[-4.89744,36.53137],[-4.89658,36.53187],[-4.89581,36.53145],[-4.89551,36.53099],[-4.89558,36.53058],[-4.89552,36.53013],[-4.89521,36.52963],[-4.89485,36.52933],[-4.89472,36.52814],[-4.89392,36.5274],[-4.89475,36.52641],[-4.89571,36.5256],[-4.89597,36.52519],[-4.89594,36.5248],[-4.89531,36.52343],[-4.89511,36.52219],[-4.8947,36.52158],[-4.89435,36.52131]]]}},{"type":"Feature","properties":{"id":"2906901029"},"geometry":{"type":"Polygon","coordinates":[[[-4.87323,36.51486],[-4.87469,36.51404],[-4.87682,36.514],[-4.87784,36.51356],[-4.87844,36.51384],[-4.87779,36.5145],[-4.87755,36.51496],[-4.87746,36.51495],[-4.87671,36.5159],[-4.87598,36.51733],[-4.87518,36.51797],[-4.87449,36.51824],[-4.87416,36.51801],[-4.87405,36.51736],[-4.87323,36.51486]]]}},{"type":"Feature","properties":{"id":"2906901030"},"geometry":{"type":"Polygon","coordinates":[[[-4.89657,36.5147],[-4.89609,36.5143],[-4.89512,36.51511],[-4.89508,36.51416],[-4.89452,36.5133],[-4.89498,36.5131],[-4.89453,36.51279],[-4.89409,36.51217],[-4.89397,36.51177],[-4.89365,36.51146],[-4.8936,36.51041],[-4.90084,36.51032],[-4.90109,36.51067],[-4.90106,36.51149],[-4.90045,36.51239],[-4.89974,36.51272],[-4.89837,36.51281],[-4.89801,36.51294],[-4.89657,36.5147]]]}},{"type":"Feature","properties":{"id":"2906901031"},"geometry":{"type":"Polygon","coordinates":[[[-4.90191,36.51034],[-4.89473,36.51039],[-4.89484,36.50818],[-4.89451,36.50818],[-4.89428,36.50778],[-4.89437,36.50665],[-4.89459,36.50671],[-4.89627,36.5067],[-4.89874,36.5065],[-4.89998,36.50628],[-4.9013,36.50621],[-4.90128,36.50777],[-4.90172,36.50853],[-4.90173,36.50875],[-4.90128,36.50913],[-4.90122,36.5093],[-4.90132,36.50947],[-4.90171,36.50935],[-4.90191,36.51034]]]}},{"type":"Feature","properties":{"id":"2906901032"},"geometry":{"type":"Polygon","coordinates":[[[-4.87911,36.51708],[-4.87936,36.51561],[-4.88047,36.51582],[-4.88188,36.51641],[-4.88343,36.51651],[-4.8843,36.5169],[-4.886,36.51733],[-4.88605,36.51777],[-4.8858,36.51835],[-4.885,36.51857],[-4.8841,36.51854],[-4.88348,36.51865],[-4.88326,36.51859],[-4.88306,36.51835],[-4.8832,36.51819],[-4.88356,36.51803],[-4.88349,36.5179],[-4.88206,36.51794],[-4.88171,36.51812],[-4.88122,36.51817],[-4.88132,36.51868],[-4.88008,36.51906],[-4.87939,36.51817],[-4.87911,36.51708]]]}},{"type":"Feature","properties":{"id":"2906901033"},"geometry":{"type":"Polygon","coordinates":[[[-4.89387,36.5202],[-4.89347,36.51821],[-4.89451,36.51639],[-4.89447,36.5162],[-4.89625,36.51504],[-4.89795,36.51298],[-4.89837,36.51281],[-4.89974,36.51272],[-4.90045,36.51239],[-4.90106,36.51149],[-4.90109,36.51067],[-4.90084,36.51032],[-4.90191,36.51034],[-4.90306,36.51153],[-4.90307,36.51177],[-4.90284,36.5124],[-4.90305,36.51274],[-4.90304,36.51326],[-4.9029,36.51368],[-4.90324,36.51399],[-4.90325,36.5144],[-4.90391,36.51516],[-4.90381,36.51534],[-4.90364,36.51541],[-4.90371,36.51596],[-4.90352,36.51622],[-4.9037,36.51651],[-4.90362,36.5169],[-4.90374,36.51712],[-4.90382,36.5178],[-4.90367,36.51904],[-4.90399,36.51925],[-4.90354,36.51976],[-4.90344,36.52025],[-4.90317,36.52054],[-4.90256,36.52081],[-4.90177,36.5204],[-4.90169,36.52044],[-4.90092,36.52151],[-4.9005,36.52105],[-4.8991,36.52114],[-4.89864,36.52039],[-4.8979,36.52016],[-4.89681,36.52051],[-4.89671,36.52041],[-4.89681,36.52004],[-4.89664,36.51929],[-4.89542,36.51957],[-4.89538,36.5201],[-4.89487,36.51995],[-4.89387,36.5202]]]}},{"type":"Feature","properties":{"id":"2906901034"},"geometry":{"type":"Polygon","coordinates":[[[-4.88091,36.51339],[-4.8809,36.51364],[-4.88199,36.51371],[-4.88156,36.51454],[-4.88145,36.51497],[-4.88038,36.51522],[-4.87936,36.51561],[-4.87962,36.51369],[-4.88001,36.51368],[-4.88091,36.51339]]]}},{"type":"Feature","properties":{"id":"2906901035"},"geometry":{"type":"Polygon","coordinates":[[[-4.87253,36.51264],[-4.87638,36.51255],[-4.87682,36.514],[-4.87469,36.51404],[-4.87323,36.51486],[-4.87253,36.51264]]]}},{"type":"Feature","properties":{"id":"2906901036"},"geometry":{"type":"Polygon","coordinates":[[[-4.87819,36.51984],[-4.87729,36.51954],[-4.87674,36.51965],[-4.87557,36.51953],[-4.87556,36.51968],[-4.8749,36.51964],[-4.87495,36.51851],[-4.87479,36.51833],[-4.87449,36.51824],[-4.87518,36.51797],[-4.87596,36.51735],[-4.87699,36.51757],[-4.87678,36.51777],[-4.87675,36.51796],[-4.87706,36.51849],[-4.87735,36.51879],[-4.87746,36.51856],[-4.87869,36.51886],[-4.87861,36.51964],[-4.87844,36.51982],[-4.87819,36.51984]]]}},{"type":"Feature","properties":{"id":"2906901037"},"geometry":{"type":"Polygon","coordinates":[[[-4.8912,36.51783],[-4.89115,36.51766],[-4.88986,36.51613],[-4.8892,36.51493],[-4.89105,36.51491],[-4.89267,36.5169],[-4.89186,36.5177],[-4.8912,36.51783]]]}},{"type":"Feature","properties":{"id":"2906901038"},"geometry":{"type":"Polygon","coordinates":[[[-4.89512,36.51511],[-4.89609,36.5143],[-4.89657,36.5147],[-4.89621,36.51507],[-4.89465,36.51614],[-4.89369,36.51637],[-4.89267,36.5169],[-4.89106,36.51494],[-4.89173,36.5149],[-4.89243,36.51512],[-4.89288,36.51576],[-4.89512,36.51511]]]}},{"type":"Feature","properties":{"id":"2906901039"},"geometry":{"type":"Polygon","coordinates":[[[-4.88052,36.52089],[-4.88037,36.51947],[-4.88008,36.51906],[-4.88132,36.51868],[-4.88122,36.51817],[-4.88171,36.51812],[-4.88206,36.51794],[-4.88349,36.5179],[-4.88356,36.51803],[-4.8832,36.51819],[-4.88306,36.51835],[-4.88337,36.51865],[-4.8841,36.51854],[-4.885,36.51857],[-4.88588,36.5183],[-4.88605,36.51777],[-4.886,36.51733],[-4.88679,36.51719],[-4.88722,36.51718],[-4.88819,36.51743],[-4.88916,36.51789],[-4.88979,36.51789],[-4.89073,36.51882],[-4.88256,36.52079],[-4.88052,36.52089]]]}},{"type":"Feature","properties":{"id":"2906901040"},"geometry":{"type":"Polygon","coordinates":[[[-4.89435,36.52131],[-4.89403,36.52075],[-4.89387,36.5202],[-4.89487,36.51995],[-4.89538,36.5201],[-4.89542,36.51957],[-4.89664,36.51929],[-4.89681,36.52004],[-4.89671,36.52041],[-4.89681,36.52051],[-4.8979,36.52016],[-4.89864,36.52039],[-4.8991,36.52114],[-4.9005,36.52105],[-4.90092,36.52151],[-4.90177,36.5204],[-4.90256,36.52081],[-4.90238,36.52099],[-4.90229,36.52129],[-4.90253,36.52177],[-4.9025,36.52193],[-4.90235,36.52207],[-4.9021,36.52213],[-4.9017,36.52263],[-4.90166,36.52318],[-4.90178,36.52366],[-4.90168,36.52438],[-4.90134,36.52525],[-4.90049,36.526],[-4.90041,36.52642],[-4.89996,36.52703],[-4.89987,36.52734],[-4.90005,36.52778],[-4.89972,36.52819],[-4.89968,36.52882],[-4.89939,36.52942],[-4.89846,36.52945],[-4.89892,36.52868],[-4.8988,36.52839],[-4.89899,36.52738],[-4.89902,36.5265],[-4.89889,36.52588],[-4.8982,36.52436],[-4.89749,36.52353],[-4.8966,36.52289],[-4.89608,36.52201],[-4.89435,36.52131]]]}},{"type":"Feature","properties":{"id":"2906901041"},"geometry":{"type":"Polygon","coordinates":[[[-4.8913,36.51941],[-4.88979,36.51789],[-4.89168,36.51777],[-4.89201,36.5176],[-4.89287,36.51676],[-4.89369,36.51637],[-4.89447,36.5162],[-4.89451,36.51639],[-4.89349,36.51813],[-4.89354,36.51875],[-4.89403,36.52075],[-4.89435,36.52131],[-4.8947,36.52158],[-4.89511,36.52219],[-4.89531,36.52343],[-4.89594,36.5248],[-4.89597,36.52519],[-4.89571,36.5256],[-4.89475,36.52641],[-4.89392,36.5274],[-4.89377,36.52721],[-4.89328,36.52525],[-4.89252,36.52384],[-4.89226,36.52359],[-4.89204,36.5235],[-4.89206,36.52295],[-4.89171,36.52242],[-4.89169,36.52214],[-4.89198,36.52189],[-4.89202,36.52173],[-4.89182,36.5205],[-4.8913,36.51941]]]}},{"type":"Feature","properties":{"id":"2906901042"},"geometry":{"type":"Polygon","coordinates":[[[-4.87597,36.53087],[-4.8776,36.53029],[-4.87965,36.52915],[-4.88174,36.52842],[-4.8821,36.52785],[-4.88204,36.5275],[-4.8818,36.5272],[-4.88152,36.52646],[-4.88154,36.5254],[-4.88124,36.52333],[-4.88079,36.5224],[-4.88055,36.52089],[-4.88256,36.52079],[-4.89073,36.51882],[-4.8913,36.51941],[-4.89188,36.52068],[-4.89202,36.52178],[-4.89169,36.52214],[-4.8917,36.52236],[-4.89206,36.52295],[-4.89204,36.5235],[-4.89226,36.52359],[-4.89252,36.52384],[-4.89328,36.52525],[-4.89379,36.52726],[-4.89472,36.52814],[-4.89485,36.52933],[-4.89521,36.52963],[-4.89552,36.53013],[-4.89558,36.53058],[-4.89551,36.53099],[-4.89581,36.53145],[-4.89658,36.53187],[-4.89744,36.53137],[-4.89846,36.52945],[-4.89939,36.52942],[-4.89946,36.52998],[-4.89918,36.53058],[-4.89965,36.5308],[-4.89962,36.53101],[-4.8994,36.53129],[-4.89819,36.53209],[-4.89816,36.53235],[-4.89828,36.53268],[-4.89878,36.53301],[-4.89911,36.53338],[-4.89888,36.53398],[-4.89886,36.53477],[-4.89915,36.53507],[-4.89971,36.53528],[-4.90072,36.53519],[-4.90095,36.53536],[-4.90137,36.53604],[-4.90117,36.53646],[-4.90116,36.53666],[-4.90129,36.53687],[-4.90094,36.53726],[-4.90101,36.5375],[-4.90139,36.53766],[-4.90208,36.53752],[-4.90241,36.53757],[-4.90241,36.53774],[-4.90215,36.53809],[-4.90154,36.53846],[-4.90147,36.53861],[-4.90146,36.53887],[-4.90209,36.53937],[-4.90221,36.5396],[-4.90214,36.53988],[-4.90119,36.54054],[-4.90064,36.54024],[-4.90026,36.54025],[-4.90063,36.54075],[-4.90092,36.54169],[-4.90122,36.54224],[-4.9009,36.5426],[-4.90091,36.54275],[-4.90152,36.54293],[-4.90188,36.54319],[-4.90204,36.5436],[-4.90299,36.54436],[-4.90301,36.54464],[-4.90282,36.54505],[-4.90291,36.5452],[-4.90362,36.54539],[-4.90377,36.5456],[-4.90329,36.54589],[-4.90242,36.54575],[-4.90215,36.54582],[-4.90195,36.54603],[-4.902,36.54734],[-4.90208,36.54752],[-4.90324,36.54787],[-4.90407,36.54841],[-4.90464,36.54963],[-4.89953,36.55025],[-4.89883,36.55023],[-4.89718,36.54992],[-4.89317,36.54939],[-4.88854,36.5481],[-4.888,36.54788],[-4.88558,36.54621],[-4.87884,36.54008],[-4.87834,36.53979],[-4.87719,36.53939],[-4.87628,36.53879],[-4.87592,36.53792],[-4.87591,36.53755],[-4.87579,36.53727],[-4.87594,36.53665],[-4.87576,36.53609],[-4.8764,36.53463],[-4.87638,36.53421],[-4.87617,36.53373],[-4.87662,36.533],[-4.8763,36.53226],[-4.87636,36.53154],[-4.87597,36.53087]]]}},{"type":"Feature","properties":{"id":"2906901043"},"geometry":{"type":"Polygon","coordinates":[[[-4.87406,36.51258],[-4.87253,36.51264],[-4.87229,36.51087],[-4.87199,36.51039],[-4.87217,36.50982],[-4.87222,36.50909],[-4.87277,36.50909],[-4.8738,36.51042],[-4.87406,36.51258]]]}},{"type":"Feature","properties":{"id":"2906902001"},"geometry":{"type":"Polygon","coordinates":[[[-4.9886,36.48662],[-4.9883,36.4853],[-4.98848,36.48483],[-4.98835,36.48438],[-4.98847,36.48435],[-4.98747,36.48325],[-4.98887,36.48234],[-4.98931,36.48235],[-4.98981,36.48487],[-4.99039,36.48507],[-4.9902,36.48517],[-4.99062,36.4867],[-4.99044,36.48688],[-4.99021,36.48651],[-4.98931,36.48668],[-4.98929,36.4866],[-4.9886,36.48662]]]}},{"type":"Feature","properties":{"id":"2906902002"},"geometry":{"type":"Polygon","coordinates":[[[-4.98615,36.484],[-4.98747,36.48325],[-4.98847,36.48435],[-4.98835,36.48438],[-4.98848,36.48483],[-4.9883,36.4853],[-4.98854,36.48629],[-4.9884,36.48625],[-4.98615,36.484]]]}},{"type":"Feature","properties":{"id":"2906902003"},"geometry":{"type":"Polygon","coordinates":[[[-4.98508,36.48478],[-4.98447,36.4849],[-4.98428,36.4845],[-4.98527,36.4843],[-4.98615,36.484],[-4.9884,36.48625],[-4.98854,36.48629],[-4.9886,36.48662],[-4.98577,36.48678],[-4.98508,36.48478]]]}},{"type":"Feature","properties":{"id":"2906902004"},"geometry":{"type":"Polygon","coordinates":[[[-4.98676,36.48673],[-4.98929,36.4866],[-4.98931,36.48668],[-4.99021,36.48651],[-4.99044,36.48688],[-4.99073,36.48794],[-4.98783,36.48881],[-4.98676,36.48673]]]}},{"type":"Feature","properties":{"id":"2906902005"},"geometry":{"type":"Polygon","coordinates":[[[-4.99305,36.49455],[-4.9935,36.49448],[-4.9937,36.49427],[-4.99401,36.49428],[-4.99489,36.49398],[-4.99798,36.4928],[-5.0001,36.49193],[-5.00051,36.49157],[-5.00081,36.49159],[-5.00238,36.49075],[-5.00231,36.49028],[-5.00194,36.48994],[-5.00153,36.4897],[-5.00095,36.48955],[-5.00084,36.4894],[-5.00075,36.48909],[-5.00112,36.48874],[-5.00122,36.48838],[-5.00094,36.48782],[-5.00026,36.48735],[-5.00024,36.48724],[-5.00061,36.48673],[-5.00054,36.48597],[-5.00045,36.48581],[-5.00003,36.48569],[-5.0014,36.48546],[-5.00182,36.4853],[-5.00238,36.48468],[-5.00303,36.48427],[-5.00459,36.48415],[-5.0052,36.48421],[-5.00712,36.48385],[-5.01152,36.48322],[-5.01333,36.48553],[-5.01345,36.48584],[-5.01346,36.48659],[-5.01295,36.48896],[-5.01291,36.48951],[-5.01308,36.49069],[-5.01322,36.49116],[-5.0141,36.4923],[-5.01487,36.49305],[-5.01237,36.49732],[-5.01215,36.49751],[-5.00921,36.49886],[-5.00502,36.50104],[-5.00154,36.50269],[-4.99565,36.50568],[-4.99347,36.50756],[-4.99252,36.50824],[-4.98961,36.50928],[-4.98918,36.51052],[-4.98842,36.50951],[-4.98815,36.50852],[-4.98727,36.5075],[-4.98652,36.50575],[-4.98565,36.50315],[-4.98498,36.50187],[-4.98365,36.50064],[-4.98289,36.49899],[-4.98201,36.49817],[-4.97996,36.49563],[-4.97768,36.49131],[-4.97746,36.49115],[-4.97723,36.48983],[-4.97673,36.48942],[-4.97613,36.48775],[-4.97531,36.48662],[-4.97522,36.48591],[-4.98088,36.48503],[-4.98481,36.4927],[-4.98512,36.49308],[-4.98602,36.49367],[-4.98728,36.49409],[-4.99291,36.49469],[-4.99305,36.49455]]]}},{"type":"Feature","properties":{"id":"2906902006"},"geometry":{"type":"Polygon","coordinates":[[[-4.99145,36.49026],[-4.99093,36.4886],[-4.99132,36.48841],[-4.99122,36.48827],[-4.99224,36.48776],[-4.99255,36.48836],[-4.99287,36.48826],[-4.99375,36.48841],[-4.99371,36.48945],[-4.99258,36.48955],[-4.9924,36.49006],[-4.99145,36.49026]]]}},{"type":"Feature","properties":{"id":"2906902007"},"geometry":{"type":"Polygon","coordinates":[[[-4.99093,36.4886],[-4.99044,36.48688],[-4.99062,36.4867],[-4.9902,36.48517],[-4.99039,36.48507],[-4.99192,36.48481],[-4.9919,36.4847],[-4.99344,36.48375],[-4.99396,36.48462],[-4.99535,36.48586],[-4.99157,36.48647],[-4.99224,36.48776],[-4.99122,36.48827],[-4.99132,36.48841],[-4.99093,36.4886]]]}},{"type":"Feature","properties":{"id":"2906902008"},"geometry":{"type":"Polygon","coordinates":[[[-4.98887,36.48234],[-4.98993,36.48168],[-4.99164,36.48376],[-4.99192,36.48481],[-4.99039,36.48507],[-4.98981,36.48487],[-4.98931,36.48235],[-4.98887,36.48234]]]}},{"type":"Feature","properties":{"id":"2906902009"},"geometry":{"type":"Polygon","coordinates":[[[-4.97731,36.47743],[-4.97996,36.47593],[-4.98503,36.47263],[-4.98609,36.47206],[-4.98742,36.47151],[-4.98819,36.47105],[-4.99088,36.46899],[-4.99156,36.46869],[-4.99309,36.46755],[-4.99368,36.46727],[-4.9954,36.4661],[-4.995,36.46568],[-4.99483,36.46572],[-4.99506,36.46557],[-4.99544,36.46605],[-4.9982,36.46481],[-4.99934,36.46419],[-4.99956,36.46397],[-5.00014,36.46399],[-5.00047,36.46386],[-5.00102,36.46323],[-5.00146,36.46312],[-5.00187,36.46285],[-5.00209,36.46237],[-5.00248,36.46227],[-5.00299,36.46194],[-5.00304,36.46175],[-5.00333,36.46163],[-5.00346,36.46123],[-5.00375,36.46103],[-5.0037,36.4608],[-5.00399,36.46071],[-5.00427,36.46048],[-5.00461,36.45988],[-5.00555,36.45954],[-5.00596,36.46282],[-5.00646,36.46406],[-5.00768,36.46632],[-5.00826,36.46976],[-5.00858,36.47261],[-5.00469,36.47326],[-5.00121,36.47454],[-4.98675,36.48369],[-4.98587,36.48412],[-4.98464,36.48443],[-4.97797,36.47824],[-4.97731,36.47743]]]}},{"type":"Feature","properties":{"id":"2906902010"},"geometry":{"type":"Polygon","coordinates":[[[-4.99371,36.48945],[-4.9938,36.48878],[-4.99371,36.48825],[-4.99272,36.48629],[-4.99585,36.48575],[-4.9963,36.48892],[-4.99371,36.48945]]]}},{"type":"Feature","properties":{"id":"2906902011"},"geometry":{"type":"Polygon","coordinates":[[[-4.99382,36.47921],[-4.99405,36.47932],[-4.99419,36.47963],[-4.99479,36.48176],[-4.99483,36.48217],[-4.99513,36.4827],[-4.9919,36.4847],[-4.99164,36.48376],[-4.98993,36.48168],[-4.99382,36.47921]]]}},{"type":"Feature","properties":{"id":"2906902012"},"geometry":{"type":"Polygon","coordinates":[[[-4.98783,36.48881],[-4.99073,36.48794],[-4.99125,36.48956],[-4.99059,36.48948],[-4.98864,36.49025],[-4.98783,36.48881]]]}},{"type":"Feature","properties":{"id":"2906902013"},"geometry":{"type":"Polygon","coordinates":[[[-4.98457,36.48488],[-4.98508,36.48478],[-4.98577,36.48678],[-4.98676,36.48673],[-4.98864,36.49025],[-4.98689,36.49087],[-4.98618,36.48951],[-4.98693,36.48926],[-4.98649,36.48847],[-4.98575,36.48873],[-4.98451,36.4863],[-4.98457,36.48488]]]}},{"type":"Feature","properties":{"id":"2906902014"},"geometry":{"type":"Polygon","coordinates":[[[-4.99255,36.48836],[-4.99157,36.48647],[-4.99272,36.48629],[-4.99375,36.48841],[-4.99287,36.48826],[-4.99255,36.48836]]]}},{"type":"Feature","properties":{"id":"2906902015"},"geometry":{"type":"Polygon","coordinates":[[[-4.99125,36.48956],[-4.99175,36.49117],[-4.99303,36.49346],[-4.99294,36.49402],[-4.99305,36.49455],[-4.99291,36.49469],[-4.98728,36.49409],[-4.98646,36.49386],[-4.98561,36.49343],[-4.98512,36.49308],[-4.98481,36.4927],[-4.98464,36.49236],[-4.98566,36.49203],[-4.98536,36.49142],[-4.98959,36.48993],[-4.99059,36.48948],[-4.99125,36.48956]]]}},{"type":"Feature","properties":{"id":"2906902016"},"geometry":{"type":"Polygon","coordinates":[[[-5.00003,36.48569],[-5.00045,36.48581],[-5.00054,36.48597],[-5.00061,36.48673],[-5.00024,36.48724],[-5.00026,36.48735],[-5.00094,36.48782],[-5.00122,36.48838],[-5.00112,36.48874],[-5.00075,36.48909],[-5.00084,36.4894],[-5.00095,36.48955],[-5.00153,36.4897],[-5.00194,36.48994],[-5.00231,36.49028],[-5.00238,36.49075],[-5.00081,36.49159],[-5.00051,36.49157],[-5.0001,36.49193],[-4.99798,36.4928],[-4.99489,36.49398],[-4.99401,36.49428],[-4.9937,36.49427],[-4.9935,36.49448],[-4.99305,36.49455],[-4.99294,36.49402],[-4.99303,36.49346],[-4.99175,36.49117],[-4.99145,36.49026],[-4.9924,36.49006],[-4.99258,36.48955],[-4.99353,36.48949],[-4.9963,36.48892],[-4.99585,36.48575],[-4.99535,36.48586],[-4.99396,36.48462],[-4.99344,36.48375],[-4.99513,36.4827],[-4.99483,36.48217],[-4.99479,36.48176],[-4.99419,36.47963],[-4.99405,36.47932],[-4.99382,36.47921],[-4.99794,36.47656],[-4.99924,36.47775],[-4.99939,36.4784],[-4.99926,36.47929],[-4.99895,36.4797],[-4.99909,36.48016],[-4.99955,36.48095],[-4.99968,36.48114],[-5.0012,36.48202],[-5.00158,36.48264],[-5.00166,36.48295],[-5.0013,36.48319],[-5.00069,36.48324],[-5.00024,36.48358],[-5.00022,36.48462],[-5.00035,36.4849],[-5.00007,36.48534],[-5.00003,36.48569]]]}},{"type":"Feature","properties":{"id":"2906902017"},"geometry":{"type":"Polygon","coordinates":[[[-4.97285,36.47805],[-4.97447,36.47815],[-4.97561,36.47804],[-4.97731,36.47743],[-4.97797,36.47824],[-4.98464,36.48443],[-4.97522,36.48591],[-4.97467,36.48492],[-4.97415,36.48444],[-4.97395,36.48294],[-4.97312,36.48098],[-4.97261,36.47918],[-4.97259,36.47885],[-4.9728,36.47846],[-4.97285,36.47805]]]}},{"type":"Feature","properties":{"id":"2906902018"},"geometry":{"type":"Polygon","coordinates":[[[-4.99794,36.47656],[-5.00084,36.47473],[-5.00276,36.47392],[-5.00502,36.47318],[-5.00858,36.47261],[-5.00867,36.47462],[-5.0093,36.47837],[-5.01022,36.47991],[-5.01025,36.48072],[-5.01046,36.48161],[-5.01152,36.48322],[-5.00712,36.48385],[-5.0052,36.48421],[-5.00459,36.48415],[-5.00303,36.48427],[-5.00238,36.48468],[-5.00182,36.4853],[-5.0014,36.48546],[-5.00003,36.48569],[-5.00007,36.48534],[-5.00035,36.4849],[-5.00022,36.48462],[-5.00024,36.48358],[-5.00069,36.48324],[-5.0013,36.48319],[-5.00166,36.48295],[-5.00158,36.48264],[-5.0012,36.48202],[-4.99968,36.48114],[-4.99955,36.48095],[-4.99909,36.48016],[-4.99895,36.4797],[-4.99926,36.47929],[-4.99939,36.4784],[-4.99924,36.47775],[-4.99794,36.47656]]]}},{"type":"Feature","properties":{"id":"2906902019"},"geometry":{"type":"Polygon","coordinates":[[[-4.98088,36.48503],[-4.98428,36.4845],[-4.98447,36.4849],[-4.98457,36.48488],[-4.98451,36.4863],[-4.98575,36.48873],[-4.98649,36.48847],[-4.98693,36.48926],[-4.98618,36.48951],[-4.98689,36.49087],[-4.98536,36.49142],[-4.98566,36.49203],[-4.98464,36.49236],[-4.98088,36.48503]]]}},{"type":"Feature","properties":{"id":"2906903001"},"geometry":{"type":"Polygon","coordinates":[[[-4.94497,36.49286],[-4.9476,36.49065],[-4.94834,36.48987],[-4.94859,36.48945],[-4.94854,36.48881],[-4.9484,36.48861],[-4.94818,36.48857],[-4.94815,36.48884],[-4.94791,36.48886],[-4.94782,36.48862],[-4.9524,36.48333],[-4.95268,36.48311],[-4.95324,36.48297],[-4.95463,36.48288],[-4.95489,36.48292],[-4.95496,36.48303],[-4.95475,36.48321],[-4.95458,36.48312],[-4.9533,36.48321],[-4.95287,36.48332],[-4.95257,36.48353],[-4.95182,36.4844],[-4.95163,36.48469],[-4.9517,36.48473],[-4.95083,36.48562],[-4.94946,36.48726],[-4.94958,36.48732],[-4.94933,36.48752],[-4.94924,36.48805],[-4.94945,36.48807],[-4.94952,36.48823],[-4.9496,36.48825],[-4.94962,36.48816],[-4.95011,36.48868],[-4.95038,36.48852],[-4.94971,36.48782],[-4.94961,36.48782],[-4.94978,36.48772],[-4.94975,36.48779],[-4.95057,36.48863],[-4.95083,36.48847],[-4.94996,36.48749],[-4.95088,36.48844],[-4.95114,36.48827],[-4.95016,36.48735],[-4.95032,36.48726],[-4.95029,36.48733],[-4.95118,36.48825],[-4.95145,36.48808],[-4.95032,36.48691],[-4.95023,36.48692],[-4.95039,36.48682],[-4.95037,36.4869],[-4.95151,36.48804],[-4.95189,36.48781],[-4.95077,36.48664],[-4.95067,36.48664],[-4.95084,36.48655],[-4.95194,36.48779],[-4.95234,36.48753],[-4.95121,36.48636],[-4.95113,36.48636],[-4.95132,36.48629],[-4.95126,36.48633],[-4.95232,36.48745],[-4.95293,36.48708],[-4.95161,36.48572],[-4.95153,36.48577],[-4.95148,36.48571],[-4.95174,36.48554],[-4.95172,36.48565],[-4.95208,36.48608],[-4.95287,36.4869],[-4.95348,36.48654],[-4.95282,36.48586],[-4.95274,36.48592],[-4.95269,36.48586],[-4.95292,36.48572],[-4.95291,36.48583],[-4.95354,36.48648],[-4.95439,36.48595],[-4.95335,36.48437],[-4.95286,36.48457],[-4.95277,36.48444],[-4.95295,36.48427],[-4.95344,36.48414],[-4.95422,36.48443],[-4.95483,36.48451],[-4.9559,36.48438],[-4.95607,36.48449],[-4.956,36.48458],[-4.95566,36.4846],[-4.9559,36.48504],[-4.95631,36.48524],[-4.9568,36.48528],[-4.95729,36.48511],[-4.95763,36.48455],[-4.95748,36.48415],[-4.95719,36.48431],[-4.95708,36.48427],[-4.95711,36.4841],[-4.9579,36.48393],[-4.95789,36.48416],[-4.95759,36.48413],[-4.95786,36.4849],[-4.95845,36.48503],[-4.95895,36.48501],[-4.95972,36.48463],[-4.96003,36.48406],[-4.95984,36.48352],[-4.95935,36.48368],[-4.95929,36.48381],[-4.95911,36.48374],[-4.95926,36.48354],[-4.96064,36.48308],[-4.96072,36.48316],[-4.96066,36.48325],[-4.96008,36.48346],[-4.96037,36.48368],[-4.96105,36.4839],[-4.96172,36.48381],[-4.96201,36.48368],[-4.96232,36.48336],[-4.96249,36.48299],[-4.96238,36.48266],[-4.962,36.48259],[-4.96176,36.48272],[-4.96171,36.48254],[-4.96323,36.48205],[-4.9633,36.48216],[-4.96258,36.48243],[-4.96326,36.48301],[-4.96392,36.48308],[-4.9644,36.48287],[-4.96485,36.4828],[-4.96527,36.48235],[-4.96521,36.48182],[-4.96495,36.48143],[-4.96439,36.48163],[-4.9643,36.48175],[-4.9642,36.48168],[-4.96425,36.48155],[-4.96532,36.48117],[-4.96548,36.48131],[-4.9651,36.4814],[-4.96525,36.48167],[-4.96573,36.48186],[-4.96635,36.48184],[-4.9671,36.48142],[-4.96712,36.4813],[-4.96687,36.48091],[-4.96695,36.4808],[-4.96711,36.48082],[-4.96713,36.48112],[-4.96777,36.4811],[-4.96819,36.48078],[-4.96913,36.48029],[-4.97081,36.47869],[-4.97138,36.47829],[-4.97206,36.47807],[-4.97285,36.47805],[-4.9728,36.47846],[-4.97259,36.47885],[-4.97261,36.47918],[-4.97312,36.48098],[-4.97395,36.48294],[-4.97415,36.48444],[-4.97467,36.48492],[-4.97522,36.48591],[-4.96616,36.4873],[-4.95856,36.48862],[-4.95724,36.48892],[-4.95623,36.48936],[-4.95669,36.49066],[-4.95638,36.49127],[-4.9563,36.49211],[-4.95642,36.49253],[-4.95691,36.49296],[-4.9577,36.49306],[-4.95821,36.49334],[-4.95892,36.4934],[-4.95928,36.49362],[-4.95945,36.49392],[-4.95923,36.49437],[-4.95892,36.49466],[-4.959,36.495],[-4.95939,36.49545],[-4.96051,36.49616],[-4.959,36.49675],[-4.95906,36.49697],[-4.95681,36.49763],[-4.95478,36.49794],[-4.94944,36.49923],[-4.94767,36.49787],[-4.94698,36.49697],[-4.94552,36.49438],[-4.94497,36.49286]]]}},{"type":"Feature","properties":{"id":"2906903002"},"geometry":{"type":"Polygon","coordinates":[[[-4.91881,36.51359],[-4.9187,36.51274],[-4.91881,36.51189],[-4.91909,36.51065],[-4.91957,36.50991],[-4.91963,36.50927],[-4.91913,36.50818],[-4.91899,36.50816],[-4.91851,36.50772],[-4.91816,36.50729],[-4.92393,36.50502],[-4.92282,36.50362],[-4.92276,36.50336],[-4.9224,36.50344],[-4.92213,36.50341],[-4.92204,36.50325],[-4.9222,36.50236],[-4.92181,36.50128],[-4.92226,36.50093],[-4.92216,36.50062],[-4.92198,36.50072],[-4.92191,36.50063],[-4.92226,36.50046],[-4.92223,36.50011],[-4.92242,36.49964],[-4.9226,36.49963],[-4.92267,36.49971],[-4.92241,36.50007],[-4.92239,36.50033],[-4.92254,36.5006],[-4.92331,36.50076],[-4.92392,36.50068],[-4.92457,36.50046],[-4.92611,36.49982],[-4.92772,36.49957],[-4.92839,36.49965],[-4.92912,36.49997],[-4.9299,36.50017],[-4.93113,36.50006],[-4.93256,36.50011],[-4.93358,36.50005],[-4.93411,36.49989],[-4.93497,36.49981],[-4.93608,36.49928],[-4.93616,36.49897],[-4.93591,36.49883],[-4.93602,36.49867],[-4.93623,36.49874],[-4.93615,36.49885],[-4.93622,36.49894],[-4.93695,36.4988],[-4.9391,36.49773],[-4.94115,36.49641],[-4.94217,36.49553],[-4.94322,36.49484],[-4.94497,36.49286],[-4.94552,36.49438],[-4.94698,36.49697],[-4.94767,36.49787],[-4.94945,36.49924],[-4.94996,36.50004],[-4.95022,36.50157],[-4.95016,36.50383],[-4.94976,36.50512],[-4.94897,36.50623],[-4.94908,36.50747],[-4.94969,36.50901],[-4.94967,36.50936],[-4.94994,36.51033],[-4.94988,36.51057],[-4.9502,36.51097],[-4.95029,36.51217],[-4.95055,36.51302],[-4.95055,36.51424],[-4.95108,36.51509],[-4.95203,36.51799],[-4.95294,36.51941],[-4.95354,36.52078],[-4.9539,36.52114],[-4.95442,36.52203],[-4.9556,36.52433],[-4.95713,36.52588],[-4.95315,36.52631],[-4.95183,36.52632],[-4.95043,36.52622],[-4.94739,36.52573],[-4.94555,36.525],[-4.94322,36.52381],[-4.94197,36.52303],[-4.94074,36.52207],[-4.9391,36.52026],[-4.93762,36.51818],[-4.9358,36.51596],[-4.93432,36.51489],[-4.93267,36.514],[-4.9307,36.51323],[-4.92872,36.51291],[-4.92689,36.51293],[-4.92239,36.51317],[-4.91881,36.51359]]]}},{"type":"Feature","properties":{"id":"2906903003"},"geometry":{"type":"Polygon","coordinates":[[[-4.97348,36.5038],[-4.97234,36.50272],[-4.97149,36.50152],[-4.97056,36.50074],[-4.9702,36.50004],[-4.97017,36.49936],[-4.96954,36.49901],[-4.96972,36.49887],[-4.97019,36.49876],[-4.97055,36.49875],[-4.97132,36.49893],[-4.97196,36.49885],[-4.97173,36.49863],[-4.97217,36.49856],[-4.9723,36.49839],[-4.97977,36.49528],[-4.97996,36.49563],[-4.97851,36.49634],[-4.9782,36.49634],[-4.97786,36.49715],[-4.97692,36.49752],[-4.97607,36.5],[-4.97656,36.50087],[-4.97611,36.5023],[-4.97689,36.50285],[-4.97503,36.50395],[-4.97448,36.50395],[-4.97386,36.50353],[-4.97348,36.5038]]]}},{"type":"Feature","properties":{"id":"2906903004"},"geometry":{"type":"Polygon","coordinates":[[[-4.98361,36.50066],[-4.9825,36.50055],[-4.97992,36.49997],[-4.97938,36.50141],[-4.97757,36.50099],[-4.97688,36.50284],[-4.97611,36.5023],[-4.97656,36.50087],[-4.97608,36.49996],[-4.97692,36.49752],[-4.97786,36.49715],[-4.9782,36.49634],[-4.97851,36.49634],[-4.97996,36.49563],[-4.98201,36.49817],[-4.98289,36.49899],[-4.98361,36.50066]]]}},{"type":"Feature","properties":{"id":"2906903005"},"geometry":{"type":"Polygon","coordinates":[[[-4.95222,36.49859],[-4.95478,36.49794],[-4.95681,36.49763],[-4.95906,36.49697],[-4.959,36.49675],[-4.96051,36.49616],[-4.95939,36.49545],[-4.959,36.495],[-4.95892,36.49466],[-4.95923,36.49437],[-4.95945,36.49392],[-4.95928,36.49362],[-4.95892,36.4934],[-4.95821,36.49334],[-4.9577,36.49306],[-4.95691,36.49296],[-4.95642,36.49253],[-4.9563,36.49211],[-4.95638,36.49127],[-4.95669,36.49066],[-4.95623,36.48936],[-4.95724,36.48892],[-4.95856,36.48862],[-4.96406,36.48767],[-4.96456,36.48869],[-4.96548,36.4891],[-4.96583,36.48959],[-4.96598,36.4915],[-4.96952,36.49698],[-4.97092,36.49808],[-4.97176,36.49862],[-4.97196,36.49885],[-4.97132,36.49893],[-4.97055,36.49875],[-4.97019,36.49876],[-4.96972,36.49887],[-4.96954,36.49901],[-4.97017,36.49936],[-4.9702,36.50004],[-4.97041,36.50053],[-4.97063,36.50083],[-4.97149,36.50152],[-4.97234,36.50272],[-4.97348,36.5038],[-4.97385,36.50452],[-4.97413,36.50476],[-4.97528,36.50536],[-4.97616,36.50627],[-4.97659,36.50657],[-4.97733,36.50692],[-4.97816,36.50772],[-4.97891,36.50877],[-4.97943,36.5097],[-4.97957,36.51016],[-4.97812,36.51059],[-4.97587,36.51041],[-4.97488,36.5105],[-4.97362,36.51112],[-4.96979,36.51351],[-4.96917,36.51376],[-4.96871,36.51372],[-4.96754,36.51337],[-4.96726,36.51319],[-4.9667,36.51255],[-4.96603,36.51255],[-4.96485,36.51277],[-4.96383,36.51245],[-4.96381,36.51238],[-4.96502,36.51149],[-4.96532,36.51091],[-4.96503,36.51008],[-4.96515,36.50947],[-4.96317,36.50599],[-4.96263,36.50571],[-4.96152,36.50537],[-4.96089,36.50448],[-4.96026,36.50498],[-4.95956,36.50494],[-4.95877,36.50476],[-4.95852,36.50453],[-4.95845,36.5043],[-4.95863,36.50386],[-4.95818,36.50368],[-4.95792,36.50375],[-4.95716,36.50434],[-4.95678,36.50449],[-4.95625,36.50456],[-4.95458,36.5045],[-4.9533,36.50482],[-4.95242,36.50298],[-4.95228,36.50103],[-4.95208,36.50026],[-4.95222,36.49859]]]}},{"type":"Feature","properties":{"id":"2906903006"},"geometry":{"type":"Polygon","coordinates":[[[-4.92181,36.50128],[-4.9222,36.50236],[-4.92204,36.50325],[-4.92213,36.50341],[-4.9224,36.50344],[-4.92276,36.50336],[-4.92282,36.50362],[-4.92393,36.50502],[-4.91816,36.50729],[-4.91851,36.50772],[-4.91899,36.50816],[-4.91913,36.50818],[-4.91963,36.50927],[-4.91957,36.50991],[-4.91909,36.51065],[-4.91881,36.51189],[-4.9187,36.51274],[-4.91881,36.51359],[-4.91238,36.51464],[-4.91138,36.51488],[-4.90762,36.51628],[-4.90651,36.51647],[-4.9037,36.51654],[-4.90352,36.51622],[-4.90371,36.51596],[-4.90364,36.51541],[-4.90387,36.51527],[-4.90389,36.5151],[-4.90325,36.5144],[-4.90324,36.51399],[-4.9029,36.51368],[-4.90304,36.51326],[-4.90305,36.51274],[-4.90284,36.5124],[-4.90307,36.51177],[-4.90306,36.51153],[-4.90191,36.51034],[-4.90171,36.50935],[-4.90132,36.50947],[-4.90122,36.5093],[-4.90128,36.50913],[-4.90173,36.50875],[-4.90172,36.50853],[-4.90128,36.50777],[-4.9013,36.50621],[-4.90476,36.50595],[-4.90529,36.50599],[-4.90716,36.5058],[-4.91107,36.50565],[-4.91341,36.50534],[-4.91491,36.50474],[-4.91535,36.50441],[-4.91704,36.50369],[-4.91788,36.50307],[-4.91903,36.50261],[-4.92181,36.50128]]]}},{"type":"Feature","properties":{"id":"2906903007"},"geometry":{"type":"Polygon","coordinates":[[[-4.97653,36.50312],[-4.97691,36.50354],[-4.97827,36.50366],[-4.97962,36.50362],[-4.98085,36.50338],[-4.98073,36.50309],[-4.98113,36.50298],[-4.9804,36.50173],[-4.98365,36.50064],[-4.98498,36.50187],[-4.98565,36.50315],[-4.98652,36.50575],[-4.98727,36.5075],[-4.98815,36.50852],[-4.98842,36.50951],[-4.98918,36.51052],[-4.98759,36.51519],[-4.9869,36.52133],[-4.97839,36.5317],[-4.97792,36.53211],[-4.97506,36.5339],[-4.97376,36.53491],[-4.97245,36.53566],[-4.97059,36.5369],[-4.96237,36.53735],[-4.96209,36.5366],[-4.96065,36.53515],[-4.95964,36.53374],[-4.95875,36.53307],[-4.95792,36.53289],[-4.95717,36.5335],[-4.95702,36.53394],[-4.95655,36.53433],[-4.956,36.53442],[-4.95538,36.53424],[-4.95503,36.53388],[-4.9551,36.53354],[-4.95554,36.53297],[-4.95699,36.53184],[-4.95765,36.5306],[-4.95771,36.52966],[-4.95739,36.52868],[-4.95724,36.52758],[-4.95726,36.52617],[-4.95674,36.52545],[-4.9556,36.52433],[-4.95442,36.52203],[-4.9539,36.52114],[-4.95354,36.52078],[-4.95294,36.51941],[-4.95203,36.51799],[-4.95108,36.51509],[-4.95055,36.51424],[-4.95055,36.51302],[-4.95029,36.51217],[-4.9502,36.51097],[-4.94988,36.51057],[-4.94994,36.51033],[-4.94967,36.50936],[-4.94969,36.50901],[-4.94908,36.50747],[-4.94897,36.50623],[-4.94976,36.50512],[-4.95016,36.50383],[-4.95017,36.50093],[-4.94996,36.50004],[-4.94944,36.49923],[-4.95203,36.49857],[-4.95222,36.49859],[-4.95208,36.50026],[-4.95228,36.50103],[-4.95242,36.50298],[-4.9533,36.50482],[-4.95458,36.5045],[-4.95625,36.50456],[-4.95678,36.50449],[-4.95716,36.50434],[-4.95792,36.50375],[-4.95818,36.50368],[-4.95863,36.50386],[-4.95845,36.5043],[-4.95852,36.50453],[-4.95877,36.50476],[-4.95956,36.50494],[-4.96026,36.50498],[-4.96089,36.50448],[-4.96152,36.50537],[-4.96263,36.50571],[-4.96317,36.50599],[-4.96515,36.50947],[-4.96503,36.51008],[-4.96532,36.51091],[-4.96502,36.51149],[-4.96379,36.51242],[-4.96485,36.51277],[-4.96603,36.51255],[-4.9667,36.51255],[-4.96726,36.51319],[-4.96754,36.51337],[-4.96871,36.51372],[-4.96927,36.51374],[-4.96979,36.51351],[-4.97362,36.51112],[-4.97488,36.5105],[-4.97587,36.51041],[-4.97812,36.51059],[-4.97957,36.51016],[-4.97943,36.5097],[-4.97891,36.50877],[-4.97816,36.50772],[-4.97733,36.50692],[-4.97659,36.50657],[-4.97616,36.50627],[-4.97528,36.50536],[-4.97413,36.50476],[-4.97363,36.50422],[-4.97347,36.5038],[-4.97386,36.50353],[-4.97448,36.50395],[-4.9749,36.50398],[-4.97535,36.50382],[-4.9759,36.5034],[-4.97653,36.50312]]]}},{"type":"Feature","properties":{"id":"2906903008"},"geometry":{"type":"Polygon","coordinates":[[[-4.97977,36.49528],[-4.9723,36.49839],[-4.97217,36.49856],[-4.97164,36.49858],[-4.96952,36.49698],[-4.96598,36.4915],[-4.96583,36.48959],[-4.96548,36.4891],[-4.96456,36.48869],[-4.96406,36.48767],[-4.97522,36.48591],[-4.97531,36.48662],[-4.97613,36.48775],[-4.97673,36.48942],[-4.97723,36.48983],[-4.97746,36.49115],[-4.97768,36.49131],[-4.97977,36.49528]]]}},{"type":"Feature","properties":{"id":"2906903009"},"geometry":{"type":"Polygon","coordinates":[[[-4.97653,36.50312],[-4.97689,36.50285],[-4.97757,36.50099],[-4.97938,36.50141],[-4.97992,36.49997],[-4.9825,36.50055],[-4.98361,36.50066],[-4.9804,36.50173],[-4.98113,36.50298],[-4.98073,36.50309],[-4.98085,36.50338],[-4.97962,36.50362],[-4.97827,36.50366],[-4.97691,36.50354],[-4.97653,36.50312]]]}},{"type":"Feature","properties":{"id":"2906903010"},"geometry":{"type":"Polygon","coordinates":[[[-4.9037,36.51654],[-4.90651,36.51647],[-4.90762,36.51628],[-4.91138,36.51488],[-4.91238,36.51464],[-4.91881,36.51359],[-4.92139,36.51325],[-4.9281,36.5129],[-4.92872,36.51291],[-4.9307,36.51323],[-4.93267,36.514],[-4.93432,36.51489],[-4.9358,36.51596],[-4.93762,36.51818],[-4.9391,36.52026],[-4.94074,36.52207],[-4.94197,36.52303],[-4.94322,36.52381],[-4.94555,36.525],[-4.94739,36.52573],[-4.95043,36.52622],[-4.95183,36.52632],[-4.95315,36.52631],[-4.95713,36.52588],[-4.95726,36.52617],[-4.95721,36.52713],[-4.95739,36.52868],[-4.95771,36.52966],[-4.95765,36.5306],[-4.95699,36.53184],[-4.95554,36.53297],[-4.9551,36.53354],[-4.95508,36.53401],[-4.95538,36.53424],[-4.956,36.53442],[-4.95655,36.53433],[-4.95702,36.53394],[-4.95717,36.5335],[-4.95792,36.53289],[-4.95875,36.53307],[-4.95964,36.53374],[-4.96065,36.53515],[-4.96209,36.5366],[-4.96237,36.53735],[-4.95948,36.53749],[-4.95813,36.53745],[-4.95221,36.53964],[-4.94981,36.54002],[-4.94521,36.54057],[-4.94045,36.5423],[-4.93864,36.54306],[-4.93666,36.54431],[-4.93239,36.54669],[-4.92889,36.54882],[-4.92752,36.54947],[-4.92655,36.55011],[-4.92514,36.55118],[-4.9249,36.5522],[-4.92464,36.55277],[-4.92347,36.55379],[-4.92202,36.55483],[-4.92218,36.55413],[-4.92174,36.554],[-4.92121,36.55356],[-4.9202,36.55248],[-4.91841,36.55104],[-4.91563,36.54936],[-4.91518,36.54897],[-4.91475,36.54812],[-4.91446,36.54801],[-4.90914,36.54897],[-4.90464,36.54963],[-4.90407,36.54841],[-4.90382,36.5482],[-4.90324,36.54787],[-4.90208,36.54752],[-4.90195,36.54603],[-4.90204,36.54593],[-4.90242,36.54575],[-4.90329,36.54589],[-4.90377,36.5456],[-4.90362,36.54539],[-4.90291,36.5452],[-4.90282,36.54505],[-4.90301,36.54464],[-4.90299,36.54436],[-4.90204,36.5436],[-4.90188,36.54319],[-4.90152,36.54293],[-4.90091,36.54275],[-4.9009,36.5426],[-4.90122,36.54224],[-4.90092,36.54169],[-4.90063,36.54075],[-4.90026,36.54025],[-4.90064,36.54024],[-4.90119,36.54054],[-4.90214,36.53988],[-4.90221,36.5396],[-4.90209,36.53937],[-4.90146,36.53887],[-4.90147,36.53861],[-4.90154,36.53846],[-4.90215,36.53809],[-4.90241,36.53774],[-4.90241,36.53757],[-4.90208,36.53752],[-4.90139,36.53766],[-4.90101,36.5375],[-4.90094,36.53726],[-4.90129,36.53687],[-4.90116,36.53666],[-4.90117,36.53646],[-4.90137,36.53604],[-4.90095,36.53536],[-4.90072,36.53519],[-4.89971,36.53528],[-4.89915,36.53507],[-4.89886,36.53477],[-4.89888,36.53398],[-4.89911,36.53338],[-4.89878,36.53301],[-4.89828,36.53268],[-4.89816,36.53235],[-4.89819,36.53209],[-4.8994,36.53129],[-4.89962,36.53101],[-4.89965,36.5308],[-4.89918,36.53058],[-4.89946,36.52998],[-4.89939,36.52942],[-4.89968,36.52882],[-4.89972,36.52819],[-4.90005,36.52778],[-4.89987,36.52734],[-4.89996,36.52703],[-4.90041,36.52642],[-4.90049,36.526],[-4.90136,36.52521],[-4.90168,36.52438],[-4.90176,36.52385],[-4.90166,36.52318],[-4.90171,36.52259],[-4.9021,36.52213],[-4.90235,36.52207],[-4.90252,36.52189],[-4.90229,36.52133],[-4.90238,36.52099],[-4.90261,36.52078],[-4.90326,36.52046],[-4.90347,36.52021],[-4.90354,36.51976],[-4.90398,36.51928],[-4.90367,36.51904],[-4.90383,36.51787],[-4.90374,36.51712],[-4.90362,36.5169],[-4.9037,36.51654]]]}},{"type":"Feature","properties":{"id":"2906904001"},"geometry":{"type":"Polygon","coordinates":[[[-4.86845,36.53463],[-4.86599,36.53193],[-4.86569,36.53182],[-4.86132,36.53214],[-4.85635,36.53114],[-4.85205,36.53004],[-4.84492,36.53092],[-4.83958,36.5331],[-4.82822,36.5371],[-4.82796,36.53687],[-4.82707,36.53648],[-4.82601,36.53637],[-4.82607,36.53632],[-4.82579,36.53573],[-4.82569,36.53515],[-4.82522,36.53466],[-4.82516,36.5339],[-4.82541,36.53342],[-4.82474,36.53297],[-4.82462,36.5327],[-4.82511,36.53206],[-4.82523,36.53165],[-4.82514,36.53138],[-4.82458,36.53079],[-4.82362,36.53027],[-4.8235,36.53002],[-4.82404,36.5284],[-4.82385,36.52817],[-4.82264,36.52794],[-4.82234,36.52767],[-4.82249,36.52733],[-4.82291,36.5272],[-4.82364,36.5274],[-4.82412,36.52741],[-4.82474,36.52733],[-4.82498,36.52716],[-4.82502,36.52704],[-4.82442,36.52678],[-4.82412,36.52656],[-4.8236,36.52573],[-4.82346,36.52534],[-4.82352,36.52506],[-4.82388,36.52466],[-4.82423,36.52455],[-4.82452,36.52451],[-4.82485,36.52459],[-4.82551,36.52449],[-4.82587,36.52408],[-4.82599,36.5236],[-4.82594,36.52337],[-4.82583,36.52315],[-4.82522,36.52263],[-4.82446,36.52223],[-4.82435,36.52201],[-4.82438,36.52164],[-4.8241,36.52102],[-4.8227,36.52032],[-4.82152,36.51991],[-4.82141,36.51962],[-4.82203,36.51901],[-4.822,36.51871],[-4.82173,36.51818],[-4.82183,36.51791],[-4.82218,36.51762],[-4.82291,36.51722],[-4.823,36.517],[-4.82284,36.51676],[-4.82288,36.5166],[-4.82347,36.51632],[-4.82426,36.51629],[-4.82452,36.5162],[-4.82478,36.51592],[-4.82496,36.51528],[-4.82598,36.51455],[-4.82623,36.51409],[-4.82546,36.51234],[-4.82562,36.51166],[-4.82488,36.51107],[-4.82476,36.51036],[-4.82449,36.51017],[-4.8235,36.51029],[-4.82332,36.51015],[-4.82325,36.50988],[-4.82331,36.50867],[-4.82326,36.50833],[-4.8231,36.50812],[-4.82283,36.50789],[-4.82101,36.50732],[-4.8188,36.50707],[-4.81836,36.50675],[-4.81813,36.50645],[-4.81844,36.50467],[-4.81893,36.50385],[-4.81907,36.50337],[-4.81907,36.50262],[-4.81969,36.50161],[-4.82017,36.50054],[-4.82039,36.4996],[-4.82077,36.49927],[-4.82207,36.49966],[-4.82389,36.5],[-4.8267,36.50035],[-4.82773,36.50057],[-4.83385,36.50149],[-4.83427,36.50149],[-4.83671,36.50191],[-4.84031,36.50281],[-4.84244,36.50271],[-4.84335,36.503],[-4.84467,36.50373],[-4.84578,36.50416],[-4.8497,36.50534],[-4.85023,36.50539],[-4.85127,36.50565],[-4.85526,36.50676],[-4.85764,36.50727],[-4.85842,36.50735],[-4.85751,36.50826],[-4.85723,36.50882],[-4.85622,36.51007],[-4.85565,36.51182],[-4.85519,36.51271],[-4.85418,36.51397],[-4.85357,36.5151],[-4.8535,36.51549],[-4.85276,36.51661],[-4.85272,36.51679],[-4.85341,36.51675],[-4.85371,36.51716],[-4.85358,36.51834],[-4.85332,36.51892],[-4.85287,36.51875],[-4.85216,36.51974],[-4.85218,36.51999],[-4.85301,36.52017],[-4.8529,36.52034],[-4.8529,36.52068],[-4.85227,36.52114],[-4.85228,36.52132],[-4.85267,36.52155],[-4.85273,36.52175],[-4.85258,36.52184],[-4.85192,36.52189],[-4.85174,36.52202],[-4.85167,36.52237],[-4.85159,36.52238],[-4.85167,36.52343],[-4.85191,36.52374],[-4.85109,36.52446],[-4.8529,36.52452],[-4.85525,36.52412],[-4.85644,36.52373],[-4.85958,36.52215],[-4.86161,36.52143],[-4.86442,36.52106],[-4.86754,36.52081],[-4.86939,36.52054],[-4.87016,36.52028],[-4.87122,36.52033],[-4.87242,36.52008],[-4.87294,36.51984],[-4.87371,36.51869],[-4.87449,36.51824],[-4.87479,36.51833],[-4.87495,36.51851],[-4.8749,36.51964],[-4.87556,36.51968],[-4.87557,36.51953],[-4.87674,36.51965],[-4.87729,36.51954],[-4.87819,36.51984],[-4.8779,36.52002],[-4.87799,36.52018],[-4.87845,36.52033],[-4.87849,36.52067],[-4.87896,36.52173],[-4.87899,36.52209],[-4.8793,36.52228],[-4.8799,36.52242],[-4.87993,36.5227],[-4.87973,36.52288],[-4.87909,36.52302],[-4.87903,36.52428],[-4.87852,36.52431],[-4.87805,36.5249],[-4.87785,36.52501],[-4.87696,36.52503],[-4.87633,36.52537],[-4.87598,36.52589],[-4.87601,36.52635],[-4.87544,36.52688],[-4.8755,36.52736],[-4.8753,36.52762],[-4.87537,36.52825],[-4.87621,36.52913],[-4.87632,36.52944],[-4.87597,36.53093],[-4.87636,36.53154],[-4.8763,36.53226],[-4.87662,36.533],[-4.87617,36.53373],[-4.87638,36.53421],[-4.8764,36.53463],[-4.87578,36.53597],[-4.87594,36.53665],[-4.87579,36.53727],[-4.87591,36.53755],[-4.87592,36.53792],[-4.87628,36.53879],[-4.87719,36.53939],[-4.87398,36.53833],[-4.8724,36.53769],[-4.86845,36.53463]]]}},{"type":"Feature","properties":{"id":"2906904002"},"geometry":{"type":"Polygon","coordinates":[[[-4.79173,36.54306],[-4.79194,36.54118],[-4.7918,36.54064],[-4.79188,36.5403],[-4.79167,36.53998],[-4.79167,36.53977],[-4.79181,36.5394],[-4.79178,36.53906],[-4.79193,36.53864],[-4.79185,36.53836],[-4.79198,36.53815],[-4.79202,36.53779],[-4.7918,36.5376],[-4.79125,36.53741],[-4.79112,36.53689],[-4.79082,36.53658],[-4.79081,36.53606],[-4.79088,36.53566],[-4.7913,36.53527],[-4.7915,36.53483],[-4.7919,36.53432],[-4.79164,36.534],[-4.7917,36.53366],[-4.79163,36.53338],[-4.79125,36.53309],[-4.79126,36.53191],[-4.79083,36.53161],[-4.79045,36.5308],[-4.7899,36.53073],[-4.78973,36.53059],[-4.78975,36.52996],[-4.79035,36.52956],[-4.79037,36.5292],[-4.79023,36.52903],[-4.7895,36.52868],[-4.78955,36.52768],[-4.78861,36.52792],[-4.7884,36.52784],[-4.78869,36.52708],[-4.78994,36.52635],[-4.79006,36.52604],[-4.78939,36.52531],[-4.78891,36.52519],[-4.78871,36.52506],[-4.7887,36.52477],[-4.78891,36.52443],[-4.7889,36.52411],[-4.78876,36.52395],[-4.788,36.52359],[-4.78795,36.52314],[-4.78781,36.52293],[-4.7873,36.52255],[-4.78716,36.52228],[-4.78715,36.52185],[-4.78768,36.52069],[-4.78768,36.52036],[-4.78748,36.52024],[-4.78694,36.52042],[-4.78643,36.52037],[-4.78615,36.52027],[-4.78581,36.51995],[-4.78576,36.51916],[-4.78608,36.51854],[-4.78684,36.518],[-4.78824,36.51678],[-4.78836,36.51652],[-4.78821,36.5162],[-4.78822,36.51598],[-4.78888,36.51561],[-4.78946,36.51498],[-4.78968,36.51451],[-4.78967,36.5143],[-4.78906,36.51387],[-4.78896,36.51362],[-4.78914,36.51332],[-4.78968,36.513],[-4.78984,36.51269],[-4.78961,36.51226],[-4.78915,36.51194],[-4.78804,36.51149],[-4.78748,36.51097],[-4.78747,36.51078],[-4.78844,36.51],[-4.78826,36.5096],[-4.78856,36.50925],[-4.78869,36.50888],[-4.78849,36.50794],[-4.78853,36.50737],[-4.78961,36.50682],[-4.78982,36.50655],[-4.78978,36.50637],[-4.78955,36.50629],[-4.78854,36.50643],[-4.78816,36.50621],[-4.78812,36.50609],[-4.7882,36.5058],[-4.78864,36.50525],[-4.78843,36.50478],[-4.78847,36.50465],[-4.78921,36.50424],[-4.78947,36.50388],[-4.78973,36.50239],[-4.78989,36.50207],[-4.78973,36.50169],[-4.78926,36.5011],[-4.78822,36.50026],[-4.78814,36.49967],[-4.78785,36.49911],[-4.78746,36.49871],[-4.78719,36.49823],[-4.78726,36.49704],[-4.78753,36.49659],[-4.7876,36.49591],[-4.78796,36.49476],[-4.78847,36.49412],[-4.78842,36.49357],[-4.78771,36.49311],[-4.78771,36.49249],[-4.79195,36.49342],[-4.79504,36.49397],[-4.79747,36.49461],[-4.79824,36.49467],[-4.80238,36.49584],[-4.80435,36.49624],[-4.80589,36.49671],[-4.80724,36.49693],[-4.8085,36.4973],[-4.80998,36.49753],[-4.8105,36.49782],[-4.81108,36.498],[-4.81159,36.49802],[-4.81357,36.49845],[-4.81466,36.49851],[-4.81522,36.4987],[-4.81603,36.49876],[-4.81801,36.49915],[-4.81956,36.49915],[-4.82077,36.49927],[-4.82039,36.4996],[-4.82017,36.50054],[-4.81969,36.50161],[-4.81907,36.50262],[-4.81907,36.50337],[-4.81893,36.50385],[-4.81844,36.50467],[-4.81813,36.50645],[-4.81836,36.50675],[-4.8188,36.50707],[-4.82101,36.50732],[-4.82283,36.50789],[-4.82326,36.50833],[-4.82332,36.51015],[-4.8235,36.51029],[-4.82449,36.51017],[-4.82476,36.51036],[-4.82488,36.51107],[-4.82562,36.51166],[-4.82546,36.51234],[-4.82618,36.51386],[-4.82617,36.5143],[-4.82598,36.51455],[-4.82496,36.51528],[-4.82478,36.51592],[-4.82452,36.5162],[-4.82426,36.51629],[-4.82347,36.51632],[-4.82288,36.5166],[-4.82284,36.51676],[-4.823,36.517],[-4.82291,36.51722],[-4.82218,36.51762],[-4.82183,36.51791],[-4.82173,36.51818],[-4.822,36.51871],[-4.82203,36.51901],[-4.82141,36.51962],[-4.82152,36.51991],[-4.8227,36.52032],[-4.8241,36.52102],[-4.82438,36.52164],[-4.82435,36.52201],[-4.82446,36.52223],[-4.82522,36.52263],[-4.82583,36.52315],[-4.82594,36.52337],[-4.82599,36.5236],[-4.82587,36.52408],[-4.82551,36.52449],[-4.82485,36.52459],[-4.82452,36.52451],[-4.82423,36.52455],[-4.82388,36.52466],[-4.82352,36.52506],[-4.82346,36.52534],[-4.8236,36.52573],[-4.82412,36.52656],[-4.82442,36.52678],[-4.82502,36.52704],[-4.82498,36.52716],[-4.82474,36.52733],[-4.82412,36.52741],[-4.82364,36.5274],[-4.82291,36.5272],[-4.82249,36.52733],[-4.82234,36.52767],[-4.82264,36.52794],[-4.82385,36.52817],[-4.82404,36.5284],[-4.8235,36.53002],[-4.82362,36.53027],[-4.82458,36.53079],[-4.82514,36.53138],[-4.82523,36.53165],[-4.82511,36.53206],[-4.82462,36.5327],[-4.82474,36.53297],[-4.82541,36.53342],[-4.82516,36.5339],[-4.82522,36.53466],[-4.82569,36.53515],[-4.82579,36.53573],[-4.82607,36.53632],[-4.82601,36.53637],[-4.82707,36.53648],[-4.82796,36.53687],[-4.82822,36.5371],[-4.82746,36.53737],[-4.82323,36.53941],[-4.82277,36.53955],[-4.82167,36.53962],[-4.82011,36.53996],[-4.81963,36.54021],[-4.81911,36.54033],[-4.81726,36.54019],[-4.81658,36.54029],[-4.81537,36.54085],[-4.81459,36.54101],[-4.80939,36.54153],[-4.8092,36.54165],[-4.80884,36.54277],[-4.80846,36.54333],[-4.80802,36.54435],[-4.80803,36.54474],[-4.80791,36.54498],[-4.80684,36.54557],[-4.80653,36.54586],[-4.8055,36.5462],[-4.80378,36.54641],[-4.80261,36.54679],[-4.8021,36.54604],[-4.80156,36.54557],[-4.80078,36.54515],[-4.79907,36.54478],[-4.79649,36.54451],[-4.79622,36.54421],[-4.79602,36.54276],[-4.79586,36.5422],[-4.79565,36.54192],[-4.79529,36.54183],[-4.79463,36.54202],[-4.7925,36.54294],[-4.79173,36.54306]]]}},{"type":"Feature","properties":{"id":"2906904003"},"geometry":{"type":"Polygon","coordinates":[[[-4.75885,36.53147],[-4.75916,36.52833],[-4.76027,36.52754],[-4.76069,36.5274],[-4.76121,36.52671],[-4.76179,36.52636],[-4.76248,36.5263],[-4.7623,36.52553],[-4.76271,36.52479],[-4.76306,36.52384],[-4.76348,36.52327],[-4.76293,36.5229],[-4.7624,36.5229],[-4.76232,36.52174],[-4.76273,36.52105],[-4.76358,36.52061],[-4.76393,36.51995],[-4.76443,36.51844],[-4.7649,36.51796],[-4.76489,36.5174],[-4.76402,36.51685],[-4.76455,36.51672],[-4.76513,36.51636],[-4.76475,36.5159],[-4.76474,36.51534],[-4.76388,36.51518],[-4.76349,36.51437],[-4.76384,36.51367],[-4.76426,36.51315],[-4.76469,36.51353],[-4.76528,36.51339],[-4.76466,36.51215],[-4.76528,36.51128],[-4.76521,36.51038],[-4.76535,36.50939],[-4.76572,36.50934],[-4.7667,36.51014],[-4.76732,36.50958],[-4.76765,36.50755],[-4.76801,36.50703],[-4.7681,36.50629],[-4.76695,36.50476],[-4.76735,36.50359],[-4.76727,36.50269],[-4.76646,36.50197],[-4.7656,36.50177],[-4.76511,36.50135],[-4.76541,36.5004],[-4.76557,36.49935],[-4.76497,36.49854],[-4.76451,36.49821],[-4.76488,36.49606],[-4.76513,36.49532],[-4.76522,36.49442],[-4.76508,36.49385],[-4.77756,36.49517],[-4.77895,36.49539],[-4.78429,36.49662],[-4.78717,36.4975],[-4.78719,36.49823],[-4.78746,36.49871],[-4.78785,36.49911],[-4.78814,36.49967],[-4.78822,36.50026],[-4.78926,36.5011],[-4.78973,36.50169],[-4.78989,36.50207],[-4.78973,36.50239],[-4.78947,36.50388],[-4.78921,36.50424],[-4.78847,36.50465],[-4.78843,36.50478],[-4.78864,36.50525],[-4.7882,36.5058],[-4.78812,36.50609],[-4.78816,36.50621],[-4.78854,36.50643],[-4.78955,36.50629],[-4.78978,36.50637],[-4.78982,36.50655],[-4.78961,36.50682],[-4.78853,36.50737],[-4.78849,36.50794],[-4.78869,36.50888],[-4.78856,36.50925],[-4.78826,36.5096],[-4.78844,36.51],[-4.78747,36.51078],[-4.78748,36.51097],[-4.78804,36.51149],[-4.78915,36.51194],[-4.78961,36.51226],[-4.78984,36.51269],[-4.78968,36.513],[-4.78914,36.51332],[-4.78896,36.51362],[-4.78906,36.51387],[-4.78967,36.5143],[-4.78968,36.51451],[-4.78946,36.51498],[-4.78888,36.51561],[-4.78822,36.51598],[-4.78821,36.5162],[-4.78836,36.51652],[-4.78824,36.51678],[-4.78684,36.518],[-4.78608,36.51854],[-4.78576,36.51916],[-4.78581,36.51995],[-4.78615,36.52027],[-4.78643,36.52037],[-4.78694,36.52042],[-4.78748,36.52024],[-4.78768,36.52036],[-4.78768,36.52069],[-4.78715,36.52185],[-4.78716,36.52228],[-4.7873,36.52255],[-4.78781,36.52293],[-4.78795,36.52314],[-4.788,36.52359],[-4.78876,36.52395],[-4.7889,36.52411],[-4.78891,36.52443],[-4.7887,36.52477],[-4.78871,36.52506],[-4.78891,36.52519],[-4.78939,36.52531],[-4.79006,36.52604],[-4.78994,36.52635],[-4.78869,36.52708],[-4.7884,36.52784],[-4.78861,36.52792],[-4.78955,36.52768],[-4.7895,36.52868],[-4.79023,36.52903],[-4.79037,36.5292],[-4.79035,36.52956],[-4.78975,36.52996],[-4.78973,36.53059],[-4.7899,36.53073],[-4.79045,36.5308],[-4.79083,36.53161],[-4.79126,36.53191],[-4.79125,36.53309],[-4.79163,36.53338],[-4.7917,36.53366],[-4.79164,36.534],[-4.7919,36.53432],[-4.7915,36.53483],[-4.7913,36.53527],[-4.79088,36.53566],[-4.79081,36.53606],[-4.79082,36.53658],[-4.79112,36.53689],[-4.79125,36.53741],[-4.7918,36.5376],[-4.79202,36.53779],[-4.79198,36.53815],[-4.79185,36.53836],[-4.79193,36.53864],[-4.79178,36.53906],[-4.79181,36.5394],[-4.79167,36.53977],[-4.79167,36.53998],[-4.79188,36.5403],[-4.7918,36.54064],[-4.79194,36.54118],[-4.79173,36.54306],[-4.79142,36.54305],[-4.79097,36.54288],[-4.79037,36.54248],[-4.78957,36.5417],[-4.78865,36.54123],[-4.78775,36.54042],[-4.7871,36.54003],[-4.78676,36.54001],[-4.78599,36.54023],[-4.78561,36.5402],[-4.78505,36.53998],[-4.78359,36.53963],[-4.78274,36.53918],[-4.78192,36.53906],[-4.78136,36.53909],[-4.7798,36.53886],[-4.77884,36.53892],[-4.77696,36.53751],[-4.77666,36.53746],[-4.7755,36.53784],[-4.77495,36.5377],[-4.77364,36.53762],[-4.77327,36.53744],[-4.77256,36.5364],[-4.7719,36.53494],[-4.77109,36.5346],[-4.77028,36.53438],[-4.7686,36.5343],[-4.768,36.53418],[-4.76755,36.53393],[-4.767,36.53284],[-4.76642,36.5325],[-4.76592,36.53203],[-4.76564,36.53144],[-4.76558,36.53103],[-4.76518,36.53093],[-4.76389,36.53089],[-4.76233,36.53072],[-4.7618,36.53074],[-4.76112,36.53106],[-4.75931,36.53149],[-4.75885,36.53147]]]}},{"type":"Feature","properties":{"id":"2906904004"},"geometry":{"type":"Polygon","coordinates":[[[-4.87253,36.51264],[-4.87405,36.51736],[-4.87416,36.51801],[-4.87449,36.51824],[-4.87371,36.51869],[-4.87294,36.51984],[-4.87242,36.52008],[-4.87122,36.52033],[-4.87023,36.52031],[-4.86937,36.51987],[-4.86774,36.51944],[-4.86713,36.51905],[-4.86663,36.51865],[-4.8653,36.51686],[-4.86597,36.51632],[-4.86622,36.51599],[-4.86662,36.51332],[-4.8666,36.51291],[-4.86604,36.51217],[-4.86594,36.51166],[-4.86604,36.51123],[-4.86601,36.51079],[-4.86579,36.51047],[-4.865,36.50989],[-4.86491,36.50872],[-4.86525,36.50775],[-4.86711,36.50773],[-4.86826,36.50746],[-4.86951,36.50742],[-4.87172,36.50701],[-4.87243,36.50741],[-4.87231,36.50864],[-4.87259,36.50909],[-4.87222,36.50909],[-4.87217,36.50982],[-4.87199,36.51039],[-4.87229,36.51087],[-4.87253,36.51264]]]}},{"type":"Feature","properties":{"id":"2906904005"},"geometry":{"type":"Polygon","coordinates":[[[-4.86525,36.50775],[-4.86491,36.50872],[-4.865,36.50989],[-4.86579,36.51047],[-4.86601,36.51079],[-4.86604,36.51123],[-4.86594,36.51166],[-4.86604,36.51217],[-4.8666,36.51291],[-4.86662,36.51332],[-4.86622,36.51599],[-4.86597,36.51632],[-4.8653,36.51686],[-4.86663,36.51865],[-4.86709,36.51902],[-4.86774,36.51944],[-4.86937,36.51987],[-4.87016,36.52028],[-4.86939,36.52054],[-4.86754,36.52081],[-4.86442,36.52106],[-4.86162,36.52144],[-4.86081,36.51786],[-4.8607,36.51688],[-4.86035,36.51658],[-4.85982,36.51635],[-4.85902,36.51639],[-4.85887,36.51596],[-4.85894,36.51518],[-4.85865,36.51507],[-4.85822,36.51557],[-4.85774,36.51546],[-4.85713,36.51482],[-4.85691,36.51472],[-4.85727,36.51396],[-4.85849,36.51209],[-4.85925,36.51124],[-4.86033,36.51033],[-4.86166,36.50986],[-4.86063,36.50956],[-4.86014,36.50909],[-4.85962,36.50877],[-4.85751,36.50826],[-4.85842,36.50735],[-4.86093,36.50763],[-4.86525,36.50775]]]}},{"type":"Feature","properties":{"id":"2906904006"},"geometry":{"type":"Polygon","coordinates":[[[-4.78717,36.4975],[-4.78429,36.49662],[-4.77895,36.49539],[-4.77756,36.49517],[-4.76508,36.49385],[-4.76522,36.49442],[-4.76513,36.49532],[-4.76488,36.49606],[-4.76451,36.49821],[-4.76497,36.49854],[-4.76557,36.49935],[-4.76541,36.5004],[-4.76511,36.50135],[-4.7656,36.50177],[-4.76646,36.50197],[-4.76727,36.50269],[-4.76735,36.50359],[-4.76695,36.50476],[-4.7681,36.50629],[-4.76801,36.50703],[-4.76765,36.50755],[-4.76732,36.50958],[-4.7667,36.51014],[-4.76572,36.50934],[-4.76535,36.50939],[-4.76521,36.51038],[-4.76528,36.51128],[-4.76466,36.51215],[-4.76528,36.51339],[-4.76469,36.51353],[-4.76426,36.51315],[-4.76384,36.51367],[-4.76349,36.51437],[-4.76388,36.51518],[-4.76474,36.51534],[-4.76475,36.5159],[-4.76513,36.51636],[-4.76455,36.51672],[-4.76402,36.51685],[-4.76489,36.5174],[-4.7649,36.51796],[-4.76443,36.51844],[-4.76393,36.51995],[-4.76358,36.52061],[-4.76273,36.52105],[-4.76232,36.52174],[-4.7624,36.5229],[-4.76293,36.5229],[-4.76348,36.52327],[-4.76306,36.52384],[-4.76271,36.52479],[-4.7623,36.52553],[-4.76248,36.5263],[-4.76179,36.52636],[-4.76121,36.52671],[-4.76069,36.5274],[-4.76027,36.52754],[-4.75916,36.52833],[-4.75885,36.53147],[-4.75828,36.53132],[-4.75779,36.53131],[-4.75702,36.53106],[-4.75475,36.52991],[-4.75327,36.52939],[-4.75249,36.52872],[-4.75044,36.52901],[-4.74965,36.52889],[-4.74941,36.52794],[-4.74887,36.52726],[-4.74819,36.52661],[-4.74711,36.52578],[-4.74652,36.52561],[-4.74538,36.525],[-4.74386,36.52525],[-4.7429,36.52473],[-4.74258,36.52361],[-4.74237,36.52331],[-4.74152,36.52301],[-4.74055,36.52221],[-4.74021,36.52205],[-4.73877,36.52189],[-4.73746,36.52117],[-4.73693,36.52108],[-4.7354,36.52124],[-4.73509,36.52082],[-4.73391,36.51997],[-4.73329,36.51932],[-4.73238,36.51873],[-4.73206,36.51831],[-4.73165,36.51737],[-4.73095,36.51625],[-4.73066,36.51533],[-4.73074,36.51406],[-4.73095,36.51353],[-4.73222,36.51235],[-4.73269,36.51137],[-4.73384,36.51043],[-4.73441,36.50976],[-4.73475,36.50926],[-4.73478,36.50845],[-4.735,36.5082],[-4.736,36.50764],[-4.73644,36.50646],[-4.73645,36.5054],[-4.7363,36.50531],[-4.73587,36.50531],[-4.73451,36.50417],[-4.73431,36.50375],[-4.7343,36.50317],[-4.73394,36.50196],[-4.73405,36.50177],[-4.73501,36.50117],[-4.73649,36.50002],[-4.73662,36.4992],[-4.73692,36.49896],[-4.7374,36.49878],[-4.7376,36.49856],[-4.73757,36.49808],[-4.73732,36.49774],[-4.73605,36.49728],[-4.73588,36.497],[-4.73652,36.49499],[-4.73746,36.49325],[-4.73743,36.49292],[-4.73203,36.48644],[-4.73353,36.48613],[-4.73395,36.48615],[-4.73437,36.48599],[-4.73542,36.48595],[-4.73652,36.48557],[-4.73706,36.48555],[-4.73798,36.48532],[-4.73857,36.48502],[-4.73929,36.48482],[-4.73904,36.48321],[-4.7393,36.48292],[-4.73965,36.48278],[-4.74054,36.48263],[-4.74066,36.48273],[-4.74055,36.48284],[-4.74005,36.48285],[-4.73948,36.48299],[-4.73933,36.48309],[-4.73922,36.48336],[-4.73925,36.48357],[-4.73937,36.48357],[-4.73928,36.48365],[-4.73976,36.48519],[-4.7404,36.48592],[-4.74053,36.48594],[-4.74067,36.48579],[-4.74042,36.48551],[-4.74106,36.48545],[-4.74105,36.48518],[-4.74089,36.48498],[-4.74016,36.48516],[-4.73999,36.4847],[-4.74015,36.48467],[-4.73981,36.48351],[-4.73969,36.48352],[-4.73965,36.48339],[-4.73987,36.48325],[-4.74005,36.48324],[-4.74084,36.48351],[-4.74084,36.48362],[-4.74049,36.48361],[-4.74046,36.48377],[-4.74058,36.48394],[-4.741,36.48418],[-4.74196,36.48438],[-4.74269,36.4843],[-4.74338,36.48411],[-4.74328,36.48284],[-4.7434,36.48272],[-4.74358,36.48438],[-4.74557,36.48505],[-4.74708,36.48515],[-4.74892,36.48498],[-4.75216,36.48514],[-4.75304,36.48534],[-4.75487,36.48552],[-4.75552,36.48568],[-4.75683,36.48572],[-4.75883,36.48637],[-4.76162,36.48668],[-4.76239,36.48699],[-4.76421,36.48738],[-4.76632,36.48758],[-4.76734,36.48786],[-4.76851,36.48803],[-4.77024,36.48841],[-4.77245,36.48866],[-4.77745,36.48992],[-4.78087,36.49094],[-4.78259,36.4913],[-4.78335,36.49155],[-4.78468,36.49173],[-4.78541,36.49202],[-4.78771,36.49249],[-4.78771,36.49311],[-4.78842,36.49357],[-4.78847,36.49412],[-4.78796,36.49476],[-4.7876,36.49591],[-4.78753,36.49659],[-4.78726,36.49704],[-4.78717,36.4975]]]}},{"type":"Feature","properties":{"id":"2906904007"},"geometry":{"type":"Polygon","coordinates":[[[-4.85755,36.50827],[-4.85962,36.50877],[-4.86014,36.50909],[-4.86063,36.50956],[-4.86166,36.50986],[-4.86033,36.51033],[-4.85925,36.51124],[-4.85849,36.51209],[-4.85727,36.51396],[-4.85691,36.51472],[-4.85713,36.51482],[-4.85774,36.51546],[-4.85822,36.51557],[-4.85865,36.51507],[-4.85894,36.51518],[-4.85887,36.51596],[-4.85902,36.51639],[-4.85982,36.51635],[-4.86035,36.51658],[-4.8607,36.51688],[-4.86081,36.51786],[-4.86161,36.52143],[-4.85958,36.52215],[-4.85644,36.52373],[-4.85525,36.52412],[-4.8529,36.52452],[-4.85109,36.52446],[-4.85191,36.52374],[-4.85167,36.52343],[-4.85159,36.52238],[-4.85167,36.52237],[-4.85174,36.52202],[-4.85192,36.52189],[-4.85258,36.52184],[-4.85273,36.52175],[-4.85267,36.52155],[-4.85228,36.52132],[-4.85227,36.52114],[-4.8529,36.52068],[-4.8529,36.52034],[-4.85301,36.52017],[-4.85218,36.51999],[-4.85216,36.51974],[-4.85287,36.51875],[-4.85332,36.51892],[-4.85358,36.51834],[-4.85371,36.51716],[-4.85341,36.51675],[-4.85272,36.51679],[-4.85276,36.51661],[-4.8535,36.51549],[-4.85357,36.5151],[-4.85418,36.51397],[-4.85519,36.51271],[-4.85565,36.51182],[-4.85622,36.51007],[-4.85723,36.50882],[-4.85755,36.50827]]]}}]}