{"type":"FeatureCollection","features":[{"type":"Feature","properties":{"id":"2909301001"},"geometry":{"type":"Polygon","coordinates":[[[-4.68256,36.93644],[-4.6816,36.93612],[-4.68057,36.93646],[-4.68047,36.93636],[-4.68077,36.9348],[-4.68,36.93432],[-4.67992,36.9339],[-4.6802,36.93256],[-4.68003,36.93219],[-4.68012,36.93221],[-4.67968,36.93197],[-4.68053,36.93124],[-4.6819,36.9313],[-4.68215,36.93128],[-4.68232,36.93113],[-4.6827,36.93113],[-4.68367,36.93141],[-4.68394,36.93164],[-4.68368,36.93186],[-4.68348,36.93221],[-4.6839,36.93193],[-4.6843,36.9318],[-4.68427,36.93204],[-4.68373,36.9328],[-4.68377,36.93367],[-4.6833,36.93371],[-4.68286,36.93441],[-4.68287,36.93496],[-4.68315,36.93541],[-4.6835,36.9357],[-4.68435,36.93623],[-4.68537,36.93662],[-4.68562,36.93688],[-4.68554,36.93733],[-4.68514,36.93781],[-4.68438,36.93781],[-4.68411,36.9371],[-4.68385,36.9368],[-4.68351,36.93663],[-4.68256,36.93644]]]}},{"type":"Feature","properties":{"id":"2909301002"},"geometry":{"type":"Polygon","coordinates":[[[-4.63944,36.95877],[-4.63933,36.95743],[-4.63949,36.95529],[-4.63999,36.95335],[-4.64011,36.95211],[-4.64001,36.95164],[-4.64102,36.95035],[-4.64197,36.94815],[-4.64241,36.94621],[-4.64343,36.94469],[-4.64427,36.94375],[-4.6464,36.93971],[-4.64717,36.93877],[-4.64766,36.93833],[-4.65187,36.93555],[-4.6534,36.93337],[-4.65347,36.93312],[-4.65326,36.93173],[-4.65381,36.92989],[-4.65378,36.92815],[-4.65388,36.9277],[-4.65406,36.92737],[-4.65492,36.92657],[-4.65573,36.92501],[-4.65664,36.92355],[-4.65768,36.92242],[-4.65772,36.92183],[-4.65808,36.92041],[-4.65807,36.92005],[-4.65769,36.91917],[-4.65767,36.91884],[-4.65801,36.9172],[-4.66107,36.91775],[-4.66204,36.91785],[-4.66362,36.91766],[-4.66621,36.91826],[-4.66771,36.91849],[-4.66832,36.91868],[-4.66836,36.91816],[-4.66886,36.91639],[-4.66935,36.91537],[-4.67022,36.91439],[-4.67132,36.91181],[-4.6716,36.91141],[-4.67867,36.91404],[-4.67991,36.91457],[-4.683,36.91519],[-4.68312,36.91575],[-4.68375,36.9161],[-4.68412,36.91679],[-4.68526,36.91752],[-4.68915,36.92092],[-4.69609,36.9267],[-4.69847,36.92957],[-4.69921,36.93036],[-4.6997,36.9307],[-4.70184,36.93153],[-4.70866,36.93253],[-4.71075,36.93256],[-4.71202,36.93249],[-4.7123,36.93453],[-4.71242,36.93632],[-4.7124,36.93703],[-4.71193,36.93989],[-4.71343,36.94257],[-4.69492,36.95176],[-4.68956,36.95434],[-4.68853,36.95476],[-4.68791,36.95488],[-4.68698,36.95361],[-4.68659,36.9533],[-4.68617,36.95311],[-4.68399,36.9529],[-4.68313,36.95268],[-4.68293,36.95313],[-4.68224,36.95328],[-4.68135,36.95369],[-4.67956,36.95431],[-4.67861,36.95512],[-4.6772,36.95592],[-4.67492,36.95668],[-4.67256,36.95677],[-4.67121,36.9588],[-4.67089,36.95951],[-4.66837,36.96016],[-4.66665,36.96035],[-4.66357,36.9605],[-4.66141,36.96023],[-4.65887,36.96061],[-4.65826,36.9606],[-4.65788,36.96053],[-4.65785,36.96006],[-4.65708,36.95981],[-4.65625,36.95941],[-4.65279,36.95907],[-4.64977,36.95951],[-4.64583,36.95867],[-4.64279,36.95849],[-4.63944,36.95877]],[[-4.6816,36.93612],[-4.68256,36.93644],[-4.68351,36.93663],[-4.68385,36.9368],[-4.68411,36.9371],[-4.68438,36.93781],[-4.68514,36.93781],[-4.68554,36.93733],[-4.68562,36.93688],[-4.68537,36.93662],[-4.68435,36.93623],[-4.6835,36.9357],[-4.68315,36.93541],[-4.68287,36.93496],[-4.68286,36.93441],[-4.6833,36.93371],[-4.68377,36.93367],[-4.68373,36.9328],[-4.68427,36.93204],[-4.6843,36.9318],[-4.6839,36.93193],[-4.68348,36.93221],[-4.68368,36.93186],[-4.68394,36.93164],[-4.68367,36.93141],[-4.6827,36.93113],[-4.68232,36.93113],[-4.68215,36.93128],[-4.6819,36.9313],[-4.68053,36.93124],[-4.67968,36.93197],[-4.68012,36.93221],[-4.68003,36.93219],[-4.6802,36.93256],[-4.67992,36.9339],[-4.68,36.93432],[-4.68077,36.9348],[-4.68047,36.93636],[-4.68057,36.93646],[-4.6816,36.93612]]]}}]}