{"type":"FeatureCollection","features":[{"type":"Feature","properties":{"id":"2909701001"},"geometry":{"type":"Polygon","coordinates":[[[-4.34002,37.02958],[-4.34024,37.02937],[-4.34019,37.0284],[-4.34034,37.02831],[-4.3402,37.02768],[-4.34062,37.02726],[-4.34046,37.02694],[-4.34049,37.02669],[-4.34071,37.02657],[-4.3406,37.0262],[-4.34068,37.02593],[-4.34145,37.02599],[-4.34162,37.02589],[-4.34159,37.02483],[-4.34181,37.02447],[-4.34194,37.0244],[-4.34296,37.02552],[-4.34347,37.02592],[-4.34456,37.02529],[-4.34507,37.02508],[-4.34551,37.02504],[-4.34568,37.0257],[-4.34516,37.02626],[-4.34558,37.02685],[-4.34452,37.02767],[-4.34446,37.02793],[-4.34475,37.02842],[-4.34384,37.02892],[-4.34418,37.0293],[-4.34455,37.02942],[-4.34242,37.03025],[-4.34185,37.02937],[-4.34162,37.0292],[-4.34099,37.02933],[-4.34035,37.02964],[-4.34002,37.02958]]]}},{"type":"Feature","properties":{"id":"2909701002"},"geometry":{"type":"Polygon","coordinates":[[[-4.33302,37.02811],[-4.33459,37.02822],[-4.3355,37.02803],[-4.3376,37.02718],[-4.33802,37.02771],[-4.33768,37.02902],[-4.33732,37.02917],[-4.33733,37.02929],[-4.33747,37.02935],[-4.33735,37.02991],[-4.33802,37.02984],[-4.33817,37.02975],[-4.33805,37.02999],[-4.33832,37.02996],[-4.33842,37.03018],[-4.338,37.03034],[-4.33698,37.03042],[-4.3371,37.03043],[-4.33713,37.03053],[-4.33701,37.03069],[-4.33667,37.03079],[-4.3344,37.03101],[-4.33487,37.03198],[-4.33472,37.03251],[-4.33413,37.03316],[-4.33418,37.03335],[-4.33399,37.03403],[-4.33322,37.03354],[-4.33274,37.03342],[-4.33255,37.03326],[-4.33175,37.03296],[-4.33177,37.03327],[-4.3316,37.03386],[-4.33098,37.03379],[-4.33058,37.03357],[-4.33112,37.03249],[-4.33151,37.03207],[-4.33153,37.03176],[-4.3322,37.03069],[-4.33181,37.03051],[-4.33184,37.03012],[-4.33212,37.02988],[-4.33214,37.02895],[-4.33199,37.02849],[-4.33302,37.02811]]]}},{"type":"Feature","properties":{"id":"2909701003"},"geometry":{"type":"Polygon","coordinates":[[[-4.33993,37.0295],[-4.34035,37.02964],[-4.34099,37.02933],[-4.34162,37.0292],[-4.34185,37.02937],[-4.34242,37.03025],[-4.34455,37.02942],[-4.34418,37.0293],[-4.34384,37.02892],[-4.34475,37.02842],[-4.34446,37.02793],[-4.34452,37.02767],[-4.34558,37.02685],[-4.34516,37.02626],[-4.34568,37.0257],[-4.34551,37.02504],[-4.34507,37.02508],[-4.34456,37.02529],[-4.34347,37.02592],[-4.34296,37.02552],[-4.34194,37.0244],[-4.34182,37.02447],[-4.34216,37.02423],[-4.34248,37.02331],[-4.3426,37.02323],[-4.34282,37.02326],[-4.34434,37.02382],[-4.34461,37.02378],[-4.34486,37.02326],[-4.34533,37.02295],[-4.34562,37.02264],[-4.34652,37.02263],[-4.34739,37.02329],[-4.3482,37.02341],[-4.34841,37.02332],[-4.34853,37.02314],[-4.34857,37.02231],[-4.35082,37.02138],[-4.35632,37.02422],[-4.35877,37.02568],[-4.36169,37.0267],[-4.3648,37.0282],[-4.36788,37.03006],[-4.37129,37.0323],[-4.37378,37.0342],[-4.37689,37.03572],[-4.37833,37.03674],[-4.38011,37.03779],[-4.38294,37.03917],[-4.38457,37.04076],[-4.38618,37.04208],[-4.38586,37.04279],[-4.38534,37.04325],[-4.38369,37.04601],[-4.38277,37.04633],[-4.38137,37.04762],[-4.37776,37.05026],[-4.37688,37.05114],[-4.37527,37.05337],[-4.37329,37.05398],[-4.36997,37.05534],[-4.36238,37.05953],[-4.35832,37.06089],[-4.35525,37.06246],[-4.35423,37.06312],[-4.35298,37.06442],[-4.35163,37.06535],[-4.35035,37.06695],[-4.3499,37.06769],[-4.34888,37.06843],[-4.3473,37.06939],[-4.34303,37.07271],[-4.34112,37.07384],[-4.34059,37.07428],[-4.33832,37.07681],[-4.33808,37.07779],[-4.3376,37.07876],[-4.33518,37.0783],[-4.33422,37.0779],[-4.3326,37.0765],[-4.33171,37.0759],[-4.33104,37.07572],[-4.32879,37.0757],[-4.32756,37.07575],[-4.32687,37.07592],[-4.32528,37.07653],[-4.32007,37.07821],[-4.31828,37.07845],[-4.31738,37.07842],[-4.31511,37.07889],[-4.31311,37.07866],[-4.31235,37.07896],[-4.31217,37.07926],[-4.31172,37.0796],[-4.3114,37.07971],[-4.3104,37.07933],[-4.30931,37.07909],[-4.30646,37.07885],[-4.30157,37.07626],[-4.30109,37.07606],[-4.30018,37.07597],[-4.29959,37.07529],[-4.299,37.07422],[-4.29743,37.07376],[-4.29712,37.07357],[-4.29682,37.07306],[-4.29634,37.07266],[-4.29407,37.07221],[-4.29302,37.07219],[-4.28981,37.07262],[-4.28949,37.07247],[-4.28844,37.07161],[-4.28284,37.07144],[-4.28264,37.06653],[-4.28245,37.06523],[-4.28169,37.06267],[-4.28138,37.06115],[-4.281,37.05672],[-4.28052,37.0549],[-4.2793,37.05229],[-4.27699,37.04848],[-4.27443,37.04393],[-4.27276,37.04172],[-4.27235,37.03995],[-4.27191,37.03595],[-4.27165,37.03005],[-4.27004,37.02703],[-4.27117,37.022],[-4.27251,37.0149],[-4.27369,37.01448],[-4.27609,37.01294],[-4.27904,37.01038],[-4.27964,37.00996],[-4.28144,37.0089],[-4.28781,37.00553],[-4.28956,37.00439],[-4.29109,37.00355],[-4.29306,37.00203],[-4.29423,37.00143],[-4.29613,37.00064],[-4.2978,36.99924],[-4.29947,36.99816],[-4.3035,36.99912],[-4.30471,36.99933],[-4.30921,37.00061],[-4.31041,37.00076],[-4.31461,37.00057],[-4.3152,37.00068],[-4.31674,37.00118],[-4.32583,37.00474],[-4.3269,37.00592],[-4.33184,37.00928],[-4.33352,37.01004],[-4.33434,37.01072],[-4.33423,37.01101],[-4.33428,37.01164],[-4.33477,37.01255],[-4.33479,37.01356],[-4.33532,37.01456],[-4.33539,37.015],[-4.33575,37.01548],[-4.3357,37.01635],[-4.3351,37.0174],[-4.3351,37.0178],[-4.33569,37.01871],[-4.33677,37.01959],[-4.33712,37.02079],[-4.33713,37.02145],[-4.33689,37.02203],[-4.33645,37.02248],[-4.33637,37.02325],[-4.33644,37.0236],[-4.33275,37.02457],[-4.33373,37.02811],[-4.33302,37.02811],[-4.33199,37.02849],[-4.33214,37.02895],[-4.33212,37.02988],[-4.33184,37.03012],[-4.33181,37.03051],[-4.3322,37.03069],[-4.33153,37.03176],[-4.33151,37.03207],[-4.33112,37.03249],[-4.33058,37.03357],[-4.33098,37.03379],[-4.3316,37.03386],[-4.33177,37.03327],[-4.33175,37.03296],[-4.33255,37.03326],[-4.33274,37.03342],[-4.33322,37.03354],[-4.33399,37.03403],[-4.33418,37.03335],[-4.33413,37.03316],[-4.33472,37.03251],[-4.33487,37.03198],[-4.3344,37.03101],[-4.33667,37.03079],[-4.33701,37.03069],[-4.33713,37.03053],[-4.3371,37.03043],[-4.33698,37.03042],[-4.33818,37.03031],[-4.33842,37.03018],[-4.33832,37.02996],[-4.33871,37.02974],[-4.33939,37.02974],[-4.33993,37.0295]]]}},{"type":"Feature","properties":{"id":"2909701004"},"geometry":{"type":"Polygon","coordinates":[[[-4.34068,37.02593],[-4.3406,37.0262],[-4.34071,37.02657],[-4.34049,37.02669],[-4.34046,37.02694],[-4.34062,37.02726],[-4.3402,37.02768],[-4.34034,37.02831],[-4.34019,37.0284],[-4.34024,37.02937],[-4.34002,37.02958],[-4.33993,37.0295],[-4.33939,37.02974],[-4.33887,37.02969],[-4.33832,37.02996],[-4.33805,37.02999],[-4.33817,37.02975],[-4.33802,37.02984],[-4.33735,37.02991],[-4.33747,37.02935],[-4.33733,37.02929],[-4.33732,37.02917],[-4.33768,37.02902],[-4.33802,37.02771],[-4.33759,37.02719],[-4.33943,37.02626],[-4.34068,37.02593]]]}},{"type":"Feature","properties":{"id":"2909701005"},"geometry":{"type":"Polygon","coordinates":[[[-4.34068,37.02593],[-4.33943,37.02626],[-4.3376,37.02718],[-4.3355,37.02803],[-4.33459,37.02822],[-4.33373,37.02811],[-4.33275,37.02457],[-4.33644,37.0236],[-4.33641,37.02262],[-4.337,37.02183],[-4.33715,37.02109],[-4.33677,37.01959],[-4.33569,37.01871],[-4.3351,37.0178],[-4.3351,37.0174],[-4.3357,37.01635],[-4.33575,37.01548],[-4.33539,37.015],[-4.33532,37.01456],[-4.33479,37.01356],[-4.33477,37.01255],[-4.33428,37.01164],[-4.33423,37.01101],[-4.33434,37.01072],[-4.33352,37.01004],[-4.33671,37.01189],[-4.3395,37.01437],[-4.34073,37.01579],[-4.34166,37.01633],[-4.34442,37.01852],[-4.34486,37.01928],[-4.34888,37.02052],[-4.35082,37.02138],[-4.34857,37.02231],[-4.34853,37.02314],[-4.34841,37.02332],[-4.3482,37.02341],[-4.34739,37.02329],[-4.34652,37.02263],[-4.34562,37.02264],[-4.34533,37.02295],[-4.34486,37.02326],[-4.34461,37.02378],[-4.34434,37.02382],[-4.3426,37.02323],[-4.34248,37.02331],[-4.34216,37.02423],[-4.34166,37.02464],[-4.34162,37.02589],[-4.34145,37.02599],[-4.34068,37.02593]]]}}]}