{"type":"FeatureCollection","features":[{"type":"Feature","properties":{"id":"3000201001"},"geometry":{"type":"Polygon","coordinates":[[[-1.39891,38.20186],[-1.39816,38.19944],[-1.39891,38.19925],[-1.39963,38.19918],[-1.40091,38.19947],[-1.40252,38.2005],[-1.40268,38.19949],[-1.4036,38.2],[-1.40451,38.20071],[-1.40494,38.20165],[-1.40499,38.20242],[-1.40489,38.20253],[-1.40435,38.20245],[-1.40386,38.20193],[-1.40351,38.20204],[-1.4036,38.20226],[-1.40313,38.20241],[-1.40317,38.2025],[-1.40211,38.20284],[-1.40191,38.20324],[-1.40163,38.20331],[-1.40162,38.20309],[-1.40181,38.20287],[-1.40179,38.20258],[-1.40155,38.20215],[-1.40131,38.20213],[-1.40066,38.20162],[-1.40036,38.2015],[-1.39968,38.20153],[-1.39891,38.20186]]]}},{"type":"Feature","properties":{"id":"3000201002"},"geometry":{"type":"Polygon","coordinates":[[[-1.39622,38.20698],[-1.39626,38.20659],[-1.40009,38.20654],[-1.40016,38.20561],[-1.39972,38.20547],[-1.40109,38.20557],[-1.40095,38.2051],[-1.40148,38.20502],[-1.40119,38.20466],[-1.40114,38.20444],[-1.40127,38.20421],[-1.40103,38.20342],[-1.40191,38.20324],[-1.40211,38.20284],[-1.40317,38.2025],[-1.40313,38.20241],[-1.4036,38.20226],[-1.40412,38.20362],[-1.40407,38.20506],[-1.40384,38.20555],[-1.40314,38.20631],[-1.40342,38.20647],[-1.40294,38.20732],[-1.40308,38.20821],[-1.40215,38.20762],[-1.40164,38.20764],[-1.40007,38.20717],[-1.3985,38.20707],[-1.3966,38.20707],[-1.39622,38.20698]]]}},{"type":"Feature","properties":{"id":"3000201003"},"geometry":{"type":"Polygon","coordinates":[[[-1.39684,38.20563],[-1.39695,38.20535],[-1.39718,38.20531],[-1.39722,38.20516],[-1.39953,38.20463],[-1.39943,38.20429],[-1.39957,38.20426],[-1.39949,38.20403],[-1.39937,38.20404],[-1.39948,38.20401],[-1.39933,38.20354],[-1.39969,38.20344],[-1.3999,38.20348],[-1.39977,38.20304],[-1.40025,38.20296],[-1.40043,38.20352],[-1.40103,38.20342],[-1.40127,38.20421],[-1.40114,38.20444],[-1.40119,38.20466],[-1.40148,38.20502],[-1.40095,38.2051],[-1.40109,38.20557],[-1.39967,38.20547],[-1.3978,38.20563],[-1.39684,38.20563]]]}},{"type":"Feature","properties":{"id":"3000201004"},"geometry":{"type":"Polygon","coordinates":[[[-1.39397,38.20397],[-1.39666,38.20065],[-1.39751,38.19983],[-1.39811,38.19946],[-1.3982,38.19952],[-1.39891,38.20183],[-1.39872,38.20192],[-1.39879,38.20242],[-1.39898,38.20239],[-1.39913,38.20299],[-1.39943,38.20313],[-1.39969,38.20344],[-1.39933,38.20354],[-1.39948,38.20401],[-1.39711,38.20424],[-1.39539,38.20422],[-1.39529,38.20483],[-1.39495,38.20466],[-1.39474,38.20467],[-1.39456,38.20427],[-1.39466,38.20413],[-1.39432,38.20407],[-1.39428,38.20392],[-1.39397,38.20397]]]}},{"type":"Feature","properties":{"id":"3000201005"},"geometry":{"type":"Polygon","coordinates":[[[-1.39529,38.20483],[-1.39539,38.20422],[-1.39711,38.20424],[-1.39949,38.20403],[-1.39957,38.20426],[-1.39943,38.20429],[-1.39953,38.20463],[-1.39733,38.20512],[-1.39718,38.20531],[-1.39695,38.20535],[-1.39557,38.20522],[-1.39529,38.20483]]]}},{"type":"Feature","properties":{"id":"3000201006"},"geometry":{"type":"Polygon","coordinates":[[[-1.388,38.20776],[-1.38927,38.20837],[-1.39176,38.20865],[-1.39324,38.20842],[-1.39453,38.20782],[-1.3946,38.20761],[-1.39449,38.20749],[-1.39454,38.20718],[-1.39532,38.20705],[-1.3959,38.20711],[-1.39622,38.20698],[-1.3966,38.20707],[-1.39979,38.20714],[-1.40108,38.20742],[-1.40164,38.20764],[-1.40215,38.20762],[-1.40312,38.20823],[-1.40253,38.20888],[-1.40232,38.20941],[-1.40369,38.21012],[-1.40579,38.21162],[-1.40707,38.21227],[-1.40771,38.21381],[-1.40848,38.21464],[-1.40833,38.21484],[-1.40706,38.21533],[-1.40596,38.21623],[-1.4048,38.21692],[-1.40386,38.21691],[-1.40125,38.21605],[-1.40025,38.21581],[-1.39964,38.21572],[-1.39888,38.21583],[-1.39836,38.21617],[-1.39792,38.21673],[-1.39727,38.21832],[-1.3973,38.21854],[-1.39711,38.21874],[-1.39567,38.21915],[-1.39439,38.21932],[-1.39423,38.21893],[-1.39452,38.21865],[-1.39519,38.2184],[-1.39544,38.21814],[-1.39587,38.21731],[-1.39584,38.21708],[-1.39483,38.21626],[-1.39407,38.21618],[-1.39315,38.2165],[-1.3931,38.21641],[-1.39355,38.21561],[-1.39352,38.21551],[-1.39266,38.21608],[-1.39208,38.21617],[-1.39166,38.21553],[-1.39102,38.21529],[-1.39059,38.21523],[-1.3905,38.21514],[-1.3912,38.21446],[-1.39249,38.21265],[-1.3927,38.21187],[-1.39271,38.21128],[-1.3932,38.21072],[-1.39329,38.20946],[-1.39319,38.20935],[-1.39277,38.20924],[-1.39237,38.20936],[-1.39149,38.20927],[-1.39081,38.20933],[-1.38985,38.20989],[-1.38925,38.20925],[-1.3887,38.20917],[-1.38826,38.20937],[-1.38802,38.20935],[-1.38775,38.20864],[-1.38779,38.20796],[-1.388,38.20776]]]}},{"type":"Feature","properties":{"id":"3000201007"},"geometry":{"type":"Polygon","coordinates":[[[-1.41131,38.21379],[-1.40832,38.2133],[-1.40804,38.21341],[-1.40817,38.21422],[-1.40771,38.21381],[-1.40707,38.21227],[-1.40579,38.21162],[-1.40369,38.21012],[-1.40232,38.20941],[-1.40253,38.20888],[-1.40312,38.20823],[-1.40294,38.20732],[-1.40342,38.20647],[-1.40314,38.20631],[-1.40384,38.20555],[-1.40407,38.20512],[-1.40412,38.20362],[-1.40351,38.20204],[-1.40386,38.20193],[-1.40435,38.20245],[-1.40489,38.20253],[-1.40499,38.20242],[-1.40494,38.20165],[-1.40451,38.20071],[-1.40363,38.20002],[-1.40268,38.19949],[-1.40252,38.2005],[-1.40104,38.19953],[-1.40048,38.19934],[-1.39946,38.19917],[-1.39835,38.19937],[-1.39816,38.19944],[-1.3982,38.19952],[-1.39806,38.19949],[-1.39746,38.19987],[-1.39666,38.20065],[-1.39397,38.20397],[-1.39367,38.20395],[-1.39351,38.20354],[-1.39194,38.20269],[-1.39063,38.20249],[-1.38847,38.20168],[-1.38581,38.20023],[-1.3868,38.19995],[-1.38597,38.19907],[-1.38531,38.19815],[-1.38499,38.19707],[-1.38421,38.19582],[-1.38473,38.19569],[-1.38498,38.19546],[-1.38593,38.195],[-1.38645,38.19484],[-1.38665,38.19488],[-1.38769,38.19466],[-1.38782,38.19445],[-1.38748,38.19435],[-1.38826,38.19328],[-1.39021,38.19098],[-1.3902,38.19057],[-1.39071,38.1903],[-1.3908,38.18997],[-1.39092,38.18995],[-1.39216,38.18788],[-1.39967,38.18934],[-1.40434,38.1791],[-1.40241,38.18011],[-1.40191,38.18038],[-1.40164,38.18043],[-1.39987,38.18076],[-1.39852,38.18102],[-1.39779,38.18115],[-1.39573,38.18136],[-1.39192,38.18238],[-1.39573,38.18136],[-1.39779,38.18115],[-1.39852,38.18102],[-1.39987,38.18076],[-1.40191,38.18038],[-1.40434,38.1791],[-1.40486,38.17874],[-1.40753,38.1774],[-1.40801,38.17707],[-1.41056,38.17676],[-1.41417,38.17539],[-1.41633,38.17394],[-1.41929,38.17284],[-1.42125,38.17223],[-1.42442,38.1716],[-1.42702,38.17079],[-1.42804,38.17057],[-1.4297,38.17103],[-1.43362,38.17055],[-1.43545,38.17071],[-1.43877,38.17041],[-1.44113,38.17129],[-1.44351,38.17111],[-1.4461,38.17165],[-1.44661,38.17156],[-1.44776,38.17175],[-1.44874,38.17231],[-1.44933,38.17252],[-1.45099,38.1722],[-1.45097,38.17308],[-1.45106,38.17328],[-1.454,38.17463],[-1.45509,38.17538],[-1.45643,38.17611],[-1.45794,38.17707],[-1.46008,38.17858],[-1.46037,38.17891],[-1.46168,38.1795],[-1.46437,38.18102],[-1.46583,38.18248],[-1.46632,38.18303],[-1.46606,38.18753],[-1.46619,38.18948],[-1.46654,38.19116],[-1.46667,38.19322],[-1.46657,38.19372],[-1.46671,38.1944],[-1.46635,38.19437],[-1.46609,38.19451],[-1.4658,38.19487],[-1.46533,38.19501],[-1.46454,38.19506],[-1.46429,38.19488],[-1.46382,38.1951],[-1.46278,38.19523],[-1.46153,38.19578],[-1.46096,38.19589],[-1.4597,38.19579],[-1.45787,38.19545],[-1.45726,38.19547],[-1.45676,38.19531],[-1.45409,38.19864],[-1.45362,38.19872],[-1.45312,38.19893],[-1.45163,38.19972],[-1.44972,38.20159],[-1.44728,38.20213],[-1.44514,38.20281],[-1.44457,38.20292],[-1.44405,38.2032],[-1.44208,38.20477],[-1.44071,38.20606],[-1.43853,38.20882],[-1.43681,38.21152],[-1.43289,38.2129],[-1.431,38.21355],[-1.42935,38.21336],[-1.42895,38.21338],[-1.42623,38.21258],[-1.42315,38.21234],[-1.41688,38.21239],[-1.41491,38.21376],[-1.41245,38.21438],[-1.41131,38.21379]]]}},{"type":"Feature","properties":{"id":"3000201008"},"geometry":{"type":"Polygon","coordinates":[[[-1.33694,38.2232],[-1.35115,38.20359],[-1.37067,38.19566],[-1.37218,38.19559],[-1.37388,38.19567],[-1.37615,38.19691],[-1.38235,38.20083],[-1.38597,38.20085],[-1.38572,38.20054],[-1.38581,38.20023],[-1.38847,38.20168],[-1.39063,38.20249],[-1.39194,38.20269],[-1.39351,38.20354],[-1.39367,38.20395],[-1.39397,38.20397],[-1.39335,38.20463],[-1.38817,38.20784],[-1.388,38.20776],[-1.38779,38.20796],[-1.38775,38.20864],[-1.38802,38.20935],[-1.38826,38.20937],[-1.3887,38.20917],[-1.38925,38.20925],[-1.38985,38.20989],[-1.39081,38.20933],[-1.39149,38.20927],[-1.39237,38.20936],[-1.39277,38.20924],[-1.39319,38.20935],[-1.39331,38.20964],[-1.3932,38.21072],[-1.39271,38.21128],[-1.3927,38.21187],[-1.39249,38.21265],[-1.3912,38.21446],[-1.3905,38.21514],[-1.39059,38.21523],[-1.39102,38.21529],[-1.39166,38.21553],[-1.39208,38.21617],[-1.39266,38.21608],[-1.39352,38.21551],[-1.39355,38.21561],[-1.3931,38.21641],[-1.39315,38.2165],[-1.39407,38.21618],[-1.39483,38.21626],[-1.39584,38.21708],[-1.39587,38.21731],[-1.39556,38.218],[-1.39534,38.21825],[-1.39519,38.2184],[-1.39452,38.21865],[-1.39423,38.21893],[-1.39439,38.21932],[-1.39365,38.21955],[-1.39215,38.22072],[-1.39149,38.22102],[-1.39092,38.22082],[-1.39046,38.22078],[-1.38784,38.22163],[-1.38755,38.22197],[-1.38764,38.22271],[-1.38738,38.22279],[-1.3868,38.22278],[-1.38448,38.22226],[-1.3839,38.22225],[-1.38255,38.22195],[-1.38146,38.22189],[-1.37934,38.22204],[-1.37666,38.22254],[-1.37449,38.22259],[-1.37399,38.22267],[-1.37199,38.22347],[-1.37054,38.22427],[-1.3684,38.22479],[-1.36643,38.22456],[-1.36577,38.2248],[-1.36543,38.22527],[-1.36204,38.22385],[-1.35767,38.22182],[-1.35659,38.22147],[-1.3539,38.21952],[-1.35306,38.21873],[-1.35275,38.21799],[-1.35217,38.21732],[-1.3508,38.21776],[-1.35019,38.21815],[-1.34998,38.21865],[-1.34968,38.219],[-1.3492,38.21931],[-1.34895,38.21969],[-1.34911,38.22266],[-1.34947,38.2238],[-1.34941,38.22477],[-1.34824,38.22485],[-1.34792,38.22503],[-1.34759,38.22504],[-1.34699,38.2253],[-1.34622,38.22508],[-1.34506,38.22518],[-1.34451,38.22499],[-1.34412,38.22502],[-1.34388,38.22485],[-1.3432,38.2248],[-1.34269,38.2246],[-1.34108,38.2242],[-1.34054,38.22424],[-1.33975,38.22472],[-1.33889,38.22464],[-1.33848,38.22475],[-1.33817,38.22464],[-1.33752,38.22365],[-1.33694,38.2232]]]}},{"type":"Feature","properties":{"id":"3000201009"},"geometry":{"type":"Polygon","coordinates":[[[-1.39684,38.20563],[-1.3978,38.20563],[-1.39967,38.20547],[-1.40014,38.20557],[-1.40009,38.20654],[-1.39626,38.20659],[-1.39684,38.20563]]]}},{"type":"Feature","properties":{"id":"3000201010"},"geometry":{"type":"Polygon","coordinates":[[[-1.19809,38.28787],[-1.20303,38.28317],[-1.2099,38.27799],[-1.21313,38.27168],[-1.22579,38.27031],[-1.22661,38.26971],[-1.22761,38.26859],[-1.22876,38.26574],[-1.22884,38.26527],[-1.22943,38.26437],[-1.22977,38.26408],[-1.22979,38.26262],[-1.23242,38.26112],[-1.23328,38.26035],[-1.23489,38.26134],[-1.23661,38.2613],[-1.2381,38.25979],[-1.23944,38.25778],[-1.24201,38.25468],[-1.26028,38.25192],[-1.27867,38.25246],[-1.28321,38.25249],[-1.28761,38.25326],[-1.2927,38.25203],[-1.29523,38.25205],[-1.29589,38.25153],[-1.29737,38.25146],[-1.29824,38.25093],[-1.29966,38.25079],[-1.30119,38.25093],[-1.30162,38.25111],[-1.3249,38.23512],[-1.33606,38.22442],[-1.33694,38.2232],[-1.33752,38.22365],[-1.33817,38.22464],[-1.33848,38.22475],[-1.33889,38.22464],[-1.33975,38.22472],[-1.34054,38.22424],[-1.34108,38.2242],[-1.34269,38.2246],[-1.3432,38.2248],[-1.34388,38.22485],[-1.34412,38.22502],[-1.34451,38.22499],[-1.34506,38.22518],[-1.34622,38.22508],[-1.34699,38.2253],[-1.34759,38.22504],[-1.34792,38.22503],[-1.34824,38.22485],[-1.34941,38.22477],[-1.34947,38.2238],[-1.34911,38.22266],[-1.34895,38.21969],[-1.3492,38.21931],[-1.34968,38.219],[-1.34998,38.21865],[-1.35019,38.21815],[-1.3508,38.21776],[-1.35217,38.21732],[-1.35275,38.21799],[-1.35306,38.21873],[-1.3539,38.21952],[-1.35659,38.22147],[-1.35767,38.22182],[-1.36204,38.22385],[-1.36543,38.22527],[-1.36506,38.2261],[-1.36533,38.22872],[-1.36485,38.22925],[-1.36476,38.22971],[-1.36494,38.22994],[-1.3653,38.23002],[-1.36631,38.22976],[-1.3664,38.23055],[-1.36613,38.23118],[-1.36616,38.23132],[-1.36712,38.23199],[-1.36686,38.23252],[-1.36591,38.233],[-1.36259,38.23323],[-1.36215,38.23331],[-1.36128,38.23373],[-1.36095,38.23409],[-1.3603,38.23541],[-1.35997,38.23727],[-1.35925,38.23896],[-1.35913,38.23967],[-1.35869,38.24015],[-1.35834,38.24131],[-1.35804,38.24182],[-1.35742,38.24221],[-1.35741,38.24258],[-1.35773,38.24293],[-1.3578,38.24318],[-1.35772,38.2435],[-1.35746,38.24372],[-1.35458,38.24521],[-1.35165,38.24643],[-1.34828,38.24909],[-1.34715,38.25007],[-1.34451,38.25321],[-1.34256,38.25506],[-1.34194,38.25624],[-1.34006,38.2587],[-1.33929,38.26017],[-1.33905,38.261],[-1.33921,38.2619],[-1.33954,38.26235],[-1.34129,38.26399],[-1.34193,38.26444],[-1.34203,38.26478],[-1.34169,38.26524],[-1.34023,38.26581],[-1.33979,38.26611],[-1.33917,38.26696],[-1.33908,38.26963],[-1.33921,38.27004],[-1.34063,38.27205],[-1.3415,38.27388],[-1.34162,38.27475],[-1.34154,38.2757],[-1.34196,38.27628],[-1.34192,38.27669],[-1.34163,38.27742],[-1.34094,38.27845],[-1.34026,38.27916],[-1.33844,38.27968],[-1.33774,38.27969],[-1.33756,38.2799],[-1.33789,38.28185],[-1.33833,38.28242],[-1.33827,38.28259],[-1.33791,38.28283],[-1.3372,38.28296],[-1.33603,38.28297],[-1.33534,38.28281],[-1.33488,38.28285],[-1.33302,38.2837],[-1.33124,38.28505],[-1.33053,38.28584],[-1.32918,38.28815],[-1.32892,38.28888],[-1.32819,38.28992],[-1.32765,38.29049],[-1.32741,38.29114],[-1.32602,38.29231],[-1.3255,38.29263],[-1.32239,38.29399],[-1.32165,38.29444],[-1.32132,38.29477],[-1.32111,38.29543],[-1.3213,38.29593],[-1.32176,38.29668],[-1.32197,38.29794],[-1.32145,38.30173],[-1.32055,38.30405],[-1.32034,38.30513],[-1.32044,38.3058],[-1.32069,38.30624],[-1.32104,38.30783],[-1.32104,38.30864],[-1.32076,38.31043],[-1.32001,38.31179],[-1.31911,38.31277],[-1.31888,38.31345],[-1.31832,38.31306],[-1.31781,38.31297],[-1.3166,38.31254],[-1.31505,38.31223],[-1.314,38.31215],[-1.31208,38.31217],[-1.31022,38.31256],[-1.30919,38.31296],[-1.3084,38.31366],[-1.30764,38.31457],[-1.30733,38.31476],[-1.30598,38.31522],[-1.30396,38.31559],[-1.30232,38.31573],[-1.30103,38.31574],[-1.30042,38.31586],[-1.29996,38.31581],[-1.29946,38.31562],[-1.2987,38.31494],[-1.29814,38.31423],[-1.29778,38.31409],[-1.29657,38.31413],[-1.29573,38.31431],[-1.29434,38.31498],[-1.28916,38.3184],[-1.28765,38.31888],[-1.28522,38.3193],[-1.28303,38.31951],[-1.28072,38.31926],[-1.27795,38.31856],[-1.27774,38.31848],[-1.2777,38.31788],[-1.27743,38.31764],[-1.27605,38.31724],[-1.27404,38.31691],[-1.27193,38.31641],[-1.26971,38.31622],[-1.26826,38.31626],[-1.26687,38.31645],[-1.26526,38.31634],[-1.26335,38.31648],[-1.26249,38.31631],[-1.2611,38.31654],[-1.2597,38.31689],[-1.25893,38.31727],[-1.25735,38.31779],[-1.25674,38.31815],[-1.25614,38.31874],[-1.25566,38.31897],[-1.25427,38.31925],[-1.25228,38.32006],[-1.24502,38.31526],[-1.24343,38.31375],[-1.24267,38.31263],[-1.24068,38.3108],[-1.23878,38.30964],[-1.23649,38.3075],[-1.23506,38.30703],[-1.23435,38.30708],[-1.23058,38.30671],[-1.22749,38.30561],[-1.22487,38.30534],[-1.21931,38.30526],[-1.2177,38.30463],[-1.21767,38.30396],[-1.21751,38.30351],[-1.21707,38.30305],[-1.21653,38.30275],[-1.21616,38.30212],[-1.21557,38.30189],[-1.21252,38.30155],[-1.21193,38.30165],[-1.21126,38.30156],[-1.21007,38.30135],[-1.20869,38.3009],[-1.20851,38.30062],[-1.20847,38.30027],[-1.20934,38.29876],[-1.20205,38.29273],[-1.19985,38.29107],[-1.1975,38.29005],[-1.19729,38.28939],[-1.19809,38.28787]]]}},{"type":"Feature","properties":{"id":"3000201011"},"geometry":{"type":"Polygon","coordinates":[[[-1.39969,38.20344],[-1.39943,38.20313],[-1.39913,38.20299],[-1.39898,38.20239],[-1.39879,38.20242],[-1.39872,38.20192],[-1.39937,38.2016],[-1.40036,38.2015],[-1.40066,38.20162],[-1.40131,38.20213],[-1.40155,38.20215],[-1.40179,38.20258],[-1.40181,38.20287],[-1.40162,38.20309],[-1.40163,38.20331],[-1.40148,38.20335],[-1.40043,38.20352],[-1.40025,38.20296],[-1.39977,38.20304],[-1.3999,38.20348],[-1.39969,38.20344]]]}},{"type":"Feature","properties":{"id":"3000201012"},"geometry":{"type":"Polygon","coordinates":[[[-1.38817,38.20784],[-1.39335,38.20463],[-1.39397,38.20397],[-1.39428,38.20392],[-1.39432,38.20407],[-1.39466,38.20413],[-1.39456,38.20427],[-1.39474,38.20467],[-1.39495,38.20466],[-1.39529,38.20483],[-1.39557,38.20522],[-1.39695,38.20535],[-1.39626,38.20659],[-1.3962,38.207],[-1.3959,38.20711],[-1.39532,38.20705],[-1.39459,38.20715],[-1.39448,38.20728],[-1.3946,38.20761],[-1.39453,38.20782],[-1.3931,38.20846],[-1.39176,38.20865],[-1.38968,38.20846],[-1.38927,38.20837],[-1.38817,38.20784]]]}}]}