{"type":"FeatureCollection","features":[{"type":"Feature","properties":{"id":"3001901001"},"geometry":{"type":"Polygon","coordinates":[[[-1.4266,38.23678],[-1.42626,38.23621],[-1.42734,38.23585],[-1.42722,38.23571],[-1.42802,38.23533],[-1.42794,38.235],[-1.42838,38.23446],[-1.42872,38.23458],[-1.42924,38.23495],[-1.42991,38.23576],[-1.42931,38.23602],[-1.4293,38.23617],[-1.4266,38.23678]]]}},{"type":"Feature","properties":{"id":"3001901002"},"geometry":{"type":"Polygon","coordinates":[[[-1.42527,38.23672],[-1.42482,38.23582],[-1.42379,38.2361],[-1.42268,38.23608],[-1.42235,38.23394],[-1.4223,38.23295],[-1.42538,38.2333],[-1.42577,38.23326],[-1.4278,38.23264],[-1.42869,38.23264],[-1.42822,38.2344],[-1.42838,38.23446],[-1.42794,38.235],[-1.42802,38.23533],[-1.42722,38.23571],[-1.42734,38.23585],[-1.42626,38.23621],[-1.42638,38.23646],[-1.42613,38.23654],[-1.42527,38.23672]]]}},{"type":"Feature","properties":{"id":"3001901003"},"geometry":{"type":"Polygon","coordinates":[[[-1.42515,38.23865],[-1.42435,38.23811],[-1.42336,38.23705],[-1.42307,38.23691],[-1.42312,38.23664],[-1.42335,38.23652],[-1.42414,38.23645],[-1.42507,38.23621],[-1.42527,38.23672],[-1.42642,38.23647],[-1.42713,38.23773],[-1.42515,38.23865]]]}},{"type":"Feature","properties":{"id":"3001901004"},"geometry":{"type":"Polygon","coordinates":[[[-1.42487,38.23903],[-1.42515,38.23865],[-1.42743,38.23758],[-1.42806,38.23849],[-1.42795,38.23887],[-1.42803,38.23967],[-1.42653,38.23917],[-1.42643,38.2397],[-1.42565,38.23965],[-1.42487,38.23903]]]}},{"type":"Feature","properties":{"id":"3001901005"},"geometry":{"type":"Polygon","coordinates":[[[-1.41942,38.23689],[-1.41949,38.23483],[-1.41939,38.23467],[-1.418,38.23392],[-1.41683,38.23363],[-1.41611,38.23322],[-1.41809,38.23284],[-1.41926,38.23205],[-1.41965,38.23205],[-1.42057,38.23226],[-1.4223,38.23295],[-1.42235,38.23394],[-1.42268,38.23608],[-1.42379,38.2361],[-1.42482,38.23582],[-1.42507,38.23621],[-1.42414,38.23645],[-1.42335,38.23652],[-1.42304,38.2367],[-1.42307,38.23691],[-1.41942,38.23689]]]}},{"type":"Feature","properties":{"id":"3001901006"},"geometry":{"type":"Polygon","coordinates":[[[-1.42387,38.24055],[-1.42162,38.2378],[-1.42293,38.23721],[-1.42311,38.23701],[-1.42307,38.23691],[-1.42336,38.23705],[-1.42435,38.23811],[-1.42515,38.23865],[-1.42487,38.23903],[-1.42424,38.23949],[-1.42417,38.24046],[-1.42387,38.24055]]]}},{"type":"Feature","properties":{"id":"3001901007"},"geometry":{"type":"Polygon","coordinates":[[[-1.42443,38.24278],[-1.42513,38.24091],[-1.42633,38.24154],[-1.42653,38.23917],[-1.42803,38.23967],[-1.4282,38.24045],[-1.42845,38.24087],[-1.42883,38.24132],[-1.42953,38.24188],[-1.42727,38.2426],[-1.42534,38.24298],[-1.42443,38.24278]]]}},{"type":"Feature","properties":{"id":"3001901008"},"geometry":{"type":"Polygon","coordinates":[[[-1.41713,38.23371],[-1.418,38.23392],[-1.41939,38.23467],[-1.41949,38.23483],[-1.41946,38.23548],[-1.41707,38.23547],[-1.41708,38.23479],[-1.41676,38.23479],[-1.41668,38.23471],[-1.41713,38.23371]]]}},{"type":"Feature","properties":{"id":"3001901009"},"geometry":{"type":"Polygon","coordinates":[[[-1.41779,38.23547],[-1.41946,38.23548],[-1.41942,38.23689],[-1.41778,38.23688],[-1.41779,38.23547]]]}},{"type":"Feature","properties":{"id":"3001901010"},"geometry":{"type":"Polygon","coordinates":[[[-1.41992,38.23835],[-1.41982,38.23689],[-1.42307,38.23691],[-1.42311,38.23701],[-1.42293,38.23721],[-1.42162,38.2378],[-1.42226,38.23858],[-1.42094,38.23923],[-1.4203,38.23843],[-1.41992,38.23835]]]}},{"type":"Feature","properties":{"id":"3001901011"},"geometry":{"type":"Polygon","coordinates":[[[-1.4159,38.23687],[-1.41982,38.23689],[-1.41981,38.23759],[-1.41773,38.23773],[-1.41772,38.2378],[-1.41698,38.23817],[-1.4159,38.23687]]]}},{"type":"Feature","properties":{"id":"3001901012"},"geometry":{"type":"Polygon","coordinates":[[[-1.42094,38.23923],[-1.42226,38.23858],[-1.42387,38.24055],[-1.42253,38.24119],[-1.42094,38.23923]]]}},{"type":"Feature","properties":{"id":"3001901013"},"geometry":{"type":"Polygon","coordinates":[[[-1.42115,38.24199],[-1.41878,38.2391],[-1.4195,38.23875],[-1.41933,38.23854],[-1.41992,38.23835],[-1.4203,38.23843],[-1.42253,38.24119],[-1.42417,38.24046],[-1.42414,38.24129],[-1.42383,38.24185],[-1.42363,38.24197],[-1.42282,38.24217],[-1.4224,38.24247],[-1.42227,38.24264],[-1.42224,38.24311],[-1.42115,38.24199]]]}},{"type":"Feature","properties":{"id":"3001901014"},"geometry":{"type":"Polygon","coordinates":[[[-1.40509,38.23544],[-1.40556,38.23423],[-1.40602,38.23219],[-1.40667,38.23135],[-1.4084,38.23052],[-1.40973,38.2303],[-1.41049,38.23008],[-1.41134,38.23058],[-1.41247,38.23207],[-1.41257,38.23254],[-1.41409,38.23408],[-1.41269,38.2341],[-1.4128,38.23533],[-1.40935,38.23553],[-1.40509,38.23544]]]}},{"type":"Feature","properties":{"id":"3001901015"},"geometry":{"type":"Polygon","coordinates":[[[-1.41669,38.24029],[-1.41555,38.23889],[-1.41698,38.23817],[-1.41813,38.23955],[-1.41669,38.24029]]]}},{"type":"Feature","properties":{"id":"3001901016"},"geometry":{"type":"Polygon","coordinates":[[[-1.4186,38.24133],[-1.41745,38.23989],[-1.41886,38.23919],[-1.42055,38.24129],[-1.41983,38.24164],[-1.41928,38.24099],[-1.4186,38.24133]]]}},{"type":"Feature","properties":{"id":"3001901017"},"geometry":{"type":"Polygon","coordinates":[[[-1.4199,38.24422],[-1.41785,38.2417],[-1.41928,38.24099],[-1.41983,38.24164],[-1.42055,38.24129],[-1.42115,38.24199],[-1.4208,38.24293],[-1.41992,38.24375],[-1.4199,38.24422]]]}},{"type":"Feature","properties":{"id":"3001901018"},"geometry":{"type":"Polygon","coordinates":[[[-1.41603,38.23596],[-1.41603,38.23687],[-1.41431,38.23686],[-1.41422,38.23545],[-1.41554,38.23546],[-1.41603,38.23596]]]}},{"type":"Feature","properties":{"id":"3001901019"},"geometry":{"type":"Polygon","coordinates":[[[-1.41186,38.2399],[-1.41369,38.23886],[-1.41502,38.23825],[-1.41608,38.23954],[-1.41499,38.24007],[-1.41443,38.23939],[-1.41426,38.23948],[-1.414,38.23985],[-1.41246,38.24065],[-1.41186,38.2399]]]}},{"type":"Feature","properties":{"id":"3001901020"},"geometry":{"type":"Polygon","coordinates":[[[-1.41036,38.24378],[-1.41142,38.24287],[-1.41187,38.24262],[-1.41273,38.24227],[-1.41745,38.23989],[-1.4186,38.24133],[-1.41785,38.2417],[-1.41851,38.24249],[-1.41761,38.24452],[-1.41639,38.24432],[-1.41512,38.24429],[-1.41394,38.2444],[-1.41172,38.24488],[-1.41036,38.24378]]]}},{"type":"Feature","properties":{"id":"3001901021"},"geometry":{"type":"Polygon","coordinates":[[[-1.41761,38.24452],[-1.41851,38.24249],[-1.4199,38.24422],[-1.41992,38.24375],[-1.4208,38.24293],[-1.42115,38.24199],[-1.42272,38.24354],[-1.42368,38.24498],[-1.42575,38.2467],[-1.42758,38.25026],[-1.42772,38.25073],[-1.42761,38.25104],[-1.42749,38.25111],[-1.42566,38.24947],[-1.41997,38.24553],[-1.41875,38.24487],[-1.41761,38.24452]]]}},{"type":"Feature","properties":{"id":"3001901022"},"geometry":{"type":"Polygon","coordinates":[[[-1.40994,38.23699],[-1.41086,38.23686],[-1.41385,38.23686],[-1.41502,38.23825],[-1.41369,38.23886],[-1.41186,38.2399],[-1.41082,38.23874],[-1.41019,38.23786],[-1.41003,38.23756],[-1.40994,38.23699]]]}},{"type":"Feature","properties":{"id":"3001901023"},"geometry":{"type":"Polygon","coordinates":[[[-1.42224,38.24311],[-1.42227,38.24264],[-1.42259,38.24236],[-1.42322,38.24266],[-1.42334,38.24253],[-1.42528,38.24298],[-1.42668,38.24268],[-1.42711,38.24466],[-1.42734,38.24512],[-1.42844,38.24638],[-1.42918,38.24706],[-1.42988,38.24751],[-1.42906,38.24793],[-1.42882,38.24823],[-1.42872,38.24873],[-1.42847,38.24905],[-1.4272,38.24949],[-1.42575,38.2467],[-1.42368,38.24498],[-1.42272,38.24354],[-1.42224,38.24311]]]}},{"type":"Feature","properties":{"id":"3001901024"},"geometry":{"type":"Polygon","coordinates":[[[-1.42713,38.23773],[-1.4266,38.23678],[-1.4293,38.23617],[-1.42931,38.23602],[-1.42991,38.23576],[-1.42924,38.23495],[-1.42872,38.23458],[-1.42822,38.2344],[-1.42869,38.23264],[-1.43,38.23317],[-1.43077,38.2337],[-1.43199,38.23491],[-1.43259,38.23565],[-1.43273,38.23602],[-1.43264,38.23625],[-1.43107,38.23729],[-1.42864,38.23794],[-1.42823,38.23824],[-1.42806,38.23849],[-1.42743,38.23758],[-1.42713,38.23773]]]}},{"type":"Feature","properties":{"id":"3001901025"},"geometry":{"type":"Polygon","coordinates":[[[-1.42259,38.24236],[-1.42282,38.24217],[-1.42363,38.24197],[-1.42383,38.24185],[-1.42414,38.24129],[-1.42417,38.24046],[-1.42513,38.24091],[-1.42443,38.24278],[-1.42334,38.24253],[-1.42322,38.24266],[-1.42259,38.24236]]]}},{"type":"Feature","properties":{"id":"3001901026"},"geometry":{"type":"Polygon","coordinates":[[[-1.41554,38.23546],[-1.41269,38.23268],[-1.41252,38.23242],[-1.4125,38.23216],[-1.41343,38.23268],[-1.41553,38.23318],[-1.41611,38.23322],[-1.41683,38.23363],[-1.41713,38.23371],[-1.41668,38.23471],[-1.41676,38.23479],[-1.41708,38.23479],[-1.41707,38.23547],[-1.41554,38.23546]]]}},{"type":"Feature","properties":{"id":"3001901027"},"geometry":{"type":"Polygon","coordinates":[[[-1.41554,38.23546],[-1.41779,38.23547],[-1.41778,38.23688],[-1.41603,38.23687],[-1.41603,38.23596],[-1.41554,38.23546]]]}},{"type":"Feature","properties":{"id":"3001901028"},"geometry":{"type":"Polygon","coordinates":[[[-1.41698,38.23817],[-1.41772,38.2378],[-1.41773,38.23773],[-1.41981,38.23759],[-1.41992,38.23835],[-1.41933,38.23854],[-1.4195,38.23875],[-1.41878,38.2391],[-1.41886,38.23919],[-1.41813,38.23955],[-1.41698,38.23817]]]}},{"type":"Feature","properties":{"id":"3001901029"},"geometry":{"type":"Polygon","coordinates":[[[-1.41285,38.23545],[-1.41269,38.2341],[-1.41409,38.23408],[-1.41554,38.23546],[-1.41285,38.23545]]]}},{"type":"Feature","properties":{"id":"3001901030"},"geometry":{"type":"Polygon","coordinates":[[[-1.41555,38.23889],[-1.41391,38.23688],[-1.41385,38.23686],[-1.4159,38.23687],[-1.41698,38.23817],[-1.41555,38.23889]]]}},{"type":"Feature","properties":{"id":"3001901031"},"geometry":{"type":"Polygon","coordinates":[[[-1.40462,38.2366],[-1.40509,38.23544],[-1.40935,38.23553],[-1.4128,38.23533],[-1.41285,38.23545],[-1.41422,38.23545],[-1.41431,38.23686],[-1.41043,38.2369],[-1.40891,38.23723],[-1.40698,38.23778],[-1.4066,38.23776],[-1.4062,38.23761],[-1.40462,38.2366]]]}},{"type":"Feature","properties":{"id":"3001901032"},"geometry":{"type":"Polygon","coordinates":[[[-1.40462,38.2366],[-1.4062,38.23761],[-1.4068,38.23779],[-1.40994,38.23699],[-1.41003,38.23756],[-1.41019,38.23786],[-1.41246,38.24065],[-1.414,38.23985],[-1.41426,38.23948],[-1.41443,38.23939],[-1.41499,38.24007],[-1.41608,38.23954],[-1.41669,38.24029],[-1.41273,38.24227],[-1.41187,38.24262],[-1.41142,38.24287],[-1.41036,38.24378],[-1.40635,38.24052],[-1.4049,38.23946],[-1.40241,38.23819],[-1.3995,38.23691],[-1.3995,38.23664],[-1.4007,38.23653],[-1.40336,38.23643],[-1.40462,38.2366]]]}},{"type":"Feature","properties":{"id":"3001901033"},"geometry":{"type":"Polygon","coordinates":[[[-1.42633,38.24154],[-1.42417,38.24046],[-1.42424,38.23949],[-1.42487,38.23903],[-1.42565,38.23965],[-1.42643,38.2397],[-1.42633,38.24154]]]}},{"type":"Feature","properties":{"id":"3001902001"},"geometry":{"type":"Polygon","coordinates":[[[-1.31888,38.31345],[-1.31911,38.31277],[-1.32001,38.31179],[-1.32076,38.31043],[-1.32104,38.30864],[-1.32104,38.30783],[-1.32069,38.30624],[-1.32044,38.3058],[-1.32034,38.30513],[-1.32055,38.30405],[-1.32145,38.30173],[-1.32197,38.29794],[-1.32176,38.29668],[-1.3213,38.29593],[-1.32111,38.29543],[-1.32132,38.29477],[-1.32165,38.29444],[-1.32239,38.29399],[-1.3255,38.29263],[-1.32602,38.29231],[-1.32741,38.29114],[-1.32765,38.29049],[-1.32819,38.28992],[-1.32892,38.28888],[-1.32918,38.28815],[-1.33053,38.28584],[-1.33124,38.28505],[-1.33302,38.2837],[-1.33488,38.28285],[-1.33534,38.28281],[-1.33603,38.28297],[-1.3372,38.28296],[-1.33791,38.28283],[-1.33827,38.28259],[-1.33833,38.28242],[-1.33789,38.28185],[-1.33756,38.2799],[-1.33774,38.27969],[-1.33844,38.27968],[-1.34026,38.27916],[-1.34094,38.27845],[-1.34163,38.27742],[-1.34192,38.27669],[-1.34196,38.27628],[-1.34154,38.2757],[-1.34162,38.27475],[-1.3415,38.27388],[-1.34063,38.27205],[-1.33921,38.27004],[-1.33908,38.26963],[-1.33917,38.26696],[-1.33979,38.26611],[-1.34023,38.26581],[-1.34169,38.26524],[-1.34203,38.26478],[-1.34193,38.26444],[-1.34129,38.26399],[-1.33954,38.26235],[-1.33921,38.2619],[-1.33905,38.261],[-1.33929,38.26017],[-1.34006,38.2587],[-1.34194,38.25624],[-1.34256,38.25506],[-1.34451,38.25321],[-1.34715,38.25007],[-1.34828,38.24909],[-1.35165,38.24643],[-1.35458,38.24521],[-1.35746,38.24372],[-1.35772,38.2435],[-1.3578,38.24318],[-1.35773,38.24293],[-1.35741,38.24258],[-1.35742,38.24221],[-1.35804,38.24182],[-1.35834,38.24131],[-1.35869,38.24015],[-1.35913,38.23967],[-1.35925,38.23896],[-1.35997,38.23727],[-1.3603,38.23541],[-1.36095,38.23409],[-1.36128,38.23373],[-1.36215,38.23331],[-1.36259,38.23323],[-1.36591,38.233],[-1.36686,38.23252],[-1.36712,38.23199],[-1.36616,38.23132],[-1.36613,38.23118],[-1.3664,38.23055],[-1.36631,38.22976],[-1.3653,38.23002],[-1.36494,38.22994],[-1.36476,38.22971],[-1.36485,38.22925],[-1.36533,38.22872],[-1.36506,38.2261],[-1.36548,38.2252],[-1.36577,38.2248],[-1.3661,38.22464],[-1.36671,38.22456],[-1.36696,38.22468],[-1.3675,38.22463],[-1.3684,38.22479],[-1.37054,38.22427],[-1.37199,38.22347],[-1.37399,38.22267],[-1.37449,38.22259],[-1.37666,38.22254],[-1.37887,38.22211],[-1.38041,38.22193],[-1.38255,38.22195],[-1.3839,38.22225],[-1.38448,38.22226],[-1.3868,38.22278],[-1.38738,38.22279],[-1.38764,38.22271],[-1.38755,38.22197],[-1.38784,38.22163],[-1.3882,38.22146],[-1.39046,38.22078],[-1.39092,38.22082],[-1.39149,38.22102],[-1.39215,38.22072],[-1.39365,38.21955],[-1.39481,38.21922],[-1.39567,38.21915],[-1.39654,38.21896],[-1.39711,38.21874],[-1.3973,38.21854],[-1.39727,38.21832],[-1.39792,38.21673],[-1.39836,38.21617],[-1.39888,38.21583],[-1.39964,38.21572],[-1.40025,38.21581],[-1.40125,38.21605],[-1.40386,38.21691],[-1.4048,38.21692],[-1.40596,38.21623],[-1.40706,38.21533],[-1.40833,38.21484],[-1.40848,38.21464],[-1.40823,38.21441],[-1.40804,38.21341],[-1.40832,38.2133],[-1.41131,38.21379],[-1.41245,38.21438],[-1.41491,38.21376],[-1.41688,38.21239],[-1.42228,38.21233],[-1.42623,38.21258],[-1.42895,38.21338],[-1.42935,38.21336],[-1.431,38.21355],[-1.43681,38.21152],[-1.43853,38.20882],[-1.44071,38.20606],[-1.44208,38.20477],[-1.44405,38.2032],[-1.44457,38.20292],[-1.44514,38.20281],[-1.44728,38.20213],[-1.44972,38.20159],[-1.45163,38.19972],[-1.45312,38.19893],[-1.45362,38.19872],[-1.45409,38.19864],[-1.45676,38.19531],[-1.45726,38.19547],[-1.45787,38.19545],[-1.4597,38.19579],[-1.46096,38.19589],[-1.46153,38.19578],[-1.46278,38.19523],[-1.46382,38.1951],[-1.46429,38.19488],[-1.46454,38.19506],[-1.46511,38.19506],[-1.4658,38.19487],[-1.46609,38.19451],[-1.46635,38.19437],[-1.46671,38.1944],[-1.46823,38.194],[-1.4696,38.19379],[-1.46988,38.19416],[-1.47077,38.19482],[-1.47182,38.19429],[-1.47323,38.19397],[-1.47404,38.19356],[-1.4744,38.19325],[-1.47571,38.19286],[-1.47698,38.19214],[-1.47814,38.19195],[-1.4797,38.191],[-1.48144,38.1904],[-1.48263,38.19044],[-1.48289,38.18988],[-1.48392,38.18864],[-1.48509,38.18814],[-1.48587,38.18824],[-1.48747,38.18797],[-1.48848,38.18736],[-1.48939,38.18723],[-1.49076,38.18646],[-1.49113,38.18634],[-1.49225,38.18621],[-1.49283,38.18597],[-1.49457,38.18556],[-1.49663,38.18494],[-1.49758,38.18446],[-1.49949,38.18395],[-1.50003,38.18384],[-1.50155,38.18377],[-1.50426,38.17997],[-1.50566,38.1776],[-1.509,38.17272],[-1.51083,38.16962],[-1.51272,38.16677],[-1.51377,38.16556],[-1.51522,38.16327],[-1.5165,38.16266],[-1.51801,38.16224],[-1.51833,38.1622],[-1.51894,38.16256],[-1.52091,38.1632],[-1.52147,38.16315],[-1.5278,38.16496],[-1.52824,38.16499],[-1.53048,38.16468],[-1.53543,38.16501],[-1.54061,38.1659],[-1.5431,38.16604],[-1.54575,38.16645],[-1.54865,38.16649],[-1.55196,38.16627],[-1.55227,38.16635],[-1.55293,38.16798],[-1.55338,38.16835],[-1.55453,38.16828],[-1.55522,38.16886],[-1.55705,38.16977],[-1.55838,38.16986],[-1.55863,38.17039],[-1.55958,38.17074],[-1.56045,38.17117],[-1.56078,38.17179],[-1.561,38.17192],[-1.56388,38.1731],[-1.56476,38.17324],[-1.56539,38.17325],[-1.5661,38.17413],[-1.56723,38.174],[-1.56763,38.17459],[-1.56854,38.1749],[-1.56881,38.17512],[-1.56901,38.1755],[-1.5691,38.17647],[-1.56927,38.17686],[-1.5701,38.17802],[-1.5733,38.17841],[-1.5747,38.1793],[-1.5754,38.17961],[-1.57659,38.17971],[-1.57831,38.17969],[-1.58058,38.18027],[-1.58105,38.18075],[-1.58263,38.18173],[-1.58952,38.18165],[-1.59004,38.18241],[-1.58775,38.184],[-1.58807,38.18478],[-1.58611,38.18577],[-1.58943,38.18996],[-1.579,38.22194],[-1.58407,38.27448],[-1.58452,38.27648],[-1.58673,38.28322],[-1.5915,38.29548],[-1.59297,38.29884],[-1.59428,38.30236],[-1.59503,38.30504],[-1.59262,38.30662],[-1.59126,38.30782],[-1.5898,38.30933],[-1.58956,38.30973],[-1.58954,38.30999],[-1.58282,38.31347],[-1.5582,38.3252],[-1.54838,38.33226],[-1.5419,38.34275],[-1.54109,38.34351],[-1.53971,38.34366],[-1.53869,38.34408],[-1.53781,38.34537],[-1.53634,38.34584],[-1.53584,38.3454],[-1.53402,38.34623],[-1.53481,38.34644],[-1.53163,38.34758],[-1.52869,38.34882],[-1.52586,38.35025],[-1.52451,38.35084],[-1.52347,38.35211],[-1.52226,38.35248],[-1.52152,38.353],[-1.52046,38.3532],[-1.51947,38.35362],[-1.51943,38.35423],[-1.51801,38.35508],[-1.51774,38.35601],[-1.51734,38.35668],[-1.51624,38.35739],[-1.51458,38.35761],[-1.51397,38.35793],[-1.5059,38.35932],[-1.50495,38.36074],[-1.50159,38.36305],[-1.49729,38.36565],[-1.49447,38.3682],[-1.49424,38.36888],[-1.49235,38.36919],[-1.4883,38.37317],[-1.48721,38.37338],[-1.48581,38.37352],[-1.48506,38.37378],[-1.484,38.37463],[-1.48182,38.37591],[-1.47855,38.37638],[-1.45048,38.37214],[-1.44518,38.36913],[-1.43064,38.36144],[-1.41254,38.35438],[-1.39984,38.35017],[-1.39077,38.34632],[-1.38818,38.34426],[-1.3838,38.34344],[-1.38158,38.34262],[-1.38047,38.34165],[-1.37846,38.34114],[-1.3702,38.33861],[-1.36388,38.33743],[-1.3592,38.33621],[-1.35381,38.33466],[-1.35175,38.33361],[-1.34993,38.33252],[-1.34672,38.32977],[-1.34534,38.32887],[-1.34412,38.32826],[-1.3417,38.32763],[-1.34095,38.32722],[-1.34005,38.3263],[-1.3377,38.3252],[-1.33632,38.32478],[-1.3351,38.32396],[-1.33407,38.32239],[-1.33376,38.32221],[-1.33149,38.32156],[-1.32528,38.31857],[-1.3245,38.31709],[-1.32333,38.31623],[-1.31888,38.31345]],[[-1.4272,38.24949],[-1.42847,38.24905],[-1.42872,38.24873],[-1.42882,38.24823],[-1.42906,38.24793],[-1.42988,38.24751],[-1.42918,38.24706],[-1.42844,38.24638],[-1.42734,38.24512],[-1.42711,38.24466],[-1.42681,38.24339],[-1.4267,38.24271],[-1.42761,38.24251],[-1.42953,38.24188],[-1.42883,38.24132],[-1.4282,38.24045],[-1.42796,38.23933],[-1.42801,38.23857],[-1.42823,38.23824],[-1.42864,38.23794],[-1.43107,38.23729],[-1.43264,38.23625],[-1.43273,38.23602],[-1.43259,38.23565],[-1.43138,38.23427],[-1.43077,38.2337],[-1.43,38.23317],[-1.42864,38.23262],[-1.42804,38.2326],[-1.42577,38.23326],[-1.42538,38.2333],[-1.4234,38.2331],[-1.4225,38.233],[-1.42057,38.23226],[-1.41938,38.23203],[-1.41809,38.23284],[-1.41611,38.23322],[-1.41553,38.23318],[-1.41343,38.23268],[-1.41297,38.23248],[-1.4125,38.23216],[-1.41134,38.23058],[-1.41049,38.23008],[-1.40973,38.2303],[-1.4084,38.23052],[-1.40667,38.23135],[-1.40602,38.23219],[-1.40552,38.23437],[-1.40462,38.2366],[-1.40379,38.23644],[-1.40266,38.23642],[-1.3995,38.23664],[-1.39955,38.23696],[-1.40062,38.23734],[-1.4049,38.23946],[-1.40635,38.24052],[-1.41172,38.24488],[-1.41394,38.2444],[-1.41512,38.24429],[-1.41639,38.24432],[-1.41802,38.24461],[-1.41918,38.24507],[-1.42056,38.24593],[-1.42566,38.24947],[-1.42751,38.25112],[-1.42772,38.25086],[-1.42771,38.25062],[-1.4272,38.24949]]]}}]}