{"type":"FeatureCollection","features":[{"type":"Feature","properties":{"id":"3003301001"},"geometry":{"type":"Polygon","coordinates":[[[-1.83919,37.57719],[-1.83911,37.57668],[-1.83812,37.57594],[-1.83589,37.57457],[-1.83411,37.57334],[-1.83297,37.57224],[-1.83004,37.57079],[-1.8291,37.57044],[-1.82684,37.56983],[-1.82392,37.56588],[-1.81854,37.56418],[-1.81742,37.56371],[-1.8172,37.56302],[-1.81763,37.56261],[-1.81813,37.56237],[-1.81804,37.56215],[-1.81583,37.56133],[-1.81574,37.56082],[-1.81536,37.56077],[-1.81477,37.56026],[-1.81547,37.55922],[-1.81586,37.55894],[-1.81652,37.55892],[-1.8171,37.5587],[-1.81668,37.55763],[-1.8152,37.55731],[-1.81544,37.55682],[-1.81931,37.55771],[-1.81866,37.55494],[-1.81875,37.55327],[-1.81418,37.55167],[-1.81296,37.55387],[-1.81248,37.55557],[-1.81229,37.55552],[-1.8123,37.55542],[-1.81118,37.55501],[-1.81112,37.55515],[-1.81066,37.55498],[-1.81004,37.55625],[-1.80854,37.5556],[-1.80796,37.55663],[-1.8083,37.55676],[-1.80707,37.55885],[-1.80726,37.55906],[-1.80764,37.55926],[-1.80737,37.55996],[-1.80026,37.55765],[-1.78945,37.55255],[-1.79026,37.55096],[-1.79051,37.55023],[-1.79098,37.5496],[-1.79189,37.54909],[-1.79272,37.54877],[-1.7929,37.54847],[-1.79233,37.54557],[-1.79056,37.54527],[-1.78951,37.54497],[-1.78882,37.54472],[-1.78818,37.54436],[-1.78731,37.54415],[-1.78621,37.54402],[-1.78562,37.5438],[-1.78465,37.54324],[-1.78398,37.54313],[-1.78231,37.5435],[-1.78114,37.544],[-1.78078,37.54373],[-1.78037,37.54377],[-1.77927,37.54351],[-1.77826,37.54363],[-1.77617,37.5442],[-1.77557,37.54456],[-1.77498,37.54468],[-1.77369,37.54456],[-1.77175,37.54415],[-1.76819,37.5427],[-1.7674,37.54218],[-1.76695,37.54156],[-1.76634,37.54133],[-1.76552,37.54128],[-1.76469,37.54135],[-1.76304,37.54038],[-1.76167,37.53778],[-1.76161,37.53644],[-1.76355,37.53539],[-1.76462,37.53455],[-1.76575,37.53348],[-1.76618,37.53286],[-1.76662,37.53246],[-1.76735,37.5321],[-1.76821,37.53198],[-1.77064,37.53255],[-1.77246,37.53255],[-1.77326,37.53231],[-1.77402,37.53187],[-1.77527,37.53065],[-1.77701,37.52933],[-1.77742,37.52871],[-1.7778,37.52779],[-1.77868,37.5266],[-1.77927,37.526],[-1.77926,37.52565],[-1.77861,37.52425],[-1.78017,37.52328],[-1.78125,37.52166],[-1.78177,37.52194],[-1.7831,37.5224],[-1.78374,37.5222],[-1.78401,37.52189],[-1.78425,37.52082],[-1.78448,37.52045],[-1.78798,37.5202],[-1.78862,37.51991],[-1.79079,37.51854],[-1.79146,37.51835],[-1.7921,37.51827],[-1.79307,37.51831],[-1.79364,37.51816],[-1.79633,37.51594],[-1.79685,37.51534],[-1.79708,37.51481],[-1.79698,37.51419],[-1.79625,37.51245],[-1.79648,37.51221],[-1.79742,37.51213],[-1.79812,37.51195],[-1.79908,37.51107],[-1.79938,37.51048],[-1.80118,37.50848],[-1.80628,37.50432],[-1.80763,37.50296],[-1.80958,37.50183],[-1.81019,37.50094],[-1.81029,37.50052],[-1.80999,37.50008],[-1.81025,37.4993],[-1.8104,37.49806],[-1.80988,37.4976],[-1.809,37.49615],[-1.8093,37.49427],[-1.80982,37.49372],[-1.81325,37.49215],[-1.81346,37.49169],[-1.814,37.49116],[-1.81782,37.48993],[-1.81871,37.48927],[-1.81989,37.48676],[-1.82001,37.48533],[-1.82027,37.48519],[-1.82087,37.48512],[-1.82316,37.48441],[-1.82856,37.47939],[-1.8288,37.47877],[-1.82964,37.47788],[-1.82919,37.47745],[-1.82903,37.47546],[-1.83043,37.47382],[-1.83113,37.47345],[-1.83264,37.47156],[-1.83275,37.47104],[-1.83362,37.47026],[-1.83378,37.46886],[-1.83522,37.46732],[-1.83688,37.46688],[-1.83768,37.4663],[-1.83857,37.4659],[-1.83981,37.465],[-1.84183,37.46487],[-1.84849,37.46072],[-1.85424,37.47096],[-1.85465,37.47143],[-1.85704,37.4757],[-1.85799,37.47779],[-1.8587,37.47908],[-1.85971,37.48031],[-1.86289,37.48343],[-1.86351,37.48447],[-1.86411,37.48593],[-1.86438,37.48629],[-1.86471,37.48654],[-1.86523,37.48674],[-1.86571,37.48674],[-1.86667,37.48655],[-1.86711,37.48675],[-1.8675,37.48715],[-1.86795,37.48824],[-1.86849,37.48879],[-1.86928,37.48915],[-1.86974,37.48955],[-1.87088,37.48967],[-1.87109,37.48981],[-1.87167,37.4914],[-1.87279,37.49303],[-1.87439,37.49454],[-1.87637,37.49698],[-1.87939,37.50006],[-1.90983,37.53787],[-1.91054,37.53864],[-1.91115,37.53823],[-1.91642,37.54485],[-1.91555,37.54535],[-1.91335,37.54614],[-1.91088,37.54679],[-1.9094,37.54693],[-1.9087,37.5471],[-1.9073,37.54688],[-1.90712,37.54751],[-1.90712,37.54801],[-1.90668,37.54817],[-1.90621,37.54815],[-1.90658,37.54877],[-1.90658,37.54906],[-1.90607,37.54966],[-1.90488,37.55018],[-1.90434,37.55051],[-1.9035,37.55126],[-1.90303,37.55123],[-1.9026,37.5515],[-1.90222,37.55153],[-1.90222,37.5517],[-1.90389,37.55296],[-1.90421,37.55347],[-1.90422,37.55388],[-1.90396,37.55413],[-1.90223,37.55433],[-1.90274,37.55516],[-1.90281,37.55598],[-1.90256,37.55642],[-1.90169,37.55677],[-1.90229,37.55732],[-1.90211,37.55746],[-1.90138,37.55753],[-1.90108,37.55805],[-1.90028,37.55868],[-1.89999,37.55914],[-1.89965,37.55933],[-1.89914,37.55945],[-1.8985,37.55936],[-1.89774,37.55973],[-1.89533,37.55965],[-1.89409,37.55924],[-1.89372,37.55895],[-1.89289,37.55902],[-1.89181,37.55882],[-1.89047,37.55906],[-1.89009,37.56013],[-1.8891,37.56084],[-1.8894,37.56166],[-1.88917,37.562],[-1.8891,37.56291],[-1.88829,37.56416],[-1.88739,37.56456],[-1.88742,37.56485],[-1.88714,37.56525],[-1.88655,37.56551],[-1.88547,37.56552],[-1.88506,37.56579],[-1.88464,37.56644],[-1.88433,37.56669],[-1.88377,37.5669],[-1.88493,37.56817],[-1.88503,37.56871],[-1.88465,37.56951],[-1.8842,37.56997],[-1.88371,37.57022],[-1.88323,37.57066],[-1.88278,37.57201],[-1.88248,37.57234],[-1.88246,37.57296],[-1.88217,37.57367],[-1.8823,37.57395],[-1.8821,37.57444],[-1.88341,37.57524],[-1.88266,37.57577],[-1.88197,37.57608],[-1.87794,37.57724],[-1.87669,37.57782],[-1.87589,37.5783],[-1.87428,37.57995],[-1.87354,37.58106],[-1.87248,37.58221],[-1.87175,37.58256],[-1.8686,37.58359],[-1.867,37.58392],[-1.86349,37.58409],[-1.86164,37.58367],[-1.86029,37.58311],[-1.85737,37.58212],[-1.85419,37.58145],[-1.85265,37.58131],[-1.84824,37.58162],[-1.84605,37.58145],[-1.84359,37.58073],[-1.84251,37.58012],[-1.83919,37.57719]]]}},{"type":"Feature","properties":{"id":"3003301002"},"geometry":{"type":"Polygon","coordinates":[[[-1.80976,37.56083],[-1.81042,37.55945],[-1.8113,37.55835],[-1.81249,37.55554],[-1.81508,37.5562],[-1.81486,37.55666],[-1.81547,37.55683],[-1.8152,37.55731],[-1.81668,37.55763],[-1.8171,37.5587],[-1.81652,37.55892],[-1.81586,37.55894],[-1.81547,37.55922],[-1.81477,37.56026],[-1.81536,37.56077],[-1.81574,37.56082],[-1.81583,37.56133],[-1.81804,37.56215],[-1.81813,37.56237],[-1.81763,37.56261],[-1.8172,37.56302],[-1.81742,37.56371],[-1.80976,37.56083]]]}},{"type":"Feature","properties":{"id":"3003301003"},"geometry":{"type":"Polygon","coordinates":[[[-1.79765,37.57277],[-1.79916,37.57132],[-1.79989,37.57167],[-1.8004,37.57101],[-1.80264,37.57148],[-1.80476,37.57121],[-1.80497,37.57076],[-1.805,37.5702],[-1.80555,37.56966],[-1.80577,37.56929],[-1.80561,37.56916],[-1.80585,37.56894],[-1.80602,37.56834],[-1.80649,37.5679],[-1.80704,37.56765],[-1.80715,37.56769],[-1.8075,37.56747],[-1.80773,37.56692],[-1.80824,37.56723],[-1.80883,37.56702],[-1.80907,37.56715],[-1.80957,37.56659],[-1.80967,37.56664],[-1.81021,37.56611],[-1.8099,37.56591],[-1.81,37.56558],[-1.81035,37.56578],[-1.8106,37.56618],[-1.81124,37.56598],[-1.81108,37.56569],[-1.8121,37.56488],[-1.81197,37.56463],[-1.81162,37.56497],[-1.81133,37.56477],[-1.81097,37.56506],[-1.80967,37.56404],[-1.80825,37.56333],[-1.80982,37.56227],[-1.81002,37.56199],[-1.80944,37.56148],[-1.80976,37.56083],[-1.81854,37.56418],[-1.82392,37.56588],[-1.82684,37.56983],[-1.8291,37.57044],[-1.83004,37.57079],[-1.83297,37.57224],[-1.83411,37.57334],[-1.83589,37.57457],[-1.83812,37.57594],[-1.83911,37.57668],[-1.83919,37.57719],[-1.83857,37.57673],[-1.83559,37.57842],[-1.83454,37.5791],[-1.83331,37.58126],[-1.83105,37.58245],[-1.82798,37.58467],[-1.82187,37.58139],[-1.81929,37.58121],[-1.81921,37.58085],[-1.81871,37.58003],[-1.81785,37.5796],[-1.81611,37.57747],[-1.81569,37.57723],[-1.81473,37.57695],[-1.81407,37.5765],[-1.81331,37.57506],[-1.81366,37.57374],[-1.81246,37.57219],[-1.81128,37.57142],[-1.81039,37.5713],[-1.80934,37.57153],[-1.80843,37.57128],[-1.8077,37.5716],[-1.80718,37.57163],[-1.80609,37.57138],[-1.8056,37.57114],[-1.80359,37.57165],[-1.80338,37.572],[-1.80336,37.57281],[-1.80219,37.57366],[-1.79993,37.57328],[-1.79863,37.57375],[-1.79765,37.57277]]]}},{"type":"Feature","properties":{"id":"3003301004"},"geometry":{"type":"Polygon","coordinates":[[[-1.74512,37.60354],[-1.74391,37.59264],[-1.7445,37.58535],[-1.74681,37.57516],[-1.74618,37.56954],[-1.74988,37.56212],[-1.75141,37.55838],[-1.77044,37.54362],[-1.77175,37.54415],[-1.77369,37.54456],[-1.77498,37.54468],[-1.77557,37.54456],[-1.77617,37.5442],[-1.77826,37.54363],[-1.77927,37.54351],[-1.78037,37.54377],[-1.78078,37.54373],[-1.78114,37.544],[-1.78231,37.5435],[-1.78398,37.54313],[-1.78465,37.54324],[-1.78562,37.5438],[-1.78621,37.54402],[-1.78731,37.54415],[-1.78818,37.54436],[-1.78882,37.54472],[-1.78951,37.54497],[-1.79056,37.54527],[-1.79233,37.54557],[-1.7929,37.54847],[-1.79272,37.54877],[-1.79189,37.54909],[-1.79098,37.5496],[-1.79051,37.55023],[-1.79026,37.55096],[-1.78945,37.55255],[-1.78812,37.55381],[-1.78609,37.55631],[-1.78549,37.55713],[-1.78559,37.5575],[-1.78511,37.55821],[-1.7844,37.55879],[-1.78388,37.559],[-1.78223,37.56162],[-1.78113,37.56276],[-1.78072,37.56354],[-1.77885,37.56598],[-1.77802,37.56743],[-1.77931,37.5673],[-1.78138,37.56673],[-1.78308,37.56643],[-1.78591,37.56615],[-1.79219,37.56584],[-1.79401,37.56596],[-1.79562,37.56592],[-1.79561,37.56643],[-1.7964,37.56643],[-1.79681,37.56905],[-1.79726,37.56969],[-1.79585,37.57044],[-1.79497,37.57121],[-1.79457,37.57422],[-1.79548,37.57482],[-1.79765,37.57277],[-1.79863,37.57375],[-1.79993,37.57328],[-1.80219,37.57366],[-1.80336,37.57281],[-1.80338,37.572],[-1.80359,37.57165],[-1.8056,37.57114],[-1.80609,37.57138],[-1.80718,37.57163],[-1.8077,37.5716],[-1.80843,37.57128],[-1.80934,37.57153],[-1.81039,37.5713],[-1.81128,37.57142],[-1.81246,37.57219],[-1.81366,37.57374],[-1.81331,37.57506],[-1.81407,37.5765],[-1.81473,37.57695],[-1.81569,37.57723],[-1.81611,37.57747],[-1.81785,37.5796],[-1.81871,37.58003],[-1.81921,37.58085],[-1.81929,37.58121],[-1.82187,37.58139],[-1.82798,37.58467],[-1.82728,37.58516],[-1.82526,37.58593],[-1.82465,37.58612],[-1.82224,37.58646],[-1.82175,37.58662],[-1.82066,37.58728],[-1.8198,37.58757],[-1.81805,37.58857],[-1.81334,37.59282],[-1.80982,37.59475],[-1.80553,37.59774],[-1.80445,37.59836],[-1.80402,37.59903],[-1.80418,37.60028],[-1.80413,37.60064],[-1.8034,37.60172],[-1.80318,37.60228],[-1.80299,37.60332],[-1.79851,37.60515],[-1.79771,37.60528],[-1.79442,37.6063],[-1.79355,37.60636],[-1.79189,37.60608],[-1.78757,37.60393],[-1.78573,37.60324],[-1.78464,37.60299],[-1.77948,37.60236],[-1.77469,37.60214],[-1.77048,37.60146],[-1.76898,37.60133],[-1.76596,37.60014],[-1.7651,37.59994],[-1.76277,37.5997],[-1.76238,37.60027],[-1.76194,37.60018],[-1.7591,37.60065],[-1.75784,37.60095],[-1.75583,37.60168],[-1.75401,37.60211],[-1.75041,37.60181],[-1.74915,37.60181],[-1.74844,37.6019],[-1.74671,37.60284],[-1.74512,37.60354]]]}},{"type":"Feature","properties":{"id":"3003301005"},"geometry":{"type":"Polygon","coordinates":[[[-1.78945,37.55255],[-1.80026,37.55765],[-1.80737,37.55996],[-1.80976,37.56083],[-1.80944,37.56148],[-1.81002,37.56199],[-1.80982,37.56227],[-1.80809,37.56345],[-1.80748,37.56327],[-1.80782,37.56244],[-1.8031,37.56364],[-1.804,37.56453],[-1.80249,37.56543],[-1.80095,37.56672],[-1.79947,37.56628],[-1.79836,37.56631],[-1.79846,37.56546],[-1.79722,37.56554],[-1.79563,37.56529],[-1.79562,37.56592],[-1.79401,37.56596],[-1.79219,37.56584],[-1.78591,37.56615],[-1.78308,37.56643],[-1.78138,37.56673],[-1.77931,37.5673],[-1.77802,37.56743],[-1.77885,37.56598],[-1.78072,37.56354],[-1.78113,37.56276],[-1.78223,37.56162],[-1.78388,37.559],[-1.7844,37.55879],[-1.78511,37.55821],[-1.78559,37.5575],[-1.78549,37.55713],[-1.78609,37.55631],[-1.78812,37.55381],[-1.78945,37.55255]]]}},{"type":"Feature","properties":{"id":"3003301006"},"geometry":{"type":"Polygon","coordinates":[[[-1.71755,37.60321],[-1.71557,37.60138],[-1.71437,37.59946],[-1.71397,37.59857],[-1.7136,37.59708],[-1.71305,37.59565],[-1.7126,37.59524],[-1.70968,37.59403],[-1.70921,37.59368],[-1.70826,37.59248],[-1.70714,37.59163],[-1.70625,37.59081],[-1.706,37.59044],[-1.70435,37.58631],[-1.70252,37.5849],[-1.7018,37.58421],[-1.70158,37.58369],[-1.70355,37.58293],[-1.70905,37.58115],[-1.71146,37.581],[-1.71322,37.58101],[-1.71362,37.57934],[-1.71411,37.57786],[-1.71412,37.57709],[-1.71446,37.5758],[-1.71473,37.57358],[-1.71506,37.57238],[-1.71569,37.56903],[-1.71586,37.56729],[-1.71558,37.56649],[-1.71529,37.56606],[-1.7153,37.56571],[-1.71551,37.56542],[-1.71597,37.5641],[-1.71603,37.56371],[-1.7159,37.56277],[-1.71606,37.56256],[-1.71749,37.56213],[-1.72027,37.56147],[-1.72185,37.56151],[-1.72262,37.56144],[-1.72308,37.56131],[-1.72359,37.56093],[-1.72431,37.56058],[-1.72573,37.56052],[-1.72665,37.5602],[-1.72746,37.56009],[-1.72871,37.56009],[-1.73087,37.56082],[-1.73275,37.56117],[-1.73342,37.56117],[-1.73531,37.56075],[-1.73801,37.55983],[-1.7386,37.55977],[-1.74164,37.55982],[-1.74287,37.55967],[-1.74395,37.55942],[-1.7451,37.55857],[-1.74589,37.55816],[-1.74789,37.558],[-1.74976,37.55757],[-1.75271,37.55706],[-1.75331,37.55486],[-1.75388,37.5513],[-1.75398,37.54843],[-1.75387,37.54676],[-1.75404,37.54566],[-1.75401,37.54375],[-1.75352,37.54158],[-1.75368,37.54038],[-1.75318,37.53845],[-1.75383,37.53614],[-1.75351,37.53433],[-1.75321,37.53343],[-1.75336,37.53279],[-1.75375,37.53318],[-1.75674,37.53432],[-1.75924,37.5346],[-1.75963,37.53481],[-1.76161,37.53644],[-1.76167,37.53778],[-1.76304,37.54038],[-1.76469,37.54135],[-1.76552,37.54128],[-1.76634,37.54133],[-1.76695,37.54156],[-1.7674,37.54218],[-1.76819,37.5427],[-1.77044,37.54362],[-1.75141,37.55838],[-1.74988,37.56212],[-1.74618,37.56954],[-1.74681,37.57516],[-1.7445,37.58535],[-1.74391,37.59264],[-1.74512,37.60354],[-1.74348,37.60426],[-1.74174,37.60447],[-1.73903,37.60422],[-1.73686,37.6036],[-1.73607,37.60323],[-1.7354,37.60308],[-1.73423,37.603],[-1.73364,37.60274],[-1.73286,37.60256],[-1.73117,37.60258],[-1.73005,37.60236],[-1.72916,37.60233],[-1.72834,37.60243],[-1.72576,37.60349],[-1.72486,37.60374],[-1.72412,37.60382],[-1.72196,37.60448],[-1.7185,37.60609],[-1.718,37.60627],[-1.71758,37.60631],[-1.71778,37.60408],[-1.71776,37.60358],[-1.71755,37.60321]]]}},{"type":"Feature","properties":{"id":"3003301007"},"geometry":{"type":"Polygon","coordinates":[[[-1.79916,37.57132],[-1.80572,37.56498],[-1.80705,37.56621],[-1.80757,37.56644],[-1.80702,37.5673],[-1.80602,37.56834],[-1.80585,37.56894],[-1.80561,37.56916],[-1.80577,37.56929],[-1.80555,37.56966],[-1.805,37.5702],[-1.80497,37.57076],[-1.80476,37.57121],[-1.80264,37.57148],[-1.8004,37.57101],[-1.79989,37.57167],[-1.79916,37.57132]]]}},{"type":"Feature","properties":{"id":"3003301008"},"geometry":{"type":"Polygon","coordinates":[[[-1.79561,37.56643],[-1.79563,37.56529],[-1.79722,37.56554],[-1.79846,37.56546],[-1.79836,37.56631],[-1.79947,37.56628],[-1.80095,37.56672],[-1.80238,37.56553],[-1.80405,37.56664],[-1.79548,37.57482],[-1.79457,37.57422],[-1.79497,37.57121],[-1.79585,37.57044],[-1.79726,37.56969],[-1.79681,37.56905],[-1.7964,37.56643],[-1.79561,37.56643]]]}},{"type":"Feature","properties":{"id":"3003301009"},"geometry":{"type":"Polygon","coordinates":[[[-1.80572,37.56498],[-1.80726,37.56354],[-1.80745,37.56325],[-1.80809,37.56345],[-1.80825,37.56333],[-1.80879,37.56367],[-1.80956,37.56398],[-1.81097,37.56506],[-1.81133,37.56477],[-1.81162,37.56497],[-1.81197,37.56463],[-1.8121,37.56488],[-1.81108,37.56569],[-1.81124,37.56598],[-1.8106,37.56618],[-1.81035,37.56578],[-1.81,37.56558],[-1.8099,37.56591],[-1.81021,37.56611],[-1.80967,37.56664],[-1.80957,37.56659],[-1.80907,37.56715],[-1.80883,37.56702],[-1.80824,37.56723],[-1.80773,37.56692],[-1.8075,37.56747],[-1.80715,37.56769],[-1.80704,37.56765],[-1.80649,37.5679],[-1.80642,37.56786],[-1.80702,37.5673],[-1.80757,37.56644],[-1.80705,37.56621],[-1.80572,37.56498]]]}},{"type":"Feature","properties":{"id":"3003301010"},"geometry":{"type":"Polygon","coordinates":[[[-1.81931,37.55771],[-1.81486,37.55666],[-1.81508,37.5562],[-1.81248,37.55557],[-1.81296,37.55387],[-1.81418,37.55167],[-1.81875,37.55327],[-1.81866,37.55494],[-1.81931,37.55771]]]}},{"type":"Feature","properties":{"id":"3003301011"},"geometry":{"type":"Polygon","coordinates":[[[-1.80976,37.56083],[-1.80737,37.55996],[-1.80764,37.55926],[-1.80726,37.55906],[-1.80707,37.55885],[-1.8083,37.55676],[-1.80796,37.55663],[-1.80854,37.5556],[-1.81004,37.55625],[-1.81066,37.55498],[-1.81112,37.55515],[-1.81118,37.55501],[-1.8123,37.55542],[-1.81229,37.55552],[-1.81249,37.55554],[-1.81248,37.55566],[-1.8113,37.55835],[-1.81042,37.55945],[-1.80976,37.56083]]]}},{"type":"Feature","properties":{"id":"3003301012"},"geometry":{"type":"Polygon","coordinates":[[[-1.80238,37.56553],[-1.804,37.56453],[-1.8031,37.56364],[-1.80782,37.56244],[-1.80748,37.56327],[-1.80726,37.56354],[-1.80619,37.56447],[-1.80405,37.56664],[-1.80238,37.56553]]]}}]}