{"type":"FeatureCollection","features":[{"type":"Feature","properties":{"id":"3004201001"},"geometry":{"type":"Polygon","coordinates":[[[-1.31246,38.12885],[-1.31366,38.12909],[-1.31568,38.12969],[-1.31743,38.12979],[-1.31825,38.12968],[-1.31846,38.12881],[-1.31913,38.12823],[-1.3202,38.12806],[-1.32183,38.12766],[-1.32309,38.12755],[-1.32488,38.12706],[-1.32502,38.12695],[-1.32498,38.12662],[-1.32489,38.12637],[-1.32462,38.12616],[-1.32463,38.12593],[-1.32496,38.12564],[-1.32533,38.12551],[-1.32556,38.12557],[-1.32628,38.12615],[-1.32643,38.12618],[-1.32671,38.1261],[-1.32707,38.12584],[-1.32712,38.12569],[-1.3272,38.1252],[-1.32708,38.12499],[-1.32633,38.12435],[-1.32564,38.12354],[-1.32556,38.12321],[-1.32563,38.12284],[-1.32624,38.12188],[-1.3266,38.12177],[-1.32703,38.1226],[-1.32821,38.12319],[-1.32849,38.12319],[-1.32882,38.12248],[-1.3287,38.12156],[-1.3292,38.12061],[-1.33027,38.12084],[-1.33125,38.11965],[-1.33158,38.11957],[-1.33231,38.11991],[-1.33208,38.12031],[-1.33182,38.12165],[-1.33042,38.12354],[-1.32947,38.1246],[-1.32921,38.12505],[-1.32916,38.12567],[-1.3293,38.1271],[-1.33075,38.12899],[-1.33162,38.13065],[-1.33185,38.13075],[-1.33299,38.13203],[-1.33436,38.13291],[-1.33452,38.1331],[-1.33405,38.13398],[-1.3335,38.13457],[-1.33255,38.13423],[-1.33182,38.13421],[-1.33129,38.13406],[-1.33088,38.13415],[-1.33039,38.1344],[-1.32791,38.13676],[-1.32676,38.13769],[-1.32564,38.13886],[-1.32507,38.13974],[-1.32454,38.14124],[-1.32414,38.14178],[-1.32356,38.14202],[-1.32277,38.14216],[-1.32231,38.14204],[-1.32172,38.14164],[-1.32127,38.14112],[-1.31969,38.14015],[-1.31887,38.13891],[-1.31734,38.1355],[-1.31668,38.1347],[-1.31383,38.13049],[-1.31246,38.12885]]]}},{"type":"Feature","properties":{"id":"3004201002"},"geometry":{"type":"Polygon","coordinates":[[[-1.31083,38.12816],[-1.3101,38.12808],[-1.30946,38.12814],[-1.30936,38.12794],[-1.30981,38.12592],[-1.30978,38.12522],[-1.31026,38.12456],[-1.30984,38.12437],[-1.30989,38.12339],[-1.30958,38.12111],[-1.31121,38.12043],[-1.3115,38.12052],[-1.31255,38.12053],[-1.31261,38.11991],[-1.31175,38.11856],[-1.31088,38.11753],[-1.31054,38.11678],[-1.3094,38.11493],[-1.31264,38.11366],[-1.31317,38.11306],[-1.31368,38.11276],[-1.31465,38.1126],[-1.31485,38.11282],[-1.31576,38.11236],[-1.31711,38.11141],[-1.31852,38.11088],[-1.3194,38.10907],[-1.3209,38.1073],[-1.32127,38.10554],[-1.32156,38.105],[-1.32202,38.10442],[-1.32376,38.10272],[-1.32267,38.09704],[-1.32316,38.09649],[-1.32532,38.09538],[-1.32559,38.09006],[-1.31691,38.08995],[-1.3138,38.08977],[-1.30643,38.08622],[-1.30586,38.08278],[-1.30802,38.0822],[-1.30954,38.08168],[-1.31119,38.08131],[-1.31092,38.07783],[-1.31053,38.07683],[-1.30956,38.07314],[-1.30964,38.07243],[-1.31024,38.07195],[-1.31302,38.0692],[-1.31339,38.06866],[-1.31569,38.06415],[-1.31757,38.06174],[-1.31815,38.06119],[-1.31865,38.06087],[-1.31922,38.06073],[-1.32068,38.06089],[-1.32644,38.06117],[-1.3311,38.06128],[-1.33087,38.06168],[-1.33087,38.06224],[-1.33146,38.06508],[-1.33094,38.06625],[-1.33085,38.06707],[-1.33011,38.06747],[-1.32976,38.068],[-1.32919,38.0706],[-1.32866,38.07164],[-1.32774,38.07259],[-1.3268,38.07384],[-1.32669,38.07433],[-1.32672,38.07486],[-1.32692,38.07558],[-1.32752,38.0764],[-1.32782,38.07724],[-1.32833,38.07813],[-1.32895,38.0789],[-1.32968,38.07953],[-1.32981,38.08149],[-1.33103,38.08225],[-1.33203,38.08347],[-1.33268,38.08402],[-1.33422,38.08488],[-1.33581,38.08519],[-1.33599,38.0853],[-1.33616,38.08596],[-1.33612,38.08641],[-1.33576,38.08741],[-1.33474,38.0896],[-1.33447,38.09075],[-1.33461,38.09135],[-1.33456,38.09155],[-1.33415,38.09197],[-1.33401,38.0923],[-1.33488,38.09389],[-1.33457,38.09462],[-1.33392,38.0955],[-1.33474,38.09722],[-1.33428,38.09812],[-1.33517,38.09982],[-1.33505,38.10128],[-1.336,38.10235],[-1.33583,38.10276],[-1.33596,38.10311],[-1.33575,38.1034],[-1.33585,38.10411],[-1.33549,38.10477],[-1.33539,38.10524],[-1.33611,38.10566],[-1.33635,38.10592],[-1.33624,38.10615],[-1.33622,38.10685],[-1.33592,38.1075],[-1.33592,38.1078],[-1.33682,38.10916],[-1.33641,38.1099],[-1.33588,38.11044],[-1.33563,38.111],[-1.33559,38.11153],[-1.33597,38.11251],[-1.33595,38.11301],[-1.33577,38.11365],[-1.33469,38.11538],[-1.33422,38.11637],[-1.33423,38.1178],[-1.33405,38.11819],[-1.33368,38.11868],[-1.33231,38.11991],[-1.33158,38.11957],[-1.33125,38.11965],[-1.33027,38.12084],[-1.3292,38.12061],[-1.3287,38.12156],[-1.32882,38.12248],[-1.32849,38.12319],[-1.32821,38.12319],[-1.32703,38.1226],[-1.3266,38.12177],[-1.32624,38.12188],[-1.32593,38.12224],[-1.32563,38.12284],[-1.32556,38.12321],[-1.32564,38.12354],[-1.32585,38.12387],[-1.32687,38.12477],[-1.3272,38.1252],[-1.32707,38.12584],[-1.32671,38.1261],[-1.32628,38.12615],[-1.32556,38.12557],[-1.32533,38.12551],[-1.32496,38.12564],[-1.32463,38.12593],[-1.32462,38.12616],[-1.32489,38.12637],[-1.32498,38.12662],[-1.32502,38.12695],[-1.32488,38.12706],[-1.32309,38.12755],[-1.32183,38.12766],[-1.3202,38.12806],[-1.31913,38.12823],[-1.31846,38.12881],[-1.31825,38.12968],[-1.31743,38.12979],[-1.31568,38.12969],[-1.31514,38.12958],[-1.3141,38.12921],[-1.31246,38.12885],[-1.31179,38.12843],[-1.31083,38.12816]]]}}]}