{"type":"FeatureCollection","features":[{"type":"Feature","properties":{"id":"3105701001"},"geometry":{"type":"Polygon","coordinates":[[[-1.4277,41.99888],[-1.42734,41.99821],[-1.42655,41.99729],[-1.42573,41.99477],[-1.42226,41.99015],[-1.42206,41.98957],[-1.4218,41.98923],[-1.42075,41.98817],[-1.42057,41.98766],[-1.41995,41.98682],[-1.41946,41.98654],[-1.41557,41.985],[-1.41449,41.98429],[-1.41373,41.98396],[-1.41013,41.98194],[-1.40975,41.98163],[-1.40974,41.98174],[-1.40805,41.98077],[-1.40295,41.97654],[-1.40278,41.97635],[-1.40298,41.97613],[-1.40293,41.97563],[-1.40114,41.97443],[-1.39761,41.97263],[-1.39622,41.97147],[-1.39258,41.9693],[-1.39038,41.96758],[-1.38769,41.96571],[-1.3864,41.96454],[-1.38592,41.96393],[-1.38313,41.96215],[-1.38,41.9594],[-1.38233,41.95842],[-1.38587,41.95711],[-1.38753,41.9579],[-1.3891,41.95826],[-1.39326,41.96013],[-1.39446,41.96022],[-1.39517,41.96078],[-1.39609,41.96111],[-1.39767,41.96211],[-1.39952,41.96274],[-1.40032,41.96316],[-1.40053,41.9631],[-1.40045,41.96253],[-1.41191,41.96129],[-1.41389,41.96007],[-1.41771,41.95923],[-1.42115,41.95861],[-1.4236,41.95725],[-1.42485,41.95624],[-1.42435,41.95498],[-1.42439,41.95461],[-1.43233,41.95288],[-1.43235,41.95401],[-1.43253,41.95505],[-1.43559,41.96972],[-1.43601,41.9713],[-1.43904,41.97434],[-1.44138,41.97732],[-1.44295,41.97901],[-1.44407,41.9808],[-1.44479,41.9813],[-1.44573,41.98142],[-1.46799,41.97556],[-1.47608,41.97317],[-1.48044,41.97228],[-1.48133,41.97208],[-1.48174,41.97188],[-1.48726,41.96863],[-1.49656,41.96122],[-1.49662,41.96097],[-1.51225,41.94824],[-1.51369,41.94827],[-1.50866,41.9567],[-1.50465,41.9629],[-1.50172,41.96696],[-1.49835,41.97029],[-1.49677,41.9722],[-1.49291,41.97635],[-1.489,41.97954],[-1.48746,41.98097],[-1.48703,41.98124],[-1.48745,41.98246],[-1.48869,41.98477],[-1.4892,41.9856],[-1.4902,41.98679],[-1.49061,41.98754],[-1.4908,41.98906],[-1.4889,41.98923],[-1.48874,41.98957],[-1.48769,41.98948],[-1.48528,41.99019],[-1.48369,41.9911],[-1.48356,41.99137],[-1.48328,41.99141],[-1.4792,41.9952],[-1.47757,41.99632],[-1.47625,41.99701],[-1.47199,41.99892],[-1.46891,41.99978],[-1.46643,41.99792],[-1.4648,41.99657],[-1.46364,41.99532],[-1.46138,41.99242],[-1.46034,41.99167],[-1.45954,41.99136],[-1.45793,41.99093],[-1.45633,41.99066],[-1.45441,41.99046],[-1.45292,41.99056],[-1.45149,41.99101],[-1.45076,41.99139],[-1.45009,41.9919],[-1.44985,41.99226],[-1.44951,41.99322],[-1.44923,41.99334],[-1.44925,41.99344],[-1.45044,41.9951],[-1.45244,41.99699],[-1.45412,41.99813],[-1.45579,41.99896],[-1.45789,42.00068],[-1.45838,42.00158],[-1.45864,42.00244],[-1.45838,42.00359],[-1.45791,42.00439],[-1.45705,42.00527],[-1.45599,42.00593],[-1.45315,42.00673],[-1.45203,42.00675],[-1.44905,42.00711],[-1.44827,42.00707],[-1.44608,42.0068],[-1.44434,42.00609],[-1.44392,42.00564],[-1.44331,42.00456],[-1.4432,42.00397],[-1.44325,42.0033],[-1.44342,42.00269],[-1.44384,42.00196],[-1.44545,41.99984],[-1.44486,41.99902],[-1.44471,41.99809],[-1.44378,41.99686],[-1.44314,41.9963],[-1.44223,41.99572],[-1.43796,41.99512],[-1.43536,41.99522],[-1.43129,41.99553],[-1.43121,41.99531],[-1.43135,41.99504],[-1.43252,41.99465],[-1.4335,41.99398],[-1.43417,41.99389],[-1.43557,41.99403],[-1.4356,41.99382],[-1.43388,41.99309],[-1.43147,41.99231],[-1.42899,41.99181],[-1.42722,41.99291],[-1.42754,41.99371],[-1.42929,41.99461],[-1.43116,41.99503],[-1.43087,41.9964],[-1.4301,41.99893],[-1.42992,42.00007],[-1.42969,42.00026],[-1.4277,41.99888]]]}},{"type":"Feature","properties":{"id":"3105702001"},"geometry":{"type":"Polygon","coordinates":[[[-1.43233,41.95288],[-1.43482,41.95241],[-1.44155,41.95091],[-1.44286,41.95146],[-1.45166,41.95365],[-1.45289,41.95376],[-1.45533,41.95395],[-1.46559,41.95326],[-1.46714,41.95364],[-1.46774,41.95344],[-1.46878,41.95363],[-1.4737,41.95396],[-1.47798,41.95389],[-1.4804,41.95341],[-1.48407,41.95229],[-1.48516,41.95184],[-1.48887,41.95069],[-1.49165,41.9501],[-1.49386,41.94976],[-1.49412,41.94991],[-1.49544,41.94983],[-1.50046,41.94923],[-1.50308,41.94906],[-1.5053,41.94865],[-1.50844,41.94829],[-1.51225,41.94824],[-1.49662,41.96097],[-1.49656,41.96122],[-1.48726,41.96863],[-1.48174,41.97188],[-1.48133,41.97208],[-1.48044,41.97228],[-1.47608,41.97317],[-1.46799,41.97556],[-1.44573,41.98142],[-1.44479,41.9813],[-1.44407,41.9808],[-1.44295,41.97901],[-1.44138,41.97732],[-1.43904,41.97434],[-1.43601,41.9713],[-1.43559,41.96972],[-1.43253,41.95505],[-1.43235,41.95401],[-1.43233,41.95288]]]}}]}