{"type":"FeatureCollection","features":[{"type":"Feature","properties":{"id":"3108401001"},"geometry":{"type":"Polygon","coordinates":[[[-2.05378,42.97261],[-2.05653,42.97239],[-2.05743,42.97124],[-2.05919,42.96992],[-2.06017,42.96968],[-2.06119,42.96921],[-2.06245,42.96884],[-2.063,42.96858],[-2.06453,42.96817],[-2.06593,42.96757],[-2.06806,42.96639],[-2.07194,42.96684],[-2.0741,42.96628],[-2.07561,42.96632],[-2.07633,42.96626],[-2.07711,42.96595],[-2.07834,42.9652],[-2.07943,42.96481],[-2.08037,42.96472],[-2.08139,42.9648],[-2.08145,42.9646],[-2.07971,42.96308],[-2.07913,42.96239],[-2.07896,42.96204],[-2.07899,42.96181],[-2.08025,42.96154],[-2.08231,42.96158],[-2.08411,42.96139],[-2.08592,42.96093],[-2.08699,42.96037],[-2.0884,42.95912],[-2.089,42.95875],[-2.08915,42.95851],[-2.08915,42.95823],[-2.0883,42.9573],[-2.08814,42.95727],[-2.0876,42.95756],[-2.08749,42.9575],[-2.08743,42.95718],[-2.0868,42.95735],[-2.08663,42.95732],[-2.08663,42.95717],[-2.08711,42.95658],[-2.08704,42.95597],[-2.0852,42.95516],[-2.08453,42.95357],[-2.08352,42.95259],[-2.08268,42.95148],[-2.08257,42.95065],[-2.08223,42.95015],[-2.08212,42.94977],[-2.08043,42.94843],[-2.08027,42.9482],[-2.07968,42.94785],[-2.07917,42.94718],[-2.07893,42.94635],[-2.07908,42.94593],[-2.07909,42.94507],[-2.07934,42.94435],[-2.07972,42.94382],[-2.07886,42.94229],[-2.07854,42.94202],[-2.07818,42.94097],[-2.07813,42.93997],[-2.07782,42.93942],[-2.07753,42.93914],[-2.0771,42.93894],[-2.07526,42.93851],[-2.07393,42.93793],[-2.07331,42.93777],[-2.07315,42.92999],[-2.07452,42.92761],[-2.07564,42.92601],[-2.07631,42.92456],[-2.07628,42.92377],[-2.07569,42.92238],[-2.07557,42.92162],[-2.07584,42.91871],[-2.07465,42.91784],[-2.0709,42.91372],[-2.07053,42.91315],[-2.06969,42.91323],[-2.06922,42.91402],[-2.06825,42.91493],[-2.06711,42.91549],[-2.06655,42.91552],[-2.0656,42.91578],[-2.06604,42.91623],[-2.06652,42.91644],[-2.0673,42.91705],[-2.06776,42.91758],[-2.06728,42.91792],[-2.06715,42.91829],[-2.06689,42.91846],[-2.06701,42.9195],[-2.06699,42.91962],[-2.06689,42.91963],[-2.06678,42.92019],[-2.06528,42.92083],[-2.06483,42.92111],[-2.0628,42.92077],[-2.06041,42.92154],[-2.05923,42.92204],[-2.05841,42.92191],[-2.05672,42.92182],[-2.05676,42.92148],[-2.05605,42.92186],[-2.05375,42.92238],[-2.05382,42.92295],[-2.05432,42.92403],[-2.05437,42.92463],[-2.05545,42.92672],[-2.05636,42.92986],[-2.05616,42.92998],[-2.0559,42.93073],[-2.05624,42.93184],[-2.05635,42.93278],[-2.05619,42.93304],[-2.05584,42.93325],[-2.0555,42.93331],[-2.05168,42.93301],[-2.04739,42.93285],[-2.04729,42.93051],[-2.04738,42.9297],[-2.04685,42.92881],[-2.04674,42.92842],[-2.04618,42.9277],[-2.04604,42.92678],[-2.04401,42.92403],[-2.04355,42.92415],[-2.04191,42.92423],[-2.0408,42.92463],[-2.04043,42.92468],[-2.03991,42.92459],[-2.03947,42.92413],[-2.04037,42.92388],[-2.04105,42.92347],[-2.04321,42.92326],[-2.04425,42.92306],[-2.04488,42.9228],[-2.04542,42.92242],[-2.04589,42.92186],[-2.04611,42.92141],[-2.04615,42.92104],[-2.04599,42.92059],[-2.04607,42.9201],[-2.0474,42.91905],[-2.04778,42.9186],[-2.04783,42.91837],[-2.04769,42.91801],[-2.04796,42.9172],[-2.04781,42.91689],[-2.04705,42.91688],[-2.04645,42.91653],[-2.04595,42.9164],[-2.0458,42.91615],[-2.04589,42.91577],[-2.04626,42.91545],[-2.04688,42.91518],[-2.04913,42.91492],[-2.04991,42.91402],[-2.05017,42.91356],[-2.05073,42.91326],[-2.05098,42.91332],[-2.05164,42.91386],[-2.0523,42.91422],[-2.0527,42.91502],[-2.0531,42.91508],[-2.05332,42.91524],[-2.05357,42.91559],[-2.05369,42.91603],[-2.05393,42.91624],[-2.05463,42.91651],[-2.05535,42.91658],[-2.05605,42.91651],[-2.05671,42.91632],[-2.05827,42.91659],[-2.05953,42.91648],[-2.0605,42.91657],[-2.06082,42.91655],[-2.06131,42.91629],[-2.06167,42.91599],[-2.0616,42.91577],[-2.0617,42.91532],[-2.06145,42.91452],[-2.06162,42.91383],[-2.0622,42.91358],[-2.06231,42.9132],[-2.06428,42.91223],[-2.06437,42.91151],[-2.06476,42.9102],[-2.06489,42.91019],[-2.06463,42.9092],[-2.06477,42.90712],[-2.06437,42.90615],[-2.06422,42.90607],[-2.07929,42.89767],[-2.08188,42.89657],[-2.08758,42.89459],[-2.08954,42.89401],[-2.08991,42.8948],[-2.09032,42.89644],[-2.09106,42.89813],[-2.0917,42.89877],[-2.09233,42.89919],[-2.09276,42.89933],[-2.09368,42.90042],[-2.09467,42.90189],[-2.09567,42.90414],[-2.09628,42.90487],[-2.09652,42.90536],[-2.0966,42.90588],[-2.09649,42.90687],[-2.09663,42.9079],[-2.09654,42.90886],[-2.09621,42.90969],[-2.09542,42.91076],[-2.09629,42.9116],[-2.09839,42.9112],[-2.0989,42.91279],[-2.09955,42.91402],[-2.09959,42.91454],[-2.09943,42.91536],[-2.09979,42.91556],[-2.0997,42.91622],[-2.10008,42.91616],[-2.10021,42.91657],[-2.10113,42.9166],[-2.10218,42.91713],[-2.10287,42.91696],[-2.10296,42.91709],[-2.10284,42.91729],[-2.10319,42.91732],[-2.10389,42.91715],[-2.10417,42.9172],[-2.10452,42.91753],[-2.10454,42.91798],[-2.10466,42.91819],[-2.10535,42.91847],[-2.106,42.91857],[-2.10705,42.91848],[-2.10769,42.9186],[-2.10885,42.91845],[-2.10902,42.91861],[-2.10892,42.91977],[-2.10927,42.91988],[-2.10933,42.92034],[-2.10988,42.92046],[-2.10984,42.92105],[-2.11154,42.92271],[-2.11165,42.92314],[-2.11146,42.92353],[-2.1114,42.92406],[-2.11101,42.92486],[-2.11102,42.92526],[-2.11076,42.92583],[-2.11053,42.92686],[-2.11059,42.92785],[-2.11043,42.92844],[-2.11027,42.93038],[-2.11046,42.9311],[-2.11039,42.93195],[-2.11054,42.93327],[-2.11055,42.93468],[-2.11113,42.93559],[-2.11141,42.93643],[-2.11215,42.93745],[-2.11262,42.93785],[-2.11344,42.93883],[-2.11512,42.94016],[-2.11573,42.94053],[-2.11745,42.94356],[-2.11531,42.9445],[-2.11402,42.94472],[-2.11284,42.94504],[-2.10954,42.94642],[-2.1057,42.94817],[-2.10453,42.94853],[-2.1032,42.94878],[-2.103,42.94999],[-2.10308,42.95088],[-2.10351,42.95164],[-2.10473,42.95299],[-2.10478,42.95346],[-2.10465,42.95404],[-2.10418,42.95505],[-2.10345,42.95605],[-2.10293,42.95641],[-2.1012,42.9571],[-2.09887,42.95956],[-2.09759,42.96147],[-2.09691,42.96294],[-2.0968,42.9634],[-2.09626,42.96685],[-2.09603,42.96974],[-2.09533,42.97224],[-2.09358,42.97232],[-2.09235,42.97228],[-2.09057,42.97304],[-2.09039,42.97323],[-2.08938,42.97374],[-2.08877,42.97423],[-2.0881,42.9746],[-2.08731,42.97449],[-2.08668,42.9745],[-2.08447,42.97478],[-2.08003,42.97589],[-2.07879,42.97611],[-2.0751,42.97619],[-2.0728,42.97616],[-2.07022,42.97593],[-2.06679,42.97581],[-2.06236,42.97583],[-2.05871,42.976],[-2.05687,42.97582],[-2.05286,42.97591],[-2.05265,42.97518],[-2.05372,42.97345],[-2.05378,42.97261]]]}},{"type":"Feature","properties":{"id":"3108402001"},"geometry":{"type":"Polygon","coordinates":[[[-2.05017,42.91356],[-2.05018,42.91286],[-2.04988,42.9126],[-2.0496,42.91253],[-2.04919,42.91166],[-2.04864,42.91168],[-2.04836,42.91131],[-2.04895,42.91124],[-2.04884,42.91091],[-2.05021,42.91049],[-2.04642,42.90241],[-2.04612,42.90103],[-2.04572,42.90053],[-2.04586,42.90017],[-2.04586,42.89929],[-2.04515,42.89833],[-2.04457,42.8969],[-2.04452,42.8962],[-2.0446,42.89605],[-2.0449,42.89597],[-2.04495,42.89579],[-2.04413,42.89512],[-2.04251,42.89475],[-2.04235,42.8946],[-2.04227,42.8941],[-2.04235,42.89393],[-2.04334,42.89339],[-2.04781,42.89118],[-2.04971,42.88959],[-2.05003,42.89014],[-2.05023,42.89021],[-2.05043,42.89012],[-2.05046,42.88964],[-2.05016,42.88952],[-2.0502,42.88932],[-2.05008,42.889],[-2.0499,42.88886],[-2.04988,42.88856],[-2.04961,42.8884],[-2.04998,42.88808],[-2.04994,42.88764],[-2.0497,42.88741],[-2.04934,42.88734],[-2.04899,42.88713],[-2.04875,42.88681],[-2.04947,42.88646],[-2.04997,42.88671],[-2.0508,42.8859],[-2.05124,42.88525],[-2.05217,42.88518],[-2.05964,42.88305],[-2.05974,42.88273],[-2.05992,42.88313],[-2.06029,42.88331],[-2.06338,42.88148],[-2.06424,42.88085],[-2.06576,42.88003],[-2.06745,42.8799],[-2.06793,42.88036],[-2.06825,42.88112],[-2.06852,42.88145],[-2.06898,42.8817],[-2.07063,42.88214],[-2.07077,42.88122],[-2.07076,42.87799],[-2.07044,42.87689],[-2.07044,42.87646],[-2.07092,42.87423],[-2.07215,42.87164],[-2.07495,42.87191],[-2.07834,42.87295],[-2.08343,42.87435],[-2.08458,42.87437],[-2.08549,42.87455],[-2.08743,42.87533],[-2.08737,42.87652],[-2.08765,42.88087],[-2.08904,42.88345],[-2.08913,42.88381],[-2.08851,42.8851],[-2.08843,42.88565],[-2.08815,42.88635],[-2.08812,42.88721],[-2.08722,42.88859],[-2.08719,42.88895],[-2.08809,42.89145],[-2.08895,42.89312],[-2.08954,42.89401],[-2.08758,42.89459],[-2.08188,42.89657],[-2.07929,42.89767],[-2.06422,42.90607],[-2.06437,42.90615],[-2.06477,42.90712],[-2.06463,42.9092],[-2.06489,42.91019],[-2.06476,42.9102],[-2.06437,42.91151],[-2.06428,42.91223],[-2.06231,42.9132],[-2.0622,42.91358],[-2.06162,42.91383],[-2.06145,42.91452],[-2.0617,42.91532],[-2.0616,42.91577],[-2.06167,42.91599],[-2.06082,42.91655],[-2.05953,42.91648],[-2.05827,42.91659],[-2.05671,42.91632],[-2.05605,42.91651],[-2.05535,42.91658],[-2.05463,42.91651],[-2.05393,42.91624],[-2.05369,42.91603],[-2.05357,42.91559],[-2.05332,42.91524],[-2.0531,42.91508],[-2.0527,42.91502],[-2.0523,42.91422],[-2.05164,42.91386],[-2.05098,42.91332],[-2.05073,42.91326],[-2.05017,42.91356]]]}}]}