{"type":"FeatureCollection","features":[{"type":"Feature","properties":{"id":"3110701001"},"geometry":{"type":"Polygon","coordinates":[[[-1.8046,42.3252],[-1.80456,42.32362],[-1.80411,42.32097],[-1.80291,42.31735],[-1.80178,42.31504],[-1.80104,42.31245],[-1.80034,42.31111],[-1.79903,42.30951],[-1.79737,42.30856],[-1.79399,42.30585],[-1.79203,42.30269],[-1.79032,42.30079],[-1.78934,42.30001],[-1.78846,42.29948],[-1.78717,42.29898],[-1.78622,42.29847],[-1.78565,42.29793],[-1.78477,42.29668],[-1.78553,42.2958],[-1.78605,42.29452],[-1.78621,42.2937],[-1.78651,42.2915],[-1.78651,42.29056],[-1.78629,42.28939],[-1.78591,42.28837],[-1.78555,42.28764],[-1.78425,42.28659],[-1.78316,42.28631],[-1.78246,42.28597],[-1.78266,42.28582],[-1.78226,42.2857],[-1.77941,42.28202],[-1.77743,42.27734],[-1.77445,42.27434],[-1.77369,42.27318],[-1.77293,42.27116],[-1.77205,42.26718],[-1.77299,42.26671],[-1.77397,42.26567],[-1.77511,42.26508],[-1.77583,42.26449],[-1.77718,42.26374],[-1.77841,42.26344],[-1.77976,42.26329],[-1.78057,42.26285],[-1.78083,42.26369],[-1.7812,42.26426],[-1.78192,42.26503],[-1.78401,42.26662],[-1.78438,42.267],[-1.78652,42.26162],[-1.7869,42.2604],[-1.79039,42.25246],[-1.79137,42.24978],[-1.79318,42.24544],[-1.7928,42.2447],[-1.79142,42.2411],[-1.7956,42.24085],[-1.79956,42.24024],[-1.80099,42.23964],[-1.8024,42.23918],[-1.80259,42.23949],[-1.80173,42.24118],[-1.80267,42.24196],[-1.80321,42.24296],[-1.80366,42.24323],[-1.80465,42.2436],[-1.80535,42.24399],[-1.80657,42.24428],[-1.80926,42.24443],[-1.81382,42.24516],[-1.81551,42.24514],[-1.81622,42.24526],[-1.81759,42.24627],[-1.81826,42.24692],[-1.81922,42.24864],[-1.82059,42.24919],[-1.824,42.24845],[-1.82499,42.24554],[-1.8279,42.24404],[-1.82939,42.24428],[-1.83097,42.24542],[-1.83267,42.2472],[-1.83531,42.24891],[-1.83697,42.24958],[-1.83781,42.24984],[-1.8389,42.25005],[-1.84001,42.25045],[-1.84086,42.25096],[-1.84157,42.25167],[-1.8432,42.25569],[-1.84396,42.26238],[-1.84315,42.26451],[-1.84221,42.26648],[-1.84101,42.26836],[-1.83954,42.27115],[-1.83859,42.27238],[-1.83847,42.27294],[-1.83804,42.27376],[-1.83786,42.27473],[-1.83746,42.27586],[-1.83749,42.27611],[-1.83771,42.27658],[-1.83897,42.27842],[-1.83964,42.28053],[-1.8401,42.28152],[-1.84003,42.2824],[-1.83977,42.28301],[-1.83993,42.28441],[-1.84086,42.28623],[-1.84161,42.28673],[-1.84161,42.28777],[-1.84178,42.2887],[-1.84283,42.29121],[-1.84281,42.29191],[-1.84359,42.29385],[-1.84467,42.29612],[-1.84597,42.29851],[-1.84668,42.30068],[-1.84714,42.30166],[-1.84865,42.30399],[-1.84956,42.30611],[-1.85046,42.30902],[-1.85149,42.31037],[-1.85245,42.31133],[-1.85337,42.31253],[-1.85425,42.31351],[-1.85529,42.31434],[-1.85559,42.31479],[-1.85604,42.31579],[-1.85639,42.31711],[-1.85567,42.32005],[-1.8565,42.32072],[-1.85744,42.32166],[-1.85646,42.32219],[-1.85529,42.32252],[-1.85129,42.3243],[-1.84915,42.32507],[-1.84704,42.32548],[-1.84519,42.32541],[-1.84534,42.32503],[-1.84528,42.32403],[-1.84472,42.32354],[-1.84387,42.32312],[-1.843,42.32248],[-1.84112,42.32163],[-1.84023,42.32103],[-1.83908,42.32066],[-1.83642,42.31919],[-1.83336,42.31784],[-1.83172,42.31698],[-1.82983,42.31614],[-1.82666,42.32092],[-1.82338,42.32434],[-1.82102,42.32639],[-1.81846,42.32818],[-1.81632,42.32924],[-1.81521,42.32839],[-1.81387,42.32701],[-1.81298,42.32647],[-1.8125,42.32593],[-1.81181,42.32551],[-1.81085,42.32548],[-1.81012,42.32567],[-1.81009,42.32542],[-1.80942,42.32606],[-1.80833,42.32595],[-1.80824,42.32637],[-1.8075,42.32596],[-1.8046,42.3252]]]}},{"type":"Feature","properties":{"id":"3110702001"},"geometry":{"type":"Polygon","coordinates":[[[-1.76198,42.32622],[-1.76193,42.32523],[-1.76226,42.3214],[-1.76149,42.32129],[-1.7611,42.32024],[-1.75984,42.32024],[-1.7597,42.3193],[-1.75879,42.31863],[-1.75843,42.3187],[-1.75799,42.31816],[-1.7573,42.31711],[-1.75669,42.31487],[-1.75612,42.31394],[-1.75591,42.31261],[-1.75532,42.31163],[-1.75442,42.31071],[-1.75255,42.30953],[-1.75215,42.3078],[-1.75128,42.30698],[-1.74804,42.30467],[-1.74631,42.30408],[-1.74554,42.30367],[-1.74415,42.30247],[-1.74391,42.30141],[-1.74399,42.30084],[-1.74428,42.30029],[-1.74495,42.29985],[-1.74563,42.29956],[-1.74627,42.29942],[-1.74777,42.29938],[-1.74897,42.29947],[-1.75046,42.29899],[-1.75235,42.29864],[-1.7549,42.29849],[-1.75661,42.29862],[-1.75732,42.29888],[-1.75893,42.29971],[-1.75989,42.29973],[-1.7603,42.29965],[-1.76146,42.29906],[-1.76432,42.296],[-1.76467,42.29491],[-1.76512,42.2926],[-1.76486,42.29187],[-1.76454,42.29151],[-1.76302,42.291],[-1.76245,42.29071],[-1.76203,42.29039],[-1.76185,42.28999],[-1.76185,42.28972],[-1.76195,42.28943],[-1.76214,42.28927],[-1.76353,42.28865],[-1.7648,42.28858],[-1.76586,42.28876],[-1.76694,42.28929],[-1.76799,42.29034],[-1.76957,42.29231],[-1.77002,42.29276],[-1.77087,42.29329],[-1.77291,42.29415],[-1.77457,42.29473],[-1.77741,42.29527],[-1.78153,42.29647],[-1.78378,42.29671],[-1.78477,42.29668],[-1.78565,42.29793],[-1.78622,42.29847],[-1.78717,42.29898],[-1.78846,42.29948],[-1.78934,42.30001],[-1.79032,42.30079],[-1.79203,42.30269],[-1.79399,42.30585],[-1.79737,42.30856],[-1.79903,42.30951],[-1.79967,42.31019],[-1.80074,42.31172],[-1.80152,42.31391],[-1.80178,42.31504],[-1.80291,42.31735],[-1.80411,42.32097],[-1.80456,42.32362],[-1.80462,42.32487],[-1.8046,42.3252],[-1.79809,42.3238],[-1.7937,42.32259],[-1.79279,42.32248],[-1.79175,42.32297],[-1.7906,42.32392],[-1.78908,42.32456],[-1.78931,42.32526],[-1.78873,42.32538],[-1.78762,42.32623],[-1.78669,42.32657],[-1.78477,42.32655],[-1.78403,42.32661],[-1.7833,42.32677],[-1.78289,42.32661],[-1.7828,42.32674],[-1.7819,42.32722],[-1.7815,42.3276],[-1.7806,42.32791],[-1.77985,42.32832],[-1.77756,42.32869],[-1.77652,42.32879],[-1.77542,42.32878],[-1.7747,42.32891],[-1.77449,42.32885],[-1.77444,42.3284],[-1.77384,42.32716],[-1.77367,42.32654],[-1.77324,42.32608],[-1.77249,42.32606],[-1.77192,42.32589],[-1.77151,42.3259],[-1.77131,42.32575],[-1.77063,42.3258],[-1.76978,42.32574],[-1.76955,42.32559],[-1.76932,42.32563],[-1.76923,42.32559],[-1.76918,42.32504],[-1.76835,42.32509],[-1.76796,42.32526],[-1.76758,42.32527],[-1.76666,42.32567],[-1.76563,42.32595],[-1.7654,42.32585],[-1.76504,42.32587],[-1.76477,42.32574],[-1.76415,42.32574],[-1.76374,42.32582],[-1.76353,42.32595],[-1.76245,42.32608],[-1.76198,42.32622]]]}}]}