{"type":"FeatureCollection","features":[{"type":"Feature","properties":{"id":"3190201001"},"geometry":{"type":"Polygon","coordinates":[[[-1.67515,42.86539],[-1.67639,42.86382],[-1.67624,42.86325],[-1.67456,42.86265],[-1.67267,42.86138],[-1.67088,42.85991],[-1.66914,42.85982],[-1.6678,42.85947],[-1.6654,42.85838],[-1.65938,42.85197],[-1.65746,42.85031],[-1.65611,42.84987],[-1.65559,42.84921],[-1.65357,42.84714],[-1.65208,42.84656],[-1.65267,42.84619],[-1.65215,42.84419],[-1.65347,42.84404],[-1.6547,42.84413],[-1.65689,42.84382],[-1.65782,42.84352],[-1.6588,42.84241],[-1.65964,42.84097],[-1.65966,42.84014],[-1.65873,42.83721],[-1.6613,42.83675],[-1.66612,42.83357],[-1.66719,42.83433],[-1.66689,42.83453],[-1.66717,42.83475],[-1.66656,42.83516],[-1.6663,42.83492],[-1.66602,42.8351],[-1.66655,42.83552],[-1.66488,42.8366],[-1.66541,42.837],[-1.66524,42.83726],[-1.66402,42.83865],[-1.66313,42.8395],[-1.66294,42.83944],[-1.66285,42.84265],[-1.6627,42.84357],[-1.66211,42.84535],[-1.66051,42.84729],[-1.6587,42.84902],[-1.65912,42.84975],[-1.65898,42.85036],[-1.66686,42.85421],[-1.66968,42.85531],[-1.67048,42.85414],[-1.67065,42.85369],[-1.67384,42.8507],[-1.6748,42.84963],[-1.67551,42.84862],[-1.67872,42.84102],[-1.67892,42.84069],[-1.67967,42.84015],[-1.67922,42.83982],[-1.67984,42.83937],[-1.6794,42.83904],[-1.68019,42.83847],[-1.6804,42.83806],[-1.68112,42.83797],[-1.68078,42.83625],[-1.69165,42.83509],[-1.6929,42.83426],[-1.69395,42.83454],[-1.69512,42.83645],[-1.69698,42.83681],[-1.70035,42.83788],[-1.70223,42.83827],[-1.70399,42.83845],[-1.70582,42.83922],[-1.70601,42.8385],[-1.70687,42.8382],[-1.70716,42.83784],[-1.70732,42.83723],[-1.70829,42.8368],[-1.70843,42.83666],[-1.70849,42.83653],[-1.70828,42.836],[-1.70853,42.83591],[-1.70925,42.83601],[-1.7095,42.83587],[-1.70962,42.83567],[-1.70949,42.83523],[-1.70988,42.83481],[-1.7111,42.83446],[-1.71099,42.8339],[-1.71345,42.83356],[-1.71334,42.83311],[-1.71642,42.83259],[-1.717,42.83359],[-1.71716,42.83411],[-1.71702,42.83495],[-1.71671,42.8353],[-1.71803,42.83545],[-1.71819,42.8347],[-1.71837,42.83476],[-1.71882,42.83545],[-1.71998,42.83549],[-1.72077,42.83531],[-1.7215,42.83495],[-1.72034,42.8337],[-1.72144,42.83304],[-1.72251,42.834],[-1.7233,42.83496],[-1.72547,42.83865],[-1.72605,42.83945],[-1.72665,42.83992],[-1.7254,42.84083],[-1.72591,42.8417],[-1.72757,42.84265],[-1.72736,42.84363],[-1.7277,42.84502],[-1.7264,42.84626],[-1.72882,42.84698],[-1.7297,42.84695],[-1.7326,42.84743],[-1.73422,42.84784],[-1.73716,42.84824],[-1.73823,42.85132],[-1.73923,42.85294],[-1.73953,42.85382],[-1.73962,42.85456],[-1.7412,42.857],[-1.74187,42.85878],[-1.74104,42.85996],[-1.7384,42.86206],[-1.73805,42.86445],[-1.73627,42.86631],[-1.73478,42.86835],[-1.7352,42.87047],[-1.73409,42.87147],[-1.73552,42.87198],[-1.7353,42.87255],[-1.7355,42.87307],[-1.73527,42.87336],[-1.73547,42.87357],[-1.73513,42.87377],[-1.73498,42.87432],[-1.7352,42.87464],[-1.73505,42.87558],[-1.7355,42.87586],[-1.73534,42.87619],[-1.73576,42.87663],[-1.7356,42.87708],[-1.73576,42.87746],[-1.73548,42.87821],[-1.73544,42.87902],[-1.73517,42.87985],[-1.73506,42.87996],[-1.73438,42.87939],[-1.73398,42.87859],[-1.73093,42.87666],[-1.73021,42.8763],[-1.72849,42.87586],[-1.72703,42.87667],[-1.72669,42.87732],[-1.72711,42.88152],[-1.7289,42.88651],[-1.72726,42.88765],[-1.72636,42.88884],[-1.7242,42.88999],[-1.72232,42.89149],[-1.72156,42.8916],[-1.7201,42.89161],[-1.71911,42.89148],[-1.71571,42.89349],[-1.71408,42.89149],[-1.71414,42.89067],[-1.71366,42.88899],[-1.71306,42.88811],[-1.71706,42.88731],[-1.71691,42.8852],[-1.72245,42.88473],[-1.7276,42.88415],[-1.72702,42.88248],[-1.71661,42.88302],[-1.71611,42.88337],[-1.71163,42.88447],[-1.70805,42.88488],[-1.70263,42.88515],[-1.70215,42.8831],[-1.70214,42.88241],[-1.70228,42.88164],[-1.70222,42.87926],[-1.70161,42.87723],[-1.69907,42.87727],[-1.69605,42.87701],[-1.69242,42.87632],[-1.6901,42.87627],[-1.68985,42.87532],[-1.68962,42.87503],[-1.68941,42.8743],[-1.68903,42.8722],[-1.68895,42.87094],[-1.68669,42.87092],[-1.68537,42.87033],[-1.68321,42.87065],[-1.68172,42.86974],[-1.68054,42.8698],[-1.67995,42.86913],[-1.67723,42.86692],[-1.67662,42.86632],[-1.67577,42.8657],[-1.67515,42.86539]]]}},{"type":"Feature","properties":{"id":"3190201002"},"geometry":{"type":"Polygon","coordinates":[[[-1.65291,42.83315],[-1.65355,42.83268],[-1.65377,42.83265],[-1.65669,42.83106],[-1.66018,42.83078],[-1.66136,42.83086],[-1.66225,42.83126],[-1.66482,42.83266],[-1.66532,42.83307],[-1.66544,42.83336],[-1.66582,42.83341],[-1.66612,42.83357],[-1.6613,42.83675],[-1.65885,42.83719],[-1.65855,42.83707],[-1.65793,42.83706],[-1.65431,42.83656],[-1.65375,42.83616],[-1.65386,42.8348],[-1.65349,42.83388],[-1.65291,42.83315]]]}},{"type":"Feature","properties":{"id":"3190201003"},"geometry":{"type":"Polygon","coordinates":[[[-1.65291,42.83315],[-1.65349,42.83388],[-1.65386,42.8348],[-1.65375,42.83616],[-1.65431,42.83656],[-1.65793,42.83706],[-1.65855,42.83707],[-1.65885,42.83719],[-1.65873,42.83721],[-1.65966,42.84014],[-1.65964,42.84097],[-1.6588,42.84241],[-1.65782,42.84352],[-1.65689,42.84382],[-1.6547,42.84413],[-1.65347,42.84404],[-1.65215,42.84419],[-1.6511,42.84295],[-1.65213,42.83872],[-1.65242,42.8355],[-1.65095,42.83166],[-1.65115,42.83152],[-1.65291,42.83315]]]}}]}