{"type":"FeatureCollection","features":[{"type":"Feature","properties":{"id":"3201901001"},"geometry":{"type":"Polygon","coordinates":[[[-8.08057,42.4376],[-8.07464,42.43426],[-8.0773,42.43108],[-8.0777,42.43127],[-8.07775,42.4327],[-8.08023,42.43319],[-8.08053,42.43204],[-8.08129,42.43126],[-8.08186,42.4304],[-8.08476,42.43149],[-8.08551,42.43188],[-8.0863,42.4325],[-8.08425,42.43412],[-8.08386,42.43467],[-8.08309,42.43621],[-8.08257,42.4366],[-8.08192,42.43679],[-8.08124,42.43687],[-8.08057,42.4376]]]}},{"type":"Feature","properties":{"id":"3201901002"},"geometry":{"type":"Polygon","coordinates":[[[-8.08476,42.43149],[-8.08006,42.42969],[-8.08089,42.42874],[-8.07968,42.4281],[-8.07766,42.42224],[-8.07706,42.42147],[-8.07816,42.42126],[-8.07818,42.4221],[-8.07915,42.42211],[-8.07883,42.424],[-8.08046,42.42342],[-8.08236,42.42307],[-8.08485,42.42286],[-8.08579,42.42288],[-8.08672,42.42312],[-8.08716,42.4231],[-8.08798,42.42279],[-8.08825,42.42287],[-8.08925,42.42157],[-8.09058,42.42044],[-8.09077,42.42073],[-8.09102,42.42087],[-8.09222,42.4209],[-8.09286,42.42134],[-8.0931,42.42167],[-8.09351,42.42149],[-8.09403,42.42105],[-8.09455,42.42106],[-8.09538,42.42206],[-8.09594,42.4222],[-8.09694,42.4222],[-8.09637,42.42298],[-8.09583,42.42331],[-8.09586,42.42372],[-8.09604,42.42411],[-8.09768,42.42595],[-8.09709,42.42607],[-8.09345,42.42837],[-8.09217,42.42906],[-8.08845,42.43082],[-8.08779,42.43124],[-8.08628,42.43249],[-8.08551,42.43188],[-8.08476,42.43149]]]}},{"type":"Feature","properties":{"id":"3201901003"},"geometry":{"type":"Polygon","coordinates":[[[-8.06398,42.42949],[-8.06606,42.42851],[-8.06731,42.42438],[-8.06947,42.42321],[-8.06785,42.4214],[-8.067,42.42013],[-8.06534,42.41695],[-8.06609,42.41656],[-8.06721,42.41562],[-8.06796,42.41458],[-8.0683,42.41368],[-8.06878,42.41145],[-8.07473,42.41061],[-8.07636,42.41456],[-8.07776,42.41048],[-8.07961,42.41043],[-8.08017,42.41079],[-8.08096,42.41206],[-8.08248,42.4151],[-8.08313,42.41593],[-8.0842,42.41682],[-8.08217,42.41838],[-8.08111,42.41956],[-8.08015,42.41977],[-8.07915,42.42211],[-8.07818,42.4221],[-8.07816,42.42126],[-8.07706,42.42147],[-8.07766,42.42224],[-8.07854,42.42466],[-8.07782,42.42493],[-8.07787,42.4251],[-8.07771,42.42545],[-8.07784,42.426],[-8.07823,42.42629],[-8.07815,42.42661],[-8.07767,42.42694],[-8.07681,42.42729],[-8.07637,42.42727],[-8.07633,42.42681],[-8.07616,42.42664],[-8.07584,42.42653],[-8.07565,42.42653],[-8.07496,42.42689],[-8.07469,42.42663],[-8.07422,42.42662],[-8.07379,42.42707],[-8.07334,42.42727],[-8.0731,42.42783],[-8.07258,42.42816],[-8.07204,42.42822],[-8.07188,42.42779],[-8.07174,42.42774],[-8.07134,42.42777],[-8.07087,42.42811],[-8.07026,42.42869],[-8.07105,42.4289],[-8.07301,42.42977],[-8.074,42.42995],[-8.07388,42.43031],[-8.07137,42.43183],[-8.07075,42.43258],[-8.06841,42.43159],[-8.06398,42.42949]]]}},{"type":"Feature","properties":{"id":"3201901004"},"geometry":{"type":"Polygon","coordinates":[[[-8.05291,42.43471],[-8.06398,42.42949],[-8.06841,42.43159],[-8.07449,42.43417],[-8.08057,42.4376],[-8.08004,42.43798],[-8.07931,42.43784],[-8.07892,42.43752],[-8.07865,42.43748],[-8.0784,42.4375],[-8.07818,42.43773],[-8.07805,42.43844],[-8.07858,42.43942],[-8.07892,42.44041],[-8.07907,42.44128],[-8.07896,42.4416],[-8.07643,42.43986],[-8.07511,42.43982],[-8.07442,42.43968],[-8.07368,42.43931],[-8.07211,42.43827],[-8.07101,42.43852],[-8.07063,42.43844],[-8.07109,42.43721],[-8.07034,42.43733],[-8.06888,42.43705],[-8.06861,42.43677],[-8.06645,42.43715],[-8.06363,42.43855],[-8.06451,42.43926],[-8.06357,42.43978],[-8.06236,42.44071],[-8.06125,42.44213],[-8.05821,42.4434],[-8.05694,42.44187],[-8.05513,42.44037],[-8.05403,42.43596],[-8.05291,42.43471]]]}},{"type":"Feature","properties":{"id":"3201901005"},"geometry":{"type":"Polygon","coordinates":[[[-8.07816,42.43143],[-8.0773,42.43108],[-8.07388,42.43031],[-8.074,42.42995],[-8.07301,42.42977],[-8.07105,42.4289],[-8.07026,42.42869],[-8.07087,42.42811],[-8.07147,42.42773],[-8.07188,42.42779],[-8.07204,42.42822],[-8.07258,42.42816],[-8.0731,42.42783],[-8.07334,42.42727],[-8.07379,42.42707],[-8.07422,42.42662],[-8.07469,42.42663],[-8.07496,42.42689],[-8.07565,42.42653],[-8.07584,42.42653],[-8.07616,42.42664],[-8.07633,42.42681],[-8.07639,42.42727],[-8.07681,42.42729],[-8.07767,42.42694],[-8.07815,42.42661],[-8.07823,42.42629],[-8.07779,42.4259],[-8.07771,42.42545],[-8.07787,42.4251],[-8.07782,42.42493],[-8.07853,42.42466],[-8.07968,42.4281],[-8.08089,42.42874],[-8.07863,42.43132],[-8.07816,42.43143]]]}},{"type":"Feature","properties":{"id":"3201901006"},"geometry":{"type":"Polygon","coordinates":[[[-8.0777,42.43127],[-8.07816,42.43143],[-8.07863,42.43132],[-8.08006,42.42969],[-8.08186,42.4304],[-8.08129,42.43126],[-8.08053,42.43204],[-8.08023,42.43319],[-8.07775,42.4327],[-8.0777,42.43127]]]}},{"type":"Feature","properties":{"id":"3201901007"},"geometry":{"type":"Polygon","coordinates":[[[-8.07075,42.43258],[-8.07137,42.43183],[-8.07388,42.43031],[-8.0773,42.43108],[-8.07464,42.43426],[-8.07075,42.43258]]]}},{"type":"Feature","properties":{"id":"3201902001"},"geometry":{"type":"Polygon","coordinates":[[[-8.03241,42.48438],[-8.03212,42.48308],[-8.03235,42.48217],[-8.03274,42.48191],[-8.03311,42.48202],[-8.03364,42.48241],[-8.03406,42.48253],[-8.03449,42.4824],[-8.03511,42.48164],[-8.03609,42.47975],[-8.03641,42.47929],[-8.03671,42.4791],[-8.03682,42.47832],[-8.03825,42.47686],[-8.03851,42.47674],[-8.039,42.47682],[-8.04,42.47725],[-8.04047,42.47734],[-8.04076,42.47727],[-8.04219,42.47575],[-8.04138,42.47476],[-8.04099,42.47379],[-8.04107,42.47358],[-8.04197,42.47267],[-8.04368,42.47044],[-8.04579,42.4681],[-8.04699,42.46699],[-8.04728,42.46642],[-8.04755,42.46534],[-8.04809,42.46435],[-8.04807,42.46406],[-8.04771,42.46377],[-8.04781,42.46344],[-8.04727,42.46246],[-8.04665,42.46248],[-8.04496,42.46371],[-8.04426,42.46401],[-8.04351,42.4642],[-8.0416,42.46435],[-8.04093,42.46453],[-8.0407,42.46404],[-8.03999,42.46333],[-8.03944,42.46341],[-8.03876,42.46384],[-8.03804,42.46407],[-8.03763,42.46395],[-8.03731,42.46363],[-8.03672,42.46257],[-8.03605,42.46248],[-8.03456,42.46264],[-8.03252,42.4625],[-8.03147,42.46285],[-8.02982,42.4627],[-8.02835,42.46306],[-8.02768,42.46306],[-8.02732,42.46292],[-8.02719,42.46246],[-8.02652,42.46159],[-8.02617,42.45646],[-8.02618,42.45473],[-8.02664,42.45212],[-8.02676,42.44952],[-8.02627,42.44729],[-8.02586,42.44615],[-8.02376,42.44181],[-8.0274,42.44241],[-8.02906,42.44284],[-8.03373,42.44376],[-8.05291,42.43471],[-8.05403,42.43596],[-8.05513,42.44037],[-8.05694,42.44187],[-8.05821,42.4434],[-8.06125,42.44213],[-8.06236,42.44071],[-8.06357,42.43978],[-8.06451,42.43926],[-8.06363,42.43855],[-8.06645,42.43715],[-8.06861,42.43677],[-8.06888,42.43705],[-8.07034,42.43733],[-8.07109,42.43721],[-8.07063,42.43844],[-8.07101,42.43852],[-8.07211,42.43827],[-8.07368,42.43931],[-8.07442,42.43968],[-8.07511,42.43982],[-8.07643,42.43986],[-8.07896,42.4416],[-8.07891,42.44175],[-8.07859,42.4418],[-8.07698,42.44145],[-8.0759,42.44166],[-8.07455,42.44229],[-8.07312,42.44307],[-8.07284,42.44343],[-8.07278,42.4439],[-8.07306,42.44438],[-8.07359,42.44463],[-8.07448,42.44486],[-8.0747,42.44506],[-8.07468,42.44539],[-8.07429,42.44558],[-8.07296,42.44587],[-8.07203,42.44595],[-8.0717,42.4461],[-8.07155,42.44629],[-8.0715,42.44668],[-8.07128,42.44692],[-8.07092,42.44699],[-8.06945,42.44716],[-8.06781,42.44676],[-8.06756,42.44662],[-8.06707,42.44745],[-8.06696,42.44818],[-8.06725,42.4497],[-8.06845,42.45124],[-8.0691,42.45233],[-8.06992,42.45292],[-8.07093,42.45319],[-8.07148,42.45356],[-8.07174,42.45421],[-8.07142,42.45614],[-8.07146,42.45709],[-8.07279,42.45761],[-8.07494,42.46184],[-8.0769,42.46237],[-8.0766,42.46323],[-8.07665,42.46369],[-8.07603,42.46496],[-8.07777,42.46598],[-8.07866,42.46661],[-8.07752,42.47188],[-8.07577,42.47586],[-8.07466,42.47731],[-8.07401,42.47787],[-8.07251,42.47881],[-8.0723,42.47909],[-8.07215,42.48006],[-8.07103,42.48309],[-8.06961,42.48625],[-8.07033,42.48619],[-8.06999,42.48674],[-8.06784,42.48886],[-8.06693,42.48948],[-8.06517,42.49031],[-8.06573,42.49149],[-8.06704,42.49354],[-8.06082,42.50015],[-8.05761,42.50421],[-8.05469,42.50678],[-8.05222,42.50846],[-8.05075,42.51047],[-8.05061,42.51162],[-8.04885,42.5108],[-8.03886,42.50551],[-8.0382,42.50478],[-8.03779,42.50396],[-8.03771,42.50147],[-8.03828,42.49865],[-8.0378,42.49699],[-8.03811,42.49659],[-8.03777,42.49581],[-8.03742,42.49526],[-8.03625,42.49493],[-8.03476,42.49417],[-8.03277,42.49359],[-8.03249,42.49339],[-8.03248,42.49295],[-8.03272,42.49194],[-8.03306,42.49156],[-8.03357,42.49132],[-8.03541,42.49113],[-8.03563,42.49092],[-8.03573,42.49055],[-8.0357,42.49008],[-8.03528,42.48955],[-8.03529,42.4891],[-8.03516,42.4887],[-8.03473,42.48814],[-8.03431,42.48772],[-8.0328,42.48705],[-8.03242,42.4853],[-8.03241,42.48438]]]}},{"type":"Feature","properties":{"id":"3201902002"},"geometry":{"type":"Polygon","coordinates":[[[-8.11587,42.42164],[-8.11521,42.42186],[-8.11571,42.42275],[-8.11598,42.42445],[-8.11578,42.42476],[-8.11582,42.42523],[-8.11517,42.42619],[-8.1144,42.42795],[-8.11281,42.43056],[-8.11161,42.4307],[-8.11112,42.43094],[-8.10638,42.43533],[-8.10434,42.43653],[-8.10284,42.43909],[-8.10238,42.44014],[-8.10102,42.44091],[-8.1005,42.44226],[-8.10159,42.44393],[-8.10214,42.445],[-8.10457,42.44524],[-8.10534,42.44616],[-8.10458,42.44727],[-8.104,42.4485],[-8.10415,42.45028],[-8.10789,42.45253],[-8.10988,42.45415],[-8.1075,42.46003],[-8.10382,42.46355],[-8.10281,42.46464],[-8.10212,42.46562],[-8.10133,42.46737],[-8.10073,42.4682],[-8.10016,42.46938],[-8.09873,42.46847],[-8.09751,42.46783],[-8.09644,42.46729],[-8.09506,42.46673],[-8.09482,42.46559],[-8.09334,42.46327],[-8.09266,42.46261],[-8.09033,42.46084],[-8.08981,42.45999],[-8.08855,42.45945],[-8.08771,42.45831],[-8.08616,42.45559],[-8.08492,42.45535],[-8.08432,42.45513],[-8.08338,42.45441],[-8.08286,42.45367],[-8.08086,42.45277],[-8.07998,42.4539],[-8.07979,42.45441],[-8.07987,42.45647],[-8.07946,42.45845],[-8.07956,42.45907],[-8.07992,42.45998],[-8.07829,42.46074],[-8.07739,42.46098],[-8.0769,42.46237],[-8.07494,42.46184],[-8.07279,42.45761],[-8.07146,42.45709],[-8.07142,42.45614],[-8.07174,42.45421],[-8.07148,42.45356],[-8.07093,42.45319],[-8.06992,42.45292],[-8.0691,42.45233],[-8.06845,42.45124],[-8.06725,42.4497],[-8.06696,42.44818],[-8.06707,42.44745],[-8.06756,42.44662],[-8.06781,42.44676],[-8.06945,42.44716],[-8.07092,42.44699],[-8.07128,42.44692],[-8.0715,42.44668],[-8.07155,42.44629],[-8.0717,42.4461],[-8.07203,42.44595],[-8.07296,42.44587],[-8.07429,42.44558],[-8.07468,42.44539],[-8.0747,42.44506],[-8.07448,42.44486],[-8.07359,42.44463],[-8.07306,42.44438],[-8.07278,42.4439],[-8.07284,42.44343],[-8.07312,42.44307],[-8.0759,42.44166],[-8.07698,42.44145],[-8.07859,42.4418],[-8.07891,42.44175],[-8.07907,42.44128],[-8.07892,42.44041],[-8.07803,42.43829],[-8.07818,42.43773],[-8.0784,42.4375],[-8.07892,42.43752],[-8.07931,42.43784],[-8.08004,42.43798],[-8.08035,42.43783],[-8.08124,42.43687],[-8.08192,42.43679],[-8.08257,42.4366],[-8.08309,42.43621],[-8.08386,42.43467],[-8.08425,42.43412],[-8.08779,42.43124],[-8.08902,42.43053],[-8.09047,42.42989],[-8.09345,42.42837],[-8.09709,42.42607],[-8.09827,42.42584],[-8.09964,42.42571],[-8.10162,42.42532],[-8.10245,42.4253],[-8.10349,42.42543],[-8.1044,42.42541],[-8.10632,42.42516],[-8.10688,42.42525],[-8.10657,42.42457],[-8.10661,42.42441],[-8.10682,42.42419],[-8.10745,42.42401],[-8.10773,42.4238],[-8.10792,42.42347],[-8.1073,42.42278],[-8.1065,42.42243],[-8.10673,42.42161],[-8.10657,42.42028],[-8.10684,42.41997],[-8.10774,42.41929],[-8.10846,42.41983],[-8.10958,42.42024],[-8.11006,42.4203],[-8.11116,42.42093],[-8.1121,42.42126],[-8.11233,42.42154],[-8.11242,42.42144],[-8.11331,42.42145],[-8.11375,42.42124],[-8.11404,42.42076],[-8.11429,42.4206],[-8.1148,42.42003],[-8.11507,42.41944],[-8.1155,42.42024],[-8.11554,42.42084],[-8.11584,42.42136],[-8.11612,42.42142],[-8.11587,42.42164]]]}},{"type":"Feature","properties":{"id":"3201903001"},"geometry":{"type":"Polygon","coordinates":[[[-8.07915,42.42211],[-8.08015,42.41977],[-8.08111,42.41956],[-8.08217,42.41838],[-8.0842,42.41682],[-8.08313,42.41593],[-8.08248,42.4151],[-8.08096,42.41206],[-8.08017,42.41079],[-8.07961,42.41043],[-8.07776,42.41048],[-8.07636,42.41456],[-8.07473,42.41061],[-8.06878,42.41145],[-8.0683,42.41368],[-8.06796,42.41458],[-8.06721,42.41562],[-8.06609,42.41656],[-8.06534,42.41695],[-8.06396,42.41351],[-8.06351,42.41285],[-8.06251,42.41199],[-8.06149,42.41076],[-8.061,42.40619],[-8.06017,42.40022],[-8.06418,42.39997],[-8.06669,42.39969],[-8.06905,42.39953],[-8.07407,42.39893],[-8.08021,42.39869],[-8.08532,42.39832],[-8.08818,42.39792],[-8.09145,42.39731],[-8.09816,42.39585],[-8.1038,42.39303],[-8.10421,42.39272],[-8.10415,42.39077],[-8.10437,42.38754],[-8.10676,42.38787],[-8.10904,42.38804],[-8.11209,42.38783],[-8.11503,42.38895],[-8.11549,42.38854],[-8.11547,42.38781],[-8.11578,42.38745],[-8.11798,42.38619],[-8.11817,42.38586],[-8.11772,42.38543],[-8.11776,42.38515],[-8.11797,42.38483],[-8.11909,42.38389],[-8.11951,42.38306],[-8.11988,42.3826],[-8.12042,42.38221],[-8.12118,42.38188],[-8.12179,42.38183],[-8.12223,42.3819],[-8.12284,42.38208],[-8.12327,42.38236],[-8.12347,42.38284],[-8.12457,42.3846],[-8.12642,42.38709],[-8.12755,42.38749],[-8.12826,42.38763],[-8.12999,42.38774],[-8.1305,42.38789],[-8.1307,42.38814],[-8.13106,42.38906],[-8.13143,42.38951],[-8.13191,42.38992],[-8.13264,42.39032],[-8.13413,42.39093],[-8.13497,42.39114],[-8.13629,42.39127],[-8.13686,42.39121],[-8.13772,42.39097],[-8.14001,42.38966],[-8.14016,42.39108],[-8.13833,42.3953],[-8.13964,42.40391],[-8.13959,42.40433],[-8.13931,42.40468],[-8.13834,42.40519],[-8.13704,42.40548],[-8.13482,42.40542],[-8.13438,42.40605],[-8.13401,42.40634],[-8.13297,42.40648],[-8.13216,42.40607],[-8.13023,42.40437],[-8.12988,42.4042],[-8.12931,42.40413],[-8.1281,42.40418],[-8.12668,42.4046],[-8.12582,42.40527],[-8.12538,42.4059],[-8.12505,42.40611],[-8.12456,42.40622],[-8.12326,42.40618],[-8.12267,42.40629],[-8.12159,42.40699],[-8.12101,42.40728],[-8.12061,42.40733],[-8.12028,42.40723],[-8.12001,42.40701],[-8.11983,42.40662],[-8.11977,42.40567],[-8.11948,42.40524],[-8.11901,42.40499],[-8.11848,42.4049],[-8.11804,42.40493],[-8.11765,42.40514],[-8.11733,42.40555],[-8.11707,42.40608],[-8.11699,42.4067],[-8.11746,42.40806],[-8.11745,42.40852],[-8.11731,42.40886],[-8.11652,42.40917],[-8.11625,42.40939],[-8.11529,42.41148],[-8.11523,42.41195],[-8.11536,42.41239],[-8.11566,42.41255],[-8.11616,42.41262],[-8.11765,42.41234],[-8.11828,42.41209],[-8.11956,42.4111],[-8.11992,42.41106],[-8.12074,42.4116],[-8.12313,42.4119],[-8.12357,42.41209],[-8.12382,42.41243],[-8.12383,42.41289],[-8.12369,42.41353],[-8.12303,42.41467],[-8.12287,42.41616],[-8.12273,42.41649],[-8.12127,42.41747],[-8.12108,42.41784],[-8.12161,42.41827],[-8.12287,42.41838],[-8.12328,42.41863],[-8.12352,42.41908],[-8.12348,42.41956],[-8.12316,42.41997],[-8.12172,42.42052],[-8.11839,42.42107],[-8.1169,42.42141],[-8.11569,42.42181],[-8.11612,42.42142],[-8.11584,42.42136],[-8.11554,42.42084],[-8.1155,42.42024],[-8.11507,42.41944],[-8.1148,42.42003],[-8.11429,42.4206],[-8.11404,42.42076],[-8.11375,42.42124],[-8.11331,42.42145],[-8.11242,42.42144],[-8.11233,42.42154],[-8.1121,42.42126],[-8.11116,42.42093],[-8.11006,42.4203],[-8.10958,42.42024],[-8.10846,42.41983],[-8.10774,42.41929],[-8.10684,42.41997],[-8.10657,42.42028],[-8.10673,42.42161],[-8.1065,42.42243],[-8.1073,42.42278],[-8.10792,42.42347],[-8.10773,42.4238],[-8.10745,42.42401],[-8.10682,42.42419],[-8.10661,42.42441],[-8.10657,42.42457],[-8.10688,42.42525],[-8.10632,42.42516],[-8.1044,42.42541],[-8.10349,42.42543],[-8.10245,42.4253],[-8.10162,42.42532],[-8.09964,42.42571],[-8.09768,42.42595],[-8.09604,42.42411],[-8.09586,42.42372],[-8.09583,42.42331],[-8.09637,42.42298],[-8.09694,42.4222],[-8.09594,42.4222],[-8.09538,42.42206],[-8.09455,42.42106],[-8.09403,42.42105],[-8.09318,42.42169],[-8.09286,42.42134],[-8.09222,42.4209],[-8.09102,42.42087],[-8.09077,42.42073],[-8.09058,42.42044],[-8.08925,42.42157],[-8.08825,42.42287],[-8.08798,42.42279],[-8.08716,42.4231],[-8.08672,42.42312],[-8.08579,42.42288],[-8.08485,42.42286],[-8.08236,42.42307],[-8.08046,42.42342],[-8.07883,42.424],[-8.07915,42.42211]]]}}]}