{"type":"FeatureCollection","features":[{"type":"Feature","properties":{"id":"3203601001"},"geometry":{"type":"Polygon","coordinates":[[[-7.70257,42.19361],[-7.70385,42.19291],[-7.7043,42.19197],[-7.70499,42.19118],[-7.70591,42.19038],[-7.70731,42.18978],[-7.709,42.18924],[-7.7113,42.18893],[-7.71187,42.18922],[-7.71264,42.18922],[-7.71419,42.1888],[-7.71536,42.18889],[-7.71586,42.18918],[-7.71598,42.18947],[-7.71652,42.19],[-7.71661,42.1906],[-7.71643,42.19209],[-7.71671,42.19253],[-7.71733,42.19259],[-7.71833,42.19254],[-7.71915,42.19213],[-7.71937,42.19181],[-7.71956,42.19109],[-7.72012,42.19039],[-7.72162,42.18702],[-7.72259,42.18664],[-7.72292,42.18606],[-7.72363,42.18561],[-7.72379,42.18525],[-7.72664,42.1843],[-7.72887,42.18411],[-7.73009,42.18414],[-7.73065,42.18395],[-7.73338,42.18392],[-7.73348,42.18413],[-7.73432,42.18473],[-7.73606,42.18509],[-7.73649,42.1853],[-7.73857,42.18523],[-7.73931,42.1854],[-7.73991,42.18565],[-7.74021,42.18572],[-7.74045,42.18563],[-7.74115,42.18588],[-7.74495,42.18626],[-7.74588,42.18618],[-7.74642,42.18649],[-7.74683,42.1864],[-7.74694,42.18616],[-7.74681,42.18561],[-7.74706,42.18556],[-7.74725,42.18564],[-7.74815,42.18571],[-7.74849,42.18562],[-7.74875,42.18521],[-7.74916,42.1849],[-7.74943,42.18535],[-7.74993,42.18565],[-7.75131,42.18742],[-7.74651,42.19985],[-7.74641,42.20099],[-7.74581,42.20253],[-7.74511,42.20265],[-7.74434,42.20324],[-7.74483,42.20427],[-7.74466,42.20488],[-7.74493,42.20511],[-7.74454,42.20556],[-7.7448,42.20617],[-7.74593,42.20678],[-7.74687,42.20699],[-7.74801,42.207],[-7.74939,42.2068],[-7.74976,42.20661],[-7.75002,42.20613],[-7.75932,42.21169],[-7.75849,42.21507],[-7.75991,42.21594],[-7.76018,42.21675],[-7.7614,42.21748],[-7.7618,42.21815],[-7.76335,42.21877],[-7.7661,42.2209],[-7.76649,42.22048],[-7.76948,42.2208],[-7.76827,42.22368],[-7.77342,42.23362],[-7.77407,42.23787],[-7.7674,42.23963],[-7.76371,42.24238],[-7.75999,42.241],[-7.75084,42.24196],[-7.74731,42.24424],[-7.74455,42.24402],[-7.73796,42.24283],[-7.73628,42.24226],[-7.73517,42.23608],[-7.73373,42.23432],[-7.73138,42.23385],[-7.73021,42.22864],[-7.73332,42.22405],[-7.7312,42.21893],[-7.72378,42.21634],[-7.72224,42.20959],[-7.71909,42.20918],[-7.7163,42.20397],[-7.7125,42.20264],[-7.70901,42.20033],[-7.70415,42.19622],[-7.70257,42.19361]]]}},{"type":"Feature","properties":{"id":"3203602001"},"geometry":{"type":"Polygon","coordinates":[[[-7.65696,42.18103],[-7.65649,42.18005],[-7.65742,42.17823],[-7.65692,42.17667],[-7.66029,42.17103],[-7.66225,42.16697],[-7.66213,42.16681],[-7.66453,42.16046],[-7.66542,42.15733],[-7.66602,42.15332],[-7.66689,42.14983],[-7.66567,42.14735],[-7.66944,42.14268],[-7.67119,42.13949],[-7.67225,42.13933],[-7.67459,42.13685],[-7.67727,42.13432],[-7.68213,42.13278],[-7.68511,42.13157],[-7.68391,42.12463],[-7.68662,42.1227],[-7.69699,42.1325],[-7.70171,42.13629],[-7.70833,42.13622],[-7.70795,42.13668],[-7.70751,42.1379],[-7.70924,42.14117],[-7.71147,42.14135],[-7.71218,42.14101],[-7.71331,42.14219],[-7.71422,42.14238],[-7.71417,42.14336],[-7.71468,42.1442],[-7.71601,42.14438],[-7.71823,42.1441],[-7.719,42.14484],[-7.73109,42.14679],[-7.73379,42.14669],[-7.7384,42.14769],[-7.74207,42.14795],[-7.74283,42.15091],[-7.74509,42.15409],[-7.74786,42.15738],[-7.75055,42.15842],[-7.75444,42.15422],[-7.76519,42.15766],[-7.76929,42.15973],[-7.76813,42.16223],[-7.76655,42.16683],[-7.76649,42.16833],[-7.75494,42.17278],[-7.75255,42.18321],[-7.75177,42.18624],[-7.75131,42.18742],[-7.74993,42.18565],[-7.74943,42.18535],[-7.74916,42.1849],[-7.74875,42.18521],[-7.74849,42.18562],[-7.74815,42.18571],[-7.74725,42.18564],[-7.74706,42.18556],[-7.74681,42.18561],[-7.74694,42.18616],[-7.74683,42.1864],[-7.74642,42.18649],[-7.74588,42.18618],[-7.74495,42.18626],[-7.74115,42.18588],[-7.74045,42.18563],[-7.74021,42.18572],[-7.73991,42.18565],[-7.73931,42.1854],[-7.73857,42.18523],[-7.73649,42.1853],[-7.73606,42.18509],[-7.73432,42.18473],[-7.73348,42.18413],[-7.73338,42.18392],[-7.73065,42.18395],[-7.73009,42.18414],[-7.72887,42.18411],[-7.72664,42.1843],[-7.72379,42.18525],[-7.72363,42.18561],[-7.72292,42.18606],[-7.72259,42.18664],[-7.72162,42.18702],[-7.72012,42.19039],[-7.71956,42.19109],[-7.71937,42.19181],[-7.71915,42.19213],[-7.71833,42.19254],[-7.71733,42.19259],[-7.71671,42.19253],[-7.71643,42.19209],[-7.71661,42.1906],[-7.71652,42.19],[-7.71598,42.18947],[-7.71586,42.18918],[-7.71536,42.18889],[-7.71419,42.1888],[-7.71264,42.18922],[-7.71187,42.18922],[-7.7113,42.18893],[-7.709,42.18924],[-7.70731,42.18978],[-7.70591,42.19038],[-7.70499,42.19118],[-7.7043,42.19197],[-7.70385,42.19291],[-7.70257,42.19361],[-7.69804,42.18609],[-7.69249,42.18534],[-7.68619,42.18424],[-7.68197,42.18748],[-7.68027,42.19021],[-7.67978,42.19234],[-7.67641,42.19352],[-7.67473,42.19481],[-7.67065,42.19423],[-7.66331,42.18824],[-7.6616,42.18593],[-7.65696,42.18103]]]}}]}