{"type":"FeatureCollection","features":[{"type":"Feature","properties":{"id":"3205201001"},"geometry":{"type":"Polygon","coordinates":[[[-7.66529,42.36487],[-7.66543,42.3648],[-7.66591,42.36366],[-7.66672,42.36237],[-7.66729,42.36173],[-7.66852,42.36067],[-7.66871,42.36009],[-7.66902,42.35976],[-7.66978,42.35931],[-7.67937,42.35214],[-7.68938,42.35354],[-7.6996,42.3574],[-7.70405,42.35896],[-7.70531,42.35998],[-7.70914,42.36271],[-7.71472,42.36627],[-7.71615,42.36544],[-7.71828,42.36369],[-7.72188,42.36307],[-7.72836,42.36248],[-7.72897,42.36247],[-7.73529,42.36408],[-7.74077,42.3646],[-7.74437,42.36514],[-7.74554,42.36445],[-7.75029,42.36446],[-7.75228,42.36507],[-7.75456,42.36453],[-7.76098,42.36261],[-7.76972,42.36101],[-7.77157,42.36076],[-7.77636,42.36039],[-7.77891,42.35837],[-7.78085,42.36194],[-7.78105,42.36399],[-7.78147,42.36547],[-7.78222,42.36693],[-7.78497,42.37096],[-7.78541,42.37124],[-7.79002,42.37284],[-7.7922,42.37579],[-7.79415,42.37675],[-7.79446,42.37836],[-7.78956,42.38159],[-7.78853,42.38246],[-7.78005,42.39163],[-7.77973,42.39176],[-7.77871,42.39163],[-7.77402,42.39223],[-7.7734,42.39244],[-7.77274,42.39253],[-7.77011,42.39246],[-7.76936,42.39223],[-7.76723,42.39125],[-7.76453,42.38872],[-7.76386,42.38908],[-7.76451,42.38987],[-7.76283,42.39009],[-7.75614,42.39058],[-7.75042,42.39121],[-7.747,42.39149],[-7.7445,42.39241],[-7.73575,42.39609],[-7.73534,42.3962],[-7.72859,42.39639],[-7.72416,42.39577],[-7.72083,42.39582],[-7.72114,42.39521],[-7.72147,42.39485],[-7.72179,42.39476],[-7.72241,42.39492],[-7.72355,42.39445],[-7.72518,42.39408],[-7.72566,42.39385],[-7.72617,42.39317],[-7.72638,42.3919],[-7.72686,42.39138],[-7.72654,42.3909],[-7.72717,42.39013],[-7.72769,42.38972],[-7.72787,42.38903],[-7.72773,42.38876],[-7.72772,42.38791],[-7.7275,42.38731],[-7.72759,42.38639],[-7.72801,42.38522],[-7.72849,42.38309],[-7.72853,42.38159],[-7.72872,42.38133],[-7.72976,42.38069],[-7.72984,42.38008],[-7.7292,42.37979],[-7.72921,42.37957],[-7.72971,42.37933],[-7.72971,42.37902],[-7.72985,42.37876],[-7.73022,42.37847],[-7.73016,42.37773],[-7.73023,42.37755],[-7.7292,42.37748],[-7.72818,42.37831],[-7.72764,42.37854],[-7.72738,42.37843],[-7.72727,42.3781],[-7.72685,42.37809],[-7.72607,42.37831],[-7.72557,42.37834],[-7.72526,42.37889],[-7.72427,42.37933],[-7.72351,42.37981],[-7.72317,42.37984],[-7.72281,42.37965],[-7.72141,42.37942],[-7.72088,42.37954],[-7.72045,42.37976],[-7.71994,42.38025],[-7.71951,42.3805],[-7.7189,42.38056],[-7.71829,42.38035],[-7.71769,42.38049],[-7.71728,42.38085],[-7.71699,42.38127],[-7.71682,42.38132],[-7.71542,42.38118],[-7.71519,42.38104],[-7.71447,42.3811],[-7.71419,42.38103],[-7.71369,42.38071],[-7.71253,42.38059],[-7.71153,42.38089],[-7.70989,42.38101],[-7.70816,42.38159],[-7.70765,42.38156],[-7.70614,42.38174],[-7.70557,42.38173],[-7.70475,42.38205],[-7.70373,42.38218],[-7.70336,42.38247],[-7.70305,42.38258],[-7.70273,42.38258],[-7.7019,42.38228],[-7.70159,42.38187],[-7.70135,42.38174],[-7.70079,42.3817],[-7.69994,42.38138],[-7.69881,42.38081],[-7.69771,42.38057],[-7.69576,42.38128],[-7.69547,42.38149],[-7.69527,42.38187],[-7.69538,42.3825],[-7.69438,42.38301],[-7.69355,42.38315],[-7.69376,42.38296],[-7.69382,42.38262],[-7.69328,42.3822],[-7.69288,42.38219],[-7.69277,42.38256],[-7.69205,42.38298],[-7.69037,42.38332],[-7.6901,42.38332],[-7.68963,42.38304],[-7.68948,42.38306],[-7.68837,42.38403],[-7.68819,42.3836],[-7.68786,42.38344],[-7.6867,42.38367],[-7.68381,42.38394],[-7.68263,42.38444],[-7.6844,42.3834],[-7.68462,42.38306],[-7.68461,42.38281],[-7.68185,42.3798],[-7.68116,42.37957],[-7.68001,42.37812],[-7.67987,42.3773],[-7.67954,42.37693],[-7.67887,42.37656],[-7.67721,42.37631],[-7.6763,42.37645],[-7.67526,42.37639],[-7.6742,42.37654],[-7.6737,42.3765],[-7.67239,42.37591],[-7.67156,42.37587],[-7.67133,42.37575],[-7.67116,42.37556],[-7.67077,42.37455],[-7.67025,42.37426],[-7.66985,42.37454],[-7.66951,42.37519],[-7.66928,42.37532],[-7.66909,42.37531],[-7.66827,42.37485],[-7.66745,42.37483],[-7.66737,42.37447],[-7.66687,42.37379],[-7.66616,42.37362],[-7.66578,42.37323],[-7.66575,42.37301],[-7.66607,42.37246],[-7.66837,42.36921],[-7.66776,42.36812],[-7.66734,42.36776],[-7.66747,42.36722],[-7.66729,42.36683],[-7.66648,42.36628],[-7.66572,42.366],[-7.66553,42.36574],[-7.66529,42.36487]]]}},{"type":"Feature","properties":{"id":"3205201003"},"geometry":{"type":"Polygon","coordinates":[[[-7.66394,42.42317],[-7.66251,42.42302],[-7.66207,42.42257],[-7.66072,42.42044],[-7.65982,42.41829],[-7.65828,42.41594],[-7.6573,42.41516],[-7.6553,42.41473],[-7.65302,42.4148],[-7.65029,42.41453],[-7.6478,42.41393],[-7.64438,42.41254],[-7.6426,42.41161],[-7.64221,42.41126],[-7.64137,42.41007],[-7.63951,42.40898],[-7.63879,42.40871],[-7.63778,42.40861],[-7.63694,42.40838],[-7.63491,42.40821],[-7.63416,42.40802],[-7.63246,42.4074],[-7.63178,42.40705],[-7.63123,42.40656],[-7.63013,42.40509],[-7.62902,42.40216],[-7.62937,42.40038],[-7.62962,42.3978],[-7.62949,42.39718],[-7.62856,42.3955],[-7.62734,42.39427],[-7.62494,42.39301],[-7.6241,42.39209],[-7.6237,42.39144],[-7.62244,42.38834],[-7.62053,42.38545],[-7.61943,42.38488],[-7.61701,42.38421],[-7.6169,42.38352],[-7.61817,42.38149],[-7.61844,42.38087],[-7.61805,42.37994],[-7.61861,42.37868],[-7.61922,42.37835],[-7.61946,42.37769],[-7.6207,42.37734],[-7.62068,42.37696],[-7.6205,42.37657],[-7.61927,42.37541],[-7.62122,42.37325],[-7.62199,42.37209],[-7.6225,42.3711],[-7.62312,42.36948],[-7.62387,42.36916],[-7.62501,42.36888],[-7.62692,42.36749],[-7.62691,42.36703],[-7.62664,42.36602],[-7.62606,42.36554],[-7.62659,42.36471],[-7.62741,42.36386],[-7.6273,42.36247],[-7.62737,42.3615],[-7.62758,42.36068],[-7.62796,42.36],[-7.62736,42.35813],[-7.62827,42.35764],[-7.62906,42.35687],[-7.63016,42.35691],[-7.6339,42.35455],[-7.64473,42.36258],[-7.64582,42.3633],[-7.65445,42.36714],[-7.65999,42.36652],[-7.66201,42.36643],[-7.66529,42.36487],[-7.66553,42.36574],[-7.66572,42.366],[-7.66648,42.36628],[-7.66729,42.36683],[-7.66747,42.36722],[-7.66734,42.36776],[-7.66776,42.36812],[-7.66837,42.36921],[-7.66607,42.37246],[-7.66575,42.37301],[-7.66578,42.37323],[-7.66616,42.37362],[-7.66687,42.37379],[-7.66737,42.37447],[-7.66745,42.37483],[-7.66827,42.37485],[-7.66909,42.37531],[-7.66928,42.37532],[-7.66951,42.37519],[-7.66985,42.37454],[-7.67025,42.37426],[-7.67077,42.37455],[-7.67116,42.37556],[-7.67133,42.37575],[-7.67156,42.37587],[-7.67239,42.37591],[-7.6737,42.3765],[-7.6742,42.37654],[-7.67526,42.37639],[-7.6763,42.37645],[-7.67721,42.37631],[-7.67887,42.37656],[-7.67954,42.37693],[-7.67987,42.3773],[-7.68001,42.37812],[-7.68116,42.37957],[-7.68185,42.3798],[-7.68461,42.38281],[-7.68462,42.38306],[-7.6844,42.3834],[-7.68263,42.38444],[-7.68381,42.38394],[-7.6867,42.38367],[-7.68786,42.38344],[-7.68819,42.3836],[-7.68837,42.38403],[-7.68948,42.38306],[-7.68963,42.38304],[-7.6901,42.38332],[-7.69037,42.38332],[-7.69205,42.38298],[-7.69277,42.38256],[-7.69288,42.38219],[-7.69328,42.3822],[-7.69382,42.38262],[-7.69376,42.38296],[-7.69355,42.38315],[-7.69438,42.38301],[-7.69538,42.3825],[-7.69527,42.38187],[-7.69547,42.38149],[-7.69576,42.38128],[-7.69771,42.38057],[-7.69881,42.38081],[-7.69994,42.38138],[-7.70079,42.3817],[-7.70135,42.38174],[-7.70159,42.38187],[-7.7019,42.38228],[-7.70273,42.38258],[-7.70305,42.38258],[-7.70336,42.38247],[-7.70373,42.38218],[-7.70475,42.38205],[-7.70557,42.38173],[-7.70614,42.38174],[-7.70765,42.38156],[-7.70816,42.38159],[-7.70989,42.38101],[-7.71153,42.38089],[-7.71253,42.38059],[-7.71369,42.38071],[-7.71419,42.38103],[-7.71447,42.3811],[-7.71519,42.38104],[-7.71542,42.38118],[-7.71682,42.38132],[-7.71699,42.38127],[-7.71728,42.38085],[-7.71769,42.38049],[-7.71829,42.38035],[-7.7189,42.38056],[-7.71951,42.3805],[-7.71994,42.38025],[-7.72045,42.37976],[-7.72088,42.37954],[-7.72141,42.37942],[-7.72281,42.37965],[-7.72317,42.37984],[-7.72351,42.37981],[-7.72427,42.37933],[-7.72526,42.37889],[-7.72557,42.37834],[-7.72607,42.37831],[-7.72685,42.37809],[-7.72727,42.3781],[-7.72738,42.37843],[-7.72764,42.37854],[-7.72818,42.37831],[-7.7292,42.37748],[-7.73023,42.37755],[-7.73016,42.37773],[-7.73022,42.37847],[-7.72985,42.37876],[-7.72971,42.37902],[-7.72971,42.37933],[-7.72921,42.37957],[-7.7292,42.37979],[-7.72984,42.38008],[-7.72976,42.38069],[-7.72872,42.38133],[-7.72853,42.38159],[-7.72849,42.38309],[-7.72801,42.38522],[-7.72759,42.38639],[-7.7275,42.38731],[-7.72772,42.38791],[-7.72773,42.38876],[-7.72787,42.38903],[-7.72769,42.38972],[-7.72717,42.39013],[-7.72654,42.3909],[-7.72686,42.39138],[-7.72638,42.3919],[-7.72617,42.39317],[-7.72566,42.39385],[-7.72518,42.39408],[-7.72355,42.39445],[-7.72241,42.39492],[-7.72179,42.39476],[-7.72147,42.39485],[-7.72114,42.39521],[-7.72083,42.39582],[-7.72416,42.39577],[-7.72859,42.39639],[-7.73534,42.3962],[-7.73575,42.39609],[-7.7445,42.39241],[-7.747,42.39149],[-7.75042,42.39121],[-7.75614,42.39058],[-7.76283,42.39009],[-7.76359,42.39085],[-7.7638,42.39131],[-7.76371,42.39244],[-7.76446,42.39467],[-7.7644,42.3957],[-7.76607,42.39699],[-7.76649,42.39758],[-7.76749,42.39951],[-7.76775,42.39952],[-7.76909,42.39881],[-7.7699,42.39863],[-7.77137,42.39793],[-7.7724,42.39759],[-7.7731,42.39746],[-7.774,42.39742],[-7.77626,42.39774],[-7.77986,42.39848],[-7.78095,42.39882],[-7.78248,42.39955],[-7.78292,42.40365],[-7.78917,42.40763],[-7.79022,42.40808],[-7.79272,42.40894],[-7.79394,42.40948],[-7.78958,42.4099],[-7.78768,42.41031],[-7.78709,42.41058],[-7.78648,42.41098],[-7.78557,42.41181],[-7.78394,42.41289],[-7.77819,42.41801],[-7.77761,42.41835],[-7.77614,42.41889],[-7.77264,42.41971],[-7.77052,42.42036],[-7.76972,42.42075],[-7.7683,42.42204],[-7.7669,42.42352],[-7.76491,42.42529],[-7.76215,42.4274],[-7.76146,42.42781],[-7.7583,42.42928],[-7.75637,42.43052],[-7.75541,42.43102],[-7.75401,42.43201],[-7.75352,42.43257],[-7.75284,42.43366],[-7.75153,42.43615],[-7.75062,42.43741],[-7.74965,42.43839],[-7.74382,42.44322],[-7.74044,42.44571],[-7.73717,42.44828],[-7.73284,42.45219],[-7.73198,42.4531],[-7.73102,42.45383],[-7.72943,42.45418],[-7.72819,42.45426],[-7.72717,42.45415],[-7.72591,42.45389],[-7.72334,42.45308],[-7.72046,42.45247],[-7.71776,42.45258],[-7.71652,42.45278],[-7.71547,42.45282],[-7.7141,42.45258],[-7.71354,42.45237],[-7.71306,42.45205],[-7.71096,42.44931],[-7.70924,42.44767],[-7.70631,42.44518],[-7.70531,42.44398],[-7.70482,42.44231],[-7.70418,42.43847],[-7.70376,42.43688],[-7.70324,42.43549],[-7.70184,42.43257],[-7.70024,42.43092],[-7.69824,42.42953],[-7.69468,42.42793],[-7.69176,42.42636],[-7.6877,42.42471],[-7.68364,42.4229],[-7.68228,42.42254],[-7.68088,42.42232],[-7.67747,42.42195],[-7.67567,42.42194],[-7.67201,42.42169],[-7.66864,42.42218],[-7.66494,42.4231],[-7.66394,42.42317]]]}}]}