{"type":"FeatureCollection","features":[{"type":"Feature","properties":{"id":"3206801001"},"geometry":{"type":"Polygon","coordinates":[[[-7.98007,42.19358],[-7.98115,42.19142],[-7.9805,42.1903],[-7.98005,42.18917],[-7.97904,42.18906],[-7.97855,42.18775],[-7.97855,42.18716],[-7.979,42.18566],[-7.97893,42.18505],[-7.97864,42.18418],[-7.97859,42.18339],[-7.97884,42.18257],[-7.97792,42.18208],[-7.97755,42.18162],[-7.97728,42.18104],[-7.97571,42.18014],[-7.975,42.18014],[-7.97596,42.17899],[-7.97695,42.17745],[-7.97877,42.17503],[-7.97963,42.17406],[-7.98116,42.17289],[-7.98357,42.17174],[-7.9841,42.17105],[-7.987,42.16879],[-7.98785,42.16826],[-7.98899,42.16684],[-7.99169,42.16683],[-7.99302,42.16715],[-7.99339,42.16716],[-7.99399,42.16683],[-7.99527,42.16683],[-7.9956,42.16732],[-7.99758,42.16764],[-8.0029,42.16607],[-8.00669,42.16465],[-8.01209,42.16535],[-8.01251,42.16534],[-8.01204,42.16465],[-8.01355,42.16395],[-8.01796,42.16341],[-8.01957,42.16345],[-8.0215,42.16339],[-8.02493,42.16307],[-8.02549,42.16242],[-8.02623,42.16016],[-8.02571,42.15934],[-8.0262,42.15791],[-8.02564,42.15693],[-8.02606,42.15608],[-8.02605,42.15575],[-8.02578,42.15517],[-8.02516,42.15451],[-8.02525,42.15398],[-8.02625,42.15302],[-8.0256,42.15246],[-8.02553,42.1519],[-8.02631,42.15116],[-8.02646,42.15048],[-8.0275,42.15015],[-8.0276,42.14988],[-8.02753,42.1492],[-8.02742,42.14904],[-8.02679,42.14888],[-8.02669,42.14871],[-8.02689,42.1485],[-8.02771,42.14852],[-8.02803,42.14845],[-8.0282,42.14829],[-8.02823,42.14762],[-8.02864,42.14738],[-8.02886,42.14712],[-8.02904,42.14634],[-8.02941,42.14622],[-8.02957,42.14607],[-8.02955,42.14568],[-8.02925,42.14522],[-8.02995,42.14492],[-8.03084,42.14489],[-8.03222,42.14502],[-8.03297,42.14472],[-8.03703,42.14561],[-8.03768,42.14565],[-8.03955,42.1453],[-8.04072,42.14527],[-8.04167,42.14542],[-8.04805,42.14722],[-8.04858,42.14883],[-8.0512,42.15156],[-8.05291,42.15281],[-8.0538,42.15359],[-8.03409,42.16121],[-8.03411,42.16773],[-8.03308,42.16897],[-8.03223,42.17033],[-8.03168,42.173],[-8.03187,42.17408],[-8.0314,42.17521],[-8.03152,42.1758],[-8.03111,42.17579],[-8.03151,42.17666],[-8.03062,42.17914],[-8.03088,42.18076],[-8.03125,42.18154],[-8.03141,42.18229],[-8.03218,42.18266],[-8.03233,42.18297],[-8.03227,42.18342],[-8.03193,42.18398],[-8.03147,42.18452],[-8.03046,42.18523],[-8.03092,42.18617],[-8.03674,42.18804],[-8.03615,42.19353],[-8.03578,42.19376],[-8.03636,42.19428],[-8.03692,42.19448],[-8.03829,42.19467],[-8.03937,42.1947],[-8.04096,42.19541],[-8.04259,42.19559],[-8.0425,42.19666],[-8.04161,42.19805],[-8.04073,42.19919],[-8.03964,42.19939],[-8.03763,42.19952],[-8.03701,42.19981],[-8.03497,42.1996],[-8.03472,42.19938],[-8.03453,42.19897],[-8.03411,42.19878],[-8.03357,42.19875],[-8.03312,42.19894],[-8.03278,42.19918],[-8.03194,42.20025],[-8.03221,42.20073],[-8.03231,42.20134],[-8.03334,42.20356],[-8.03299,42.20419],[-8.03239,42.20358],[-8.032,42.20344],[-8.03152,42.20345],[-8.0307,42.20368],[-8.03039,42.20355],[-8.02901,42.1998],[-8.02867,42.19944],[-8.0279,42.19924],[-8.02681,42.19883],[-8.02568,42.19805],[-8.02491,42.1978],[-8.0242,42.19786],[-8.02233,42.19835],[-8.02148,42.19846],[-8.0207,42.19827],[-8.01556,42.19591],[-8.01498,42.19547],[-8.01404,42.19408],[-8.01243,42.19343],[-8.01139,42.19325],[-8.01042,42.19326],[-8.00906,42.19345],[-8.0062,42.19249],[-8.00515,42.19226],[-8.00416,42.19224],[-8.00079,42.19241],[-8.00003,42.19264],[-7.99898,42.19336],[-7.99821,42.19372],[-7.99229,42.19376],[-7.99174,42.19326],[-7.99088,42.19272],[-7.98682,42.1927],[-7.98591,42.19279],[-7.98304,42.1939],[-7.98249,42.19399],[-7.98007,42.19358]]]}},{"type":"Feature","properties":{"id":"3206802001"},"geometry":{"type":"Polygon","coordinates":[[[-8.03372,42.20513],[-8.03299,42.20419],[-8.03334,42.20356],[-8.03231,42.20134],[-8.03221,42.20073],[-8.03194,42.20025],[-8.03278,42.19918],[-8.03357,42.19875],[-8.03411,42.19878],[-8.03453,42.19897],[-8.03472,42.19938],[-8.03497,42.1996],[-8.03701,42.19981],[-8.03763,42.19952],[-8.03964,42.19939],[-8.04073,42.19919],[-8.04161,42.19805],[-8.0425,42.19666],[-8.04259,42.19559],[-8.04096,42.19541],[-8.03937,42.1947],[-8.03829,42.19467],[-8.03692,42.19448],[-8.03636,42.19428],[-8.03578,42.19376],[-8.03615,42.19353],[-8.03674,42.18804],[-8.03092,42.18617],[-8.03046,42.18523],[-8.03147,42.18452],[-8.03227,42.18342],[-8.03233,42.18297],[-8.03218,42.18266],[-8.03141,42.18229],[-8.03125,42.18154],[-8.03088,42.18076],[-8.03062,42.17914],[-8.03151,42.17666],[-8.03111,42.17579],[-8.03152,42.1758],[-8.0314,42.17521],[-8.03187,42.17408],[-8.03168,42.173],[-8.03223,42.17033],[-8.03308,42.16897],[-8.03411,42.16773],[-8.03409,42.16121],[-8.0538,42.15359],[-8.05956,42.15487],[-8.06283,42.15868],[-8.06618,42.1594],[-8.06698,42.16095],[-8.06754,42.16142],[-8.0675,42.16219],[-8.06928,42.16482],[-8.06918,42.16681],[-8.07055,42.16843],[-8.07319,42.17203],[-8.07403,42.17298],[-8.07677,42.1752],[-8.07678,42.18057],[-8.07622,42.18304],[-8.07668,42.18365],[-8.07632,42.18465],[-8.07656,42.18497],[-8.07668,42.18547],[-8.08073,42.19114],[-8.08032,42.19364],[-8.07871,42.19433],[-8.07812,42.19518],[-8.07706,42.1955],[-8.07549,42.19764],[-8.07583,42.19846],[-8.07577,42.19901],[-8.07561,42.19922],[-8.07474,42.19979],[-8.07461,42.19998],[-8.07463,42.20026],[-8.0754,42.2005],[-8.07606,42.20058],[-8.07905,42.19982],[-8.07985,42.19971],[-8.08108,42.19973],[-8.08275,42.19867],[-8.08348,42.1995],[-8.08439,42.20129],[-8.08485,42.20288],[-8.08526,42.20304],[-8.08546,42.20376],[-8.0853,42.20434],[-8.08556,42.20564],[-8.08547,42.20808],[-8.08345,42.21344],[-8.08062,42.2142],[-8.07901,42.21655],[-8.07693,42.21757],[-8.07543,42.21972],[-8.07433,42.22172],[-8.07359,42.2227],[-8.07301,42.22261],[-8.07246,42.2234],[-8.07193,42.22372],[-8.07143,42.22382],[-8.06945,42.2232],[-8.06801,42.22255],[-8.06766,42.22225],[-8.06743,42.22189],[-8.06771,42.22038],[-8.0669,42.21923],[-8.06546,42.21484],[-8.0652,42.21459],[-8.06466,42.2143],[-8.06206,42.21356],[-8.06129,42.21346],[-8.06097,42.21357],[-8.06087,42.21375],[-8.06083,42.21465],[-8.06041,42.215],[-8.05985,42.21524],[-8.0586,42.21506],[-8.05792,42.21474],[-8.05765,42.21444],[-8.05761,42.21402],[-8.05783,42.21305],[-8.05901,42.21185],[-8.05905,42.21152],[-8.05894,42.21103],[-8.05845,42.21053],[-8.05777,42.21008],[-8.05658,42.20998],[-8.05629,42.21033],[-8.05592,42.21124],[-8.05556,42.21303],[-8.05524,42.21333],[-8.05472,42.21354],[-8.05207,42.21407],[-8.05146,42.21406],[-8.05072,42.21385],[-8.04997,42.21261],[-8.04878,42.21211],[-8.04812,42.21243],[-8.04715,42.21318],[-8.04666,42.21332],[-8.04609,42.21327],[-8.04538,42.213],[-8.04492,42.2127],[-8.04453,42.21222],[-8.04453,42.21163],[-8.04599,42.21052],[-8.04627,42.21009],[-8.04602,42.20939],[-8.04557,42.2091],[-8.04434,42.20862],[-8.04372,42.20851],[-8.0431,42.20854],[-8.04145,42.20893],[-8.03901,42.21026],[-8.03841,42.21035],[-8.03771,42.20991],[-8.03687,42.20873],[-8.03656,42.20848],[-8.03598,42.20826],[-8.03553,42.20825],[-8.03389,42.2087],[-8.0334,42.20871],[-8.0324,42.2085],[-8.03139,42.20809],[-8.03124,42.20792],[-8.03138,42.20742],[-8.03192,42.20659],[-8.0336,42.20564],[-8.03372,42.20513]]]}}]}