{"type":"FeatureCollection","features":[{"type":"Feature","properties":{"id":"3207501001"},"geometry":{"type":"Polygon","coordinates":[[[-7.86625,42.31742],[-7.86508,42.3124],[-7.86315,42.31253],[-7.86279,42.31289],[-7.8626,42.31251],[-7.8626,42.3107],[-7.86184,42.30906],[-7.86187,42.30868],[-7.86223,42.30794],[-7.86263,42.3065],[-7.86381,42.30539],[-7.86423,42.3047],[-7.86327,42.30231],[-7.86436,42.30197],[-7.8655,42.30003],[-7.86496,42.29949],[-7.86515,42.2991],[-7.8654,42.29889],[-7.86721,42.29863],[-7.86735,42.29835],[-7.86723,42.29423],[-7.86578,42.29256],[-7.86557,42.29201],[-7.86355,42.29115],[-7.8624,42.29001],[-7.86143,42.28965],[-7.86138,42.28951],[-7.86063,42.28903],[-7.8585,42.28781],[-7.85746,42.2867],[-7.85748,42.28582],[-7.85706,42.28553],[-7.85634,42.28519],[-7.8553,42.28506],[-7.85415,42.28366],[-7.85388,42.28304],[-7.85382,42.28199],[-7.85371,42.28188],[-7.85027,42.28128],[-7.85018,42.28108],[-7.85046,42.28023],[-7.84974,42.27982],[-7.84913,42.27877],[-7.84864,42.2783],[-7.84862,42.27746],[-7.8483,42.27686],[-7.84836,42.27456],[-7.84788,42.27413],[-7.84764,42.27369],[-7.84758,42.27308],[-7.84778,42.2731],[-7.853,42.26507],[-7.85335,42.26548],[-7.85339,42.26591],[-7.85361,42.26609],[-7.85455,42.26611],[-7.85553,42.26574],[-7.85649,42.2657],[-7.85675,42.26575],[-7.85698,42.26568],[-7.85709,42.26535],[-7.85853,42.26447],[-7.85998,42.26435],[-7.86242,42.26464],[-7.86311,42.26459],[-7.86423,42.26437],[-7.86515,42.26402],[-7.86627,42.26373],[-7.86763,42.26315],[-7.86833,42.26294],[-7.86827,42.26466],[-7.86886,42.26669],[-7.86887,42.26706],[-7.86884,42.26739],[-7.86841,42.26838],[-7.86839,42.26949],[-7.86909,42.27076],[-7.87012,42.27001],[-7.8711,42.26957],[-7.87151,42.26915],[-7.87188,42.26915],[-7.87222,42.26934],[-7.87235,42.26981],[-7.87232,42.27098],[-7.87252,42.27237],[-7.87255,42.27372],[-7.87265,42.27414],[-7.87307,42.27461],[-7.8732,42.27495],[-7.87369,42.27673],[-7.87306,42.27809],[-7.87396,42.27882],[-7.87399,42.27908],[-7.87396,42.27939],[-7.87302,42.28037],[-7.87298,42.28082],[-7.87303,42.281],[-7.8734,42.2813],[-7.87415,42.2816],[-7.87456,42.28192],[-7.87495,42.28252],[-7.87499,42.28344],[-7.87557,42.28458],[-7.87551,42.28506],[-7.87568,42.28533],[-7.87566,42.28642],[-7.87654,42.2879],[-7.87764,42.2909],[-7.87796,42.29122],[-7.87833,42.29138],[-7.87886,42.29191],[-7.87877,42.29288],[-7.87885,42.29343],[-7.87947,42.29495],[-7.87955,42.29569],[-7.87973,42.296],[-7.88008,42.29625],[-7.87886,42.29748],[-7.87642,42.29939],[-7.87576,42.29955],[-7.87561,42.30131],[-7.87562,42.30384],[-7.87502,42.3117],[-7.87384,42.31582],[-7.87201,42.31842],[-7.87092,42.31875],[-7.87123,42.31707],[-7.86625,42.31742]]]}},{"type":"Feature","properties":{"id":"3207501002"},"geometry":{"type":"Polygon","coordinates":[[[-7.83131,42.26992],[-7.83647,42.27146],[-7.84117,42.2724],[-7.84758,42.27308],[-7.84764,42.27369],[-7.84788,42.27413],[-7.84836,42.27456],[-7.8483,42.27686],[-7.84862,42.27746],[-7.84864,42.2783],[-7.84913,42.27877],[-7.84974,42.27982],[-7.85046,42.28023],[-7.85018,42.28108],[-7.85027,42.28128],[-7.85371,42.28188],[-7.85382,42.28199],[-7.85388,42.28304],[-7.85415,42.28366],[-7.8553,42.28506],[-7.85634,42.28519],[-7.85748,42.28582],[-7.85746,42.2867],[-7.8585,42.28781],[-7.86063,42.28903],[-7.86138,42.28951],[-7.86143,42.28965],[-7.86102,42.2895],[-7.85547,42.29104],[-7.85288,42.29047],[-7.84888,42.29166],[-7.84781,42.29055],[-7.83233,42.29607],[-7.82739,42.29642],[-7.82307,42.29615],[-7.82338,42.29647],[-7.82048,42.29655],[-7.8193,42.29673],[-7.81897,42.29687],[-7.81925,42.29656],[-7.81963,42.29554],[-7.81993,42.29525],[-7.82021,42.29513],[-7.82032,42.29519],[-7.82049,42.29493],[-7.81946,42.29486],[-7.81918,42.29468],[-7.81889,42.29465],[-7.8182,42.29484],[-7.81757,42.29514],[-7.81654,42.29501],[-7.81566,42.29516],[-7.81456,42.29552],[-7.81419,42.29577],[-7.81295,42.2957],[-7.81214,42.29531],[-7.81109,42.295],[-7.80987,42.29581],[-7.80623,42.29468],[-7.807,42.2931],[-7.80818,42.29106],[-7.80846,42.29064],[-7.80951,42.28973],[-7.80887,42.28876],[-7.80789,42.28799],[-7.80754,42.2875],[-7.80729,42.28694],[-7.8074,42.28597],[-7.80883,42.28591],[-7.81138,42.28504],[-7.81185,42.28462],[-7.81296,42.28482],[-7.81301,42.28437],[-7.81368,42.28401],[-7.81436,42.28332],[-7.81528,42.28303],[-7.81634,42.28175],[-7.81736,42.28136],[-7.8179,42.2808],[-7.81771,42.28042],[-7.81812,42.28032],[-7.81873,42.28095],[-7.82038,42.2795],[-7.82042,42.27934],[-7.82579,42.28088],[-7.82583,42.28103],[-7.82779,42.28171],[-7.82824,42.28109],[-7.8313,42.27826],[-7.83185,42.27767],[-7.83236,42.2768],[-7.83273,42.27577],[-7.83278,42.27517],[-7.83226,42.2728],[-7.83131,42.26992]]]}},{"type":"Feature","properties":{"id":"3207501003"},"geometry":{"type":"Polygon","coordinates":[[[-7.80631,42.31379],[-7.80522,42.30763],[-7.80532,42.30507],[-7.8019,42.30296],[-7.79873,42.30068],[-7.79388,42.29614],[-7.79427,42.29526],[-7.79423,42.29439],[-7.79464,42.2924],[-7.79401,42.29098],[-7.79371,42.28831],[-7.79411,42.28456],[-7.79577,42.28178],[-7.79876,42.28188],[-7.79637,42.27792],[-7.80376,42.27612],[-7.80894,42.27293],[-7.81131,42.26925],[-7.81778,42.26631],[-7.82774,42.26846],[-7.83048,42.26967],[-7.83131,42.26992],[-7.83226,42.2728],[-7.83278,42.27517],[-7.83273,42.27577],[-7.83236,42.2768],[-7.83185,42.27767],[-7.82824,42.28109],[-7.82779,42.28171],[-7.82583,42.28103],[-7.82579,42.28088],[-7.82042,42.27934],[-7.82038,42.2795],[-7.81873,42.28095],[-7.81812,42.28032],[-7.81771,42.28042],[-7.8179,42.2808],[-7.81736,42.28136],[-7.81634,42.28175],[-7.81528,42.28303],[-7.81436,42.28332],[-7.81368,42.28401],[-7.81301,42.28437],[-7.81296,42.28482],[-7.81185,42.28462],[-7.81138,42.28504],[-7.80883,42.28591],[-7.8074,42.28597],[-7.80729,42.28694],[-7.80754,42.2875],[-7.80789,42.28799],[-7.80887,42.28876],[-7.80951,42.28973],[-7.80846,42.29064],[-7.80818,42.29106],[-7.807,42.2931],[-7.80623,42.29468],[-7.80987,42.29581],[-7.81109,42.295],[-7.81214,42.29531],[-7.81295,42.2957],[-7.81419,42.29577],[-7.81456,42.29552],[-7.81566,42.29516],[-7.81654,42.29501],[-7.81757,42.29514],[-7.8182,42.29484],[-7.81889,42.29465],[-7.81918,42.29468],[-7.81946,42.29486],[-7.82049,42.29493],[-7.82032,42.29519],[-7.82021,42.29513],[-7.81993,42.29525],[-7.81963,42.29554],[-7.81925,42.29656],[-7.81897,42.29687],[-7.8193,42.29673],[-7.82048,42.29655],[-7.82338,42.29647],[-7.82746,42.3008],[-7.82808,42.30192],[-7.82974,42.31488],[-7.8256,42.31436],[-7.82464,42.31379],[-7.82321,42.3137],[-7.82208,42.31351],[-7.81768,42.31246],[-7.8141,42.31068],[-7.81359,42.31102],[-7.81267,42.31111],[-7.81191,42.31135],[-7.80993,42.31247],[-7.80919,42.31274],[-7.80836,42.31347],[-7.80783,42.31368],[-7.80631,42.31379]]]}},{"type":"Feature","properties":{"id":"3207502001"},"geometry":{"type":"Polygon","coordinates":[[[-7.853,42.26507],[-7.85329,42.26038],[-7.85332,42.2491],[-7.85477,42.24744],[-7.85805,42.2444],[-7.86327,42.24391],[-7.86601,42.24571],[-7.87239,42.24943],[-7.87515,42.24928],[-7.87674,42.2491],[-7.87733,42.24918],[-7.87893,42.24969],[-7.88023,42.24908],[-7.8814,42.2484],[-7.88415,42.24653],[-7.88641,42.2453],[-7.88859,42.24219],[-7.89084,42.23962],[-7.8947,42.24084],[-7.89659,42.24166],[-7.89821,42.24212],[-7.90268,42.24271],[-7.90485,42.24433],[-7.90609,42.24668],[-7.90969,42.25567],[-7.91142,42.25953],[-7.90807,42.26008],[-7.90318,42.26184],[-7.90134,42.26281],[-7.90144,42.26622],[-7.90167,42.26891],[-7.9009,42.27134],[-7.90048,42.27215],[-7.9002,42.27324],[-7.89925,42.27581],[-7.89869,42.27691],[-7.89551,42.28158],[-7.89125,42.28464],[-7.89037,42.28546],[-7.88937,42.28621],[-7.8878,42.2878],[-7.88728,42.28786],[-7.88707,42.28829],[-7.8872,42.28898],[-7.88627,42.28918],[-7.88446,42.2913],[-7.88406,42.29273],[-7.88236,42.2937],[-7.88008,42.29625],[-7.87973,42.296],[-7.87955,42.29569],[-7.87947,42.29495],[-7.87885,42.29343],[-7.87877,42.29288],[-7.87886,42.29191],[-7.87833,42.29138],[-7.87796,42.29122],[-7.87764,42.2909],[-7.87654,42.2879],[-7.87566,42.28642],[-7.87568,42.28533],[-7.87551,42.28506],[-7.87557,42.28458],[-7.87499,42.28344],[-7.87495,42.28252],[-7.87456,42.28192],[-7.87415,42.2816],[-7.8734,42.2813],[-7.87303,42.281],[-7.87298,42.28082],[-7.87302,42.28037],[-7.87396,42.27939],[-7.87399,42.27908],[-7.87396,42.27882],[-7.87306,42.27809],[-7.87369,42.27673],[-7.8732,42.27495],[-7.87307,42.27461],[-7.87265,42.27414],[-7.87255,42.27372],[-7.87252,42.27237],[-7.87232,42.27098],[-7.87235,42.26981],[-7.87222,42.26934],[-7.87188,42.26915],[-7.87151,42.26915],[-7.8711,42.26957],[-7.87012,42.27001],[-7.86909,42.27076],[-7.86839,42.26949],[-7.86841,42.26838],[-7.86884,42.26739],[-7.86887,42.26706],[-7.86886,42.26669],[-7.86827,42.26466],[-7.86833,42.26294],[-7.86763,42.26315],[-7.86627,42.26373],[-7.86515,42.26402],[-7.86423,42.26437],[-7.86311,42.26459],[-7.86242,42.26464],[-7.85998,42.26435],[-7.85853,42.26447],[-7.85709,42.26535],[-7.85698,42.26568],[-7.85675,42.26575],[-7.85649,42.2657],[-7.85553,42.26574],[-7.85455,42.26611],[-7.85361,42.26609],[-7.85339,42.26591],[-7.85335,42.26548],[-7.853,42.26507]]]}}]}