{"type":"FeatureCollection","features":[{"type":"Feature","properties":{"id":"3208701001"},"geometry":{"type":"Polygon","coordinates":[[[-7.87203,42.50287],[-7.86648,42.50405],[-7.86186,42.5041],[-7.85784,42.50188],[-7.85525,42.50075],[-7.85349,42.50033],[-7.85313,42.50004],[-7.84822,42.49822],[-7.84549,42.49835],[-7.84321,42.49676],[-7.84241,42.49094],[-7.84245,42.4905],[-7.84315,42.48856],[-7.84417,42.48616],[-7.84482,42.48526],[-7.84803,42.48151],[-7.85116,42.4791],[-7.85725,42.47386],[-7.85847,42.4722],[-7.85859,42.47019],[-7.85988,42.47023],[-7.85945,42.46718],[-7.8595,42.46597],[-7.85989,42.46457],[-7.85989,42.4636],[-7.86151,42.45945],[-7.86152,42.4551],[-7.87498,42.45484],[-7.88462,42.45439],[-7.8945,42.45112],[-7.90148,42.44853],[-7.9086,42.44846],[-7.91487,42.44861],[-7.91445,42.44915],[-7.91476,42.45002],[-7.91454,42.45046],[-7.91424,42.45073],[-7.91452,42.45131],[-7.91479,42.45119],[-7.91593,42.45102],[-7.91684,42.45097],[-7.91708,42.45085],[-7.91736,42.45045],[-7.91768,42.45032],[-7.92295,42.4536],[-7.92084,42.45339],[-7.92027,42.45389],[-7.91906,42.4555],[-7.91574,42.45569],[-7.91438,42.45699],[-7.91445,42.45863],[-7.91611,42.46066],[-7.91708,42.46157],[-7.91744,42.46268],[-7.9177,42.46498],[-7.91665,42.46631],[-7.91699,42.46706],[-7.91794,42.47035],[-7.91833,42.47125],[-7.91885,42.47213],[-7.92019,42.47316],[-7.92041,42.47345],[-7.92061,42.47438],[-7.92107,42.47956],[-7.92146,42.4824],[-7.92253,42.48273],[-7.92312,42.48301],[-7.92463,42.48417],[-7.9266,42.48609],[-7.92763,42.48757],[-7.92829,42.48899],[-7.92961,42.49096],[-7.93011,42.49147],[-7.93247,42.49326],[-7.93287,42.49375],[-7.93297,42.49407],[-7.93274,42.49448],[-7.93094,42.49637],[-7.93013,42.4969],[-7.9287,42.49749],[-7.92718,42.4979],[-7.92521,42.49828],[-7.92415,42.49843],[-7.92099,42.49859],[-7.91825,42.49902],[-7.91529,42.4996],[-7.91506,42.49978],[-7.91465,42.50072],[-7.91354,42.50837],[-7.91289,42.50839],[-7.91229,42.50827],[-7.91002,42.50751],[-7.90757,42.50742],[-7.90567,42.50725],[-7.90562,42.50659],[-7.90044,42.50696],[-7.89991,42.50656],[-7.89919,42.50624],[-7.89844,42.50631],[-7.89718,42.50564],[-7.89528,42.5076],[-7.89454,42.50854],[-7.8928,42.50909],[-7.89235,42.50933],[-7.89131,42.5101],[-7.89006,42.51076],[-7.88905,42.511],[-7.88518,42.51078],[-7.88081,42.51118],[-7.88038,42.5114],[-7.87936,42.5113],[-7.87873,42.51161],[-7.87578,42.51094],[-7.87607,42.50994],[-7.87823,42.50761],[-7.87992,42.50632],[-7.87937,42.50451],[-7.87874,42.50317],[-7.87826,42.50261],[-7.87534,42.5019],[-7.87203,42.50287]]]}},{"type":"Feature","properties":{"id":"3208702001"},"geometry":{"type":"Polygon","coordinates":[[[-7.86152,42.4551],[-7.86157,42.45381],[-7.862,42.45059],[-7.86223,42.44977],[-7.86222,42.44748],[-7.86211,42.44662],[-7.86194,42.44643],[-7.86149,42.44623],[-7.85864,42.44528],[-7.85763,42.44432],[-7.85813,42.44293],[-7.8573,42.44226],[-7.85474,42.44084],[-7.8505,42.43889],[-7.85351,42.43653],[-7.85406,42.43596],[-7.85475,42.435],[-7.85727,42.43324],[-7.85903,42.4317],[-7.85995,42.43143],[-7.86329,42.43085],[-7.86428,42.43147],[-7.8648,42.43107],[-7.86515,42.42969],[-7.86448,42.42924],[-7.86407,42.42883],[-7.86267,42.42895],[-7.86286,42.42744],[-7.86708,42.42679],[-7.86931,42.42753],[-7.87046,42.42899],[-7.87161,42.42829],[-7.87237,42.42829],[-7.87173,42.42725],[-7.87101,42.42538],[-7.87114,42.42382],[-7.87367,42.42268],[-7.87545,42.42282],[-7.87582,42.42234],[-7.8764,42.42221],[-7.87716,42.42068],[-7.87782,42.42054],[-7.87838,42.42086],[-7.87888,42.42072],[-7.87889,42.41951],[-7.87911,42.41884],[-7.88004,42.41717],[-7.88079,42.4153],[-7.88117,42.41458],[-7.88154,42.41414],[-7.88222,42.41379],[-7.88456,42.4132],[-7.88575,42.41303],[-7.88698,42.41313],[-7.88769,42.41332],[-7.8901,42.4146],[-7.89096,42.4152],[-7.89201,42.4162],[-7.89248,42.41686],[-7.89323,42.41669],[-7.89381,42.41683],[-7.89484,42.41738],[-7.89482,42.4179],[-7.89631,42.41819],[-7.89741,42.41863],[-7.89792,42.41814],[-7.89858,42.41788],[-7.89846,42.41751],[-7.89864,42.41725],[-7.899,42.41759],[-7.90072,42.4176],[-7.90283,42.41778],[-7.90395,42.41696],[-7.90484,42.41661],[-7.90572,42.41646],[-7.90844,42.41627],[-7.90885,42.41598],[-7.90979,42.41589],[-7.90984,42.41537],[-7.90864,42.41302],[-7.90854,42.41263],[-7.90874,42.41241],[-7.90975,42.41234],[-7.9117,42.4118],[-7.91251,42.41185],[-7.91549,42.41242],[-7.91641,42.41285],[-7.91693,42.41267],[-7.91753,42.41289],[-7.91842,42.41261],[-7.91839,42.41346],[-7.91793,42.41382],[-7.91798,42.41423],[-7.9173,42.41567],[-7.91714,42.4166],[-7.91685,42.41737],[-7.91592,42.41899],[-7.91507,42.41963],[-7.91431,42.41965],[-7.91403,42.41985],[-7.91433,42.42053],[-7.91423,42.42095],[-7.91379,42.42145],[-7.91267,42.42213],[-7.91228,42.42249],[-7.91203,42.42292],[-7.91199,42.4234],[-7.91227,42.42455],[-7.91218,42.42511],[-7.91233,42.42711],[-7.91217,42.42757],[-7.91242,42.4284],[-7.9136,42.42845],[-7.91517,42.43064],[-7.91571,42.43056],[-7.91661,42.43058],[-7.91767,42.43105],[-7.91889,42.43101],[-7.92203,42.43138],[-7.92224,42.43117],[-7.92234,42.43037],[-7.92404,42.42879],[-7.92461,42.4287],[-7.92541,42.42889],[-7.92754,42.42828],[-7.92806,42.42832],[-7.92876,42.42749],[-7.92931,42.42748],[-7.92989,42.42773],[-7.93082,42.42722],[-7.93069,42.42682],[-7.93242,42.4259],[-7.93263,42.42493],[-7.933,42.42466],[-7.93394,42.42366],[-7.93448,42.42348],[-7.93549,42.4228],[-7.93615,42.42252],[-7.93689,42.42277],[-7.93749,42.4228],[-7.93779,42.42311],[-7.93803,42.42367],[-7.94207,42.42511],[-7.94341,42.42776],[-7.94331,42.42949],[-7.94394,42.43195],[-7.9411,42.43288],[-7.938,42.43366],[-7.93822,42.43602],[-7.93842,42.43656],[-7.93872,42.43696],[-7.94341,42.44079],[-7.94467,42.44107],[-7.94422,42.44132],[-7.94184,42.4418],[-7.94028,42.44179],[-7.93979,42.44234],[-7.93979,42.44292],[-7.93995,42.44366],[-7.93984,42.44391],[-7.93752,42.44608],[-7.93752,42.44652],[-7.93726,42.44682],[-7.93691,42.44693],[-7.9363,42.44697],[-7.93602,42.44728],[-7.93571,42.44868],[-7.93553,42.44894],[-7.9352,42.44902],[-7.9344,42.44888],[-7.93375,42.44898],[-7.93335,42.44931],[-7.93295,42.44997],[-7.93255,42.45019],[-7.93152,42.45043],[-7.92909,42.45149],[-7.927,42.45101],[-7.92635,42.45107],[-7.92498,42.4516],[-7.92443,42.45197],[-7.92295,42.4536],[-7.91768,42.45032],[-7.91736,42.45045],[-7.91708,42.45085],[-7.91684,42.45097],[-7.91593,42.45102],[-7.91479,42.45119],[-7.91452,42.45131],[-7.91424,42.45073],[-7.91454,42.45046],[-7.91476,42.45002],[-7.91445,42.44915],[-7.91487,42.44861],[-7.9086,42.44846],[-7.90148,42.44853],[-7.8945,42.45112],[-7.88462,42.45439],[-7.87498,42.45484],[-7.86152,42.4551]]]}}]}