{"type":"FeatureCollection","features":[{"type":"Feature","properties":{"id":"3300801001"},"geometry":{"type":"Polygon","coordinates":[[[-4.83145,43.35785],[-4.82061,43.35489],[-4.81357,43.35554],[-4.80762,43.35585],[-4.78975,43.35318],[-4.77834,43.36212],[-4.77616,43.35993],[-4.77691,43.35845],[-4.78118,43.35519],[-4.78315,43.35146],[-4.78615,43.35049],[-4.79173,43.34613],[-4.79865,43.34049],[-4.80004,43.33977],[-4.80387,43.33711],[-4.81008,43.33202],[-4.81966,43.32812],[-4.82433,43.32602],[-4.82965,43.32421],[-4.83231,43.32315],[-4.83507,43.32258],[-4.83723,43.32147],[-4.8394,43.3206],[-4.84291,43.31525],[-4.84503,43.30946],[-4.84566,43.30718],[-4.84649,43.30219],[-4.84683,43.29752],[-4.88881,43.24405],[-4.89343,43.23844],[-4.89486,43.23859],[-4.89626,43.23863],[-4.89874,43.23843],[-4.90227,43.23863],[-4.9039,43.23849],[-4.90747,43.23795],[-4.90776,43.24357],[-4.90799,43.24474],[-4.90796,43.24613],[-4.90829,43.25439],[-4.90865,43.25599],[-4.912,43.26067],[-4.91297,43.26241],[-4.91382,43.26354],[-4.92333,43.27249],[-4.92625,43.27501],[-4.93,43.27902],[-4.93724,43.28757],[-4.9384,43.29061],[-4.94078,43.29525],[-4.94098,43.29624],[-4.94087,43.29759],[-4.94072,43.29805],[-4.94033,43.29866],[-4.93615,43.3039],[-4.93461,43.30534],[-4.9324,43.30809],[-4.93003,43.31081],[-4.92891,43.31179],[-4.92824,43.31276],[-4.92649,43.31488],[-4.92441,43.31794],[-4.92363,43.31955],[-4.92106,43.32365],[-4.92013,43.32497],[-4.9177,43.32902],[-4.91681,43.33037],[-4.91537,43.33208],[-4.91578,43.33376],[-4.91327,43.33522],[-4.91106,43.33587],[-4.91212,43.33667],[-4.91396,43.33994],[-4.91282,43.34257],[-4.9128,43.34298],[-4.91301,43.34335],[-4.91408,43.34395],[-4.91482,43.34496],[-4.91552,43.34553],[-4.9186,43.3466],[-4.91932,43.34778],[-4.9144,43.35179],[-4.91453,43.35278],[-4.91486,43.35353],[-4.9162,43.35472],[-4.91658,43.35535],[-4.91649,43.35597],[-4.91587,43.35707],[-4.91556,43.35804],[-4.91303,43.3557],[-4.91153,43.3547],[-4.91111,43.35479],[-4.90951,43.35424],[-4.90955,43.35385],[-4.90876,43.35368],[-4.90711,43.35253],[-4.90674,43.35212],[-4.90406,43.3531],[-4.901,43.3535],[-4.90046,43.35323],[-4.89828,43.35341],[-4.89744,43.35374],[-4.89669,43.35383],[-4.89578,43.35339],[-4.893,43.35726],[-4.89456,43.36075],[-4.89176,43.35992],[-4.88992,43.35914],[-4.88509,43.35825],[-4.88234,43.35854],[-4.87925,43.35844],[-4.8786,43.35861],[-4.87654,43.35811],[-4.87476,43.35785],[-4.87383,43.35801],[-4.86968,43.35815],[-4.86721,43.35782],[-4.86528,43.35777],[-4.86408,43.35798],[-4.86308,43.3583],[-4.86007,43.35883],[-4.85771,43.36053],[-4.85638,43.3609],[-4.85426,43.36169],[-4.85343,43.36252],[-4.85337,43.36369],[-4.85271,43.36474],[-4.85237,43.36486],[-4.85028,43.36488],[-4.84816,43.36357],[-4.8398,43.36231],[-4.83211,43.35811],[-4.83145,43.35785]]]}},{"type":"Feature","properties":{"id":"3300801002"},"geometry":{"type":"Polygon","coordinates":[[[-4.73094,43.25734],[-4.73076,43.25599],[-4.73095,43.25394],[-4.7308,43.2524],[-4.73013,43.25119],[-4.72939,43.24947],[-4.72854,43.24797],[-4.72802,43.24756],[-4.72705,43.24642],[-4.72535,43.24496],[-4.72426,43.24298],[-4.72331,43.2416],[-4.72317,43.24106],[-4.7228,43.2404],[-4.7221,43.24006],[-4.72159,43.23963],[-4.72074,43.23924],[-4.71985,43.23738],[-4.7196,43.23645],[-4.71968,43.23582],[-4.72,43.23541],[-4.72082,43.2338],[-4.72166,43.22949],[-4.72412,43.22887],[-4.72455,43.22814],[-4.72506,43.2278],[-4.72612,43.22666],[-4.72712,43.2261],[-4.7287,43.22503],[-4.72993,43.22408],[-4.7311,43.22284],[-4.73197,43.22091],[-4.73072,43.21987],[-4.72833,43.21673],[-4.72889,43.21575],[-4.73017,43.21467],[-4.73127,43.21355],[-4.7316,43.21279],[-4.7339,43.21055],[-4.7348,43.20982],[-4.73608,43.20898],[-4.73612,43.20808],[-4.73647,43.20669],[-4.73647,43.20591],[-4.73622,43.20315],[-4.73583,43.20174],[-4.73675,43.20017],[-4.73692,43.19953],[-4.73503,43.19696],[-4.73353,43.19461],[-4.73363,43.19415],[-4.73351,43.19325],[-4.73315,43.19226],[-4.7332,43.19176],[-4.73382,43.19044],[-4.73416,43.18988],[-4.73481,43.18938],[-4.73761,43.18766],[-4.73843,43.18638],[-4.74042,43.18638],[-4.74171,43.18616],[-4.74239,43.18567],[-4.74364,43.18446],[-4.74581,43.18412],[-4.74769,43.18401],[-4.7486,43.18414],[-4.74962,43.18413],[-4.75432,43.18477],[-4.75544,43.18507],[-4.76167,43.18727],[-4.76405,43.1883],[-4.76733,43.18922],[-4.76923,43.1899],[-4.77792,43.19206],[-4.77861,43.19204],[-4.77927,43.19182],[-4.77971,43.19154],[-4.78021,43.19113],[-4.78075,43.19036],[-4.78288,43.18908],[-4.78603,43.18687],[-4.7871,43.18639],[-4.7903,43.1853],[-4.79235,43.18506],[-4.79435,43.1846],[-4.79614,43.18456],[-4.79935,43.18342],[-4.80034,43.18328],[-4.8018,43.18324],[-4.80266,43.18305],[-4.80416,43.18297],[-4.80545,43.18209],[-4.80668,43.18208],[-4.81114,43.18132],[-4.81341,43.18273],[-4.81423,43.18314],[-4.8148,43.18327],[-4.81664,43.18336],[-4.81752,43.18405],[-4.8181,43.18186],[-4.81904,43.17896],[-4.82113,43.17963],[-4.82149,43.17958],[-4.82186,43.17929],[-4.82252,43.17907],[-4.824,43.17889],[-4.82598,43.1789],[-4.82688,43.17901],[-4.82785,43.17877],[-4.83092,43.1786],[-4.83139,43.17889],[-4.83237,43.17983],[-4.83314,43.18018],[-4.8341,43.18047],[-4.83697,43.18089],[-4.83789,43.18088],[-4.83908,43.18062],[-4.84102,43.18078],[-4.84119,43.18212],[-4.84095,43.18561],[-4.84074,43.18621],[-4.83948,43.18809],[-4.83928,43.18881],[-4.8392,43.18976],[-4.8403,43.19018],[-4.84266,43.19168],[-4.84347,43.19206],[-4.84489,43.19323],[-4.84559,43.19347],[-4.84734,43.19369],[-4.84771,43.19386],[-4.84862,43.19407],[-4.84915,43.19479],[-4.85049,43.19556],[-4.85276,43.1963],[-4.85283,43.19755],[-4.85427,43.19925],[-4.85521,43.20014],[-4.85598,43.20018],[-4.85615,43.20127],[-4.8556,43.20261],[-4.85608,43.20347],[-4.85644,43.20383],[-4.85753,43.20441],[-4.85952,43.20501],[-4.86135,43.20543],[-4.86169,43.20562],[-4.86168,43.20665],[-4.86138,43.20719],[-4.86036,43.20802],[-4.86016,43.20847],[-4.86007,43.20912],[-4.86016,43.20954],[-4.8615,43.21075],[-4.86254,43.21227],[-4.86033,43.21361],[-4.85955,43.21555],[-4.86029,43.21701],[-4.86035,43.21733],[-4.86016,43.21841],[-4.86164,43.21946],[-4.86323,43.22027],[-4.86444,43.2211],[-4.86578,43.2231],[-4.86677,43.22423],[-4.8673,43.22468],[-4.8687,43.22555],[-4.87124,43.22813],[-4.87361,43.22966],[-4.87448,43.23016],[-4.87907,43.23185],[-4.88014,43.23204],[-4.88145,43.2321],[-4.88211,43.232],[-4.88355,43.23285],[-4.88607,43.23468],[-4.88675,43.23553],[-4.88762,43.23623],[-4.89146,43.23636],[-4.89293,43.2382],[-4.89343,43.23844],[-4.88881,43.24405],[-4.84683,43.29752],[-4.84649,43.30219],[-4.84566,43.30718],[-4.84503,43.30946],[-4.84291,43.31525],[-4.8394,43.3206],[-4.83723,43.32147],[-4.83507,43.32258],[-4.83231,43.32315],[-4.82965,43.32421],[-4.82433,43.32602],[-4.81966,43.32812],[-4.81008,43.33202],[-4.80387,43.33711],[-4.80004,43.33977],[-4.79865,43.34049],[-4.79173,43.34613],[-4.78615,43.35049],[-4.78315,43.35146],[-4.78767,43.34287],[-4.78655,43.33966],[-4.78623,43.33914],[-4.78488,43.33776],[-4.78389,43.33058],[-4.78201,43.32372],[-4.77901,43.32174],[-4.77528,43.31556],[-4.77321,43.31193],[-4.77237,43.31113],[-4.76553,43.30555],[-4.766,43.30347],[-4.76213,43.30133],[-4.76156,43.30089],[-4.7506,43.28441],[-4.74866,43.27897],[-4.74604,43.27729],[-4.74385,43.2762],[-4.74063,43.27497],[-4.73793,43.27253],[-4.73076,43.26269],[-4.73023,43.26161],[-4.73008,43.2611],[-4.73026,43.26045],[-4.73079,43.25934],[-4.73094,43.25734]]]}}]}