{"type":"FeatureCollection","features":[{"type":"Feature","properties":{"id":"3301001001"},"geometry":{"type":"Polygon","coordinates":[[[-6.013,43.49826],[-6.01697,43.49465],[-6.01608,43.49303],[-6.01539,43.493],[-6.01431,43.49318],[-6.01249,43.49231],[-6.01169,43.49107],[-6.01096,43.49033],[-6.0096,43.48822],[-6.00967,43.48744],[-6.00778,43.48221],[-6.00744,43.48224],[-6.00725,43.48242],[-6.00351,43.48166],[-5.99838,43.48191],[-5.99749,43.48148],[-5.99608,43.47971],[-5.99589,43.47908],[-5.99511,43.4778],[-5.99478,43.47757],[-5.99412,43.47739],[-5.99386,43.47711],[-5.99337,43.47734],[-5.99307,43.47728],[-5.993,43.47669],[-5.99283,43.47642],[-5.99319,43.47626],[-5.99283,43.47591],[-5.99243,43.47581],[-5.99215,43.47543],[-5.99204,43.47548],[-5.99087,43.47462],[-5.98834,43.47345],[-5.99352,43.4667],[-5.99392,43.46627],[-5.99549,43.4652],[-5.99695,43.46336],[-5.99783,43.46208],[-5.99981,43.46044],[-6.00103,43.45804],[-6.00249,43.45638],[-6.00304,43.45514],[-6.00335,43.45473],[-6.00704,43.45065],[-6.00953,43.44855],[-6.01195,43.44696],[-6.01277,43.44509],[-6.01313,43.44457],[-6.01383,43.44287],[-6.01403,43.44287],[-6.01462,43.44085],[-6.0151,43.43679],[-6.01492,43.4343],[-6.01496,43.43268],[-6.01803,43.42834],[-6.02095,43.42463],[-6.02154,43.42438],[-6.02302,43.42326],[-6.02474,43.42269],[-6.02559,43.42182],[-6.02524,43.42068],[-6.02622,43.41921],[-6.02636,43.41866],[-6.02665,43.41834],[-6.02706,43.41814],[-6.02724,43.41774],[-6.02751,43.41755],[-6.0275,43.41737],[-6.0278,43.41721],[-6.02838,43.4166],[-6.02862,43.41548],[-6.02848,43.41524],[-6.02927,43.41454],[-6.02957,43.41411],[-6.02968,43.41356],[-6.02958,43.41325],[-6.02979,43.41308],[-6.02989,43.41221],[-6.0305,43.41188],[-6.03054,43.41163],[-6.03079,43.41135],[-6.03199,43.41076],[-6.03274,43.41025],[-6.03361,43.40909],[-6.03386,43.40844],[-6.03445,43.40776],[-6.03455,43.40713],[-6.03445,43.40574],[-6.03476,43.40535],[-6.03494,43.4048],[-6.03554,43.40407],[-6.03566,43.40284],[-6.03635,43.40275],[-6.03734,43.4028],[-6.03986,43.40326],[-6.04361,43.40349],[-6.04539,43.4035],[-6.04758,43.40314],[-6.05118,43.40301],[-6.05301,43.40276],[-6.05366,43.40247],[-6.05652,43.40211],[-6.05862,43.40209],[-6.06039,43.4025],[-6.06242,43.40327],[-6.06277,43.40315],[-6.06363,43.4025],[-6.0643,43.40218],[-6.06583,43.40344],[-6.06769,43.40735],[-6.06807,43.40789],[-6.06851,43.40788],[-6.07133,43.41086],[-6.07183,43.4111],[-6.07571,43.41209],[-6.07639,43.41216],[-6.07549,43.41999],[-6.07506,43.42218],[-6.07328,43.42774],[-6.07288,43.42998],[-6.07142,43.43213],[-6.06942,43.43413],[-6.06741,43.43555],[-6.06576,43.4372],[-6.06156,43.44103],[-6.06018,43.44198],[-6.0588,43.44268],[-6.05993,43.44284],[-6.06103,43.44642],[-6.06133,43.44875],[-6.0614,43.45201],[-6.06124,43.45282],[-6.06055,43.45389],[-6.05628,43.4567],[-6.05334,43.45982],[-6.05138,43.46439],[-6.05096,43.46707],[-6.05111,43.47005],[-6.05017,43.47138],[-6.04835,43.47232],[-6.04707,43.47284],[-6.04567,43.47419],[-6.04496,43.47525],[-6.04427,43.47684],[-6.04552,43.4781],[-6.04546,43.47906],[-6.04396,43.482],[-6.04308,43.48517],[-6.0456,43.48551],[-6.04709,43.48559],[-6.04706,43.48578],[-6.0474,43.48594],[-6.04806,43.48603],[-6.04849,43.48624],[-6.04878,43.48691],[-6.0489,43.48798],[-6.04861,43.48886],[-6.04885,43.49014],[-6.04868,43.49093],[-6.04843,43.49134],[-6.04766,43.49204],[-6.04704,43.49306],[-6.04647,43.4936],[-6.04628,43.49437],[-6.04533,43.49573],[-6.04387,43.49662],[-6.04281,43.49706],[-6.04085,43.4977],[-6.04021,43.49732],[-6.03988,43.49699],[-6.03936,43.4967],[-6.03867,43.49649],[-6.03526,43.49584],[-6.03345,43.49589],[-6.03292,43.49602],[-6.03267,43.49623],[-6.03251,43.49659],[-6.03242,43.49741],[-6.03015,43.50269],[-6.02175,43.50928],[-6.02066,43.50868],[-6.02022,43.50778],[-6.01899,43.50666],[-6.01888,43.50639],[-6.01907,43.50457],[-6.01814,43.50377],[-6.01715,43.5023],[-6.01646,43.50198],[-6.0151,43.50074],[-6.01432,43.50068],[-6.01297,43.50029],[-6.01231,43.50023],[-6.0119,43.50007],[-6.01232,43.49923],[-6.01251,43.49846],[-6.013,43.49826]]]}},{"type":"Feature","properties":{"id":"3301001003"},"geometry":{"type":"Polygon","coordinates":[[[-6.04709,43.48559],[-6.0456,43.48551],[-6.04308,43.48517],[-6.04396,43.482],[-6.04546,43.47906],[-6.04552,43.4781],[-6.04427,43.47684],[-6.04496,43.47525],[-6.04567,43.47419],[-6.04707,43.47284],[-6.04835,43.47232],[-6.05017,43.47138],[-6.05111,43.47005],[-6.05096,43.46707],[-6.05138,43.46439],[-6.05334,43.45982],[-6.05628,43.4567],[-6.06055,43.45389],[-6.06124,43.45282],[-6.0614,43.45201],[-6.06133,43.44875],[-6.06103,43.44642],[-6.05993,43.44284],[-6.0588,43.44268],[-6.06018,43.44198],[-6.06156,43.44103],[-6.06576,43.4372],[-6.06741,43.43555],[-6.06942,43.43413],[-6.07142,43.43213],[-6.07288,43.42998],[-6.07328,43.42774],[-6.07506,43.42218],[-6.07549,43.41999],[-6.07639,43.41216],[-6.07744,43.41227],[-6.07985,43.41228],[-6.08223,43.41244],[-6.08239,43.41234],[-6.0842,43.41045],[-6.08766,43.40801],[-6.08841,43.40762],[-6.08911,43.40713],[-6.08922,43.40526],[-6.08959,43.4048],[-6.09048,43.40402],[-6.09069,43.40357],[-6.09091,43.40352],[-6.09215,43.40173],[-6.0924,43.40228],[-6.09273,43.40249],[-6.09427,43.4031],[-6.09631,43.40451],[-6.09709,43.40558],[-6.09734,43.40629],[-6.0975,43.40641],[-6.10214,43.40564],[-6.10445,43.40605],[-6.10554,43.40651],[-6.10626,43.40666],[-6.10748,43.40722],[-6.10793,43.40794],[-6.10831,43.40814],[-6.10877,43.40882],[-6.10939,43.41006],[-6.1098,43.41018],[-6.11024,43.41015],[-6.11211,43.40982],[-6.11346,43.41039],[-6.1152,43.41078],[-6.11546,43.41051],[-6.11567,43.41078],[-6.11518,43.4137],[-6.11349,43.41891],[-6.11159,43.42322],[-6.11102,43.42907],[-6.11394,43.43229],[-6.11911,43.43494],[-6.11934,43.43566],[-6.11925,43.43933],[-6.1215,43.4437],[-6.1209,43.44424],[-6.11906,43.44552],[-6.11809,43.44639],[-6.11554,43.44971],[-6.11535,43.45064],[-6.11489,43.45112],[-6.11412,43.4515],[-6.1136,43.45193],[-6.11252,43.45307],[-6.11135,43.45404],[-6.10956,43.45763],[-6.10834,43.45951],[-6.1055,43.46238],[-6.10503,43.46266],[-6.10458,43.46281],[-6.10304,43.46301],[-6.10192,43.46293],[-6.10033,43.46295],[-6.0996,43.46311],[-6.09892,43.46339],[-6.09822,43.46385],[-6.09685,43.46498],[-6.09605,43.46645],[-6.09614,43.467],[-6.09751,43.46758],[-6.09845,43.46808],[-6.09869,43.46845],[-6.09858,43.46861],[-6.09683,43.46937],[-6.09633,43.46936],[-6.09545,43.46974],[-6.09268,43.47034],[-6.09085,43.47106],[-6.08956,43.47173],[-6.08752,43.47206],[-6.08705,43.47227],[-6.08654,43.47257],[-6.0862,43.47298],[-6.08592,43.4738],[-6.0859,43.47521],[-6.08562,43.47547],[-6.08449,43.47555],[-6.08281,43.47532],[-6.08202,43.47543],[-6.0802,43.47591],[-6.0792,43.47597],[-6.07878,43.47613],[-6.07491,43.47816],[-6.06584,43.48344],[-6.06547,43.4839],[-6.0653,43.48433],[-6.06511,43.48414],[-6.06381,43.48406],[-6.06308,43.48404],[-6.06149,43.48418],[-6.05754,43.48172],[-6.0567,43.48103],[-6.05547,43.48178],[-6.0514,43.48012],[-6.05114,43.48023],[-6.05085,43.48055],[-6.05045,43.48135],[-6.04982,43.482],[-6.04905,43.48254],[-6.04847,43.48316],[-6.04767,43.48441],[-6.04742,43.4852],[-6.04709,43.48559]]]}}]}