{"type":"FeatureCollection","features":[{"type":"Feature","properties":{"id":"3304001001"},"geometry":{"type":"Polygon","coordinates":[[[-5.48854,43.35237],[-5.49046,43.35254],[-5.49794,43.35222],[-5.50282,43.35227],[-5.50892,43.35272],[-5.50979,43.35242],[-5.51394,43.35215],[-5.51727,43.35213],[-5.51854,43.35237],[-5.52279,43.35237],[-5.52922,43.35605],[-5.53216,43.35973],[-5.52968,43.35928],[-5.52896,43.35977],[-5.52874,43.35981],[-5.52682,43.3597],[-5.52626,43.35984],[-5.52584,43.35977],[-5.52493,43.35983],[-5.52471,43.3598],[-5.52464,43.35957],[-5.52326,43.35865],[-5.52179,43.35818],[-5.51917,43.35808],[-5.51694,43.35848],[-5.51591,43.35889],[-5.51437,43.35926],[-5.51369,43.36017],[-5.51246,43.3602],[-5.5104,43.36158],[-5.50996,43.36112],[-5.5099,43.3607],[-5.5101,43.3604],[-5.50948,43.3601],[-5.50893,43.36041],[-5.5085,43.35976],[-5.50806,43.35991],[-5.50756,43.35936],[-5.50694,43.35912],[-5.50527,43.35911],[-5.50461,43.35927],[-5.50328,43.36008],[-5.50191,43.35993],[-5.50094,43.36044],[-5.49984,43.36076],[-5.4993,43.36078],[-5.49822,43.35969],[-5.49786,43.35963],[-5.49675,43.36027],[-5.49445,43.35821],[-5.49153,43.35595],[-5.48854,43.35237]]]}},{"type":"Feature","properties":{"id":"3304001002"},"geometry":{"type":"Polygon","coordinates":[[[-5.56754,43.35726],[-5.56869,43.35907],[-5.56865,43.36062],[-5.56836,43.36282],[-5.5682,43.36339],[-5.56769,43.36417],[-5.56767,43.36464],[-5.56787,43.36528],[-5.56776,43.36639],[-5.56807,43.3672],[-5.56793,43.36763],[-5.56671,43.3676],[-5.56614,43.36779],[-5.56364,43.36778],[-5.561,43.37156],[-5.56183,43.37227],[-5.56238,43.37329],[-5.56211,43.37454],[-5.56096,43.3765],[-5.56097,43.37815],[-5.55945,43.37813],[-5.55866,43.37787],[-5.55781,43.37907],[-5.55736,43.38],[-5.55691,43.38029],[-5.55677,43.38107],[-5.55537,43.38254],[-5.55509,43.38323],[-5.5555,43.38436],[-5.55624,43.38757],[-5.55601,43.38823],[-5.55434,43.38999],[-5.55456,43.39046],[-5.55438,43.39193],[-5.55263,43.39264],[-5.55102,43.39234],[-5.5499,43.39224],[-5.54853,43.39247],[-5.53409,43.39598],[-5.5267,43.39593],[-5.52094,43.39626],[-5.50784,43.39763],[-5.50686,43.39815],[-5.5035,43.39242],[-5.49527,43.38672],[-5.48911,43.37871],[-5.49043,43.37704],[-5.4911,43.37675],[-5.49182,43.37622],[-5.4922,43.37568],[-5.493,43.37499],[-5.49349,43.3742],[-5.49356,43.37315],[-5.4947,43.37277],[-5.49532,43.37235],[-5.49588,43.37212],[-5.49665,43.37212],[-5.49833,43.37066],[-5.49979,43.36961],[-5.4998,43.36915],[-5.49942,43.36857],[-5.49915,43.36711],[-5.4981,43.36555],[-5.49853,43.36494],[-5.50019,43.36449],[-5.50228,43.36318],[-5.50286,43.36293],[-5.50487,43.36298],[-5.5081,43.36229],[-5.50962,43.36208],[-5.51246,43.3602],[-5.51369,43.36017],[-5.51437,43.35926],[-5.51591,43.35889],[-5.51694,43.35848],[-5.51917,43.35808],[-5.52179,43.35818],[-5.52326,43.35865],[-5.52464,43.35957],[-5.52471,43.3598],[-5.52493,43.35983],[-5.52584,43.35977],[-5.52626,43.35984],[-5.52682,43.3597],[-5.52874,43.35981],[-5.52896,43.35977],[-5.52968,43.35928],[-5.53216,43.35973],[-5.53271,43.35997],[-5.53703,43.35985],[-5.53946,43.3606],[-5.54443,43.36009],[-5.54702,43.35867],[-5.54921,43.35701],[-5.55067,43.35486],[-5.55607,43.35418],[-5.55737,43.35417],[-5.55905,43.35432],[-5.56088,43.3548],[-5.56198,43.35516],[-5.56304,43.35569],[-5.56517,43.35708],[-5.56598,43.3573],[-5.56692,43.35738],[-5.56754,43.35726]]]}},{"type":"Feature","properties":{"id":"3304001003"},"geometry":{"type":"Polygon","coordinates":[[[-5.53216,43.35973],[-5.52922,43.35605],[-5.52279,43.35237],[-5.51854,43.35237],[-5.51727,43.35213],[-5.51394,43.35215],[-5.50979,43.35242],[-5.50892,43.35272],[-5.50282,43.35227],[-5.49794,43.35222],[-5.49046,43.35254],[-5.48641,43.35217],[-5.47918,43.35047],[-5.4739,43.35213],[-5.47275,43.34689],[-5.47133,43.34479],[-5.47101,43.3441],[-5.47323,43.34344],[-5.4733,43.34314],[-5.4739,43.34265],[-5.47447,43.34244],[-5.47489,43.34176],[-5.47526,43.34159],[-5.47561,43.34159],[-5.47587,43.34116],[-5.47669,43.34071],[-5.4775,43.33991],[-5.47794,43.33985],[-5.47823,43.3396],[-5.47838,43.33877],[-5.47872,43.33839],[-5.47879,43.33799],[-5.47857,43.33774],[-5.47863,43.33755],[-5.47899,43.33724],[-5.47894,43.33643],[-5.47916,43.33581],[-5.47902,43.33536],[-5.4792,43.3343],[-5.47877,43.33406],[-5.47844,43.33365],[-5.47831,43.33277],[-5.47868,43.33219],[-5.47841,43.33123],[-5.47845,43.33078],[-5.47832,43.33039],[-5.47864,43.32963],[-5.47856,43.3287],[-5.47877,43.32819],[-5.47879,43.32772],[-5.47928,43.32651],[-5.47863,43.3258],[-5.47919,43.32524],[-5.47916,43.32493],[-5.47933,43.3243],[-5.47931,43.3239],[-5.47835,43.32224],[-5.47852,43.32162],[-5.47897,43.32129],[-5.47935,43.32028],[-5.47906,43.31964],[-5.47816,43.31936],[-5.47559,43.31973],[-5.46899,43.31894],[-5.46383,43.31814],[-5.4627,43.31789],[-5.46299,43.3177],[-5.46287,43.31712],[-5.46341,43.31505],[-5.4634,43.31446],[-5.46422,43.3139],[-5.46445,43.31322],[-5.46428,43.31211],[-5.46393,43.31134],[-5.46723,43.30702],[-5.46911,43.30476],[-5.46997,43.30328],[-5.46957,43.3027],[-5.46835,43.30184],[-5.46792,43.30136],[-5.46737,43.29993],[-5.46681,43.29896],[-5.47429,43.29408],[-5.47336,43.29155],[-5.47607,43.29186],[-5.47989,43.29093],[-5.48032,43.29066],[-5.48112,43.28983],[-5.48244,43.28534],[-5.48335,43.28407],[-5.48339,43.28387],[-5.48253,43.28206],[-5.48201,43.28149],[-5.48194,43.28127],[-5.48224,43.28041],[-5.48212,43.27713],[-5.48193,43.27662],[-5.48154,43.27618],[-5.48207,43.27603],[-5.48688,43.27633],[-5.48892,43.276],[-5.49169,43.27641],[-5.49237,43.2773],[-5.49251,43.27776],[-5.49325,43.27859],[-5.49701,43.27968],[-5.49789,43.27969],[-5.49953,43.27948],[-5.49912,43.278],[-5.49989,43.27693],[-5.50137,43.27656],[-5.50148,43.27726],[-5.50224,43.27888],[-5.50205,43.27942],[-5.50239,43.27985],[-5.50284,43.28088],[-5.50303,43.28191],[-5.503,43.28442],[-5.5031,43.2848],[-5.50405,43.28643],[-5.50419,43.28724],[-5.50516,43.28869],[-5.50565,43.28995],[-5.5062,43.29192],[-5.50716,43.29293],[-5.50786,43.29391],[-5.50788,43.29512],[-5.50818,43.2957],[-5.50766,43.29584],[-5.50769,43.29679],[-5.50803,43.29746],[-5.50926,43.299],[-5.5093,43.2994],[-5.50907,43.30037],[-5.50846,43.30098],[-5.50749,43.30167],[-5.50857,43.3027],[-5.50988,43.30307],[-5.51067,43.30486],[-5.51123,43.30524],[-5.51209,43.307],[-5.51224,43.30751],[-5.51232,43.30923],[-5.51311,43.30909],[-5.51384,43.31012],[-5.51416,43.31083],[-5.51488,43.31166],[-5.515,43.31209],[-5.5153,43.31252],[-5.5154,43.31314],[-5.51479,43.3143],[-5.51578,43.31551],[-5.51611,43.31638],[-5.51598,43.31705],[-5.51942,43.3183],[-5.52094,43.31866],[-5.53156,43.32259],[-5.5318,43.32452],[-5.53164,43.32512],[-5.53228,43.32672],[-5.53553,43.32743],[-5.53688,43.32762],[-5.53782,43.32822],[-5.53934,43.32879],[-5.5401,43.32926],[-5.54134,43.32943],[-5.54194,43.33001],[-5.54224,43.33013],[-5.5434,43.33259],[-5.54666,43.33682],[-5.54804,43.33946],[-5.54297,43.34556],[-5.54703,43.35386],[-5.55067,43.35486],[-5.54921,43.35701],[-5.54702,43.35867],[-5.54443,43.36009],[-5.53946,43.3606],[-5.53703,43.35985],[-5.53271,43.35997],[-5.53216,43.35973]]]}},{"type":"Feature","properties":{"id":"3304001004"},"geometry":{"type":"Polygon","coordinates":[[[-5.49648,43.41593],[-5.48884,43.41488],[-5.48465,43.4112],[-5.48192,43.40995],[-5.47307,43.39734],[-5.46628,43.39802],[-5.46363,43.39695],[-5.4641,43.39548],[-5.46428,43.3953],[-5.46469,43.39521],[-5.46492,43.39496],[-5.46576,43.3947],[-5.4659,43.39418],[-5.46691,43.39338],[-5.46783,43.39165],[-5.46801,43.38958],[-5.46779,43.38915],[-5.46772,43.38842],[-5.46731,43.38752],[-5.46618,43.38576],[-5.46605,43.38494],[-5.46574,43.38456],[-5.46557,43.38406],[-5.46518,43.38368],[-5.46466,43.38277],[-5.46416,43.38249],[-5.46392,43.38206],[-5.46343,43.38153],[-5.46309,43.38048],[-5.46186,43.37879],[-5.46137,43.37858],[-5.46133,43.3784],[-5.46016,43.37744],[-5.45071,43.37948],[-5.44542,43.37768],[-5.4376,43.38089],[-5.4347,43.3817],[-5.42962,43.38393],[-5.42571,43.36386],[-5.42802,43.3627],[-5.42376,43.35736],[-5.4221,43.35569],[-5.42124,43.35403],[-5.42131,43.35177],[-5.42158,43.34975],[-5.42115,43.34902],[-5.42052,43.3474],[-5.41997,43.34455],[-5.41965,43.34387],[-5.41904,43.34306],[-5.41972,43.34104],[-5.42183,43.33924],[-5.42252,43.33841],[-5.42444,43.33817],[-5.42646,43.33617],[-5.42706,43.33645],[-5.43026,43.33617],[-5.43273,43.33474],[-5.43444,43.33342],[-5.43742,43.33142],[-5.43877,43.33036],[-5.44176,43.32851],[-5.44299,43.32858],[-5.44412,43.3284],[-5.44552,43.32759],[-5.44592,43.32749],[-5.44706,43.32764],[-5.44817,43.32639],[-5.44862,43.32612],[-5.45106,43.32541],[-5.45056,43.32496],[-5.45104,43.32472],[-5.45154,43.32429],[-5.45256,43.32395],[-5.45413,43.32359],[-5.45695,43.3232],[-5.46082,43.31932],[-5.46159,43.31863],[-5.4627,43.31789],[-5.46383,43.31814],[-5.46899,43.31894],[-5.47559,43.31973],[-5.47816,43.31936],[-5.47906,43.31964],[-5.47935,43.32028],[-5.47897,43.32129],[-5.47852,43.32162],[-5.47835,43.32224],[-5.47931,43.3239],[-5.47933,43.3243],[-5.47916,43.32493],[-5.47919,43.32524],[-5.47863,43.3258],[-5.47928,43.32651],[-5.47879,43.32772],[-5.47877,43.32819],[-5.47856,43.3287],[-5.47864,43.32963],[-5.47832,43.33039],[-5.47845,43.33078],[-5.47841,43.33123],[-5.47868,43.33219],[-5.47831,43.33277],[-5.47844,43.33365],[-5.47877,43.33406],[-5.4792,43.3343],[-5.47902,43.33536],[-5.47916,43.33581],[-5.47894,43.33643],[-5.47899,43.33724],[-5.47863,43.33755],[-5.47857,43.33774],[-5.47879,43.33799],[-5.47872,43.33839],[-5.47838,43.33877],[-5.47823,43.3396],[-5.47794,43.33985],[-5.4775,43.33991],[-5.47669,43.34071],[-5.47587,43.34116],[-5.47561,43.34159],[-5.47526,43.34159],[-5.47489,43.34176],[-5.47447,43.34244],[-5.4739,43.34265],[-5.4733,43.34314],[-5.47323,43.34344],[-5.47101,43.3441],[-5.47133,43.34479],[-5.47275,43.34689],[-5.47406,43.35282],[-5.47653,43.35516],[-5.48375,43.36066],[-5.48886,43.36588],[-5.48901,43.36669],[-5.48903,43.36757],[-5.48947,43.36829],[-5.48972,43.36925],[-5.49027,43.36972],[-5.49098,43.36978],[-5.49088,43.37089],[-5.49208,43.37209],[-5.49356,43.37315],[-5.49349,43.3742],[-5.493,43.37499],[-5.4922,43.37568],[-5.49182,43.37622],[-5.4911,43.37675],[-5.49043,43.37704],[-5.48911,43.37871],[-5.49527,43.38672],[-5.5035,43.39242],[-5.50686,43.39815],[-5.49637,43.40371],[-5.49969,43.40688],[-5.49648,43.41593]]]}},{"type":"Feature","properties":{"id":"3304001005"},"geometry":{"type":"Polygon","coordinates":[[[-5.4739,43.35213],[-5.47918,43.35047],[-5.48641,43.35217],[-5.48854,43.35237],[-5.49153,43.35595],[-5.49445,43.35821],[-5.49675,43.36027],[-5.49786,43.35963],[-5.49822,43.35969],[-5.4993,43.36078],[-5.49984,43.36076],[-5.50094,43.36044],[-5.50191,43.35993],[-5.50328,43.36008],[-5.50461,43.35927],[-5.50527,43.35911],[-5.50694,43.35912],[-5.50756,43.35936],[-5.50806,43.35991],[-5.5085,43.35976],[-5.50893,43.36041],[-5.50948,43.3601],[-5.5101,43.3604],[-5.5099,43.3607],[-5.50996,43.36112],[-5.5104,43.36158],[-5.50962,43.36208],[-5.5081,43.36229],[-5.50487,43.36298],[-5.50286,43.36293],[-5.50228,43.36318],[-5.50019,43.36449],[-5.49853,43.36494],[-5.4981,43.36555],[-5.49915,43.36711],[-5.49942,43.36857],[-5.4998,43.36915],[-5.49979,43.36961],[-5.49833,43.37066],[-5.49665,43.37212],[-5.49588,43.37212],[-5.49532,43.37235],[-5.4947,43.37277],[-5.49356,43.37315],[-5.49208,43.37209],[-5.49088,43.37089],[-5.49098,43.36978],[-5.49027,43.36972],[-5.48972,43.36925],[-5.48947,43.36829],[-5.48903,43.36757],[-5.48901,43.36669],[-5.48886,43.36588],[-5.48375,43.36066],[-5.47653,43.35516],[-5.47406,43.35282],[-5.4739,43.35213]]]}}]}