{"type":"FeatureCollection","features":[{"type":"Feature","properties":{"id":"3304101001"},"geometry":{"type":"Polygon","coordinates":[[[-6.68132,43.55927],[-6.68214,43.55839],[-6.68282,43.55748],[-6.683,43.55711],[-6.68298,43.55667],[-6.68268,43.556],[-6.68167,43.55507],[-6.68113,43.55413],[-6.68109,43.5536],[-6.68145,43.55311],[-6.6801,43.55308],[-6.68034,43.55225],[-6.68091,43.55141],[-6.68154,43.55123],[-6.68162,43.55111],[-6.68159,43.55086],[-6.68222,43.54953],[-6.68349,43.54712],[-6.68413,43.5463],[-6.68458,43.54546],[-6.68531,43.54534],[-6.68521,43.54496],[-6.68543,43.54436],[-6.68844,43.54271],[-6.68896,43.54252],[-6.68921,43.5427],[-6.69148,43.54104],[-6.69194,43.54097],[-6.69404,43.53995],[-6.69518,43.5396],[-6.69588,43.53862],[-6.69683,43.53772],[-6.69794,43.53736],[-6.69977,43.53706],[-6.70171,43.53688],[-6.70455,43.53628],[-6.70688,43.53665],[-6.71194,43.53816],[-6.71169,43.53845],[-6.7122,43.53879],[-6.71276,43.53898],[-6.71321,43.53936],[-6.71366,43.53988],[-6.71371,43.54049],[-6.71399,43.54078],[-6.71457,43.5408],[-6.71569,43.54124],[-6.71614,43.54189],[-6.71661,43.54233],[-6.71822,43.54313],[-6.7187,43.54321],[-6.71836,43.54349],[-6.71805,43.54342],[-6.71756,43.5437],[-6.71631,43.54489],[-6.71593,43.54503],[-6.7152,43.54513],[-6.71479,43.54596],[-6.71439,43.54647],[-6.71333,43.54708],[-6.71365,43.54725],[-6.7139,43.54758],[-6.71422,43.54864],[-6.71461,43.5488],[-6.71571,43.54878],[-6.71656,43.54894],[-6.718,43.5488],[-6.7261,43.54925],[-6.72602,43.55151],[-6.72548,43.55443],[-6.72554,43.55564],[-6.72548,43.55607],[-6.72526,43.55637],[-6.72473,43.55609],[-6.72248,43.55628],[-6.72142,43.55647],[-6.72058,43.55691],[-6.72035,43.55715],[-6.72017,43.55768],[-6.72027,43.55804],[-6.72016,43.55816],[-6.71968,43.55831],[-6.71921,43.55823],[-6.71878,43.55836],[-6.71852,43.5583],[-6.71757,43.55853],[-6.71722,43.55897],[-6.71681,43.55909],[-6.71657,43.55938],[-6.71602,43.55966],[-6.71564,43.5603],[-6.71429,43.56105],[-6.71408,43.56138],[-6.7132,43.56177],[-6.71294,43.56207],[-6.71293,43.56228],[-6.71247,43.56265],[-6.71191,43.56287],[-6.71121,43.5634],[-6.71063,43.56343],[-6.71035,43.56322],[-6.7103,43.56266],[-6.71011,43.56253],[-6.70936,43.56237],[-6.70918,43.56184],[-6.70855,43.56158],[-6.70832,43.56167],[-6.70767,43.56234],[-6.70741,43.56246],[-6.70684,43.56253],[-6.70602,43.56235],[-6.70556,43.56284],[-6.70477,43.56308],[-6.70435,43.56344],[-6.7036,43.56366],[-6.70343,43.56353],[-6.70326,43.56363],[-6.7026,43.56346],[-6.7023,43.56324],[-6.70237,43.56281],[-6.70228,43.56274],[-6.70121,43.56269],[-6.6994,43.56337],[-6.69913,43.56339],[-6.69852,43.56319],[-6.69819,43.56269],[-6.69811,43.56236],[-6.69818,43.56164],[-6.69884,43.56075],[-6.69867,43.56044],[-6.69777,43.56039],[-6.69573,43.56122],[-6.69512,43.56126],[-6.69481,43.56141],[-6.69419,43.56118],[-6.69378,43.56121],[-6.69307,43.56172],[-6.69269,43.56147],[-6.69252,43.56172],[-6.69235,43.56174],[-6.69222,43.56206],[-6.69158,43.56205],[-6.69137,43.56196],[-6.6913,43.5618],[-6.6913,43.56121],[-6.69175,43.56054],[-6.69165,43.55993],[-6.69143,43.55979],[-6.69139,43.55963],[-6.69081,43.55957],[-6.69043,43.55925],[-6.69012,43.55974],[-6.68959,43.55983],[-6.68924,43.56021],[-6.68893,43.56022],[-6.68874,43.5601],[-6.68864,43.55977],[-6.68895,43.55888],[-6.68886,43.55882],[-6.68834,43.55931],[-6.68774,43.55938],[-6.68693,43.55933],[-6.68647,43.5591],[-6.68631,43.55867],[-6.68549,43.55852],[-6.68481,43.55862],[-6.68452,43.55882],[-6.68436,43.55938],[-6.68448,43.55959],[-6.68428,43.55978],[-6.68387,43.55968],[-6.6836,43.55973],[-6.68331,43.55963],[-6.68291,43.55967],[-6.68302,43.55932],[-6.6825,43.55915],[-6.68132,43.55927]]]}},{"type":"Feature","properties":{"id":"3304101002"},"geometry":{"type":"Polygon","coordinates":[[[-6.65412,43.48946],[-6.65466,43.48965],[-6.65715,43.48915],[-6.65811,43.48967],[-6.66026,43.48965],[-6.66075,43.48976],[-6.66271,43.49084],[-6.66501,43.49296],[-6.66861,43.49187],[-6.66935,43.49173],[-6.67005,43.49182],[-6.67189,43.49171],[-6.67336,43.49148],[-6.67661,43.49114],[-6.67718,43.49115],[-6.67815,43.49143],[-6.68031,43.4915],[-6.68072,43.492],[-6.68271,43.49341],[-6.68479,43.49376],[-6.68612,43.49332],[-6.68812,43.49434],[-6.68854,43.49441],[-6.68945,43.49404],[-6.68989,43.49395],[-6.69132,43.49467],[-6.69186,43.49476],[-6.70149,43.49311],[-6.70547,43.49639],[-6.70606,43.49639],[-6.70696,43.49672],[-6.70787,43.49691],[-6.70822,43.49709],[-6.70884,43.498],[-6.70996,43.49861],[-6.71213,43.49841],[-6.71356,43.4985],[-6.7144,43.49863],[-6.7156,43.49929],[-6.71759,43.49849],[-6.71823,43.49844],[-6.72028,43.49774],[-6.72126,43.49723],[-6.72244,43.49637],[-6.7233,43.49603],[-6.7241,43.49525],[-6.72321,43.49446],[-6.72366,43.49393],[-6.72441,43.49392],[-6.72536,43.49364],[-6.72576,43.49412],[-6.72708,43.4951],[-6.72775,43.49543],[-6.72942,43.49601],[-6.73024,43.49618],[-6.732,43.49635],[-6.73294,43.49681],[-6.7335,43.49756],[-6.7336,43.49813],[-6.73345,43.49831],[-6.73257,43.49857],[-6.73063,43.49832],[-6.72952,43.49836],[-6.72919,43.49857],[-6.72898,43.49888],[-6.72903,43.4993],[-6.72922,43.49973],[-6.72979,43.50038],[-6.73052,43.50081],[-6.7315,43.50103],[-6.73243,43.50099],[-6.73279,43.50087],[-6.73422,43.50013],[-6.73453,43.49983],[-6.73529,43.4997],[-6.73575,43.49979],[-6.73623,43.50072],[-6.73631,43.50164],[-6.73604,43.5037],[-6.73507,43.50554],[-6.73477,43.50653],[-6.73508,43.50707],[-6.73652,43.50821],[-6.73667,43.50895],[-6.73652,43.50918],[-6.73584,43.50963],[-6.73533,43.50983],[-6.73482,43.5099],[-6.73308,43.50979],[-6.73204,43.50943],[-6.7312,43.50895],[-6.72899,43.50707],[-6.72812,43.50656],[-6.72778,43.50648],[-6.72687,43.50649],[-6.726,43.50668],[-6.72521,43.50706],[-6.7229,43.50843],[-6.72218,43.50895],[-6.722,43.50939],[-6.72222,43.51007],[-6.723,43.51082],[-6.72496,43.51177],[-6.72657,43.5123],[-6.73106,43.51247],[-6.73448,43.51277],[-6.7362,43.51325],[-6.73646,43.51341],[-6.73652,43.5138],[-6.73516,43.51543],[-6.73331,43.51847],[-6.7327,43.52005],[-6.73263,43.52044],[-6.73293,43.52466],[-6.73279,43.52513],[-6.73225,43.52591],[-6.73197,43.52612],[-6.73074,43.52656],[-6.7264,43.52864],[-6.72437,43.52986],[-6.72411,43.53019],[-6.72397,43.53096],[-6.72516,43.5331],[-6.72319,43.53309],[-6.72126,43.53279],[-6.72031,43.53285],[-6.71996,43.53307],[-6.72027,43.53398],[-6.71973,43.5343],[-6.7196,43.53551],[-6.71788,43.5357],[-6.71611,43.53554],[-6.71542,43.53568],[-6.71344,43.53542],[-6.71254,43.53609],[-6.71199,43.53615],[-6.71085,43.53783],[-6.70688,43.53665],[-6.70455,43.53628],[-6.70171,43.53688],[-6.69977,43.53706],[-6.69794,43.53736],[-6.69683,43.53772],[-6.69588,43.53862],[-6.69518,43.5396],[-6.69494,43.53942],[-6.69452,43.5384],[-6.69424,43.53729],[-6.69344,43.53585],[-6.69318,43.5348],[-6.69252,43.53443],[-6.69174,43.53324],[-6.69056,43.53213],[-6.69051,43.53189],[-6.69066,43.53154],[-6.69164,43.53052],[-6.69189,43.53004],[-6.69188,43.52971],[-6.69161,43.52918],[-6.69156,43.52876],[-6.69007,43.52977],[-6.68953,43.53034],[-6.68867,43.53066],[-6.68763,43.53074],[-6.68705,43.53063],[-6.68453,43.52949],[-6.68306,43.52926],[-6.68252,43.52832],[-6.68157,43.52805],[-6.68093,43.52715],[-6.67996,43.52675],[-6.67967,43.52673],[-6.67891,43.52588],[-6.67884,43.5256],[-6.67909,43.52534],[-6.67773,43.5249],[-6.67702,43.52409],[-6.67739,43.52242],[-6.67576,43.52182],[-6.67548,43.5214],[-6.67622,43.52063],[-6.67615,43.51969],[-6.67598,43.51935],[-6.67636,43.51884],[-6.6754,43.51856],[-6.67352,43.51886],[-6.67368,43.51926],[-6.6737,43.5207],[-6.67469,43.52101],[-6.67507,43.52139],[-6.67541,43.52145],[-6.67376,43.52246],[-6.67296,43.52279],[-6.67211,43.52291],[-6.67068,43.52293],[-6.67018,43.52274],[-6.66843,43.52156],[-6.66696,43.52234],[-6.66591,43.52339],[-6.66518,43.52344],[-6.66522,43.52276],[-6.66545,43.52223],[-6.66633,43.52151],[-6.6679,43.52083],[-6.66819,43.5202],[-6.66821,43.51984],[-6.66775,43.51908],[-6.66643,43.51824],[-6.66653,43.51748],[-6.66626,43.51691],[-6.66581,43.51656],[-6.66544,43.51655],[-6.66524,43.51641],[-6.6655,43.51564],[-6.66443,43.51421],[-6.66456,43.51377],[-6.66451,43.5124],[-6.66384,43.51163],[-6.66338,43.5107],[-6.66186,43.50882],[-6.66141,43.50797],[-6.65893,43.50517],[-6.65631,43.50271],[-6.6547,43.50087],[-6.65386,43.49953],[-6.65367,43.4991],[-6.65418,43.49381],[-6.65412,43.48946]]]}},{"type":"Feature","properties":{"id":"3304101003"},"geometry":{"type":"Polygon","coordinates":[[[-6.72324,43.53998],[-6.72296,43.53939],[-6.72083,43.5395],[-6.71936,43.53979],[-6.71871,43.53912],[-6.71844,43.53853],[-6.71836,43.53773],[-6.71844,43.53721],[-6.71813,43.53666],[-6.71996,43.53611],[-6.72069,43.53566],[-6.72178,43.53528],[-6.72236,43.53442],[-6.72308,43.53417],[-6.7237,43.53418],[-6.72388,43.53402],[-6.72557,43.53383],[-6.72602,43.53464],[-6.72636,43.536],[-6.72627,43.53966],[-6.72637,43.54024],[-6.7262,43.54118],[-6.72339,43.5408],[-6.72324,43.53998]]]}},{"type":"Feature","properties":{"id":"3304101004"},"geometry":{"type":"Polygon","coordinates":[[[-6.62081,43.55966],[-6.61966,43.55963],[-6.61931,43.55884],[-6.61887,43.55876],[-6.61868,43.55898],[-6.61858,43.5598],[-6.61777,43.56006],[-6.61738,43.56009],[-6.61646,43.55985],[-6.61592,43.55987],[-6.61567,43.56004],[-6.61419,43.55997],[-6.61372,43.55969],[-6.61365,43.55955],[-6.61377,43.55936],[-6.61477,43.55906],[-6.61563,43.55868],[-6.61649,43.55857],[-6.61697,43.55829],[-6.6172,43.55793],[-6.61798,43.55811],[-6.61833,43.55773],[-6.61841,43.5575],[-6.61842,43.55663],[-6.61926,43.55582],[-6.61982,43.55484],[-6.62024,43.55442],[-6.6207,43.55366],[-6.62103,43.55352],[-6.6213,43.55316],[-6.62272,43.55319],[-6.62288,43.55293],[-6.62265,43.55241],[-6.62262,43.55071],[-6.6227,43.55061],[-6.62338,43.55041],[-6.62379,43.55016],[-6.6238,43.55003],[-6.62363,43.54969],[-6.62305,43.54924],[-6.62306,43.54898],[-6.62341,43.54854],[-6.62379,43.54831],[-6.62406,43.54833],[-6.62419,43.54845],[-6.62421,43.54867],[-6.62449,43.5487],[-6.62488,43.54823],[-6.62469,43.5478],[-6.62475,43.5474],[-6.62504,43.5473],[-6.62537,43.54738],[-6.62575,43.54724],[-6.62573,43.54712],[-6.62516,43.54678],[-6.62493,43.5465],[-6.62481,43.54573],[-6.62507,43.54527],[-6.62574,43.54493],[-6.62663,43.54475],[-6.62718,43.54444],[-6.62803,43.54339],[-6.62843,43.54309],[-6.62998,43.54107],[-6.62996,43.54029],[-6.63018,43.53981],[-6.63084,43.53928],[-6.63166,43.53931],[-6.63194,43.53913],[-6.63198,43.53855],[-6.63217,43.53811],[-6.63334,43.53662],[-6.63384,43.53615],[-6.63422,43.53589],[-6.63522,43.53568],[-6.63563,43.5355],[-6.63628,43.53504],[-6.63774,43.53428],[-6.63839,43.53409],[-6.63854,43.53382],[-6.63827,43.5336],[-6.63664,43.53278],[-6.63599,43.53218],[-6.63559,43.53153],[-6.63509,43.53125],[-6.63466,43.53131],[-6.63442,43.53151],[-6.63431,43.53248],[-6.63406,43.53281],[-6.63358,43.53308],[-6.63287,43.53305],[-6.63203,43.53254],[-6.632,43.53233],[-6.63243,43.53183],[-6.63241,43.53165],[-6.63191,43.53173],[-6.63114,43.53209],[-6.63073,43.53236],[-6.63055,43.53269],[-6.63031,43.53282],[-6.63013,43.53282],[-6.62966,43.5326],[-6.62926,43.5326],[-6.62917,43.53242],[-6.62921,43.532],[-6.62967,43.53166],[-6.62968,43.53138],[-6.62901,43.53114],[-6.62869,43.53093],[-6.62786,43.53111],[-6.62742,43.53096],[-6.62679,43.53098],[-6.6267,43.53085],[-6.62697,43.53028],[-6.62695,43.53011],[-6.62537,43.52938],[-6.6251,43.52942],[-6.62489,43.52979],[-6.62405,43.53034],[-6.62357,43.53035],[-6.62266,43.52911],[-6.6227,43.52805],[-6.62254,43.52765],[-6.62274,43.52751],[-6.62359,43.5275],[-6.62387,43.52732],[-6.62415,43.52688],[-6.62453,43.52486],[-6.62515,43.52416],[-6.62534,43.52407],[-6.62679,43.52389],[-6.62794,43.52347],[-6.62819,43.52311],[-6.62841,43.52244],[-6.62948,43.52222],[-6.63005,43.52159],[-6.63072,43.52134],[-6.63116,43.5208],[-6.63137,43.52049],[-6.63127,43.52035],[-6.63047,43.52054],[-6.62991,43.52057],[-6.62961,43.52041],[-6.62935,43.51997],[-6.62958,43.51959],[-6.63012,43.51909],[-6.63056,43.51882],[-6.63127,43.51859],[-6.63145,43.51843],[-6.63156,43.5181],[-6.63146,43.51769],[-6.6316,43.51721],[-6.63149,43.51648],[-6.63171,43.51634],[-6.63209,43.5163],[-6.63344,43.51647],[-6.63377,43.5167],[-6.63399,43.51668],[-6.63477,43.51607],[-6.63556,43.5151],[-6.63604,43.51488],[-6.63662,43.51483],[-6.63674,43.51472],[-6.63675,43.51428],[-6.63558,43.51404],[-6.63542,43.51387],[-6.63561,43.51333],[-6.63628,43.51256],[-6.6365,43.51243],[-6.63669,43.51244],[-6.63755,43.51289],[-6.6379,43.51296],[-6.63853,43.51244],[-6.63856,43.51231],[-6.6384,43.51214],[-6.63756,43.51169],[-6.63721,43.51136],[-6.6366,43.51113],[-6.63614,43.51109],[-6.63572,43.51134],[-6.63497,43.51137],[-6.6344,43.51134],[-6.6338,43.51118],[-6.63361,43.51069],[-6.63266,43.51023],[-6.63263,43.50969],[-6.63251,43.5095],[-6.63112,43.50877],[-6.63102,43.50852],[-6.63138,43.5078],[-6.63161,43.50684],[-6.63212,43.50646],[-6.63253,43.50639],[-6.63318,43.50649],[-6.63391,43.50586],[-6.63437,43.50568],[-6.63491,43.50572],[-6.63497,43.50604],[-6.63521,43.50615],[-6.63651,43.50586],[-6.63649,43.50565],[-6.63593,43.50528],[-6.63594,43.50482],[-6.63618,43.5044],[-6.63676,43.50386],[-6.63694,43.50339],[-6.63772,43.50282],[-6.63725,43.50111],[-6.63757,43.50009],[-6.63756,43.49958],[-6.63817,43.49887],[-6.6383,43.49829],[-6.63825,43.49741],[-6.63847,43.49698],[-6.63895,43.4966],[-6.63922,43.49615],[-6.63934,43.49536],[-6.641,43.49457],[-6.64172,43.49306],[-6.64174,43.49229],[-6.64205,43.49184],[-6.64211,43.49104],[-6.64299,43.49033],[-6.64343,43.48974],[-6.64332,43.48938],[-6.6435,43.48499],[-6.64374,43.48511],[-6.64449,43.48506],[-6.64634,43.48474],[-6.64671,43.48558],[-6.6475,43.48678],[-6.64831,43.48762],[-6.65111,43.48865],[-6.65187,43.48872],[-6.65412,43.48946],[-6.65418,43.49381],[-6.65367,43.4991],[-6.65386,43.49953],[-6.6547,43.50087],[-6.65631,43.50271],[-6.65893,43.50517],[-6.66141,43.50797],[-6.66186,43.50882],[-6.66338,43.5107],[-6.66384,43.51163],[-6.66451,43.5124],[-6.66456,43.51377],[-6.66443,43.51421],[-6.6655,43.51564],[-6.66524,43.51641],[-6.66544,43.51655],[-6.66581,43.51656],[-6.66626,43.51691],[-6.66653,43.51748],[-6.66643,43.51824],[-6.66775,43.51908],[-6.66821,43.51984],[-6.66819,43.5202],[-6.6679,43.52083],[-6.66633,43.52151],[-6.66545,43.52223],[-6.66522,43.52276],[-6.66518,43.52344],[-6.66591,43.52339],[-6.66696,43.52234],[-6.66843,43.52156],[-6.67018,43.52274],[-6.67068,43.52293],[-6.67211,43.52291],[-6.67296,43.52279],[-6.67376,43.52246],[-6.67541,43.52145],[-6.67507,43.52139],[-6.67469,43.52101],[-6.6737,43.5207],[-6.67368,43.51926],[-6.67352,43.51886],[-6.6754,43.51856],[-6.67636,43.51884],[-6.67598,43.51935],[-6.67615,43.51969],[-6.67622,43.52063],[-6.67548,43.5214],[-6.67576,43.52182],[-6.67739,43.52242],[-6.67702,43.52409],[-6.67773,43.5249],[-6.67909,43.52534],[-6.67884,43.5256],[-6.67891,43.52588],[-6.67967,43.52673],[-6.67996,43.52675],[-6.68093,43.52715],[-6.68157,43.52805],[-6.68252,43.52832],[-6.68306,43.52926],[-6.68453,43.52949],[-6.68705,43.53063],[-6.68763,43.53074],[-6.68867,43.53066],[-6.68953,43.53034],[-6.69007,43.52977],[-6.69156,43.52876],[-6.69161,43.52918],[-6.69188,43.52971],[-6.69189,43.53004],[-6.69164,43.53052],[-6.69066,43.53154],[-6.69051,43.53189],[-6.69056,43.53213],[-6.69174,43.53324],[-6.69252,43.53443],[-6.69318,43.5348],[-6.69344,43.53585],[-6.69424,43.53729],[-6.69452,43.5384],[-6.69494,43.53942],[-6.69518,43.5396],[-6.69404,43.53995],[-6.69194,43.54097],[-6.69148,43.54104],[-6.68921,43.5427],[-6.68896,43.54252],[-6.68844,43.54271],[-6.68605,43.54401],[-6.68543,43.54436],[-6.68521,43.54496],[-6.68531,43.54534],[-6.68458,43.54546],[-6.68413,43.5463],[-6.68349,43.54712],[-6.68222,43.54953],[-6.68159,43.55086],[-6.68162,43.55111],[-6.68154,43.55123],[-6.68091,43.55141],[-6.68034,43.55225],[-6.6801,43.55308],[-6.68145,43.55311],[-6.68109,43.5536],[-6.68113,43.55413],[-6.68167,43.55507],[-6.68268,43.556],[-6.68298,43.55667],[-6.683,43.55711],[-6.68282,43.55748],[-6.68214,43.55839],[-6.68132,43.55927],[-6.68067,43.55943],[-6.68032,43.55969],[-6.67912,43.55956],[-6.67633,43.55998],[-6.67462,43.56033],[-6.67362,43.56069],[-6.67408,43.56145],[-6.67387,43.56192],[-6.6733,43.56224],[-6.67332,43.56251],[-6.67303,43.56242],[-6.67229,43.56269],[-6.67198,43.56263],[-6.67183,43.5627],[-6.67126,43.56323],[-6.67086,43.56381],[-6.67061,43.56395],[-6.67033,43.56365],[-6.66964,43.56323],[-6.66884,43.56354],[-6.66821,43.56356],[-6.66781,43.56326],[-6.6672,43.56308],[-6.66667,43.56253],[-6.66657,43.56226],[-6.66636,43.56222],[-6.66623,43.56231],[-6.66511,43.5616],[-6.66516,43.56119],[-6.66427,43.56105],[-6.66337,43.56073],[-6.66295,43.56038],[-6.66384,43.55973],[-6.66254,43.55854],[-6.66189,43.55927],[-6.66142,43.55955],[-6.6609,43.55967],[-6.65995,43.55959],[-6.65927,43.55976],[-6.65927,43.55938],[-6.65917,43.55928],[-6.65885,43.55918],[-6.65856,43.55924],[-6.65824,43.55912],[-6.65809,43.55889],[-6.65817,43.55857],[-6.65783,43.5583],[-6.65726,43.55854],[-6.65687,43.55764],[-6.65658,43.55741],[-6.65444,43.55713],[-6.65321,43.55728],[-6.65239,43.55715],[-6.65187,43.55724],[-6.65136,43.55747],[-6.65099,43.5575],[-6.65056,43.55658],[-6.65033,43.55659],[-6.6494,43.55547],[-6.64914,43.55547],[-6.64914,43.55553],[-6.64828,43.5558],[-6.64812,43.55578],[-6.64762,43.55628],[-6.64698,43.55661],[-6.64625,43.55682],[-6.646,43.55709],[-6.64584,43.5571],[-6.64574,43.55699],[-6.64535,43.55699],[-6.64485,43.5575],[-6.64448,43.55771],[-6.64427,43.55751],[-6.64305,43.55772],[-6.64202,43.55715],[-6.64166,43.55717],[-6.64114,43.55665],[-6.63959,43.55754],[-6.63904,43.55776],[-6.63909,43.55806],[-6.63895,43.55833],[-6.6378,43.5593],[-6.63745,43.55947],[-6.63619,43.55949],[-6.63529,43.55962],[-6.63481,43.55985],[-6.63417,43.5594],[-6.63295,43.55946],[-6.62995,43.56013],[-6.62885,43.56018],[-6.62858,43.56031],[-6.62856,43.56053],[-6.62778,43.56044],[-6.62771,43.56008],[-6.6272,43.56024],[-6.62634,43.5602],[-6.62616,43.56009],[-6.62605,43.5596],[-6.624,43.55993],[-6.62333,43.55997],[-6.62081,43.55966]]]}},{"type":"Feature","properties":{"id":"3304101005"},"geometry":{"type":"Polygon","coordinates":[[[-6.62819,43.57287],[-6.62724,43.57287],[-6.62609,43.57251],[-6.62553,43.57245],[-6.62547,43.572],[-6.62524,43.57173],[-6.62543,43.57156],[-6.62541,43.57139],[-6.62518,43.57127],[-6.62427,43.57122],[-6.62372,43.57102],[-6.62309,43.56991],[-6.6222,43.57005],[-6.62241,43.56955],[-6.62221,43.56915],[-6.62241,43.56881],[-6.62239,43.56843],[-6.62264,43.56776],[-6.62258,43.56764],[-6.6222,43.56787],[-6.62172,43.56798],[-6.62149,43.56789],[-6.6214,43.5676],[-6.62161,43.56731],[-6.62146,43.56693],[-6.62157,43.5665],[-6.6213,43.56633],[-6.621,43.56644],[-6.62046,43.56578],[-6.6206,43.56553],[-6.6204,43.56544],[-6.61964,43.56589],[-6.61898,43.56601],[-6.61796,43.56589],[-6.61769,43.56609],[-6.61671,43.56626],[-6.61633,43.56599],[-6.61663,43.56593],[-6.61662,43.56535],[-6.61709,43.5649],[-6.61705,43.56443],[-6.61728,43.56434],[-6.61758,43.56394],[-6.61751,43.56343],[-6.61718,43.56291],[-6.61821,43.56232],[-6.61828,43.56186],[-6.61855,43.56149],[-6.6191,43.56108],[-6.61915,43.56071],[-6.61966,43.55963],[-6.62081,43.55966],[-6.62333,43.55997],[-6.624,43.55993],[-6.62605,43.5596],[-6.62616,43.56009],[-6.62634,43.5602],[-6.6272,43.56024],[-6.62771,43.56008],[-6.62778,43.56044],[-6.62856,43.56053],[-6.62858,43.56031],[-6.62885,43.56018],[-6.62995,43.56013],[-6.63295,43.55946],[-6.63417,43.5594],[-6.63481,43.55985],[-6.63529,43.55962],[-6.63619,43.55949],[-6.63745,43.55947],[-6.6378,43.5593],[-6.63895,43.55833],[-6.63909,43.55806],[-6.63904,43.55776],[-6.63959,43.55754],[-6.64114,43.55665],[-6.64166,43.55717],[-6.64202,43.55715],[-6.64305,43.55772],[-6.64427,43.55751],[-6.64448,43.55771],[-6.64485,43.5575],[-6.64535,43.55699],[-6.64574,43.55699],[-6.64584,43.5571],[-6.646,43.55709],[-6.64625,43.55682],[-6.64698,43.55661],[-6.64762,43.55628],[-6.64812,43.55578],[-6.64828,43.5558],[-6.64914,43.55553],[-6.64914,43.55547],[-6.6494,43.55547],[-6.65033,43.55659],[-6.65056,43.55658],[-6.65099,43.5575],[-6.65136,43.55747],[-6.65187,43.55724],[-6.65239,43.55715],[-6.65321,43.55728],[-6.65444,43.55713],[-6.65658,43.55741],[-6.65687,43.55764],[-6.65726,43.55854],[-6.65783,43.5583],[-6.65817,43.55857],[-6.65809,43.55889],[-6.65824,43.55912],[-6.65856,43.55924],[-6.65885,43.55918],[-6.65917,43.55928],[-6.65927,43.55938],[-6.65927,43.55976],[-6.65995,43.55959],[-6.6609,43.55967],[-6.66142,43.55955],[-6.66189,43.55927],[-6.66254,43.55854],[-6.66384,43.55973],[-6.66295,43.56038],[-6.6636,43.56084],[-6.6644,43.56108],[-6.66516,43.56119],[-6.66511,43.5616],[-6.66623,43.56231],[-6.66636,43.56222],[-6.66657,43.56226],[-6.66667,43.56253],[-6.6672,43.56308],[-6.66755,43.56315],[-6.66802,43.56338],[-6.66847,43.56408],[-6.6683,43.56468],[-6.66796,43.56471],[-6.66766,43.56461],[-6.66754,43.56502],[-6.66726,43.56533],[-6.66586,43.56574],[-6.66544,43.56602],[-6.66509,43.56581],[-6.66502,43.56534],[-6.66489,43.56521],[-6.66418,43.56484],[-6.66409,43.56552],[-6.66388,43.56591],[-6.66365,43.56603],[-6.66361,43.56631],[-6.66237,43.56653],[-6.66197,43.5665],[-6.66182,43.56637],[-6.66125,43.56647],[-6.66086,43.56666],[-6.66024,43.5667],[-6.65942,43.56712],[-6.65919,43.56715],[-6.65915,43.56706],[-6.65936,43.56684],[-6.65932,43.56669],[-6.65894,43.56699],[-6.65811,43.56699],[-6.65745,43.56744],[-6.65702,43.56752],[-6.65682,43.56726],[-6.65631,43.56728],[-6.65627,43.56713],[-6.65675,43.56657],[-6.65685,43.56631],[-6.65681,43.56612],[-6.65667,43.56603],[-6.65637,43.56602],[-6.65533,43.56642],[-6.6546,43.56625],[-6.65415,43.56635],[-6.6539,43.56606],[-6.65377,43.56606],[-6.65368,43.56613],[-6.65364,43.56652],[-6.65332,43.56679],[-6.65299,43.56697],[-6.65243,43.56697],[-6.65217,43.56744],[-6.6516,43.56755],[-6.65112,43.56798],[-6.65002,43.5679],[-6.64968,43.56777],[-6.64896,43.56698],[-6.64864,43.56691],[-6.648,43.56704],[-6.64744,43.56696],[-6.64731,43.56689],[-6.6474,43.56654],[-6.64722,43.56598],[-6.64637,43.56614],[-6.64615,43.56605],[-6.64609,43.56599],[-6.6465,43.56552],[-6.64613,43.56471],[-6.64628,43.56432],[-6.64619,43.56406],[-6.64602,43.5644],[-6.64555,43.56466],[-6.64554,43.56487],[-6.64521,43.56488],[-6.64596,43.56535],[-6.64611,43.56563],[-6.64599,43.56573],[-6.64502,43.5658],[-6.64493,43.56588],[-6.64503,43.56626],[-6.64556,43.56665],[-6.64567,43.56693],[-6.64543,43.56729],[-6.64496,43.5674],[-6.64472,43.56722],[-6.64446,43.5675],[-6.64529,43.56828],[-6.64521,43.56854],[-6.64457,43.5686],[-6.64409,43.56877],[-6.64363,43.56854],[-6.64273,43.56848],[-6.64211,43.56856],[-6.64231,43.56884],[-6.64157,43.56927],[-6.64142,43.56927],[-6.64131,43.56919],[-6.64104,43.56922],[-6.64107,43.56909],[-6.64095,43.56902],[-6.64107,43.56875],[-6.641,43.56866],[-6.63998,43.56885],[-6.63946,43.5691],[-6.63862,43.56879],[-6.63788,43.56864],[-6.63727,43.56869],[-6.63699,43.56896],[-6.63681,43.56894],[-6.63669,43.56858],[-6.63588,43.56858],[-6.6354,43.56836],[-6.63497,43.56855],[-6.63466,43.56839],[-6.63454,43.56841],[-6.63439,43.56866],[-6.63422,43.56874],[-6.63391,43.5687],[-6.63361,43.56857],[-6.63286,43.56774],[-6.63259,43.56773],[-6.63258,43.56785],[-6.63211,43.56817],[-6.63215,43.5683],[-6.63259,43.56849],[-6.63273,43.56886],[-6.63251,43.56916],[-6.63329,43.56969],[-6.63318,43.57006],[-6.63252,43.57011],[-6.63238,43.57041],[-6.63199,43.57048],[-6.63141,43.5701],[-6.63085,43.56943],[-6.63058,43.56925],[-6.6299,43.56915],[-6.62914,43.56921],[-6.62871,43.56949],[-6.62859,43.56981],[-6.62815,43.5699],[-6.62845,43.57052],[-6.62837,43.57107],[-6.62714,43.57168],[-6.62718,43.5718],[-6.62746,43.57193],[-6.62717,43.57208],[-6.62663,43.57212],[-6.62661,43.5722],[-6.62817,43.57251],[-6.62833,43.57275],[-6.62819,43.57287]]]}},{"type":"Feature","properties":{"id":"3304101008"},"geometry":{"type":"Polygon","coordinates":[[[-6.71085,43.53783],[-6.71199,43.53615],[-6.71254,43.53609],[-6.71344,43.53542],[-6.71542,43.53568],[-6.71611,43.53554],[-6.71788,43.5357],[-6.7196,43.53551],[-6.71973,43.5343],[-6.72027,43.53398],[-6.71996,43.53307],[-6.72031,43.53285],[-6.72126,43.53279],[-6.72319,43.53309],[-6.72516,43.5331],[-6.72557,43.53383],[-6.72388,43.53402],[-6.7237,43.53418],[-6.72308,43.53417],[-6.72236,43.53442],[-6.72178,43.53528],[-6.72069,43.53566],[-6.71996,43.53611],[-6.71813,43.53666],[-6.71844,43.53721],[-6.71836,43.53773],[-6.71844,43.53853],[-6.71871,43.53912],[-6.71936,43.53979],[-6.72083,43.5395],[-6.72296,43.53939],[-6.72324,43.53998],[-6.71892,43.54316],[-6.71867,43.54321],[-6.71822,43.54313],[-6.7167,43.54238],[-6.71614,43.54189],[-6.71569,43.54124],[-6.71457,43.5408],[-6.71399,43.54078],[-6.71371,43.54049],[-6.71366,43.53988],[-6.71321,43.53936],[-6.71276,43.53898],[-6.7122,43.53879],[-6.71169,43.53845],[-6.71194,43.53816],[-6.71085,43.53783]]]}},{"type":"Feature","properties":{"id":"3304101009"},"geometry":{"type":"Polygon","coordinates":[[[-6.7187,43.54321],[-6.7192,43.54298],[-6.72324,43.53998],[-6.72339,43.5408],[-6.7262,43.54118],[-6.72568,43.54225],[-6.72525,43.54505],[-6.72543,43.54686],[-6.7261,43.54925],[-6.718,43.5488],[-6.71656,43.54894],[-6.71571,43.54878],[-6.71461,43.5488],[-6.71422,43.54864],[-6.7139,43.54758],[-6.71365,43.54725],[-6.71333,43.54708],[-6.71439,43.54647],[-6.71479,43.54596],[-6.7152,43.54513],[-6.71593,43.54503],[-6.71631,43.54489],[-6.71756,43.5437],[-6.71805,43.54342],[-6.71836,43.54349],[-6.7187,43.54321]]]}}]}