{"type":"FeatureCollection","features":[{"type":"Feature","properties":{"id":"3305801001"},"geometry":{"type":"Polygon","coordinates":[[[-5.87758,43.24206],[-5.87981,43.23624],[-5.88243,43.23481],[-5.88148,43.23396],[-5.87995,43.23285],[-5.87942,43.23277],[-5.87787,43.23317],[-5.87755,43.23318],[-5.87674,43.23279],[-5.87641,43.23252],[-5.87609,43.23247],[-5.87334,43.2326],[-5.87313,43.23336],[-5.87165,43.23685],[-5.86691,43.24261],[-5.86518,43.2421],[-5.86207,43.24207],[-5.86083,43.24095],[-5.85975,43.23979],[-5.85976,43.23853],[-5.85908,43.23794],[-5.85684,43.23682],[-5.85492,43.23564],[-5.85427,43.23565],[-5.85375,43.23577],[-5.85252,43.23523],[-5.85183,43.23529],[-5.85011,43.23581],[-5.84876,43.23592],[-5.84677,43.23582],[-5.84543,43.23597],[-5.84487,43.23625],[-5.84314,43.23768],[-5.84267,43.2378],[-5.8439,43.23662],[-5.84421,43.23618],[-5.84445,43.23515],[-5.84443,43.23431],[-5.84376,43.23255],[-5.84379,43.23133],[-5.8434,43.23012],[-5.84344,43.22937],[-5.84578,43.22773],[-5.84524,43.22743],[-5.84497,43.22687],[-5.84496,43.22655],[-5.84507,43.22602],[-5.84591,43.225],[-5.84597,43.22452],[-5.84632,43.2238],[-5.8465,43.2231],[-5.8461,43.2218],[-5.84612,43.2211],[-5.84637,43.2207],[-5.84746,43.22019],[-5.84731,43.21731],[-5.84686,43.21566],[-5.84637,43.21489],[-5.8463,43.21421],[-5.84672,43.21304],[-5.84705,43.21143],[-5.84715,43.21051],[-5.8469,43.20966],[-5.84768,43.20813],[-5.84786,43.2072],[-5.84785,43.20607],[-5.84775,43.20525],[-5.84724,43.20409],[-5.84719,43.20339],[-5.8474,43.20251],[-5.84736,43.20181],[-5.84706,43.20081],[-5.84605,43.19879],[-5.846,43.19843],[-5.84609,43.19816],[-5.84705,43.19828],[-5.84819,43.19865],[-5.84897,43.19874],[-5.85093,43.19866],[-5.85351,43.19791],[-5.85428,43.19782],[-5.85895,43.19812],[-5.86169,43.19677],[-5.86192,43.1964],[-5.86269,43.1963],[-5.86332,43.19579],[-5.86334,43.19543],[-5.86593,43.19282],[-5.86694,43.19256],[-5.86764,43.19193],[-5.86766,43.18956],[-5.86732,43.18858],[-5.86916,43.18621],[-5.87046,43.18538],[-5.87153,43.18429],[-5.87234,43.18381],[-5.87265,43.18256],[-5.87477,43.18059],[-5.87586,43.17883],[-5.87646,43.17857],[-5.87715,43.17692],[-5.87687,43.17598],[-5.87807,43.17399],[-5.87894,43.17342],[-5.88203,43.17003],[-5.88207,43.16804],[-5.88295,43.16705],[-5.88864,43.16737],[-5.89635,43.17036],[-5.90827,43.17986],[-5.91666,43.18966],[-5.91863,43.19911],[-5.93239,43.20666],[-5.93523,43.2176],[-5.94076,43.21767],[-5.94289,43.21945],[-5.94247,43.22526],[-5.94327,43.2259],[-5.94517,43.22696],[-5.94595,43.22759],[-5.9471,43.22821],[-5.94792,43.22882],[-5.94559,43.22894],[-5.94366,43.22931],[-5.94243,43.22984],[-5.94123,43.23128],[-5.93913,43.23127],[-5.93937,43.2329],[-5.93993,43.23325],[-5.94083,43.2333],[-5.94047,43.23366],[-5.94134,43.23419],[-5.94113,43.23455],[-5.94139,43.23514],[-5.93945,43.23527],[-5.93869,43.23565],[-5.938,43.23565],[-5.93393,43.23783],[-5.93073,43.23886],[-5.93002,43.24073],[-5.92876,43.24083],[-5.92834,43.24133],[-5.92765,43.24173],[-5.92649,43.24218],[-5.92471,43.24268],[-5.92319,43.2427],[-5.91969,43.24322],[-5.9185,43.24348],[-5.91773,43.24331],[-5.91535,43.24338],[-5.91434,43.24355],[-5.91084,43.24445],[-5.90971,43.24519],[-5.90933,43.2456],[-5.90847,43.24693],[-5.90721,43.24817],[-5.90691,43.24899],[-5.90448,43.24953],[-5.90336,43.24963],[-5.90039,43.24963],[-5.89933,43.24979],[-5.89829,43.25076],[-5.89674,43.24999],[-5.89524,43.24987],[-5.89349,43.24959],[-5.89085,43.24797],[-5.88886,43.24836],[-5.88691,43.24725],[-5.88617,43.24671],[-5.88519,43.24492],[-5.88321,43.24336],[-5.88236,43.24319],[-5.88069,43.24326],[-5.87998,43.24307],[-5.87978,43.2428],[-5.87842,43.24292],[-5.87798,43.24255],[-5.87747,43.2427],[-5.87758,43.24206]]]}},{"type":"Feature","properties":{"id":"3305801002"},"geometry":{"type":"Polygon","coordinates":[[[-5.86691,43.24261],[-5.87165,43.23685],[-5.87313,43.23336],[-5.87334,43.2326],[-5.87609,43.23247],[-5.87641,43.23252],[-5.87674,43.23279],[-5.87755,43.23318],[-5.87787,43.23317],[-5.87942,43.23277],[-5.87995,43.23285],[-5.88148,43.23396],[-5.88243,43.23481],[-5.87981,43.23624],[-5.87758,43.24206],[-5.87781,43.24063],[-5.87718,43.24125],[-5.87663,43.24151],[-5.87353,43.24235],[-5.87163,43.24259],[-5.86691,43.24261]]]}}]}