{"type":"FeatureCollection","features":[{"type":"Feature","properties":{"id":"3306901001"},"geometry":{"type":"Polygon","coordinates":[[[-6.07731,43.5111],[-6.07638,43.51636],[-6.07634,43.51726],[-6.07663,43.51913],[-6.07695,43.51988],[-6.07739,43.52052],[-6.07803,43.52116],[-6.07888,43.5217],[-6.07971,43.52206],[-6.08221,43.52282],[-6.08325,43.52354],[-6.08397,43.52448],[-6.08622,43.52871],[-6.08668,43.52912],[-6.08923,43.53081],[-6.09143,43.53271],[-6.09262,43.53414],[-6.09297,43.53472],[-6.09342,43.53579],[-6.09355,43.53667],[-6.0934,43.53743],[-6.09311,43.53784],[-6.09266,43.53817],[-6.09208,43.53842],[-6.09154,43.53849],[-6.09076,43.53848],[-6.08838,43.53803],[-6.084,43.53686],[-6.08179,43.53666],[-6.08001,43.53677],[-6.07822,43.53721],[-6.07695,43.5379],[-6.07611,43.53862],[-6.07598,43.53895],[-6.07598,43.53963],[-6.07613,43.53998],[-6.07652,43.54041],[-6.07866,43.542],[-6.08034,43.54363],[-6.08152,43.54518],[-6.08211,43.54628],[-6.08348,43.55069],[-6.08343,43.55176],[-6.08296,43.55247],[-6.08074,43.55444],[-6.08006,43.54976],[-6.07791,43.54605],[-6.07697,43.54395],[-6.07573,43.54164],[-6.07396,43.53976],[-6.07268,43.53886],[-6.07145,43.53749],[-6.07047,43.53673],[-6.06748,43.53543],[-6.06229,43.53424],[-6.06039,43.53367],[-6.05883,43.53349],[-6.05908,43.53009],[-6.05863,43.52675],[-6.06032,43.51878],[-6.06106,43.51683],[-6.0621,43.51528],[-6.06769,43.51259],[-6.07731,43.5111]]]}},{"type":"Feature","properties":{"id":"3306901002"},"geometry":{"type":"Polygon","coordinates":[[[-6.041,43.54525],[-6.03816,43.54532],[-6.03572,43.54551],[-6.02927,43.543],[-6.0257,43.54173],[-6.02512,43.54137],[-6.02433,43.53991],[-6.02388,43.53933],[-6.02281,43.53846],[-6.02205,43.53741],[-6.01804,43.53131],[-6.01799,43.53082],[-6.0193,43.52776],[-6.02045,43.5262],[-6.02095,43.52385],[-6.02316,43.5209],[-6.0251,43.51713],[-6.02508,43.516],[-6.02371,43.51396],[-6.02206,43.51085],[-6.02194,43.5106],[-6.02193,43.50954],[-6.02181,43.50922],[-6.03015,43.50269],[-6.03242,43.49741],[-6.03251,43.49659],[-6.03267,43.49623],[-6.03292,43.49602],[-6.03345,43.49589],[-6.03526,43.49584],[-6.03867,43.49649],[-6.03936,43.4967],[-6.03988,43.49699],[-6.04021,43.49732],[-6.04085,43.4977],[-6.04281,43.49706],[-6.04387,43.49662],[-6.04533,43.49573],[-6.04628,43.49437],[-6.04647,43.4936],[-6.04704,43.49306],[-6.04766,43.49204],[-6.04843,43.49134],[-6.04868,43.49093],[-6.04885,43.49014],[-6.04861,43.48886],[-6.0489,43.48798],[-6.04878,43.48691],[-6.04849,43.48624],[-6.04806,43.48603],[-6.0474,43.48594],[-6.04706,43.48578],[-6.04707,43.48561],[-6.04742,43.4852],[-6.04767,43.48441],[-6.04847,43.48316],[-6.04905,43.48254],[-6.04982,43.482],[-6.05045,43.48135],[-6.05085,43.48055],[-6.05114,43.48023],[-6.0514,43.48012],[-6.05547,43.48178],[-6.0567,43.48103],[-6.05754,43.48172],[-6.05829,43.48212],[-6.06118,43.48405],[-6.06179,43.4842],[-6.06308,43.48404],[-6.06511,43.48414],[-6.06591,43.48485],[-6.06686,43.48513],[-6.06767,43.48585],[-6.06782,43.48645],[-6.06806,43.48679],[-6.06868,43.48704],[-6.06934,43.48713],[-6.06998,43.48735],[-6.07161,43.48874],[-6.07328,43.49061],[-6.07405,43.49129],[-6.076,43.49235],[-6.07674,43.49292],[-6.0777,43.49315],[-6.07835,43.49357],[-6.07918,43.49439],[-6.082,43.49566],[-6.08324,43.49663],[-6.08408,43.49758],[-6.08497,43.49977],[-6.08486,43.50009],[-6.08495,43.5006],[-6.0854,43.50137],[-6.08539,43.50195],[-6.08512,43.50254],[-6.08099,43.50556],[-6.07966,43.50673],[-6.07879,43.50769],[-6.07807,43.50877],[-6.07744,43.51042],[-6.07731,43.5111],[-6.06769,43.51259],[-6.0621,43.51528],[-6.06106,43.51683],[-6.06032,43.51878],[-6.05863,43.52675],[-6.05908,43.53009],[-6.05883,43.53349],[-6.06039,43.53367],[-6.06229,43.53424],[-6.06748,43.53543],[-6.07047,43.53673],[-6.07145,43.53749],[-6.07268,43.53886],[-6.07396,43.53976],[-6.07573,43.54164],[-6.07697,43.54395],[-6.07791,43.54605],[-6.08006,43.54976],[-6.08074,43.55444],[-6.07959,43.55591],[-6.07922,43.55656],[-6.07704,43.55421],[-6.07655,43.55291],[-6.07626,43.55168],[-6.0743,43.55104],[-6.07248,43.55011],[-6.07045,43.54954],[-6.06531,43.54782],[-6.06333,43.54745],[-6.0553,43.54711],[-6.05195,43.54622],[-6.04853,43.54572],[-6.041,43.54525]]]}},{"type":"Feature","properties":{"id":"3306901004"},"geometry":{"type":"Polygon","coordinates":[[[-6.04387,43.56162],[-6.04387,43.56086],[-6.0443,43.55967],[-6.04461,43.55924],[-6.0446,43.5587],[-6.04486,43.55835],[-6.04418,43.55711],[-6.04316,43.5567],[-6.04336,43.55574],[-6.0432,43.55516],[-6.04271,43.55458],[-6.04255,43.55403],[-6.04262,43.55373],[-6.04247,43.55321],[-6.04259,43.55297],[-6.04246,43.55267],[-6.04283,43.55207],[-6.04284,43.55168],[-6.0426,43.55129],[-6.04252,43.55047],[-6.04232,43.54988],[-6.03989,43.54802],[-6.03572,43.54551],[-6.03816,43.54532],[-6.041,43.54525],[-6.04853,43.54572],[-6.05195,43.54622],[-6.0553,43.54711],[-6.06333,43.54745],[-6.06531,43.54782],[-6.07045,43.54954],[-6.07248,43.55011],[-6.0743,43.55104],[-6.07626,43.55168],[-6.07655,43.55291],[-6.07704,43.55421],[-6.07922,43.55656],[-6.0786,43.55821],[-6.0764,43.5581],[-6.07443,43.55842],[-6.07359,43.55758],[-6.07195,43.55837],[-6.06978,43.55924],[-6.0651,43.56037],[-6.05554,43.56094],[-6.0541,43.56128],[-6.05156,43.56132],[-6.04908,43.56181],[-6.04363,43.56197],[-6.04387,43.56162]]]}},{"type":"Feature","properties":{"id":"3306901005"},"geometry":{"type":"Polygon","coordinates":[[[-6.05296,43.57135],[-6.05227,43.57056],[-6.05267,43.56986],[-6.05252,43.56944],[-6.05262,43.56915],[-6.05253,43.56879],[-6.05274,43.56837],[-6.05301,43.56814],[-6.05295,43.56766],[-6.05275,43.56728],[-6.05307,43.56663],[-6.05295,43.56648],[-6.05242,43.56622],[-6.05243,43.56547],[-6.05263,43.56511],[-6.05188,43.56441],[-6.05109,43.56329],[-6.05126,43.56296],[-6.05113,43.56271],[-6.05064,43.56269],[-6.0501,43.56294],[-6.04974,43.563],[-6.04913,43.56283],[-6.04882,43.56285],[-6.04686,43.56346],[-6.0463,43.56319],[-6.04585,43.56326],[-6.0455,43.56307],[-6.0444,43.5629],[-6.04374,43.56266],[-6.04343,43.56235],[-6.04363,43.56197],[-6.04908,43.56181],[-6.05156,43.56132],[-6.0541,43.56128],[-6.05554,43.56094],[-6.0651,43.56037],[-6.06978,43.55924],[-6.07195,43.55837],[-6.07359,43.55758],[-6.07443,43.55842],[-6.0764,43.5581],[-6.0786,43.55821],[-6.07758,43.5607],[-6.07758,43.56274],[-6.07735,43.56373],[-6.07689,43.56461],[-6.07625,43.56467],[-6.07575,43.56484],[-6.07454,43.56488],[-6.07208,43.56551],[-6.06894,43.56535],[-6.06855,43.56547],[-6.06826,43.56585],[-6.0681,43.56583],[-6.06823,43.5655],[-6.06817,43.56531],[-6.068,43.56526],[-6.06666,43.5653],[-6.06502,43.56558],[-6.06463,43.56571],[-6.06401,43.56609],[-6.06358,43.56655],[-6.06275,43.56672],[-6.06171,43.56723],[-6.06111,43.56737],[-6.061,43.56776],[-6.05984,43.56797],[-6.05426,43.57099],[-6.05383,43.57115],[-6.05346,43.57115],[-6.05296,43.57135]]]}}]}