{"type":"FeatureCollection","features":[{"type":"Feature","properties":{"id":"3501701001"},"geometry":{"type":"Polygon","coordinates":[[[-13.85526,28.50486],[-13.85285,28.49981],[-13.85293,28.49975],[-13.85338,28.49978],[-13.85402,28.4996],[-13.85396,28.49951],[-13.85409,28.49946],[-13.85484,28.49925],[-13.85466,28.49792],[-13.85471,28.49782],[-13.85504,28.4977],[-13.85508,28.4974],[-13.85475,28.49493],[-13.85538,28.49466],[-13.85548,28.49457],[-13.85546,28.49435],[-13.85556,28.49435],[-13.85569,28.4955],[-13.85601,28.49547],[-13.85627,28.49782],[-13.8565,28.49779],[-13.85653,28.49807],[-13.8563,28.49809],[-13.85639,28.49894],[-13.85677,28.49895],[-13.85694,28.4988],[-13.85745,28.49872],[-13.85784,28.49854],[-13.8579,28.49847],[-13.85754,28.49825],[-13.85754,28.49814],[-13.85866,28.4987],[-13.86201,28.49965],[-13.86252,28.50024],[-13.862,28.50188],[-13.86097,28.5045],[-13.85875,28.50388],[-13.85846,28.50466],[-13.85704,28.50425],[-13.85526,28.50486]]]}},{"type":"Feature","properties":{"id":"3501701002"},"geometry":{"type":"Polygon","coordinates":[[[-13.86285,28.49989],[-13.85866,28.4987],[-13.85754,28.49814],[-13.85888,28.49741],[-13.85857,28.49703],[-13.85959,28.49615],[-13.85885,28.49611],[-13.85956,28.49612],[-13.8596,28.49592],[-13.85959,28.49614],[-13.85984,28.49591],[-13.8595,28.49566],[-13.85924,28.49565],[-13.8592,28.49591],[-13.85921,28.49565],[-13.85813,28.49562],[-13.85812,28.49553],[-13.85921,28.49557],[-13.85921,28.49538],[-13.85989,28.49523],[-13.86064,28.49462],[-13.86239,28.49413],[-13.8627,28.49458],[-13.86465,28.4952],[-13.865,28.49522],[-13.86654,28.4943],[-13.86771,28.49338],[-13.86829,28.49254],[-13.8688,28.4925],[-13.86955,28.49278],[-13.87167,28.49387],[-13.87193,28.49412],[-13.87211,28.4945],[-13.87217,28.49542],[-13.87229,28.49584],[-13.87247,28.49607],[-13.87398,28.49684],[-13.87412,28.49718],[-13.87406,28.49749],[-13.87318,28.49813],[-13.86819,28.49798],[-13.86618,28.4977],[-13.86442,28.49773],[-13.86379,28.49754],[-13.86285,28.49989]]]}},{"type":"Feature","properties":{"id":"3501701003"},"geometry":{"type":"Polygon","coordinates":[[[-13.86285,28.49989],[-13.86379,28.49754],[-13.86442,28.49773],[-13.86618,28.4977],[-13.86757,28.49793],[-13.86927,28.49801],[-13.86783,28.50131],[-13.86285,28.49989]]]}},{"type":"Feature","properties":{"id":"3501701004"},"geometry":{"type":"Polygon","coordinates":[[[-13.84864,28.49969],[-13.84955,28.49968],[-13.85105,28.50001],[-13.85162,28.49975],[-13.85225,28.49994],[-13.85271,28.49991],[-13.85285,28.49981],[-13.85526,28.50486],[-13.85162,28.50611],[-13.84864,28.49969]]]}},{"type":"Feature","properties":{"id":"3501701006"},"geometry":{"type":"Polygon","coordinates":[[[-13.86734,28.5057],[-13.86204,28.49967],[-13.87205,28.50249],[-13.86734,28.5057]]]}},{"type":"Feature","properties":{"id":"3501701007"},"geometry":{"type":"Polygon","coordinates":[[[-13.84868,28.51782],[-13.84088,28.51521],[-13.8411,28.51497],[-13.84111,28.51466],[-13.84164,28.5144],[-13.84173,28.51442],[-13.84225,28.51403],[-13.84234,28.51404],[-13.84275,28.51366],[-13.84325,28.51273],[-13.84381,28.51213],[-13.84401,28.51158],[-13.84389,28.51036],[-13.84288,28.50928],[-13.84278,28.50901],[-13.84296,28.50874],[-13.84362,28.50821],[-13.84399,28.50714],[-13.84393,28.50672],[-13.84374,28.5065],[-13.84349,28.50594],[-13.84329,28.50584],[-13.84348,28.50512],[-13.84331,28.50439],[-13.84348,28.50362],[-13.84377,28.50321],[-13.84426,28.50307],[-13.84476,28.50274],[-13.84558,28.50173],[-13.84576,28.50172],[-13.84593,28.50189],[-13.84619,28.50196],[-13.84654,28.50189],[-13.84694,28.50159],[-13.84733,28.501],[-13.84734,28.50039],[-13.84777,28.49988],[-13.84832,28.49967],[-13.84864,28.49969],[-13.85162,28.50611],[-13.85053,28.50649],[-13.85092,28.50745],[-13.85095,28.50786],[-13.85079,28.5084],[-13.84981,28.50985],[-13.84956,28.51046],[-13.84921,28.51604],[-13.849,28.51734],[-13.84868,28.51782]]]}},{"type":"Feature","properties":{"id":"3501701008"},"geometry":{"type":"Polygon","coordinates":[[[-13.87318,28.49813],[-13.87406,28.49749],[-13.87412,28.49718],[-13.87398,28.49684],[-13.87247,28.49607],[-13.87229,28.49584],[-13.87217,28.49542],[-13.87211,28.4945],[-13.87193,28.49412],[-13.87167,28.49387],[-13.86955,28.49278],[-13.8688,28.4925],[-13.86829,28.49254],[-13.86771,28.49338],[-13.86654,28.4943],[-13.865,28.49522],[-13.86465,28.4952],[-13.8627,28.49458],[-13.86239,28.49413],[-13.8626,28.49404],[-13.86284,28.49357],[-13.86279,28.49305],[-13.86294,28.49299],[-13.86287,28.49282],[-13.86301,28.49277],[-13.86293,28.49268],[-13.86311,28.49267],[-13.86316,28.49259],[-13.86322,28.49208],[-13.86311,28.49118],[-13.86315,28.49109],[-13.86329,28.49113],[-13.86332,28.49106],[-13.86321,28.49082],[-13.86373,28.49014],[-13.86403,28.48946],[-13.86463,28.4889],[-13.86481,28.48822],[-13.86519,28.48771],[-13.86529,28.48731],[-13.86527,28.48671],[-13.86504,28.48662],[-13.86502,28.48648],[-13.86569,28.48513],[-13.86569,28.48496],[-13.86606,28.48454],[-13.86616,28.48391],[-13.86669,28.4842],[-13.86842,28.48559],[-13.86884,28.48575],[-13.87057,28.48598],[-13.87421,28.48562],[-13.87565,28.48579],[-13.878,28.4866],[-13.87997,28.48824],[-13.88158,28.49053],[-13.88451,28.49504],[-13.8859,28.49776],[-13.8832,28.49827],[-13.88231,28.49837],[-13.87318,28.49813]]]}},{"type":"Feature","properties":{"id":"3501701009"},"geometry":{"type":"Polygon","coordinates":[[[-13.86783,28.50131],[-13.86927,28.49801],[-13.87306,28.49813],[-13.87147,28.50233],[-13.86783,28.50131]]]}},{"type":"Feature","properties":{"id":"3501701010"},"geometry":{"type":"Polygon","coordinates":[[[-13.87351,28.50608],[-13.87039,28.50361],[-13.87205,28.50249],[-13.87367,28.50292],[-13.87544,28.50284],[-13.87638,28.50264],[-13.87699,28.50262],[-13.87736,28.50272],[-13.8779,28.50302],[-13.87351,28.50608]]]}},{"type":"Feature","properties":{"id":"3501701011"},"geometry":{"type":"Polygon","coordinates":[[[-13.85036,28.50903],[-13.85079,28.5084],[-13.85095,28.50786],[-13.85092,28.50745],[-13.85053,28.50649],[-13.85704,28.50425],[-13.85846,28.50466],[-13.85875,28.50388],[-13.861,28.50451],[-13.86072,28.50525],[-13.86066,28.50602],[-13.8603,28.50749],[-13.85921,28.51058],[-13.85634,28.50972],[-13.85458,28.51031],[-13.85264,28.50985],[-13.8515,28.51022],[-13.8511,28.51024],[-13.8509,28.51015],[-13.85067,28.5099],[-13.85036,28.50903]]]}},{"type":"Feature","properties":{"id":"3501701012"},"geometry":{"type":"Polygon","coordinates":[[[-13.86076,28.50525],[-13.86252,28.50024],[-13.874,28.51326],[-13.87172,28.51487],[-13.87088,28.514],[-13.87001,28.51356],[-13.86928,28.51332],[-13.86914,28.51307],[-13.86853,28.51254],[-13.86789,28.51223],[-13.86765,28.51191],[-13.86756,28.51152],[-13.8669,28.51097],[-13.86659,28.51028],[-13.86622,28.51025],[-13.86609,28.51009],[-13.86588,28.51001],[-13.86575,28.50951],[-13.86471,28.50869],[-13.86477,28.5083],[-13.86438,28.50836],[-13.86381,28.50807],[-13.86233,28.50642],[-13.86206,28.50581],[-13.86076,28.50525]]]}},{"type":"Feature","properties":{"id":"3501701013"},"geometry":{"type":"Polygon","coordinates":[[[-13.86734,28.5057],[-13.87039,28.50361],[-13.87351,28.50608],[-13.86983,28.50854],[-13.86734,28.5057]]]}},{"type":"Feature","properties":{"id":"3501701014"},"geometry":{"type":"Polygon","coordinates":[[[-13.86616,28.48391],[-13.86616,28.48367],[-13.86592,28.48324],[-13.86592,28.48304],[-13.8661,28.48294],[-13.86613,28.48261],[-13.8666,28.48198],[-13.86676,28.48158],[-13.86746,28.48136],[-13.86759,28.48122],[-13.86771,28.48082],[-13.86772,28.48004],[-13.8676,28.47983],[-13.86757,28.47911],[-13.86693,28.47723],[-13.86582,28.47456],[-13.86569,28.47443],[-13.86467,28.47424],[-13.86417,28.47335],[-13.8631,28.47252],[-13.8628,28.47194],[-13.86266,28.47136],[-13.86276,28.47065],[-13.86201,28.46986],[-13.86184,28.46979],[-13.86175,28.46948],[-13.86154,28.46928],[-13.8615,28.46893],[-13.86137,28.46876],[-13.8612,28.46859],[-13.86057,28.46829],[-13.86005,28.46751],[-13.86026,28.46739],[-13.8608,28.46742],[-13.86205,28.46724],[-13.86264,28.46651],[-13.86433,28.46522],[-13.86541,28.46476],[-13.86625,28.46457],[-13.86783,28.4647],[-13.86883,28.46441],[-13.87007,28.46391],[-13.87101,28.46372],[-13.87172,28.46411],[-13.87269,28.46486],[-13.87506,28.4656],[-13.87697,28.46706],[-13.87895,28.4682],[-13.87972,28.46843],[-13.88067,28.46817],[-13.88102,28.46821],[-13.88138,28.46849],[-13.88181,28.4692],[-13.88231,28.46969],[-13.88288,28.46984],[-13.88444,28.46988],[-13.88445,28.47039],[-13.88286,28.47292],[-13.88222,28.47626],[-13.88174,28.47757],[-13.88166,28.47809],[-13.88182,28.47872],[-13.88228,28.47981],[-13.88321,28.47999],[-13.88539,28.48099],[-13.8867,28.4818],[-13.88766,28.48263],[-13.88924,28.48334],[-13.88967,28.48368],[-13.89043,28.48482],[-13.8912,28.48545],[-13.89172,28.48571],[-13.89234,28.48581],[-13.89442,28.48577],[-13.89754,28.48602],[-13.89946,28.48644],[-13.90063,28.48692],[-13.9023,28.48868],[-13.90307,28.48969],[-13.90368,28.4913],[-13.90412,28.49217],[-13.90428,28.49319],[-13.90416,28.49359],[-13.90341,28.49422],[-13.90177,28.49502],[-13.90096,28.49525],[-13.89766,28.49552],[-13.8859,28.49776],[-13.88451,28.49504],[-13.88158,28.49053],[-13.87997,28.48824],[-13.878,28.4866],[-13.87565,28.48579],[-13.87421,28.48562],[-13.87057,28.48598],[-13.86884,28.48575],[-13.86842,28.48559],[-13.86669,28.4842],[-13.86616,28.48391]]]}},{"type":"Feature","properties":{"id":"3501701015"},"geometry":{"type":"Polygon","coordinates":[[[-13.88134,28.52325],[-13.88088,28.52298],[-13.88048,28.5224],[-13.87992,28.52017],[-13.87972,28.51983],[-13.87402,28.51327],[-13.87882,28.50997],[-13.87614,28.50819],[-13.87351,28.50608],[-13.8779,28.50302],[-13.87884,28.50343],[-13.87962,28.50413],[-13.88032,28.50437],[-13.88099,28.50473],[-13.88126,28.5046],[-13.88142,28.50436],[-13.88174,28.50437],[-13.88279,28.50494],[-13.88362,28.50498],[-13.88388,28.50507],[-13.88393,28.50523],[-13.88371,28.50538],[-13.88383,28.50563],[-13.8841,28.506],[-13.88439,28.50619],[-13.8846,28.50667],[-13.88538,28.50767],[-13.88684,28.50867],[-13.8879,28.50914],[-13.88911,28.51011],[-13.88953,28.51059],[-13.88996,28.51075],[-13.89076,28.51086],[-13.89093,28.51102],[-13.89168,28.51116],[-13.8919,28.51128],[-13.89237,28.51177],[-13.89303,28.51215],[-13.89339,28.51266],[-13.89331,28.51298],[-13.89353,28.51324],[-13.89352,28.51379],[-13.89368,28.51422],[-13.89152,28.51528],[-13.89047,28.51591],[-13.89022,28.51621],[-13.88991,28.51748],[-13.88972,28.51776],[-13.88785,28.51961],[-13.8859,28.52185],[-13.8855,28.52205],[-13.88422,28.5224],[-13.88195,28.52317],[-13.88134,28.52325]]]}},{"type":"Feature","properties":{"id":"3501701016"},"geometry":{"type":"Polygon","coordinates":[[[-13.87884,28.50343],[-13.87736,28.50272],[-13.8767,28.50261],[-13.87544,28.50284],[-13.87367,28.50292],[-13.87147,28.50233],[-13.87306,28.49813],[-13.88261,28.49835],[-13.89766,28.49552],[-13.90035,28.49534],[-13.90144,28.49513],[-13.89911,28.49614],[-13.89548,28.49703],[-13.89511,28.49731],[-13.89475,28.49776],[-13.89463,28.49835],[-13.89495,28.49993],[-13.89517,28.50286],[-13.89545,28.50323],[-13.89681,28.50448],[-13.89735,28.50513],[-13.89749,28.50566],[-13.89753,28.50636],[-13.89831,28.50749],[-13.89838,28.50829],[-13.89823,28.50864],[-13.89718,28.50989],[-13.89664,28.51122],[-13.8956,28.51302],[-13.8952,28.51344],[-13.89368,28.51422],[-13.89352,28.51379],[-13.89353,28.51324],[-13.89331,28.51298],[-13.89339,28.51266],[-13.89303,28.51215],[-13.89237,28.51177],[-13.8917,28.51117],[-13.89093,28.51102],[-13.89076,28.51086],[-13.88996,28.51075],[-13.88953,28.51059],[-13.88911,28.51011],[-13.8879,28.50914],[-13.88684,28.50867],[-13.88549,28.50776],[-13.8846,28.50667],[-13.88439,28.50619],[-13.8841,28.506],[-13.88383,28.50563],[-13.88371,28.50538],[-13.88393,28.50523],[-13.88391,28.50509],[-13.88362,28.50498],[-13.88279,28.50494],[-13.88174,28.50437],[-13.88142,28.50436],[-13.88126,28.5046],[-13.88099,28.50473],[-13.88032,28.50437],[-13.87962,28.50413],[-13.87884,28.50343]]]}},{"type":"Feature","properties":{"id":"3501701017"},"geometry":{"type":"Polygon","coordinates":[[[-13.874,28.51326],[-13.86983,28.50854],[-13.87351,28.50608],[-13.87614,28.50819],[-13.87882,28.50997],[-13.874,28.51326]]]}},{"type":"Feature","properties":{"id":"3501701018"},"geometry":{"type":"Polygon","coordinates":[[[-13.86147,28.52167],[-13.85927,28.5215],[-13.8575,28.52021],[-13.85697,28.52002],[-13.85667,28.51963],[-13.85573,28.51922],[-13.85461,28.51961],[-13.8519,28.51862],[-13.85131,28.51878],[-13.85005,28.51854],[-13.84937,28.51859],[-13.84901,28.51843],[-13.84816,28.5185],[-13.849,28.51734],[-13.84921,28.51604],[-13.84952,28.51065],[-13.84969,28.51006],[-13.85036,28.50903],[-13.85067,28.5099],[-13.8509,28.51015],[-13.8511,28.51024],[-13.8515,28.51022],[-13.85264,28.50985],[-13.85458,28.51031],[-13.85634,28.50972],[-13.85921,28.51058],[-13.86014,28.50802],[-13.86081,28.50524],[-13.86206,28.50581],[-13.86233,28.50642],[-13.86381,28.50807],[-13.86438,28.50836],[-13.86477,28.5083],[-13.86471,28.50869],[-13.86575,28.50951],[-13.86588,28.51001],[-13.86609,28.51009],[-13.86622,28.51025],[-13.86659,28.51028],[-13.8669,28.51097],[-13.86756,28.51152],[-13.86765,28.51191],[-13.86789,28.51223],[-13.86853,28.51254],[-13.86914,28.51307],[-13.86928,28.51332],[-13.87001,28.51356],[-13.87088,28.514],[-13.87172,28.51487],[-13.874,28.51326],[-13.87972,28.51983],[-13.87992,28.52017],[-13.88048,28.5224],[-13.88088,28.52298],[-13.88134,28.52325],[-13.87764,28.52183],[-13.87574,28.52093],[-13.87445,28.52042],[-13.87117,28.52266],[-13.8708,28.52239],[-13.87003,28.52207],[-13.86902,28.52177],[-13.86712,28.52204],[-13.86608,28.52231],[-13.86403,28.52161],[-13.86178,28.52141],[-13.86147,28.52167]]]}},{"type":"Feature","properties":{"id":"3501702001"},"geometry":{"type":"Polygon","coordinates":[[[-13.9341,28.57026],[-13.91984,28.56672],[-13.91911,28.55688],[-13.92235,28.54769],[-13.9236,28.53759],[-13.92374,28.53024],[-13.92227,28.52382],[-13.92388,28.51821],[-13.92014,28.51498],[-13.92813,28.51282],[-13.94393,28.51041],[-13.9443,28.51083],[-13.94592,28.51107],[-13.94706,28.51116],[-13.94896,28.51104],[-13.95176,28.51115],[-13.95369,28.5118],[-13.9562,28.51215],[-13.95746,28.51268],[-13.95853,28.51227],[-13.95941,28.51235],[-13.96104,28.51266],[-13.96316,28.51255],[-13.96408,28.51259],[-13.966,28.51325],[-13.96664,28.5136],[-13.96707,28.51395],[-13.9677,28.51417],[-13.96992,28.51424],[-13.97034,28.51441],[-13.97107,28.51548],[-13.97296,28.51729],[-13.97302,28.51827],[-13.97292,28.52186],[-13.973,28.52242],[-13.97204,28.52316],[-13.97116,28.524],[-13.97014,28.52458],[-13.96889,28.525],[-13.96865,28.52522],[-13.9686,28.52547],[-13.96869,28.5258],[-13.96976,28.52737],[-13.96985,28.52764],[-13.96968,28.52865],[-13.96953,28.52904],[-13.96901,28.52982],[-13.96855,28.53115],[-13.9683,28.53388],[-13.96837,28.53462],[-13.9685,28.53488],[-13.97004,28.5373],[-13.97095,28.53978],[-13.97181,28.54101],[-13.96808,28.54351],[-13.96749,28.54404],[-13.96693,28.54528],[-13.96664,28.54544],[-13.9636,28.54627],[-13.96245,28.54685],[-13.96194,28.54723],[-13.96169,28.54761],[-13.96175,28.5486],[-13.96262,28.55176],[-13.96296,28.55236],[-13.96355,28.55301],[-13.96379,28.55345],[-13.96413,28.55384],[-13.96462,28.55421],[-13.96854,28.55609],[-13.97189,28.55871],[-13.97234,28.55923],[-13.97301,28.56049],[-13.97356,28.56245],[-13.97544,28.5644],[-13.97654,28.56649],[-13.97748,28.5677],[-13.97427,28.56814],[-13.97269,28.56883],[-13.9716,28.56976],[-13.97064,28.57015],[-13.97011,28.57015],[-13.96892,28.56993],[-13.96788,28.5701],[-13.96726,28.57039],[-13.96634,28.57113],[-13.96529,28.57171],[-13.96176,28.57279],[-13.96093,28.57276],[-13.95996,28.57237],[-13.95939,28.57195],[-13.958,28.57203],[-13.95647,28.57222],[-13.95256,28.57335],[-13.95022,28.57309],[-13.94986,28.57294],[-13.9487,28.57218],[-13.94771,28.57181],[-13.94605,28.57164],[-13.94423,28.57134],[-13.94305,28.57083],[-13.94229,28.57009],[-13.94188,28.56993],[-13.93907,28.5697],[-13.9374,28.56992],[-13.93616,28.56971],[-13.93548,28.56971],[-13.93485,28.56986],[-13.9341,28.57026]]]}},{"type":"Feature","properties":{"id":"3501702002"},"geometry":{"type":"Polygon","coordinates":[[[-13.84001,28.56591],[-13.8389,28.56574],[-13.83488,28.56467],[-13.83293,28.55643],[-13.8331,28.55475],[-13.83419,28.5524],[-13.83892,28.54638],[-13.84001,28.54451],[-13.84242,28.53883],[-13.84297,28.5367],[-13.84286,28.53516],[-13.84245,28.53326],[-13.84201,28.53235],[-13.84155,28.53084],[-13.8417,28.52874],[-13.84261,28.52838],[-13.84299,28.52846],[-13.84325,28.52866],[-13.84338,28.52907],[-13.84344,28.53046],[-13.84363,28.53103],[-13.8438,28.53131],[-13.84421,28.53169],[-13.84513,28.53203],[-13.84575,28.53203],[-13.84624,28.53188],[-13.84676,28.53134],[-13.84816,28.52948],[-13.84866,28.52923],[-13.84939,28.52953],[-13.85118,28.53102],[-13.85173,28.53116],[-13.85203,28.53107],[-13.85247,28.53061],[-13.85326,28.53041],[-13.85467,28.5304],[-13.8567,28.52993],[-13.85835,28.52997],[-13.86008,28.52153],[-13.86147,28.52167],[-13.86178,28.52141],[-13.86403,28.52161],[-13.86608,28.52231],[-13.86712,28.52204],[-13.86902,28.52177],[-13.87003,28.52207],[-13.8708,28.52239],[-13.87117,28.52266],[-13.87445,28.52042],[-13.87574,28.52093],[-13.87764,28.52183],[-13.88132,28.52327],[-13.88195,28.52317],[-13.88574,28.52196],[-13.88785,28.51961],[-13.88972,28.51776],[-13.88991,28.51748],[-13.89022,28.51621],[-13.89047,28.51591],[-13.89152,28.51528],[-13.8952,28.51344],[-13.8956,28.51302],[-13.89664,28.51122],[-13.89718,28.50989],[-13.89823,28.50864],[-13.89838,28.50829],[-13.89831,28.50749],[-13.89753,28.50636],[-13.89749,28.50566],[-13.89735,28.50513],[-13.89681,28.50448],[-13.89545,28.50323],[-13.89512,28.50268],[-13.89495,28.49993],[-13.89464,28.49809],[-13.89475,28.49776],[-13.89511,28.49731],[-13.89548,28.49703],[-13.89911,28.49614],[-13.90107,28.49525],[-13.90194,28.49494],[-13.90342,28.49545],[-13.90396,28.49539],[-13.90416,28.49545],[-13.90482,28.49691],[-13.90521,28.49718],[-13.90605,28.49738],[-13.90672,28.49733],[-13.90836,28.49662],[-13.90879,28.49581],[-13.90925,28.49536],[-13.90956,28.49524],[-13.90993,28.4953],[-13.91074,28.49564],[-13.91205,28.49575],[-13.91768,28.49565],[-13.91964,28.49585],[-13.92104,28.49588],[-13.92818,28.49589],[-13.92913,28.49581],[-13.92989,28.49606],[-13.93028,28.49633],[-13.93079,28.49689],[-13.93142,28.49734],[-13.93199,28.49764],[-13.93367,28.49824],[-13.93465,28.49888],[-13.93586,28.50066],[-13.93739,28.50223],[-13.93936,28.50386],[-13.94094,28.50485],[-13.94194,28.50585],[-13.94278,28.50706],[-13.94406,28.50923],[-13.94393,28.51041],[-13.92813,28.51282],[-13.92014,28.51498],[-13.92388,28.51821],[-13.92227,28.52382],[-13.92374,28.53024],[-13.9236,28.53759],[-13.92235,28.54769],[-13.91911,28.55688],[-13.91984,28.56672],[-13.9341,28.57026],[-13.93323,28.57116],[-13.93204,28.57198],[-13.93051,28.57248],[-13.92817,28.57298],[-13.9259,28.57315],[-13.92457,28.57344],[-13.92167,28.57435],[-13.92072,28.57438],[-13.91847,28.57378],[-13.91795,28.57355],[-13.91752,28.57351],[-13.91682,28.57368],[-13.91626,28.57401],[-13.91573,28.57446],[-13.91472,28.57482],[-13.91377,28.57495],[-13.91122,28.57507],[-13.90987,28.57524],[-13.90957,28.57542],[-13.9095,28.5754],[-13.90994,28.57467],[-13.91012,28.57415],[-13.91017,28.57314],[-13.90981,28.57235],[-13.90833,28.57099],[-13.90775,28.57058],[-13.90509,28.57011],[-13.90324,28.56937],[-13.90233,28.56913],[-13.89998,28.56928],[-13.89858,28.5688],[-13.89675,28.56858],[-13.89594,28.56891],[-13.8941,28.57035],[-13.89232,28.57133],[-13.8918,28.57143],[-13.89116,28.57135],[-13.88976,28.57053],[-13.88902,28.57112],[-13.88766,28.57246],[-13.88724,28.57272],[-13.88563,28.57293],[-13.88205,28.57291],[-13.88042,28.57273],[-13.87711,28.57189],[-13.87433,28.57165],[-13.86967,28.57094],[-13.86823,28.57081],[-13.86681,28.57037],[-13.86466,28.56993],[-13.86211,28.56928],[-13.86088,28.5692],[-13.85741,28.56866],[-13.85554,28.56883],[-13.85434,28.5688],[-13.84776,28.56793],[-13.84464,28.56711],[-13.84332,28.56666],[-13.84001,28.56591]]]}},{"type":"Feature","properties":{"id":"3501702003"},"geometry":{"type":"Polygon","coordinates":[[[-13.82884,28.56382],[-13.8295,28.56297],[-13.82968,28.56254],[-13.82973,28.56182],[-13.82962,28.56015],[-13.82976,28.55967],[-13.82973,28.55906],[-13.82963,28.55887],[-13.82894,28.55856],[-13.82748,28.55761],[-13.82637,28.55725],[-13.82597,28.55682],[-13.82587,28.55649],[-13.82593,28.556],[-13.82555,28.55532],[-13.82602,28.55447],[-13.82584,28.55401],[-13.82632,28.55358],[-13.82633,28.55327],[-13.82614,28.55305],[-13.82594,28.55296],[-13.82584,28.55269],[-13.82612,28.55199],[-13.82714,28.55225],[-13.82759,28.55199],[-13.82803,28.552],[-13.82842,28.55189],[-13.82878,28.55132],[-13.82999,28.55029],[-13.8302,28.5497],[-13.83013,28.54868],[-13.8302,28.54832],[-13.83043,28.54784],[-13.83081,28.54739],[-13.83091,28.54658],[-13.83164,28.54526],[-13.83185,28.54512],[-13.83282,28.54488],[-13.83372,28.54398],[-13.83427,28.54389],[-13.83502,28.54342],[-13.83587,28.54346],[-13.8363,28.54366],[-13.83665,28.54359],[-13.83692,28.54337],[-13.83714,28.54284],[-13.83763,28.54211],[-13.83777,28.54123],[-13.83757,28.53936],[-13.83776,28.53915],[-13.83867,28.53903],[-13.83877,28.5389],[-13.83883,28.53815],[-13.83855,28.53723],[-13.83803,28.53637],[-13.83731,28.53563],[-13.83633,28.53498],[-13.8346,28.53447],[-13.83435,28.53409],[-13.83433,28.53279],[-13.83468,28.53244],[-13.8355,28.53192],[-13.83581,28.53124],[-13.83572,28.53086],[-13.83542,28.53055],[-13.83506,28.53033],[-13.83511,28.53013],[-13.83535,28.52987],[-13.83539,28.52963],[-13.83479,28.52732],[-13.83491,28.52654],[-13.83492,28.52546],[-13.83509,28.52498],[-13.83626,28.52414],[-13.83659,28.52364],[-13.83697,28.52333],[-13.83749,28.52318],[-13.83782,28.52263],[-13.83825,28.52256],[-13.83881,28.52206],[-13.83935,28.52132],[-13.83946,28.52101],[-13.8395,28.51995],[-13.83992,28.51927],[-13.84003,28.51872],[-13.83994,28.5182],[-13.84005,28.51813],[-13.84016,28.5173],[-13.84003,28.51622],[-13.84011,28.51595],[-13.84088,28.51521],[-13.84868,28.51782],[-13.84816,28.5185],[-13.84901,28.51843],[-13.84937,28.51859],[-13.85005,28.51854],[-13.85131,28.51878],[-13.8519,28.51862],[-13.85461,28.51961],[-13.85573,28.51922],[-13.85667,28.51963],[-13.85697,28.52002],[-13.8575,28.52021],[-13.85927,28.5215],[-13.86008,28.52153],[-13.85835,28.52997],[-13.8567,28.52993],[-13.85467,28.5304],[-13.85326,28.53041],[-13.85247,28.53061],[-13.85203,28.53107],[-13.85173,28.53116],[-13.85118,28.53102],[-13.84939,28.52953],[-13.84866,28.52923],[-13.84816,28.52948],[-13.84676,28.53134],[-13.84624,28.53188],[-13.84575,28.53203],[-13.84513,28.53203],[-13.84421,28.53169],[-13.8438,28.53131],[-13.84363,28.53103],[-13.84344,28.53046],[-13.84338,28.52907],[-13.84325,28.52866],[-13.84299,28.52846],[-13.84261,28.52838],[-13.8417,28.52874],[-13.84155,28.53084],[-13.84201,28.53235],[-13.84245,28.53326],[-13.84286,28.53516],[-13.84297,28.5367],[-13.84242,28.53883],[-13.84001,28.54451],[-13.83892,28.54638],[-13.83419,28.5524],[-13.8331,28.55475],[-13.83293,28.55643],[-13.83488,28.56467],[-13.83366,28.56442],[-13.82884,28.56382]]]}},{"type":"Feature","properties":{"id":"3501703001"},"geometry":{"type":"Polygon","coordinates":[[[-13.97748,28.5677],[-13.97654,28.56649],[-13.97544,28.5644],[-13.97356,28.56245],[-13.97301,28.56049],[-13.97234,28.55923],[-13.97189,28.55871],[-13.96854,28.55609],[-13.96462,28.55421],[-13.96413,28.55384],[-13.96379,28.55345],[-13.96355,28.55301],[-13.96296,28.55236],[-13.96262,28.55176],[-13.96175,28.5486],[-13.96169,28.54761],[-13.96194,28.54723],[-13.96245,28.54685],[-13.9636,28.54627],[-13.96664,28.54544],[-13.96693,28.54528],[-13.96749,28.54404],[-13.96808,28.54351],[-13.97181,28.54101],[-13.97095,28.53978],[-13.97004,28.5373],[-13.9685,28.53488],[-13.96837,28.53462],[-13.9683,28.53388],[-13.96855,28.53115],[-13.96901,28.52982],[-13.96953,28.52904],[-13.96968,28.52865],[-13.96985,28.52764],[-13.96976,28.52737],[-13.96869,28.5258],[-13.9686,28.52547],[-13.96865,28.52522],[-13.96889,28.525],[-13.97014,28.52458],[-13.97116,28.524],[-13.97204,28.52316],[-13.973,28.52242],[-13.97292,28.52186],[-13.97302,28.51827],[-13.97296,28.51729],[-13.97107,28.51548],[-13.97045,28.51448],[-13.96992,28.51424],[-13.9677,28.51417],[-13.96707,28.51395],[-13.96664,28.5136],[-13.966,28.51325],[-13.96408,28.51259],[-13.96316,28.51255],[-13.96104,28.51266],[-13.95941,28.51235],[-13.95853,28.51227],[-13.95746,28.51268],[-13.9562,28.51215],[-13.95369,28.5118],[-13.95176,28.51115],[-13.94896,28.51104],[-13.94706,28.51116],[-13.9443,28.51083],[-13.94393,28.51044],[-13.94406,28.50923],[-13.94238,28.50645],[-13.94194,28.50585],[-13.94094,28.50485],[-13.93936,28.50386],[-13.93739,28.50223],[-13.93586,28.50066],[-13.93465,28.49888],[-13.93367,28.49824],[-13.93199,28.49764],[-13.93142,28.49734],[-13.93079,28.49689],[-13.93028,28.49633],[-13.92989,28.49606],[-13.92913,28.49581],[-13.92818,28.49589],[-13.92104,28.49588],[-13.91964,28.49585],[-13.91768,28.49565],[-13.91205,28.49575],[-13.91074,28.49564],[-13.90993,28.4953],[-13.90956,28.49524],[-13.90925,28.49536],[-13.90879,28.49581],[-13.90836,28.49662],[-13.90712,28.49719],[-13.90625,28.49739],[-13.90521,28.49718],[-13.90476,28.49684],[-13.90416,28.49545],[-13.90396,28.49539],[-13.90342,28.49545],[-13.90194,28.49494],[-13.90341,28.49422],[-13.90393,28.49384],[-13.90416,28.49359],[-13.90428,28.49319],[-13.90425,28.49283],[-13.90412,28.49217],[-13.90368,28.4913],[-13.90307,28.48969],[-13.9023,28.48868],[-13.90063,28.48692],[-13.89946,28.48644],[-13.89754,28.48602],[-13.89442,28.48577],[-13.89234,28.48581],[-13.89172,28.48571],[-13.8912,28.48545],[-13.89043,28.48482],[-13.88967,28.48368],[-13.88924,28.48334],[-13.88766,28.48263],[-13.8867,28.4818],[-13.88539,28.48099],[-13.88321,28.47999],[-13.88228,28.47981],[-13.88182,28.47872],[-13.88166,28.47809],[-13.88174,28.47757],[-13.88222,28.47626],[-13.88286,28.47292],[-13.88445,28.47039],[-13.88444,28.46988],[-13.88409,28.46986],[-13.88423,28.46877],[-13.88408,28.46626],[-13.88326,28.46153],[-13.88361,28.45553],[-13.88423,28.45205],[-13.88459,28.45087],[-13.88601,28.44842],[-13.88602,28.44729],[-13.88742,28.44658],[-13.88778,28.44541],[-13.88657,28.44499],[-13.88467,28.44374],[-13.88683,28.44222],[-13.88773,28.43889],[-13.88953,28.4389],[-13.89023,28.43845],[-13.88967,28.4368],[-13.88928,28.43511],[-13.88929,28.43423],[-13.89005,28.43383],[-13.89064,28.43317],[-13.89135,28.43204],[-13.8924,28.43139],[-13.89323,28.43059],[-13.89627,28.43155],[-13.89829,28.43199],[-13.89896,28.43222],[-13.90099,28.43349],[-13.90194,28.43442],[-13.90292,28.43511],[-13.90346,28.43578],[-13.90509,28.43683],[-13.90601,28.43731],[-13.91283,28.43935],[-13.91692,28.44],[-13.91957,28.44028],[-13.92159,28.44067],[-13.9231,28.44141],[-13.92394,28.44196],[-13.9254,28.44369],[-13.92643,28.44446],[-13.92858,28.44556],[-13.9297,28.44624],[-13.93312,28.44741],[-13.93766,28.44945],[-13.93938,28.45066],[-13.93994,28.45089],[-13.94053,28.45092],[-13.94119,28.45121],[-13.94218,28.45195],[-13.94323,28.45296],[-13.94413,28.45346],[-13.94496,28.45414],[-13.94526,28.45425],[-13.94661,28.45425],[-13.94809,28.45446],[-13.94874,28.45463],[-13.94943,28.45468],[-13.95328,28.45469],[-13.95381,28.45461],[-13.95824,28.45259],[-13.9606,28.45173],[-13.96167,28.4515],[-13.96403,28.45151],[-13.96444,28.45133],[-13.96531,28.45063],[-13.96657,28.45011],[-13.96742,28.44994],[-13.96838,28.44995],[-13.96933,28.44979],[-13.97023,28.44975],[-13.97046,28.44986],[-13.97161,28.45],[-13.97239,28.4502],[-13.97314,28.45015],[-13.9748,28.45022],[-13.97496,28.45034],[-13.97513,28.45074],[-13.97514,28.45159],[-13.97557,28.45209],[-13.97659,28.45242],[-13.97801,28.45316],[-13.97894,28.45326],[-13.97964,28.45317],[-13.98115,28.45271],[-13.98342,28.45108],[-13.98564,28.44993],[-13.98742,28.44945],[-13.98925,28.44914],[-13.99022,28.44911],[-13.99196,28.4493],[-13.99608,28.4499],[-13.99697,28.44973],[-14.00221,28.44784],[-14.00428,28.44735],[-14.00639,28.44719],[-14.00936,28.44721],[-14.01292,28.44741],[-14.01623,28.44781],[-14.01669,28.44927],[-14.01701,28.44994],[-14.01758,28.45049],[-14.01928,28.45166],[-14.02074,28.45302],[-14.02137,28.45412],[-14.02245,28.45642],[-14.02488,28.45895],[-14.03137,28.46359],[-14.0421,28.47052],[-14.04323,28.47154],[-14.04368,28.47237],[-14.04376,28.4734],[-14.04316,28.47534],[-14.04286,28.47566],[-14.0422,28.47593],[-14.0407,28.47703],[-14.04033,28.4776],[-14.0403,28.47819],[-14.04066,28.48033],[-14.0415,28.48322],[-14.04161,28.48566],[-14.04177,28.48613],[-14.04201,28.48647],[-14.04286,28.48709],[-14.04331,28.48812],[-14.04351,28.48901],[-14.04371,28.48927],[-14.04391,28.48935],[-14.04556,28.48949],[-14.0464,28.48987],[-14.0469,28.48977],[-14.04878,28.48888],[-14.04938,28.48889],[-14.05011,28.48909],[-14.05062,28.48892],[-14.0515,28.48835],[-14.05247,28.48855],[-14.05356,28.48923],[-14.05413,28.4899],[-14.05529,28.49032],[-14.05629,28.49135],[-14.05734,28.49192],[-14.05766,28.49221],[-14.05797,28.49299],[-14.05866,28.49378],[-14.0595,28.49419],[-14.05996,28.49463],[-14.06014,28.4946],[-14.06054,28.4943],[-14.06093,28.49428],[-14.06118,28.49415],[-14.06163,28.49431],[-14.06251,28.494],[-14.06277,28.4938],[-14.06414,28.49218],[-14.0655,28.49199],[-14.06601,28.49221],[-14.06669,28.49231],[-14.06773,28.49222],[-14.06976,28.49168],[-14.07028,28.49094],[-14.07057,28.49103],[-14.07086,28.49144],[-14.07163,28.49171],[-14.07246,28.49165],[-14.07372,28.49142],[-14.07422,28.49104],[-14.07499,28.49122],[-14.07576,28.49114],[-14.07646,28.49122],[-14.07677,28.49134],[-14.07722,28.49176],[-14.07726,28.49282],[-14.07738,28.49301],[-14.0791,28.4933],[-14.07957,28.49322],[-14.08014,28.49325],[-14.08073,28.49293],[-14.08271,28.49237],[-14.08307,28.49232],[-14.08479,28.49239],[-14.08527,28.49257],[-14.08584,28.49295],[-14.08707,28.49292],[-14.08736,28.4931],[-14.08763,28.49355],[-14.08845,28.49353],[-14.08864,28.4936],[-14.08894,28.49395],[-14.0897,28.49432],[-14.08967,28.49464],[-14.08988,28.49477],[-14.08986,28.49529],[-14.09004,28.49541],[-14.09017,28.49529],[-14.09018,28.49538],[-14.08998,28.49597],[-14.08977,28.49597],[-14.08967,28.49615],[-14.08994,28.49631],[-14.08999,28.49621],[-14.09003,28.49632],[-14.09011,28.49625],[-14.09004,28.49642],[-14.09019,28.49647],[-14.09021,28.49674],[-14.08976,28.4977],[-14.08965,28.4977],[-14.0897,28.49713],[-14.08949,28.49794],[-14.08877,28.49865],[-14.08882,28.49881],[-14.08863,28.49914],[-14.08895,28.49896],[-14.08892,28.49944],[-14.08869,28.49971],[-14.08887,28.49984],[-14.08856,28.49981],[-14.0883,28.50016],[-14.08805,28.50028],[-14.08787,28.50066],[-14.08787,28.5017],[-14.08802,28.50103],[-14.0883,28.50101],[-14.08807,28.50154],[-14.08811,28.50171],[-14.08792,28.502],[-14.08816,28.50215],[-14.08821,28.50234],[-14.08752,28.50325],[-14.08748,28.50381],[-14.08779,28.50341],[-14.08794,28.5035],[-14.08816,28.50341],[-14.08831,28.50359],[-14.08781,28.50395],[-14.08755,28.50448],[-14.08761,28.50501],[-14.08728,28.50538],[-14.08729,28.50569],[-14.08689,28.50597],[-14.08671,28.50591],[-14.08671,28.50477],[-14.08682,28.50427],[-14.08675,28.5042],[-14.08657,28.50422],[-14.08641,28.50492],[-14.08633,28.50499],[-14.08625,28.50491],[-14.08604,28.50525],[-14.0858,28.50542],[-14.08565,28.5059],[-14.08554,28.50597],[-14.08546,28.50588],[-14.08531,28.50609],[-14.08532,28.50657],[-14.08501,28.50691],[-14.08484,28.50724],[-14.08473,28.50729],[-14.0847,28.50721],[-14.08487,28.50699],[-14.08447,28.50706],[-14.08441,28.50675],[-14.08375,28.50753],[-14.08364,28.50781],[-14.08392,28.50774],[-14.08402,28.50784],[-14.08398,28.50798],[-14.08359,28.50813],[-14.08342,28.50829],[-14.08328,28.50962],[-14.08287,28.5109],[-14.08228,28.51168],[-14.08232,28.51174],[-14.08267,28.51166],[-14.08284,28.51184],[-14.08273,28.51221],[-14.08278,28.51247],[-14.08271,28.51304],[-14.08246,28.51321],[-14.08248,28.513],[-14.08225,28.51314],[-14.08211,28.51351],[-14.08203,28.5134],[-14.0817,28.51357],[-14.08153,28.51346],[-14.08167,28.51299],[-14.08147,28.51308],[-14.08133,28.51298],[-14.08129,28.5132],[-14.08095,28.51374],[-14.08084,28.51378],[-14.0807,28.51368],[-14.08026,28.514],[-14.07992,28.51447],[-14.08006,28.51512],[-14.07998,28.51532],[-14.07979,28.51541],[-14.07982,28.51585],[-14.07954,28.51593],[-14.07953,28.51609],[-14.07939,28.51625],[-14.07936,28.51654],[-14.07952,28.51652],[-14.07941,28.51696],[-14.07958,28.51711],[-14.07934,28.51739],[-14.07927,28.51767],[-14.07898,28.51774],[-14.07871,28.51804],[-14.07874,28.5181],[-14.0789,28.51807],[-14.07892,28.51857],[-14.07877,28.5187],[-14.07878,28.51883],[-14.07853,28.5189],[-14.07814,28.51922],[-14.07793,28.51989],[-14.07745,28.52008],[-14.07737,28.51996],[-14.07722,28.51995],[-14.07695,28.52005],[-14.07671,28.52059],[-14.07629,28.52118],[-14.07631,28.52127],[-14.07653,28.52115],[-14.07653,28.52131],[-14.0762,28.52144],[-14.07613,28.52115],[-14.076,28.52125],[-14.07583,28.52123],[-14.07575,28.52134],[-14.07548,28.52224],[-14.07568,28.52255],[-14.07542,28.52267],[-14.07536,28.52251],[-14.07525,28.52259],[-14.0751,28.52249],[-14.07487,28.52266],[-14.07476,28.52309],[-14.07455,28.52338],[-14.07408,28.52362],[-14.07381,28.52393],[-14.07389,28.52417],[-14.0744,28.5242],[-14.07455,28.52467],[-14.07417,28.52585],[-14.07437,28.52613],[-14.07419,28.52662],[-14.07405,28.52669],[-14.07401,28.52707],[-14.07364,28.52777],[-14.07341,28.52772],[-14.07329,28.52761],[-14.07317,28.52811],[-14.07285,28.52846],[-14.07275,28.52845],[-14.07266,28.52861],[-14.07258,28.52836],[-14.07226,28.52821],[-14.07231,28.52848],[-14.07213,28.52871],[-14.07204,28.52927],[-14.072,28.52934],[-14.07196,28.52914],[-14.0719,28.52938],[-14.07153,28.52985],[-14.07135,28.53034],[-14.07144,28.53098],[-14.07132,28.53116],[-14.07137,28.53136],[-14.07118,28.53173],[-14.07121,28.53191],[-14.07112,28.53208],[-14.071,28.53202],[-14.07079,28.53244],[-14.07052,28.53258],[-14.0706,28.53272],[-14.07048,28.5329],[-14.07062,28.53294],[-14.07089,28.53276],[-14.07092,28.53283],[-14.07083,28.53363],[-14.07047,28.5342],[-14.06979,28.53467],[-14.07026,28.53452],[-14.07017,28.53481],[-14.06985,28.53505],[-14.07013,28.53495],[-14.06996,28.53527],[-14.07017,28.53513],[-14.07017,28.53542],[-14.07035,28.53556],[-14.07036,28.53573],[-14.06983,28.53639],[-14.0697,28.53682],[-14.06934,28.53728],[-14.0691,28.53745],[-14.069,28.5374],[-14.06848,28.53781],[-14.06884,28.53829],[-14.06911,28.53813],[-14.06945,28.53827],[-14.06951,28.53816],[-14.06965,28.53817],[-14.06978,28.53804],[-14.06992,28.53807],[-14.07,28.53827],[-14.06994,28.53883],[-14.06976,28.53904],[-14.06987,28.53916],[-14.06979,28.5396],[-14.06952,28.53989],[-14.06933,28.54091],[-14.06926,28.54096],[-14.06921,28.54076],[-14.06903,28.54096],[-14.06894,28.54084],[-14.0687,28.54095],[-14.0684,28.54166],[-14.06818,28.54182],[-14.06796,28.54182],[-14.06786,28.54158],[-14.0677,28.54146],[-14.06715,28.54172],[-14.06707,28.54146],[-14.06691,28.54143],[-14.06636,28.54183],[-14.06624,28.54164],[-14.06628,28.54133],[-14.06568,28.54152],[-14.06568,28.54128],[-14.06547,28.54124],[-14.06504,28.54152],[-14.06476,28.54188],[-14.06456,28.54191],[-14.06442,28.54242],[-14.06428,28.54252],[-14.064,28.54308],[-14.06376,28.54321],[-14.06369,28.54388],[-14.06384,28.54432],[-14.06402,28.54457],[-14.06431,28.54448],[-14.0644,28.54466],[-14.06464,28.54458],[-14.06473,28.54481],[-14.0649,28.54468],[-14.06486,28.54527],[-14.06466,28.54533],[-14.06465,28.54547],[-14.06512,28.5456],[-14.06536,28.54577],[-14.06529,28.54626],[-14.06554,28.54711],[-14.0654,28.54749],[-14.06549,28.54834],[-14.06546,28.5484],[-14.0652,28.54843],[-14.06517,28.54866],[-14.06529,28.54878],[-14.0656,28.54879],[-14.06562,28.54906],[-14.06579,28.5492],[-14.0658,28.54939],[-14.06619,28.54968],[-14.06613,28.5499],[-14.06679,28.55021],[-14.06661,28.55049],[-14.0667,28.55064],[-14.0665,28.55072],[-14.06666,28.55097],[-14.06653,28.55115],[-14.06625,28.5512],[-14.06588,28.5515],[-14.06595,28.55168],[-14.06574,28.55227],[-14.06532,28.55262],[-14.06516,28.55255],[-14.06498,28.55262],[-14.06472,28.55304],[-14.06446,28.5538],[-14.06392,28.55422],[-14.06338,28.55429],[-14.06238,28.55371],[-14.06206,28.55375],[-14.06197,28.55359],[-14.06111,28.5533],[-14.06091,28.55355],[-14.06064,28.55372],[-14.06066,28.55384],[-14.0605,28.554],[-14.06026,28.55399],[-14.06001,28.5542],[-14.05986,28.55443],[-14.0601,28.55456],[-14.05988,28.5547],[-14.05947,28.55465],[-14.05896,28.55501],[-14.05881,28.55541],[-14.05815,28.55607],[-14.05839,28.55653],[-14.05815,28.5568],[-14.05814,28.55743],[-14.05832,28.55771],[-14.05818,28.55794],[-14.05858,28.55837],[-14.05861,28.55888],[-14.0587,28.55891],[-14.05879,28.55923],[-14.05863,28.55959],[-14.05832,28.55956],[-14.0582,28.5597],[-14.05829,28.5598],[-14.05843,28.5597],[-14.05863,28.55971],[-14.05846,28.55998],[-14.05833,28.56003],[-14.05806,28.55995],[-14.05795,28.56008],[-14.05749,28.56027],[-14.05727,28.5604],[-14.05711,28.56069],[-14.05686,28.5609],[-14.0569,28.56107],[-14.05668,28.56165],[-14.05671,28.56207],[-14.05678,28.56213],[-14.05698,28.56206],[-14.05707,28.56215],[-14.05706,28.56272],[-14.057,28.56282],[-14.0566,28.56297],[-14.05606,28.56411],[-14.05616,28.56414],[-14.05643,28.56397],[-14.05669,28.56414],[-14.05665,28.56448],[-14.05675,28.56472],[-14.05652,28.56531],[-14.05626,28.56556],[-14.05596,28.56514],[-14.05586,28.56535],[-14.05574,28.56533],[-14.05574,28.56576],[-14.0556,28.56591],[-14.05557,28.56531],[-14.05499,28.56568],[-14.05469,28.56545],[-14.05467,28.56562],[-14.05455,28.56552],[-14.05446,28.56565],[-14.05436,28.56557],[-14.0543,28.56581],[-14.05411,28.56583],[-14.05398,28.56597],[-14.05387,28.56595],[-14.05378,28.56612],[-14.05339,28.56624],[-14.05327,28.56651],[-14.05308,28.56647],[-14.05284,28.56662],[-14.05264,28.567],[-14.05284,28.56727],[-14.05282,28.56772],[-14.05262,28.56818],[-14.05231,28.56831],[-14.05223,28.56855],[-14.05168,28.56853],[-14.05149,28.5688],[-14.05104,28.56859],[-14.05091,28.56875],[-14.05069,28.56877],[-14.05065,28.56922],[-14.05086,28.56958],[-14.05081,28.56986],[-14.05091,28.56984],[-14.05095,28.57002],[-14.0509,28.57041],[-14.05071,28.57064],[-14.05078,28.57071],[-14.05069,28.57088],[-14.05034,28.57102],[-14.0505,28.57063],[-14.05046,28.57054],[-14.05033,28.57056],[-14.05016,28.57074],[-14.05018,28.57056],[-14.04998,28.5708],[-14.04974,28.57069],[-14.04953,28.57075],[-14.04941,28.57057],[-14.0492,28.5707],[-14.04916,28.57055],[-14.04883,28.57062],[-14.04849,28.57093],[-14.04752,28.57221],[-14.04762,28.57225],[-14.04762,28.57265],[-14.0478,28.57278],[-14.04794,28.57269],[-14.04803,28.57288],[-14.04789,28.57307],[-14.04767,28.57313],[-14.04758,28.57333],[-14.04784,28.57318],[-14.04783,28.57333],[-14.04708,28.57421],[-14.04694,28.57467],[-14.04643,28.57488],[-14.0465,28.57506],[-14.04617,28.57555],[-14.04644,28.57546],[-14.04647,28.57554],[-14.04616,28.57573],[-14.0461,28.576],[-14.04572,28.57612],[-14.04562,28.57606],[-14.04524,28.57651],[-14.04525,28.57679],[-14.04509,28.57692],[-14.04459,28.57704],[-14.04467,28.57711],[-14.04449,28.5774],[-14.04436,28.57738],[-14.04425,28.57723],[-14.04404,28.57742],[-14.04365,28.57743],[-14.04366,28.57763],[-14.04344,28.57782],[-14.04349,28.57795],[-14.04247,28.5775],[-14.04181,28.57732],[-14.04127,28.5769],[-14.03963,28.57637],[-14.03914,28.5761],[-14.03886,28.57579],[-14.0369,28.57509],[-14.03574,28.57437],[-14.03459,28.57397],[-14.03417,28.5737],[-14.03367,28.57358],[-14.03231,28.57236],[-14.03163,28.57191],[-14.03114,28.57124],[-14.03046,28.57112],[-14.03013,28.57067],[-14.02958,28.57028],[-14.02593,28.56913],[-14.02421,28.56874],[-14.02353,28.56875],[-14.02269,28.56894],[-14.02214,28.56923],[-14.02169,28.56984],[-14.02063,28.56964],[-14.01777,28.56798],[-14.01667,28.56823],[-14.01476,28.56846],[-14.01091,28.56795],[-14.00923,28.5675],[-14.00768,28.56725],[-14.00568,28.56627],[-14.00433,28.56588],[-14.00366,28.56578],[-14.00185,28.56587],[-14.00056,28.56632],[-13.99868,28.56619],[-13.99722,28.56584],[-13.99597,28.56594],[-13.99265,28.56597],[-13.98701,28.56644],[-13.98445,28.56642],[-13.9818,28.56663],[-13.98096,28.56682],[-13.98001,28.56721],[-13.97933,28.56764],[-13.97748,28.5677]]]}},{"type":"Feature","properties":{"id":"3501703002"},"geometry":{"type":"Polygon","coordinates":[[[-13.86026,28.46739],[-13.85928,28.46696],[-13.85947,28.46604],[-13.85921,28.4652],[-13.85919,28.46454],[-13.85927,28.46426],[-13.8592,28.46395],[-13.85844,28.46248],[-13.85763,28.46212],[-13.85725,28.46172],[-13.85719,28.46088],[-13.85695,28.46036],[-13.85694,28.45977],[-13.8571,28.45922],[-13.85698,28.45909],[-13.85717,28.45859],[-13.85683,28.4573],[-13.85735,28.45597],[-13.8573,28.4555],[-13.85709,28.45495],[-13.85713,28.45452],[-13.8574,28.45407],[-13.85859,28.4532],[-13.85891,28.45241],[-13.85902,28.45149],[-13.85878,28.45072],[-13.85879,28.45034],[-13.85865,28.4501],[-13.8587,28.44946],[-13.85813,28.44858],[-13.85812,28.44793],[-13.85779,28.44705],[-13.85672,28.44581],[-13.85674,28.44453],[-13.8569,28.44351],[-13.85723,28.44296],[-13.85743,28.44288],[-13.85887,28.44285],[-13.8595,28.44194],[-13.8601,28.44151],[-13.86057,28.44039],[-13.86125,28.44019],[-13.86198,28.43986],[-13.8623,28.43952],[-13.86246,28.43891],[-13.86231,28.43757],[-13.86242,28.43744],[-13.86271,28.43733],[-13.86282,28.43673],[-13.8627,28.43606],[-13.86245,28.43551],[-13.86191,28.43497],[-13.86193,28.43475],[-13.86217,28.43453],[-13.86217,28.43443],[-13.86183,28.43326],[-13.86237,28.43271],[-13.86307,28.43241],[-13.86299,28.43232],[-13.86299,28.432],[-13.86338,28.43162],[-13.86322,28.43157],[-13.86313,28.43177],[-13.86288,28.43196],[-13.86291,28.43224],[-13.86272,28.43244],[-13.86194,28.43243],[-13.86162,28.43267],[-13.86143,28.43263],[-13.86175,28.43241],[-13.86153,28.43233],[-13.86151,28.43144],[-13.86129,28.43098],[-13.86105,28.43072],[-13.86052,28.43056],[-13.85944,28.42961],[-13.85875,28.42917],[-13.85839,28.42833],[-13.85816,28.42815],[-13.85833,28.42735],[-13.85835,28.42627],[-13.85817,28.42554],[-13.85794,28.42517],[-13.85758,28.42486],[-13.85693,28.42473],[-13.85624,28.42473],[-13.85528,28.425],[-13.855,28.42482],[-13.85474,28.4245],[-13.85453,28.4245],[-13.85449,28.4244],[-13.85427,28.42432],[-13.85411,28.42435],[-13.85419,28.42422],[-13.85407,28.42412],[-13.85387,28.42407],[-13.85362,28.42412],[-13.85333,28.42399],[-13.85268,28.42404],[-13.85259,28.42393],[-13.85259,28.42365],[-13.85239,28.4238],[-13.85225,28.42374],[-13.85213,28.42393],[-13.85205,28.42392],[-13.85198,28.42387],[-13.85201,28.42367],[-13.85182,28.4236],[-13.85195,28.42345],[-13.85139,28.42315],[-13.85161,28.42304],[-13.85147,28.42271],[-13.8515,28.42252],[-13.85127,28.42224],[-13.85103,28.42223],[-13.8511,28.42211],[-13.85087,28.42183],[-13.85086,28.42152],[-13.85067,28.42144],[-13.85056,28.42163],[-13.85042,28.42155],[-13.85043,28.42139],[-13.85012,28.42149],[-13.85003,28.42139],[-13.8503,28.42119],[-13.85027,28.42105],[-13.85033,28.42102],[-13.85043,28.42117],[-13.85049,28.42093],[-13.85074,28.42079],[-13.85085,28.4205],[-13.85645,28.42217],[-13.86121,28.42341],[-13.86974,28.42525],[-13.8786,28.42672],[-13.87926,28.42708],[-13.88077,28.4276],[-13.88089,28.42822],[-13.881,28.42838],[-13.88143,28.42863],[-13.8853,28.42877],[-13.88696,28.42891],[-13.88862,28.42915],[-13.89001,28.42951],[-13.89323,28.43059],[-13.8924,28.43139],[-13.89135,28.43204],[-13.89064,28.43317],[-13.89005,28.43383],[-13.88929,28.43423],[-13.88928,28.43511],[-13.88967,28.4368],[-13.89023,28.43845],[-13.88953,28.4389],[-13.88773,28.43889],[-13.88683,28.44222],[-13.88467,28.44374],[-13.88657,28.44499],[-13.88778,28.44541],[-13.88742,28.44658],[-13.88602,28.44729],[-13.88601,28.44842],[-13.88459,28.45087],[-13.88423,28.45205],[-13.88361,28.45553],[-13.88326,28.46153],[-13.88408,28.46626],[-13.88423,28.46877],[-13.88409,28.46986],[-13.88288,28.46984],[-13.88231,28.46969],[-13.88181,28.4692],[-13.88138,28.46849],[-13.88102,28.46821],[-13.88067,28.46817],[-13.87972,28.46843],[-13.87895,28.4682],[-13.87697,28.46706],[-13.87506,28.4656],[-13.87269,28.46486],[-13.87172,28.46411],[-13.87101,28.46372],[-13.87007,28.46391],[-13.86883,28.46441],[-13.86783,28.4647],[-13.86625,28.46457],[-13.86541,28.46476],[-13.86433,28.46522],[-13.86264,28.46651],[-13.86205,28.46724],[-13.8608,28.46742],[-13.86026,28.46739]]]}}]}