{"type":"FeatureCollection","features":[{"type":"Feature","properties":{"id":"3501901001"},"geometry":{"type":"Polygon","coordinates":[[[-15.57177,27.96207],[-15.57014,27.96152],[-15.56603,27.96075],[-15.56536,27.96091],[-15.56231,27.96105],[-15.56072,27.96003],[-15.56033,27.95936],[-15.55972,27.95912],[-15.55807,27.95802],[-15.5579,27.95764],[-15.55504,27.95506],[-15.55434,27.95419],[-15.55342,27.95328],[-15.55269,27.95265],[-15.5521,27.95231],[-15.55135,27.95143],[-15.55046,27.95132],[-15.54974,27.95075],[-15.54302,27.94972],[-15.54251,27.94817],[-15.54147,27.94639],[-15.54164,27.94533],[-15.54136,27.94393],[-15.54116,27.94368],[-15.53959,27.94293],[-15.53931,27.94258],[-15.53921,27.94182],[-15.53926,27.94097],[-15.53991,27.9391],[-15.54014,27.93758],[-15.54002,27.93569],[-15.5404,27.93496],[-15.54166,27.93313],[-15.54207,27.93173],[-15.54251,27.93102],[-15.54357,27.92977],[-15.5441,27.92933],[-15.5445,27.92923],[-15.54506,27.9285],[-15.54573,27.92799],[-15.54622,27.9279],[-15.54769,27.92792],[-15.54848,27.92779],[-15.54884,27.92755],[-15.54931,27.92701],[-15.54975,27.9262],[-15.55152,27.92531],[-15.55258,27.92507],[-15.553,27.92506],[-15.55365,27.92524],[-15.55429,27.92579],[-15.55483,27.92579],[-15.55512,27.92564],[-15.55586,27.92493],[-15.55613,27.92437],[-15.5562,27.92134],[-15.55595,27.9198],[-15.55581,27.91948],[-15.55505,27.91852],[-15.55473,27.91841],[-15.55423,27.91845],[-15.55391,27.91826],[-15.55358,27.91787],[-15.55357,27.91744],[-15.55413,27.91708],[-15.55416,27.91689],[-15.55371,27.91671],[-15.55335,27.91619],[-15.55314,27.9153],[-15.55285,27.9149],[-15.55286,27.91452],[-15.5526,27.91332],[-15.5519,27.91233],[-15.5515,27.91212],[-15.55124,27.91213],[-15.55061,27.91171],[-15.55081,27.91134],[-15.55112,27.9111],[-15.55145,27.91101],[-15.55185,27.91041],[-15.55231,27.9091],[-15.5522,27.90853],[-15.5524,27.90816],[-15.55237,27.90763],[-15.55266,27.90711],[-15.55246,27.90654],[-15.55169,27.90593],[-15.55146,27.90596],[-15.55094,27.90656],[-15.55063,27.90659],[-15.55019,27.90642],[-15.54999,27.90575],[-15.55002,27.9055],[-15.55028,27.90507],[-15.55084,27.90456],[-15.55105,27.90415],[-15.55144,27.90371],[-15.55208,27.9032],[-15.5524,27.90264],[-15.55229,27.90215],[-15.55251,27.90133],[-15.55248,27.901],[-15.55234,27.90085],[-15.552,27.90073],[-15.55097,27.89932],[-15.55083,27.89857],[-15.55086,27.89834],[-15.55113,27.89806],[-15.55128,27.89734],[-15.55198,27.89742],[-15.55235,27.8973],[-15.55234,27.89716],[-15.5521,27.89701],[-15.5515,27.89691],[-15.55146,27.89634],[-15.55177,27.89622],[-15.55183,27.89609],[-15.55178,27.89565],[-15.55164,27.89539],[-15.55075,27.89488],[-15.55042,27.89411],[-15.55005,27.89413],[-15.54967,27.89382],[-15.54887,27.8936],[-15.54749,27.89392],[-15.54702,27.89341],[-15.54689,27.89313],[-15.5465,27.89298],[-15.54558,27.89299],[-15.54537,27.89291],[-15.54363,27.89154],[-15.54253,27.89086],[-15.54207,27.89038],[-15.54196,27.89011],[-15.5417,27.88865],[-15.54168,27.88793],[-15.54157,27.88768],[-15.54123,27.88753],[-15.5402,27.88737],[-15.53973,27.8872],[-15.53925,27.88686],[-15.53866,27.88605],[-15.53822,27.88577],[-15.53722,27.88589],[-15.53646,27.88573],[-15.53596,27.88536],[-15.53563,27.885],[-15.53541,27.88425],[-15.536,27.88153],[-15.53581,27.88093],[-15.53544,27.88077],[-15.53495,27.88071],[-15.53422,27.88113],[-15.53399,27.88116],[-15.53364,27.88097],[-15.5331,27.88018],[-15.53311,27.87991],[-15.53346,27.87949],[-15.53352,27.87924],[-15.53339,27.87901],[-15.53303,27.87875],[-15.53277,27.87842],[-15.53257,27.87751],[-15.53276,27.87661],[-15.53312,27.87596],[-15.53367,27.87548],[-15.53411,27.87524],[-15.53704,27.87435],[-15.53986,27.87363],[-15.54058,27.87318],[-15.54071,27.87259],[-15.54043,27.8723],[-15.53743,27.87012],[-15.5372,27.86986],[-15.53549,27.86637],[-15.53419,27.86404],[-15.53355,27.86303],[-15.53213,27.86123],[-15.53067,27.85905],[-15.53007,27.8578],[-15.53006,27.85723],[-15.53048,27.85492],[-15.53117,27.85495],[-15.53134,27.85484],[-15.53147,27.85459],[-15.5313,27.85398],[-15.53146,27.85375],[-15.53172,27.85362],[-15.53241,27.85357],[-15.53299,27.85385],[-15.53336,27.85385],[-15.53343,27.85377],[-15.53332,27.85276],[-15.53354,27.85259],[-15.53397,27.85306],[-15.53457,27.85325],[-15.53508,27.85325],[-15.53577,27.8537],[-15.53636,27.85432],[-15.53664,27.85496],[-15.53666,27.85602],[-15.53683,27.85624],[-15.53683,27.85584],[-15.53699,27.85533],[-15.53746,27.85515],[-15.53702,27.85494],[-15.53694,27.85446],[-15.53676,27.85411],[-15.5365,27.85379],[-15.53623,27.85325],[-15.53553,27.85258],[-15.53536,27.85201],[-15.53488,27.85123],[-15.53579,27.85074],[-15.53634,27.85055],[-15.53657,27.85056],[-15.53687,27.85073],[-15.53731,27.85116],[-15.53786,27.85199],[-15.53788,27.85077],[-15.53839,27.85003],[-15.53864,27.85018],[-15.53877,27.85044],[-15.53871,27.85076],[-15.53882,27.85138],[-15.5386,27.85175],[-15.53865,27.85198],[-15.539,27.85226],[-15.5393,27.85225],[-15.53985,27.85238],[-15.53975,27.85295],[-15.53995,27.85377],[-15.54016,27.85393],[-15.54086,27.85417],[-15.54114,27.8547],[-15.54113,27.85402],[-15.54096,27.85385],[-15.54034,27.85354],[-15.54032,27.85298],[-15.5406,27.85245],[-15.5406,27.85217],[-15.54092,27.8519],[-15.54107,27.85146],[-15.54133,27.85124],[-15.5418,27.85202],[-15.54146,27.85278],[-15.54142,27.85314],[-15.54197,27.85366],[-15.54197,27.85353],[-15.54165,27.85311],[-15.54198,27.85255],[-15.54239,27.8523],[-15.54251,27.85207],[-15.5425,27.85189],[-15.54221,27.8514],[-15.54222,27.85112],[-15.54239,27.85068],[-15.54238,27.85036],[-15.54184,27.84947],[-15.54178,27.84922],[-15.54196,27.84828],[-15.54252,27.84904],[-15.54316,27.84921],[-15.54383,27.84995],[-15.54405,27.84973],[-15.54458,27.85037],[-15.54475,27.85],[-15.54498,27.84999],[-15.54615,27.85089],[-15.5463,27.85093],[-15.54588,27.85014],[-15.54492,27.84903],[-15.54499,27.84767],[-15.54542,27.8482],[-15.54574,27.84766],[-15.54593,27.84751],[-15.54642,27.84745],[-15.54673,27.84712],[-15.54705,27.84704],[-15.54736,27.84708],[-15.54775,27.84729],[-15.54756,27.84653],[-15.54797,27.84661],[-15.54806,27.84655],[-15.54834,27.84582],[-15.54913,27.84659],[-15.5495,27.84675],[-15.54926,27.84519],[-15.54936,27.84461],[-15.54961,27.84426],[-15.54969,27.84429],[-15.54979,27.84456],[-15.54967,27.84525],[-15.55023,27.84621],[-15.55081,27.84671],[-15.55088,27.8467],[-15.55094,27.84628],[-15.55139,27.84574],[-15.55159,27.84535],[-15.55193,27.8452],[-15.55266,27.84455],[-15.55275,27.84495],[-15.5531,27.8454],[-15.55322,27.84593],[-15.55377,27.84619],[-15.55399,27.84667],[-15.55507,27.84613],[-15.55575,27.84592],[-15.5559,27.84595],[-15.55625,27.84624],[-15.55679,27.84638],[-15.55752,27.84575],[-15.55745,27.84518],[-15.55749,27.84475],[-15.55757,27.84468],[-15.55775,27.84485],[-15.55781,27.84563],[-15.55794,27.84579],[-15.55823,27.84593],[-15.55926,27.84585],[-15.55942,27.84613],[-15.55969,27.84627],[-15.56002,27.84627],[-15.56028,27.84605],[-15.56067,27.84519],[-15.56092,27.84498],[-15.56119,27.84487],[-15.56192,27.84432],[-15.56258,27.84416],[-15.56336,27.84365],[-15.56364,27.84356],[-15.56421,27.84352],[-15.56593,27.84387],[-15.56699,27.84395],[-15.5681,27.84379],[-15.56974,27.84325],[-15.5701,27.84326],[-15.57063,27.84352],[-15.57098,27.84347],[-15.5711,27.84318],[-15.57208,27.84245],[-15.57263,27.84222],[-15.57328,27.84212],[-15.57362,27.84189],[-15.57373,27.84163],[-15.57382,27.8407],[-15.57452,27.84014],[-15.57471,27.8399],[-15.57468,27.83961],[-15.57423,27.8387],[-15.5743,27.83818],[-15.57461,27.83791],[-15.57544,27.83772],[-15.5756,27.83719],[-15.57562,27.83657],[-15.57609,27.83645],[-15.57672,27.83661],[-15.57691,27.83657],[-15.57741,27.83609],[-15.57772,27.83555],[-15.57879,27.83472],[-15.57891,27.83392],[-15.57878,27.83325],[-15.57911,27.83159],[-15.57946,27.83087],[-15.5801,27.83052],[-15.58017,27.83061],[-15.58016,27.83101],[-15.58057,27.83155],[-15.58088,27.83165],[-15.58163,27.83167],[-15.58191,27.83178],[-15.58214,27.83173],[-15.58233,27.83193],[-15.58294,27.83186],[-15.58315,27.83203],[-15.58306,27.83222],[-15.58367,27.83252],[-15.58381,27.83292],[-15.584,27.83442],[-15.58471,27.8351],[-15.58561,27.83634],[-15.58593,27.83883],[-15.58684,27.84128],[-15.58706,27.84229],[-15.58717,27.8441],[-15.5871,27.84482],[-15.58729,27.8457],[-15.58737,27.84679],[-15.58707,27.84797],[-15.58711,27.84841],[-15.58698,27.84887],[-15.58714,27.84952],[-15.58704,27.85069],[-15.58729,27.8518],[-15.5877,27.85247],[-15.58779,27.8528],[-15.58813,27.85299],[-15.58831,27.85282],[-15.58811,27.85202],[-15.58814,27.85173],[-15.5883,27.85137],[-15.58843,27.85057],[-15.58879,27.85034],[-15.58904,27.84984],[-15.5891,27.8489],[-15.58942,27.84872],[-15.58955,27.84854],[-15.59055,27.84828],[-15.59051,27.84766],[-15.59138,27.84736],[-15.59131,27.84678],[-15.59138,27.84653],[-15.59182,27.84628],[-15.59195,27.84602],[-15.59194,27.84555],[-15.5923,27.84512],[-15.59255,27.84498],[-15.59288,27.84451],[-15.59335,27.84429],[-15.59367,27.84428],[-15.59412,27.84389],[-15.59532,27.84335],[-15.59573,27.84358],[-15.59623,27.84449],[-15.5962,27.84477],[-15.59571,27.84523],[-15.59544,27.84574],[-15.59622,27.84675],[-15.59617,27.8474],[-15.59632,27.84771],[-15.59636,27.84808],[-15.59604,27.84834],[-15.5953,27.84942],[-15.5952,27.84983],[-15.59465,27.85019],[-15.5945,27.85042],[-15.59443,27.85068],[-15.59463,27.85119],[-15.59489,27.85149],[-15.59494,27.85217],[-15.59473,27.8524],[-15.59403,27.85279],[-15.59383,27.85317],[-15.59391,27.85342],[-15.59422,27.85359],[-15.5946,27.85362],[-15.59474,27.85371],[-15.59481,27.85408],[-15.5945,27.85439],[-15.59437,27.85556],[-15.5949,27.85606],[-15.59531,27.85604],[-15.59532,27.85663],[-15.59578,27.85723],[-15.59578,27.8574],[-15.59553,27.85776],[-15.59583,27.85826],[-15.5958,27.85878],[-15.59535,27.85953],[-15.59508,27.86035],[-15.59468,27.861],[-15.59438,27.8612],[-15.59442,27.86143],[-15.59432,27.86166],[-15.59347,27.86215],[-15.59347,27.86247],[-15.59332,27.86275],[-15.59293,27.86292],[-15.59263,27.86334],[-15.59233,27.86352],[-15.59232,27.86374],[-15.59246,27.86402],[-15.59243,27.86426],[-15.59162,27.8652],[-15.59158,27.86565],[-15.59126,27.86641],[-15.59131,27.86706],[-15.59085,27.86795],[-15.59076,27.86829],[-15.58977,27.86912],[-15.58949,27.86966],[-15.58837,27.87105],[-15.58837,27.87187],[-15.58779,27.87283],[-15.58787,27.87361],[-15.58766,27.87391],[-15.5877,27.87408],[-15.5875,27.8745],[-15.58732,27.87471],[-15.58746,27.87497],[-15.58776,27.87514],[-15.58781,27.8753],[-15.58752,27.87579],[-15.58758,27.87612],[-15.58743,27.87643],[-15.5875,27.8768],[-15.5871,27.87744],[-15.58735,27.87818],[-15.58736,27.87863],[-15.58703,27.87931],[-15.5873,27.8797],[-15.58786,27.87992],[-15.58808,27.88038],[-15.58874,27.88121],[-15.58866,27.88191],[-15.58881,27.88242],[-15.58965,27.88403],[-15.58954,27.88439],[-15.58963,27.8847],[-15.59018,27.88483],[-15.59069,27.88531],[-15.59046,27.88615],[-15.59065,27.8865],[-15.59061,27.88675],[-15.59074,27.88703],[-15.59113,27.88726],[-15.59128,27.88751],[-15.5913,27.88793],[-15.59149,27.88829],[-15.59149,27.88895],[-15.59161,27.88925],[-15.59151,27.88971],[-15.5922,27.89106],[-15.59371,27.89267],[-15.59426,27.89297],[-15.59517,27.89326],[-15.59594,27.89432],[-15.59643,27.89469],[-15.59694,27.89559],[-15.59818,27.89557],[-15.59856,27.89541],[-15.59866,27.89528],[-15.59896,27.89521],[-15.59944,27.89485],[-15.59978,27.89477],[-15.60003,27.89518],[-15.60031,27.89515],[-15.60079,27.89528],[-15.60128,27.8953],[-15.60188,27.8957],[-15.60208,27.89569],[-15.60234,27.89539],[-15.60257,27.89543],[-15.60263,27.89551],[-15.60248,27.89627],[-15.60262,27.89645],[-15.60308,27.89649],[-15.60328,27.89631],[-15.60351,27.89626],[-15.60389,27.89638],[-15.60408,27.89632],[-15.60487,27.89583],[-15.60514,27.89581],[-15.60546,27.8956],[-15.60588,27.89561],[-15.60667,27.89504],[-15.60715,27.8949],[-15.60752,27.8949],[-15.60799,27.89446],[-15.60824,27.89434],[-15.60942,27.89436],[-15.61119,27.89411],[-15.61172,27.89395],[-15.61483,27.89248],[-15.61613,27.89176],[-15.61675,27.89127],[-15.61747,27.89052],[-15.6183,27.88928],[-15.61857,27.88835],[-15.6186,27.8879],[-15.61849,27.88736],[-15.61815,27.88666],[-15.61649,27.88443],[-15.61527,27.88074],[-15.61489,27.88017],[-15.61431,27.87945],[-15.61388,27.87909],[-15.61274,27.8785],[-15.61119,27.8768],[-15.61046,27.87656],[-15.61017,27.87654],[-15.60983,27.87629],[-15.60943,27.87625],[-15.60912,27.87631],[-15.60815,27.87549],[-15.60783,27.87535],[-15.60787,27.87493],[-15.60832,27.87407],[-15.60789,27.87325],[-15.60846,27.87277],[-15.60857,27.87256],[-15.60854,27.87239],[-15.6081,27.87218],[-15.60789,27.87197],[-15.60793,27.87167],[-15.60831,27.87107],[-15.60875,27.87107],[-15.60996,27.87135],[-15.61121,27.87069],[-15.61295,27.87083],[-15.61397,27.8711],[-15.6146,27.87093],[-15.61646,27.8701],[-15.61692,27.86967],[-15.61716,27.8688],[-15.61755,27.86806],[-15.61897,27.86714],[-15.6207,27.86652],[-15.62119,27.86589],[-15.62137,27.86502],[-15.62221,27.8642],[-15.62433,27.86297],[-15.62595,27.86244],[-15.62843,27.86194],[-15.63381,27.86145],[-15.63466,27.86144],[-15.6361,27.86159],[-15.64044,27.86241],[-15.64219,27.86255],[-15.64245,27.86248],[-15.64257,27.86225],[-15.64302,27.86184],[-15.64349,27.86169],[-15.64391,27.86115],[-15.64451,27.86062],[-15.64475,27.86141],[-15.64464,27.86196],[-15.6449,27.86334],[-15.64516,27.86444],[-15.64542,27.86494],[-15.6458,27.86531],[-15.64619,27.86536],[-15.64626,27.86586],[-15.64737,27.86605],[-15.64808,27.866],[-15.64812,27.86654],[-15.64825,27.86676],[-15.64855,27.86701],[-15.64905,27.86722],[-15.64919,27.8674],[-15.64926,27.86854],[-15.64867,27.86915],[-15.6479,27.86927],[-15.64781,27.86962],[-15.64754,27.86995],[-15.64769,27.87031],[-15.64824,27.87095],[-15.64805,27.87165],[-15.64796,27.87315],[-15.64867,27.87329],[-15.64972,27.87287],[-15.64995,27.87306],[-15.64969,27.87403],[-15.64942,27.87433],[-15.64931,27.87473],[-15.64888,27.87491],[-15.64853,27.87557],[-15.64802,27.87574],[-15.6472,27.87635],[-15.64734,27.87714],[-15.64708,27.87763],[-15.64681,27.87771],[-15.64686,27.87814],[-15.64642,27.87881],[-15.64644,27.87898],[-15.64758,27.87905],[-15.64786,27.87952],[-15.64896,27.87958],[-15.64921,27.87966],[-15.64935,27.87985],[-15.64931,27.88022],[-15.64896,27.88074],[-15.64854,27.88112],[-15.64815,27.88123],[-15.64808,27.88133],[-15.6484,27.88181],[-15.64818,27.88216],[-15.64813,27.88245],[-15.64827,27.88259],[-15.64857,27.88257],[-15.64867,27.88265],[-15.64854,27.88316],[-15.64895,27.88385],[-15.64899,27.88467],[-15.64912,27.8849],[-15.64912,27.88555],[-15.64876,27.88618],[-15.64878,27.88634],[-15.64903,27.88642],[-15.64949,27.88625],[-15.64988,27.88622],[-15.65048,27.88659],[-15.65109,27.88647],[-15.65134,27.88608],[-15.65149,27.88606],[-15.65155,27.88619],[-15.65105,27.88667],[-15.65051,27.88692],[-15.65024,27.88688],[-15.64976,27.88657],[-15.64945,27.88648],[-15.64908,27.88685],[-15.64838,27.8869],[-15.64798,27.88711],[-15.64765,27.88713],[-15.64785,27.88617],[-15.64771,27.88571],[-15.64805,27.88547],[-15.64818,27.88518],[-15.64817,27.88413],[-15.64707,27.88341],[-15.64683,27.88271],[-15.64665,27.88258],[-15.64672,27.88236],[-15.64657,27.88204],[-15.64603,27.88169],[-15.64592,27.88113],[-15.64574,27.88091],[-15.64601,27.88036],[-15.64583,27.88033],[-15.64579,27.8806],[-15.64538,27.88108],[-15.64565,27.88148],[-15.64563,27.88202],[-15.64596,27.88217],[-15.64606,27.88349],[-15.64645,27.88448],[-15.64633,27.88478],[-15.64554,27.88534],[-15.64528,27.88572],[-15.6454,27.88609],[-15.64589,27.88631],[-15.64577,27.88694],[-15.6453,27.88735],[-15.64474,27.88757],[-15.64462,27.8877],[-15.64524,27.88846],[-15.64565,27.88935],[-15.64583,27.8894],[-15.64623,27.88923],[-15.64652,27.88927],[-15.64715,27.88967],[-15.64737,27.88993],[-15.64722,27.89021],[-15.6467,27.89053],[-15.64656,27.89079],[-15.64674,27.89156],[-15.64664,27.89331],[-15.64584,27.89462],[-15.64543,27.89503],[-15.6453,27.89504],[-15.64511,27.89486],[-15.64452,27.89474],[-15.64433,27.89459],[-15.64347,27.89433],[-15.64335,27.89437],[-15.64328,27.89459],[-15.64297,27.89463],[-15.64278,27.89481],[-15.64282,27.89551],[-15.64273,27.89586],[-15.64219,27.89614],[-15.64251,27.89646],[-15.64238,27.89689],[-15.64291,27.89712],[-15.64296,27.8973],[-15.64288,27.89751],[-15.64254,27.89786],[-15.64253,27.89824],[-15.64238,27.89866],[-15.64192,27.89881],[-15.64181,27.89891],[-15.64192,27.89921],[-15.6419,27.89973],[-15.64219,27.90045],[-15.64216,27.90061],[-15.64197,27.90075],[-15.642,27.90113],[-15.64075,27.9019],[-15.64061,27.90207],[-15.64055,27.90255],[-15.64004,27.90292],[-15.64048,27.90308],[-15.64182,27.90291],[-15.64241,27.90339],[-15.64318,27.90354],[-15.64341,27.90318],[-15.64421,27.90241],[-15.64433,27.90169],[-15.64462,27.90157],[-15.64499,27.90063],[-15.64549,27.90008],[-15.64605,27.89978],[-15.64632,27.899],[-15.64654,27.89872],[-15.6472,27.89847],[-15.64781,27.89863],[-15.64942,27.89833],[-15.65023,27.89841],[-15.65048,27.89818],[-15.65095,27.89823],[-15.65111,27.89837],[-15.6514,27.89796],[-15.65213,27.89829],[-15.65244,27.89831],[-15.6528,27.89809],[-15.6527,27.89773],[-15.65318,27.89739],[-15.65357,27.89685],[-15.65385,27.89665],[-15.65397,27.89625],[-15.65442,27.89572],[-15.65451,27.89549],[-15.65476,27.8953],[-15.65478,27.89516],[-15.6555,27.89461],[-15.65598,27.89445],[-15.65917,27.89429],[-15.662,27.89433],[-15.66669,27.89402],[-15.66751,27.89391],[-15.66927,27.89343],[-15.66997,27.89408],[-15.67021,27.89465],[-15.67021,27.89548],[-15.67003,27.89617],[-15.66999,27.89707],[-15.67006,27.89767],[-15.67042,27.89815],[-15.67056,27.89934],[-15.67008,27.90008],[-15.67,27.90072],[-15.6698,27.90123],[-15.66994,27.90159],[-15.66989,27.90227],[-15.66959,27.90261],[-15.66906,27.90363],[-15.66758,27.90454],[-15.66716,27.90511],[-15.66686,27.90575],[-15.66632,27.90627],[-15.66584,27.90658],[-15.66509,27.90686],[-15.66393,27.907],[-15.66355,27.90714],[-15.66339,27.90733],[-15.66336,27.90754],[-15.66408,27.91031],[-15.66405,27.91054],[-15.6636,27.91144],[-15.66313,27.91201],[-15.66131,27.91349],[-15.66086,27.91461],[-15.66018,27.91466],[-15.6598,27.91444],[-15.65956,27.9142],[-15.65921,27.91415],[-15.65863,27.91455],[-15.65816,27.91461],[-15.65743,27.91456],[-15.65619,27.91542],[-15.65564,27.91548],[-15.65517,27.91569],[-15.65481,27.91552],[-15.65459,27.91557],[-15.65395,27.91641],[-15.65332,27.91696],[-15.6532,27.91743],[-15.65302,27.91762],[-15.65316,27.91819],[-15.65312,27.9184],[-15.65225,27.91848],[-15.65176,27.91911],[-15.65123,27.91931],[-15.65117,27.91943],[-15.65039,27.91996],[-15.65024,27.92124],[-15.64989,27.92143],[-15.64973,27.92169],[-15.64847,27.92188],[-15.6477,27.92164],[-15.64753,27.92175],[-15.64741,27.92212],[-15.64727,27.92226],[-15.64579,27.92266],[-15.64505,27.92308],[-15.64479,27.92353],[-15.6448,27.92373],[-15.64504,27.92403],[-15.64505,27.9243],[-15.64481,27.9246],[-15.64445,27.92483],[-15.64396,27.9259],[-15.64345,27.92627],[-15.64319,27.92661],[-15.6422,27.92726],[-15.64036,27.92873],[-15.64009,27.92912],[-15.64004,27.92983],[-15.6394,27.93011],[-15.63914,27.93058],[-15.63858,27.9307],[-15.63767,27.93135],[-15.63754,27.9317],[-15.63698,27.93234],[-15.63698,27.9329],[-15.63666,27.93327],[-15.63669,27.93456],[-15.63661,27.93494],[-15.63581,27.93511],[-15.63552,27.93529],[-15.63497,27.93588],[-15.63476,27.93664],[-15.63454,27.9366],[-15.63452,27.93676],[-15.63428,27.93696],[-15.63347,27.9373],[-15.6326,27.93835],[-15.63212,27.93873],[-15.63186,27.93881],[-15.63156,27.93932],[-15.63022,27.94002],[-15.63017,27.94029],[-15.63027,27.94043],[-15.63061,27.9406],[-15.63098,27.94062],[-15.63154,27.94104],[-15.63197,27.94108],[-15.6322,27.94118],[-15.63224,27.94128],[-15.63208,27.94159],[-15.63166,27.94181],[-15.63143,27.94218],[-15.63119,27.94236],[-15.63129,27.94362],[-15.63121,27.94404],[-15.63107,27.94419],[-15.63107,27.9447],[-15.63099,27.94485],[-15.63041,27.94527],[-15.63046,27.94557],[-15.631,27.94587],[-15.63091,27.9463],[-15.63023,27.94683],[-15.62969,27.9471],[-15.62965,27.94761],[-15.62936,27.94779],[-15.6293,27.94809],[-15.62861,27.94876],[-15.62858,27.94903],[-15.62823,27.94927],[-15.62793,27.94932],[-15.62741,27.94902],[-15.62721,27.949],[-15.62678,27.94845],[-15.62614,27.94844],[-15.62594,27.9487],[-15.62552,27.94853],[-15.62509,27.94857],[-15.62497,27.94868],[-15.625,27.94921],[-15.62446,27.94933],[-15.62407,27.94967],[-15.62366,27.94959],[-15.62351,27.94947],[-15.62328,27.94953],[-15.62297,27.94946],[-15.62257,27.94985],[-15.62246,27.95015],[-15.62197,27.95053],[-15.6215,27.95065],[-15.62114,27.95059],[-15.62068,27.95072],[-15.61966,27.95058],[-15.61948,27.95071],[-15.61909,27.95081],[-15.61887,27.95105],[-15.61875,27.9514],[-15.61854,27.95151],[-15.61836,27.95139],[-15.61793,27.95137],[-15.61754,27.95101],[-15.61718,27.95109],[-15.61689,27.9509],[-15.61655,27.9509],[-15.61574,27.95131],[-15.61525,27.95204],[-15.61377,27.9529],[-15.61345,27.95294],[-15.61321,27.95308],[-15.61292,27.95304],[-15.61268,27.95327],[-15.61217,27.95443],[-15.61177,27.95509],[-15.61126,27.95534],[-15.61101,27.95556],[-15.611,27.95587],[-15.61109,27.95606],[-15.61103,27.95636],[-15.61058,27.95676],[-15.61011,27.95683],[-15.60961,27.95748],[-15.6091,27.95755],[-15.60896,27.95788],[-15.609,27.9583],[-15.60829,27.95941],[-15.60798,27.95958],[-15.60494,27.96302],[-15.60355,27.96441],[-15.60218,27.96567],[-15.60174,27.96581],[-15.60099,27.96595],[-15.59991,27.96548],[-15.59884,27.9644],[-15.59842,27.96363],[-15.59823,27.96302],[-15.5986,27.96066],[-15.59893,27.96002],[-15.59932,27.95964],[-15.59949,27.95931],[-15.59949,27.9587],[-15.59907,27.95835],[-15.59851,27.95816],[-15.59677,27.95783],[-15.59576,27.95731],[-15.59433,27.956],[-15.59347,27.95498],[-15.59314,27.95489],[-15.5924,27.95495],[-15.59056,27.95357],[-15.58873,27.95203],[-15.58857,27.952],[-15.58785,27.95206],[-15.58666,27.95251],[-15.58501,27.95265],[-15.58427,27.95381],[-15.58396,27.95384],[-15.58304,27.95427],[-15.5827,27.95429],[-15.58185,27.9547],[-15.58068,27.95582],[-15.57984,27.956],[-15.57939,27.95621],[-15.57834,27.95798],[-15.57784,27.95907],[-15.57715,27.95986],[-15.57667,27.96015],[-15.57608,27.96031],[-15.57177,27.96207]]]}},{"type":"Feature","properties":{"id":"3501902001"},"geometry":{"type":"Polygon","coordinates":[[[-15.53048,27.85492],[-15.53045,27.85409],[-15.53033,27.85371],[-15.52977,27.85294],[-15.52929,27.85266],[-15.52747,27.85203],[-15.526,27.85183],[-15.52455,27.85186],[-15.51839,27.85248],[-15.51768,27.85249],[-15.51697,27.85239],[-15.51612,27.85207],[-15.51477,27.8513],[-15.51424,27.8507],[-15.51347,27.84947],[-15.51228,27.84862],[-15.50835,27.84646],[-15.50473,27.84545],[-15.50437,27.84528],[-15.50271,27.84406],[-15.5021,27.84384],[-15.50158,27.84396],[-15.50112,27.84425],[-15.50074,27.84477],[-15.50061,27.84514],[-15.50047,27.84641],[-15.50086,27.84823],[-15.50073,27.84906],[-15.5006,27.84929],[-15.50039,27.84942],[-15.49984,27.84939],[-15.49891,27.84912],[-15.49789,27.84839],[-15.49691,27.84822],[-15.49263,27.84824],[-15.48998,27.8484],[-15.48948,27.84833],[-15.48877,27.84804],[-15.48817,27.84757],[-15.48785,27.84744],[-15.48727,27.84728],[-15.48572,27.84727],[-15.48527,27.84705],[-15.4836,27.84818],[-15.47896,27.85085],[-15.47776,27.85169],[-15.47706,27.852],[-15.47656,27.85198],[-15.47524,27.85127],[-15.47455,27.851],[-15.47419,27.85074],[-15.47396,27.8504],[-15.47364,27.84956],[-15.47342,27.84949],[-15.47207,27.84863],[-15.47136,27.84804],[-15.47091,27.84742],[-15.47059,27.84716],[-15.46916,27.84645],[-15.4686,27.84592],[-15.46836,27.84549],[-15.46677,27.8439],[-15.4655,27.84222],[-15.46338,27.84018],[-15.46201,27.83842],[-15.46084,27.83714],[-15.45915,27.83552],[-15.45837,27.83507],[-15.45651,27.8335],[-15.45635,27.83324],[-15.45622,27.8326],[-15.45568,27.83195],[-15.45432,27.83054],[-15.45312,27.82951],[-15.45294,27.82896],[-15.45232,27.82821],[-15.45125,27.82649],[-15.45018,27.82501],[-15.44828,27.82348],[-15.44925,27.82212],[-15.44989,27.82157],[-15.45023,27.8211],[-15.45008,27.82031],[-15.44982,27.81998],[-15.44983,27.81949],[-15.45081,27.81773],[-15.45131,27.8172],[-15.45215,27.81544],[-15.45404,27.81272],[-15.45499,27.8122],[-15.45529,27.81171],[-15.4563,27.81132],[-15.45734,27.81051],[-15.458,27.80986],[-15.45879,27.80884],[-15.45979,27.80728],[-15.46276,27.80646],[-15.46408,27.80575],[-15.46412,27.80564],[-15.46396,27.80549],[-15.46397,27.80535],[-15.46635,27.80458],[-15.4677,27.80335],[-15.46869,27.80227],[-15.46987,27.80134],[-15.47016,27.80127],[-15.47228,27.8],[-15.47428,27.79914],[-15.47536,27.79878],[-15.47623,27.79826],[-15.47718,27.79701],[-15.47755,27.7963],[-15.47829,27.7953],[-15.47863,27.79487],[-15.47928,27.79431],[-15.47936,27.79371],[-15.48102,27.79363],[-15.48383,27.79323],[-15.48525,27.79288],[-15.48719,27.79274],[-15.48803,27.79245],[-15.48901,27.7919],[-15.49042,27.79145],[-15.49125,27.79087],[-15.49209,27.79054],[-15.4937,27.79036],[-15.49504,27.78993],[-15.49596,27.78945],[-15.4972,27.78856],[-15.49845,27.78742],[-15.49916,27.78664],[-15.49924,27.78642],[-15.50038,27.78687],[-15.50125,27.78739],[-15.50211,27.78815],[-15.5025,27.78889],[-15.50561,27.78795],[-15.50939,27.7873],[-15.51148,27.78717],[-15.51599,27.7873],[-15.51755,27.78716],[-15.51971,27.78667],[-15.52155,27.78594],[-15.52201,27.7867],[-15.52251,27.78697],[-15.52278,27.78723],[-15.52297,27.78771],[-15.52334,27.78785],[-15.5241,27.7879],[-15.52452,27.78802],[-15.52501,27.78858],[-15.52518,27.78907],[-15.52533,27.7892],[-15.52658,27.78954],[-15.5271,27.79003],[-15.52752,27.79019],[-15.52788,27.79052],[-15.52818,27.79065],[-15.52936,27.79096],[-15.53064,27.79097],[-15.53106,27.79107],[-15.53145,27.79124],[-15.53205,27.79168],[-15.53265,27.79192],[-15.53279,27.79215],[-15.5328,27.79273],[-15.53331,27.79307],[-15.53348,27.79329],[-15.53344,27.79405],[-15.53401,27.79482],[-15.53407,27.79527],[-15.53435,27.79551],[-15.53489,27.79574],[-15.53517,27.79603],[-15.53536,27.7969],[-15.53523,27.79719],[-15.53539,27.79745],[-15.53536,27.79804],[-15.53573,27.79824],[-15.53583,27.79846],[-15.53581,27.79896],[-15.53593,27.79974],[-15.53613,27.80008],[-15.5368,27.8007],[-15.53687,27.80104],[-15.53735,27.80198],[-15.53751,27.80284],[-15.53775,27.80345],[-15.53769,27.8038],[-15.53808,27.80436],[-15.53788,27.80498],[-15.53788,27.80551],[-15.53773,27.80588],[-15.53789,27.80645],[-15.53765,27.80716],[-15.53784,27.8078],[-15.53789,27.8086],[-15.53839,27.80901],[-15.53806,27.80942],[-15.53804,27.80975],[-15.53841,27.81031],[-15.53875,27.81056],[-15.5391,27.81055],[-15.53983,27.81022],[-15.54022,27.81034],[-15.54053,27.81063],[-15.54101,27.81178],[-15.54142,27.81209],[-15.54148,27.81225],[-15.54126,27.8129],[-15.54136,27.81329],[-15.54126,27.81391],[-15.54079,27.81453],[-15.54112,27.81579],[-15.54125,27.81595],[-15.54233,27.81646],[-15.54263,27.81687],[-15.54267,27.8173],[-15.54306,27.81754],[-15.54326,27.81791],[-15.5433,27.81887],[-15.54323,27.81906],[-15.54339,27.81955],[-15.54314,27.81977],[-15.54278,27.82054],[-15.54284,27.82101],[-15.54262,27.82144],[-15.54274,27.82216],[-15.54292,27.82248],[-15.5429,27.82297],[-15.54272,27.8233],[-15.54267,27.82379],[-15.54279,27.82399],[-15.54269,27.82413],[-15.54244,27.82554],[-15.54234,27.82567],[-15.54232,27.8261],[-15.54254,27.82626],[-15.54273,27.82678],[-15.54289,27.82688],[-15.54317,27.82815],[-15.54314,27.82839],[-15.54344,27.82873],[-15.54342,27.82894],[-15.54358,27.82927],[-15.54351,27.82966],[-15.54388,27.8298],[-15.5441,27.8297],[-15.54436,27.82837],[-15.54456,27.82822],[-15.5448,27.82825],[-15.54512,27.82852],[-15.54556,27.8293],[-15.54568,27.83006],[-15.54631,27.83073],[-15.54632,27.83106],[-15.54655,27.83147],[-15.54621,27.83183],[-15.54646,27.83204],[-15.54659,27.83229],[-15.5464,27.83341],[-15.5466,27.83365],[-15.54684,27.83442],[-15.54717,27.8346],[-15.54753,27.83504],[-15.54716,27.83565],[-15.54703,27.83609],[-15.54708,27.83708],[-15.54721,27.8374],[-15.54801,27.83808],[-15.54862,27.83971],[-15.54857,27.84048],[-15.54894,27.84322],[-15.54873,27.84428],[-15.54872,27.84502],[-15.5489,27.84583],[-15.54923,27.84645],[-15.5495,27.84675],[-15.54913,27.84659],[-15.54834,27.84582],[-15.54806,27.84655],[-15.54797,27.84661],[-15.54756,27.84653],[-15.54775,27.84729],[-15.54736,27.84708],[-15.54705,27.84704],[-15.54673,27.84712],[-15.54642,27.84745],[-15.54593,27.84751],[-15.54574,27.84766],[-15.54542,27.8482],[-15.54499,27.84767],[-15.54492,27.84903],[-15.54588,27.85014],[-15.5463,27.85093],[-15.54615,27.85089],[-15.54498,27.84999],[-15.54475,27.85],[-15.54458,27.85037],[-15.54405,27.84973],[-15.54383,27.84995],[-15.54316,27.84921],[-15.54252,27.84904],[-15.54196,27.84828],[-15.54178,27.84922],[-15.54184,27.84947],[-15.54238,27.85036],[-15.54239,27.85068],[-15.54222,27.85112],[-15.54221,27.8514],[-15.5425,27.85189],[-15.54251,27.85207],[-15.54239,27.8523],[-15.54198,27.85255],[-15.54165,27.85311],[-15.54197,27.85353],[-15.54197,27.85366],[-15.54142,27.85314],[-15.54146,27.85278],[-15.5418,27.85202],[-15.54133,27.85124],[-15.54107,27.85146],[-15.54092,27.8519],[-15.5406,27.85217],[-15.5406,27.85245],[-15.54032,27.85298],[-15.54034,27.85354],[-15.54096,27.85385],[-15.54113,27.85402],[-15.54114,27.8547],[-15.54086,27.85417],[-15.54016,27.85393],[-15.53995,27.85377],[-15.53975,27.85295],[-15.53985,27.85238],[-15.5393,27.85225],[-15.539,27.85226],[-15.53865,27.85198],[-15.5386,27.85175],[-15.53882,27.85138],[-15.53871,27.85076],[-15.53877,27.85044],[-15.53864,27.85018],[-15.53839,27.85003],[-15.53788,27.85077],[-15.53786,27.85199],[-15.53731,27.85116],[-15.53687,27.85073],[-15.53657,27.85056],[-15.53634,27.85055],[-15.53579,27.85074],[-15.53488,27.85123],[-15.53536,27.85201],[-15.53553,27.85258],[-15.53623,27.85325],[-15.5365,27.85379],[-15.53676,27.85411],[-15.53694,27.85446],[-15.53702,27.85494],[-15.53746,27.85515],[-15.53699,27.85533],[-15.53683,27.85584],[-15.53683,27.85624],[-15.53666,27.85602],[-15.53664,27.85496],[-15.53636,27.85432],[-15.53577,27.8537],[-15.53508,27.85325],[-15.53457,27.85325],[-15.53397,27.85306],[-15.53354,27.85259],[-15.53332,27.85276],[-15.53343,27.85377],[-15.53336,27.85385],[-15.53299,27.85385],[-15.53241,27.85357],[-15.53172,27.85362],[-15.53146,27.85375],[-15.5313,27.85398],[-15.53147,27.85459],[-15.53134,27.85484],[-15.53117,27.85495],[-15.53048,27.85492]]]}},{"type":"Feature","properties":{"id":"3501902002"},"geometry":{"type":"Polygon","coordinates":[[[-15.42725,27.8057],[-15.42761,27.80534],[-15.42834,27.80494],[-15.42885,27.80437],[-15.4293,27.80431],[-15.42969,27.80377],[-15.43082,27.80343],[-15.43133,27.80315],[-15.43186,27.80305],[-15.43292,27.80305],[-15.43307,27.80276],[-15.43367,27.80263],[-15.43242,27.80029],[-15.4327,27.79983],[-15.43332,27.79937],[-15.43362,27.79926],[-15.43387,27.79923],[-15.43392,27.79949],[-15.43337,27.7997],[-15.43282,27.80021],[-15.43278,27.80045],[-15.43335,27.80147],[-15.43355,27.8015],[-15.43409,27.80249],[-15.43485,27.80222],[-15.43495,27.80234],[-15.4349,27.80246],[-15.43528,27.80299],[-15.43578,27.80286],[-15.43592,27.80272],[-15.43543,27.80218],[-15.43522,27.80214],[-15.43519,27.80185],[-15.43375,27.80029],[-15.43381,27.80013],[-15.43417,27.80035],[-15.43546,27.80173],[-15.43599,27.80149],[-15.43611,27.80159],[-15.43614,27.80137],[-15.43638,27.80149],[-15.43639,27.80119],[-15.43661,27.80117],[-15.43706,27.80097],[-15.43727,27.80078],[-15.43893,27.80012],[-15.43933,27.80013],[-15.43981,27.79998],[-15.44082,27.79989],[-15.44161,27.79989],[-15.44238,27.79961],[-15.44346,27.79952],[-15.44419,27.79922],[-15.44501,27.79924],[-15.4462,27.79888],[-15.44652,27.79906],[-15.44692,27.79907],[-15.44841,27.79875],[-15.44878,27.79882],[-15.44983,27.79866],[-15.45101,27.79876],[-15.4536,27.79841],[-15.45406,27.79845],[-15.45415,27.80087],[-15.45801,27.80085],[-15.4594,27.80019],[-15.45948,27.80043],[-15.46059,27.80008],[-15.46078,27.80029],[-15.46334,27.79864],[-15.46311,27.79832],[-15.46405,27.79777],[-15.46446,27.79774],[-15.46453,27.79752],[-15.46525,27.79674],[-15.46602,27.79644],[-15.46668,27.79597],[-15.46686,27.79572],[-15.46839,27.79493],[-15.46906,27.79513],[-15.46957,27.79509],[-15.47178,27.79427],[-15.47265,27.79381],[-15.47299,27.79383],[-15.47404,27.79355],[-15.47561,27.7935],[-15.47695,27.79374],[-15.47843,27.7936],[-15.47936,27.79371],[-15.47928,27.79431],[-15.47863,27.79487],[-15.47829,27.7953],[-15.47755,27.7963],[-15.47718,27.79701],[-15.47623,27.79826],[-15.47536,27.79878],[-15.47428,27.79914],[-15.47228,27.8],[-15.47016,27.80127],[-15.46987,27.80134],[-15.46869,27.80227],[-15.4677,27.80335],[-15.46635,27.80458],[-15.46397,27.80535],[-15.46396,27.80549],[-15.46412,27.80564],[-15.46408,27.80575],[-15.46276,27.80646],[-15.45979,27.80728],[-15.45879,27.80884],[-15.458,27.80986],[-15.45734,27.81051],[-15.4563,27.81132],[-15.45529,27.81171],[-15.45499,27.8122],[-15.45404,27.81272],[-15.45215,27.81544],[-15.45131,27.8172],[-15.45081,27.81773],[-15.44985,27.81944],[-15.44982,27.81998],[-15.45008,27.82031],[-15.45023,27.8211],[-15.44989,27.82157],[-15.44925,27.82212],[-15.44828,27.82348],[-15.44651,27.822],[-15.44579,27.8215],[-15.44329,27.81901],[-15.44225,27.81873],[-15.44052,27.81724],[-15.43892,27.81663],[-15.43557,27.81505],[-15.43466,27.81456],[-15.43403,27.8141],[-15.43085,27.81027],[-15.42819,27.80641],[-15.42725,27.8057]]]}},{"type":"Feature","properties":{"id":"3501902003"},"geometry":{"type":"Polygon","coordinates":[[[-15.45406,27.79845],[-15.45532,27.79831],[-15.45636,27.79834],[-15.45661,27.79846],[-15.45683,27.79845],[-15.45789,27.79802],[-15.45916,27.79771],[-15.46004,27.79732],[-15.46104,27.79714],[-15.46141,27.79697],[-15.46191,27.79702],[-15.46259,27.79685],[-15.46285,27.79667],[-15.46266,27.79477],[-15.46301,27.79467],[-15.46384,27.79458],[-15.46399,27.79466],[-15.46383,27.79487],[-15.46295,27.79489],[-15.46293,27.79521],[-15.46311,27.79524],[-15.46316,27.79551],[-15.46305,27.79589],[-15.46319,27.79677],[-15.46363,27.79689],[-15.46431,27.79678],[-15.46448,27.79669],[-15.46446,27.79653],[-15.46459,27.79664],[-15.46531,27.79636],[-15.46533,27.79616],[-15.46567,27.79653],[-15.46561,27.79663],[-15.46525,27.79674],[-15.46493,27.79702],[-15.46449,27.79757],[-15.46446,27.79774],[-15.46405,27.79777],[-15.46311,27.79832],[-15.46334,27.79864],[-15.46078,27.80029],[-15.46059,27.80008],[-15.45948,27.80043],[-15.4594,27.80019],[-15.45801,27.80085],[-15.45415,27.80087],[-15.45406,27.79845]]]}},{"type":"Feature","properties":{"id":"3501903001"},"geometry":{"type":"Polygon","coordinates":[[[-15.57643,27.76718],[-15.57649,27.76612],[-15.57886,27.76624],[-15.57872,27.76839],[-15.57643,27.76718]]]}},{"type":"Feature","properties":{"id":"3501903002"},"geometry":{"type":"Polygon","coordinates":[[[-15.57649,27.76612],[-15.57646,27.76461],[-15.5774,27.76427],[-15.57786,27.76424],[-15.57816,27.7643],[-15.57874,27.76465],[-15.57888,27.76465],[-15.57886,27.76624],[-15.57649,27.76612]]]}},{"type":"Feature","properties":{"id":"3501903003"},"geometry":{"type":"Polygon","coordinates":[[[-15.53279,27.79225],[-15.53265,27.79192],[-15.53193,27.79161],[-15.53124,27.79112],[-15.53064,27.79097],[-15.52936,27.79096],[-15.52868,27.79083],[-15.52788,27.79052],[-15.52752,27.79019],[-15.5271,27.79003],[-15.52658,27.78954],[-15.52533,27.7892],[-15.52518,27.78907],[-15.52501,27.78858],[-15.52452,27.78802],[-15.5241,27.7879],[-15.52334,27.78785],[-15.52297,27.78771],[-15.52278,27.78723],[-15.52251,27.78697],[-15.52201,27.7867],[-15.52155,27.78594],[-15.51971,27.78667],[-15.51755,27.78716],[-15.51599,27.7873],[-15.51148,27.78717],[-15.50939,27.7873],[-15.50561,27.78795],[-15.5025,27.78889],[-15.50211,27.78815],[-15.50125,27.78739],[-15.50038,27.78687],[-15.49924,27.78642],[-15.50005,27.78632],[-15.50071,27.78566],[-15.50094,27.78558],[-15.5015,27.78571],[-15.50176,27.7856],[-15.50228,27.78511],[-15.50342,27.78347],[-15.50586,27.78246],[-15.50761,27.78121],[-15.50835,27.78055],[-15.50876,27.78042],[-15.50993,27.78046],[-15.51046,27.78065],[-15.51145,27.78053],[-15.51205,27.78117],[-15.51246,27.78144],[-15.51292,27.78148],[-15.51387,27.78182],[-15.51477,27.78189],[-15.51477,27.78177],[-15.5149,27.7817],[-15.51548,27.78166],[-15.51613,27.78186],[-15.51675,27.78166],[-15.51713,27.78162],[-15.51746,27.78147],[-15.51757,27.78153],[-15.51749,27.78112],[-15.5177,27.7814],[-15.51851,27.78119],[-15.52242,27.77957],[-15.52373,27.77866],[-15.52474,27.77771],[-15.52584,27.77736],[-15.52611,27.7774],[-15.52717,27.77674],[-15.52859,27.77568],[-15.52929,27.77497],[-15.52927,27.77455],[-15.52984,27.7739],[-15.53016,27.77393],[-15.53039,27.77381],[-15.53093,27.77387],[-15.53238,27.77271],[-15.53289,27.77209],[-15.53261,27.77182],[-15.53263,27.77142],[-15.53298,27.77129],[-15.53297,27.77113],[-15.53312,27.77106],[-15.53323,27.77062],[-15.53367,27.77022],[-15.53396,27.77016],[-15.5342,27.76999],[-15.53454,27.76997],[-15.5347,27.76985],[-15.53609,27.76971],[-15.53655,27.76976],[-15.53779,27.77034],[-15.53841,27.77038],[-15.54105,27.7689],[-15.54277,27.76767],[-15.54318,27.7673],[-15.54342,27.76691],[-15.54306,27.76648],[-15.54345,27.76662],[-15.54368,27.76682],[-15.54397,27.76687],[-15.54418,27.76687],[-15.54423,27.76667],[-15.54443,27.76662],[-15.54481,27.76687],[-15.54517,27.76696],[-15.54529,27.7669],[-15.54567,27.76698],[-15.54587,27.76688],[-15.54642,27.76711],[-15.54675,27.76694],[-15.54703,27.7671],[-15.54733,27.76705],[-15.54753,27.76717],[-15.54791,27.76719],[-15.54797,27.76687],[-15.54819,27.76683],[-15.5486,27.76692],[-15.54898,27.76716],[-15.54942,27.76729],[-15.55054,27.76672],[-15.5512,27.76617],[-15.55135,27.76579],[-15.55127,27.76539],[-15.55111,27.76525],[-15.55078,27.76541],[-15.55068,27.7652],[-15.55095,27.76498],[-15.55136,27.76497],[-15.55164,27.76507],[-15.55221,27.76563],[-15.55277,27.76539],[-15.55308,27.76507],[-15.55335,27.76509],[-15.55355,27.76501],[-15.55397,27.76601],[-15.55433,27.76649],[-15.55584,27.76578],[-15.55676,27.76557],[-15.55755,27.76551],[-15.55753,27.76616],[-15.55567,27.76955],[-15.55546,27.77123],[-15.55523,27.77192],[-15.55503,27.77232],[-15.55439,27.77302],[-15.55455,27.77342],[-15.55478,27.77345],[-15.5551,27.77371],[-15.55609,27.77573],[-15.55664,27.7765],[-15.55824,27.77806],[-15.55777,27.78026],[-15.55708,27.78166],[-15.55708,27.78218],[-15.55741,27.78298],[-15.55719,27.78404],[-15.55715,27.78496],[-15.55719,27.78545],[-15.55745,27.78581],[-15.55737,27.78643],[-15.5571,27.78665],[-15.55678,27.78652],[-15.5565,27.78628],[-15.55599,27.78622],[-15.54967,27.78668],[-15.54813,27.78713],[-15.54324,27.78947],[-15.54062,27.79061],[-15.53705,27.79157],[-15.53389,27.79216],[-15.53279,27.79225]]]}},{"type":"Feature","properties":{"id":"3501903004"},"geometry":{"type":"Polygon","coordinates":[[[-15.56329,27.76475],[-15.56047,27.76573],[-15.55994,27.7658],[-15.55755,27.76551],[-15.55676,27.76557],[-15.55563,27.76585],[-15.55433,27.76649],[-15.55397,27.76601],[-15.55355,27.76501],[-15.55376,27.76496],[-15.55437,27.76505],[-15.55509,27.76482],[-15.55565,27.76433],[-15.55601,27.76414],[-15.55721,27.764],[-15.5576,27.76373],[-15.55875,27.76263],[-15.559,27.76264],[-15.55869,27.7629],[-15.55883,27.76307],[-15.55915,27.76322],[-15.55949,27.76322],[-15.5601,27.76303],[-15.56064,27.76272],[-15.56097,27.76243],[-15.56088,27.76216],[-15.56125,27.76239],[-15.56174,27.76207],[-15.56221,27.76156],[-15.56206,27.76135],[-15.56218,27.76129],[-15.56238,27.76148],[-15.5627,27.76129],[-15.56398,27.76021],[-15.56476,27.75923],[-15.56622,27.75662],[-15.56681,27.75504],[-15.56743,27.75525],[-15.56803,27.75558],[-15.56819,27.75578],[-15.56914,27.75622],[-15.56938,27.75647],[-15.56955,27.75693],[-15.56966,27.75703],[-15.57058,27.75695],[-15.57078,27.75706],[-15.57119,27.7576],[-15.57141,27.75776],[-15.57218,27.7577],[-15.57232,27.7579],[-15.57231,27.75827],[-15.57251,27.75846],[-15.57269,27.75848],[-15.57323,27.75831],[-15.57349,27.75834],[-15.57418,27.75901],[-15.57549,27.75953],[-15.57909,27.75986],[-15.57892,27.76111],[-15.5789,27.76386],[-15.57729,27.76394],[-15.57467,27.7647],[-15.57396,27.7648],[-15.56415,27.76457],[-15.56329,27.76475]]]}},{"type":"Feature","properties":{"id":"3501903005"},"geometry":{"type":"Polygon","coordinates":[[[-15.58406,27.7649],[-15.58095,27.7639],[-15.5789,27.76386],[-15.57892,27.76111],[-15.57909,27.75986],[-15.57549,27.75953],[-15.57418,27.75901],[-15.57349,27.75834],[-15.57323,27.75831],[-15.57269,27.75848],[-15.57251,27.75846],[-15.57231,27.75827],[-15.57232,27.7579],[-15.57218,27.7577],[-15.57141,27.75776],[-15.57119,27.7576],[-15.57078,27.75706],[-15.57058,27.75695],[-15.56966,27.75703],[-15.56955,27.75693],[-15.56938,27.75647],[-15.56914,27.75622],[-15.56819,27.75578],[-15.56803,27.75558],[-15.56743,27.75525],[-15.56681,27.75504],[-15.56754,27.75273],[-15.56806,27.74964],[-15.57014,27.74819],[-15.57543,27.74517],[-15.57627,27.74499],[-15.57709,27.74508],[-15.57763,27.74532],[-15.57851,27.74619],[-15.5793,27.74856],[-15.58017,27.75066],[-15.5802,27.75108],[-15.58052,27.75204],[-15.58167,27.75499],[-15.58254,27.75631],[-15.58365,27.75836],[-15.58416,27.75886],[-15.58459,27.75956],[-15.58565,27.76018],[-15.58568,27.76121],[-15.5858,27.76177],[-15.58715,27.76337],[-15.5852,27.76467],[-15.58464,27.76488],[-15.58406,27.7649]]]}},{"type":"Feature","properties":{"id":"3501903006"},"geometry":{"type":"Polygon","coordinates":[[[-15.58254,27.76783],[-15.58323,27.76888],[-15.58237,27.76928],[-15.58249,27.76954],[-15.58189,27.7698],[-15.58185,27.76974],[-15.58057,27.77036],[-15.5797,27.76964],[-15.57937,27.76924],[-15.58,27.76895],[-15.58097,27.76883],[-15.58254,27.76783]]]}},{"type":"Feature","properties":{"id":"3501903007"},"geometry":{"type":"Polygon","coordinates":[[[-15.5741,27.76479],[-15.57467,27.7647],[-15.57729,27.76394],[-15.5789,27.76386],[-15.57888,27.76465],[-15.57874,27.76465],[-15.57816,27.7643],[-15.57786,27.76424],[-15.5774,27.76427],[-15.57646,27.76461],[-15.57652,27.76493],[-15.57643,27.76718],[-15.5752,27.76649],[-15.57478,27.76598],[-15.5741,27.76479]]]}},{"type":"Feature","properties":{"id":"3501903008"},"geometry":{"type":"Polygon","coordinates":[[[-15.57886,27.76624],[-15.5789,27.76386],[-15.58095,27.7639],[-15.58406,27.7649],[-15.58397,27.76518],[-15.58331,27.76614],[-15.58266,27.76663],[-15.58156,27.76629],[-15.57886,27.76624]]]}},{"type":"Feature","properties":{"id":"3501903009"},"geometry":{"type":"Polygon","coordinates":[[[-15.57902,27.77173],[-15.58009,27.77159],[-15.5859,27.76873],[-15.58771,27.77171],[-15.59317,27.7708],[-15.59314,27.77109],[-15.59296,27.77137],[-15.59148,27.77224],[-15.58974,27.77378],[-15.58815,27.77606],[-15.5871,27.77709],[-15.58703,27.77818],[-15.5866,27.77906],[-15.58388,27.778],[-15.58309,27.77739],[-15.58083,27.77641],[-15.57984,27.77563],[-15.57781,27.77354],[-15.57785,27.7732],[-15.5782,27.77252],[-15.57851,27.77218],[-15.57889,27.77195],[-15.57902,27.77173]]]}},{"type":"Feature","properties":{"id":"3501903010"},"geometry":{"type":"Polygon","coordinates":[[[-15.57903,27.77169],[-15.5788,27.77131],[-15.57874,27.7701],[-15.57871,27.76819],[-15.57886,27.76624],[-15.58156,27.76629],[-15.58266,27.76663],[-15.583,27.76643],[-15.58376,27.76707],[-15.58097,27.76883],[-15.58,27.76895],[-15.57937,27.76924],[-15.5802,27.77008],[-15.58138,27.77095],[-15.58009,27.77159],[-15.57903,27.77169]]]}},{"type":"Feature","properties":{"id":"3501903011"},"geometry":{"type":"Polygon","coordinates":[[[-15.60097,27.75491],[-15.6016,27.75298],[-15.60135,27.74891],[-15.60112,27.74698],[-15.60077,27.74615],[-15.60049,27.74625],[-15.60006,27.74676],[-15.59945,27.74706],[-15.59616,27.74682],[-15.59674,27.74211],[-15.59646,27.7412],[-15.59561,27.73971],[-15.59452,27.73816],[-15.59428,27.73766],[-15.59428,27.73702],[-15.59384,27.73544],[-15.59615,27.73503],[-15.59802,27.73506],[-15.59806,27.73479],[-15.59899,27.73455],[-15.59904,27.73483],[-15.59969,27.73505],[-15.6019,27.7362],[-15.60256,27.73645],[-15.60338,27.73723],[-15.60362,27.73728],[-15.60386,27.73748],[-15.60389,27.7377],[-15.60442,27.7381],[-15.60493,27.73833],[-15.606,27.73902],[-15.60636,27.73904],[-15.60633,27.73924],[-15.60728,27.74023],[-15.60829,27.74162],[-15.60959,27.74284],[-15.61024,27.74307],[-15.61013,27.74321],[-15.61018,27.74333],[-15.61068,27.74346],[-15.61075,27.74362],[-15.61066,27.74376],[-15.61125,27.74425],[-15.61234,27.74497],[-15.61355,27.74563],[-15.61453,27.74603],[-15.6148,27.74598],[-15.61491,27.74615],[-15.61515,27.7462],[-15.61572,27.74655],[-15.61584,27.74679],[-15.61627,27.74712],[-15.61684,27.74732],[-15.61745,27.74736],[-15.61755,27.74775],[-15.61961,27.74891],[-15.62026,27.749],[-15.62069,27.74897],[-15.62164,27.74864],[-15.62159,27.74684],[-15.62167,27.74674],[-15.62188,27.74673],[-15.62189,27.74707],[-15.62227,27.74707],[-15.62222,27.74663],[-15.62235,27.74662],[-15.62232,27.74708],[-15.62273,27.74707],[-15.62274,27.74649],[-15.62277,27.74707],[-15.62536,27.74701],[-15.62535,27.74658],[-15.62343,27.74664],[-15.62338,27.74673],[-15.62338,27.7465],[-15.62343,27.74659],[-15.62534,27.74655],[-15.62533,27.74622],[-15.62449,27.74626],[-15.62322,27.74605],[-15.62315,27.74632],[-15.62316,27.74604],[-15.62296,27.74601],[-15.62287,27.74628],[-15.62291,27.746],[-15.6227,27.74597],[-15.62264,27.74624],[-15.62267,27.74597],[-15.62177,27.74583],[-15.62168,27.74635],[-15.62151,27.74635],[-15.62144,27.74627],[-15.62149,27.74582],[-15.62111,27.74585],[-15.62097,27.74575],[-15.62097,27.74554],[-15.62107,27.74545],[-15.6216,27.74547],[-15.62413,27.74586],[-15.62604,27.74587],[-15.62694,27.7458],[-15.62708,27.74568],[-15.62714,27.74575],[-15.62728,27.74572],[-15.62797,27.74508],[-15.62862,27.74504],[-15.62882,27.74533],[-15.62906,27.74549],[-15.6298,27.74536],[-15.63012,27.74546],[-15.63049,27.74538],[-15.63064,27.74547],[-15.63057,27.74564],[-15.63159,27.74582],[-15.6321,27.74614],[-15.63282,27.74618],[-15.63292,27.74643],[-15.6332,27.74658],[-15.63325,27.74678],[-15.63361,27.74701],[-15.63363,27.74711],[-15.63325,27.74695],[-15.63377,27.74746],[-15.63402,27.74814],[-15.6347,27.74853],[-15.63506,27.74859],[-15.63512,27.74847],[-15.63602,27.74809],[-15.63632,27.74812],[-15.63682,27.74842],[-15.63696,27.74911],[-15.63713,27.74921],[-15.63744,27.74962],[-15.63753,27.75025],[-15.63986,27.75085],[-15.63764,27.75318],[-15.63731,27.75324],[-15.63672,27.75369],[-15.6363,27.75389],[-15.63567,27.75414],[-15.6318,27.75453],[-15.63217,27.75699],[-15.63284,27.75795],[-15.63552,27.7606],[-15.63542,27.76408],[-15.63626,27.76581],[-15.632,27.76771],[-15.62525,27.76249],[-15.62429,27.76149],[-15.62129,27.75801],[-15.61937,27.7566],[-15.61901,27.75614],[-15.61767,27.75625],[-15.61537,27.75671],[-15.6138,27.75737],[-15.61139,27.75867],[-15.61009,27.75791],[-15.60896,27.75789],[-15.6082,27.7578],[-15.60792,27.75767],[-15.60689,27.75665],[-15.6063,27.75566],[-15.60561,27.75498],[-15.6051,27.75466],[-15.60402,27.75432],[-15.6039,27.7544],[-15.60204,27.75444],[-15.60097,27.75491]]]}},{"type":"Feature","properties":{"id":"3501903012"},"geometry":{"type":"Polygon","coordinates":[[[-15.58057,27.77036],[-15.58185,27.76974],[-15.58189,27.7698],[-15.58249,27.76954],[-15.58237,27.76928],[-15.58323,27.76888],[-15.58254,27.76783],[-15.58529,27.76611],[-15.58604,27.7661],[-15.58584,27.76838],[-15.5859,27.76873],[-15.58138,27.77095],[-15.58057,27.77036]]]}},{"type":"Feature","properties":{"id":"3501903013"},"geometry":{"type":"Polygon","coordinates":[[[-15.56155,27.76536],[-15.56155,27.76571],[-15.56521,27.76558],[-15.56998,27.76576],[-15.56998,27.76626],[-15.57354,27.76638],[-15.57452,27.76754],[-15.57646,27.76853],[-15.57688,27.76894],[-15.5772,27.76936],[-15.57741,27.77078],[-15.57802,27.77151],[-15.57902,27.77173],[-15.57889,27.77195],[-15.57851,27.77218],[-15.5782,27.77252],[-15.57785,27.7732],[-15.57781,27.77354],[-15.57984,27.77563],[-15.58083,27.77641],[-15.58309,27.77739],[-15.58388,27.778],[-15.5866,27.77906],[-15.58633,27.77952],[-15.58639,27.77978],[-15.58689,27.78],[-15.58692,27.78156],[-15.58635,27.78266],[-15.5861,27.78365],[-15.58637,27.78465],[-15.58608,27.7854],[-15.58605,27.78607],[-15.58619,27.78669],[-15.5869,27.78772],[-15.587,27.78803],[-15.58676,27.78898],[-15.58673,27.78955],[-15.58641,27.79013],[-15.58645,27.79039],[-15.58767,27.79185],[-15.58834,27.79306],[-15.58882,27.79371],[-15.58997,27.79449],[-15.59078,27.79546],[-15.59105,27.79561],[-15.59177,27.79577],[-15.59205,27.79602],[-15.5922,27.79648],[-15.59213,27.79712],[-15.59205,27.79736],[-15.59172,27.79769],[-15.59171,27.79802],[-15.59222,27.79847],[-15.59238,27.79847],[-15.59282,27.79826],[-15.5931,27.79824],[-15.59359,27.79851],[-15.59421,27.80086],[-15.59491,27.80151],[-15.59505,27.80178],[-15.59506,27.80222],[-15.59489,27.80265],[-15.595,27.80317],[-15.59529,27.8034],[-15.59619,27.80358],[-15.59644,27.80376],[-15.59729,27.80628],[-15.59751,27.80654],[-15.5979,27.80674],[-15.5981,27.80697],[-15.59811,27.80734],[-15.5976,27.80781],[-15.59753,27.80804],[-15.59776,27.8089],[-15.59763,27.81016],[-15.59792,27.81064],[-15.59843,27.81091],[-15.59911,27.81145],[-15.59933,27.81243],[-15.59918,27.81309],[-15.59932,27.8133],[-15.59992,27.81381],[-15.60011,27.81415],[-15.60008,27.81452],[-15.59961,27.81567],[-15.59976,27.81676],[-15.59919,27.81841],[-15.59917,27.8188],[-15.59965,27.82099],[-15.60021,27.82175],[-15.60056,27.82243],[-15.60014,27.82321],[-15.60031,27.82372],[-15.60005,27.8242],[-15.59995,27.82465],[-15.59966,27.82506],[-15.59981,27.8256],[-15.5991,27.82626],[-15.59917,27.82718],[-15.59895,27.82784],[-15.59845,27.82803],[-15.59819,27.82828],[-15.59809,27.8299],[-15.59771,27.83096],[-15.59733,27.83128],[-15.59723,27.83149],[-15.59724,27.83172],[-15.59762,27.83254],[-15.5976,27.8329],[-15.59683,27.83382],[-15.59666,27.83469],[-15.59619,27.83518],[-15.59601,27.8362],[-15.59562,27.83682],[-15.59539,27.83768],[-15.59515,27.83785],[-15.59529,27.83821],[-15.59586,27.83885],[-15.59594,27.83919],[-15.59632,27.83961],[-15.59698,27.83995],[-15.59736,27.84054],[-15.59768,27.84117],[-15.59766,27.84179],[-15.598,27.84262],[-15.5981,27.84312],[-15.59852,27.84344],[-15.59851,27.84412],[-15.5987,27.84465],[-15.59809,27.84653],[-15.59812,27.84692],[-15.59789,27.84713],[-15.59802,27.84754],[-15.59802,27.84806],[-15.59788,27.84822],[-15.59769,27.84911],[-15.59747,27.84938],[-15.59718,27.84946],[-15.59683,27.85019],[-15.59632,27.85058],[-15.59634,27.85092],[-15.59601,27.85185],[-15.59602,27.85219],[-15.5958,27.85252],[-15.5957,27.85339],[-15.59509,27.85476],[-15.59526,27.85606],[-15.59483,27.85603],[-15.59437,27.85556],[-15.5945,27.85439],[-15.59481,27.85408],[-15.59473,27.85369],[-15.59416,27.85356],[-15.59391,27.85342],[-15.59383,27.85317],[-15.59403,27.85279],[-15.59473,27.8524],[-15.59494,27.85217],[-15.59489,27.85149],[-15.59463,27.85119],[-15.59443,27.85068],[-15.5945,27.85042],[-15.59465,27.85019],[-15.5952,27.84983],[-15.5953,27.84942],[-15.59604,27.84834],[-15.59636,27.84808],[-15.59632,27.84771],[-15.59617,27.8474],[-15.59622,27.84675],[-15.59596,27.84649],[-15.59587,27.84621],[-15.5956,27.84601],[-15.59545,27.84578],[-15.59563,27.84534],[-15.59621,27.84474],[-15.59623,27.84449],[-15.59602,27.84401],[-15.59561,27.84347],[-15.59523,27.84336],[-15.59412,27.84389],[-15.59367,27.84428],[-15.59335,27.84429],[-15.59291,27.84449],[-15.59255,27.84498],[-15.59226,27.84516],[-15.59191,27.84563],[-15.59195,27.84602],[-15.59186,27.84622],[-15.59136,27.84656],[-15.59138,27.84736],[-15.59051,27.84766],[-15.59055,27.84828],[-15.58955,27.84854],[-15.58942,27.84872],[-15.5891,27.8489],[-15.58904,27.84984],[-15.58879,27.85034],[-15.58843,27.85057],[-15.5883,27.85137],[-15.58814,27.85173],[-15.58811,27.85202],[-15.58831,27.85282],[-15.58813,27.85299],[-15.58786,27.85285],[-15.58729,27.8518],[-15.58704,27.85069],[-15.58714,27.84952],[-15.58698,27.84887],[-15.58711,27.84841],[-15.58707,27.84797],[-15.58737,27.84679],[-15.58729,27.8457],[-15.5871,27.84482],[-15.58717,27.8441],[-15.58706,27.84229],[-15.58684,27.84128],[-15.58593,27.83883],[-15.58561,27.83634],[-15.58471,27.8351],[-15.584,27.83442],[-15.58381,27.83292],[-15.58367,27.83252],[-15.58306,27.83222],[-15.58315,27.83203],[-15.58294,27.83186],[-15.58233,27.83193],[-15.58214,27.83173],[-15.58191,27.83178],[-15.58163,27.83167],[-15.58088,27.83165],[-15.58057,27.83155],[-15.58016,27.83101],[-15.58017,27.83061],[-15.5801,27.83052],[-15.57946,27.83087],[-15.57911,27.83159],[-15.57878,27.83325],[-15.57891,27.83392],[-15.57879,27.83472],[-15.57772,27.83555],[-15.57741,27.83609],[-15.57691,27.83657],[-15.57672,27.83661],[-15.57609,27.83645],[-15.57562,27.83657],[-15.5756,27.83719],[-15.57544,27.83772],[-15.57461,27.83791],[-15.5743,27.83818],[-15.57423,27.8387],[-15.57468,27.83961],[-15.57471,27.8399],[-15.57452,27.84014],[-15.57382,27.8407],[-15.57373,27.84163],[-15.57362,27.84189],[-15.57328,27.84212],[-15.57263,27.84222],[-15.57208,27.84245],[-15.5711,27.84318],[-15.57098,27.84347],[-15.57063,27.84352],[-15.5701,27.84326],[-15.56974,27.84325],[-15.5681,27.84379],[-15.56699,27.84395],[-15.56593,27.84387],[-15.56421,27.84352],[-15.56364,27.84356],[-15.56336,27.84365],[-15.56258,27.84416],[-15.56192,27.84432],[-15.56119,27.84487],[-15.56092,27.84498],[-15.56067,27.84519],[-15.56028,27.84605],[-15.56002,27.84627],[-15.55969,27.84627],[-15.55942,27.84613],[-15.55926,27.84585],[-15.55823,27.84593],[-15.55794,27.84579],[-15.55781,27.84563],[-15.55775,27.84485],[-15.55757,27.84468],[-15.55749,27.84475],[-15.55745,27.84518],[-15.55752,27.84575],[-15.55679,27.84638],[-15.55625,27.84624],[-15.5559,27.84595],[-15.55575,27.84592],[-15.55507,27.84613],[-15.55399,27.84667],[-15.55377,27.84619],[-15.55322,27.84593],[-15.5531,27.8454],[-15.55275,27.84495],[-15.55266,27.84455],[-15.55193,27.8452],[-15.55159,27.84535],[-15.55139,27.84574],[-15.55094,27.84628],[-15.55088,27.8467],[-15.55081,27.84671],[-15.55023,27.84621],[-15.54967,27.84525],[-15.54979,27.84456],[-15.54969,27.84429],[-15.54961,27.84426],[-15.54936,27.84461],[-15.54926,27.84519],[-15.5495,27.84675],[-15.54923,27.84645],[-15.54888,27.84578],[-15.54872,27.84502],[-15.54873,27.84428],[-15.54893,27.84306],[-15.5487,27.84191],[-15.54869,27.84105],[-15.54857,27.84048],[-15.54862,27.83971],[-15.54801,27.83808],[-15.54721,27.8374],[-15.54708,27.83708],[-15.54703,27.83609],[-15.54716,27.83565],[-15.54753,27.83504],[-15.54717,27.8346],[-15.54684,27.83442],[-15.5466,27.83365],[-15.5464,27.83341],[-15.54659,27.83229],[-15.54621,27.83181],[-15.54654,27.83149],[-15.54653,27.83134],[-15.54632,27.83106],[-15.54626,27.83065],[-15.54568,27.83006],[-15.54565,27.82953],[-15.54525,27.82874],[-15.5448,27.82825],[-15.54456,27.82822],[-15.54436,27.82837],[-15.5441,27.8297],[-15.54388,27.8298],[-15.54351,27.82966],[-15.54358,27.82927],[-15.54342,27.82894],[-15.54344,27.82873],[-15.54314,27.82839],[-15.54317,27.82815],[-15.54289,27.82688],[-15.54273,27.82678],[-15.54254,27.82626],[-15.54232,27.8261],[-15.54234,27.82567],[-15.54244,27.82554],[-15.54269,27.82413],[-15.54279,27.82399],[-15.54267,27.82379],[-15.54272,27.8233],[-15.5429,27.82297],[-15.54292,27.82248],[-15.54274,27.82216],[-15.54262,27.82144],[-15.54284,27.82101],[-15.54278,27.82054],[-15.54314,27.81977],[-15.54339,27.81955],[-15.54323,27.81906],[-15.5433,27.81887],[-15.54326,27.81791],[-15.54306,27.81754],[-15.54267,27.8173],[-15.54263,27.81687],[-15.54233,27.81646],[-15.54125,27.81595],[-15.54112,27.81579],[-15.54079,27.81453],[-15.54126,27.81391],[-15.54136,27.81329],[-15.54126,27.8129],[-15.54148,27.81225],[-15.54142,27.81209],[-15.54101,27.81178],[-15.54053,27.81063],[-15.54022,27.81034],[-15.53983,27.81022],[-15.5391,27.81055],[-15.53875,27.81056],[-15.53851,27.81041],[-15.53809,27.80988],[-15.53806,27.80942],[-15.53836,27.80911],[-15.53838,27.80895],[-15.53789,27.8086],[-15.53784,27.8078],[-15.53765,27.80716],[-15.53789,27.80645],[-15.53773,27.80588],[-15.53788,27.80551],[-15.53788,27.80498],[-15.53806,27.80428],[-15.53769,27.8038],[-15.53775,27.80345],[-15.53751,27.80284],[-15.53735,27.80198],[-15.53687,27.80104],[-15.5368,27.8007],[-15.53613,27.80008],[-15.53593,27.79974],[-15.53581,27.79896],[-15.53583,27.79846],[-15.53573,27.79824],[-15.53536,27.79804],[-15.53539,27.79745],[-15.53523,27.79719],[-15.53536,27.7969],[-15.53523,27.79616],[-15.53489,27.79574],[-15.53435,27.79551],[-15.53407,27.79527],[-15.53401,27.79482],[-15.53344,27.79405],[-15.53348,27.79329],[-15.53331,27.79307],[-15.5328,27.79273],[-15.53279,27.79225],[-15.53389,27.79216],[-15.53705,27.79157],[-15.54062,27.79061],[-15.54324,27.78947],[-15.54813,27.78713],[-15.54967,27.78668],[-15.55609,27.78622],[-15.5565,27.78628],[-15.55678,27.78652],[-15.55717,27.78664],[-15.5572,27.78651],[-15.55739,27.7864],[-15.55745,27.78581],[-15.55719,27.78545],[-15.55715,27.78497],[-15.55719,27.78404],[-15.55741,27.78302],[-15.55733,27.78265],[-15.55708,27.78218],[-15.55708,27.78166],[-15.55777,27.78026],[-15.55824,27.77806],[-15.55664,27.7765],[-15.55609,27.77573],[-15.5551,27.77371],[-15.55478,27.77345],[-15.55455,27.77342],[-15.55439,27.77302],[-15.55503,27.77232],[-15.55523,27.77192],[-15.55546,27.77123],[-15.55567,27.76955],[-15.55753,27.76616],[-15.55755,27.76551],[-15.55994,27.7658],[-15.56047,27.76573],[-15.56155,27.76536]]]}},{"type":"Feature","properties":{"id":"3501903014"},"geometry":{"type":"Polygon","coordinates":[[[-15.58376,27.76707],[-15.583,27.76643],[-15.58353,27.76584],[-15.58406,27.7649],[-15.58464,27.76488],[-15.5852,27.76467],[-15.58715,27.76337],[-15.58929,27.76586],[-15.59006,27.76698],[-15.58917,27.76714],[-15.5859,27.76873],[-15.58584,27.76838],[-15.58604,27.7661],[-15.58529,27.76611],[-15.58376,27.76707]]]}},{"type":"Feature","properties":{"id":"3501903015"},"geometry":{"type":"Polygon","coordinates":[[[-15.5859,27.76873],[-15.58917,27.76714],[-15.59592,27.766],[-15.59687,27.76563],[-15.59709,27.76569],[-15.59712,27.76584],[-15.59669,27.76691],[-15.59646,27.76858],[-15.5966,27.76873],[-15.59735,27.76873],[-15.59779,27.76895],[-15.59585,27.76993],[-15.59368,27.77068],[-15.59233,27.77098],[-15.58771,27.77171],[-15.5859,27.76873]]]}},{"type":"Feature","properties":{"id":"3501903016"},"geometry":{"type":"Polygon","coordinates":[[[-15.59669,27.76691],[-15.5983,27.76259],[-15.59868,27.76036],[-15.60098,27.7549],[-15.60204,27.75444],[-15.6039,27.7544],[-15.60402,27.75432],[-15.60524,27.75473],[-15.6063,27.75566],[-15.60703,27.75679],[-15.60636,27.75833],[-15.60517,27.75804],[-15.60477,27.75802],[-15.60471,27.75851],[-15.60623,27.75898],[-15.60556,27.76007],[-15.60515,27.76013],[-15.60339,27.76002],[-15.60285,27.76367],[-15.60304,27.76393],[-15.60283,27.76479],[-15.60296,27.76468],[-15.60331,27.76621],[-15.60242,27.76649],[-15.60201,27.76584],[-15.59778,27.76895],[-15.59735,27.76873],[-15.5966,27.76873],[-15.59646,27.76858],[-15.59669,27.76691]]]}},{"type":"Feature","properties":{"id":"3501903017"},"geometry":{"type":"Polygon","coordinates":[[[-15.59384,27.73544],[-15.59428,27.73702],[-15.59428,27.73766],[-15.59452,27.73816],[-15.59561,27.73971],[-15.59646,27.7412],[-15.59674,27.74211],[-15.59616,27.74682],[-15.59945,27.74706],[-15.60006,27.74676],[-15.60049,27.74625],[-15.60077,27.74615],[-15.60118,27.74716],[-15.6016,27.75298],[-15.60097,27.75491],[-15.59868,27.76036],[-15.5983,27.76259],[-15.59712,27.7658],[-15.59704,27.76565],[-15.59677,27.76564],[-15.59592,27.766],[-15.59006,27.76698],[-15.58929,27.76586],[-15.58586,27.76186],[-15.5857,27.76137],[-15.58565,27.76018],[-15.58452,27.75948],[-15.58416,27.75886],[-15.58357,27.75825],[-15.58266,27.75651],[-15.58178,27.75519],[-15.58052,27.75204],[-15.5802,27.75108],[-15.58017,27.75066],[-15.5793,27.74856],[-15.57867,27.74653],[-15.57826,27.74588],[-15.57763,27.74532],[-15.57709,27.74508],[-15.57627,27.74499],[-15.57543,27.74517],[-15.57014,27.74819],[-15.56806,27.74964],[-15.56826,27.74807],[-15.56844,27.74505],[-15.56896,27.74155],[-15.56936,27.74019],[-15.56991,27.73916],[-15.57234,27.73709],[-15.5739,27.73614],[-15.57485,27.73574],[-15.57614,27.73533],[-15.57761,27.73498],[-15.57997,27.73478],[-15.58056,27.73478],[-15.58258,27.73504],[-15.58483,27.73513],[-15.5878,27.73562],[-15.5896,27.73579],[-15.59213,27.73575],[-15.59384,27.73544]]]}},{"type":"Feature","properties":{"id":"3501903018"},"geometry":{"type":"Polygon","coordinates":[[[-15.56155,27.76536],[-15.56349,27.76469],[-15.5644,27.76456],[-15.5741,27.76479],[-15.57478,27.76598],[-15.5752,27.76649],[-15.57872,27.76839],[-15.57878,27.77116],[-15.57902,27.77173],[-15.57802,27.77151],[-15.57741,27.77078],[-15.5772,27.76936],[-15.57688,27.76894],[-15.57646,27.76853],[-15.57452,27.76754],[-15.57354,27.76638],[-15.56998,27.76626],[-15.56998,27.76576],[-15.56521,27.76558],[-15.56155,27.76571],[-15.56155,27.76536]]]}},{"type":"Feature","properties":{"id":"3501904001"},"geometry":{"type":"Polygon","coordinates":[[[-15.60609,27.77693],[-15.60552,27.77638],[-15.605,27.77546],[-15.60428,27.77464],[-15.60223,27.77295],[-15.60397,27.772],[-15.60511,27.77161],[-15.60619,27.77143],[-15.6073,27.77112],[-15.6077,27.77112],[-15.60786,27.77354],[-15.60626,27.7742],[-15.60789,27.77506],[-15.60787,27.77518],[-15.60729,27.77616],[-15.60699,27.77694],[-15.6066,27.77714],[-15.60609,27.77693]]]}},{"type":"Feature","properties":{"id":"3501904002"},"geometry":{"type":"Polygon","coordinates":[[[-15.59767,27.76902],[-15.60201,27.76584],[-15.60242,27.76649],[-15.60331,27.76621],[-15.60476,27.77176],[-15.60397,27.772],[-15.60223,27.77295],[-15.60203,27.7726],[-15.60151,27.77203],[-15.59879,27.77014],[-15.59767,27.76902]]]}},{"type":"Feature","properties":{"id":"3501904003"},"geometry":{"type":"Polygon","coordinates":[[[-15.64808,27.866],[-15.65045,27.86296],[-15.65093,27.86208],[-15.65158,27.8601],[-15.65238,27.85616],[-15.65315,27.85419],[-15.65366,27.85144],[-15.65387,27.85081],[-15.65421,27.85034],[-15.65521,27.84971],[-15.65542,27.84945],[-15.65551,27.84905],[-15.65545,27.84865],[-15.65369,27.84518],[-15.65332,27.84407],[-15.653,27.84251],[-15.65226,27.84013],[-15.6521,27.83715],[-15.65282,27.83644],[-15.65308,27.83601],[-15.65247,27.83521],[-15.6521,27.83373],[-15.65226,27.83356],[-15.65248,27.83221],[-15.65283,27.83155],[-15.65312,27.83044],[-15.65353,27.82977],[-15.65262,27.82908],[-15.65247,27.82846],[-15.65239,27.82754],[-15.65217,27.82715],[-15.65194,27.82709],[-15.65111,27.8272],[-15.65135,27.82633],[-15.6522,27.82587],[-15.65236,27.82569],[-15.6524,27.82541],[-15.65236,27.82514],[-15.65186,27.82447],[-15.65168,27.8238],[-15.65142,27.82345],[-15.65138,27.82307],[-15.65083,27.82313],[-15.65108,27.82276],[-15.65108,27.82222],[-15.6513,27.8219],[-15.65084,27.82207],[-15.65058,27.82189],[-15.65048,27.82146],[-15.65044,27.82039],[-15.65032,27.81996],[-15.64999,27.81965],[-15.6493,27.81941],[-15.64891,27.81963],[-15.64833,27.82058],[-15.64818,27.82181],[-15.64798,27.82188],[-15.6474,27.82184],[-15.64708,27.82195],[-15.6465,27.82297],[-15.6464,27.82288],[-15.6463,27.82186],[-15.64617,27.82169],[-15.64471,27.82103],[-15.6445,27.82107],[-15.64392,27.82147],[-15.64375,27.82142],[-15.64428,27.82071],[-15.64426,27.81996],[-15.64394,27.81952],[-15.6439,27.8193],[-15.64398,27.81884],[-15.64411,27.81889],[-15.64414,27.81914],[-15.64426,27.81929],[-15.64455,27.8194],[-15.64516,27.81935],[-15.64543,27.81909],[-15.64541,27.81884],[-15.64496,27.81779],[-15.64454,27.81727],[-15.64414,27.8171],[-15.64417,27.81656],[-15.64453,27.81535],[-15.645,27.81495],[-15.64506,27.81451],[-15.64547,27.81427],[-15.64636,27.81397],[-15.64762,27.81315],[-15.64787,27.81274],[-15.64792,27.81146],[-15.64845,27.80916],[-15.64825,27.80804],[-15.64845,27.80711],[-15.64838,27.80625],[-15.64848,27.80424],[-15.64834,27.8032],[-15.64874,27.8022],[-15.6485,27.80102],[-15.64812,27.80026],[-15.64748,27.79936],[-15.64662,27.79865],[-15.64582,27.79829],[-15.64555,27.79802],[-15.64563,27.79667],[-15.64539,27.79676],[-15.64501,27.79756],[-15.64491,27.79852],[-15.64479,27.79864],[-15.64445,27.7985],[-15.64424,27.7979],[-15.64332,27.79692],[-15.64336,27.79666],[-15.6437,27.7963],[-15.64381,27.79573],[-15.64382,27.79491],[-15.64365,27.79451],[-15.64368,27.79375],[-15.64407,27.79283],[-15.64399,27.79235],[-15.6435,27.79177],[-15.64327,27.79112],[-15.6426,27.78996],[-15.64268,27.78964],[-15.65367,27.78993],[-15.65302,27.784],[-15.65127,27.7807],[-15.64686,27.7796],[-15.64252,27.77687],[-15.63617,27.77216],[-15.63466,27.77028],[-15.63329,27.76885],[-15.632,27.76771],[-15.63626,27.76581],[-15.63542,27.76408],[-15.63552,27.7606],[-15.63284,27.75795],[-15.63217,27.75699],[-15.6318,27.75453],[-15.63567,27.75414],[-15.6363,27.75389],[-15.63672,27.75369],[-15.63731,27.75324],[-15.63764,27.75318],[-15.63986,27.75085],[-15.64056,27.75057],[-15.64061,27.75045],[-15.6409,27.75036],[-15.6411,27.75016],[-15.64137,27.75013],[-15.64142,27.75021],[-15.64148,27.75015],[-15.64173,27.7502],[-15.64199,27.75047],[-15.64209,27.75074],[-15.64232,27.75092],[-15.64338,27.75124],[-15.6437,27.75121],[-15.64404,27.75086],[-15.64451,27.75112],[-15.64713,27.75125],[-15.64775,27.75169],[-15.64784,27.75205],[-15.64837,27.75225],[-15.64904,27.7528],[-15.64918,27.7528],[-15.6494,27.75322],[-15.64982,27.75368],[-15.65192,27.75478],[-15.65209,27.75479],[-15.65231,27.75457],[-15.6526,27.75488],[-15.65264,27.75504],[-15.65286,27.75517],[-15.65563,27.75566],[-15.6562,27.75598],[-15.65745,27.75636],[-15.65783,27.75636],[-15.65802,27.75644],[-15.65846,27.75633],[-15.65873,27.75659],[-15.66013,27.75676],[-15.66136,27.7568],[-15.66172,27.75666],[-15.66183,27.7562],[-15.6621,27.75628],[-15.66236,27.75604],[-15.66304,27.756],[-15.66375,27.75553],[-15.66406,27.75548],[-15.66439,27.75566],[-15.66535,27.75571],[-15.6655,27.75562],[-15.66553,27.75533],[-15.66572,27.75509],[-15.66608,27.75529],[-15.66631,27.75512],[-15.66688,27.75534],[-15.66797,27.75528],[-15.66887,27.75497],[-15.66893,27.75476],[-15.66972,27.75469],[-15.67012,27.7545],[-15.67053,27.75417],[-15.671,27.75345],[-15.67131,27.75262],[-15.67193,27.75225],[-15.67211,27.75197],[-15.6713,27.75067],[-15.67128,27.75017],[-15.67202,27.75025],[-15.67226,27.75041],[-15.67247,27.75021],[-15.67284,27.75008],[-15.67298,27.74964],[-15.66903,27.74862],[-15.66903,27.74836],[-15.66888,27.74816],[-15.66909,27.7481],[-15.67249,27.74885],[-15.67412,27.74901],[-15.67444,27.74926],[-15.6746,27.74921],[-15.67458,27.74949],[-15.6747,27.74952],[-15.67472,27.7499],[-15.67502,27.75011],[-15.675,27.75121],[-15.6752,27.75156],[-15.67597,27.75231],[-15.67715,27.75414],[-15.67792,27.7544],[-15.6782,27.75485],[-15.67904,27.75557],[-15.67914,27.75585],[-15.67819,27.75682],[-15.67664,27.75696],[-15.67561,27.75743],[-15.67464,27.75819],[-15.67358,27.7597],[-15.6713,27.76124],[-15.6707,27.76204],[-15.67011,27.76356],[-15.66978,27.76523],[-15.66958,27.7672],[-15.66941,27.76774],[-15.66894,27.76812],[-15.66772,27.76859],[-15.66745,27.7688],[-15.66718,27.76914],[-15.66665,27.77102],[-15.66645,27.77181],[-15.66642,27.77293],[-15.66701,27.77482],[-15.66711,27.77551],[-15.6666,27.77769],[-15.66673,27.77862],[-15.66712,27.77919],[-15.66754,27.77957],[-15.6681,27.77992],[-15.66969,27.78003],[-15.67056,27.78033],[-15.67089,27.78075],[-15.67098,27.78133],[-15.67092,27.7818],[-15.67056,27.78254],[-15.67027,27.78352],[-15.66992,27.78419],[-15.66839,27.78527],[-15.6677,27.78555],[-15.66747,27.78573],[-15.66735,27.7859],[-15.66728,27.78634],[-15.66744,27.78674],[-15.6683,27.78786],[-15.66888,27.78836],[-15.66956,27.78857],[-15.67075,27.79012],[-15.67114,27.7908],[-15.6716,27.79205],[-15.67177,27.79319],[-15.67171,27.79358],[-15.67133,27.79456],[-15.67037,27.79669],[-15.66957,27.79881],[-15.66877,27.80047],[-15.66868,27.80117],[-15.66882,27.80153],[-15.66937,27.80224],[-15.66971,27.80335],[-15.66952,27.80462],[-15.66929,27.80526],[-15.66874,27.80602],[-15.66836,27.80627],[-15.66776,27.80699],[-15.66715,27.80807],[-15.66686,27.80981],[-15.66662,27.81048],[-15.66604,27.8114],[-15.66513,27.81209],[-15.66453,27.81222],[-15.66396,27.81247],[-15.66347,27.81295],[-15.66325,27.81343],[-15.66312,27.81579],[-15.66282,27.81809],[-15.66312,27.81977],[-15.66399,27.82095],[-15.66479,27.8218],[-15.66549,27.82224],[-15.66622,27.8233],[-15.66623,27.82382],[-15.66587,27.82416],[-15.66513,27.82446],[-15.66464,27.82479],[-15.66365,27.82505],[-15.66252,27.82553],[-15.66175,27.82626],[-15.66157,27.82693],[-15.66162,27.82724],[-15.66206,27.82823],[-15.66204,27.82867],[-15.66233,27.82939],[-15.66237,27.82984],[-15.66209,27.83011],[-15.66176,27.83029],[-15.66085,27.82998],[-15.6606,27.83014],[-15.6603,27.83061],[-15.65995,27.83118],[-15.65981,27.83183],[-15.65958,27.83233],[-15.6593,27.83254],[-15.65922,27.8329],[-15.65886,27.83341],[-15.65887,27.83396],[-15.6586,27.83573],[-15.65865,27.83634],[-15.65877,27.83654],[-15.65904,27.83791],[-15.65948,27.83899],[-15.65991,27.83917],[-15.66028,27.83917],[-15.66078,27.83987],[-15.66093,27.84036],[-15.66094,27.84067],[-15.65964,27.84434],[-15.65954,27.84536],[-15.6597,27.84713],[-15.66017,27.84836],[-15.662,27.85125],[-15.6624,27.85295],[-15.66234,27.85348],[-15.66207,27.85414],[-15.66093,27.85641],[-15.66089,27.85705],[-15.66107,27.85914],[-15.66164,27.86058],[-15.66217,27.86141],[-15.66305,27.86231],[-15.66606,27.86481],[-15.66675,27.86507],[-15.66704,27.86529],[-15.66741,27.86567],[-15.66825,27.86698],[-15.66977,27.86729],[-15.67058,27.86775],[-15.67072,27.86796],[-15.67042,27.86995],[-15.6706,27.87042],[-15.67125,27.87136],[-15.67137,27.87191],[-15.67117,27.87284],[-15.67048,27.87435],[-15.67045,27.8746],[-15.67109,27.87648],[-15.67112,27.87708],[-15.67095,27.87786],[-15.67074,27.87822],[-15.67058,27.87939],[-15.67006,27.88068],[-15.66904,27.88253],[-15.6693,27.88362],[-15.67007,27.88396],[-15.67023,27.88416],[-15.67001,27.88514],[-15.67004,27.88627],[-15.67032,27.88665],[-15.671,27.88715],[-15.67103,27.88736],[-15.67079,27.88784],[-15.66987,27.88841],[-15.66959,27.88883],[-15.66969,27.88996],[-15.66965,27.89157],[-15.66943,27.89224],[-15.66919,27.89239],[-15.66913,27.89287],[-15.66927,27.89343],[-15.66751,27.89391],[-15.66669,27.89402],[-15.662,27.89433],[-15.65839,27.89431],[-15.6557,27.89452],[-15.65478,27.89516],[-15.65476,27.8953],[-15.65451,27.89549],[-15.65442,27.89572],[-15.65397,27.89625],[-15.65385,27.89665],[-15.65357,27.89685],[-15.65318,27.89739],[-15.6527,27.89773],[-15.6528,27.89809],[-15.65244,27.89831],[-15.65213,27.89829],[-15.6514,27.89796],[-15.65111,27.89837],[-15.65095,27.89823],[-15.65048,27.89818],[-15.65023,27.89841],[-15.64942,27.89833],[-15.64781,27.89863],[-15.6472,27.89847],[-15.64654,27.89872],[-15.64632,27.899],[-15.64603,27.89981],[-15.64549,27.90008],[-15.64499,27.90063],[-15.64462,27.90157],[-15.64433,27.90169],[-15.64421,27.90241],[-15.64341,27.90318],[-15.64318,27.90354],[-15.64304,27.90353],[-15.64241,27.90339],[-15.64182,27.90291],[-15.64048,27.90308],[-15.64004,27.90292],[-15.64055,27.90255],[-15.64061,27.90207],[-15.64075,27.9019],[-15.642,27.90113],[-15.64197,27.90075],[-15.64216,27.90061],[-15.64219,27.90045],[-15.6419,27.89973],[-15.64192,27.89921],[-15.64181,27.89891],[-15.64192,27.89881],[-15.64238,27.89866],[-15.64253,27.89824],[-15.64254,27.89786],[-15.64288,27.89751],[-15.64296,27.8973],[-15.64291,27.89712],[-15.64238,27.89689],[-15.64251,27.89646],[-15.64219,27.89614],[-15.64273,27.89586],[-15.64282,27.89551],[-15.64278,27.89481],[-15.64297,27.89463],[-15.64328,27.89459],[-15.64335,27.89437],[-15.64347,27.89433],[-15.64433,27.89459],[-15.64452,27.89474],[-15.64511,27.89486],[-15.6453,27.89504],[-15.64543,27.89503],[-15.64584,27.89462],[-15.64664,27.89331],[-15.64674,27.89156],[-15.64656,27.89079],[-15.6467,27.89053],[-15.64722,27.89021],[-15.64737,27.88993],[-15.64715,27.88967],[-15.64652,27.88927],[-15.64623,27.88923],[-15.64583,27.8894],[-15.64565,27.88935],[-15.64524,27.88846],[-15.64462,27.8877],[-15.64474,27.88757],[-15.6453,27.88735],[-15.64577,27.88694],[-15.64589,27.88631],[-15.6454,27.88609],[-15.64528,27.88572],[-15.64554,27.88534],[-15.64633,27.88478],[-15.64645,27.88448],[-15.64606,27.88349],[-15.64596,27.88217],[-15.64563,27.88202],[-15.64565,27.88148],[-15.64538,27.88108],[-15.64579,27.8806],[-15.64583,27.88033],[-15.64601,27.88036],[-15.64574,27.88091],[-15.64592,27.88113],[-15.64603,27.88169],[-15.64657,27.88204],[-15.64672,27.88236],[-15.64665,27.88258],[-15.64683,27.88271],[-15.64707,27.88341],[-15.64817,27.88413],[-15.64818,27.88518],[-15.64805,27.88547],[-15.64771,27.88571],[-15.64785,27.88617],[-15.64765,27.88713],[-15.64798,27.88711],[-15.64838,27.8869],[-15.64908,27.88685],[-15.64945,27.88648],[-15.64976,27.88657],[-15.65024,27.88688],[-15.65051,27.88692],[-15.65105,27.88667],[-15.65155,27.88619],[-15.65149,27.88606],[-15.65134,27.88608],[-15.65109,27.88647],[-15.65048,27.88659],[-15.64988,27.88622],[-15.64949,27.88625],[-15.64903,27.88642],[-15.64878,27.88634],[-15.64876,27.88618],[-15.64912,27.88555],[-15.64912,27.8849],[-15.64899,27.88467],[-15.64895,27.88385],[-15.64854,27.88316],[-15.64867,27.88265],[-15.64857,27.88257],[-15.64827,27.88259],[-15.64813,27.88245],[-15.64818,27.88216],[-15.6484,27.88181],[-15.64808,27.88133],[-15.64815,27.88123],[-15.64854,27.88112],[-15.64896,27.88074],[-15.64931,27.88022],[-15.64935,27.87985],[-15.64921,27.87966],[-15.64896,27.87958],[-15.64786,27.87952],[-15.64758,27.87905],[-15.64694,27.87897],[-15.64656,27.87903],[-15.64643,27.87892],[-15.64644,27.87877],[-15.64686,27.87814],[-15.64681,27.87771],[-15.64708,27.87763],[-15.64734,27.87714],[-15.6472,27.87635],[-15.64802,27.87574],[-15.64853,27.87557],[-15.64888,27.87491],[-15.64931,27.87473],[-15.64942,27.87433],[-15.64969,27.87403],[-15.64995,27.87309],[-15.64992,27.87297],[-15.64972,27.87287],[-15.64867,27.87329],[-15.64808,27.87322],[-15.64795,27.87312],[-15.64805,27.87165],[-15.64824,27.87095],[-15.64769,27.87031],[-15.64755,27.86991],[-15.64779,27.86967],[-15.6479,27.86927],[-15.64867,27.86915],[-15.64927,27.8685],[-15.64919,27.8674],[-15.64905,27.86722],[-15.64855,27.86701],[-15.64825,27.86676],[-15.64812,27.86654],[-15.64808,27.866]]]}},{"type":"Feature","properties":{"id":"3501904004"},"geometry":{"type":"Polygon","coordinates":[[[-15.59531,27.85604],[-15.59509,27.85476],[-15.5957,27.85339],[-15.5958,27.85252],[-15.59602,27.85219],[-15.59601,27.85185],[-15.59634,27.85092],[-15.59632,27.85058],[-15.59683,27.85019],[-15.59718,27.84946],[-15.59747,27.84938],[-15.59769,27.84911],[-15.59788,27.84822],[-15.59802,27.84806],[-15.59802,27.84754],[-15.59789,27.84713],[-15.59812,27.84692],[-15.59809,27.84653],[-15.5987,27.84465],[-15.59851,27.84412],[-15.59852,27.84344],[-15.5981,27.84312],[-15.598,27.84262],[-15.59766,27.84179],[-15.59768,27.84117],[-15.59736,27.84054],[-15.59698,27.83995],[-15.59632,27.83961],[-15.59594,27.83919],[-15.59586,27.83885],[-15.59529,27.83821],[-15.59515,27.83785],[-15.59539,27.83768],[-15.59562,27.83682],[-15.59601,27.8362],[-15.59619,27.83518],[-15.59666,27.83469],[-15.59683,27.83382],[-15.5976,27.8329],[-15.59762,27.83254],[-15.59724,27.83172],[-15.59723,27.83149],[-15.59733,27.83128],[-15.59771,27.83096],[-15.59809,27.8299],[-15.59819,27.82828],[-15.59836,27.82808],[-15.59899,27.82777],[-15.59917,27.82718],[-15.5991,27.82626],[-15.59981,27.8256],[-15.59966,27.82506],[-15.59995,27.82465],[-15.60005,27.8242],[-15.60031,27.82372],[-15.60014,27.82321],[-15.60056,27.82237],[-15.59965,27.82099],[-15.59917,27.8188],[-15.59919,27.81841],[-15.59976,27.81676],[-15.59961,27.81567],[-15.60008,27.81452],[-15.60011,27.81415],[-15.59992,27.81381],[-15.59932,27.8133],[-15.59918,27.81309],[-15.59933,27.81243],[-15.59911,27.81145],[-15.59843,27.81091],[-15.59792,27.81064],[-15.59763,27.81016],[-15.59776,27.8089],[-15.59753,27.80804],[-15.5976,27.80781],[-15.59811,27.80734],[-15.5981,27.80697],[-15.5979,27.80674],[-15.59751,27.80654],[-15.59729,27.80628],[-15.59644,27.80376],[-15.59619,27.80358],[-15.59529,27.8034],[-15.595,27.80317],[-15.59489,27.80265],[-15.59506,27.80222],[-15.59505,27.80178],[-15.59491,27.80151],[-15.59421,27.80086],[-15.59359,27.79851],[-15.5931,27.79824],[-15.59282,27.79826],[-15.59238,27.79847],[-15.59222,27.79847],[-15.59186,27.79819],[-15.59171,27.79802],[-15.59171,27.79774],[-15.5921,27.79724],[-15.59218,27.79665],[-15.59219,27.79636],[-15.59205,27.79602],[-15.59177,27.79577],[-15.59105,27.79561],[-15.59078,27.79546],[-15.58997,27.79449],[-15.58882,27.79371],[-15.58834,27.79306],[-15.58767,27.79185],[-15.58645,27.79039],[-15.58641,27.79013],[-15.58673,27.78955],[-15.58676,27.78898],[-15.587,27.78803],[-15.5869,27.78772],[-15.58619,27.78669],[-15.58607,27.78632],[-15.58606,27.78553],[-15.58637,27.78465],[-15.5861,27.78365],[-15.58635,27.78266],[-15.58692,27.78156],[-15.58689,27.78],[-15.58639,27.77978],[-15.58633,27.77952],[-15.58703,27.77818],[-15.5871,27.77709],[-15.58815,27.77606],[-15.58974,27.77378],[-15.59148,27.77224],[-15.59296,27.77137],[-15.59314,27.77109],[-15.59317,27.7708],[-15.59539,27.77012],[-15.59767,27.76902],[-15.59879,27.77014],[-15.60151,27.77203],[-15.60203,27.7726],[-15.60223,27.77295],[-15.60428,27.77464],[-15.605,27.77546],[-15.60536,27.77615],[-15.60609,27.77693],[-15.60655,27.77775],[-15.6076,27.77907],[-15.60862,27.77967],[-15.61062,27.77991],[-15.61372,27.78062],[-15.61426,27.78096],[-15.61466,27.78154],[-15.61563,27.78174],[-15.61676,27.78266],[-15.61823,27.78301],[-15.6188,27.78324],[-15.61918,27.78358],[-15.62018,27.78503],[-15.62142,27.78575],[-15.62212,27.78677],[-15.62321,27.78749],[-15.62416,27.78874],[-15.62558,27.79219],[-15.62509,27.79391],[-15.62437,27.7959],[-15.62379,27.79713],[-15.62307,27.79812],[-15.6227,27.79885],[-15.62259,27.79944],[-15.62262,27.80023],[-15.62291,27.80092],[-15.62446,27.80249],[-15.62522,27.80347],[-15.62542,27.80392],[-15.62535,27.80487],[-15.62493,27.80655],[-15.62484,27.80821],[-15.62521,27.80958],[-15.62612,27.81142],[-15.62616,27.81363],[-15.62647,27.81487],[-15.62695,27.81554],[-15.62951,27.81777],[-15.6303,27.81861],[-15.63113,27.81973],[-15.63154,27.82078],[-15.63156,27.82129],[-15.63145,27.82186],[-15.63035,27.82633],[-15.62978,27.83004],[-15.62964,27.83213],[-15.63006,27.83289],[-15.63104,27.83377],[-15.63188,27.8347],[-15.6319,27.83536],[-15.63209,27.83584],[-15.63157,27.83615],[-15.63122,27.8366],[-15.63129,27.83706],[-15.63184,27.83769],[-15.63195,27.83801],[-15.63166,27.8384],[-15.63108,27.83865],[-15.63095,27.83896],[-15.63104,27.8392],[-15.63127,27.83943],[-15.63114,27.84037],[-15.63144,27.8406],[-15.63159,27.84098],[-15.63152,27.84127],[-15.63184,27.84143],[-15.63248,27.84152],[-15.63264,27.84175],[-15.63244,27.8426],[-15.63265,27.84305],[-15.63264,27.84323],[-15.63221,27.84371],[-15.63224,27.84392],[-15.63256,27.84421],[-15.63263,27.84441],[-15.63247,27.84509],[-15.63193,27.84564],[-15.63172,27.84618],[-15.63115,27.84632],[-15.6311,27.84704],[-15.63066,27.84727],[-15.63057,27.84753],[-15.63079,27.84789],[-15.63116,27.84792],[-15.63131,27.84817],[-15.63129,27.84858],[-15.63104,27.84886],[-15.63097,27.84909],[-15.63129,27.85002],[-15.63161,27.85044],[-15.63224,27.85091],[-15.63238,27.85124],[-15.63227,27.85154],[-15.63242,27.85194],[-15.63226,27.85222],[-15.63243,27.85268],[-15.632,27.85325],[-15.63211,27.85356],[-15.63198,27.85376],[-15.63212,27.85406],[-15.63199,27.85424],[-15.6322,27.85473],[-15.63268,27.8552],[-15.63279,27.85565],[-15.6327,27.85585],[-15.6324,27.85604],[-15.63249,27.8565],[-15.63233,27.85684],[-15.63151,27.85762],[-15.62982,27.85799],[-15.62892,27.85845],[-15.62822,27.85853],[-15.62747,27.85937],[-15.6273,27.85987],[-15.62702,27.86019],[-15.62703,27.86093],[-15.62657,27.86164],[-15.62656,27.86199],[-15.62639,27.86234],[-15.62433,27.86297],[-15.62221,27.8642],[-15.62137,27.86502],[-15.62119,27.86589],[-15.6207,27.86652],[-15.61897,27.86714],[-15.61755,27.86806],[-15.61716,27.8688],[-15.61692,27.86967],[-15.61659,27.87003],[-15.6146,27.87093],[-15.61402,27.87109],[-15.61286,27.87082],[-15.61119,27.87069],[-15.60996,27.87135],[-15.60875,27.87107],[-15.60834,27.87106],[-15.60792,27.8717],[-15.60789,27.87197],[-15.6081,27.87218],[-15.60854,27.87239],[-15.60857,27.87256],[-15.60846,27.87277],[-15.60789,27.87325],[-15.60832,27.87407],[-15.60787,27.87493],[-15.60783,27.87535],[-15.60815,27.87549],[-15.60912,27.87631],[-15.60943,27.87625],[-15.60983,27.87629],[-15.61017,27.87654],[-15.61046,27.87656],[-15.61119,27.8768],[-15.61274,27.8785],[-15.61388,27.87909],[-15.61431,27.87945],[-15.61489,27.88017],[-15.61527,27.88074],[-15.61649,27.88443],[-15.61815,27.88666],[-15.61849,27.88736],[-15.6186,27.8879],[-15.61857,27.88835],[-15.6183,27.88928],[-15.61747,27.89052],[-15.61675,27.89127],[-15.61613,27.89176],[-15.61483,27.89248],[-15.61172,27.89395],[-15.61119,27.89411],[-15.60942,27.89436],[-15.60824,27.89434],[-15.60799,27.89446],[-15.60752,27.8949],[-15.60715,27.8949],[-15.60667,27.89504],[-15.60588,27.89561],[-15.60544,27.8956],[-15.60533,27.89573],[-15.60481,27.89586],[-15.60414,27.8963],[-15.60389,27.89638],[-15.60351,27.89626],[-15.60328,27.89631],[-15.60308,27.89649],[-15.60262,27.89645],[-15.60248,27.89627],[-15.60263,27.89551],[-15.60257,27.89543],[-15.60234,27.89539],[-15.60208,27.89569],[-15.60188,27.8957],[-15.60128,27.8953],[-15.60079,27.89528],[-15.60031,27.89515],[-15.60003,27.89518],[-15.59978,27.89477],[-15.59944,27.89485],[-15.59896,27.89521],[-15.59866,27.89528],[-15.59856,27.89541],[-15.59818,27.89557],[-15.59694,27.89559],[-15.59643,27.89469],[-15.59594,27.89432],[-15.59517,27.89326],[-15.59426,27.89297],[-15.59376,27.8927],[-15.59314,27.89212],[-15.5922,27.89106],[-15.59152,27.88974],[-15.59161,27.88925],[-15.59149,27.88895],[-15.59149,27.88829],[-15.5913,27.88793],[-15.59128,27.88751],[-15.59113,27.88726],[-15.59074,27.88703],[-15.59061,27.88675],[-15.59064,27.88644],[-15.59046,27.88615],[-15.59069,27.88531],[-15.59018,27.88483],[-15.5897,27.88476],[-15.58961,27.88467],[-15.58954,27.88439],[-15.58965,27.88403],[-15.58881,27.88242],[-15.58866,27.88191],[-15.58874,27.88121],[-15.58808,27.88038],[-15.58786,27.87992],[-15.5873,27.8797],[-15.58703,27.87934],[-15.58736,27.87863],[-15.58735,27.87818],[-15.5871,27.87744],[-15.5875,27.8768],[-15.58743,27.87643],[-15.58758,27.87612],[-15.58752,27.87579],[-15.58781,27.8753],[-15.58776,27.87514],[-15.58746,27.87497],[-15.58732,27.87471],[-15.5875,27.8745],[-15.5877,27.87408],[-15.58766,27.87391],[-15.58787,27.87361],[-15.58779,27.87283],[-15.58837,27.87187],[-15.58837,27.87105],[-15.58949,27.86966],[-15.58977,27.86912],[-15.59076,27.86829],[-15.59085,27.86795],[-15.59131,27.86706],[-15.59126,27.86641],[-15.59158,27.86565],[-15.59162,27.8652],[-15.59243,27.86426],[-15.59246,27.86402],[-15.59232,27.86374],[-15.59233,27.86352],[-15.59263,27.86334],[-15.59293,27.86292],[-15.59332,27.86275],[-15.59347,27.86247],[-15.59347,27.86215],[-15.59427,27.86171],[-15.59442,27.86143],[-15.59438,27.8612],[-15.59468,27.861],[-15.59512,27.86028],[-15.59535,27.85953],[-15.59578,27.85884],[-15.59584,27.85845],[-15.59581,27.85819],[-15.59553,27.85776],[-15.59578,27.8574],[-15.59578,27.85723],[-15.59532,27.85663],[-15.59531,27.85604]]]}},{"type":"Feature","properties":{"id":"3501904005"},"geometry":{"type":"Polygon","coordinates":[[[-15.62639,27.86234],[-15.62656,27.86199],[-15.62657,27.86164],[-15.62703,27.86093],[-15.627,27.86024],[-15.6273,27.85987],[-15.62747,27.85937],[-15.62794,27.8588],[-15.62829,27.85849],[-15.62892,27.85845],[-15.62982,27.85799],[-15.63158,27.85758],[-15.63239,27.85676],[-15.63249,27.8565],[-15.6324,27.85604],[-15.63279,27.85572],[-15.63268,27.8552],[-15.6322,27.85473],[-15.63199,27.85424],[-15.63212,27.85406],[-15.63198,27.85376],[-15.63211,27.85356],[-15.632,27.85325],[-15.63243,27.85268],[-15.63226,27.85222],[-15.63242,27.85194],[-15.63227,27.85154],[-15.63239,27.8513],[-15.63235,27.85109],[-15.6321,27.85078],[-15.63161,27.85044],[-15.63129,27.85002],[-15.63097,27.84909],[-15.63104,27.84886],[-15.63129,27.84858],[-15.63131,27.84817],[-15.63116,27.84792],[-15.63079,27.84789],[-15.63057,27.84753],[-15.63066,27.84727],[-15.6311,27.84704],[-15.63115,27.84632],[-15.63172,27.84618],[-15.63193,27.84564],[-15.63239,27.84521],[-15.63263,27.84446],[-15.63259,27.84426],[-15.63224,27.84392],[-15.6322,27.84377],[-15.63225,27.8436],[-15.63264,27.84323],[-15.63265,27.84305],[-15.63244,27.8426],[-15.63264,27.8417],[-15.63248,27.84152],[-15.63184,27.84143],[-15.63152,27.84127],[-15.63159,27.84098],[-15.63144,27.8406],[-15.63114,27.84037],[-15.63127,27.83943],[-15.63104,27.8392],[-15.63095,27.83896],[-15.63108,27.83865],[-15.63166,27.8384],[-15.63194,27.83805],[-15.63184,27.83769],[-15.63127,27.83702],[-15.63122,27.8366],[-15.63157,27.83615],[-15.632,27.83593],[-15.6321,27.83577],[-15.63191,27.83539],[-15.63191,27.83482],[-15.6318,27.83454],[-15.63006,27.83289],[-15.62964,27.83206],[-15.62978,27.83004],[-15.63035,27.82633],[-15.63145,27.82186],[-15.63156,27.82129],[-15.63154,27.82078],[-15.63113,27.81973],[-15.6303,27.81861],[-15.62951,27.81777],[-15.62695,27.81554],[-15.62647,27.81487],[-15.62616,27.81363],[-15.62612,27.81142],[-15.62521,27.80958],[-15.62484,27.80821],[-15.62493,27.80655],[-15.62535,27.80487],[-15.62542,27.80392],[-15.62522,27.80347],[-15.62446,27.80249],[-15.62307,27.80113],[-15.62266,27.80043],[-15.62259,27.79944],[-15.6227,27.79885],[-15.62307,27.79812],[-15.62379,27.79713],[-15.62437,27.7959],[-15.62509,27.79391],[-15.62558,27.79219],[-15.62416,27.78874],[-15.62321,27.78749],[-15.62212,27.78677],[-15.62142,27.78575],[-15.62018,27.78503],[-15.61918,27.78358],[-15.6188,27.78324],[-15.61823,27.78301],[-15.61676,27.78266],[-15.61563,27.78174],[-15.61466,27.78154],[-15.61426,27.78096],[-15.61372,27.78062],[-15.61062,27.77991],[-15.609,27.77976],[-15.60823,27.77948],[-15.6076,27.77907],[-15.60724,27.77867],[-15.60655,27.77775],[-15.60609,27.77693],[-15.6066,27.77714],[-15.60699,27.77694],[-15.60729,27.77616],[-15.60776,27.77546],[-15.60789,27.77506],[-15.60626,27.7742],[-15.60786,27.77354],[-15.60779,27.77257],[-15.60987,27.77251],[-15.60968,27.76957],[-15.61004,27.76955],[-15.60926,27.76806],[-15.60925,27.76692],[-15.6084,27.76503],[-15.60871,27.76437],[-15.60823,27.76375],[-15.60711,27.76281],[-15.60641,27.76189],[-15.60283,27.76479],[-15.60304,27.76393],[-15.60285,27.76367],[-15.60339,27.76002],[-15.60515,27.76013],[-15.60556,27.76007],[-15.60623,27.75898],[-15.60471,27.75851],[-15.60477,27.75802],[-15.60517,27.75804],[-15.60636,27.75833],[-15.60703,27.75679],[-15.60806,27.75775],[-15.60896,27.75789],[-15.61009,27.75791],[-15.61139,27.75867],[-15.6138,27.75737],[-15.61537,27.75671],[-15.61767,27.75625],[-15.61901,27.75614],[-15.61937,27.7566],[-15.62129,27.75801],[-15.62429,27.76149],[-15.62525,27.76249],[-15.63089,27.76681],[-15.63329,27.76885],[-15.63466,27.77028],[-15.63617,27.77216],[-15.64252,27.77687],[-15.64686,27.7796],[-15.65127,27.7807],[-15.65302,27.784],[-15.65367,27.78993],[-15.64268,27.78964],[-15.64263,27.78978],[-15.64264,27.79008],[-15.64303,27.79063],[-15.64345,27.79169],[-15.64373,27.79213],[-15.64399,27.79235],[-15.64407,27.79283],[-15.64368,27.79375],[-15.64365,27.79451],[-15.64382,27.79491],[-15.64381,27.79573],[-15.6437,27.7963],[-15.64336,27.79666],[-15.64332,27.79692],[-15.64424,27.7979],[-15.64445,27.7985],[-15.64479,27.79864],[-15.64491,27.79852],[-15.64501,27.79756],[-15.64539,27.79676],[-15.64563,27.79667],[-15.64555,27.79802],[-15.64582,27.79829],[-15.64662,27.79865],[-15.64748,27.79936],[-15.64812,27.80026],[-15.6485,27.80102],[-15.64874,27.8022],[-15.64834,27.8032],[-15.64848,27.80424],[-15.64838,27.80625],[-15.64845,27.80711],[-15.64825,27.80804],[-15.64845,27.80916],[-15.64792,27.81146],[-15.64787,27.81274],[-15.64762,27.81315],[-15.64636,27.81397],[-15.64547,27.81427],[-15.64506,27.81451],[-15.645,27.81495],[-15.64453,27.81535],[-15.64417,27.81656],[-15.64414,27.8171],[-15.64454,27.81727],[-15.64496,27.81779],[-15.64541,27.81884],[-15.64543,27.81909],[-15.64516,27.81935],[-15.64455,27.8194],[-15.64426,27.81929],[-15.64414,27.81914],[-15.64411,27.81889],[-15.64398,27.81884],[-15.6439,27.8193],[-15.64394,27.81952],[-15.64426,27.81996],[-15.64428,27.82071],[-15.64375,27.82142],[-15.64392,27.82147],[-15.6445,27.82107],[-15.64471,27.82103],[-15.64617,27.82169],[-15.6463,27.82186],[-15.6464,27.82288],[-15.6465,27.82297],[-15.64708,27.82195],[-15.6474,27.82184],[-15.64798,27.82188],[-15.64818,27.82181],[-15.64833,27.82058],[-15.64891,27.81963],[-15.6493,27.81941],[-15.64999,27.81965],[-15.65032,27.81996],[-15.65044,27.82039],[-15.65048,27.82146],[-15.65058,27.82189],[-15.65084,27.82207],[-15.6513,27.8219],[-15.65108,27.82222],[-15.65108,27.82276],[-15.65083,27.82313],[-15.65138,27.82307],[-15.65142,27.82345],[-15.65168,27.8238],[-15.65186,27.82447],[-15.65236,27.82514],[-15.6524,27.82541],[-15.65236,27.82569],[-15.6522,27.82587],[-15.65135,27.82633],[-15.65111,27.8272],[-15.65194,27.82709],[-15.65217,27.82715],[-15.65239,27.82754],[-15.65247,27.82846],[-15.65262,27.82908],[-15.65353,27.82977],[-15.65312,27.83044],[-15.65283,27.83155],[-15.65248,27.83221],[-15.65226,27.83356],[-15.6521,27.83373],[-15.65247,27.83521],[-15.65308,27.83601],[-15.65282,27.83644],[-15.6521,27.83715],[-15.65226,27.84013],[-15.653,27.84251],[-15.65332,27.84407],[-15.65369,27.84518],[-15.65545,27.84865],[-15.65551,27.84905],[-15.65542,27.84945],[-15.65521,27.84971],[-15.65421,27.85034],[-15.65387,27.85081],[-15.65366,27.85144],[-15.65315,27.85419],[-15.65238,27.85616],[-15.65158,27.8601],[-15.65093,27.86208],[-15.65045,27.86296],[-15.64808,27.866],[-15.64737,27.86605],[-15.64626,27.86586],[-15.64619,27.86536],[-15.6458,27.86531],[-15.64542,27.86494],[-15.64516,27.86444],[-15.6449,27.86334],[-15.64464,27.86196],[-15.64475,27.86141],[-15.64451,27.86062],[-15.64391,27.86115],[-15.64349,27.86169],[-15.64302,27.86184],[-15.64257,27.86225],[-15.64245,27.86248],[-15.64219,27.86255],[-15.64044,27.86241],[-15.6361,27.86159],[-15.63466,27.86144],[-15.63381,27.86145],[-15.62843,27.86194],[-15.62639,27.86234]]]}},{"type":"Feature","properties":{"id":"3501904006"},"geometry":{"type":"Polygon","coordinates":[[[-15.60779,27.77257],[-15.6077,27.77112],[-15.6073,27.77112],[-15.60619,27.77143],[-15.60511,27.77161],[-15.60476,27.77176],[-15.60296,27.76468],[-15.60641,27.76189],[-15.60711,27.76281],[-15.60823,27.76375],[-15.60871,27.76437],[-15.6084,27.76503],[-15.60925,27.76692],[-15.60926,27.76806],[-15.61004,27.76955],[-15.60968,27.76957],[-15.60987,27.77251],[-15.60779,27.77257]]]}}]}