{"type":"FeatureCollection","features":[{"type":"Feature","properties":{"id":"3502101001"},"geometry":{"type":"Polygon","coordinates":[[[-15.49383,28.03526],[-15.49284,28.03369],[-15.49275,28.03311],[-15.49285,28.03205],[-15.4933,28.03132],[-15.49356,28.03133],[-15.494,28.03163],[-15.49435,28.03164],[-15.49461,28.03155],[-15.49548,28.03055],[-15.49566,28.03062],[-15.49571,28.03115],[-15.49588,28.03143],[-15.49767,28.03271],[-15.49813,28.03295],[-15.49835,28.03297],[-15.49803,28.03337],[-15.49938,28.03421],[-15.49891,28.03469],[-15.4993,28.03498],[-15.49846,28.03599],[-15.49832,28.03599],[-15.49733,28.03711],[-15.49711,28.03819],[-15.49533,28.03823],[-15.49457,28.03812],[-15.4946,28.03784],[-15.4943,28.03763],[-15.49402,28.03718],[-15.49383,28.03526]]]}},{"type":"Feature","properties":{"id":"3502101002"},"geometry":{"type":"Polygon","coordinates":[[[-15.47662,28.05571],[-15.47798,28.05447],[-15.47857,28.0542],[-15.47932,28.054],[-15.47975,28.05367],[-15.48005,28.05329],[-15.4801,28.05277],[-15.4805,28.0525],[-15.48114,28.05178],[-15.48234,28.05091],[-15.48273,28.05043],[-15.48387,28.04943],[-15.48412,28.04926],[-15.48464,28.04918],[-15.48485,28.04903],[-15.48518,28.04862],[-15.48522,28.04818],[-15.48563,28.04767],[-15.48669,28.04666],[-15.48698,28.04659],[-15.48763,28.04664],[-15.48809,28.04648],[-15.48904,28.04636],[-15.48987,28.04672],[-15.49138,28.04672],[-15.49146,28.04662],[-15.49131,28.0462],[-15.49144,28.04531],[-15.4914,28.04482],[-15.49179,28.04428],[-15.49245,28.0442],[-15.49383,28.04459],[-15.49433,28.04448],[-15.49474,28.0443],[-15.4952,28.04395],[-15.49523,28.04372],[-15.4956,28.04311],[-15.49567,28.04242],[-15.49579,28.04231],[-15.49689,28.04186],[-15.49782,28.04208],[-15.49808,28.04207],[-15.49823,28.04122],[-15.49804,28.03911],[-15.49856,28.03865],[-15.49896,28.03873],[-15.49951,28.03914],[-15.5,28.03904],[-15.50023,28.03922],[-15.50045,28.03946],[-15.50089,28.04039],[-15.50085,28.0408],[-15.50121,28.04107],[-15.50149,28.04161],[-15.50184,28.04185],[-15.50224,28.04182],[-15.50265,28.042],[-15.50317,28.0444],[-15.50318,28.04517],[-15.50302,28.0454],[-15.50304,28.04599],[-15.50372,28.04769],[-15.50435,28.0486],[-15.50439,28.04889],[-15.50412,28.04908],[-15.50371,28.04914],[-15.50334,28.04931],[-15.50282,28.04932],[-15.50173,28.0498],[-15.49976,28.05029],[-15.49859,28.05121],[-15.49747,28.05173],[-15.49631,28.05279],[-15.49619,28.0527],[-15.49635,28.05203],[-15.49599,28.05158],[-15.495,28.05132],[-15.49417,28.05128],[-15.49404,28.05116],[-15.49405,28.05078],[-15.49395,28.0507],[-15.49321,28.05149],[-15.49387,28.05187],[-15.49384,28.05195],[-15.49213,28.05185],[-15.49049,28.05204],[-15.49009,28.05199],[-15.48852,28.05268],[-15.48843,28.05255],[-15.48866,28.05204],[-15.48828,28.05219],[-15.4882,28.05207],[-15.48826,28.05162],[-15.48777,28.05169],[-15.48724,28.05194],[-15.48689,28.05238],[-15.48619,28.05302],[-15.48591,28.05402],[-15.48531,28.05436],[-15.48488,28.05448],[-15.48266,28.05477],[-15.48076,28.05544],[-15.47973,28.05547],[-15.47938,28.05562],[-15.47834,28.05636],[-15.47785,28.0581],[-15.47773,28.05809],[-15.47766,28.05797],[-15.47765,28.05716],[-15.47748,28.05652],[-15.47662,28.05571]]]}},{"type":"Feature","properties":{"id":"3502101003"},"geometry":{"type":"Polygon","coordinates":[[[-15.49276,28.03328],[-15.49257,28.03303],[-15.49249,28.03265],[-15.49161,28.03157],[-15.49115,28.03155],[-15.49073,28.03168],[-15.48959,28.0309],[-15.48911,28.03087],[-15.48815,28.03098],[-15.48734,28.03082],[-15.48733,28.02869],[-15.48931,28.02866],[-15.48992,28.02843],[-15.4908,28.02842],[-15.49128,28.02808],[-15.49119,28.02679],[-15.491,28.02639],[-15.49103,28.02535],[-15.4908,28.02367],[-15.4909,28.02185],[-15.49105,28.02137],[-15.49141,28.02084],[-15.49259,28.01942],[-15.49361,28.01761],[-15.49403,28.01653],[-15.49421,28.01646],[-15.49457,28.01597],[-15.49482,28.01582],[-15.49556,28.01585],[-15.49631,28.01577],[-15.49654,28.01536],[-15.49699,28.01509],[-15.49734,28.01516],[-15.49791,28.01511],[-15.49815,28.01486],[-15.49828,28.01424],[-15.49841,28.01422],[-15.4987,28.01445],[-15.49935,28.01469],[-15.49942,28.01456],[-15.49936,28.0141],[-15.49953,28.01395],[-15.49972,28.01397],[-15.5001,28.01444],[-15.50036,28.01457],[-15.50054,28.01448],[-15.50099,28.01378],[-15.50139,28.01377],[-15.50167,28.01402],[-15.50184,28.01403],[-15.50249,28.01364],[-15.50294,28.01348],[-15.50309,28.01349],[-15.50362,28.01396],[-15.50443,28.014],[-15.50498,28.01442],[-15.50542,28.01456],[-15.50564,28.01454],[-15.50679,28.01379],[-15.50759,28.01385],[-15.50818,28.01368],[-15.50867,28.01365],[-15.50903,28.01377],[-15.50919,28.01393],[-15.50948,28.01393],[-15.50972,28.01377],[-15.50997,28.01337],[-15.51047,28.01191],[-15.51094,28.01136],[-15.51112,28.01047],[-15.5114,28.01008],[-15.51173,28.00899],[-15.51192,28.00867],[-15.51226,28.00832],[-15.513,28.00792],[-15.51328,28.00753],[-15.51362,28.00773],[-15.51537,28.00903],[-15.51793,28.01305],[-15.51841,28.01414],[-15.51882,28.01468],[-15.52163,28.01713],[-15.52107,28.0174],[-15.52089,28.01831],[-15.52073,28.0184],[-15.5203,28.01832],[-15.51983,28.01784],[-15.5196,28.01783],[-15.5193,28.01799],[-15.51873,28.01862],[-15.51798,28.01877],[-15.51745,28.01906],[-15.51732,28.01897],[-15.5171,28.01846],[-15.5168,28.0184],[-15.51567,28.01906],[-15.51588,28.01949],[-15.51583,28.01971],[-15.51538,28.01982],[-15.51478,28.02018],[-15.5145,28.02018],[-15.51406,28.01994],[-15.5138,28.01993],[-15.51388,28.02071],[-15.51357,28.02087],[-15.51334,28.02136],[-15.513,28.02122],[-15.51284,28.02088],[-15.51265,28.02079],[-15.5124,28.02088],[-15.51227,28.0211],[-15.51189,28.02136],[-15.51159,28.0214],[-15.51121,28.02047],[-15.51091,28.0203],[-15.50948,28.02073],[-15.509,28.02101],[-15.50802,28.02128],[-15.50758,28.02128],[-15.50721,28.02102],[-15.50675,28.02111],[-15.5063,28.02176],[-15.50576,28.02195],[-15.50571,28.02214],[-15.50582,28.02251],[-15.50547,28.02287],[-15.50474,28.0232],[-15.50414,28.02359],[-15.50356,28.02381],[-15.50318,28.02416],[-15.50279,28.02415],[-15.50232,28.02387],[-15.50216,28.02391],[-15.50181,28.02428],[-15.50156,28.02495],[-15.50089,28.02539],[-15.50085,28.02578],[-15.50112,28.0267],[-15.5009,28.02706],[-15.5006,28.02697],[-15.50041,28.02718],[-15.50046,28.02791],[-15.50017,28.02855],[-15.50021,28.02929],[-15.49992,28.02985],[-15.49972,28.03146],[-15.49915,28.03214],[-15.49874,28.03281],[-15.4983,28.03297],[-15.49767,28.03271],[-15.49588,28.03143],[-15.49571,28.03115],[-15.49566,28.03062],[-15.49551,28.03054],[-15.49473,28.03148],[-15.49452,28.0316],[-15.494,28.03163],[-15.4935,28.03131],[-15.49322,28.03137],[-15.49285,28.03205],[-15.49276,28.03328]]]}},{"type":"Feature","properties":{"id":"3502101004"},"geometry":{"type":"Polygon","coordinates":[[[-15.49804,28.03911],[-15.49786,28.03842],[-15.4976,28.03828],[-15.49711,28.03819],[-15.49733,28.03711],[-15.49832,28.03599],[-15.49846,28.03599],[-15.4993,28.03498],[-15.49891,28.03469],[-15.49938,28.03421],[-15.49803,28.03337],[-15.49835,28.03297],[-15.49879,28.03275],[-15.49915,28.03214],[-15.49972,28.03146],[-15.49992,28.02985],[-15.50021,28.02929],[-15.50017,28.02855],[-15.50046,28.02791],[-15.50039,28.02723],[-15.50055,28.02699],[-15.50072,28.02697],[-15.5009,28.02706],[-15.5007,28.02733],[-15.5007,28.02748],[-15.50119,28.02829],[-15.50086,28.02883],[-15.50085,28.02908],[-15.50091,28.02922],[-15.50154,28.02974],[-15.50158,28.02993],[-15.50143,28.0306],[-15.50197,28.03176],[-15.50196,28.03197],[-15.50156,28.03227],[-15.50154,28.03243],[-15.50178,28.03285],[-15.50207,28.03373],[-15.50263,28.0346],[-15.50262,28.03503],[-15.50246,28.03525],[-15.50229,28.03532],[-15.50159,28.03519],[-15.50143,28.03528],[-15.50138,28.03544],[-15.50147,28.03572],[-15.50223,28.03608],[-15.50216,28.03647],[-15.50196,28.03686],[-15.50176,28.03703],[-15.50105,28.03704],[-15.50083,28.03719],[-15.50072,28.03743],[-15.50077,28.03811],[-15.5001,28.03861],[-15.49996,28.03888],[-15.5,28.03904],[-15.49951,28.03914],[-15.49896,28.03873],[-15.49865,28.03862],[-15.49804,28.03911]]]}},{"type":"Feature","properties":{"id":"3502102001"},"geometry":{"type":"Polygon","coordinates":[[[-15.5,28.03904],[-15.49996,28.03888],[-15.5001,28.03861],[-15.50077,28.03811],[-15.50072,28.03743],[-15.50083,28.03719],[-15.50105,28.03704],[-15.50176,28.03703],[-15.50196,28.03686],[-15.50216,28.03647],[-15.50223,28.03608],[-15.50147,28.03572],[-15.50138,28.03544],[-15.50143,28.03528],[-15.50159,28.03519],[-15.50203,28.03531],[-15.50238,28.03529],[-15.50259,28.0351],[-15.50265,28.03475],[-15.50249,28.03428],[-15.50207,28.03373],[-15.50178,28.03285],[-15.50154,28.03243],[-15.50156,28.03227],[-15.50198,28.03191],[-15.50143,28.0306],[-15.50158,28.02985],[-15.50085,28.02908],[-15.50088,28.02879],[-15.50119,28.02832],[-15.50112,28.02807],[-15.50069,28.02745],[-15.50112,28.0267],[-15.50087,28.02588],[-15.50086,28.02545],[-15.50158,28.02492],[-15.50181,28.02428],[-15.50216,28.02391],[-15.50232,28.02387],[-15.50279,28.02415],[-15.50318,28.02416],[-15.50356,28.02381],[-15.50414,28.02359],[-15.50474,28.0232],[-15.50547,28.02287],[-15.50582,28.02251],[-15.50571,28.02214],[-15.50576,28.02195],[-15.5063,28.02176],[-15.50675,28.02111],[-15.50721,28.02102],[-15.50758,28.02128],[-15.50802,28.02128],[-15.509,28.02101],[-15.50948,28.02073],[-15.51091,28.0203],[-15.51121,28.02047],[-15.51159,28.0214],[-15.51189,28.02136],[-15.51227,28.0211],[-15.5124,28.02088],[-15.51265,28.02079],[-15.51284,28.02088],[-15.513,28.02122],[-15.51334,28.02136],[-15.51357,28.02087],[-15.51388,28.02071],[-15.51378,28.02018],[-15.51383,28.01991],[-15.51406,28.01994],[-15.5145,28.02018],[-15.51478,28.02018],[-15.51538,28.01982],[-15.51583,28.01971],[-15.51588,28.01949],[-15.51567,28.01906],[-15.51686,28.01838],[-15.51714,28.01851],[-15.51732,28.01897],[-15.51745,28.01906],[-15.51798,28.01877],[-15.51873,28.01862],[-15.5193,28.01799],[-15.51967,28.01781],[-15.51983,28.01784],[-15.5203,28.01832],[-15.5208,28.01839],[-15.52095,28.01818],[-15.52107,28.0174],[-15.52163,28.01713],[-15.52283,28.01778],[-15.52345,28.01896],[-15.52425,28.01992],[-15.5247,28.02022],[-15.52603,28.02084],[-15.52638,28.02115],[-15.52675,28.02173],[-15.52672,28.02207],[-15.52816,28.02337],[-15.52843,28.02373],[-15.52805,28.02397],[-15.52685,28.02429],[-15.52662,28.02442],[-15.52648,28.02459],[-15.52627,28.02524],[-15.52558,28.02545],[-15.52515,28.0258],[-15.52458,28.02592],[-15.52442,28.02611],[-15.52433,28.02647],[-15.52397,28.02685],[-15.52305,28.02707],[-15.5227,28.02728],[-15.52222,28.02737],[-15.52183,28.02757],[-15.52095,28.02783],[-15.52024,28.0284],[-15.51986,28.02895],[-15.51919,28.02962],[-15.51854,28.02986],[-15.51804,28.03052],[-15.51699,28.031],[-15.51639,28.03118],[-15.51572,28.03186],[-15.51532,28.03189],[-15.51447,28.03176],[-15.5136,28.03265],[-15.51285,28.03264],[-15.51219,28.033],[-15.51205,28.03315],[-15.51194,28.03355],[-15.51163,28.03387],[-15.51131,28.03399],[-15.51086,28.03393],[-15.51061,28.03402],[-15.51033,28.03465],[-15.51017,28.0348],[-15.50976,28.03483],[-15.50956,28.03495],[-15.5091,28.03491],[-15.50864,28.0346],[-15.50839,28.03454],[-15.50754,28.03484],[-15.50683,28.03558],[-15.50646,28.03577],[-15.50606,28.03613],[-15.50597,28.0367],[-15.50574,28.03672],[-15.50532,28.0373],[-15.50513,28.03735],[-15.50461,28.03722],[-15.50435,28.03729],[-15.50415,28.03751],[-15.50401,28.03807],[-15.50349,28.03824],[-15.50313,28.03849],[-15.50215,28.03877],[-15.50141,28.03911],[-15.50121,28.03927],[-15.50103,28.03973],[-15.50071,28.04],[-15.5004,28.03939],[-15.5,28.03904]]]}},{"type":"Feature","properties":{"id":"3502102002"},"geometry":{"type":"Polygon","coordinates":[[[-15.50439,28.04889],[-15.50435,28.0486],[-15.50372,28.04769],[-15.50304,28.04599],[-15.50302,28.0454],[-15.50318,28.04517],[-15.50317,28.0444],[-15.50267,28.04204],[-15.50224,28.04182],[-15.502,28.04188],[-15.50169,28.0418],[-15.50143,28.04152],[-15.50121,28.04107],[-15.50085,28.0408],[-15.5009,28.04046],[-15.50071,28.04],[-15.50105,28.03971],[-15.50121,28.03927],[-15.50215,28.03877],[-15.50282,28.0386],[-15.50334,28.03838],[-15.50349,28.03824],[-15.50395,28.03811],[-15.50409,28.03794],[-15.5042,28.03743],[-15.50444,28.03725],[-15.50472,28.03723],[-15.50521,28.03735],[-15.50532,28.0373],[-15.50574,28.03672],[-15.50597,28.0367],[-15.50606,28.03613],[-15.50646,28.03577],[-15.50683,28.03558],[-15.50754,28.03484],[-15.50839,28.03454],[-15.50864,28.0346],[-15.5091,28.03491],[-15.50956,28.03495],[-15.50976,28.03483],[-15.51017,28.0348],[-15.51033,28.03465],[-15.51061,28.03402],[-15.51086,28.03393],[-15.51131,28.03399],[-15.51163,28.03387],[-15.51194,28.03355],[-15.51212,28.03306],[-15.51271,28.03269],[-15.5136,28.03265],[-15.51447,28.03176],[-15.51532,28.03189],[-15.51572,28.03186],[-15.51639,28.03118],[-15.51801,28.03055],[-15.51854,28.02986],[-15.51919,28.02962],[-15.51986,28.02895],[-15.52024,28.0284],[-15.52091,28.02786],[-15.52183,28.02757],[-15.52222,28.02737],[-15.5227,28.02728],[-15.52305,28.02707],[-15.52397,28.02685],[-15.52433,28.02647],[-15.52442,28.02611],[-15.52458,28.02592],[-15.52515,28.0258],[-15.52558,28.02545],[-15.52624,28.02527],[-15.52652,28.02451],[-15.52685,28.02429],[-15.52805,28.02397],[-15.52843,28.02373],[-15.52949,28.025],[-15.53023,28.02612],[-15.53082,28.02772],[-15.53057,28.02999],[-15.53074,28.03087],[-15.53156,28.03087],[-15.53192,28.03148],[-15.5324,28.03287],[-15.53324,28.03281],[-15.5341,28.03306],[-15.53453,28.03332],[-15.53489,28.03373],[-15.53584,28.03517],[-15.53668,28.03607],[-15.5372,28.03696],[-15.53794,28.03698],[-15.53862,28.03684],[-15.5394,28.03658],[-15.54082,28.03593],[-15.54049,28.03641],[-15.54016,28.03776],[-15.54,28.03793],[-15.53959,28.03807],[-15.53905,28.03846],[-15.53829,28.03966],[-15.53697,28.03855],[-15.53636,28.03836],[-15.53545,28.03841],[-15.53392,28.03893],[-15.53202,28.03978],[-15.53141,28.03995],[-15.53106,28.04027],[-15.53045,28.04011],[-15.52874,28.04067],[-15.52823,28.04111],[-15.52804,28.0415],[-15.52764,28.04178],[-15.52623,28.04213],[-15.52543,28.04288],[-15.52437,28.04347],[-15.52298,28.04401],[-15.5211,28.0437],[-15.52088,28.04352],[-15.52043,28.04347],[-15.51974,28.04368],[-15.51938,28.04411],[-15.51907,28.04431],[-15.51814,28.04462],[-15.51745,28.04495],[-15.51649,28.04514],[-15.51588,28.04514],[-15.51512,28.04544],[-15.51464,28.04551],[-15.51388,28.04586],[-15.51257,28.04574],[-15.5122,28.04592],[-15.51196,28.04639],[-15.51178,28.04653],[-15.51051,28.04671],[-15.50961,28.0471],[-15.50878,28.04758],[-15.50761,28.04796],[-15.50738,28.04814],[-15.50696,28.04806],[-15.50629,28.04826],[-15.50539,28.04825],[-15.50471,28.04882],[-15.50439,28.04889]]]}},{"type":"Feature","properties":{"id":"3502103001"},"geometry":{"type":"Polygon","coordinates":[[[-15.46945,28.04608],[-15.46911,28.04537],[-15.46908,28.04498],[-15.46867,28.04432],[-15.46846,28.0436],[-15.46818,28.04306],[-15.46796,28.04206],[-15.46732,28.04221],[-15.46686,28.04216],[-15.4666,28.04202],[-15.46634,28.04167],[-15.46555,28.04161],[-15.46445,28.04021],[-15.4639,28.04001],[-15.4629,28.04016],[-15.46216,28.03966],[-15.46141,28.03852],[-15.46231,28.03821],[-15.46364,28.0384],[-15.46466,28.03869],[-15.46532,28.03873],[-15.4667,28.03833],[-15.46738,28.038],[-15.46757,28.03805],[-15.46902,28.03787],[-15.46983,28.03795],[-15.47195,28.0375],[-15.47394,28.03747],[-15.47342,28.03646],[-15.47259,28.03584],[-15.47256,28.03567],[-15.47323,28.03435],[-15.47323,28.03411],[-15.47253,28.03302],[-15.47203,28.03247],[-15.47239,28.03181],[-15.47231,28.03109],[-15.47294,28.0307],[-15.47293,28.03063],[-15.47404,28.03022],[-15.47507,28.0296],[-15.47551,28.02965],[-15.47572,28.02942],[-15.4766,28.02945],[-15.47707,28.02969],[-15.47739,28.03005],[-15.47728,28.03185],[-15.47747,28.03274],[-15.47783,28.03319],[-15.47848,28.03344],[-15.47886,28.03342],[-15.47942,28.03319],[-15.48189,28.0317],[-15.4823,28.03231],[-15.4827,28.03269],[-15.48401,28.03337],[-15.48425,28.03364],[-15.4846,28.03468],[-15.48416,28.03491],[-15.48365,28.03541],[-15.4834,28.03595],[-15.48303,28.03752],[-15.48212,28.03833],[-15.48325,28.03898],[-15.4834,28.03929],[-15.48264,28.04014],[-15.48153,28.04077],[-15.48064,28.04099],[-15.48054,28.04113],[-15.48063,28.04134],[-15.4813,28.04173],[-15.48201,28.04239],[-15.48197,28.04261],[-15.48142,28.04334],[-15.48102,28.04376],[-15.48068,28.04395],[-15.47998,28.04459],[-15.47929,28.04488],[-15.4782,28.04551],[-15.47758,28.0455],[-15.47595,28.04478],[-15.47543,28.04483],[-15.47462,28.04593],[-15.47413,28.04619],[-15.47316,28.04654],[-15.47247,28.04765],[-15.47211,28.0479],[-15.4712,28.0483],[-15.47063,28.04891],[-15.4705,28.04869],[-15.47043,28.04824],[-15.47014,28.04773],[-15.46998,28.04679],[-15.46945,28.04608]]]}},{"type":"Feature","properties":{"id":"3502103002"},"geometry":{"type":"MultiPolygon","coordinates":[[[[-15.46834,28.02846],[-15.46696,28.02873],[-15.46686,28.02882],[-15.46685,28.02917],[-15.46622,28.02928],[-15.46596,28.02913],[-15.46578,28.02849],[-15.4652,28.0284],[-15.46412,28.02745],[-15.46347,28.02784],[-15.46245,28.02792],[-15.46188,28.02783],[-15.46157,28.0279],[-15.46005,28.02796],[-15.45801,28.02776],[-15.45562,28.0274],[-15.45568,28.02667],[-15.456,28.02536],[-15.45616,28.02495],[-15.4572,28.02548],[-15.45732,28.02506],[-15.4586,28.02408],[-15.45885,28.02412],[-15.45933,28.02441],[-15.45994,28.02417],[-15.46081,28.02427],[-15.4613,28.0239],[-15.4619,28.02361],[-15.46362,28.0238],[-15.46425,28.02338],[-15.46562,28.02281],[-15.46602,28.02292],[-15.46653,28.02352],[-15.4668,28.0237],[-15.46763,28.02371],[-15.46846,28.02359],[-15.46901,28.02334],[-15.47033,28.02234],[-15.47055,28.02235],[-15.47091,28.02278],[-15.47208,28.02265],[-15.47227,28.02248],[-15.4726,28.02184],[-15.47303,28.02148],[-15.47318,28.02152],[-15.47348,28.02216],[-15.47377,28.02233],[-15.474,28.02264],[-15.47429,28.02259],[-15.47469,28.02233],[-15.4754,28.02226],[-15.4756,28.02232],[-15.47596,28.02264],[-15.47645,28.02281],[-15.47616,28.02297],[-15.47574,28.02304],[-15.47322,28.02282],[-15.4729,28.02289],[-15.47091,28.02383],[-15.47063,28.02409],[-15.47047,28.02478],[-15.47046,28.02559],[-15.47068,28.02697],[-15.47054,28.02769],[-15.47058,28.0288],[-15.47031,28.02964],[-15.47,28.0297],[-15.46902,28.0293],[-15.4686,28.02861],[-15.46834,28.02846]]],[[[-15.48945,28.02864],[-15.48733,28.02869],[-15.48663,28.02821],[-15.48582,28.02805],[-15.48376,28.02882],[-15.48363,28.02879],[-15.48363,28.02865],[-15.48347,28.02857],[-15.48222,28.02864],[-15.48202,28.02851],[-15.48185,28.02787],[-15.48099,28.02764],[-15.4805,28.02805],[-15.4801,28.02814],[-15.4793,28.0283],[-15.47778,28.02824],[-15.47634,28.02853],[-15.47513,28.02918],[-15.47495,28.02921],[-15.47432,28.02904],[-15.47391,28.02913],[-15.47416,28.0285],[-15.47509,28.02748],[-15.47624,28.02683],[-15.47647,28.02651],[-15.47658,28.02612],[-15.47745,28.02544],[-15.47771,28.02483],[-15.47794,28.02469],[-15.47889,28.02441],[-15.48049,28.02435],[-15.48137,28.0241],[-15.48161,28.02431],[-15.48247,28.0246],[-15.48476,28.02429],[-15.48616,28.02425],[-15.4868,28.02417],[-15.48807,28.0236],[-15.48884,28.02348],[-15.48938,28.02364],[-15.48999,28.02356],[-15.49034,28.02404],[-15.49085,28.02411],[-15.49103,28.02535],[-15.49101,28.02647],[-15.49119,28.02679],[-15.49117,28.02725],[-15.49131,28.02799],[-15.49122,28.02817],[-15.4908,28.02842],[-15.48992,28.02843],[-15.48945,28.02864]]]]}},{"type":"Feature","properties":{"id":"3502103003"},"geometry":{"type":"Polygon","coordinates":[[[-15.47063,28.04891],[-15.4712,28.0483],[-15.47211,28.0479],[-15.47247,28.04765],[-15.47316,28.04654],[-15.47413,28.04619],[-15.47462,28.04593],[-15.47543,28.04483],[-15.47571,28.04476],[-15.47603,28.0448],[-15.47758,28.0455],[-15.47802,28.04554],[-15.47858,28.04535],[-15.47902,28.04503],[-15.48003,28.04455],[-15.48068,28.04395],[-15.48107,28.04372],[-15.48202,28.04252],[-15.48198,28.04235],[-15.48143,28.04183],[-15.48058,28.0413],[-15.48054,28.04113],[-15.48064,28.04099],[-15.48175,28.04066],[-15.48197,28.04082],[-15.48315,28.04113],[-15.48352,28.0413],[-15.48445,28.0421],[-15.48479,28.04271],[-15.48565,28.04351],[-15.48502,28.04388],[-15.48487,28.04417],[-15.48469,28.04431],[-15.48386,28.04431],[-15.48358,28.04439],[-15.48278,28.04525],[-15.48215,28.04619],[-15.4815,28.0466],[-15.48161,28.04736],[-15.48113,28.0475],[-15.48069,28.0478],[-15.48054,28.04818],[-15.48003,28.04876],[-15.47993,28.04918],[-15.47972,28.04959],[-15.48019,28.05028],[-15.48014,28.05073],[-15.47912,28.05141],[-15.47884,28.05175],[-15.47872,28.05269],[-15.47882,28.05334],[-15.4791,28.05374],[-15.47904,28.05409],[-15.47857,28.0542],[-15.47798,28.05447],[-15.47662,28.05571],[-15.47502,28.05428],[-15.47388,28.05281],[-15.47227,28.05116],[-15.47141,28.05016],[-15.47063,28.04891]]]}},{"type":"Feature","properties":{"id":"3502103004"},"geometry":{"type":"Polygon","coordinates":[[[-15.46141,28.03852],[-15.46009,28.03643],[-15.45982,28.03612],[-15.45859,28.03578],[-15.45568,28.0363],[-15.45523,28.03614],[-15.45422,28.03558],[-15.45386,28.03512],[-15.45343,28.03496],[-15.45224,28.03394],[-15.45126,28.03261],[-15.451,28.03173],[-15.4508,28.03138],[-15.45077,28.03087],[-15.45095,28.03047],[-15.45131,28.03022],[-15.45156,28.0299],[-15.4518,28.02941],[-15.45281,28.02839],[-15.4543,28.02786],[-15.45567,28.02804],[-15.45562,28.0274],[-15.45801,28.02776],[-15.46005,28.02796],[-15.46157,28.0279],[-15.46188,28.02783],[-15.46245,28.02792],[-15.46347,28.02784],[-15.46412,28.02745],[-15.4652,28.0284],[-15.46578,28.02849],[-15.46596,28.02913],[-15.46611,28.02926],[-15.46685,28.02917],[-15.46686,28.02882],[-15.46696,28.02873],[-15.46834,28.02846],[-15.4686,28.02861],[-15.46902,28.0293],[-15.47,28.0297],[-15.47026,28.0297],[-15.47058,28.0288],[-15.47054,28.02769],[-15.47068,28.02697],[-15.47046,28.02559],[-15.47047,28.02478],[-15.47063,28.02409],[-15.47091,28.02383],[-15.4729,28.02289],[-15.47322,28.02282],[-15.47574,28.02304],[-15.47616,28.02297],[-15.47654,28.02276],[-15.47694,28.02221],[-15.47718,28.02228],[-15.47738,28.02258],[-15.47815,28.02261],[-15.4785,28.02273],[-15.47891,28.02315],[-15.47973,28.02315],[-15.47998,28.02322],[-15.48037,28.02315],[-15.48094,28.02321],[-15.48154,28.02266],[-15.48191,28.02248],[-15.48261,28.02269],[-15.48346,28.02271],[-15.48485,28.02245],[-15.48501,28.02221],[-15.48584,28.02184],[-15.48631,28.02145],[-15.48656,28.01991],[-15.48684,28.01949],[-15.4868,28.0192],[-15.48702,28.01903],[-15.48747,28.01899],[-15.48778,28.01882],[-15.48788,28.01857],[-15.48781,28.01818],[-15.48814,28.01796],[-15.48821,28.01743],[-15.48833,28.01727],[-15.48862,28.01717],[-15.48916,28.01731],[-15.48942,28.01715],[-15.48946,28.01696],[-15.48932,28.01677],[-15.48931,28.01653],[-15.48954,28.01616],[-15.48996,28.01606],[-15.49024,28.01609],[-15.49038,28.0162],[-15.49043,28.01651],[-15.49078,28.01662],[-15.49145,28.01606],[-15.49197,28.01636],[-15.49256,28.016],[-15.49298,28.01594],[-15.49334,28.01601],[-15.49388,28.01648],[-15.49403,28.01653],[-15.49361,28.01761],[-15.49259,28.01942],[-15.49105,28.02137],[-15.49083,28.02227],[-15.49085,28.02411],[-15.49034,28.02404],[-15.48999,28.02356],[-15.48938,28.02364],[-15.48884,28.02348],[-15.48807,28.0236],[-15.4868,28.02417],[-15.48426,28.02434],[-15.48291,28.02459],[-15.48247,28.0246],[-15.48203,28.0245],[-15.48161,28.02431],[-15.48137,28.0241],[-15.48049,28.02435],[-15.47861,28.02447],[-15.47771,28.02483],[-15.47745,28.02544],[-15.47655,28.02616],[-15.47634,28.02673],[-15.47509,28.02748],[-15.47416,28.0285],[-15.47398,28.02882],[-15.47391,28.02913],[-15.47432,28.02904],[-15.47504,28.0292],[-15.47585,28.02885],[-15.47634,28.02853],[-15.47778,28.02824],[-15.4793,28.0283],[-15.4805,28.02805],[-15.48099,28.02764],[-15.48185,28.02787],[-15.48198,28.02843],[-15.48214,28.02862],[-15.48347,28.02857],[-15.48371,28.02881],[-15.48441,28.02862],[-15.48559,28.02808],[-15.48607,28.02807],[-15.48663,28.02821],[-15.48733,28.02869],[-15.48734,28.03082],[-15.48815,28.03098],[-15.48889,28.03091],[-15.48836,28.03251],[-15.48814,28.03282],[-15.48786,28.03352],[-15.48718,28.03423],[-15.4846,28.03468],[-15.48425,28.03364],[-15.48401,28.03337],[-15.4827,28.03269],[-15.4823,28.03231],[-15.48189,28.0317],[-15.48055,28.03256],[-15.47886,28.03342],[-15.47848,28.03344],[-15.47783,28.03319],[-15.47747,28.03274],[-15.47728,28.03185],[-15.47739,28.03005],[-15.47676,28.02949],[-15.47572,28.02942],[-15.47551,28.02965],[-15.47507,28.0296],[-15.47404,28.03022],[-15.47293,28.03063],[-15.47294,28.0307],[-15.47227,28.03119],[-15.47239,28.03181],[-15.47203,28.03247],[-15.47253,28.03302],[-15.47323,28.03411],[-15.47323,28.03435],[-15.47256,28.03576],[-15.4728,28.03606],[-15.47342,28.03646],[-15.47394,28.03747],[-15.47195,28.0375],[-15.46983,28.03795],[-15.46902,28.03787],[-15.46757,28.03805],[-15.46738,28.038],[-15.4667,28.03833],[-15.46532,28.03873],[-15.46466,28.03869],[-15.46364,28.0384],[-15.46231,28.03821],[-15.46141,28.03852]]]}},{"type":"Feature","properties":{"id":"3502104001"},"geometry":{"type":"Polygon","coordinates":[[[-15.48502,28.04388],[-15.48584,28.04333],[-15.48614,28.04266],[-15.48657,28.04215],[-15.48666,28.04134],[-15.48718,28.04122],[-15.48781,28.04123],[-15.48821,28.04063],[-15.4887,28.04029],[-15.48902,28.04025],[-15.4897,28.03914],[-15.48986,28.03862],[-15.4902,28.03826],[-15.49072,28.03736],[-15.49129,28.03699],[-15.49134,28.03707],[-15.49153,28.03703],[-15.49228,28.03675],[-15.49306,28.03616],[-15.49383,28.03526],[-15.49402,28.03718],[-15.4943,28.03763],[-15.4946,28.03784],[-15.49457,28.03812],[-15.49533,28.03823],[-15.49724,28.03819],[-15.4976,28.03828],[-15.49794,28.03853],[-15.49823,28.04122],[-15.49808,28.04207],[-15.49782,28.04208],[-15.49689,28.04186],[-15.49579,28.04231],[-15.49567,28.04242],[-15.4956,28.04311],[-15.49523,28.04372],[-15.4952,28.04395],[-15.49474,28.0443],[-15.49433,28.04448],[-15.49383,28.04459],[-15.49245,28.0442],[-15.49179,28.04428],[-15.4914,28.04482],[-15.49144,28.04531],[-15.49131,28.0462],[-15.49146,28.04662],[-15.49138,28.04672],[-15.48987,28.04672],[-15.48904,28.04636],[-15.48809,28.04648],[-15.48763,28.04664],[-15.48698,28.04659],[-15.48669,28.04666],[-15.48563,28.04767],[-15.48522,28.04818],[-15.48518,28.04862],[-15.48485,28.04903],[-15.48464,28.04918],[-15.4842,28.04924],[-15.48397,28.04935],[-15.4828,28.05036],[-15.4821,28.05112],[-15.48114,28.05178],[-15.4805,28.0525],[-15.4801,28.05277],[-15.48005,28.05329],[-15.47982,28.0536],[-15.47938,28.05397],[-15.47904,28.05409],[-15.4791,28.05374],[-15.47886,28.05343],[-15.47875,28.053],[-15.47876,28.05203],[-15.47899,28.05152],[-15.48016,28.05067],[-15.48019,28.05028],[-15.47972,28.04964],[-15.48003,28.04876],[-15.48054,28.04818],[-15.48075,28.04774],[-15.48122,28.04746],[-15.48159,28.04737],[-15.4815,28.0466],[-15.48215,28.04619],[-15.48278,28.04525],[-15.48358,28.04439],[-15.48386,28.04431],[-15.48469,28.04431],[-15.48487,28.04417],[-15.48502,28.04388]]]}},{"type":"Feature","properties":{"id":"3502104002"},"geometry":{"type":"Polygon","coordinates":[[[-15.48175,28.04066],[-15.48272,28.04007],[-15.4834,28.03929],[-15.48325,28.03898],[-15.48212,28.03833],[-15.48303,28.03752],[-15.4835,28.03568],[-15.48403,28.03502],[-15.4846,28.03468],[-15.48705,28.03429],[-15.48734,28.03411],[-15.48786,28.03352],[-15.48814,28.03282],[-15.48836,28.03251],[-15.48889,28.03091],[-15.48959,28.0309],[-15.49073,28.03168],[-15.49115,28.03155],[-15.49161,28.03157],[-15.4925,28.03266],[-15.49295,28.03394],[-15.49383,28.03526],[-15.49306,28.03616],[-15.49228,28.03675],[-15.49153,28.03703],[-15.49134,28.03707],[-15.49129,28.03699],[-15.49072,28.03736],[-15.4902,28.03826],[-15.48986,28.03862],[-15.4897,28.03914],[-15.48902,28.04025],[-15.4887,28.04029],[-15.48821,28.04063],[-15.48781,28.04123],[-15.48718,28.04122],[-15.48666,28.04134],[-15.48657,28.04215],[-15.48609,28.04275],[-15.48574,28.04344],[-15.48565,28.04351],[-15.48495,28.04289],[-15.48445,28.0421],[-15.48352,28.0413],[-15.48315,28.04113],[-15.48197,28.04082],[-15.48175,28.04066]]]}}]}