{"type":"FeatureCollection","features":[{"type":"Feature","properties":{"id":"3503301001"},"geometry":{"type":"Polygon","coordinates":[[[-15.52603,28.02084],[-15.52591,28.02022],[-15.52603,28.02003],[-15.52784,28.01847],[-15.52962,28.0171],[-15.53041,28.0162],[-15.53012,28.01518],[-15.5294,28.01397],[-15.52887,28.01274],[-15.52852,28.01229],[-15.53028,28.01069],[-15.53309,28.0099],[-15.53406,28.00907],[-15.53431,28.00904],[-15.53457,28.00922],[-15.53486,28.00883],[-15.53531,28.00859],[-15.53687,28.00862],[-15.5372,28.0085],[-15.53748,28.00821],[-15.53827,28.0066],[-15.53974,28.006],[-15.54029,28.00649],[-15.54047,28.00681],[-15.5406,28.00809],[-15.54123,28.00812],[-15.5415,28.00828],[-15.54159,28.00845],[-15.54267,28.00851],[-15.54345,28.00927],[-15.54378,28.00921],[-15.54406,28.00934],[-15.54437,28.01018],[-15.54399,28.01041],[-15.54368,28.01104],[-15.54334,28.01119],[-15.54317,28.01141],[-15.54318,28.0118],[-15.54281,28.01256],[-15.54283,28.01307],[-15.54259,28.01363],[-15.54229,28.01392],[-15.5417,28.01497],[-15.5414,28.0153],[-15.54126,28.01572],[-15.54075,28.01593],[-15.54002,28.01661],[-15.54002,28.01675],[-15.53926,28.01752],[-15.53931,28.0177],[-15.53947,28.01778],[-15.54025,28.01768],[-15.54142,28.01774],[-15.54149,28.01798],[-15.54078,28.01846],[-15.54066,28.01863],[-15.54003,28.01893],[-15.53906,28.01917],[-15.53874,28.01942],[-15.53795,28.01968],[-15.53722,28.01965],[-15.53668,28.01988],[-15.53617,28.01998],[-15.53522,28.01999],[-15.53447,28.01966],[-15.53405,28.0198],[-15.53348,28.01972],[-15.53321,28.01992],[-15.53233,28.02012],[-15.53173,28.02013],[-15.53052,28.02033],[-15.52965,28.02027],[-15.52797,28.02112],[-15.52745,28.02148],[-15.5268,28.02215],[-15.52672,28.02207],[-15.52676,28.02176],[-15.52665,28.02149],[-15.52603,28.02084]]]}},{"type":"Feature","properties":{"id":"3503301002"},"geometry":{"type":"Polygon","coordinates":[[[-15.54065,28.01878],[-15.54078,28.01846],[-15.54149,28.01798],[-15.54142,28.01774],[-15.54025,28.01768],[-15.53947,28.01778],[-15.53927,28.01763],[-15.53929,28.01747],[-15.54002,28.01675],[-15.54002,28.01661],[-15.54078,28.01591],[-15.54126,28.01572],[-15.5414,28.0153],[-15.5417,28.01497],[-15.54229,28.01392],[-15.54261,28.01359],[-15.54283,28.01307],[-15.54281,28.01256],[-15.54318,28.0118],[-15.54317,28.01141],[-15.54334,28.01119],[-15.54368,28.01104],[-15.54394,28.01047],[-15.5443,28.01028],[-15.54439,28.01014],[-15.54406,28.00934],[-15.54378,28.00921],[-15.54599,28.00831],[-15.54686,28.00629],[-15.54689,28.00579],[-15.54677,28.00504],[-15.5465,28.00444],[-15.54573,28.00331],[-15.5455,28.00278],[-15.54543,28.00234],[-15.54559,28.00174],[-15.54594,28.00135],[-15.54689,28.00109],[-15.54806,28.00126],[-15.54906,28.00128],[-15.54977,28.00085],[-15.55037,28.0007],[-15.55105,28.00038],[-15.55188,27.99972],[-15.55334,27.9981],[-15.55476,27.99702],[-15.55537,27.99643],[-15.55674,27.99441],[-15.55736,27.9933],[-15.55841,27.9923],[-15.55648,27.99131],[-15.55566,27.99056],[-15.55507,27.99026],[-15.55428,27.98971],[-15.55348,27.98877],[-15.55296,27.98795],[-15.55143,27.98674],[-15.54983,27.98574],[-15.5501,27.98426],[-15.54985,27.98348],[-15.54953,27.98289],[-15.54937,27.98214],[-15.54948,27.98167],[-15.54971,27.98126],[-15.54945,27.97876],[-15.54958,27.97794],[-15.54894,27.97512],[-15.54893,27.97473],[-15.54969,27.97292],[-15.55028,27.97196],[-15.54987,27.96909],[-15.54993,27.96687],[-15.55041,27.96446],[-15.55138,27.96053],[-15.55228,27.95825],[-15.55311,27.95679],[-15.55434,27.95419],[-15.55504,27.95506],[-15.5579,27.95764],[-15.55807,27.95802],[-15.55972,27.95912],[-15.56033,27.95936],[-15.56072,27.96003],[-15.56231,27.96105],[-15.56536,27.96091],[-15.56603,27.96075],[-15.57014,27.96152],[-15.57177,27.96207],[-15.57315,27.96416],[-15.57392,27.96509],[-15.57785,27.96931],[-15.58005,27.97295],[-15.58195,27.97566],[-15.58323,27.97728],[-15.58376,27.97818],[-15.58482,27.97944],[-15.58667,27.98213],[-15.5853,27.98259],[-15.58348,27.98383],[-15.58282,27.98458],[-15.58125,27.98594],[-15.58081,27.98611],[-15.58014,27.98665],[-15.57897,27.98702],[-15.57791,27.98782],[-15.5764,27.9897],[-15.57606,27.99071],[-15.57545,27.99184],[-15.57521,27.99277],[-15.57471,27.99378],[-15.57351,27.995],[-15.57314,27.99511],[-15.5727,27.99557],[-15.57216,27.99585],[-15.571,27.99581],[-15.56984,27.99628],[-15.56854,27.99714],[-15.56779,27.99801],[-15.56679,27.99885],[-15.56633,27.99903],[-15.56644,28.00114],[-15.56687,28.00205],[-15.56669,28.00274],[-15.56676,28.00329],[-15.566,28.00399],[-15.56571,28.00441],[-15.56457,28.00492],[-15.56461,28.005],[-15.5645,28.00525],[-15.56358,28.00524],[-15.56314,28.0054],[-15.56275,28.00591],[-15.56163,28.00681],[-15.56032,28.0074],[-15.5598,28.00797],[-15.55901,28.00852],[-15.55885,28.00875],[-15.55803,28.00941],[-15.55795,28.00956],[-15.55806,28.00995],[-15.55798,28.01012],[-15.55758,28.01055],[-15.55671,28.01101],[-15.55666,28.01149],[-15.55647,28.01176],[-15.55575,28.0121],[-15.55556,28.01228],[-15.55559,28.01246],[-15.55598,28.01265],[-15.5561,28.01282],[-15.55593,28.01322],[-15.55596,28.01335],[-15.55617,28.01347],[-15.5567,28.01354],[-15.55692,28.01378],[-15.55673,28.01404],[-15.55588,28.01459],[-15.55583,28.01526],[-15.55564,28.01558],[-15.55541,28.01571],[-15.55479,28.01581],[-15.55379,28.01584],[-15.55337,28.01596],[-15.55166,28.01608],[-15.55107,28.01629],[-15.54959,28.01647],[-15.54929,28.01661],[-15.5475,28.01697],[-15.54633,28.01734],[-15.54472,28.01812],[-15.54383,28.01828],[-15.54358,28.01849],[-15.54333,28.01889],[-15.54308,28.01905],[-15.54205,28.01887],[-15.54143,28.01897],[-15.5408,28.0189],[-15.54065,28.01878]]]}},{"type":"Feature","properties":{"id":"3503301003"},"geometry":{"type":"Polygon","coordinates":[[[-15.56539,28.00458],[-15.56571,28.00441],[-15.566,28.00399],[-15.56676,28.00329],[-15.56669,28.00274],[-15.56687,28.00205],[-15.56644,28.00114],[-15.56633,27.99903],[-15.56679,27.99885],[-15.56779,27.99801],[-15.56854,27.99714],[-15.56984,27.99628],[-15.571,27.99581],[-15.57216,27.99585],[-15.5727,27.99557],[-15.57314,27.99511],[-15.57351,27.995],[-15.57471,27.99378],[-15.57521,27.99277],[-15.57545,27.99184],[-15.57606,27.99071],[-15.5764,27.9897],[-15.57791,27.98782],[-15.57897,27.98702],[-15.58014,27.98665],[-15.58081,27.98611],[-15.58125,27.98594],[-15.58282,27.98458],[-15.58348,27.98383],[-15.5853,27.98259],[-15.58667,27.98213],[-15.5871,27.98238],[-15.58813,27.9826],[-15.58946,27.98302],[-15.58998,27.9833],[-15.59036,27.98363],[-15.59079,27.98462],[-15.59124,27.98499],[-15.5923,27.9851],[-15.59241,27.98522],[-15.59262,27.98677],[-15.59334,27.98799],[-15.59331,27.98899],[-15.59295,27.98957],[-15.59237,27.99086],[-15.59269,27.99127],[-15.5932,27.99171],[-15.59382,27.99288],[-15.59412,27.9931],[-15.59462,27.9933],[-15.5956,27.99397],[-15.59561,27.99467],[-15.59576,27.99515],[-15.59572,27.99554],[-15.59632,27.99622],[-15.59642,27.99695],[-15.59673,27.998],[-15.59618,27.99916],[-15.59622,27.99948],[-15.59612,28.00033],[-15.59694,28.00186],[-15.59727,28.00316],[-15.59933,28.00456],[-15.59951,28.00492],[-15.59967,28.00574],[-15.59959,28.00575],[-15.59955,28.00613],[-15.59984,28.00721],[-15.59964,28.00784],[-15.59976,28.00801],[-15.59989,28.00864],[-15.60002,28.01154],[-15.59826,28.01224],[-15.59634,28.01279],[-15.5921,28.01361],[-15.58994,28.01437],[-15.58745,28.01494],[-15.58628,28.01562],[-15.58283,28.01672],[-15.58248,28.01695],[-15.58296,28.01574],[-15.58345,28.01534],[-15.58363,28.01508],[-15.58334,28.01353],[-15.58231,28.01297],[-15.58168,28.01275],[-15.57986,28.0127],[-15.57907,28.01284],[-15.57849,28.01306],[-15.578,28.01385],[-15.57785,28.01394],[-15.57726,28.01414],[-15.57638,28.01423],[-15.57585,28.01394],[-15.57459,28.01372],[-15.57322,28.0132],[-15.57294,28.01303],[-15.57274,28.01275],[-15.5708,28.01089],[-15.57014,28.01044],[-15.56962,28.00941],[-15.56907,28.00875],[-15.5683,28.00807],[-15.56514,28.00567],[-15.56501,28.00531],[-15.56539,28.00458]]]}},{"type":"Feature","properties":{"id":"3503301004"},"geometry":{"type":"Polygon","coordinates":[[[-15.53061,28.02964],[-15.53161,28.02904],[-15.53236,28.02887],[-15.53357,28.02836],[-15.53389,28.02837],[-15.53475,28.02881],[-15.53498,28.02871],[-15.53522,28.02833],[-15.53551,28.02818],[-15.53568,28.02821],[-15.53603,28.02852],[-15.53642,28.02862],[-15.53733,28.02851],[-15.53785,28.02884],[-15.53805,28.02888],[-15.53852,28.02869],[-15.53951,28.02858],[-15.53999,28.02816],[-15.54092,28.02805],[-15.54129,28.02827],[-15.54158,28.02894],[-15.54184,28.02901],[-15.54277,28.02886],[-15.54407,28.02886],[-15.54457,28.02864],[-15.54543,28.02865],[-15.54651,28.02835],[-15.54748,28.02862],[-15.54857,28.02851],[-15.54895,28.02886],[-15.54982,28.02858],[-15.55094,28.02899],[-15.55133,28.02884],[-15.55176,28.02892],[-15.55222,28.02883],[-15.5525,28.02888],[-15.55336,28.02858],[-15.55366,28.02838],[-15.55401,28.02788],[-15.55469,28.02753],[-15.55509,28.02679],[-15.55566,28.02662],[-15.55573,28.02621],[-15.55604,28.02578],[-15.55649,28.02555],[-15.5571,28.02553],[-15.55715,28.02532],[-15.55665,28.02492],[-15.55639,28.02485],[-15.55535,28.02528],[-15.55497,28.02567],[-15.55415,28.02585],[-15.55377,28.02621],[-15.55359,28.0262],[-15.55326,28.02596],[-15.55268,28.02621],[-15.55223,28.02612],[-15.55151,28.02573],[-15.55081,28.02467],[-15.55061,28.02466],[-15.55025,28.02427],[-15.5503,28.02403],[-15.55096,28.02356],[-15.55103,28.02307],[-15.55094,28.02283],[-15.55106,28.02261],[-15.55155,28.02242],[-15.55202,28.0224],[-15.55331,28.02282],[-15.55441,28.02297],[-15.55558,28.02295],[-15.55652,28.02281],[-15.55742,28.02287],[-15.55767,28.02275],[-15.55823,28.02271],[-15.55872,28.02209],[-15.55918,28.02178],[-15.55985,28.02161],[-15.56154,28.02157],[-15.56297,28.02133],[-15.56353,28.02091],[-15.56367,28.02052],[-15.56363,28.02009],[-15.5641,28.01969],[-15.56419,28.01927],[-15.56445,28.0189],[-15.56503,28.01851],[-15.56584,28.01769],[-15.56636,28.01748],[-15.567,28.01704],[-15.56714,28.01653],[-15.5677,28.01591],[-15.56788,28.01505],[-15.56811,28.01459],[-15.56776,28.01426],[-15.56722,28.01405],[-15.56675,28.01389],[-15.56639,28.01388],[-15.56422,28.01429],[-15.5635,28.01433],[-15.56314,28.01447],[-15.56261,28.01483],[-15.56209,28.01537],[-15.56135,28.01574],[-15.5608,28.01614],[-15.5606,28.01639],[-15.56051,28.01701],[-15.56032,28.01733],[-15.55994,28.01743],[-15.55879,28.01745],[-15.5585,28.01738],[-15.55814,28.01744],[-15.5568,28.0169],[-15.55654,28.01607],[-15.55619,28.01543],[-15.55585,28.0151],[-15.55588,28.01459],[-15.55673,28.01404],[-15.55691,28.01372],[-15.5567,28.01354],[-15.55617,28.01347],[-15.55596,28.01335],[-15.55593,28.01322],[-15.5561,28.01282],[-15.55598,28.01265],[-15.55559,28.01246],[-15.55556,28.01228],[-15.55575,28.0121],[-15.55647,28.01176],[-15.55666,28.01149],[-15.55671,28.01101],[-15.55758,28.01055],[-15.55798,28.01012],[-15.55806,28.00995],[-15.55795,28.00956],[-15.55803,28.00941],[-15.55885,28.00875],[-15.55901,28.00852],[-15.5598,28.00797],[-15.56022,28.00747],[-15.56083,28.00713],[-15.56153,28.00688],[-15.56275,28.00591],[-15.56324,28.00533],[-15.56358,28.00524],[-15.56446,28.00527],[-15.56461,28.005],[-15.56457,28.00492],[-15.56539,28.00458],[-15.56501,28.00531],[-15.56514,28.00567],[-15.5683,28.00807],[-15.56907,28.00875],[-15.56962,28.00941],[-15.57014,28.01044],[-15.5708,28.01089],[-15.57274,28.01275],[-15.57294,28.01303],[-15.57322,28.0132],[-15.57459,28.01372],[-15.57585,28.01394],[-15.57638,28.01423],[-15.57726,28.01414],[-15.57785,28.01394],[-15.578,28.01385],[-15.57849,28.01306],[-15.57907,28.01284],[-15.57986,28.0127],[-15.58168,28.01275],[-15.58231,28.01297],[-15.58334,28.01353],[-15.58363,28.01508],[-15.58345,28.01534],[-15.58296,28.01574],[-15.58248,28.01695],[-15.58209,28.01727],[-15.58073,28.01802],[-15.58004,28.01878],[-15.57644,28.02068],[-15.57489,28.02202],[-15.57438,28.02231],[-15.57403,28.02263],[-15.57346,28.02287],[-15.57312,28.0238],[-15.57233,28.02432],[-15.57162,28.02526],[-15.57117,28.02556],[-15.57042,28.02568],[-15.56994,28.0259],[-15.56946,28.02598],[-15.56918,28.02614],[-15.56755,28.02517],[-15.56722,28.02515],[-15.56661,28.02529],[-15.56611,28.02509],[-15.56555,28.02517],[-15.56474,28.02476],[-15.56436,28.02479],[-15.56362,28.02504],[-15.56256,28.0249],[-15.56196,28.02495],[-15.56116,28.02471],[-15.56038,28.02483],[-15.55991,28.02523],[-15.55963,28.02581],[-15.55843,28.02659],[-15.55775,28.0274],[-15.55649,28.02763],[-15.55553,28.02806],[-15.55448,28.02838],[-15.55277,28.02931],[-15.55243,28.02935],[-15.55197,28.02957],[-15.55147,28.02964],[-15.5511,28.03029],[-15.55081,28.03055],[-15.55071,28.03089],[-15.55049,28.03105],[-15.55009,28.03109],[-15.54991,28.03118],[-15.54914,28.03115],[-15.54704,28.0315],[-15.54661,28.03164],[-15.54589,28.03239],[-15.54529,28.03253],[-15.5447,28.03299],[-15.5442,28.03306],[-15.54427,28.03361],[-15.54409,28.03391],[-15.54319,28.03427],[-15.54255,28.03429],[-15.54214,28.03479],[-15.54203,28.03508],[-15.54118,28.03575],[-15.5394,28.03658],[-15.53862,28.03684],[-15.53794,28.03698],[-15.5372,28.03696],[-15.53668,28.03607],[-15.53584,28.03517],[-15.53489,28.03373],[-15.53453,28.03332],[-15.5341,28.03306],[-15.53324,28.03281],[-15.5324,28.03287],[-15.53192,28.03148],[-15.53156,28.03087],[-15.53074,28.03087],[-15.53059,28.03025],[-15.53061,28.02964]]]}},{"type":"Feature","properties":{"id":"3503301005"},"geometry":{"type":"Polygon","coordinates":[[[-15.53061,28.02964],[-15.53082,28.02772],[-15.53023,28.02612],[-15.52949,28.025],[-15.52816,28.02337],[-15.5268,28.02215],[-15.52745,28.02148],[-15.52797,28.02112],[-15.52951,28.02031],[-15.52986,28.02024],[-15.53052,28.02033],[-15.53173,28.02013],[-15.53262,28.02008],[-15.53321,28.01992],[-15.53348,28.01972],[-15.53405,28.0198],[-15.53447,28.01966],[-15.53522,28.01999],[-15.53617,28.01998],[-15.53668,28.01988],[-15.53722,28.01965],[-15.53795,28.01968],[-15.53874,28.01942],[-15.53906,28.01917],[-15.54003,28.01893],[-15.54061,28.01864],[-15.54068,28.01883],[-15.54088,28.01891],[-15.54143,28.01897],[-15.54205,28.01887],[-15.54308,28.01905],[-15.54333,28.01889],[-15.54358,28.01849],[-15.54383,28.01828],[-15.54472,28.01812],[-15.5465,28.01727],[-15.54775,28.01691],[-15.54934,28.01659],[-15.54959,28.01647],[-15.55107,28.01629],[-15.55166,28.01608],[-15.55526,28.01575],[-15.55569,28.01553],[-15.55585,28.0151],[-15.55619,28.01543],[-15.55686,28.01696],[-15.55724,28.01704],[-15.55814,28.01744],[-15.5585,28.01738],[-15.55879,28.01745],[-15.56016,28.0174],[-15.56045,28.01718],[-15.5606,28.01639],[-15.5608,28.01614],[-15.56135,28.01574],[-15.56209,28.01537],[-15.56261,28.01483],[-15.56332,28.0144],[-15.56659,28.01386],[-15.56776,28.01426],[-15.56811,28.01459],[-15.56788,28.01505],[-15.5677,28.01591],[-15.56714,28.01653],[-15.567,28.01704],[-15.56636,28.01748],[-15.56584,28.01769],[-15.56503,28.01851],[-15.56445,28.0189],[-15.56419,28.01927],[-15.5641,28.01969],[-15.56363,28.02009],[-15.56367,28.02052],[-15.56353,28.02091],[-15.56297,28.02133],[-15.56154,28.02157],[-15.55985,28.02161],[-15.55918,28.02178],[-15.55872,28.02209],[-15.55823,28.02271],[-15.55767,28.02275],[-15.55742,28.02287],[-15.55652,28.02281],[-15.55558,28.02295],[-15.55441,28.02297],[-15.55331,28.02282],[-15.55202,28.0224],[-15.55155,28.02242],[-15.55106,28.02261],[-15.55094,28.02283],[-15.55103,28.02307],[-15.55096,28.02356],[-15.5503,28.02403],[-15.55025,28.02427],[-15.55061,28.02466],[-15.55081,28.02467],[-15.55151,28.02573],[-15.55223,28.02612],[-15.55268,28.02621],[-15.55326,28.02596],[-15.55359,28.0262],[-15.55377,28.02621],[-15.55415,28.02585],[-15.55497,28.02567],[-15.55535,28.02528],[-15.55639,28.02485],[-15.55665,28.02492],[-15.55716,28.02536],[-15.55703,28.02555],[-15.55654,28.02554],[-15.55604,28.02578],[-15.55573,28.02621],[-15.55564,28.02664],[-15.55509,28.02679],[-15.55469,28.02753],[-15.55401,28.02788],[-15.55373,28.02831],[-15.55336,28.02858],[-15.5525,28.02888],[-15.55222,28.02883],[-15.55176,28.02892],[-15.55133,28.02884],[-15.55094,28.02899],[-15.54982,28.02858],[-15.54895,28.02886],[-15.54857,28.02851],[-15.54748,28.02862],[-15.54651,28.02835],[-15.54543,28.02865],[-15.54457,28.02864],[-15.54407,28.02886],[-15.54277,28.02886],[-15.54184,28.02901],[-15.54158,28.02894],[-15.54129,28.02827],[-15.54092,28.02805],[-15.53999,28.02816],[-15.53951,28.02858],[-15.53852,28.02869],[-15.53805,28.02888],[-15.53785,28.02884],[-15.53733,28.02851],[-15.53642,28.02862],[-15.53603,28.02852],[-15.53568,28.02821],[-15.53551,28.02818],[-15.53522,28.02833],[-15.53498,28.02871],[-15.53475,28.02881],[-15.53389,28.02837],[-15.53357,28.02836],[-15.53236,28.02887],[-15.53161,28.02904],[-15.53061,28.02964]]]}},{"type":"Feature","properties":{"id":"3503301006"},"geometry":{"type":"Polygon","coordinates":[[[-15.51328,28.00753],[-15.51349,28.0072],[-15.51384,28.0069],[-15.51384,28.00605],[-15.51418,28.00517],[-15.51454,28.00466],[-15.51625,28.00399],[-15.5177,28.00274],[-15.5186,28.0023],[-15.51923,28.00217],[-15.52048,28.00233],[-15.52095,28.00226],[-15.52336,28.00141],[-15.52402,28.0015],[-15.52463,28.00177],[-15.52514,28.00185],[-15.52592,28.00217],[-15.52657,28.00218],[-15.52691,28.00204],[-15.52767,28.00147],[-15.52869,28.00003],[-15.52958,28.0],[-15.53037,27.99952],[-15.53077,27.99868],[-15.53117,27.9984],[-15.53205,27.99836],[-15.53378,27.99865],[-15.53475,27.99868],[-15.53578,27.99861],[-15.53619,27.9984],[-15.53691,27.99824],[-15.53813,27.99776],[-15.53859,27.99712],[-15.53938,27.99694],[-15.53987,27.99657],[-15.5405,27.99538],[-15.5407,27.99521],[-15.54142,27.99502],[-15.54225,27.99417],[-15.54313,27.99394],[-15.54417,27.9934],[-15.54447,27.99307],[-15.54483,27.99294],[-15.54597,27.99201],[-15.54671,27.99059],[-15.54822,27.98906],[-15.54915,27.98761],[-15.54942,27.98705],[-15.54983,27.98574],[-15.55143,27.98674],[-15.55296,27.98795],[-15.55348,27.98877],[-15.55428,27.98971],[-15.55507,27.99026],[-15.55566,27.99056],[-15.55648,27.99131],[-15.55841,27.9923],[-15.55736,27.9933],[-15.55674,27.99441],[-15.55537,27.99643],[-15.55476,27.99702],[-15.55334,27.9981],[-15.55188,27.99972],[-15.55105,28.00038],[-15.55037,28.0007],[-15.54977,28.00085],[-15.54906,28.00128],[-15.54806,28.00126],[-15.54689,28.00109],[-15.54594,28.00135],[-15.54559,28.00174],[-15.54543,28.00234],[-15.5455,28.00278],[-15.54573,28.00331],[-15.5465,28.00444],[-15.54677,28.00504],[-15.54689,28.00579],[-15.54686,28.00629],[-15.54599,28.00831],[-15.54369,28.00925],[-15.54345,28.00927],[-15.54267,28.00851],[-15.54159,28.00845],[-15.5415,28.00828],[-15.54123,28.00812],[-15.5406,28.00809],[-15.54047,28.00681],[-15.54029,28.00649],[-15.53974,28.006],[-15.53699,28.00719],[-15.53638,28.00698],[-15.53567,28.00708],[-15.53416,28.00705],[-15.53285,28.00639],[-15.53254,28.00638],[-15.53229,28.00679],[-15.53258,28.00735],[-15.53256,28.00752],[-15.53199,28.008],[-15.53181,28.00805],[-15.53134,28.00798],[-15.53089,28.00829],[-15.53047,28.00813],[-15.52977,28.00828],[-15.52957,28.00851],[-15.52986,28.00884],[-15.52957,28.00919],[-15.52922,28.00878],[-15.52906,28.00873],[-15.52876,28.00882],[-15.52846,28.00962],[-15.52847,28.01035],[-15.52834,28.01055],[-15.52816,28.01059],[-15.52793,28.01047],[-15.52768,28.01048],[-15.52743,28.01073],[-15.52677,28.01049],[-15.5265,28.01078],[-15.52606,28.01084],[-15.52588,28.01117],[-15.52542,28.01126],[-15.52349,28.01199],[-15.52336,28.01213],[-15.52317,28.01263],[-15.52226,28.01258],[-15.52242,28.01375],[-15.52235,28.01422],[-15.5222,28.01449],[-15.52222,28.01497],[-15.52258,28.0156],[-15.52248,28.01574],[-15.52202,28.01587],[-15.52214,28.01663],[-15.52193,28.01697],[-15.52163,28.01713],[-15.51882,28.01468],[-15.51853,28.01433],[-15.51793,28.01305],[-15.51537,28.00903],[-15.5144,28.00826],[-15.51328,28.00753]]]}},{"type":"Feature","properties":{"id":"3503301007"},"geometry":{"type":"Polygon","coordinates":[[[-15.52163,28.01713],[-15.52193,28.01697],[-15.52214,28.01663],[-15.52202,28.01587],[-15.52248,28.01574],[-15.52258,28.0156],[-15.52222,28.01497],[-15.5222,28.01449],[-15.52235,28.01422],[-15.52242,28.01375],[-15.52226,28.01258],[-15.52317,28.01263],[-15.52336,28.01213],[-15.52349,28.01199],[-15.52542,28.01126],[-15.52588,28.01117],[-15.52606,28.01084],[-15.5265,28.01078],[-15.52677,28.01049],[-15.52743,28.01073],[-15.52768,28.01048],[-15.52793,28.01047],[-15.52816,28.01059],[-15.52834,28.01055],[-15.52847,28.01035],[-15.52846,28.00962],[-15.52876,28.00882],[-15.52906,28.00873],[-15.52922,28.00878],[-15.52957,28.00919],[-15.52986,28.00884],[-15.52957,28.00851],[-15.52977,28.00828],[-15.53047,28.00813],[-15.53089,28.00829],[-15.53134,28.00798],[-15.53181,28.00805],[-15.53199,28.008],[-15.53256,28.00752],[-15.53258,28.00735],[-15.53229,28.00679],[-15.53254,28.00638],[-15.53285,28.00639],[-15.53416,28.00705],[-15.53567,28.00708],[-15.53638,28.00698],[-15.53699,28.00719],[-15.53827,28.0066],[-15.53748,28.00821],[-15.5372,28.0085],[-15.53687,28.00862],[-15.53531,28.00859],[-15.53486,28.00883],[-15.53457,28.00922],[-15.53431,28.00904],[-15.53406,28.00907],[-15.53309,28.0099],[-15.53036,28.01066],[-15.52852,28.01229],[-15.52887,28.01274],[-15.5294,28.01397],[-15.53012,28.01518],[-15.53041,28.0162],[-15.52962,28.0171],[-15.52784,28.01847],[-15.52603,28.02003],[-15.52591,28.02022],[-15.52603,28.02084],[-15.5247,28.02022],[-15.52425,28.01992],[-15.52345,28.01896],[-15.52283,28.01778],[-15.52163,28.01713]]]}}]}