{"type":"FeatureCollection","features":[{"type":"Feature","properties":{"id":"3601301001"},"geometry":{"type":"Polygon","coordinates":[[[-8.28967,42.32407],[-8.28987,42.32306],[-8.28913,42.32213],[-8.28848,42.322],[-8.28786,42.32152],[-8.28715,42.32142],[-8.28653,42.32039],[-8.28546,42.32031],[-8.28526,42.32008],[-8.28605,42.31874],[-8.28594,42.31832],[-8.28517,42.31764],[-8.28448,42.31744],[-8.28366,42.31766],[-8.2824,42.31652],[-8.28195,42.31645],[-8.28023,42.31717],[-8.27878,42.3176],[-8.27805,42.31751],[-8.27549,42.31624],[-8.2751,42.31495],[-8.27467,42.31474],[-8.27328,42.31441],[-8.27054,42.31448],[-8.26797,42.31504],[-8.26716,42.31481],[-8.26496,42.3154],[-8.26393,42.31549],[-8.2634,42.3154],[-8.26231,42.31496],[-8.26192,42.30889],[-8.26339,42.30473],[-8.26427,42.30294],[-8.26416,42.30217],[-8.26557,42.30108],[-8.26597,42.30044],[-8.26636,42.30017],[-8.26684,42.29876],[-8.26684,42.29182],[-8.26774,42.28726],[-8.26908,42.28474],[-8.27072,42.28299],[-8.27326,42.2824],[-8.27722,42.28299],[-8.27854,42.28302],[-8.27985,42.28328],[-8.28213,42.28231],[-8.28336,42.28201],[-8.28475,42.28142],[-8.28734,42.28053],[-8.2906,42.27871],[-8.29272,42.27438],[-8.29332,42.27232],[-8.29442,42.2697],[-8.2948,42.26843],[-8.29517,42.26774],[-8.29615,42.26665],[-8.29886,42.26435],[-8.3022,42.26222],[-8.30417,42.26128],[-8.30544,42.25687],[-8.30766,42.25551],[-8.30949,42.25476],[-8.31414,42.25354],[-8.31818,42.25129],[-8.32562,42.2482],[-8.32238,42.24433],[-8.32351,42.24293],[-8.32517,42.2378],[-8.32619,42.23553],[-8.32642,42.23456],[-8.32966,42.226],[-8.32756,42.22336],[-8.32683,42.22189],[-8.32576,42.21896],[-8.32669,42.21772],[-8.33092,42.21386],[-8.34598,42.21707],[-8.3637,42.22109],[-8.36483,42.22614],[-8.36945,42.23104],[-8.36839,42.2349],[-8.36746,42.23572],[-8.36634,42.23699],[-8.36613,42.23807],[-8.36485,42.23874],[-8.3646,42.2418],[-8.36479,42.24286],[-8.36286,42.24554],[-8.36103,42.24936],[-8.36056,42.25106],[-8.3607,42.25388],[-8.36293,42.25482],[-8.36552,42.25658],[-8.3683,42.25667],[-8.36951,42.25761],[-8.37344,42.26764],[-8.37194,42.26923],[-8.36984,42.27238],[-8.36662,42.27428],[-8.36398,42.27708],[-8.36307,42.28078],[-8.36179,42.28267],[-8.36143,42.28573],[-8.36152,42.28609],[-8.35971,42.28583],[-8.34972,42.28803],[-8.34836,42.28758],[-8.3489,42.27957],[-8.34024,42.27665],[-8.33896,42.27712],[-8.33756,42.27878],[-8.33778,42.27922],[-8.33732,42.27989],[-8.33624,42.28044],[-8.33572,42.281],[-8.33495,42.28103],[-8.33445,42.28056],[-8.33365,42.28018],[-8.33305,42.2804],[-8.33172,42.28221],[-8.33111,42.28354],[-8.33015,42.2837],[-8.32693,42.28327],[-8.32639,42.28357],[-8.32653,42.28463],[-8.32634,42.28544],[-8.32549,42.28624],[-8.32499,42.28649],[-8.32447,42.28636],[-8.32377,42.28662],[-8.32294,42.28651],[-8.32246,42.2863],[-8.32097,42.2863],[-8.31894,42.28647],[-8.31665,42.28737],[-8.31666,42.2881],[-8.31718,42.28872],[-8.31819,42.28913],[-8.31842,42.28946],[-8.3175,42.29069],[-8.31675,42.29103],[-8.31667,42.29187],[-8.31631,42.2925],[-8.31537,42.29284],[-8.31562,42.29401],[-8.31381,42.29505],[-8.31475,42.29646],[-8.31519,42.29682],[-8.31483,42.29748],[-8.31516,42.29952],[-8.31453,42.29997],[-8.31451,42.30096],[-8.31244,42.30137],[-8.31152,42.30141],[-8.31099,42.30185],[-8.31109,42.30299],[-8.31005,42.30289],[-8.30965,42.30302],[-8.30908,42.30468],[-8.30906,42.30636],[-8.30854,42.30684],[-8.30834,42.30754],[-8.30835,42.30822],[-8.30758,42.30891],[-8.30743,42.31017],[-8.30779,42.31077],[-8.30786,42.3116],[-8.30713,42.31202],[-8.30648,42.31285],[-8.30697,42.3132],[-8.30669,42.31348],[-8.30705,42.31419],[-8.30541,42.31667],[-8.30458,42.31709],[-8.30466,42.31747],[-8.30412,42.31833],[-8.30414,42.31867],[-8.30364,42.31938],[-8.30382,42.32029],[-8.3034,42.32076],[-8.3024,42.32115],[-8.30175,42.32195],[-8.30102,42.32187],[-8.29909,42.32203],[-8.29814,42.32177],[-8.29689,42.32213],[-8.29655,42.32303],[-8.29595,42.32385],[-8.29429,42.32359],[-8.29449,42.32293],[-8.29426,42.32271],[-8.29333,42.32321],[-8.29249,42.32298],[-8.29227,42.32338],[-8.29032,42.32495],[-8.28967,42.32407]]]}},{"type":"Feature","properties":{"id":"3601301003"},"geometry":{"type":"Polygon","coordinates":[[[-8.40981,42.26424],[-8.41045,42.26725],[-8.41027,42.26744],[-8.41026,42.26794],[-8.41084,42.26833],[-8.41205,42.26844],[-8.41249,42.26929],[-8.41402,42.27022],[-8.41309,42.271],[-8.41274,42.27158],[-8.41294,42.27251],[-8.41227,42.27295],[-8.41222,42.27392],[-8.41342,42.27495],[-8.4116,42.27553],[-8.41097,42.27452],[-8.41012,42.27384],[-8.40865,42.27311],[-8.4077,42.27298],[-8.40704,42.27354],[-8.407,42.27407],[-8.40733,42.27465],[-8.40744,42.27522],[-8.40698,42.27561],[-8.40685,42.27682],[-8.40602,42.27772],[-8.40577,42.28219],[-8.4069,42.28332],[-8.40713,42.28406],[-8.40704,42.28546],[-8.40652,42.28612],[-8.40569,42.28785],[-8.40533,42.28896],[-8.40527,42.29013],[-8.40643,42.29171],[-8.40659,42.2922],[-8.40666,42.29272],[-8.40656,42.29457],[-8.40571,42.29524],[-8.40454,42.29672],[-8.40371,42.29749],[-8.40271,42.29911],[-8.39889,42.30057],[-8.39738,42.30182],[-8.39636,42.30339],[-8.39277,42.30781],[-8.39119,42.30945],[-8.38908,42.31258],[-8.38607,42.31621],[-8.38521,42.31743],[-8.38423,42.31796],[-8.38378,42.31839],[-8.38291,42.32074],[-8.38207,42.32108],[-8.38152,42.32116],[-8.3804,42.3234],[-8.37817,42.32526],[-8.37706,42.32547],[-8.3735,42.32413],[-8.36794,42.3266],[-8.36722,42.32462],[-8.36522,42.32493],[-8.36558,42.32406],[-8.36378,42.32337],[-8.35991,42.32439],[-8.35969,42.32452],[-8.35821,42.32344],[-8.35729,42.32227],[-8.35588,42.31776],[-8.35366,42.31581],[-8.35169,42.31072],[-8.35106,42.30823],[-8.35082,42.30656],[-8.34967,42.30395],[-8.34991,42.30188],[-8.35313,42.29868],[-8.3534,42.29827],[-8.3531,42.29768],[-8.35273,42.29727],[-8.3542,42.2972],[-8.36045,42.29828],[-8.36558,42.29461],[-8.36286,42.29161],[-8.36143,42.28573],[-8.36179,42.28267],[-8.36307,42.28078],[-8.36398,42.27708],[-8.36662,42.27428],[-8.36984,42.27238],[-8.37194,42.26923],[-8.37344,42.26764],[-8.36951,42.25761],[-8.3683,42.25667],[-8.36552,42.25658],[-8.36292,42.25487],[-8.36305,42.25428],[-8.3641,42.25307],[-8.36602,42.24776],[-8.37637,42.24507],[-8.37808,42.23893],[-8.38385,42.23412],[-8.39241,42.22729],[-8.39518,42.23061],[-8.39629,42.23265],[-8.39628,42.23329],[-8.39668,42.23377],[-8.39761,42.23543],[-8.40109,42.23755],[-8.4021,42.23765],[-8.40247,42.23804],[-8.40338,42.23832],[-8.40402,42.23862],[-8.40471,42.23967],[-8.40464,42.24014],[-8.40482,42.24044],[-8.40573,42.24065],[-8.4064,42.24058],[-8.40683,42.24027],[-8.40732,42.23971],[-8.40826,42.23926],[-8.40873,42.23936],[-8.40979,42.24053],[-8.40928,42.24104],[-8.4092,42.24175],[-8.41001,42.24289],[-8.40984,42.24425],[-8.40882,42.24468],[-8.40597,42.24647],[-8.40559,42.24802],[-8.40657,42.25161],[-8.40743,42.25212],[-8.40825,42.25495],[-8.4066,42.25612],[-8.40642,42.2565],[-8.4065,42.2569],[-8.40783,42.25911],[-8.40873,42.25977],[-8.40956,42.26116],[-8.40962,42.26155],[-8.4093,42.26234],[-8.40947,42.26308],[-8.40944,42.26369],[-8.40981,42.26424]]]}},{"type":"Feature","properties":{"id":"3601302001"},"geometry":{"type":"MultiPolygon","coordinates":[[[[-8.29032,42.32495],[-8.29227,42.32338],[-8.29249,42.32298],[-8.29333,42.32321],[-8.29426,42.32271],[-8.29449,42.32293],[-8.29429,42.32359],[-8.29595,42.32385],[-8.29655,42.32303],[-8.29689,42.32213],[-8.29814,42.32177],[-8.29909,42.32203],[-8.30102,42.32187],[-8.30175,42.32195],[-8.3024,42.32115],[-8.3034,42.32076],[-8.30382,42.32029],[-8.30364,42.31938],[-8.30414,42.31867],[-8.30412,42.31833],[-8.30466,42.31747],[-8.30458,42.31709],[-8.30541,42.31667],[-8.30705,42.31419],[-8.30669,42.31348],[-8.30697,42.3132],[-8.30648,42.31285],[-8.30713,42.31202],[-8.30786,42.3116],[-8.30779,42.31077],[-8.30743,42.31017],[-8.30758,42.30891],[-8.30835,42.30822],[-8.30834,42.30754],[-8.30854,42.30684],[-8.30906,42.30636],[-8.30908,42.30468],[-8.30965,42.30302],[-8.31005,42.30289],[-8.31109,42.30299],[-8.31099,42.30185],[-8.31152,42.30141],[-8.31244,42.30137],[-8.31451,42.30096],[-8.31453,42.29997],[-8.31516,42.29952],[-8.31483,42.29748],[-8.31519,42.29682],[-8.31475,42.29646],[-8.31381,42.29505],[-8.31562,42.29401],[-8.31537,42.29284],[-8.31631,42.2925],[-8.31667,42.29187],[-8.31675,42.29103],[-8.3175,42.29069],[-8.31842,42.28946],[-8.31819,42.28913],[-8.31718,42.28872],[-8.31666,42.2881],[-8.31665,42.28737],[-8.31894,42.28647],[-8.32097,42.2863],[-8.32246,42.2863],[-8.32294,42.28651],[-8.32377,42.28662],[-8.32447,42.28636],[-8.32499,42.28649],[-8.32549,42.28624],[-8.32634,42.28544],[-8.32653,42.28463],[-8.32639,42.28357],[-8.32693,42.28327],[-8.33015,42.2837],[-8.33111,42.28354],[-8.33172,42.28221],[-8.33305,42.2804],[-8.33365,42.28018],[-8.33445,42.28056],[-8.33495,42.28103],[-8.33572,42.281],[-8.33624,42.28044],[-8.33732,42.27989],[-8.33778,42.27922],[-8.33756,42.27878],[-8.33896,42.27712],[-8.34024,42.27665],[-8.3489,42.27957],[-8.34836,42.28758],[-8.34972,42.28803],[-8.35971,42.28583],[-8.36152,42.28609],[-8.36286,42.29161],[-8.36558,42.29461],[-8.36045,42.29828],[-8.3542,42.2972],[-8.35273,42.29727],[-8.3531,42.29768],[-8.3534,42.29827],[-8.35313,42.29868],[-8.34991,42.30188],[-8.34967,42.30395],[-8.35082,42.30656],[-8.35106,42.30823],[-8.35169,42.31072],[-8.35366,42.31581],[-8.35588,42.31776],[-8.35729,42.32227],[-8.35821,42.32344],[-8.35969,42.32452],[-8.35567,42.32683],[-8.35048,42.32864],[-8.34598,42.32969],[-8.33687,42.33345],[-8.33481,42.33764],[-8.33329,42.33843],[-8.33067,42.34487],[-8.32573,42.34951],[-8.32506,42.34503],[-8.3171,42.34341],[-8.31157,42.34378],[-8.30941,42.34161],[-8.3056,42.33997],[-8.3039,42.33655],[-8.30334,42.33493],[-8.3007,42.33344],[-8.29854,42.33238],[-8.29615,42.33066],[-8.29181,42.32698],[-8.29032,42.32495]]],[[[-8.33034,42.20295],[-8.33555,42.20022],[-8.33957,42.19887],[-8.34175,42.19188],[-8.34437,42.19019],[-8.34654,42.18906],[-8.34715,42.18805],[-8.3474,42.18676],[-8.3503,42.183],[-8.35225,42.18781],[-8.35256,42.1883],[-8.35505,42.18899],[-8.3582,42.19003],[-8.35853,42.19036],[-8.3587,42.19098],[-8.35879,42.19249],[-8.35928,42.19285],[-8.36189,42.193],[-8.36239,42.19347],[-8.36254,42.19451],[-8.36284,42.19494],[-8.36349,42.19526],[-8.36575,42.19607],[-8.3664,42.19602],[-8.36982,42.19672],[-8.37022,42.197],[-8.371,42.19719],[-8.37177,42.19857],[-8.37367,42.19409],[-8.37419,42.19379],[-8.37997,42.19291],[-8.38424,42.19044],[-8.38726,42.18925],[-8.38904,42.19126],[-8.39313,42.19534],[-8.39737,42.19848],[-8.40268,42.20124],[-8.40295,42.20208],[-8.4016,42.20861],[-8.39644,42.212],[-8.39527,42.21899],[-8.39522,42.22017],[-8.39165,42.22638],[-8.39241,42.22729],[-8.38385,42.23412],[-8.37808,42.23893],[-8.37637,42.24507],[-8.36602,42.24776],[-8.3641,42.25307],[-8.36305,42.25428],[-8.36293,42.25482],[-8.3607,42.25388],[-8.36056,42.25106],[-8.36103,42.24936],[-8.36286,42.24554],[-8.36479,42.24286],[-8.3646,42.2418],[-8.36485,42.23874],[-8.36613,42.23807],[-8.36634,42.23699],[-8.36746,42.23572],[-8.36839,42.2349],[-8.36945,42.23104],[-8.36483,42.22614],[-8.3637,42.22109],[-8.34598,42.21707],[-8.33092,42.21386],[-8.3323,42.2126],[-8.33066,42.2101],[-8.32943,42.20867],[-8.32955,42.20774],[-8.32995,42.20689],[-8.32958,42.20631],[-8.32988,42.20586],[-8.3302,42.20427],[-8.33034,42.20295]]]]}}]}