{"type":"FeatureCollection","features":[{"type":"Feature","properties":{"id":"3602901001"},"geometry":{"type":"Polygon","coordinates":[[[-8.73625,42.28226],[-8.73602,42.28217],[-8.73648,42.28149],[-8.73642,42.28124],[-8.73652,42.28091],[-8.73638,42.28029],[-8.73657,42.28029],[-8.73654,42.28008],[-8.73676,42.28006],[-8.73626,42.27855],[-8.73605,42.27856],[-8.73601,42.27828],[-8.7362,42.27824],[-8.73619,42.27717],[-8.73666,42.27725],[-8.73687,42.27745],[-8.73709,42.27748],[-8.7378,42.27723],[-8.73816,42.27768],[-8.73887,42.27739],[-8.73885,42.27748],[-8.73902,42.27754],[-8.73907,42.27748],[-8.73947,42.27766],[-8.73931,42.27793],[-8.73972,42.27817],[-8.73961,42.27825],[-8.73971,42.27838],[-8.73939,42.27861],[-8.74026,42.27885],[-8.74019,42.27932],[-8.73969,42.27981],[-8.73934,42.2799],[-8.73863,42.28033],[-8.73847,42.28027],[-8.73802,42.28087],[-8.73773,42.28082],[-8.73769,42.28099],[-8.73699,42.2817],[-8.73677,42.28213],[-8.73629,42.28207],[-8.73625,42.28226]]]}},{"type":"Feature","properties":{"id":"3602901002"},"geometry":{"type":"Polygon","coordinates":[[[-8.73816,42.28246],[-8.7383,42.28257],[-8.73839,42.28287],[-8.7384,42.28345],[-8.74015,42.28375],[-8.74064,42.28399],[-8.74112,42.28391],[-8.74097,42.2845],[-8.74113,42.28494],[-8.74093,42.28506],[-8.74098,42.28585],[-8.74133,42.28656],[-8.74142,42.28764],[-8.74247,42.28853],[-8.74281,42.28902],[-8.74406,42.28972],[-8.74381,42.2898],[-8.74258,42.2898],[-8.74218,42.28968],[-8.74041,42.28869],[-8.73956,42.2884],[-8.73852,42.2884],[-8.73806,42.28826],[-8.73699,42.28748],[-8.73573,42.28688],[-8.7338,42.28677],[-8.73324,42.28636],[-8.73208,42.28682],[-8.73272,42.28634],[-8.73409,42.28475],[-8.73494,42.284],[-8.73602,42.28217],[-8.73625,42.28226],[-8.73629,42.28207],[-8.73678,42.28212],[-8.73701,42.28243],[-8.73775,42.2826],[-8.73816,42.28246]]]}},{"type":"Feature","properties":{"id":"3602901003"},"geometry":{"type":"Polygon","coordinates":[[[-8.74032,42.2775],[-8.74072,42.27789],[-8.74113,42.27804],[-8.74161,42.27847],[-8.74201,42.27812],[-8.74275,42.27803],[-8.74364,42.27929],[-8.74317,42.27951],[-8.74255,42.28086],[-8.74217,42.28113],[-8.74219,42.2813],[-8.74261,42.28135],[-8.74265,42.28155],[-8.74265,42.28196],[-8.74238,42.28209],[-8.74226,42.28292],[-8.74112,42.28391],[-8.74064,42.28399],[-8.74015,42.28375],[-8.7384,42.28345],[-8.73839,42.28287],[-8.73821,42.28249],[-8.73775,42.2826],[-8.73755,42.28257],[-8.73701,42.28243],[-8.73678,42.28212],[-8.73699,42.2817],[-8.73769,42.28099],[-8.73773,42.28082],[-8.73802,42.28087],[-8.73847,42.28027],[-8.73863,42.28033],[-8.73934,42.2799],[-8.73969,42.27981],[-8.74019,42.27932],[-8.74026,42.27885],[-8.73939,42.27861],[-8.73971,42.27838],[-8.73961,42.27825],[-8.73972,42.27817],[-8.73931,42.27793],[-8.73945,42.2777],[-8.74032,42.2775]]]}},{"type":"Feature","properties":{"id":"3602901004"},"geometry":{"type":"Polygon","coordinates":[[[-8.75036,42.27778],[-8.75219,42.27833],[-8.75347,42.27682],[-8.75416,42.27571],[-8.7547,42.27507],[-8.75588,42.27311],[-8.75702,42.2717],[-8.75758,42.27123],[-8.75907,42.27161],[-8.76004,42.27222],[-8.76146,42.27726],[-8.76292,42.28468],[-8.76309,42.29075],[-8.76238,42.29229],[-8.76248,42.2927],[-8.76,42.29535],[-8.75885,42.29643],[-8.75655,42.29816],[-8.75494,42.30129],[-8.75439,42.30132],[-8.75386,42.30106],[-8.75137,42.30038],[-8.74829,42.29932],[-8.7477,42.29759],[-8.74707,42.29425],[-8.74598,42.29288],[-8.74544,42.29251],[-8.74487,42.29172],[-8.74461,42.29155],[-8.74431,42.29069],[-8.74444,42.29026],[-8.74425,42.29012],[-8.74422,42.28966],[-8.74406,42.28972],[-8.74281,42.28902],[-8.74247,42.28853],[-8.74142,42.28764],[-8.74133,42.28656],[-8.74098,42.28585],[-8.74093,42.28506],[-8.74113,42.28494],[-8.74097,42.2845],[-8.74112,42.28391],[-8.74226,42.28292],[-8.74238,42.28209],[-8.74265,42.28196],[-8.74265,42.28155],[-8.74261,42.28135],[-8.74219,42.2813],[-8.74217,42.28113],[-8.74255,42.28086],[-8.74317,42.27951],[-8.74364,42.27929],[-8.74444,42.27951],[-8.74528,42.27996],[-8.74552,42.27994],[-8.74581,42.28007],[-8.74596,42.2803],[-8.74664,42.28026],[-8.74693,42.28017],[-8.74774,42.27959],[-8.74793,42.27921],[-8.74868,42.27921],[-8.74934,42.2785],[-8.75036,42.27778]]]}},{"type":"Feature","properties":{"id":"3602901005"},"geometry":{"type":"Polygon","coordinates":[[[-8.74267,42.29553],[-8.74017,42.29502],[-8.73925,42.29628],[-8.73826,42.29628],[-8.73674,42.29547],[-8.7364,42.29541],[-8.73606,42.29566],[-8.73587,42.295],[-8.73446,42.29434],[-8.73228,42.2941],[-8.73206,42.29414],[-8.73172,42.29461],[-8.73153,42.29472],[-8.72993,42.29525],[-8.72975,42.29492],[-8.72974,42.29464],[-8.73005,42.29144],[-8.73033,42.29119],[-8.7306,42.29017],[-8.7304,42.28976],[-8.73048,42.2892],[-8.73115,42.28836],[-8.73128,42.28798],[-8.7318,42.28776],[-8.73185,42.2876],[-8.73148,42.28695],[-8.73202,42.28686],[-8.73324,42.28636],[-8.7338,42.28677],[-8.73573,42.28688],[-8.73699,42.28748],[-8.73806,42.28826],[-8.73852,42.2884],[-8.73956,42.2884],[-8.74041,42.28869],[-8.74218,42.28968],[-8.74258,42.2898],[-8.7433,42.28981],[-8.74381,42.2898],[-8.74422,42.28966],[-8.74425,42.29012],[-8.74444,42.29026],[-8.74431,42.29069],[-8.74461,42.29155],[-8.74487,42.29172],[-8.74544,42.29251],[-8.74598,42.29288],[-8.74717,42.29446],[-8.74789,42.29821],[-8.74507,42.29746],[-8.74323,42.29685],[-8.74267,42.29553]]]}},{"type":"Feature","properties":{"id":"3602901006"},"geometry":{"type":"Polygon","coordinates":[[[-8.73595,42.31793],[-8.7348,42.31768],[-8.73328,42.31803],[-8.73307,42.31736],[-8.73314,42.31595],[-8.73355,42.31354],[-8.73345,42.31239],[-8.73351,42.31176],[-8.73298,42.31003],[-8.73105,42.30834],[-8.73164,42.30744],[-8.73167,42.30714],[-8.73347,42.30605],[-8.73406,42.30624],[-8.73555,42.30605],[-8.73587,42.30647],[-8.73612,42.30637],[-8.73617,42.30497],[-8.73644,42.30309],[-8.73645,42.30166],[-8.73666,42.30056],[-8.73667,42.29982],[-8.73683,42.29957],[-8.7368,42.29926],[-8.7361,42.29871],[-8.73579,42.29769],[-8.73566,42.29685],[-8.73587,42.29591],[-8.7364,42.29541],[-8.73674,42.29547],[-8.73826,42.29628],[-8.73925,42.29628],[-8.74017,42.29502],[-8.74267,42.29553],[-8.74323,42.29685],[-8.74507,42.29746],[-8.74789,42.29821],[-8.74829,42.29932],[-8.75137,42.30038],[-8.75386,42.30106],[-8.75439,42.30132],[-8.75494,42.30129],[-8.75381,42.30351],[-8.75487,42.30389],[-8.75586,42.30766],[-8.75235,42.3106],[-8.75058,42.31183],[-8.75019,42.31287],[-8.74594,42.31418],[-8.73828,42.31991],[-8.73595,42.31793]]]}},{"type":"Feature","properties":{"id":"3602901007"},"geometry":{"type":"Polygon","coordinates":[[[-8.73612,42.30637],[-8.73587,42.30647],[-8.73555,42.30605],[-8.73406,42.30624],[-8.73347,42.30605],[-8.73167,42.30714],[-8.73164,42.30744],[-8.73105,42.30834],[-8.73298,42.31003],[-8.73351,42.31176],[-8.73345,42.31239],[-8.73355,42.31354],[-8.73314,42.31595],[-8.73307,42.31736],[-8.73328,42.31803],[-8.72901,42.31901],[-8.72894,42.32038],[-8.7218,42.32964],[-8.71974,42.33166],[-8.7188,42.33202],[-8.71432,42.33268],[-8.70762,42.33316],[-8.70325,42.33232],[-8.70335,42.33172],[-8.70492,42.32952],[-8.70603,42.32839],[-8.70827,42.32653],[-8.70841,42.32621],[-8.71002,42.32493],[-8.71292,42.32297],[-8.71408,42.32195],[-8.71675,42.32035],[-8.71814,42.31938],[-8.71915,42.31841],[-8.72064,42.31613],[-8.72191,42.31351],[-8.72277,42.31081],[-8.72279,42.31044],[-8.72299,42.31008],[-8.72302,42.30971],[-8.72344,42.30882],[-8.72496,42.30677],[-8.72506,42.3065],[-8.72556,42.30595],[-8.72687,42.30384],[-8.72769,42.30151],[-8.72799,42.301],[-8.72818,42.30026],[-8.72841,42.29973],[-8.72899,42.29897],[-8.72911,42.29742],[-8.72978,42.29643],[-8.72993,42.29525],[-8.73153,42.29472],[-8.73172,42.29461],[-8.73206,42.29414],[-8.73228,42.2941],[-8.73446,42.29434],[-8.73587,42.295],[-8.73603,42.29533],[-8.73607,42.29565],[-8.73587,42.29591],[-8.73568,42.29658],[-8.73579,42.29769],[-8.7361,42.29871],[-8.7368,42.29926],[-8.73683,42.29957],[-8.73667,42.29982],[-8.73666,42.30056],[-8.73645,42.30166],[-8.73644,42.30309],[-8.73617,42.30497],[-8.73612,42.30637]]]}},{"type":"Feature","properties":{"id":"3602902001"},"geometry":{"type":"Polygon","coordinates":[[[-8.73731,42.2748],[-8.7394,42.27403],[-8.73955,42.27433],[-8.74001,42.27419],[-8.74031,42.27449],[-8.73946,42.2752],[-8.73904,42.27645],[-8.73908,42.27694],[-8.73886,42.27709],[-8.73839,42.27683],[-8.73808,42.27719],[-8.73732,42.27745],[-8.73687,42.27745],[-8.73666,42.27725],[-8.73619,42.27717],[-8.73623,42.27662],[-8.73649,42.27599],[-8.73679,42.27601],[-8.73701,42.27567],[-8.73688,42.27559],[-8.73731,42.2748]]]}},{"type":"Feature","properties":{"id":"3602902002"},"geometry":{"type":"Polygon","coordinates":[[[-8.74905,42.27881],[-8.74859,42.27815],[-8.7475,42.2777],[-8.74702,42.27766],[-8.74698,42.27637],[-8.74719,42.27553],[-8.74748,42.27492],[-8.7475,42.27327],[-8.74615,42.27129],[-8.74552,42.27078],[-8.74476,42.2699],[-8.74589,42.26947],[-8.74726,42.26937],[-8.74876,42.26883],[-8.74943,42.26879],[-8.74955,42.26871],[-8.74943,42.26856],[-8.74949,42.26845],[-8.75023,42.26841],[-8.75233,42.26776],[-8.75309,42.26713],[-8.75338,42.26629],[-8.75295,42.2661],[-8.75296,42.26597],[-8.75192,42.26567],[-8.75197,42.26558],[-8.753,42.26584],[-8.75353,42.26504],[-8.75394,42.26482],[-8.75372,42.26444],[-8.75386,42.26428],[-8.75455,42.26412],[-8.75509,42.26326],[-8.75573,42.26323],[-8.75601,42.26296],[-8.75629,42.26288],[-8.75764,42.26277],[-8.75788,42.26237],[-8.75863,42.26236],[-8.75905,42.26219],[-8.7593,42.263],[-8.76029,42.26427],[-8.76006,42.26453],[-8.76026,42.26495],[-8.76019,42.26575],[-8.76052,42.26643],[-8.76016,42.26661],[-8.76052,42.26741],[-8.7605,42.26772],[-8.76064,42.26803],[-8.76063,42.26819],[-8.76044,42.26839],[-8.76046,42.2688],[-8.76027,42.26918],[-8.76033,42.26955],[-8.75967,42.26983],[-8.75979,42.27003],[-8.75936,42.27175],[-8.7585,42.27144],[-8.75758,42.27123],[-8.75702,42.2717],[-8.75588,42.27311],[-8.7547,42.27507],[-8.75416,42.27571],[-8.75347,42.27682],[-8.75219,42.27833],[-8.75036,42.27778],[-8.74934,42.2785],[-8.74905,42.27881]]]}},{"type":"Feature","properties":{"id":"3602902003"},"geometry":{"type":"Polygon","coordinates":[[[-8.74698,42.27637],[-8.74702,42.27766],[-8.7475,42.2777],[-8.74859,42.27815],[-8.74905,42.27881],[-8.74868,42.27921],[-8.74793,42.27921],[-8.74774,42.27959],[-8.74693,42.28017],[-8.74664,42.28026],[-8.74596,42.2803],[-8.74581,42.28007],[-8.74552,42.27994],[-8.74528,42.27996],[-8.74444,42.27951],[-8.74364,42.27929],[-8.74275,42.27803],[-8.74201,42.27812],[-8.74161,42.27847],[-8.74113,42.27804],[-8.74072,42.27789],[-8.74032,42.2775],[-8.73945,42.2777],[-8.73907,42.27748],[-8.73902,42.27754],[-8.73885,42.27748],[-8.73887,42.27739],[-8.73816,42.27768],[-8.73784,42.27728],[-8.73808,42.27719],[-8.73839,42.27683],[-8.73886,42.27709],[-8.73915,42.27687],[-8.73904,42.27645],[-8.73946,42.2752],[-8.74031,42.27449],[-8.74001,42.27419],[-8.73955,42.27433],[-8.7394,42.27403],[-8.73731,42.2748],[-8.73709,42.27508],[-8.73688,42.27559],[-8.73701,42.27567],[-8.73679,42.27601],[-8.73649,42.27599],[-8.73664,42.27562],[-8.73535,42.27485],[-8.7355,42.27469],[-8.73682,42.27531],[-8.73731,42.27452],[-8.73967,42.27365],[-8.74042,42.27291],[-8.74071,42.27239],[-8.74043,42.27232],[-8.74047,42.27203],[-8.74079,42.27208],[-8.74077,42.27132],[-8.73887,42.27088],[-8.73849,42.27101],[-8.73841,42.27093],[-8.73882,42.27073],[-8.73976,42.27097],[-8.74103,42.27095],[-8.74274,42.27076],[-8.74338,42.27051],[-8.74373,42.27019],[-8.74401,42.27008],[-8.74454,42.27003],[-8.74476,42.2699],[-8.74552,42.27078],[-8.74615,42.27129],[-8.7475,42.27327],[-8.74748,42.27492],[-8.74719,42.27553],[-8.74698,42.27637]]]}},{"type":"Feature","properties":{"id":"3602903001"},"geometry":{"type":"Polygon","coordinates":[[[-8.71926,42.29084],[-8.7189,42.28984],[-8.71859,42.28969],[-8.71795,42.28974],[-8.71734,42.28937],[-8.71674,42.28869],[-8.71672,42.28837],[-8.71615,42.28722],[-8.71523,42.28612],[-8.71514,42.28557],[-8.71471,42.28494],[-8.71349,42.28406],[-8.71364,42.28333],[-8.71318,42.28234],[-8.71289,42.282],[-8.71252,42.28183],[-8.71142,42.28154],[-8.7108,42.28053],[-8.71012,42.28041],[-8.70973,42.28059],[-8.70861,42.2814],[-8.70507,42.28278],[-8.70469,42.28279],[-8.70369,42.28242],[-8.70225,42.2828],[-8.70146,42.28343],[-8.70097,42.28351],[-8.69943,42.28317],[-8.69782,42.28254],[-8.69576,42.28104],[-8.69494,42.27938],[-8.69547,42.2795],[-8.69589,42.27936],[-8.69595,42.27885],[-8.69612,42.27881],[-8.69644,42.27892],[-8.69643,42.27946],[-8.69627,42.27965],[-8.69662,42.28018],[-8.69716,42.28059],[-8.69932,42.28178],[-8.70007,42.28205],[-8.70116,42.28213],[-8.70117,42.2818],[-8.70132,42.28177],[-8.70139,42.28211],[-8.70196,42.28201],[-8.70207,42.28189],[-8.70179,42.28157],[-8.70186,42.28152],[-8.70217,42.28176],[-8.70258,42.28164],[-8.70284,42.28105],[-8.70376,42.27995],[-8.70249,42.27911],[-8.70265,42.27895],[-8.70387,42.27978],[-8.70423,42.27951],[-8.70414,42.27943],[-8.70428,42.2793],[-8.70483,42.27968],[-8.70499,42.27956],[-8.70379,42.27874],[-8.70403,42.27845],[-8.70606,42.27963],[-8.70634,42.27945],[-8.70629,42.27931],[-8.70784,42.278],[-8.70788,42.27755],[-8.7073,42.27725],[-8.70738,42.27715],[-8.70804,42.27736],[-8.70844,42.27699],[-8.70903,42.27723],[-8.70966,42.27716],[-8.70987,42.27723],[-8.71039,42.27697],[-8.71069,42.27693],[-8.71083,42.27666],[-8.71172,42.27669],[-8.71202,42.27609],[-8.71167,42.27589],[-8.71175,42.27581],[-8.71218,42.27599],[-8.71267,42.27553],[-8.71292,42.27562],[-8.71313,42.27533],[-8.71326,42.27538],[-8.7131,42.2757],[-8.71323,42.27578],[-8.71285,42.27644],[-8.71303,42.27682],[-8.71329,42.2769],[-8.71339,42.27704],[-8.71316,42.27743],[-8.71329,42.27794],[-8.71296,42.27833],[-8.71304,42.27865],[-8.71323,42.27883],[-8.71326,42.27919],[-8.71391,42.27953],[-8.714,42.27967],[-8.71436,42.27955],[-8.71443,42.27965],[-8.71415,42.27981],[-8.71415,42.28025],[-8.71456,42.28044],[-8.71425,42.281],[-8.71436,42.28115],[-8.7143,42.28181],[-8.71495,42.28332],[-8.71495,42.28398],[-8.716,42.28538],[-8.71632,42.28627],[-8.7171,42.28666],[-8.71722,42.28702],[-8.71714,42.28766],[-8.71785,42.2887],[-8.71832,42.2888],[-8.71896,42.28914],[-8.7192,42.289],[-8.71934,42.28873],[-8.72087,42.28735],[-8.72112,42.28691],[-8.72137,42.28573],[-8.72134,42.28507],[-8.72063,42.28445],[-8.72043,42.28412],[-8.72013,42.28394],[-8.71981,42.28329],[-8.72008,42.28315],[-8.72028,42.28338],[-8.7205,42.28341],[-8.72095,42.28324],[-8.72098,42.28312],[-8.72075,42.28268],[-8.72086,42.28263],[-8.72142,42.28306],[-8.72169,42.28394],[-8.72167,42.28519],[-8.72323,42.28552],[-8.72381,42.28556],[-8.72413,42.28543],[-8.72438,42.28549],[-8.72456,42.28575],[-8.72488,42.28588],[-8.72452,42.28712],[-8.72434,42.28705],[-8.72428,42.28719],[-8.7244,42.28758],[-8.72473,42.28772],[-8.72514,42.28808],[-8.72515,42.28862],[-8.72507,42.28888],[-8.72494,42.2889],[-8.72477,42.28874],[-8.72461,42.28876],[-8.72366,42.28914],[-8.72395,42.28985],[-8.7228,42.29015],[-8.72209,42.28982],[-8.72173,42.28987],[-8.72133,42.29011],[-8.72082,42.29015],[-8.72077,42.29032],[-8.7201,42.29054],[-8.72006,42.29077],[-8.71928,42.29116],[-8.71926,42.29084]]]}},{"type":"Feature","properties":{"id":"3602903002"},"geometry":{"type":"Polygon","coordinates":[[[-8.70427,42.29532],[-8.70225,42.29266],[-8.70087,42.29024],[-8.69979,42.28883],[-8.6961,42.28197],[-8.69576,42.28104],[-8.69782,42.28254],[-8.69943,42.28317],[-8.70097,42.28351],[-8.70146,42.28343],[-8.70225,42.2828],[-8.70369,42.28242],[-8.70469,42.28279],[-8.70507,42.28278],[-8.70861,42.2814],[-8.70973,42.28059],[-8.71012,42.28041],[-8.7108,42.28053],[-8.71142,42.28154],[-8.71252,42.28183],[-8.71289,42.282],[-8.71318,42.28234],[-8.71364,42.28333],[-8.71349,42.28406],[-8.71471,42.28494],[-8.71514,42.28557],[-8.71523,42.28612],[-8.71615,42.28722],[-8.71672,42.28837],[-8.71674,42.28869],[-8.71734,42.28937],[-8.71795,42.28974],[-8.71859,42.28969],[-8.7189,42.28984],[-8.71928,42.29116],[-8.71868,42.29124],[-8.71804,42.29119],[-8.7176,42.2914],[-8.71708,42.29201],[-8.71689,42.29242],[-8.71616,42.29233],[-8.71595,42.29205],[-8.71501,42.29315],[-8.71352,42.29425],[-8.70941,42.29637],[-8.70797,42.29694],[-8.70596,42.29794],[-8.70543,42.29692],[-8.70477,42.29617],[-8.70427,42.29532]]]}},{"type":"Feature","properties":{"id":"3602903003"},"geometry":{"type":"Polygon","coordinates":[[[-8.72209,42.28982],[-8.7228,42.29015],[-8.72395,42.28985],[-8.72366,42.28914],[-8.72461,42.28876],[-8.72477,42.28874],[-8.72494,42.2889],[-8.72507,42.28888],[-8.72514,42.28808],[-8.72473,42.28772],[-8.7244,42.28758],[-8.72428,42.28719],[-8.72434,42.28705],[-8.72452,42.28712],[-8.72488,42.28588],[-8.72745,42.28618],[-8.72876,42.28583],[-8.72948,42.28553],[-8.72995,42.28563],[-8.73036,42.2856],[-8.7306,42.28576],[-8.73053,42.28584],[-8.72982,42.28593],[-8.72949,42.28625],[-8.72951,42.28644],[-8.72975,42.28663],[-8.73042,42.28686],[-8.73148,42.28695],[-8.73166,42.2872],[-8.73185,42.2876],[-8.7318,42.28776],[-8.73128,42.28798],[-8.73115,42.28836],[-8.73048,42.2892],[-8.7304,42.28976],[-8.7306,42.29017],[-8.73033,42.29119],[-8.73005,42.29144],[-8.72995,42.29224],[-8.72974,42.29464],[-8.72975,42.29492],[-8.72993,42.29525],[-8.72978,42.29643],[-8.72911,42.29742],[-8.72899,42.29897],[-8.72841,42.29973],[-8.72818,42.30026],[-8.72799,42.301],[-8.72769,42.30151],[-8.72687,42.30384],[-8.72556,42.30595],[-8.72506,42.3065],[-8.72496,42.30677],[-8.72344,42.30882],[-8.72302,42.30971],[-8.72299,42.31008],[-8.72279,42.31044],[-8.72277,42.31081],[-8.72191,42.31351],[-8.72064,42.31613],[-8.71915,42.31841],[-8.71814,42.31938],[-8.71675,42.32035],[-8.71408,42.32195],[-8.71292,42.32297],[-8.71002,42.32493],[-8.70841,42.32621],[-8.70827,42.32653],[-8.70603,42.32839],[-8.70492,42.32952],[-8.70335,42.33172],[-8.70325,42.33232],[-8.70222,42.33212],[-8.6979,42.33081],[-8.69538,42.32979],[-8.6952,42.32981],[-8.69594,42.32902],[-8.6996,42.32616],[-8.70302,42.32266],[-8.70515,42.32108],[-8.70581,42.32041],[-8.7062,42.31995],[-8.70803,42.31705],[-8.7093,42.31422],[-8.70981,42.3123],[-8.70996,42.31059],[-8.70966,42.30927],[-8.7088,42.30766],[-8.70864,42.30642],[-8.70806,42.30471],[-8.70638,42.30052],[-8.70596,42.29794],[-8.70797,42.29694],[-8.70941,42.29637],[-8.71352,42.29425],[-8.71501,42.29315],[-8.71595,42.29205],[-8.71616,42.29233],[-8.71689,42.29242],[-8.71708,42.29201],[-8.7176,42.2914],[-8.71804,42.29119],[-8.71868,42.29124],[-8.71928,42.29116],[-8.72006,42.29077],[-8.7201,42.29054],[-8.72077,42.29032],[-8.72082,42.29015],[-8.72133,42.29011],[-8.72173,42.28987],[-8.72209,42.28982]]]}},{"type":"Feature","properties":{"id":"3602903004"},"geometry":{"type":"Polygon","coordinates":[[[-8.68228,42.28569],[-8.68282,42.28489],[-8.68317,42.28483],[-8.68311,42.285],[-8.68325,42.28518],[-8.6835,42.28522],[-8.68414,42.28496],[-8.68433,42.28454],[-8.68419,42.28419],[-8.68333,42.28408],[-8.68336,42.28401],[-8.68434,42.28412],[-8.68427,42.28398],[-8.68503,42.28342],[-8.68538,42.28249],[-8.68619,42.28255],[-8.68705,42.28177],[-8.68903,42.28138],[-8.68923,42.2811],[-8.68924,42.28091],[-8.69022,42.27998],[-8.69195,42.27967],[-8.69376,42.27918],[-8.69451,42.27943],[-8.69494,42.27938],[-8.69576,42.28105],[-8.6961,42.28197],[-8.69979,42.28883],[-8.70087,42.29024],[-8.70225,42.29266],[-8.70285,42.29349],[-8.70261,42.29323],[-8.69976,42.29226],[-8.69812,42.29199],[-8.69395,42.29171],[-8.6917,42.29107],[-8.68937,42.2907],[-8.68639,42.28995],[-8.68518,42.28954],[-8.68466,42.28875],[-8.68211,42.28716],[-8.68104,42.28631],[-8.6816,42.28587],[-8.68228,42.28569]]]}},{"type":"Feature","properties":{"id":"3602903005"},"geometry":{"type":"Polygon","coordinates":[[[-8.68104,42.28631],[-8.68211,42.28716],[-8.68466,42.28875],[-8.68518,42.28954],[-8.68639,42.28995],[-8.68937,42.2907],[-8.6917,42.29107],[-8.69395,42.29171],[-8.69812,42.29199],[-8.69976,42.29226],[-8.70261,42.29323],[-8.70427,42.29532],[-8.70477,42.29617],[-8.70543,42.29692],[-8.70595,42.2978],[-8.70638,42.30052],[-8.70806,42.30471],[-8.70864,42.30642],[-8.7088,42.30766],[-8.70966,42.30927],[-8.70996,42.31059],[-8.70981,42.3123],[-8.7093,42.31422],[-8.70803,42.31705],[-8.7062,42.31995],[-8.70581,42.32041],[-8.70515,42.32108],[-8.70302,42.32266],[-8.6996,42.32616],[-8.69594,42.32902],[-8.6952,42.32981],[-8.68919,42.33056],[-8.68893,42.3289],[-8.68807,42.32742],[-8.6878,42.32496],[-8.68649,42.3222],[-8.68362,42.31816],[-8.6808,42.31529],[-8.67916,42.31323],[-8.67752,42.30968],[-8.67425,42.30732],[-8.67174,42.30498],[-8.6707,42.30276],[-8.66902,42.30085],[-8.66262,42.2977],[-8.66304,42.29647],[-8.65928,42.29142],[-8.66031,42.29092],[-8.66112,42.29072],[-8.66154,42.29052],[-8.6619,42.2906],[-8.66268,42.29049],[-8.66316,42.29075],[-8.66329,42.29098],[-8.66353,42.29099],[-8.66367,42.29079],[-8.66393,42.29081],[-8.66392,42.29094],[-8.66424,42.29112],[-8.66477,42.29108],[-8.66479,42.29116],[-8.66444,42.29119],[-8.66442,42.29125],[-8.66481,42.29127],[-8.66529,42.29116],[-8.66534,42.29124],[-8.66565,42.29116],[-8.66561,42.29095],[-8.6657,42.29095],[-8.66572,42.29118],[-8.66712,42.2916],[-8.66782,42.29139],[-8.66782,42.29106],[-8.66801,42.2908],[-8.66772,42.29058],[-8.66779,42.29053],[-8.66834,42.29082],[-8.66938,42.2904],[-8.66984,42.29061],[-8.67039,42.29052],[-8.67085,42.29063],[-8.67215,42.29104],[-8.67258,42.291],[-8.67276,42.29081],[-8.67311,42.29084],[-8.67314,42.29104],[-8.67354,42.29124],[-8.67388,42.29115],[-8.67453,42.2912],[-8.67514,42.2909],[-8.67656,42.29065],[-8.67712,42.29066],[-8.67778,42.29033],[-8.67825,42.2903],[-8.67898,42.28877],[-8.68001,42.28789],[-8.68005,42.28707],[-8.68104,42.28631]]]}}]}