{"type":"FeatureCollection","features":[{"type":"Feature","properties":{"id":"3602801001"},"geometry":{"type":"Polygon","coordinates":[[[-8.76212,42.48955],[-8.75799,42.49208],[-8.75795,42.4927],[-8.75764,42.49269],[-8.75741,42.49223],[-8.75694,42.49206],[-8.75634,42.49161],[-8.75596,42.49118],[-8.75568,42.49135],[-8.75499,42.49133],[-8.75455,42.4916],[-8.75431,42.49153],[-8.7541,42.49166],[-8.75342,42.49162],[-8.75328,42.4914],[-8.75245,42.49135],[-8.75203,42.4912],[-8.75169,42.49023],[-8.75245,42.48983],[-8.75261,42.4896],[-8.752,42.48891],[-8.75192,42.48866],[-8.7521,42.48825],[-8.75188,42.48788],[-8.75141,42.48757],[-8.75038,42.48728],[-8.75013,42.48695],[-8.75011,42.48653],[-8.74969,42.48635],[-8.74758,42.48604],[-8.74688,42.48635],[-8.74646,42.48599],[-8.74559,42.48583],[-8.74482,42.48545],[-8.74449,42.48509],[-8.74268,42.48383],[-8.74262,42.48337],[-8.74205,42.48255],[-8.74146,42.48231],[-8.74133,42.48213],[-8.7413,42.48174],[-8.73966,42.48047],[-8.73209,42.47926],[-8.73095,42.47835],[-8.72971,42.47824],[-8.72928,42.47838],[-8.72542,42.47313],[-8.72237,42.4718],[-8.71834,42.47109],[-8.71657,42.47087],[-8.71208,42.46904],[-8.71072,42.46831],[-8.71019,42.46764],[-8.71032,42.46738],[-8.71986,42.46168],[-8.72576,42.45727],[-8.72618,42.4565],[-8.7276,42.45204],[-8.72803,42.45037],[-8.72833,42.44854],[-8.73078,42.44657],[-8.73507,42.44176],[-8.73661,42.4387],[-8.73696,42.43846],[-8.7438,42.43637],[-8.74941,42.43936],[-8.74975,42.43968],[-8.74931,42.44179],[-8.74943,42.44203],[-8.75028,42.44256],[-8.76393,42.44976],[-8.76499,42.45022],[-8.763,42.45576],[-8.76245,42.45958],[-8.76494,42.4647],[-8.76876,42.47831],[-8.76873,42.47939],[-8.76834,42.48027],[-8.76718,42.48409],[-8.7671,42.48488],[-8.7674,42.48525],[-8.76882,42.48641],[-8.76797,42.4873],[-8.76752,42.48759],[-8.76626,42.4881],[-8.76582,42.48854],[-8.76505,42.4899],[-8.76469,42.49],[-8.76381,42.48971],[-8.76212,42.48955]]]}},{"type":"Feature","properties":{"id":"3602801002"},"geometry":{"type":"Polygon","coordinates":[[[-8.73247,42.511],[-8.72385,42.51047],[-8.71995,42.50887],[-8.71863,42.50709],[-8.71545,42.504],[-8.71575,42.50243],[-8.71552,42.50217],[-8.71515,42.50182],[-8.71357,42.50099],[-8.71291,42.50098],[-8.71083,42.5002],[-8.71058,42.49868],[-8.70951,42.49723],[-8.70889,42.49686],[-8.70855,42.4936],[-8.70608,42.48512],[-8.70206,42.48192],[-8.70122,42.4819],[-8.70122,42.48188],[-8.70431,42.47815],[-8.70658,42.4748],[-8.71019,42.46764],[-8.71072,42.46831],[-8.71208,42.46904],[-8.71657,42.47087],[-8.71834,42.47109],[-8.72237,42.4718],[-8.72542,42.47313],[-8.72928,42.47838],[-8.72971,42.47824],[-8.73095,42.47835],[-8.73209,42.47926],[-8.73966,42.48047],[-8.7413,42.48174],[-8.74133,42.48213],[-8.74146,42.48231],[-8.74205,42.48255],[-8.74262,42.48337],[-8.74268,42.48383],[-8.74449,42.48509],[-8.74482,42.48545],[-8.74559,42.48583],[-8.74646,42.48599],[-8.74688,42.48635],[-8.74758,42.48604],[-8.7478,42.48604],[-8.74969,42.48635],[-8.75011,42.48653],[-8.75013,42.48695],[-8.75028,42.48721],[-8.75166,42.4877],[-8.7521,42.48825],[-8.75192,42.48866],[-8.752,42.48891],[-8.75261,42.4896],[-8.75245,42.48983],[-8.75169,42.49023],[-8.75203,42.4912],[-8.75245,42.49135],[-8.75328,42.4914],[-8.75342,42.49162],[-8.7541,42.49166],[-8.75431,42.49153],[-8.75455,42.4916],[-8.75499,42.49133],[-8.75568,42.49135],[-8.75596,42.49118],[-8.75634,42.49161],[-8.75694,42.49206],[-8.75741,42.49223],[-8.75764,42.49269],[-8.75796,42.49271],[-8.75763,42.49281],[-8.75757,42.4931],[-8.75795,42.4937],[-8.75792,42.49441],[-8.76228,42.4972],[-8.76208,42.49837],[-8.76211,42.49911],[-8.76185,42.49927],[-8.76158,42.49985],[-8.76149,42.50037],[-8.76056,42.50068],[-8.76002,42.5007],[-8.74967,42.50686],[-8.74796,42.50722],[-8.7455,42.50792],[-8.74272,42.5098],[-8.74162,42.51024],[-8.73587,42.51171],[-8.73248,42.51092],[-8.73247,42.511]]]}},{"type":"Feature","properties":{"id":"3602802001"},"geometry":{"type":"Polygon","coordinates":[[[-8.70446,42.53336],[-8.70427,42.53261],[-8.70468,42.5319],[-8.70428,42.53178],[-8.7041,42.53138],[-8.70426,42.53116],[-8.7043,42.53048],[-8.70469,42.52931],[-8.70474,42.52882],[-8.70462,42.52838],[-8.70476,42.52787],[-8.70463,42.52758],[-8.70467,42.5274],[-8.70512,42.52699],[-8.70505,42.52678],[-8.70401,42.52693],[-8.70355,42.52589],[-8.70304,42.52585],[-8.7028,42.52558],[-8.70294,42.52508],[-8.70288,42.52496],[-8.70218,42.5246],[-8.70206,42.52424],[-8.70166,42.52403],[-8.70135,42.52352],[-8.70048,42.52318],[-8.70027,42.52285],[-8.70044,42.52271],[-8.70044,42.52228],[-8.69971,42.52196],[-8.69938,42.52162],[-8.70272,42.51824],[-8.70298,42.51778],[-8.70501,42.51594],[-8.7052,42.51479],[-8.70533,42.51461],[-8.70522,42.51421],[-8.70525,42.51346],[-8.70542,42.51284],[-8.70701,42.51182],[-8.708,42.51134],[-8.70772,42.51088],[-8.70759,42.50928],[-8.70715,42.50828],[-8.7064,42.50749],[-8.70572,42.50563],[-8.70413,42.50382],[-8.70454,42.50311],[-8.70447,42.50171],[-8.70335,42.49972],[-8.70339,42.49885],[-8.70455,42.49508],[-8.70878,42.49678],[-8.70951,42.49723],[-8.71058,42.49868],[-8.71083,42.5002],[-8.71291,42.50098],[-8.71357,42.50099],[-8.71515,42.50182],[-8.71575,42.50243],[-8.71545,42.504],[-8.71863,42.50709],[-8.71995,42.50887],[-8.72385,42.51047],[-8.73247,42.511],[-8.73231,42.51353],[-8.73105,42.51677],[-8.72932,42.51724],[-8.72777,42.5181],[-8.72733,42.51971],[-8.72621,42.52196],[-8.72578,42.52258],[-8.72519,42.52291],[-8.72462,42.52337],[-8.72341,42.52352],[-8.7232,42.52363],[-8.72271,42.52467],[-8.72196,42.52548],[-8.72151,42.52658],[-8.72115,42.52811],[-8.72091,42.52868],[-8.72019,42.52933],[-8.72047,42.52949],[-8.71856,42.53119],[-8.71686,42.53318],[-8.71664,42.53324],[-8.71585,42.53273],[-8.7152,42.53194],[-8.71507,42.53149],[-8.71511,42.52965],[-8.71447,42.52934],[-8.71388,42.52925],[-8.71215,42.5303],[-8.7116,42.5303],[-8.71038,42.5309],[-8.70861,42.53142],[-8.70745,42.5323],[-8.70663,42.53262],[-8.70521,42.5335],[-8.70446,42.53336]]]}},{"type":"Feature","properties":{"id":"3602802002"},"geometry":{"type":"Polygon","coordinates":[[[-8.68743,42.55856],[-8.69059,42.55506],[-8.69369,42.5477],[-8.69642,42.54561],[-8.69894,42.54281],[-8.69933,42.54163],[-8.70043,42.53942],[-8.70068,42.53731],[-8.70054,42.53526],[-8.69851,42.53401],[-8.69799,42.53322],[-8.69832,42.53271],[-8.69957,42.53222],[-8.70084,42.53189],[-8.70243,42.53217],[-8.70393,42.53288],[-8.70446,42.53336],[-8.70414,42.53386],[-8.704,42.53432],[-8.70434,42.53474],[-8.70666,42.53544],[-8.70717,42.53552],[-8.708,42.53527],[-8.70815,42.53475],[-8.7084,42.53444],[-8.70846,42.53372],[-8.70925,42.53351],[-8.71007,42.53289],[-8.71156,42.53249],[-8.71211,42.53263],[-8.71306,42.53255],[-8.71343,42.53273],[-8.71461,42.53401],[-8.71514,42.53502],[-8.7154,42.53521],[-8.71575,42.53528],[-8.71603,42.53522],[-8.71628,42.53497],[-8.71641,42.5344],[-8.71665,42.53428],[-8.71706,42.53424],[-8.7175,42.53432],[-8.71777,42.53457],[-8.71832,42.53539],[-8.71862,42.53559],[-8.71903,42.53562],[-8.71935,42.53578],[-8.72082,42.53724],[-8.72089,42.5378],[-8.72062,42.53824],[-8.72061,42.53853],[-8.72082,42.5388],[-8.7211,42.53886],[-8.72182,42.53874],[-8.72263,42.5389],[-8.72292,42.53916],[-8.72308,42.53971],[-8.72337,42.54006],[-8.72529,42.54048],[-8.72557,42.54069],[-8.72566,42.54097],[-8.72551,42.54182],[-8.72585,42.54218],[-8.72643,42.54253],[-8.72651,42.54275],[-8.72621,42.54398],[-8.72651,42.54491],[-8.72671,42.54534],[-8.72699,42.5456],[-8.72723,42.5462],[-8.72714,42.54671],[-8.72739,42.54689],[-8.7276,42.54694],[-8.72859,42.54685],[-8.72907,42.54703],[-8.72943,42.54733],[-8.73011,42.54732],[-8.7313,42.54751],[-8.73152,42.54728],[-8.73155,42.54685],[-8.73186,42.54671],[-8.73199,42.54636],[-8.73246,42.54631],[-8.73249,42.54602],[-8.7341,42.54612],[-8.7349,42.54604],[-8.7334,42.54796],[-8.73294,42.54821],[-8.72975,42.54926],[-8.72812,42.55059],[-8.7276,42.55067],[-8.72737,42.55059],[-8.72666,42.54931],[-8.72617,42.54925],[-8.72594,42.54932],[-8.72561,42.5497],[-8.72559,42.5508],[-8.72523,42.55132],[-8.72449,42.55167],[-8.72346,42.55195],[-8.72172,42.55215],[-8.72068,42.55249],[-8.71835,42.55441],[-8.71736,42.55447],[-8.71675,42.55384],[-8.71576,42.5537],[-8.71515,42.5538],[-8.71435,42.55421],[-8.71378,42.55505],[-8.71349,42.55511],[-8.71121,42.55473],[-8.71043,42.55493],[-8.70971,42.55532],[-8.7091,42.55672],[-8.70854,42.55736],[-8.70804,42.55766],[-8.70763,42.55806],[-8.70624,42.56109],[-8.70501,42.56303],[-8.70296,42.56215],[-8.69969,42.56107],[-8.69894,42.5611],[-8.69823,42.56097],[-8.68743,42.55856]]]}},{"type":"Feature","properties":{"id":"3602802003"},"geometry":{"type":"Polygon","coordinates":[[[-8.67203,42.53531],[-8.6709,42.53003],[-8.67066,42.52842],[-8.67091,42.52528],[-8.67009,42.52404],[-8.67116,42.5229],[-8.67318,42.52151],[-8.67771,42.51899],[-8.68717,42.51326],[-8.68686,42.51308],[-8.68628,42.51248],[-8.68586,42.51233],[-8.68535,42.51197],[-8.68364,42.51028],[-8.68359,42.50997],[-8.68384,42.50982],[-8.68417,42.50929],[-8.68409,42.50901],[-8.68338,42.50854],[-8.68423,42.5049],[-8.68477,42.50442],[-8.6849,42.50417],[-8.6847,42.50354],[-8.68493,42.50331],[-8.68625,42.50275],[-8.68627,42.50244],[-8.68602,42.50194],[-8.68603,42.50069],[-8.68621,42.50052],[-8.68776,42.49976],[-8.68807,42.49943],[-8.68931,42.49788],[-8.68964,42.49691],[-8.69037,42.49625],[-8.69067,42.4954],[-8.69069,42.49423],[-8.69045,42.49326],[-8.68919,42.49228],[-8.68862,42.49134],[-8.68823,42.49037],[-8.68806,42.48918],[-8.68775,42.48885],[-8.68682,42.48649],[-8.68728,42.48528],[-8.6887,42.48451],[-8.69383,42.48041],[-8.69361,42.47972],[-8.69756,42.48079],[-8.70073,42.4818],[-8.70206,42.48192],[-8.70608,42.48512],[-8.70855,42.4936],[-8.70889,42.49686],[-8.70455,42.49508],[-8.70339,42.49885],[-8.70335,42.49972],[-8.70447,42.50171],[-8.70454,42.50311],[-8.70413,42.50382],[-8.70572,42.50563],[-8.7064,42.50749],[-8.70715,42.50828],[-8.70759,42.50928],[-8.70772,42.51088],[-8.708,42.51134],[-8.70701,42.51182],[-8.70542,42.51284],[-8.70525,42.51346],[-8.70522,42.51421],[-8.70533,42.51461],[-8.7052,42.51479],[-8.70501,42.51594],[-8.70298,42.51778],[-8.70272,42.51824],[-8.69938,42.52162],[-8.69971,42.52196],[-8.70044,42.52228],[-8.70044,42.52271],[-8.70027,42.52285],[-8.70048,42.52318],[-8.70135,42.52352],[-8.70166,42.52403],[-8.70206,42.52424],[-8.70218,42.5246],[-8.70288,42.52496],[-8.70294,42.52508],[-8.7028,42.52558],[-8.70304,42.52585],[-8.70355,42.52589],[-8.70401,42.52693],[-8.70505,42.52678],[-8.70512,42.52699],[-8.70467,42.5274],[-8.70463,42.52758],[-8.70476,42.52787],[-8.70462,42.52838],[-8.70474,42.52882],[-8.70469,42.52931],[-8.7043,42.53048],[-8.70426,42.53116],[-8.7041,42.53138],[-8.70428,42.53178],[-8.70468,42.5319],[-8.70427,42.53261],[-8.70442,42.53331],[-8.70393,42.53288],[-8.70243,42.53217],[-8.70084,42.53189],[-8.69957,42.53222],[-8.69832,42.53271],[-8.69799,42.53322],[-8.69389,42.53071],[-8.69035,42.5302],[-8.6893,42.53075],[-8.68871,42.53117],[-8.6849,42.53285],[-8.68296,42.53391],[-8.68099,42.5346],[-8.67845,42.53433],[-8.67563,42.5353],[-8.67303,42.53593],[-8.67203,42.53531]]]}}]}