{"type":"FeatureCollection","features":[{"type":"Feature","properties":{"id":"3603301001"},"geometry":{"type":"Polygon","coordinates":[[[-8.60894,42.21468],[-8.60814,42.21552],[-8.60796,42.21551],[-8.60631,42.21513],[-8.60548,42.21471],[-8.60468,42.2145],[-8.60364,42.21404],[-8.60312,42.21395],[-8.60199,42.21422],[-8.60016,42.21391],[-8.5988,42.21396],[-8.59407,42.21568],[-8.59148,42.21529],[-8.58987,42.21474],[-8.58843,42.2144],[-8.5848,42.21284],[-8.58081,42.21272],[-8.57993,42.21255],[-8.57921,42.21218],[-8.57684,42.2106],[-8.57391,42.20976],[-8.57191,42.20889],[-8.57623,42.20478],[-8.57855,42.20171],[-8.57813,42.20082],[-8.58308,42.19844],[-8.5831,42.19748],[-8.58397,42.19253],[-8.58472,42.1891],[-8.58548,42.18652],[-8.58836,42.18079],[-8.58854,42.17876],[-8.58922,42.17873],[-8.59224,42.17891],[-8.59686,42.17888],[-8.59836,42.17863],[-8.59907,42.17838],[-8.60956,42.18168],[-8.61143,42.18236],[-8.61264,42.18308],[-8.61413,42.18381],[-8.61383,42.18416],[-8.61376,42.18468],[-8.61384,42.18497],[-8.61307,42.18537],[-8.61264,42.18541],[-8.61266,42.1856],[-8.61352,42.18703],[-8.61549,42.18754],[-8.61499,42.18781],[-8.61524,42.19119],[-8.61274,42.19425],[-8.61404,42.19593],[-8.614,42.19606],[-8.61437,42.19655],[-8.61422,42.19812],[-8.61315,42.19967],[-8.61289,42.20076],[-8.61287,42.20138],[-8.61288,42.20189],[-8.61313,42.20269],[-8.6128,42.20368],[-8.6116,42.20567],[-8.60981,42.20625],[-8.61007,42.20715],[-8.6098,42.20991],[-8.60992,42.21099],[-8.60926,42.21413],[-8.60894,42.21468]]]}},{"type":"Feature","properties":{"id":"3603301002"},"geometry":{"type":"Polygon","coordinates":[[[-8.60919,42.22434],[-8.60973,42.22823],[-8.61087,42.22981],[-8.60919,42.2338],[-8.60653,42.24266],[-8.60565,42.24275],[-8.60369,42.2427],[-8.59989,42.24202],[-8.59641,42.24268],[-8.59573,42.24258],[-8.59537,42.24288],[-8.59078,42.24346],[-8.58933,42.24265],[-8.58847,42.24237],[-8.58622,42.24208],[-8.58507,42.24166],[-8.58426,42.24108],[-8.58351,42.2407],[-8.58129,42.24029],[-8.57815,42.2391],[-8.57639,42.2395],[-8.57365,42.24058],[-8.57196,42.24088],[-8.56892,42.24108],[-8.56681,42.23609],[-8.56756,42.2321],[-8.56765,42.23097],[-8.56729,42.22869],[-8.56727,42.22632],[-8.56705,42.22457],[-8.5673,42.22246],[-8.56747,42.22194],[-8.56943,42.22106],[-8.56986,42.21978],[-8.57015,42.21932],[-8.574,42.21583],[-8.57244,42.21326],[-8.57143,42.21063],[-8.57191,42.20889],[-8.57391,42.20976],[-8.57684,42.2106],[-8.57921,42.21218],[-8.57993,42.21255],[-8.58081,42.21272],[-8.5848,42.21284],[-8.58843,42.2144],[-8.58987,42.21474],[-8.59148,42.21529],[-8.59407,42.21568],[-8.5988,42.21396],[-8.60016,42.21391],[-8.60199,42.21422],[-8.60312,42.21395],[-8.60364,42.21404],[-8.60468,42.2145],[-8.60548,42.21471],[-8.60631,42.21513],[-8.60813,42.21552],[-8.60758,42.21723],[-8.60749,42.21841],[-8.60771,42.22058],[-8.60831,42.22299],[-8.60919,42.22434]]]}},{"type":"Feature","properties":{"id":"3603302001"},"geometry":{"type":"Polygon","coordinates":[[[-8.6287,42.16596],[-8.63007,42.16725],[-8.63193,42.16759],[-8.63221,42.16774],[-8.63319,42.16794],[-8.63364,42.16786],[-8.6347,42.16806],[-8.63648,42.16903],[-8.63705,42.1701],[-8.63791,42.17111],[-8.63844,42.17207],[-8.63944,42.17305],[-8.64025,42.17426],[-8.64084,42.17493],[-8.6417,42.17706],[-8.64253,42.17818],[-8.64308,42.17851],[-8.64351,42.17851],[-8.64387,42.17882],[-8.64425,42.1787],[-8.64477,42.17879],[-8.64513,42.17896],[-8.64621,42.17918],[-8.6475,42.17958],[-8.64926,42.18028],[-8.65079,42.18111],[-8.65211,42.1817],[-8.6533,42.18212],[-8.65447,42.18237],[-8.65544,42.18245],[-8.65668,42.18248],[-8.65862,42.18232],[-8.65855,42.18272],[-8.65813,42.18328],[-8.65709,42.184],[-8.65575,42.18467],[-8.65471,42.18502],[-8.65376,42.18515],[-8.65252,42.18512],[-8.65135,42.18496],[-8.65002,42.18453],[-8.64826,42.1837],[-8.64601,42.18348],[-8.64091,42.18328],[-8.64032,42.18256],[-8.64024,42.18228],[-8.63855,42.18046],[-8.63771,42.18001],[-8.63656,42.17993],[-8.63279,42.18025],[-8.62712,42.18055],[-8.62016,42.1795],[-8.62018,42.17913],[-8.61984,42.17906],[-8.61724,42.18038],[-8.61703,42.18064],[-8.61637,42.18088],[-8.61694,42.18051],[-8.61693,42.18038],[-8.6162,42.18004],[-8.61519,42.18006],[-8.61504,42.18],[-8.6138,42.17857],[-8.61287,42.17729],[-8.61265,42.17666],[-8.613,42.17617],[-8.61247,42.17557],[-8.612,42.17423],[-8.61201,42.17357],[-8.61234,42.17272],[-8.61503,42.17093],[-8.61511,42.17067],[-8.61574,42.17039],[-8.6159,42.1701],[-8.61678,42.16927],[-8.61772,42.16891],[-8.6188,42.16675],[-8.61917,42.16564],[-8.61944,42.16537],[-8.61943,42.16514],[-8.62082,42.16507],[-8.62107,42.16528],[-8.62543,42.16536],[-8.6257,42.16459],[-8.62692,42.16574],[-8.6287,42.16596]]]}},{"type":"Feature","properties":{"id":"3603302002"},"geometry":{"type":"Polygon","coordinates":[[[-8.64403,42.1632],[-8.64362,42.16463],[-8.64474,42.16498],[-8.64556,42.16574],[-8.64628,42.16589],[-8.6465,42.16655],[-8.64823,42.16771],[-8.65159,42.16765],[-8.6526,42.16775],[-8.65329,42.16799],[-8.65404,42.1684],[-8.6546,42.16889],[-8.65503,42.16958],[-8.65523,42.17019],[-8.65527,42.17103],[-8.65485,42.17447],[-8.65655,42.17969],[-8.65646,42.18017],[-8.65668,42.18248],[-8.65447,42.18237],[-8.6533,42.18212],[-8.65211,42.1817],[-8.65079,42.18111],[-8.64926,42.18028],[-8.6475,42.17958],[-8.64449,42.17873],[-8.64425,42.1787],[-8.64387,42.17882],[-8.64351,42.17851],[-8.64308,42.17851],[-8.64253,42.17818],[-8.6417,42.17706],[-8.64084,42.17493],[-8.64025,42.17426],[-8.63944,42.17305],[-8.63844,42.17207],[-8.63791,42.17111],[-8.63705,42.1701],[-8.63648,42.16903],[-8.6347,42.16806],[-8.63364,42.16786],[-8.63319,42.16794],[-8.63221,42.16774],[-8.63193,42.16759],[-8.63007,42.16725],[-8.6287,42.16596],[-8.62692,42.16574],[-8.6257,42.16459],[-8.62474,42.16459],[-8.6242,42.164],[-8.62466,42.16373],[-8.62418,42.16299],[-8.62447,42.16303],[-8.62428,42.1624],[-8.6271,42.16267],[-8.62751,42.16259],[-8.62773,42.16243],[-8.62833,42.1624],[-8.63047,42.16374],[-8.63248,42.16378],[-8.63246,42.16251],[-8.63266,42.16167],[-8.6331,42.16151],[-8.63305,42.16122],[-8.63317,42.16101],[-8.63387,42.16108],[-8.63941,42.16283],[-8.63965,42.16255],[-8.6426,42.16317],[-8.64362,42.16307],[-8.64403,42.1632]]]}},{"type":"Feature","properties":{"id":"3603302003"},"geometry":{"type":"Polygon","coordinates":[[[-8.65668,42.18248],[-8.65646,42.18017],[-8.65655,42.17969],[-8.65485,42.17447],[-8.65527,42.17103],[-8.65523,42.17019],[-8.65503,42.16958],[-8.6546,42.16889],[-8.65404,42.1684],[-8.65329,42.16799],[-8.6526,42.16775],[-8.65159,42.16765],[-8.64823,42.16771],[-8.6465,42.16655],[-8.64628,42.16589],[-8.64556,42.16574],[-8.64474,42.16498],[-8.64362,42.16463],[-8.64403,42.1632],[-8.64369,42.1631],[-8.64523,42.16227],[-8.64783,42.16133],[-8.65069,42.16013],[-8.65325,42.15859],[-8.65523,42.15757],[-8.6571,42.15645],[-8.65966,42.15456],[-8.67034,42.15031],[-8.66993,42.14842],[-8.67005,42.14588],[-8.66954,42.14524],[-8.66799,42.14439],[-8.66689,42.1436],[-8.66667,42.14282],[-8.66602,42.1418],[-8.6668,42.14191],[-8.66769,42.14151],[-8.66939,42.13835],[-8.672,42.13656],[-8.67341,42.13539],[-8.67965,42.13725],[-8.68566,42.13824],[-8.68899,42.13841],[-8.69102,42.13833],[-8.68494,42.14358],[-8.68275,42.14628],[-8.68233,42.14723],[-8.68091,42.14759],[-8.67954,42.1482],[-8.67776,42.1498],[-8.67546,42.15052],[-8.67262,42.15171],[-8.67351,42.15588],[-8.67418,42.15842],[-8.67473,42.16037],[-8.67576,42.16335],[-8.67538,42.16547],[-8.67566,42.16694],[-8.67563,42.16866],[-8.67663,42.17004],[-8.67669,42.17025],[-8.67528,42.17194],[-8.67377,42.17171],[-8.66916,42.17966],[-8.66883,42.18062],[-8.66875,42.18165],[-8.66795,42.18102],[-8.66608,42.18127],[-8.66175,42.18222],[-8.65862,42.18232],[-8.65668,42.18248]]]}},{"type":"Feature","properties":{"id":"3603303001"},"geometry":{"type":"Polygon","coordinates":[[[-8.62714,42.21936],[-8.62685,42.21926],[-8.62329,42.21511],[-8.62296,42.21514],[-8.62281,42.215],[-8.62185,42.2153],[-8.62139,42.2153],[-8.61948,42.21479],[-8.61913,42.21481],[-8.61861,42.21409],[-8.61812,42.21401],[-8.61488,42.21448],[-8.61118,42.21548],[-8.60813,42.21553],[-8.60894,42.21468],[-8.60926,42.21413],[-8.60992,42.21099],[-8.6098,42.20991],[-8.61007,42.20715],[-8.60981,42.20625],[-8.6116,42.20567],[-8.6128,42.20368],[-8.61313,42.20269],[-8.61288,42.20189],[-8.61289,42.20076],[-8.61315,42.19967],[-8.61422,42.19812],[-8.61437,42.19655],[-8.614,42.19606],[-8.61404,42.19593],[-8.61274,42.19425],[-8.61524,42.19119],[-8.61499,42.18781],[-8.61639,42.18714],[-8.62089,42.18566],[-8.62198,42.18557],[-8.62752,42.19174],[-8.62997,42.19499],[-8.63245,42.19854],[-8.63292,42.19972],[-8.63386,42.1996],[-8.634,42.19982],[-8.63442,42.20015],[-8.63488,42.20035],[-8.63513,42.20061],[-8.63526,42.20097],[-8.63515,42.20142],[-8.63481,42.20185],[-8.63488,42.20202],[-8.63969,42.20548],[-8.64263,42.20712],[-8.64383,42.20796],[-8.64423,42.20849],[-8.64483,42.21123],[-8.6456,42.21265],[-8.64681,42.21361],[-8.64742,42.21426],[-8.64753,42.21463],[-8.64704,42.21453],[-8.64497,42.21554],[-8.64404,42.21564],[-8.63812,42.21879],[-8.63664,42.21986],[-8.63478,42.22101],[-8.63211,42.22297],[-8.63134,42.22368],[-8.63004,42.2225],[-8.62803,42.22031],[-8.62764,42.22016],[-8.62714,42.21936]]]}},{"type":"Feature","properties":{"id":"3603303002"},"geometry":{"type":"Polygon","coordinates":[[[-8.62559,42.23052],[-8.6247,42.23023],[-8.62282,42.23038],[-8.62169,42.23],[-8.61887,42.23],[-8.61095,42.22956],[-8.61088,42.22982],[-8.60973,42.22823],[-8.60919,42.22434],[-8.60831,42.22299],[-8.60771,42.22058],[-8.60749,42.21841],[-8.60758,42.21723],[-8.60813,42.21553],[-8.61118,42.21548],[-8.61488,42.21448],[-8.61812,42.21401],[-8.61861,42.21409],[-8.61913,42.21481],[-8.61948,42.21479],[-8.62139,42.2153],[-8.62185,42.2153],[-8.62281,42.215],[-8.62296,42.21514],[-8.62329,42.21511],[-8.62685,42.21926],[-8.62714,42.21936],[-8.62764,42.22016],[-8.62803,42.22031],[-8.63004,42.2225],[-8.63134,42.22368],[-8.62855,42.22719],[-8.62739,42.2308],[-8.62559,42.23052]]]}},{"type":"Feature","properties":{"id":"3603303003"},"geometry":{"type":"Polygon","coordinates":[[[-8.61549,42.18754],[-8.61352,42.18703],[-8.61266,42.1856],[-8.61264,42.18541],[-8.61307,42.18537],[-8.61384,42.18497],[-8.61376,42.18468],[-8.61383,42.18416],[-8.61471,42.1831],[-8.61481,42.18242],[-8.61516,42.18173],[-8.61563,42.18116],[-8.61703,42.18064],[-8.61724,42.18038],[-8.61984,42.17906],[-8.62018,42.17913],[-8.62016,42.1795],[-8.62712,42.18055],[-8.63279,42.18025],[-8.63656,42.17993],[-8.63771,42.18001],[-8.63855,42.18046],[-8.64024,42.18228],[-8.64032,42.18256],[-8.64091,42.18328],[-8.64442,42.18347],[-8.64432,42.18377],[-8.64443,42.18457],[-8.64477,42.18523],[-8.64506,42.18646],[-8.64487,42.18704],[-8.64475,42.18915],[-8.64416,42.18963],[-8.64434,42.19099],[-8.64453,42.19132],[-8.644,42.19371],[-8.64374,42.19406],[-8.64053,42.19598],[-8.63917,42.19664],[-8.63753,42.1973],[-8.63612,42.19856],[-8.63386,42.1996],[-8.63292,42.19972],[-8.63245,42.19854],[-8.62997,42.19499],[-8.62752,42.19174],[-8.62198,42.18557],[-8.62089,42.18566],[-8.61639,42.18714],[-8.61549,42.18754]]]}},{"type":"Feature","properties":{"id":"3603303004"},"geometry":{"type":"Polygon","coordinates":[[[-8.63386,42.1996],[-8.63612,42.19856],[-8.63753,42.1973],[-8.63917,42.19664],[-8.64207,42.19511],[-8.64374,42.19406],[-8.644,42.19371],[-8.64453,42.19132],[-8.64434,42.19099],[-8.64416,42.18963],[-8.64475,42.18915],[-8.64487,42.18704],[-8.64506,42.18646],[-8.64477,42.18523],[-8.64443,42.18457],[-8.64432,42.18377],[-8.64443,42.18347],[-8.64601,42.18348],[-8.64826,42.1837],[-8.65002,42.18453],[-8.65135,42.18496],[-8.65252,42.18512],[-8.65376,42.18515],[-8.65471,42.18502],[-8.65575,42.18467],[-8.65709,42.184],[-8.65813,42.18328],[-8.65855,42.18272],[-8.65862,42.18232],[-8.66175,42.18222],[-8.66608,42.18127],[-8.66795,42.18102],[-8.66875,42.18165],[-8.66874,42.18291],[-8.66932,42.18402],[-8.66942,42.18463],[-8.66838,42.18705],[-8.66793,42.1886],[-8.66768,42.19026],[-8.66719,42.19174],[-8.66617,42.19615],[-8.66591,42.19806],[-8.66591,42.20001],[-8.66169,42.19726],[-8.66127,42.19708],[-8.65992,42.19731],[-8.65625,42.19859],[-8.65763,42.20079],[-8.65665,42.20109],[-8.65623,42.20104],[-8.65521,42.20065],[-8.65475,42.20062],[-8.65357,42.20092],[-8.65173,42.201],[-8.6509,42.20124],[-8.65077,42.20218],[-8.65014,42.20402],[-8.65029,42.20493],[-8.64988,42.20612],[-8.65019,42.20706],[-8.65019,42.20737],[-8.65006,42.2076],[-8.64915,42.20796],[-8.64896,42.20816],[-8.64883,42.20873],[-8.64861,42.20893],[-8.6472,42.20952],[-8.64658,42.20994],[-8.64462,42.21021],[-8.64423,42.20849],[-8.64383,42.20796],[-8.64263,42.20712],[-8.63969,42.20548],[-8.63504,42.20218],[-8.63481,42.20185],[-8.63515,42.20142],[-8.63526,42.20097],[-8.63513,42.20061],[-8.63488,42.20035],[-8.63442,42.20015],[-8.634,42.19982],[-8.63386,42.1996]]]}},{"type":"Feature","properties":{"id":"3603303005"},"geometry":{"type":"Polygon","coordinates":[[[-8.64753,42.21463],[-8.64742,42.21426],[-8.64681,42.21361],[-8.6456,42.21265],[-8.64483,42.21123],[-8.64462,42.21021],[-8.64658,42.20994],[-8.6472,42.20952],[-8.64861,42.20893],[-8.64883,42.20873],[-8.64896,42.20816],[-8.64915,42.20796],[-8.65006,42.2076],[-8.65019,42.20706],[-8.64988,42.20612],[-8.65029,42.20493],[-8.65014,42.20402],[-8.65077,42.20218],[-8.6509,42.20124],[-8.65173,42.201],[-8.65357,42.20092],[-8.65475,42.20062],[-8.65521,42.20065],[-8.65623,42.20104],[-8.65665,42.20109],[-8.65763,42.20079],[-8.65625,42.19859],[-8.65992,42.19731],[-8.66127,42.19708],[-8.66169,42.19726],[-8.66591,42.20001],[-8.666,42.20185],[-8.66677,42.20584],[-8.66071,42.20976],[-8.65748,42.21007],[-8.65633,42.21079],[-8.65579,42.21096],[-8.65465,42.21095],[-8.65349,42.21185],[-8.65255,42.21221],[-8.64753,42.21463]]]}}]}