{"type":"FeatureCollection","features":[{"type":"Feature","properties":{"id":"3603701001"},"geometry":{"type":"Polygon","coordinates":[[[-8.54623,42.25449],[-8.54692,42.25434],[-8.55614,42.25003],[-8.55824,42.24927],[-8.56019,42.24844],[-8.56261,42.24716],[-8.56513,42.2455],[-8.56665,42.24416],[-8.5676,42.24313],[-8.56853,42.24187],[-8.56892,42.24108],[-8.57196,42.24088],[-8.57365,42.24058],[-8.57639,42.2395],[-8.57815,42.2391],[-8.58129,42.24029],[-8.58351,42.2407],[-8.58426,42.24108],[-8.58507,42.24166],[-8.58622,42.24208],[-8.58847,42.24237],[-8.58933,42.24265],[-8.59078,42.24346],[-8.59537,42.24288],[-8.59498,42.24373],[-8.59513,42.24438],[-8.59508,42.24464],[-8.5946,42.24536],[-8.59539,42.24608],[-8.59507,42.24706],[-8.59532,42.24754],[-8.5946,42.24859],[-8.59418,42.24986],[-8.594,42.25003],[-8.59394,42.25131],[-8.59186,42.25374],[-8.59146,42.25588],[-8.59146,42.25627],[-8.59175,42.25627],[-8.59205,42.25642],[-8.59245,42.25678],[-8.5922,42.25879],[-8.59246,42.26052],[-8.59189,42.26251],[-8.59246,42.26377],[-8.59172,42.26477],[-8.58926,42.26567],[-8.58778,42.26651],[-8.58489,42.26766],[-8.58265,42.26839],[-8.58125,42.26895],[-8.57726,42.26969],[-8.57265,42.27536],[-8.5666,42.27987],[-8.5653,42.28011],[-8.56602,42.29085],[-8.56709,42.29285],[-8.56662,42.29518],[-8.56647,42.30094],[-8.56605,42.30403],[-8.56608,42.30692],[-8.56553,42.30701],[-8.56391,42.30755],[-8.56217,42.30837],[-8.55909,42.31041],[-8.55725,42.31254],[-8.55286,42.31461],[-8.54996,42.3145],[-8.54727,42.31474],[-8.54674,42.31486],[-8.54374,42.31606],[-8.54356,42.31575],[-8.54109,42.31632],[-8.54156,42.31389],[-8.54036,42.30824],[-8.53921,42.30401],[-8.5386,42.30254],[-8.53777,42.30074],[-8.53677,42.29936],[-8.53223,42.2951],[-8.5348,42.294],[-8.53586,42.29402],[-8.53733,42.29309],[-8.53827,42.29196],[-8.53895,42.29213],[-8.53984,42.29166],[-8.54047,42.28561],[-8.5437,42.2858],[-8.5499,42.27347],[-8.55015,42.27323],[-8.54994,42.27285],[-8.54988,42.26873],[-8.54931,42.26192],[-8.54974,42.2613],[-8.55005,42.26134],[-8.55043,42.26093],[-8.55049,42.26038],[-8.55115,42.25946],[-8.54623,42.25449]]]}},{"type":"Feature","properties":{"id":"3603702001"},"geometry":{"type":"Polygon","coordinates":[[[-8.48316,42.28966],[-8.48416,42.28946],[-8.48732,42.28721],[-8.49186,42.28746],[-8.49463,42.28547],[-8.49742,42.28289],[-8.49956,42.27969],[-8.50082,42.27829],[-8.50409,42.27359],[-8.50494,42.27141],[-8.50752,42.26999],[-8.50941,42.26909],[-8.51247,42.26797],[-8.5166,42.26679],[-8.51774,42.26506],[-8.51934,42.26364],[-8.52138,42.26228],[-8.52518,42.25995],[-8.52692,42.25619],[-8.53166,42.25552],[-8.53297,42.25587],[-8.5346,42.25613],[-8.53831,42.25607],[-8.53993,42.25585],[-8.54623,42.25449],[-8.55115,42.25946],[-8.55049,42.26038],[-8.55043,42.26093],[-8.55005,42.26134],[-8.54974,42.2613],[-8.54931,42.26192],[-8.54988,42.26873],[-8.54994,42.27285],[-8.55015,42.27323],[-8.5499,42.27347],[-8.5437,42.2858],[-8.54047,42.28561],[-8.53984,42.29166],[-8.53895,42.29213],[-8.53827,42.29196],[-8.53733,42.29309],[-8.53586,42.29402],[-8.5348,42.294],[-8.53223,42.2951],[-8.53677,42.29936],[-8.53777,42.30074],[-8.5386,42.30254],[-8.53921,42.30401],[-8.54036,42.30824],[-8.54156,42.31389],[-8.54109,42.31632],[-8.54067,42.31642],[-8.54021,42.31698],[-8.53917,42.31767],[-8.53847,42.31831],[-8.53737,42.31874],[-8.53541,42.31996],[-8.53417,42.32119],[-8.53232,42.3227],[-8.53064,42.32496],[-8.53031,42.3252],[-8.52513,42.32728],[-8.52431,42.32782],[-8.52403,42.32807],[-8.52365,42.32872],[-8.52361,42.32909],[-8.52418,42.33044],[-8.52139,42.32921],[-8.51833,42.32804],[-8.51332,42.32815],[-8.51181,42.32833],[-8.5099,42.32727],[-8.50953,42.32717],[-8.50242,42.32692],[-8.50025,42.3265],[-8.49616,42.32594],[-8.49359,42.32545],[-8.49245,42.32567],[-8.49067,42.32492],[-8.49008,42.32501],[-8.48845,42.32466],[-8.48775,42.32491],[-8.48658,42.32378],[-8.4866,42.32345],[-8.48735,42.32132],[-8.48713,42.32004],[-8.48747,42.31871],[-8.48726,42.31668],[-8.48731,42.31629],[-8.48779,42.31549],[-8.48676,42.31303],[-8.48678,42.31239],[-8.48704,42.31148],[-8.48689,42.31087],[-8.48727,42.30954],[-8.48697,42.30812],[-8.48646,42.30689],[-8.4865,42.30573],[-8.48565,42.30234],[-8.48428,42.30153],[-8.48445,42.30101],[-8.48449,42.3003],[-8.48537,42.29907],[-8.4853,42.29862],[-8.48461,42.29756],[-8.48446,42.2962],[-8.4841,42.29566],[-8.4831,42.2951],[-8.48279,42.29478],[-8.48261,42.29437],[-8.48255,42.29327],[-8.48479,42.29338],[-8.48504,42.2931],[-8.48514,42.29237],[-8.48492,42.29181],[-8.48451,42.2912],[-8.48316,42.28966]]]}}]}