{"type":"FeatureCollection","features":[{"type":"Feature","properties":{"id":"3604301001"},"geometry":{"type":"Polygon","coordinates":[[[-8.50166,42.3812],[-8.5035,42.38087],[-8.50837,42.37898],[-8.50968,42.37872],[-8.51446,42.38348],[-8.52066,42.38724],[-8.5212,42.39073],[-8.51356,42.39556],[-8.51048,42.39506],[-8.50957,42.39333],[-8.50721,42.39147],[-8.50493,42.39178],[-8.50114,42.39249],[-8.50046,42.3914],[-8.49794,42.39184],[-8.49731,42.39171],[-8.49716,42.38946],[-8.49728,42.38774],[-8.49869,42.38714],[-8.49768,42.3857],[-8.49806,42.38486],[-8.50166,42.3812]]]}},{"type":"Feature","properties":{"id":"3604301002"},"geometry":{"type":"Polygon","coordinates":[[[-8.4631,42.41236],[-8.46341,42.41209],[-8.46347,42.4114],[-8.46313,42.4109],[-8.46222,42.41002],[-8.46146,42.40957],[-8.46147,42.40926],[-8.46173,42.40896],[-8.46296,42.40845],[-8.46324,42.40816],[-8.46253,42.40617],[-8.46247,42.40569],[-8.46245,42.4049],[-8.46282,42.40403],[-8.46288,42.40347],[-8.46269,42.40311],[-8.46125,42.40318],[-8.46086,42.40302],[-8.4606,42.40241],[-8.45967,42.401],[-8.45966,42.40061],[-8.46038,42.40063],[-8.46107,42.4005],[-8.45987,42.3985],[-8.45942,42.39719],[-8.45953,42.39637],[-8.45648,42.38946],[-8.45593,42.3887],[-8.45055,42.38482],[-8.44046,42.38259],[-8.44241,42.3802],[-8.44259,42.37955],[-8.44361,42.37817],[-8.44407,42.37606],[-8.44427,42.37401],[-8.44411,42.37311],[-8.44392,42.37292],[-8.4426,42.37228],[-8.44072,42.37167],[-8.43962,42.36992],[-8.43767,42.36982],[-8.43206,42.36589],[-8.43674,42.35999],[-8.44417,42.36245],[-8.44826,42.3625],[-8.45298,42.36401],[-8.45551,42.36404],[-8.45799,42.36209],[-8.45886,42.36128],[-8.46113,42.36065],[-8.46164,42.35973],[-8.46152,42.35951],[-8.46226,42.35892],[-8.46235,42.35869],[-8.46222,42.35834],[-8.46119,42.35774],[-8.46101,42.35732],[-8.46045,42.3569],[-8.46098,42.35534],[-8.46093,42.35494],[-8.46121,42.35411],[-8.46095,42.35343],[-8.46096,42.35315],[-8.4615,42.35239],[-8.46201,42.35221],[-8.46251,42.35189],[-8.46398,42.35159],[-8.4644,42.35135],[-8.46511,42.35033],[-8.46532,42.34978],[-8.4657,42.34942],[-8.46599,42.34936],[-8.46707,42.3494],[-8.46742,42.34914],[-8.46772,42.34853],[-8.46877,42.34775],[-8.46957,42.34788],[-8.47042,42.34772],[-8.47075,42.34734],[-8.47148,42.34591],[-8.47545,42.34354],[-8.47775,42.34098],[-8.47985,42.33914],[-8.48079,42.33863],[-8.48175,42.33843],[-8.48212,42.33863],[-8.4822,42.33884],[-8.48178,42.34017],[-8.48168,42.34102],[-8.48176,42.34125],[-8.48166,42.34166],[-8.48194,42.34268],[-8.48173,42.34329],[-8.48454,42.34393],[-8.48594,42.34459],[-8.48375,42.34618],[-8.48302,42.34729],[-8.48315,42.35169],[-8.48249,42.3531],[-8.481,42.35347],[-8.47874,42.35433],[-8.4771,42.35526],[-8.47666,42.3597],[-8.47601,42.36191],[-8.4755,42.36522],[-8.47561,42.36781],[-8.47731,42.3689],[-8.48136,42.37054],[-8.48354,42.37032],[-8.4853,42.37101],[-8.48587,42.37208],[-8.48666,42.37431],[-8.4871,42.37663],[-8.48841,42.37886],[-8.4905,42.37997],[-8.49318,42.38052],[-8.49772,42.38058],[-8.50013,42.38126],[-8.50166,42.3812],[-8.49806,42.38486],[-8.49768,42.3857],[-8.49869,42.38714],[-8.49728,42.38774],[-8.49716,42.38946],[-8.49731,42.39171],[-8.49794,42.39184],[-8.50046,42.3914],[-8.50114,42.39249],[-8.50493,42.39178],[-8.50721,42.39147],[-8.50957,42.39333],[-8.51048,42.39506],[-8.51356,42.39556],[-8.5212,42.39073],[-8.52066,42.38724],[-8.51446,42.38348],[-8.50968,42.37872],[-8.51221,42.37868],[-8.51439,42.38011],[-8.51535,42.38026],[-8.52029,42.3784],[-8.5215,42.37773],[-8.52184,42.37669],[-8.52157,42.37459],[-8.52253,42.37354],[-8.52409,42.37272],[-8.52751,42.372],[-8.52901,42.3727],[-8.53489,42.37303],[-8.53625,42.37291],[-8.53602,42.37313],[-8.5358,42.37375],[-8.53589,42.37522],[-8.53617,42.37577],[-8.53775,42.37656],[-8.53997,42.37719],[-8.53982,42.38227],[-8.54015,42.38521],[-8.53988,42.38771],[-8.53925,42.38947],[-8.53868,42.38967],[-8.53741,42.38955],[-8.53567,42.38811],[-8.53377,42.38807],[-8.53105,42.38968],[-8.52912,42.39194],[-8.52735,42.39286],[-8.52453,42.39367],[-8.52242,42.39402],[-8.52069,42.39462],[-8.5194,42.39554],[-8.51863,42.39727],[-8.5183,42.3976],[-8.51835,42.3978],[-8.51774,42.39855],[-8.51781,42.39962],[-8.51879,42.39963],[-8.51915,42.39995],[-8.5201,42.40019],[-8.52072,42.40087],[-8.52142,42.40238],[-8.52278,42.40349],[-8.52232,42.40496],[-8.5226,42.40582],[-8.52255,42.40647],[-8.5223,42.40713],[-8.52245,42.40787],[-8.52242,42.40869],[-8.52174,42.4092],[-8.52086,42.40947],[-8.52069,42.41009],[-8.52116,42.41142],[-8.52324,42.41315],[-8.52353,42.41376],[-8.52335,42.41431],[-8.52039,42.41695],[-8.52067,42.41897],[-8.52042,42.42076],[-8.52041,42.42239],[-8.51965,42.42347],[-8.51682,42.42328],[-8.51581,42.4237],[-8.50935,42.42387],[-8.50677,42.42426],[-8.49871,42.42478],[-8.49712,42.42519],[-8.49604,42.42574],[-8.49525,42.4259],[-8.49352,42.42564],[-8.49203,42.42309],[-8.4898,42.42052],[-8.48564,42.41866],[-8.48541,42.41819],[-8.48345,42.41751],[-8.48161,42.41669],[-8.47585,42.41484],[-8.4695,42.41265],[-8.46588,42.41349],[-8.46552,42.41337],[-8.46521,42.41296],[-8.46474,42.4127],[-8.46401,42.41284],[-8.46343,42.41311],[-8.46312,42.41302],[-8.4631,42.41236]]]}},{"type":"Feature","properties":{"id":"3604302001"},"geometry":{"type":"Polygon","coordinates":[[[-8.50166,42.3812],[-8.50013,42.38126],[-8.49772,42.38058],[-8.49318,42.38052],[-8.4905,42.37997],[-8.48841,42.37886],[-8.4871,42.37663],[-8.48666,42.37431],[-8.48587,42.37208],[-8.4853,42.37101],[-8.48354,42.37032],[-8.48136,42.37054],[-8.47731,42.3689],[-8.47561,42.36781],[-8.4755,42.36522],[-8.47601,42.36191],[-8.47666,42.3597],[-8.4771,42.35526],[-8.47874,42.35433],[-8.481,42.35347],[-8.48249,42.3531],[-8.48315,42.35169],[-8.48302,42.34729],[-8.48375,42.34618],[-8.48594,42.34459],[-8.48975,42.3464],[-8.49074,42.34672],[-8.49142,42.34707],[-8.49214,42.34727],[-8.49284,42.34715],[-8.49319,42.34698],[-8.49597,42.34629],[-8.49651,42.34644],[-8.49745,42.34748],[-8.4979,42.34752],[-8.49829,42.34691],[-8.49865,42.34668],[-8.49883,42.34621],[-8.49923,42.34598],[-8.50229,42.34631],[-8.50293,42.34612],[-8.50317,42.34616],[-8.50434,42.34707],[-8.50457,42.34763],[-8.50511,42.34782],[-8.50587,42.34779],[-8.50715,42.34744],[-8.50859,42.34766],[-8.50923,42.34745],[-8.51025,42.3467],[-8.5121,42.34587],[-8.51387,42.34526],[-8.51532,42.34465],[-8.51637,42.34406],[-8.51679,42.34356],[-8.51703,42.34343],[-8.51753,42.34345],[-8.51807,42.3439],[-8.5185,42.34399],[-8.51968,42.3439],[-8.52005,42.34374],[-8.52139,42.3428],[-8.52249,42.34227],[-8.52457,42.34096],[-8.52483,42.34067],[-8.52492,42.34033],[-8.52495,42.33948],[-8.52534,42.33888],[-8.52574,42.33882],[-8.52636,42.33895],[-8.52691,42.33894],[-8.52766,42.33822],[-8.52807,42.33811],[-8.52902,42.33836],[-8.52948,42.33836],[-8.53005,42.33812],[-8.53064,42.33753],[-8.5318,42.33712],[-8.53212,42.33719],[-8.53245,42.33747],[-8.53258,42.33782],[-8.53221,42.3384],[-8.53221,42.3389],[-8.53295,42.33977],[-8.53316,42.34028],[-8.53367,42.34089],[-8.53458,42.34142],[-8.5356,42.34177],[-8.53816,42.34239],[-8.53909,42.34248],[-8.54141,42.34298],[-8.542,42.34307],[-8.54238,42.34296],[-8.54263,42.34256],[-8.54277,42.34206],[-8.5433,42.34129],[-8.5451,42.34025],[-8.54652,42.33974],[-8.54783,42.33956],[-8.5484,42.34096],[-8.55001,42.34293],[-8.55133,42.34503],[-8.55223,42.35009],[-8.5524,42.35056],[-8.5543,42.35363],[-8.55544,42.35682],[-8.55612,42.35747],[-8.55162,42.3603],[-8.55132,42.36125],[-8.5497,42.36158],[-8.5486,42.36299],[-8.54739,42.36378],[-8.54701,42.36476],[-8.54562,42.36581],[-8.54388,42.36551],[-8.5418,42.36779],[-8.54067,42.36768],[-8.53955,42.36847],[-8.53829,42.36964],[-8.53717,42.37245],[-8.53633,42.37291],[-8.53489,42.37303],[-8.52901,42.3727],[-8.52751,42.372],[-8.52409,42.37272],[-8.52253,42.37354],[-8.52157,42.37459],[-8.52184,42.37669],[-8.5215,42.37773],[-8.52029,42.3784],[-8.51535,42.38026],[-8.51439,42.38011],[-8.51221,42.37868],[-8.50996,42.37867],[-8.50837,42.37898],[-8.5035,42.38087],[-8.50166,42.3812]]]}},{"type":"Feature","properties":{"id":"3604303001"},"geometry":{"type":"Polygon","coordinates":[[[-8.53925,42.38947],[-8.53988,42.38771],[-8.54015,42.38521],[-8.53982,42.38227],[-8.53997,42.37719],[-8.53775,42.37656],[-8.53617,42.37577],[-8.53589,42.37522],[-8.5358,42.37375],[-8.53602,42.37313],[-8.53625,42.37291],[-8.53717,42.37245],[-8.53829,42.36964],[-8.53955,42.36847],[-8.54067,42.36768],[-8.5418,42.36779],[-8.54388,42.36551],[-8.54562,42.36581],[-8.54701,42.36476],[-8.54739,42.36378],[-8.5486,42.36299],[-8.5497,42.36158],[-8.55132,42.36125],[-8.55162,42.3603],[-8.55612,42.35747],[-8.55811,42.3594],[-8.558,42.36112],[-8.5578,42.36156],[-8.55767,42.36237],[-8.56285,42.36628],[-8.56374,42.36676],[-8.56464,42.36707],[-8.56576,42.36727],[-8.56727,42.36734],[-8.56803,42.36765],[-8.56996,42.37033],[-8.57116,42.37106],[-8.57143,42.37133],[-8.57146,42.37222],[-8.57164,42.3725],[-8.57219,42.37275],[-8.57391,42.37409],[-8.57815,42.37632],[-8.58014,42.37671],[-8.58271,42.37754],[-8.5838,42.37887],[-8.58456,42.37949],[-8.58601,42.38032],[-8.58734,42.38168],[-8.58788,42.38267],[-8.59099,42.38668],[-8.59552,42.39405],[-8.59543,42.39438],[-8.5901,42.39924],[-8.58978,42.39917],[-8.58806,42.39833],[-8.58566,42.39746],[-8.58329,42.39613],[-8.58112,42.39587],[-8.57558,42.39905],[-8.57276,42.39932],[-8.56951,42.40151],[-8.5657,42.40333],[-8.56346,42.40349],[-8.56065,42.40297],[-8.55605,42.40348],[-8.5499,42.40344],[-8.54858,42.40255],[-8.54774,42.39916],[-8.546,42.39785],[-8.54413,42.3967],[-8.5434,42.39503],[-8.5439,42.3936],[-8.54203,42.3908],[-8.5404,42.39023],[-8.53925,42.38947]]]}},{"type":"Feature","properties":{"id":"3604303002"},"geometry":{"type":"Polygon","coordinates":[[[-8.51965,42.42347],[-8.52041,42.42239],[-8.52042,42.42076],[-8.52067,42.41897],[-8.52039,42.41695],[-8.52335,42.41431],[-8.52353,42.41376],[-8.52324,42.41315],[-8.52116,42.41142],[-8.52069,42.41009],[-8.52086,42.40947],[-8.52174,42.4092],[-8.52242,42.40869],[-8.52245,42.40787],[-8.5223,42.40713],[-8.52255,42.40647],[-8.5226,42.40582],[-8.52232,42.40496],[-8.52278,42.40349],[-8.52142,42.40238],[-8.52072,42.40087],[-8.5201,42.40019],[-8.51915,42.39995],[-8.51879,42.39963],[-8.51781,42.39962],[-8.51774,42.39855],[-8.51835,42.3978],[-8.5183,42.3976],[-8.51863,42.39727],[-8.5194,42.39554],[-8.52069,42.39462],[-8.52242,42.39402],[-8.52453,42.39367],[-8.52735,42.39286],[-8.52912,42.39194],[-8.53105,42.38968],[-8.53377,42.38807],[-8.53567,42.38811],[-8.53741,42.38955],[-8.53868,42.38967],[-8.53925,42.38947],[-8.5404,42.39023],[-8.54203,42.3908],[-8.5439,42.3936],[-8.5434,42.39503],[-8.54413,42.3967],[-8.546,42.39785],[-8.54774,42.39916],[-8.54858,42.40255],[-8.5499,42.40344],[-8.55605,42.40348],[-8.56065,42.40297],[-8.56346,42.40349],[-8.5657,42.40333],[-8.56951,42.40151],[-8.57276,42.39932],[-8.57558,42.39905],[-8.58112,42.39587],[-8.58329,42.39613],[-8.58566,42.39746],[-8.58806,42.39833],[-8.58978,42.39917],[-8.5901,42.39924],[-8.58851,42.40069],[-8.58684,42.40263],[-8.58505,42.40709],[-8.5848,42.40924],[-8.5846,42.4097],[-8.5824,42.41238],[-8.58173,42.4128],[-8.58074,42.41314],[-8.57766,42.41469],[-8.57689,42.41495],[-8.56692,42.42097],[-8.56358,42.42174],[-8.56055,42.42257],[-8.55997,42.42287],[-8.55941,42.42331],[-8.55901,42.42378],[-8.55793,42.42546],[-8.55786,42.42584],[-8.55711,42.427],[-8.55547,42.43042],[-8.55497,42.43029],[-8.55292,42.43021],[-8.55247,42.42985],[-8.55076,42.42942],[-8.54698,42.4295],[-8.54648,42.42943],[-8.54484,42.42968],[-8.54403,42.42971],[-8.54201,42.42952],[-8.54116,42.42933],[-8.53896,42.42832],[-8.53824,42.4289],[-8.53701,42.42953],[-8.53592,42.42994],[-8.53482,42.43015],[-8.53321,42.43008],[-8.53177,42.42971],[-8.53132,42.42944],[-8.53086,42.42899],[-8.52989,42.4286],[-8.52956,42.42819],[-8.52933,42.42811],[-8.52893,42.42818],[-8.52806,42.42799],[-8.52733,42.42767],[-8.52642,42.42716],[-8.52139,42.42385],[-8.51965,42.42347]]]}}]}