{"type":"FeatureCollection","features":[{"type":"Feature","properties":{"id":"3604901001"},"geometry":{"type":"Polygon","coordinates":[[[-8.54832,42.10538],[-8.54613,42.10198],[-8.54879,42.09575],[-8.54927,42.09483],[-8.54963,42.09452],[-8.54999,42.09443],[-8.55089,42.09442],[-8.55374,42.09478],[-8.55477,42.09783],[-8.55516,42.09792],[-8.55611,42.09884],[-8.55653,42.09957],[-8.5573,42.10047],[-8.55869,42.10158],[-8.56145,42.1046],[-8.56247,42.1074],[-8.56239,42.10782],[-8.56267,42.10928],[-8.56228,42.11062],[-8.5603,42.11076],[-8.55902,42.11279],[-8.55302,42.10906],[-8.55127,42.1085],[-8.5487,42.10806],[-8.54832,42.10538]]]}},{"type":"Feature","properties":{"id":"3604901002"},"geometry":{"type":"Polygon","coordinates":[[[-8.53831,42.12706],[-8.54306,42.12668],[-8.54761,42.12593],[-8.55112,42.12462],[-8.55122,42.12364],[-8.551,42.12188],[-8.55108,42.12096],[-8.55193,42.12024],[-8.55422,42.11972],[-8.55439,42.11913],[-8.55545,42.11762],[-8.55689,42.11683],[-8.55708,42.11569],[-8.55767,42.11508],[-8.5603,42.11076],[-8.56228,42.11062],[-8.56267,42.10928],[-8.56239,42.10782],[-8.56247,42.1074],[-8.56175,42.10545],[-8.56258,42.105],[-8.56397,42.1047],[-8.56397,42.10419],[-8.56692,42.10549],[-8.56865,42.10659],[-8.57197,42.10774],[-8.5755,42.10862],[-8.5772,42.1088],[-8.57923,42.10866],[-8.5839,42.10688],[-8.58399,42.10835],[-8.58135,42.11574],[-8.58075,42.12402],[-8.58053,42.12508],[-8.57928,42.12854],[-8.58,42.13063],[-8.5811,42.13445],[-8.58099,42.13795],[-8.58105,42.13922],[-8.57903,42.14811],[-8.56627,42.14775],[-8.56465,42.1446],[-8.56423,42.14412],[-8.55972,42.1412],[-8.55771,42.14026],[-8.55703,42.139],[-8.55397,42.13563],[-8.54903,42.13259],[-8.54753,42.13189],[-8.54399,42.12979],[-8.53831,42.12706]]]}},{"type":"Feature","properties":{"id":"3604901003"},"geometry":{"type":"Polygon","coordinates":[[[-8.53599,42.12576],[-8.53636,42.12124],[-8.54125,42.10987],[-8.5412,42.10908],[-8.54048,42.10783],[-8.54035,42.10713],[-8.53924,42.10559],[-8.5402,42.10526],[-8.54044,42.10333],[-8.54042,42.10186],[-8.54613,42.10198],[-8.54832,42.10538],[-8.5487,42.10806],[-8.55127,42.1085],[-8.55302,42.10906],[-8.55902,42.11279],[-8.55767,42.11508],[-8.55708,42.11569],[-8.55689,42.11683],[-8.55545,42.11762],[-8.55439,42.11913],[-8.55422,42.11972],[-8.55193,42.12024],[-8.55108,42.12096],[-8.551,42.12188],[-8.55122,42.12364],[-8.55112,42.12462],[-8.54761,42.12593],[-8.54306,42.12668],[-8.53831,42.12706],[-8.53683,42.12634],[-8.53599,42.12576]]]}},{"type":"Feature","properties":{"id":"3604901004"},"geometry":{"type":"Polygon","coordinates":[[[-8.55864,42.10155],[-8.55927,42.10056],[-8.56066,42.09958],[-8.56168,42.09931],[-8.56424,42.09897],[-8.56451,42.10021],[-8.56398,42.10295],[-8.56397,42.1047],[-8.56258,42.105],[-8.56175,42.10545],[-8.56124,42.10428],[-8.55864,42.10155]]]}},{"type":"Feature","properties":{"id":"3604901005"},"geometry":{"type":"Polygon","coordinates":[[[-8.55374,42.09478],[-8.55491,42.09487],[-8.56432,42.09396],[-8.56377,42.09735],[-8.56398,42.09779],[-8.56424,42.09897],[-8.56168,42.09931],[-8.56066,42.09958],[-8.55927,42.10056],[-8.55864,42.10155],[-8.5573,42.10047],[-8.55653,42.09957],[-8.55611,42.09884],[-8.55516,42.09792],[-8.55477,42.09783],[-8.55374,42.09478]]]}},{"type":"Feature","properties":{"id":"3604902001"},"geometry":{"type":"Polygon","coordinates":[[[-8.56397,42.10419],[-8.56398,42.10295],[-8.56451,42.10021],[-8.56398,42.09779],[-8.56377,42.09735],[-8.56432,42.09396],[-8.5655,42.09152],[-8.5659,42.0912],[-8.56682,42.08752],[-8.56927,42.08359],[-8.57216,42.08079],[-8.57821,42.08272],[-8.58426,42.08607],[-8.58862,42.08595],[-8.59209,42.086],[-8.59613,42.08655],[-8.59982,42.08815],[-8.60171,42.08766],[-8.60311,42.0861],[-8.60544,42.085],[-8.623,42.08491],[-8.62552,42.08497],[-8.63543,42.08821],[-8.63082,42.08958],[-8.62571,42.09178],[-8.62437,42.09403],[-8.62476,42.09439],[-8.62327,42.09527],[-8.62301,42.09515],[-8.62252,42.09551],[-8.62247,42.09569],[-8.62257,42.09587],[-8.62198,42.09616],[-8.62171,42.09619],[-8.62154,42.09631],[-8.62144,42.09657],[-8.62122,42.09652],[-8.62081,42.0968],[-8.61965,42.09724],[-8.6194,42.09768],[-8.61385,42.10064],[-8.60935,42.10116],[-8.60651,42.10164],[-8.60171,42.10016],[-8.60154,42.10003],[-8.59213,42.10069],[-8.58918,42.10145],[-8.58601,42.10088],[-8.58379,42.10525],[-8.5839,42.10688],[-8.57923,42.10866],[-8.5772,42.1088],[-8.5755,42.10862],[-8.57197,42.10774],[-8.56865,42.10659],[-8.56692,42.10549],[-8.56397,42.10419]]]}},{"type":"Feature","properties":{"id":"3604902002"},"geometry":{"type":"Polygon","coordinates":[[[-8.55089,42.09442],[-8.54999,42.09443],[-8.54984,42.09353],[-8.54981,42.09176],[-8.54958,42.09061],[-8.54967,42.08961],[-8.54897,42.08773],[-8.54766,42.08671],[-8.54753,42.08611],[-8.54768,42.08559],[-8.54804,42.08518],[-8.54842,42.08498],[-8.54911,42.08495],[-8.5493,42.0842],[-8.54924,42.08351],[-8.54772,42.08231],[-8.54756,42.08187],[-8.54779,42.08079],[-8.54744,42.07995],[-8.54773,42.07946],[-8.54865,42.07855],[-8.54877,42.07688],[-8.5492,42.07605],[-8.54927,42.07556],[-8.54917,42.07491],[-8.54868,42.07392],[-8.5479,42.07312],[-8.54815,42.07247],[-8.54883,42.07221],[-8.54935,42.07186],[-8.54955,42.07149],[-8.54962,42.07095],[-8.5501,42.07031],[-8.55087,42.06857],[-8.55199,42.06733],[-8.55261,42.06641],[-8.55336,42.06495],[-8.55559,42.06514],[-8.5595,42.06621],[-8.57218,42.06791],[-8.57662,42.07473],[-8.58233,42.07212],[-8.58521,42.07068],[-8.58928,42.06804],[-8.58916,42.06789],[-8.59057,42.06703],[-8.59276,42.06542],[-8.59375,42.0648],[-8.614,42.07298],[-8.61028,42.0799],[-8.60855,42.08341],[-8.60713,42.08373],[-8.60549,42.08498],[-8.60311,42.0861],[-8.60171,42.08766],[-8.59982,42.08815],[-8.59613,42.08655],[-8.59209,42.086],[-8.58862,42.08595],[-8.58426,42.08607],[-8.57821,42.08272],[-8.57216,42.08079],[-8.56927,42.08359],[-8.56682,42.08752],[-8.5659,42.0912],[-8.5655,42.09152],[-8.56432,42.09396],[-8.55491,42.09487],[-8.55278,42.0947],[-8.55089,42.09442]]]}}]}