{"type":"FeatureCollection","features":[{"type":"Feature","properties":{"id":"3605201001"},"geometry":{"type":"Polygon","coordinates":[[[-8.22616,42.6932],[-8.22625,42.68875],[-8.22585,42.68501],[-8.22872,42.67855],[-8.23086,42.6767],[-8.23287,42.67615],[-8.23306,42.67575],[-8.23289,42.67335],[-8.23492,42.67159],[-8.23785,42.67011],[-8.24695,42.66882],[-8.24863,42.66888],[-8.25241,42.65965],[-8.25315,42.65683],[-8.25978,42.65279],[-8.26241,42.65271],[-8.2652,42.65331],[-8.26684,42.65388],[-8.26844,42.65499],[-8.27039,42.65608],[-8.27172,42.6572],[-8.27335,42.65933],[-8.27428,42.662],[-8.27302,42.66324],[-8.2724,42.66447],[-8.27359,42.66596],[-8.27341,42.66724],[-8.27302,42.66842],[-8.27288,42.67011],[-8.2705,42.67033],[-8.26755,42.67088],[-8.26516,42.67162],[-8.26413,42.67293],[-8.26348,42.67412],[-8.26419,42.67727],[-8.26441,42.68007],[-8.26447,42.6819],[-8.26385,42.68413],[-8.26587,42.68613],[-8.2661,42.6867],[-8.26581,42.68964],[-8.26717,42.69076],[-8.26891,42.69129],[-8.27055,42.69109],[-8.27117,42.69148],[-8.27141,42.69206],[-8.2721,42.69227],[-8.27147,42.69294],[-8.27144,42.69315],[-8.27253,42.6943],[-8.27311,42.69556],[-8.27015,42.69722],[-8.26953,42.69748],[-8.26888,42.69821],[-8.26807,42.69831],[-8.26622,42.69905],[-8.26582,42.69878],[-8.26527,42.69867],[-8.26408,42.69866],[-8.26336,42.69841],[-8.26292,42.6984],[-8.26254,42.69868],[-8.26235,42.69895],[-8.26262,42.69952],[-8.26165,42.6998],[-8.26014,42.7004],[-8.25835,42.70226],[-8.25762,42.70186],[-8.2557,42.7014],[-8.25539,42.70125],[-8.25454,42.70012],[-8.25357,42.69936],[-8.25176,42.69925],[-8.25039,42.6994],[-8.24939,42.69893],[-8.24837,42.69759],[-8.24792,42.69747],[-8.24434,42.69716],[-8.24346,42.69634],[-8.24281,42.69598],[-8.23549,42.69503],[-8.22792,42.69388],[-8.22692,42.69357],[-8.22616,42.6932]]]}},{"type":"Feature","properties":{"id":"3605201002"},"geometry":{"type":"Polygon","coordinates":[[[-8.21845,42.72323],[-8.21382,42.72404],[-8.21345,42.724],[-8.21256,42.72323],[-8.21187,42.72234],[-8.21033,42.72156],[-8.20918,42.72077],[-8.20859,42.72011],[-8.2085,42.71967],[-8.2086,42.71889],[-8.20894,42.71821],[-8.20986,42.71718],[-8.21083,42.71652],[-8.21102,42.71615],[-8.21068,42.71428],[-8.2102,42.71351],[-8.20981,42.71323],[-8.20883,42.71277],[-8.20777,42.71252],[-8.20656,42.71201],[-8.20569,42.71155],[-8.20516,42.71085],[-8.20526,42.71055],[-8.20556,42.71031],[-8.20759,42.70995],[-8.20807,42.70938],[-8.20816,42.70904],[-8.20752,42.70687],[-8.20734,42.70656],[-8.20688,42.70615],[-8.20651,42.70525],[-8.20648,42.70471],[-8.20658,42.70315],[-8.20698,42.70246],[-8.20864,42.70083],[-8.20892,42.69993],[-8.20878,42.69898],[-8.2082,42.69735],[-8.20813,42.6962],[-8.20825,42.69596],[-8.20858,42.6957],[-8.20964,42.69542],[-8.2109,42.69523],[-8.21166,42.69486],[-8.2124,42.69407],[-8.21289,42.6932],[-8.21278,42.69305],[-8.21232,42.69301],[-8.21164,42.69316],[-8.21113,42.69334],[-8.20976,42.69409],[-8.20764,42.69436],[-8.20726,42.69426],[-8.20696,42.69395],[-8.20604,42.69205],[-8.20553,42.6913],[-8.20489,42.69077],[-8.20347,42.69068],[-8.20115,42.6908],[-8.20021,42.69049],[-8.19902,42.68948],[-8.19896,42.68924],[-8.19924,42.68865],[-8.19896,42.68718],[-8.19936,42.68631],[-8.19946,42.68568],[-8.19994,42.6847],[-8.20027,42.68434],[-8.20068,42.68409],[-8.20104,42.68402],[-8.20244,42.68432],[-8.20481,42.68503],[-8.20525,42.68506],[-8.20562,42.68493],[-8.2059,42.68443],[-8.20676,42.68348],[-8.20713,42.68279],[-8.20729,42.68224],[-8.20721,42.68154],[-8.20739,42.68085],[-8.20778,42.6803],[-8.20832,42.68006],[-8.20905,42.67999],[-8.21011,42.68031],[-8.21208,42.67746],[-8.21093,42.67542],[-8.21019,42.67343],[-8.21007,42.67229],[-8.20869,42.67065],[-8.20731,42.67002],[-8.20593,42.66873],[-8.20533,42.66833],[-8.20554,42.66669],[-8.20533,42.66635],[-8.20518,42.66625],[-8.20448,42.66639],[-8.20354,42.66669],[-8.20332,42.66683],[-8.20243,42.66692],[-8.20161,42.66684],[-8.2013,42.66669],[-8.20114,42.66645],[-8.20113,42.66612],[-8.20127,42.66561],[-8.20191,42.66468],[-8.2021,42.66405],[-8.20198,42.66381],[-8.2006,42.66288],[-8.20025,42.66223],[-8.20027,42.66122],[-8.19998,42.66106],[-8.19954,42.66103],[-8.19808,42.66144],[-8.19776,42.66144],[-8.19741,42.66102],[-8.1972,42.66012],[-8.19743,42.65967],[-8.20061,42.65685],[-8.20171,42.65614],[-8.20237,42.65541],[-8.20312,42.65425],[-8.20573,42.65192],[-8.20754,42.65066],[-8.20806,42.64996],[-8.20908,42.6492],[-8.21031,42.64741],[-8.21138,42.64635],[-8.21182,42.64569],[-8.21172,42.64549],[-8.21127,42.64534],[-8.20951,42.6454],[-8.20875,42.64525],[-8.20815,42.64505],[-8.20747,42.64441],[-8.20728,42.64404],[-8.20759,42.64265],[-8.20648,42.64141],[-8.20632,42.64116],[-8.20634,42.64086],[-8.20649,42.64059],[-8.20684,42.6404],[-8.209,42.63995],[-8.21001,42.63936],[-8.21221,42.6387],[-8.21298,42.638],[-8.21315,42.63771],[-8.21278,42.63721],[-8.21286,42.63698],[-8.2132,42.6368],[-8.21377,42.63688],[-8.21468,42.63719],[-8.21502,42.63746],[-8.21527,42.6375],[-8.21558,42.63741],[-8.2157,42.63724],[-8.22149,42.63904],[-8.22406,42.63946],[-8.22723,42.63912],[-8.23045,42.64054],[-8.23374,42.64046],[-8.23881,42.64179],[-8.24294,42.64183],[-8.24526,42.64108],[-8.24695,42.64279],[-8.24833,42.64574],[-8.24927,42.64833],[-8.25022,42.65042],[-8.25124,42.65209],[-8.25251,42.65485],[-8.25317,42.65682],[-8.25241,42.65965],[-8.24863,42.66888],[-8.24695,42.66882],[-8.23785,42.67011],[-8.23492,42.67159],[-8.23289,42.67335],[-8.23306,42.67575],[-8.23287,42.67615],[-8.23086,42.6767],[-8.22872,42.67855],[-8.22585,42.68501],[-8.22625,42.68875],[-8.22608,42.69528],[-8.22625,42.69804],[-8.22647,42.69874],[-8.22635,42.69992],[-8.22643,42.7008],[-8.22697,42.70234],[-8.2256,42.70324],[-8.22529,42.70451],[-8.22472,42.70511],[-8.22471,42.70617],[-8.22828,42.70746],[-8.23049,42.70919],[-8.23225,42.70979],[-8.23433,42.70993],[-8.23529,42.7103],[-8.23727,42.7096],[-8.23855,42.70884],[-8.23967,42.70774],[-8.24203,42.71036],[-8.24477,42.71046],[-8.24455,42.71334],[-8.24068,42.71638],[-8.23932,42.71787],[-8.23817,42.71885],[-8.23667,42.72126],[-8.23612,42.72458],[-8.23611,42.72753],[-8.23705,42.73037],[-8.23938,42.73005],[-8.24029,42.72988],[-8.2413,42.72956],[-8.24329,42.72862],[-8.24638,42.72668],[-8.24785,42.72698],[-8.24804,42.72769],[-8.24853,42.72822],[-8.24962,42.73075],[-8.25003,42.73349],[-8.25055,42.73508],[-8.25134,42.73608],[-8.25237,42.73768],[-8.25106,42.74445],[-8.25058,42.74475],[-8.24683,42.74627],[-8.24328,42.74745],[-8.24165,42.74809],[-8.2409,42.74859],[-8.24041,42.74934],[-8.24032,42.75089],[-8.24052,42.75646],[-8.23951,42.75654],[-8.23895,42.75671],[-8.23837,42.75705],[-8.23749,42.75814],[-8.23708,42.75852],[-8.23657,42.75881],[-8.23615,42.75883],[-8.23577,42.75847],[-8.2356,42.75805],[-8.23612,42.75723],[-8.23597,42.75694],[-8.2356,42.75665],[-8.23408,42.75611],[-8.23337,42.75572],[-8.23311,42.7553],[-8.23307,42.75411],[-8.23254,42.75207],[-8.23261,42.75151],[-8.23248,42.7511],[-8.23186,42.75033],[-8.23173,42.75003],[-8.23204,42.74889],[-8.23205,42.74758],[-8.23196,42.7472],[-8.23238,42.74625],[-8.23201,42.74563],[-8.23124,42.74509],[-8.22998,42.74461],[-8.22874,42.74454],[-8.22854,42.74436],[-8.22839,42.74398],[-8.22832,42.74302],[-8.22857,42.74254],[-8.23213,42.73983],[-8.23245,42.73811],[-8.2328,42.73735],[-8.23271,42.73671],[-8.23253,42.7365],[-8.23075,42.73558],[-8.23001,42.73303],[-8.22946,42.73202],[-8.22906,42.73169],[-8.22814,42.7317],[-8.22742,42.73151],[-8.22605,42.73191],[-8.22571,42.73189],[-8.22553,42.73175],[-8.22539,42.73012],[-8.22453,42.72856],[-8.22385,42.72775],[-8.22359,42.72701],[-8.22353,42.72563],[-8.22369,42.72535],[-8.22375,42.72453],[-8.22317,42.72394],[-8.22272,42.72366],[-8.22227,42.72352],[-8.22089,42.72327],[-8.21845,42.72323]]]}},{"type":"Feature","properties":{"id":"3605201003"},"geometry":{"type":"Polygon","coordinates":[[[-8.28448,42.74641],[-8.28394,42.74698],[-8.28084,42.74883],[-8.27924,42.7483],[-8.27775,42.7484],[-8.27668,42.74979],[-8.27539,42.75099],[-8.27596,42.75165],[-8.27517,42.75268],[-8.27373,42.75343],[-8.2737,42.7548],[-8.27213,42.75652],[-8.27108,42.75805],[-8.27055,42.75927],[-8.2703,42.75923],[-8.26989,42.75933],[-8.26914,42.76011],[-8.2689,42.76023],[-8.26494,42.75947],[-8.26438,42.75953],[-8.26384,42.75977],[-8.26352,42.76005],[-8.26338,42.7604],[-8.26348,42.76284],[-8.26345,42.76339],[-8.26328,42.76351],[-8.26304,42.76356],[-8.26237,42.76344],[-8.25954,42.76268],[-8.25786,42.762],[-8.2577,42.76181],[-8.25771,42.76156],[-8.2586,42.76078],[-8.259,42.76034],[-8.25919,42.75996],[-8.25919,42.75883],[-8.25845,42.75812],[-8.25818,42.7576],[-8.25826,42.75729],[-8.25854,42.75692],[-8.25966,42.75621],[-8.26023,42.75549],[-8.26049,42.75491],[-8.26034,42.75464],[-8.25901,42.75384],[-8.25747,42.7533],[-8.25625,42.75307],[-8.25262,42.75287],[-8.25016,42.75316],[-8.24808,42.75444],[-8.24786,42.75494],[-8.24788,42.75621],[-8.24776,42.75655],[-8.24691,42.75736],[-8.24656,42.75757],[-8.24608,42.75764],[-8.24571,42.75747],[-8.24552,42.75703],[-8.24547,42.75644],[-8.24563,42.75568],[-8.24544,42.75527],[-8.24486,42.75509],[-8.24354,42.75514],[-8.24323,42.75537],[-8.24245,42.75633],[-8.24224,42.75645],[-8.24171,42.75654],[-8.24052,42.75646],[-8.24032,42.75089],[-8.24041,42.74934],[-8.2409,42.74859],[-8.24165,42.74809],[-8.24328,42.74745],[-8.24683,42.74627],[-8.25058,42.74475],[-8.25106,42.74445],[-8.25237,42.73768],[-8.25134,42.73608],[-8.25055,42.73508],[-8.25003,42.73349],[-8.24962,42.73075],[-8.24853,42.72822],[-8.24804,42.72769],[-8.24785,42.72698],[-8.24638,42.72668],[-8.24329,42.72862],[-8.2413,42.72956],[-8.24029,42.72988],[-8.23938,42.73005],[-8.23705,42.73037],[-8.23611,42.72753],[-8.23612,42.72458],[-8.23667,42.72126],[-8.23817,42.71885],[-8.23932,42.71787],[-8.24068,42.71638],[-8.24455,42.71334],[-8.24477,42.71046],[-8.24203,42.71036],[-8.23967,42.70774],[-8.23855,42.70884],[-8.23727,42.7096],[-8.23529,42.7103],[-8.23433,42.70993],[-8.23225,42.70979],[-8.23049,42.70919],[-8.22828,42.70746],[-8.22471,42.70617],[-8.22472,42.70511],[-8.22529,42.70451],[-8.2256,42.70324],[-8.22697,42.70234],[-8.22643,42.7008],[-8.22635,42.69992],[-8.22647,42.69874],[-8.22625,42.69804],[-8.22608,42.69528],[-8.22616,42.6932],[-8.22692,42.69357],[-8.22792,42.69388],[-8.23549,42.69503],[-8.24281,42.69598],[-8.24346,42.69634],[-8.24434,42.69716],[-8.24792,42.69747],[-8.24837,42.69759],[-8.24939,42.69893],[-8.25039,42.6994],[-8.25176,42.69925],[-8.25357,42.69936],[-8.25454,42.70012],[-8.25539,42.70125],[-8.2557,42.7014],[-8.25762,42.70186],[-8.25835,42.70226],[-8.26014,42.7004],[-8.26165,42.6998],[-8.26262,42.69952],[-8.26235,42.69895],[-8.26254,42.69868],[-8.26292,42.6984],[-8.26336,42.69841],[-8.26408,42.69866],[-8.26527,42.69867],[-8.26582,42.69878],[-8.26622,42.69905],[-8.26807,42.69831],[-8.26888,42.69821],[-8.26953,42.69748],[-8.27015,42.69722],[-8.27311,42.69556],[-8.27253,42.6943],[-8.27144,42.69315],[-8.27147,42.69294],[-8.27211,42.69226],[-8.27272,42.69124],[-8.27519,42.68987],[-8.2777,42.68907],[-8.27779,42.69038],[-8.28022,42.69356],[-8.28028,42.69494],[-8.28191,42.6969],[-8.27989,42.70027],[-8.28102,42.7038],[-8.2821,42.70558],[-8.28138,42.70748],[-8.28172,42.70903],[-8.28343,42.71028],[-8.28314,42.71474],[-8.2822,42.71527],[-8.28169,42.7153],[-8.28159,42.71473],[-8.2806,42.7147],[-8.27865,42.7154],[-8.27815,42.71633],[-8.27875,42.71678],[-8.2779,42.71841],[-8.27949,42.71887],[-8.2807,42.71969],[-8.28013,42.72029],[-8.28027,42.7207],[-8.28281,42.72016],[-8.28303,42.72099],[-8.28243,42.723],[-8.2817,42.72414],[-8.28052,42.72443],[-8.28048,42.72498],[-8.28068,42.72525],[-8.28185,42.72557],[-8.28203,42.72588],[-8.28128,42.72619],[-8.28103,42.72645],[-8.28102,42.72681],[-8.28148,42.72707],[-8.28225,42.72782],[-8.28214,42.72844],[-8.28255,42.72975],[-8.28243,42.73032],[-8.28305,42.73133],[-8.28263,42.73189],[-8.27973,42.73351],[-8.27949,42.73407],[-8.27971,42.73468],[-8.28063,42.73562],[-8.28088,42.73607],[-8.27946,42.73734],[-8.27949,42.73784],[-8.27984,42.73827],[-8.28105,42.73882],[-8.2811,42.73916],[-8.2807,42.73929],[-8.28049,42.73979],[-8.28098,42.74011],[-8.28166,42.74084],[-8.28139,42.74131],[-8.28137,42.74231],[-8.28213,42.74273],[-8.28318,42.74234],[-8.28346,42.74255],[-8.2836,42.74488],[-8.28302,42.74536],[-8.28329,42.74611],[-8.28448,42.74641]]]}},{"type":"Feature","properties":{"id":"3605202001"},"geometry":{"type":"Polygon","coordinates":[[[-8.28309,42.71476],[-8.28343,42.71028],[-8.28172,42.70903],[-8.28138,42.70748],[-8.2821,42.70558],[-8.28102,42.7038],[-8.27989,42.70027],[-8.28191,42.6969],[-8.28028,42.69494],[-8.28022,42.69356],[-8.27779,42.69038],[-8.2777,42.68907],[-8.27519,42.68987],[-8.27272,42.69124],[-8.2721,42.69227],[-8.27141,42.69206],[-8.27117,42.69148],[-8.27055,42.69109],[-8.26891,42.69129],[-8.26717,42.69076],[-8.26581,42.68964],[-8.2661,42.6867],[-8.26587,42.68613],[-8.26385,42.68413],[-8.26447,42.6819],[-8.26441,42.68007],[-8.26419,42.67727],[-8.26348,42.67412],[-8.26413,42.67293],[-8.26516,42.67162],[-8.26755,42.67088],[-8.2705,42.67033],[-8.27288,42.67011],[-8.27302,42.66842],[-8.27341,42.66724],[-8.27359,42.66596],[-8.2724,42.66447],[-8.27302,42.66324],[-8.27428,42.662],[-8.27335,42.65933],[-8.27172,42.6572],[-8.27039,42.65608],[-8.26844,42.65499],[-8.26684,42.65388],[-8.2652,42.65331],[-8.26241,42.65271],[-8.25978,42.65279],[-8.25317,42.65682],[-8.25251,42.65485],[-8.25124,42.65209],[-8.25022,42.65042],[-8.24927,42.64833],[-8.24833,42.64574],[-8.24695,42.64279],[-8.24526,42.64108],[-8.24294,42.64183],[-8.23881,42.64179],[-8.23374,42.64046],[-8.23045,42.64054],[-8.22723,42.63912],[-8.22406,42.63946],[-8.22149,42.63904],[-8.2157,42.63724],[-8.21616,42.63507],[-8.21614,42.6343],[-8.21593,42.63407],[-8.21485,42.63395],[-8.21489,42.63295],[-8.21454,42.63271],[-8.21401,42.63259],[-8.21352,42.63259],[-8.21169,42.63302],[-8.21053,42.63298],[-8.20976,42.63272],[-8.20905,42.63278],[-8.20879,42.63307],[-8.20859,42.63355],[-8.20808,42.63404],[-8.207,42.63426],[-8.2062,42.6339],[-8.20601,42.63337],[-8.20576,42.63222],[-8.20567,42.63107],[-8.20592,42.63006],[-8.20647,42.62896],[-8.20643,42.62872],[-8.20567,42.62837],[-8.20545,42.62809],[-8.20552,42.62769],[-8.20571,42.62741],[-8.20728,42.627],[-8.20787,42.62654],[-8.20824,42.62637],[-8.20877,42.62623],[-8.20955,42.62623],[-8.21042,42.62602],[-8.21072,42.6258],[-8.21147,42.6246],[-8.21281,42.62344],[-8.21306,42.62258],[-8.21406,42.62124],[-8.21455,42.62114],[-8.21788,42.61333],[-8.22307,42.60871],[-8.22735,42.60472],[-8.23084,42.59914],[-8.23586,42.59693],[-8.24574,42.59699],[-8.2542,42.5903],[-8.25487,42.59067],[-8.25756,42.59133],[-8.25907,42.59217],[-8.26081,42.59203],[-8.26128,42.59212],[-8.26197,42.59257],[-8.26229,42.59289],[-8.26279,42.59411],[-8.26437,42.59625],[-8.26435,42.59657],[-8.26472,42.59753],[-8.26598,42.59856],[-8.26653,42.59924],[-8.26649,42.59952],[-8.26604,42.60007],[-8.26579,42.6009],[-8.26588,42.60143],[-8.26674,42.60391],[-8.26668,42.60535],[-8.26638,42.60663],[-8.26578,42.60727],[-8.26527,42.60827],[-8.26473,42.61025],[-8.26439,42.6123],[-8.26435,42.6146],[-8.27471,42.6221],[-8.27447,42.62312],[-8.27442,42.62354],[-8.27456,42.62418],[-8.27432,42.62529],[-8.27313,42.62786],[-8.27258,42.6287],[-8.27247,42.62933],[-8.27306,42.63005],[-8.2732,42.63065],[-8.27305,42.63155],[-8.27311,42.63183],[-8.27345,42.63243],[-8.27382,42.63364],[-8.27485,42.63408],[-8.27508,42.63428],[-8.27525,42.63482],[-8.27596,42.63597],[-8.27679,42.63672],[-8.27819,42.63751],[-8.27892,42.63848],[-8.28016,42.63904],[-8.28045,42.63955],[-8.28039,42.63983],[-8.27672,42.64553],[-8.2869,42.64616],[-8.2936,42.64782],[-8.30158,42.65205],[-8.30913,42.65352],[-8.32212,42.6505],[-8.32305,42.65095],[-8.3265,42.65692],[-8.33097,42.66057],[-8.34527,42.66399],[-8.3513,42.67502],[-8.34859,42.67758],[-8.34654,42.68179],[-8.34461,42.68418],[-8.3425,42.68655],[-8.34162,42.68699],[-8.34086,42.68807],[-8.34076,42.68808],[-8.34081,42.68813],[-8.33903,42.68975],[-8.33446,42.69125],[-8.32503,42.69367],[-8.32448,42.69425],[-8.32364,42.69556],[-8.32412,42.69661],[-8.32424,42.69773],[-8.32125,42.70235],[-8.31958,42.7036],[-8.31881,42.70461],[-8.3183,42.70713],[-8.31736,42.70794],[-8.31565,42.70817],[-8.31338,42.70883],[-8.31143,42.70892],[-8.30707,42.70966],[-8.30509,42.71045],[-8.30042,42.71086],[-8.29606,42.71305],[-8.29203,42.71363],[-8.28777,42.71451],[-8.28681,42.71556],[-8.28309,42.71476]]]}},{"type":"Feature","properties":{"id":"3605204001"},"geometry":{"type":"Polygon","coordinates":[[[-8.29707,42.77326],[-8.29352,42.77181],[-8.29306,42.77148],[-8.29264,42.77098],[-8.2923,42.77085],[-8.29075,42.77112],[-8.29011,42.7714],[-8.2885,42.77243],[-8.28791,42.77296],[-8.28738,42.77305],[-8.28685,42.77299],[-8.28621,42.77267],[-8.28411,42.7712],[-8.28382,42.77086],[-8.28337,42.7696],[-8.28338,42.76854],[-8.28361,42.76708],[-8.28341,42.76651],[-8.28313,42.76617],[-8.28254,42.7659],[-8.28028,42.76634],[-8.27972,42.76637],[-8.27881,42.76608],[-8.27771,42.76558],[-8.27603,42.76543],[-8.27527,42.76558],[-8.27502,42.76584],[-8.27455,42.76688],[-8.27423,42.76698],[-8.27376,42.76675],[-8.27323,42.7659],[-8.27131,42.76485],[-8.27102,42.76449],[-8.27092,42.76417],[-8.27194,42.76122],[-8.27201,42.76062],[-8.27186,42.76012],[-8.27146,42.75968],[-8.27087,42.75933],[-8.27055,42.75927],[-8.27108,42.75805],[-8.27213,42.75652],[-8.2737,42.7548],[-8.27373,42.75343],[-8.27517,42.75268],[-8.27596,42.75165],[-8.27539,42.75099],[-8.27668,42.74979],[-8.27775,42.7484],[-8.27924,42.7483],[-8.28084,42.74883],[-8.28394,42.74698],[-8.28448,42.74641],[-8.28329,42.74611],[-8.28302,42.74536],[-8.2836,42.74488],[-8.28346,42.74255],[-8.28318,42.74234],[-8.28213,42.74273],[-8.28137,42.74231],[-8.28139,42.74131],[-8.28166,42.74084],[-8.28098,42.74011],[-8.28049,42.73979],[-8.2807,42.73929],[-8.2811,42.73916],[-8.28105,42.73882],[-8.27984,42.73827],[-8.27949,42.73784],[-8.27946,42.73734],[-8.28088,42.73607],[-8.28063,42.73562],[-8.27971,42.73468],[-8.27949,42.73407],[-8.27973,42.73351],[-8.28263,42.73189],[-8.28305,42.73133],[-8.28243,42.73032],[-8.28255,42.72975],[-8.28214,42.72844],[-8.28225,42.72782],[-8.28148,42.72707],[-8.28102,42.72681],[-8.28103,42.72645],[-8.28128,42.72619],[-8.28203,42.72588],[-8.28185,42.72557],[-8.28068,42.72525],[-8.28048,42.72498],[-8.28052,42.72443],[-8.2817,42.72414],[-8.28243,42.723],[-8.28303,42.72099],[-8.28281,42.72016],[-8.28027,42.7207],[-8.28013,42.72029],[-8.2807,42.71969],[-8.27949,42.71887],[-8.2779,42.71841],[-8.27875,42.71678],[-8.27815,42.71633],[-8.27865,42.7154],[-8.2806,42.7147],[-8.28159,42.71473],[-8.28169,42.7153],[-8.2822,42.71527],[-8.28309,42.71476],[-8.28681,42.71556],[-8.28777,42.71451],[-8.29203,42.71363],[-8.29606,42.71305],[-8.30042,42.71086],[-8.30509,42.71045],[-8.30707,42.70966],[-8.31143,42.70892],[-8.31338,42.70883],[-8.31565,42.70817],[-8.31736,42.70794],[-8.3183,42.70713],[-8.31881,42.70461],[-8.31958,42.7036],[-8.32125,42.70235],[-8.32424,42.69773],[-8.32412,42.69661],[-8.32364,42.69556],[-8.32448,42.69425],[-8.32503,42.69367],[-8.33446,42.69125],[-8.33903,42.68975],[-8.34086,42.68807],[-8.34175,42.69091],[-8.34286,42.69293],[-8.34553,42.694],[-8.34737,42.69544],[-8.34764,42.69982],[-8.34816,42.7015],[-8.34946,42.70391],[-8.35271,42.70883],[-8.35291,42.71295],[-8.35164,42.71917],[-8.35079,42.71983],[-8.35103,42.72093],[-8.35094,42.72107],[-8.34674,42.7204],[-8.34301,42.71937],[-8.33978,42.71876],[-8.33515,42.71631],[-8.33292,42.71659],[-8.33171,42.71723],[-8.33043,42.71769],[-8.32941,42.71786],[-8.32857,42.71822],[-8.32866,42.71871],[-8.32727,42.71965],[-8.32643,42.71984],[-8.32639,42.72026],[-8.32678,42.72091],[-8.32664,42.72136],[-8.32576,42.72167],[-8.3253,42.72226],[-8.32394,42.72274],[-8.3233,42.72346],[-8.3223,42.72379],[-8.32201,42.72434],[-8.32216,42.7248],[-8.32036,42.72614],[-8.31739,42.72797],[-8.31694,42.72987],[-8.31633,42.73118],[-8.31495,42.73193],[-8.3145,42.73246],[-8.3148,42.73382],[-8.31528,42.73494],[-8.31523,42.73559],[-8.31459,42.7365],[-8.31237,42.73711],[-8.31165,42.73755],[-8.31111,42.73938],[-8.31129,42.74021],[-8.31124,42.74062],[-8.31078,42.74094],[-8.30928,42.74092],[-8.30847,42.74136],[-8.30825,42.74275],[-8.31039,42.74513],[-8.31127,42.74545],[-8.31183,42.74611],[-8.31274,42.74751],[-8.31326,42.74856],[-8.31411,42.75314],[-8.31489,42.7565],[-8.31491,42.76285],[-8.31378,42.76269],[-8.3135,42.76287],[-8.31299,42.76348],[-8.31195,42.76425],[-8.31058,42.76614],[-8.30935,42.76698],[-8.30861,42.76733],[-8.30771,42.7683],[-8.30687,42.76876],[-8.30636,42.76891],[-8.30612,42.76913],[-8.30594,42.76964],[-8.30596,42.77044],[-8.30574,42.77102],[-8.30504,42.77205],[-8.30481,42.7722],[-8.30408,42.77236],[-8.30328,42.77234],[-8.30304,42.77252],[-8.30302,42.77274],[-8.30361,42.77339],[-8.30361,42.77362],[-8.30322,42.77406],[-8.30213,42.77475],[-8.30097,42.77503],[-8.30026,42.77495],[-8.29727,42.77355],[-8.29707,42.77326]]]}},{"type":"Feature","properties":{"id":"3605204002"},"geometry":{"type":"Polygon","coordinates":[[[-8.35362,42.75393],[-8.35309,42.75448],[-8.35374,42.75483],[-8.35462,42.75429],[-8.35915,42.75743],[-8.36064,42.75806],[-8.3615,42.75832],[-8.36297,42.76027],[-8.36315,42.76198],[-8.36189,42.76405],[-8.36285,42.76519],[-8.36825,42.76249],[-8.36949,42.76405],[-8.3692,42.76498],[-8.36942,42.76557],[-8.36955,42.76671],[-8.37026,42.76741],[-8.37039,42.76781],[-8.37066,42.76816],[-8.36973,42.76994],[-8.36836,42.77027],[-8.3676,42.77099],[-8.36766,42.77153],[-8.36699,42.77259],[-8.36514,42.7728],[-8.36449,42.77313],[-8.36427,42.77461],[-8.36316,42.77527],[-8.36286,42.77566],[-8.36171,42.77652],[-8.36097,42.77729],[-8.36073,42.77846],[-8.36028,42.77978],[-8.36,42.78004],[-8.35886,42.7807],[-8.35794,42.78068],[-8.35712,42.78023],[-8.35575,42.779],[-8.35509,42.7788],[-8.35406,42.77903],[-8.35374,42.77923],[-8.3511,42.7817],[-8.34818,42.7839],[-8.3467,42.78434],[-8.34599,42.78427],[-8.34369,42.78369],[-8.34078,42.78255],[-8.33954,42.78187],[-8.33908,42.7815],[-8.33852,42.78081],[-8.33783,42.77952],[-8.33776,42.7787],[-8.33811,42.77823],[-8.33815,42.77796],[-8.33791,42.77692],[-8.33739,42.77569],[-8.33706,42.77523],[-8.33623,42.77474],[-8.3336,42.77351],[-8.33295,42.77293],[-8.33284,42.77226],[-8.33294,42.77193],[-8.33335,42.77172],[-8.33416,42.77165],[-8.33449,42.77113],[-8.33528,42.77069],[-8.33528,42.77042],[-8.33441,42.76926],[-8.33391,42.76879],[-8.33153,42.76745],[-8.33022,42.76719],[-8.32757,42.76738],[-8.325,42.76619],[-8.32449,42.76547],[-8.32448,42.76492],[-8.32494,42.76386],[-8.32494,42.76358],[-8.32469,42.76324],[-8.32328,42.76273],[-8.32088,42.76156],[-8.3199,42.76125],[-8.31908,42.76112],[-8.31862,42.76119],[-8.31767,42.76245],[-8.31727,42.76281],[-8.31688,42.76294],[-8.31598,42.763],[-8.31491,42.76285],[-8.31489,42.7565],[-8.31411,42.75314],[-8.31326,42.74856],[-8.31274,42.74751],[-8.31183,42.74611],[-8.31127,42.74545],[-8.31039,42.74513],[-8.30825,42.74275],[-8.30847,42.74136],[-8.30928,42.74092],[-8.31078,42.74094],[-8.31124,42.74062],[-8.31129,42.74021],[-8.31111,42.73938],[-8.31165,42.73755],[-8.31237,42.73711],[-8.31459,42.7365],[-8.31523,42.73559],[-8.31528,42.73494],[-8.3148,42.73382],[-8.3145,42.73246],[-8.31495,42.73193],[-8.31633,42.73118],[-8.31694,42.72987],[-8.31739,42.72797],[-8.32036,42.72614],[-8.32216,42.7248],[-8.32201,42.72434],[-8.3223,42.72379],[-8.3233,42.72346],[-8.32394,42.72274],[-8.3253,42.72226],[-8.32576,42.72167],[-8.32664,42.72136],[-8.32678,42.72091],[-8.32639,42.72026],[-8.32643,42.71984],[-8.32727,42.71965],[-8.32866,42.71871],[-8.32857,42.71822],[-8.32941,42.71786],[-8.33043,42.71769],[-8.33171,42.71723],[-8.33292,42.71659],[-8.33515,42.71631],[-8.33978,42.71876],[-8.34301,42.71937],[-8.34674,42.7204],[-8.35094,42.72107],[-8.35035,42.72194],[-8.3473,42.7255],[-8.34634,42.72978],[-8.34253,42.73517],[-8.34199,42.73622],[-8.34137,42.74003],[-8.34091,42.7442],[-8.33862,42.74386],[-8.33507,42.74683],[-8.33652,42.75051],[-8.34243,42.75003],[-8.34236,42.75045],[-8.34333,42.75131],[-8.34449,42.75182],[-8.34465,42.75267],[-8.34961,42.75384],[-8.35137,42.75346],[-8.35362,42.75393]]]}}]}