{"type":"FeatureCollection","features":[{"type":"Feature","properties":{"id":"3605501001"},"geometry":{"type":"Polygon","coordinates":[[[-8.64186,42.05978],[-8.64174,42.05964],[-8.6418,42.05886],[-8.64343,42.05012],[-8.64335,42.04941],[-8.64501,42.04715],[-8.64536,42.04678],[-8.64578,42.04678],[-8.64622,42.04688],[-8.64613,42.04724],[-8.6462,42.04765],[-8.64659,42.04829],[-8.64676,42.04881],[-8.64659,42.04913],[-8.64783,42.04967],[-8.64542,42.05236],[-8.64555,42.05253],[-8.64556,42.05298],[-8.64486,42.05343],[-8.6448,42.05379],[-8.64412,42.05462],[-8.64186,42.05978]]]}},{"type":"Feature","properties":{"id":"3605501002"},"geometry":{"type":"Polygon","coordinates":[[[-8.63136,42.04961],[-8.6374,42.04705],[-8.6384,42.04642],[-8.64072,42.04464],[-8.64192,42.04303],[-8.64263,42.0417],[-8.64526,42.04245],[-8.64591,42.04242],[-8.64602,42.04256],[-8.646,42.04282],[-8.64595,42.0432],[-8.64572,42.04343],[-8.64572,42.04435],[-8.64591,42.04495],[-8.64658,42.04616],[-8.64627,42.0469],[-8.64578,42.04678],[-8.64536,42.04678],[-8.64335,42.04941],[-8.64343,42.05012],[-8.6418,42.05886],[-8.64174,42.05964],[-8.64186,42.05978],[-8.6352,42.06457],[-8.63508,42.0644],[-8.63459,42.06422],[-8.63454,42.06407],[-8.63485,42.06337],[-8.63549,42.06255],[-8.63563,42.0614],[-8.63559,42.05968],[-8.63532,42.05919],[-8.63433,42.05846],[-8.63356,42.05721],[-8.63358,42.05703],[-8.63408,42.05689],[-8.63425,42.05673],[-8.63448,42.05566],[-8.63444,42.0552],[-8.63417,42.05467],[-8.6341,42.05419],[-8.63345,42.05364],[-8.63304,42.0529],[-8.63277,42.0515],[-8.63255,42.05108],[-8.63262,42.05081],[-8.63253,42.0505],[-8.63136,42.04961]]]}},{"type":"Feature","properties":{"id":"3605501003"},"geometry":{"type":"Polygon","coordinates":[[[-8.64556,42.05297],[-8.64555,42.05253],[-8.64542,42.05236],[-8.64783,42.04967],[-8.64659,42.04913],[-8.64676,42.04881],[-8.64659,42.04829],[-8.6462,42.04765],[-8.64613,42.04724],[-8.64622,42.04688],[-8.64635,42.04684],[-8.64658,42.04616],[-8.64591,42.04495],[-8.64572,42.04435],[-8.64572,42.04343],[-8.64595,42.0432],[-8.64602,42.04256],[-8.64591,42.04242],[-8.64526,42.04245],[-8.64263,42.0417],[-8.64383,42.03916],[-8.64447,42.03833],[-8.64541,42.03746],[-8.64724,42.03629],[-8.64888,42.03793],[-8.65007,42.03885],[-8.64965,42.04031],[-8.64886,42.04096],[-8.64828,42.04107],[-8.64807,42.04298],[-8.64698,42.04435],[-8.64725,42.04476],[-8.64742,42.04566],[-8.64796,42.04653],[-8.64827,42.04677],[-8.64868,42.04674],[-8.64921,42.04704],[-8.64997,42.04778],[-8.65055,42.04862],[-8.65068,42.04917],[-8.6513,42.04978],[-8.65151,42.05064],[-8.65135,42.05154],[-8.65318,42.05402],[-8.65345,42.05455],[-8.65265,42.05481],[-8.65225,42.05424],[-8.6519,42.05405],[-8.65063,42.05253],[-8.64996,42.05199],[-8.64946,42.05231],[-8.64932,42.0522],[-8.64882,42.05254],[-8.6481,42.0528],[-8.64666,42.05303],[-8.64635,42.05317],[-8.64556,42.05297]]]}},{"type":"Feature","properties":{"id":"3605502001"},"geometry":{"type":"Polygon","coordinates":[[[-8.69458,42.08583],[-8.69127,42.07938],[-8.68914,42.07794],[-8.68848,42.07712],[-8.68804,42.07629],[-8.68701,42.07585],[-8.68583,42.07568],[-8.68547,42.07497],[-8.68452,42.07371],[-8.68357,42.07255],[-8.68261,42.07172],[-8.68254,42.07128],[-8.68151,42.07095],[-8.68115,42.07051],[-8.68063,42.07024],[-8.68012,42.06958],[-8.67979,42.06855],[-8.67941,42.06847],[-8.67902,42.06813],[-8.67861,42.0671],[-8.67827,42.06684],[-8.67797,42.06634],[-8.67743,42.06631],[-8.67718,42.06619],[-8.67565,42.06489],[-8.67535,42.06474],[-8.67484,42.06477],[-8.67467,42.06508],[-8.67438,42.06527],[-8.67393,42.0651],[-8.67365,42.06509],[-8.67353,42.06525],[-8.67359,42.06539],[-8.67319,42.06557],[-8.67293,42.06553],[-8.67236,42.06513],[-8.67199,42.06464],[-8.6717,42.06365],[-8.67139,42.06343],[-8.67065,42.06318],[-8.66971,42.06215],[-8.6691,42.06177],[-8.66844,42.0611],[-8.66759,42.06046],[-8.66646,42.0599],[-8.66604,42.05947],[-8.66467,42.0586],[-8.66353,42.05819],[-8.66315,42.05741],[-8.66229,42.05726],[-8.6608,42.05716],[-8.66031,42.05697],[-8.66009,42.05675],[-8.65829,42.05638],[-8.65784,42.05609],[-8.65779,42.05578],[-8.65758,42.05565],[-8.65724,42.05554],[-8.65643,42.05551],[-8.65626,42.0554],[-8.65525,42.05525],[-8.65285,42.05356],[-8.65135,42.05154],[-8.65151,42.05064],[-8.6513,42.04978],[-8.65068,42.04917],[-8.65044,42.04848],[-8.65108,42.04819],[-8.65129,42.04764],[-8.65149,42.04756],[-8.65263,42.04749],[-8.65361,42.04702],[-8.65493,42.04653],[-8.65587,42.04644],[-8.65623,42.04671],[-8.65656,42.0467],[-8.65657,42.04652],[-8.6572,42.04559],[-8.65944,42.04307],[-8.66223,42.04232],[-8.66286,42.04207],[-8.66429,42.04182],[-8.66596,42.04059],[-8.66807,42.04179],[-8.67429,42.04372],[-8.67482,42.044],[-8.67725,42.04654],[-8.6783,42.04739],[-8.6811,42.04891],[-8.68351,42.04869],[-8.68441,42.05235],[-8.68413,42.05396],[-8.68481,42.05656],[-8.68553,42.05745],[-8.68656,42.05937],[-8.68892,42.06302],[-8.69001,42.06593],[-8.6925,42.06868],[-8.69323,42.07184],[-8.69345,42.07341],[-8.69416,42.07483],[-8.69416,42.07587],[-8.69598,42.08043],[-8.69887,42.08363],[-8.6987,42.08358],[-8.69458,42.08583]]]}},{"type":"Feature","properties":{"id":"3605502002"},"geometry":{"type":"Polygon","coordinates":[[[-8.68348,42.04867],[-8.6811,42.04891],[-8.6783,42.04739],[-8.67725,42.04654],[-8.67482,42.044],[-8.67429,42.04372],[-8.66807,42.04179],[-8.66596,42.04059],[-8.66429,42.04182],[-8.66286,42.04207],[-8.66223,42.04232],[-8.65944,42.04307],[-8.6572,42.04559],[-8.65657,42.04652],[-8.65656,42.0467],[-8.65623,42.04671],[-8.65587,42.04644],[-8.65493,42.04653],[-8.65361,42.04702],[-8.65263,42.04749],[-8.65149,42.04756],[-8.65129,42.04764],[-8.65108,42.04819],[-8.65044,42.04848],[-8.64997,42.04778],[-8.64921,42.04704],[-8.64868,42.04674],[-8.64827,42.04677],[-8.64796,42.04653],[-8.64787,42.04627],[-8.64756,42.04596],[-8.64725,42.04476],[-8.64698,42.04435],[-8.64807,42.04298],[-8.64828,42.04107],[-8.64886,42.04096],[-8.64965,42.04031],[-8.65007,42.03885],[-8.64888,42.03793],[-8.64724,42.03629],[-8.64909,42.03512],[-8.64976,42.03487],[-8.65079,42.03464],[-8.65309,42.03442],[-8.65547,42.03321],[-8.65722,42.03175],[-8.6581,42.03065],[-8.65927,42.02834],[-8.6596,42.02728],[-8.65969,42.02551],[-8.65869,42.02173],[-8.66284,42.02316],[-8.66398,42.02344],[-8.66524,42.02344],[-8.66692,42.02359],[-8.66951,42.02435],[-8.67104,42.02517],[-8.67129,42.02516],[-8.67368,42.02569],[-8.67429,42.02594],[-8.67501,42.02606],[-8.67554,42.02714],[-8.6791,42.03062],[-8.67961,42.03383],[-8.68083,42.03678],[-8.67981,42.03772],[-8.67972,42.03826],[-8.67915,42.03857],[-8.67858,42.03953],[-8.67833,42.04001],[-8.67833,42.04153],[-8.67775,42.04231],[-8.67912,42.04413],[-8.68018,42.0448],[-8.68066,42.04534],[-8.68065,42.04698],[-8.68081,42.0477],[-8.68259,42.04825],[-8.68348,42.04867]]]}},{"type":"Feature","properties":{"id":"3605502003"},"geometry":{"type":"Polygon","coordinates":[[[-8.64199,42.05957],[-8.64412,42.05462],[-8.6448,42.05379],[-8.64486,42.05343],[-8.64556,42.05297],[-8.64635,42.05317],[-8.64666,42.05303],[-8.6481,42.0528],[-8.64882,42.05254],[-8.64932,42.0522],[-8.64946,42.05231],[-8.64996,42.05199],[-8.65063,42.05253],[-8.6519,42.05405],[-8.65225,42.05424],[-8.65265,42.05481],[-8.65345,42.05455],[-8.65285,42.05356],[-8.65525,42.05525],[-8.65626,42.0554],[-8.65643,42.05551],[-8.65724,42.05554],[-8.65758,42.05565],[-8.65779,42.05578],[-8.65784,42.05609],[-8.65829,42.05638],[-8.66009,42.05675],[-8.66031,42.05697],[-8.6608,42.05716],[-8.66229,42.05726],[-8.66315,42.05741],[-8.66353,42.05819],[-8.66467,42.0586],[-8.66604,42.05947],[-8.66646,42.0599],[-8.66759,42.06046],[-8.66844,42.0611],[-8.6691,42.06177],[-8.66971,42.06215],[-8.67065,42.06318],[-8.67139,42.06343],[-8.6717,42.06365],[-8.67188,42.06446],[-8.67262,42.06535],[-8.67319,42.06557],[-8.67359,42.06539],[-8.67353,42.06525],[-8.67365,42.06509],[-8.67393,42.0651],[-8.67438,42.06527],[-8.67467,42.06508],[-8.67484,42.06477],[-8.67535,42.06474],[-8.67565,42.06489],[-8.67718,42.06619],[-8.67743,42.06631],[-8.67797,42.06634],[-8.67827,42.06684],[-8.67861,42.0671],[-8.67902,42.06813],[-8.67941,42.06847],[-8.67979,42.06855],[-8.68012,42.06958],[-8.68063,42.07024],[-8.68115,42.07051],[-8.68151,42.07095],[-8.68254,42.07128],[-8.68261,42.07172],[-8.68357,42.07255],[-8.68452,42.07371],[-8.68547,42.07497],[-8.68583,42.07568],[-8.68701,42.07585],[-8.68804,42.07629],[-8.68848,42.07712],[-8.68914,42.07794],[-8.69127,42.07938],[-8.69458,42.08583],[-8.6942,42.08604],[-8.68968,42.0868],[-8.68605,42.08282],[-8.68252,42.08044],[-8.67952,42.07851],[-8.6757,42.07755],[-8.67397,42.07582],[-8.6711,42.07141],[-8.66399,42.06841],[-8.66099,42.06654],[-8.6585,42.06576],[-8.65473,42.06587],[-8.65114,42.06413],[-8.65036,42.06424],[-8.64884,42.06427],[-8.64791,42.06417],[-8.64766,42.06405],[-8.64701,42.06316],[-8.64682,42.0627],[-8.64638,42.06226],[-8.64606,42.06157],[-8.64547,42.06103],[-8.64404,42.06025],[-8.64341,42.06007],[-8.64284,42.05979],[-8.64199,42.05957]]]}},{"type":"Feature","properties":{"id":"3605502004"},"geometry":{"type":"Polygon","coordinates":[[[-8.68413,42.05396],[-8.68441,42.05235],[-8.68351,42.04869],[-8.68259,42.04825],[-8.68081,42.0477],[-8.68065,42.04698],[-8.68066,42.04534],[-8.68018,42.0448],[-8.67912,42.04413],[-8.67775,42.04231],[-8.67833,42.04153],[-8.67833,42.04001],[-8.67915,42.03857],[-8.67972,42.03826],[-8.67981,42.03772],[-8.68084,42.03682],[-8.68221,42.03497],[-8.68356,42.0329],[-8.68517,42.03229],[-8.68922,42.03038],[-8.69242,42.02846],[-8.69517,42.02508],[-8.69693,42.02539],[-8.69892,42.02552],[-8.70192,42.02546],[-8.70445,42.02606],[-8.70602,42.02628],[-8.7122,42.03073],[-8.71528,42.03264],[-8.71752,42.0393],[-8.71663,42.0435],[-8.71781,42.04835],[-8.71885,42.04982],[-8.7218,42.05296],[-8.72367,42.05453],[-8.72474,42.05562],[-8.72926,42.05974],[-8.73103,42.06121],[-8.72874,42.06475],[-8.72913,42.06582],[-8.72836,42.06903],[-8.72717,42.07265],[-8.72058,42.0778],[-8.71645,42.08088],[-8.71533,42.08247],[-8.71124,42.08556],[-8.70773,42.08612],[-8.6987,42.08358],[-8.69887,42.08363],[-8.69598,42.08043],[-8.69416,42.07587],[-8.69416,42.07483],[-8.69345,42.07341],[-8.69323,42.07184],[-8.6925,42.06868],[-8.69001,42.06593],[-8.68892,42.06302],[-8.68656,42.05937],[-8.68553,42.05745],[-8.68481,42.05656],[-8.68413,42.05396]]]}},{"type":"Feature","properties":{"id":"3605503001"},"geometry":{"type":"Polygon","coordinates":[[[-8.63629,42.08131],[-8.63632,42.08076],[-8.6367,42.08002],[-8.63686,42.07928],[-8.63692,42.07739],[-8.6368,42.07722],[-8.63565,42.07666],[-8.63544,42.07607],[-8.63554,42.07591],[-8.63594,42.07568],[-8.63791,42.07516],[-8.63821,42.07472],[-8.63834,42.07386],[-8.63816,42.07268],[-8.638,42.07247],[-8.63752,42.07223],[-8.63743,42.07196],[-8.63711,42.07158],[-8.63709,42.07111],[-8.63732,42.07073],[-8.63721,42.07072],[-8.63725,42.07042],[-8.63738,42.0704],[-8.6374,42.06993],[-8.6376,42.06975],[-8.63819,42.06953],[-8.63828,42.06925],[-8.63806,42.06872],[-8.63753,42.06854],[-8.63767,42.06813],[-8.63688,42.06713],[-8.63702,42.06698],[-8.63571,42.06624],[-8.63522,42.0658],[-8.6352,42.06457],[-8.64189,42.05981],[-8.64199,42.05957],[-8.64284,42.05979],[-8.64341,42.06007],[-8.64404,42.06025],[-8.64547,42.06103],[-8.64606,42.06157],[-8.64638,42.06226],[-8.64682,42.0627],[-8.64701,42.06316],[-8.64766,42.06405],[-8.64791,42.06417],[-8.64884,42.06427],[-8.65036,42.06424],[-8.65114,42.06413],[-8.65473,42.06587],[-8.6585,42.06576],[-8.66099,42.06654],[-8.66399,42.06841],[-8.6711,42.07141],[-8.67397,42.07582],[-8.6757,42.07755],[-8.67952,42.07851],[-8.68252,42.08044],[-8.68605,42.08282],[-8.68968,42.0868],[-8.68951,42.08683],[-8.68626,42.08913],[-8.68515,42.0908],[-8.68292,42.08977],[-8.67729,42.08824],[-8.67526,42.08789],[-8.67197,42.08788],[-8.66946,42.08822],[-8.66915,42.08799],[-8.66665,42.08751],[-8.66681,42.0874],[-8.65697,42.08731],[-8.65638,42.08701],[-8.65587,42.08687],[-8.65242,42.08664],[-8.65161,42.08669],[-8.64954,42.08635],[-8.64889,42.08637],[-8.64529,42.08613],[-8.64229,42.08439],[-8.63629,42.08131]]]}},{"type":"Feature","properties":{"id":"3605503002"},"geometry":{"type":"Polygon","coordinates":[[[-8.65026,42.10883],[-8.64904,42.10896],[-8.64741,42.10953],[-8.64618,42.10983],[-8.64521,42.11027],[-8.64475,42.11126],[-8.63817,42.11298],[-8.63689,42.11317],[-8.63548,42.11308],[-8.63432,42.1128],[-8.63438,42.11205],[-8.6352,42.11108],[-8.63545,42.11062],[-8.63537,42.10932],[-8.63653,42.10774],[-8.63635,42.10706],[-8.63648,42.10615],[-8.63548,42.1048],[-8.63611,42.10411],[-8.6377,42.10362],[-8.63822,42.10314],[-8.63906,42.10267],[-8.63933,42.10176],[-8.63998,42.10086],[-8.6396,42.10017],[-8.63904,42.0996],[-8.63794,42.09944],[-8.63633,42.09971],[-8.63515,42.09904],[-8.63393,42.09812],[-8.63344,42.09763],[-8.63343,42.09684],[-8.63404,42.09514],[-8.63397,42.09472],[-8.63306,42.09394],[-8.63293,42.09295],[-8.63238,42.09183],[-8.63408,42.09086],[-8.63497,42.09046],[-8.63621,42.08932],[-8.63648,42.0883],[-8.63557,42.08822],[-8.63634,42.08771],[-8.63647,42.08738],[-8.63628,42.08643],[-8.63664,42.08577],[-8.63637,42.08459],[-8.63659,42.08394],[-8.63661,42.08325],[-8.63639,42.08247],[-8.63629,42.08131],[-8.64229,42.08439],[-8.64529,42.08613],[-8.64889,42.08637],[-8.64954,42.08635],[-8.65161,42.08669],[-8.65242,42.08664],[-8.65587,42.08687],[-8.65638,42.08701],[-8.65697,42.08731],[-8.66681,42.0874],[-8.66665,42.08751],[-8.66915,42.08799],[-8.66946,42.08822],[-8.67197,42.08788],[-8.67526,42.08789],[-8.67729,42.08824],[-8.68292,42.08977],[-8.68515,42.0908],[-8.68504,42.09096],[-8.68426,42.09115],[-8.68206,42.09237],[-8.67982,42.09342],[-8.67786,42.09464],[-8.67723,42.09526],[-8.67703,42.09585],[-8.67724,42.09646],[-8.67936,42.09874],[-8.68055,42.09952],[-8.68146,42.10113],[-8.68088,42.10153],[-8.6783,42.10233],[-8.67751,42.10197],[-8.67458,42.10189],[-8.67354,42.10324],[-8.67149,42.1045],[-8.67008,42.10554],[-8.66759,42.10879],[-8.6666,42.10877],[-8.66483,42.10838],[-8.66238,42.1082],[-8.65855,42.10808],[-8.65507,42.10828],[-8.65402,42.10813],[-8.65026,42.10883]]]}},{"type":"Feature","properties":{"id":"3605504001"},"geometry":{"type":"Polygon","coordinates":[[[-8.63557,42.08822],[-8.62552,42.08497],[-8.623,42.08491],[-8.60544,42.085],[-8.60713,42.08373],[-8.60855,42.08341],[-8.61028,42.0799],[-8.614,42.07298],[-8.60998,42.07138],[-8.61113,42.07037],[-8.61156,42.06982],[-8.61347,42.066],[-8.61432,42.06502],[-8.61493,42.06407],[-8.61518,42.06352],[-8.61594,42.06241],[-8.61641,42.06109],[-8.61698,42.06024],[-8.61684,42.05995],[-8.61663,42.05985],[-8.61703,42.05805],[-8.61724,42.05771],[-8.61714,42.05625],[-8.61665,42.05527],[-8.61599,42.05353],[-8.61524,42.05241],[-8.61719,42.05191],[-8.62065,42.05134],[-8.62509,42.05106],[-8.62879,42.0504],[-8.63053,42.04997],[-8.63136,42.04961],[-8.63253,42.0505],[-8.63262,42.05081],[-8.63255,42.05108],[-8.63277,42.0515],[-8.63304,42.0529],[-8.63345,42.05364],[-8.6341,42.05419],[-8.63417,42.05467],[-8.63448,42.05534],[-8.63425,42.05673],[-8.63408,42.05689],[-8.63358,42.05703],[-8.63354,42.05717],[-8.63433,42.05846],[-8.63537,42.05924],[-8.6356,42.05973],[-8.63563,42.0614],[-8.63549,42.06255],[-8.63485,42.06337],[-8.63453,42.06415],[-8.63508,42.0644],[-8.63519,42.06454],[-8.63522,42.0658],[-8.63571,42.06624],[-8.63702,42.06698],[-8.63688,42.06713],[-8.63767,42.06813],[-8.63753,42.06854],[-8.63806,42.06872],[-8.63828,42.06925],[-8.63819,42.06953],[-8.6376,42.06975],[-8.6374,42.06993],[-8.63738,42.0704],[-8.63725,42.07042],[-8.63721,42.07072],[-8.63732,42.07073],[-8.63709,42.07111],[-8.63711,42.07158],[-8.63743,42.07196],[-8.63752,42.07223],[-8.638,42.07247],[-8.63816,42.07268],[-8.63834,42.07386],[-8.63821,42.07472],[-8.63791,42.07516],[-8.63594,42.07568],[-8.63554,42.07591],[-8.63544,42.07607],[-8.6356,42.07662],[-8.6368,42.07722],[-8.63693,42.07764],[-8.63682,42.07954],[-8.63627,42.08104],[-8.63639,42.08247],[-8.63661,42.08325],[-8.63659,42.08394],[-8.63636,42.08453],[-8.63664,42.08577],[-8.63628,42.08649],[-8.63647,42.08738],[-8.63634,42.08771],[-8.63557,42.08822]]]}},{"type":"Feature","properties":{"id":"3605504002"},"geometry":{"type":"Polygon","coordinates":[[[-8.60998,42.07138],[-8.59375,42.0648],[-8.59276,42.06542],[-8.59057,42.06703],[-8.58916,42.06789],[-8.58928,42.06804],[-8.58521,42.07068],[-8.58233,42.07212],[-8.57662,42.07473],[-8.5726,42.06856],[-8.57336,42.06797],[-8.57355,42.06753],[-8.57373,42.06737],[-8.57443,42.06705],[-8.57458,42.06691],[-8.57454,42.06677],[-8.57495,42.06653],[-8.57473,42.0659],[-8.57558,42.06566],[-8.57598,42.0652],[-8.57621,42.06378],[-8.57743,42.06285],[-8.5771,42.06231],[-8.57695,42.06222],[-8.57696,42.06203],[-8.57754,42.06192],[-8.57784,42.06176],[-8.5781,42.06089],[-8.57818,42.05966],[-8.57797,42.05827],[-8.57813,42.05649],[-8.57884,42.05467],[-8.57936,42.05366],[-8.58021,42.05285],[-8.58395,42.05359],[-8.58931,42.05436],[-8.59117,42.05481],[-8.5934,42.05507],[-8.59482,42.05513],[-8.59808,42.05487],[-8.60417,42.05407],[-8.60824,42.05315],[-8.61342,42.05277],[-8.61524,42.05241],[-8.61599,42.05353],[-8.61665,42.05527],[-8.61714,42.05625],[-8.61724,42.05771],[-8.61703,42.05805],[-8.61663,42.05985],[-8.61684,42.05995],[-8.61698,42.06024],[-8.61641,42.06109],[-8.61594,42.06241],[-8.61518,42.06352],[-8.61493,42.06407],[-8.61432,42.06502],[-8.61347,42.066],[-8.61156,42.06982],[-8.61113,42.07037],[-8.60998,42.07138]]]}},{"type":"Feature","properties":{"id":"3605504003"},"geometry":{"type":"Polygon","coordinates":[[[-8.55559,42.06514],[-8.55336,42.06495],[-8.55283,42.06482],[-8.55269,42.06367],[-8.5528,42.06316],[-8.5533,42.06268],[-8.55379,42.06184],[-8.55403,42.06174],[-8.55405,42.06149],[-8.55373,42.06125],[-8.55396,42.06111],[-8.55394,42.0605],[-8.55417,42.06025],[-8.55439,42.0605],[-8.55472,42.05977],[-8.55533,42.05939],[-8.55493,42.05903],[-8.55523,42.05877],[-8.55538,42.0584],[-8.55597,42.05811],[-8.5559,42.05786],[-8.55667,42.05762],[-8.55681,42.05706],[-8.55725,42.05684],[-8.55713,42.05663],[-8.55737,42.05636],[-8.55737,42.05614],[-8.55719,42.05577],[-8.55727,42.05533],[-8.55756,42.0552],[-8.55749,42.05496],[-8.55714,42.05492],[-8.55678,42.05476],[-8.5552,42.05305],[-8.55563,42.05289],[-8.5571,42.05139],[-8.55769,42.05128],[-8.56189,42.05198],[-8.56476,42.05234],[-8.56654,42.05224],[-8.56912,42.05197],[-8.57156,42.05158],[-8.57307,42.05149],[-8.57437,42.0516],[-8.58021,42.05285],[-8.57936,42.05366],[-8.57884,42.05467],[-8.57813,42.05649],[-8.57797,42.05827],[-8.57818,42.05966],[-8.5781,42.06089],[-8.57784,42.06176],[-8.57754,42.06192],[-8.57696,42.06203],[-8.57695,42.06222],[-8.5771,42.06231],[-8.57743,42.06285],[-8.57621,42.06378],[-8.57598,42.0652],[-8.57558,42.06566],[-8.57473,42.0659],[-8.57495,42.06653],[-8.57454,42.06677],[-8.57458,42.06691],[-8.57443,42.06705],[-8.57373,42.06737],[-8.57355,42.06753],[-8.57336,42.06797],[-8.5726,42.06856],[-8.57218,42.06791],[-8.5595,42.06621],[-8.55559,42.06514]]]}}]}