{"type":"FeatureCollection","features":[{"type":"Feature","properties":{"id":"3732201001"},"geometry":{"type":"Polygon","coordinates":[[[-5.58791,40.88475],[-5.58897,40.88448],[-5.5889,40.88356],[-5.58857,40.88317],[-5.58702,40.88274],[-5.58615,40.88237],[-5.58509,40.88142],[-5.58361,40.88045],[-5.58244,40.87994],[-5.58209,40.87966],[-5.58126,40.87989],[-5.57966,40.88064],[-5.57961,40.88085],[-5.58045,40.88247],[-5.58163,40.88346],[-5.57934,40.88416],[-5.57833,40.88685],[-5.57386,40.8843],[-5.57161,40.88534],[-5.57146,40.88499],[-5.57166,40.88317],[-5.57141,40.88229],[-5.57049,40.88132],[-5.5681,40.88007],[-5.5671,40.88],[-5.56433,40.87862],[-5.56099,40.87711],[-5.56075,40.8771],[-5.55987,40.87748],[-5.55946,40.87742],[-5.55922,40.87725],[-5.55911,40.87691],[-5.55934,40.87596],[-5.55909,40.87583],[-5.55911,40.87532],[-5.55651,40.87516],[-5.55581,40.87526],[-5.55449,40.87574],[-5.55323,40.87568],[-5.55276,40.87548],[-5.55233,40.87516],[-5.55091,40.87317],[-5.54913,40.87341],[-5.5484,40.87333],[-5.54918,40.87173],[-5.54928,40.8711],[-5.54958,40.87053],[-5.54997,40.87019],[-5.55142,40.86944],[-5.55211,40.86886],[-5.55339,40.86728],[-5.55338,40.86444],[-5.55443,40.86205],[-5.55504,40.86117],[-5.55651,40.85935],[-5.55745,40.85863],[-5.55763,40.85803],[-5.55754,40.85766],[-5.55706,40.8571],[-5.5564,40.85673],[-5.55496,40.85632],[-5.55386,40.85647],[-5.5534,40.85619],[-5.55303,40.85576],[-5.55265,40.85463],[-5.55193,40.85402],[-5.54989,40.85284],[-5.54891,40.85205],[-5.5467,40.84966],[-5.54598,40.84819],[-5.54427,40.84638],[-5.54362,40.84516],[-5.54209,40.84504],[-5.54117,40.84445],[-5.54159,40.8441],[-5.542,40.8435],[-5.54201,40.84326],[-5.54178,40.84305],[-5.54153,40.84295],[-5.54114,40.84301],[-5.54048,40.84328],[-5.53974,40.84319],[-5.53905,40.84355],[-5.5385,40.84363],[-5.53737,40.84349],[-5.53682,40.84317],[-5.53755,40.84297],[-5.53758,40.84236],[-5.53679,40.84198],[-5.53605,40.84141],[-5.5344,40.83943],[-5.5336,40.83893],[-5.53427,40.83823],[-5.5336,40.83796],[-5.533,40.8376],[-5.53182,40.83659],[-5.53141,40.83607],[-5.53121,40.8356],[-5.52999,40.83456],[-5.52706,40.83145],[-5.52146,40.82887],[-5.52184,40.82858],[-5.52264,40.8284],[-5.52431,40.82824],[-5.52467,40.82831],[-5.52493,40.82861],[-5.52503,40.82912],[-5.52578,40.82927],[-5.52615,40.82803],[-5.52598,40.82763],[-5.52544,40.82714],[-5.52611,40.82655],[-5.52583,40.82592],[-5.52671,40.82536],[-5.52713,40.82604],[-5.52834,40.82482],[-5.53199,40.82321],[-5.5312,40.82118],[-5.53208,40.82214],[-5.53287,40.82198],[-5.53357,40.82233],[-5.53462,40.82157],[-5.53623,40.82069],[-5.53743,40.81776],[-5.5394,40.81797],[-5.5405,40.81645],[-5.54137,40.81552],[-5.54111,40.81496],[-5.54284,40.8141],[-5.54431,40.81453],[-5.54479,40.81448],[-5.54512,40.81434],[-5.5458,40.81352],[-5.54926,40.81402],[-5.54962,40.81451],[-5.55013,40.81479],[-5.55088,40.81551],[-5.55077,40.81716],[-5.55048,40.81768],[-5.54967,40.81751],[-5.54933,40.81956],[-5.54655,40.81987],[-5.54591,40.82155],[-5.54674,40.82187],[-5.54836,40.82276],[-5.54942,40.82268],[-5.54898,40.82325],[-5.55101,40.82315],[-5.5512,40.82393],[-5.55231,40.82496],[-5.55273,40.82579],[-5.5561,40.82506],[-5.55693,40.82635],[-5.55774,40.82729],[-5.55812,40.82754],[-5.55862,40.82776],[-5.56066,40.82815],[-5.56222,40.82817],[-5.56228,40.82911],[-5.56171,40.82918],[-5.56151,40.82931],[-5.56127,40.82983],[-5.56042,40.82992],[-5.55971,40.83016],[-5.56125,40.83116],[-5.5616,40.83187],[-5.56261,40.83195],[-5.5634,40.83211],[-5.56423,40.83245],[-5.56469,40.83212],[-5.56531,40.83286],[-5.5661,40.83266],[-5.56692,40.83265],[-5.56709,40.83404],[-5.56752,40.83431],[-5.56844,40.83427],[-5.56876,40.83448],[-5.56952,40.83584],[-5.56989,40.83681],[-5.56992,40.83752],[-5.57005,40.83781],[-5.57051,40.83801],[-5.57056,40.83821],[-5.57029,40.83881],[-5.57049,40.83922],[-5.57091,40.83947],[-5.57359,40.83899],[-5.57442,40.839],[-5.5753,40.83956],[-5.57554,40.84001],[-5.57575,40.84185],[-5.57982,40.84158],[-5.58119,40.8413],[-5.58303,40.84064],[-5.58407,40.84286],[-5.5848,40.84357],[-5.58494,40.84411],[-5.58488,40.84448],[-5.5839,40.84582],[-5.58397,40.84635],[-5.58454,40.84693],[-5.58519,40.84733],[-5.58684,40.84783],[-5.59154,40.84887],[-5.59247,40.84898],[-5.59609,40.84773],[-5.5989,40.84708],[-5.5994,40.84708],[-5.59995,40.84733],[-5.60117,40.84851],[-5.60241,40.84902],[-5.60349,40.8493],[-5.60406,40.84959],[-5.60513,40.85113],[-5.6056,40.85132],[-5.60612,40.85169],[-5.60724,40.85095],[-5.60938,40.85214],[-5.61049,40.85255],[-5.61129,40.85267],[-5.61197,40.85263],[-5.61256,40.85239],[-5.61309,40.85198],[-5.61373,40.85123],[-5.61475,40.84974],[-5.61584,40.84851],[-5.61687,40.84769],[-5.61752,40.84738],[-5.61805,40.84725],[-5.61918,40.84719],[-5.62241,40.84803],[-5.6241,40.84757],[-5.62481,40.8486],[-5.62663,40.84949],[-5.62677,40.85004],[-5.62813,40.85001],[-5.63167,40.85183],[-5.63007,40.85412],[-5.62869,40.85571],[-5.6289,40.85634],[-5.62908,40.85902],[-5.62951,40.86168],[-5.63089,40.86636],[-5.63138,40.86854],[-5.63132,40.8689],[-5.63106,40.86922],[-5.63074,40.86937],[-5.63029,40.86943],[-5.62994,40.86937],[-5.62945,40.86913],[-5.62904,40.86909],[-5.62794,40.86942],[-5.62698,40.87002],[-5.6255,40.87115],[-5.62497,40.87166],[-5.62452,40.87227],[-5.62397,40.87352],[-5.62394,40.8741],[-5.62455,40.87431],[-5.62343,40.87573],[-5.62276,40.87629],[-5.62191,40.87662],[-5.62106,40.87675],[-5.6206,40.87697],[-5.61915,40.87864],[-5.61857,40.8791],[-5.61741,40.8807],[-5.61704,40.8809],[-5.61625,40.88107],[-5.61593,40.88131],[-5.61582,40.88161],[-5.616,40.88225],[-5.61586,40.88277],[-5.61563,40.88304],[-5.61462,40.88379],[-5.61422,40.88387],[-5.61365,40.88383],[-5.61284,40.88415],[-5.61068,40.88386],[-5.60991,40.88444],[-5.60852,40.88343],[-5.60811,40.88327],[-5.60747,40.88319],[-5.60579,40.88344],[-5.60504,40.88337],[-5.60428,40.88316],[-5.60388,40.88293],[-5.60367,40.88267],[-5.60363,40.88241],[-5.60384,40.88218],[-5.60455,40.88195],[-5.60426,40.88131],[-5.60026,40.88233],[-5.59946,40.88242],[-5.59908,40.88238],[-5.59829,40.88188],[-5.59514,40.88153],[-5.59479,40.88198],[-5.59521,40.88243],[-5.59552,40.88319],[-5.59522,40.88426],[-5.59603,40.8849],[-5.59592,40.88553],[-5.59513,40.88556],[-5.59498,40.88613],[-5.59449,40.88608],[-5.5937,40.88618],[-5.59305,40.88638],[-5.59181,40.88696],[-5.59151,40.88631],[-5.58951,40.88601],[-5.58898,40.88577],[-5.58821,40.88488],[-5.58791,40.88475]]]}},{"type":"Feature","properties":{"id":"3732201002"},"geometry":{"type":"Polygon","coordinates":[[[-5.58163,40.88346],[-5.58045,40.88247],[-5.57961,40.88085],[-5.57966,40.88064],[-5.57994,40.88046],[-5.58126,40.87989],[-5.58209,40.87966],[-5.58244,40.87994],[-5.58361,40.88045],[-5.58509,40.88142],[-5.58615,40.88237],[-5.58702,40.88274],[-5.58857,40.88317],[-5.5889,40.88356],[-5.58897,40.88448],[-5.58791,40.88475],[-5.58344,40.88546],[-5.58213,40.8833],[-5.58163,40.88346]]]}}]}