{"type":"FeatureCollection","features":[{"type":"Feature","properties":{"id":"3801501001"},"geometry":{"type":"Polygon","coordinates":[[[-16.73891,28.38035],[-16.73865,28.37942],[-16.73842,28.378],[-16.73804,28.37476],[-16.73777,28.37344],[-16.73778,28.37308],[-16.73757,28.37262],[-16.73762,28.37187],[-16.73749,28.37063],[-16.73787,28.37075],[-16.73812,28.37068],[-16.73893,28.37082],[-16.73976,28.37083],[-16.74008,28.37071],[-16.74183,28.37061],[-16.74275,28.37043],[-16.74326,28.37057],[-16.74382,28.37042],[-16.74449,28.3705],[-16.74493,28.37046],[-16.74549,28.37018],[-16.7462,28.37006],[-16.74728,28.36891],[-16.74791,28.36877],[-16.75109,28.36755],[-16.75234,28.36722],[-16.75262,28.36734],[-16.75317,28.36741],[-16.75342,28.36758],[-16.75383,28.36756],[-16.75497,28.36708],[-16.75551,28.36644],[-16.75597,28.36637],[-16.75648,28.36651],[-16.75688,28.3668],[-16.75713,28.36685],[-16.75766,28.36665],[-16.75837,28.36652],[-16.75841,28.36639],[-16.75881,28.36616],[-16.76008,28.3661],[-16.76014,28.36598],[-16.76079,28.36558],[-16.76067,28.36582],[-16.76097,28.36566],[-16.76087,28.36597],[-16.76115,28.36584],[-16.761,28.36611],[-16.76125,28.36605],[-16.7611,28.36627],[-16.7614,28.36618],[-16.76109,28.36646],[-16.76155,28.36644],[-16.76128,28.36672],[-16.76161,28.36673],[-16.76136,28.36692],[-16.76179,28.36683],[-16.76151,28.36718],[-16.76189,28.36709],[-16.76166,28.36741],[-16.76134,28.36753],[-16.76203,28.36761],[-16.76124,28.3682],[-16.76214,28.36845],[-16.76192,28.36862],[-16.76217,28.36871],[-16.76157,28.36901],[-16.76228,28.3691],[-16.76289,28.36893],[-16.76268,28.36925],[-16.7629,28.36926],[-16.76263,28.36959],[-16.76321,28.3696],[-16.76333,28.37197],[-16.7636,28.37217],[-16.76363,28.37235],[-16.76352,28.37245],[-16.7635,28.37342],[-16.76403,28.3734],[-16.76424,28.37308],[-16.76463,28.3728],[-16.76562,28.37228],[-16.76653,28.37319],[-16.76622,28.37443],[-16.76606,28.37454],[-16.7663,28.37351],[-16.76623,28.37337],[-16.76606,28.37394],[-16.76606,28.37432],[-16.76572,28.37446],[-16.76581,28.37486],[-16.76556,28.37512],[-16.76543,28.37513],[-16.76523,28.3754],[-16.76488,28.37555],[-16.76453,28.37554],[-16.7645,28.37564],[-16.76352,28.3755],[-16.76351,28.37571],[-16.76326,28.37575],[-16.76323,28.37556],[-16.76283,28.37557],[-16.76258,28.37538],[-16.76245,28.37541],[-16.76196,28.37495],[-16.76176,28.37502],[-16.76158,28.37495],[-16.76155,28.37474],[-16.76089,28.37432],[-16.76047,28.37418],[-16.76001,28.37419],[-16.75937,28.37442],[-16.75879,28.37444],[-16.75843,28.37436],[-16.75785,28.37459],[-16.75705,28.37442],[-16.75649,28.37461],[-16.75631,28.37448],[-16.75633,28.37434],[-16.75537,28.37304],[-16.75514,28.37286],[-16.75532,28.37283],[-16.75539,28.37265],[-16.75529,28.37232],[-16.75505,28.37213],[-16.75412,28.37168],[-16.75398,28.37174],[-16.75398,28.37199],[-16.75388,28.37206],[-16.7535,28.37156],[-16.75347,28.37133],[-16.7529,28.37095],[-16.75227,28.37075],[-16.7515,28.37076],[-16.74994,28.37097],[-16.74947,28.37116],[-16.74846,28.37208],[-16.74829,28.37231],[-16.74823,28.37262],[-16.74775,28.37263],[-16.74698,28.37299],[-16.74673,28.37331],[-16.7467,28.37378],[-16.74606,28.3739],[-16.74593,28.37401],[-16.74596,28.37411],[-16.74619,28.37421],[-16.74626,28.37462],[-16.74586,28.37464],[-16.74573,28.37451],[-16.74552,28.37457],[-16.74507,28.37548],[-16.7448,28.37557],[-16.74453,28.37596],[-16.7441,28.37596],[-16.74386,28.37623],[-16.74331,28.37584],[-16.74279,28.37591],[-16.74295,28.37612],[-16.743,28.37642],[-16.74343,28.37685],[-16.74353,28.37715],[-16.74331,28.37752],[-16.74331,28.37782],[-16.74316,28.37773],[-16.74291,28.37821],[-16.74193,28.37847],[-16.74133,28.37834],[-16.74106,28.3781],[-16.74054,28.37813],[-16.74048,28.37833],[-16.74063,28.37837],[-16.74092,28.37904],[-16.7414,28.37924],[-16.74141,28.37968],[-16.74132,28.37981],[-16.7408,28.38005],[-16.74041,28.37999],[-16.74011,28.38006],[-16.73988,28.37982],[-16.73966,28.37998],[-16.73946,28.37986],[-16.73956,28.3802],[-16.73931,28.38066],[-16.73891,28.38035]]]}},{"type":"Feature","properties":{"id":"3801501002"},"geometry":{"type":"Polygon","coordinates":[[[-16.76653,28.37319],[-16.76562,28.37228],[-16.76463,28.3728],[-16.76424,28.37308],[-16.76403,28.3734],[-16.7635,28.37342],[-16.76352,28.37245],[-16.76363,28.37235],[-16.7636,28.37217],[-16.76333,28.37197],[-16.76321,28.3696],[-16.76263,28.36959],[-16.7629,28.36926],[-16.76268,28.36925],[-16.76289,28.36893],[-16.76228,28.3691],[-16.76157,28.36901],[-16.76217,28.36871],[-16.76192,28.36862],[-16.76214,28.36845],[-16.76124,28.3682],[-16.76203,28.36761],[-16.76134,28.36753],[-16.76162,28.36744],[-16.76179,28.36728],[-16.76187,28.36706],[-16.76151,28.36718],[-16.76179,28.36683],[-16.76136,28.36692],[-16.76161,28.36673],[-16.76128,28.36672],[-16.76155,28.36644],[-16.76108,28.36644],[-16.7614,28.36618],[-16.7611,28.36627],[-16.76125,28.36605],[-16.761,28.36611],[-16.76115,28.36584],[-16.76087,28.36597],[-16.76097,28.36566],[-16.76065,28.3658],[-16.76103,28.3653],[-16.76155,28.36501],[-16.76294,28.36345],[-16.76376,28.36355],[-16.7645,28.36418],[-16.76539,28.36528],[-16.77139,28.36806],[-16.77401,28.36772],[-16.77498,28.37101],[-16.77451,28.37113],[-16.77537,28.37447],[-16.77521,28.37439],[-16.77446,28.37439],[-16.7742,28.37444],[-16.77406,28.37461],[-16.77397,28.3746],[-16.77327,28.37419],[-16.77273,28.37425],[-16.77199,28.37407],[-16.77188,28.37428],[-16.77154,28.37405],[-16.77146,28.37389],[-16.77153,28.37384],[-16.77136,28.37375],[-16.77132,28.37362],[-16.77146,28.37343],[-16.77131,28.37315],[-16.77055,28.37275],[-16.77031,28.3728],[-16.77032,28.3732],[-16.77006,28.37331],[-16.76989,28.37368],[-16.76976,28.37367],[-16.76986,28.3733],[-16.76966,28.37324],[-16.76951,28.37294],[-16.76925,28.37289],[-16.76919,28.3731],[-16.76911,28.37305],[-16.76947,28.3721],[-16.7701,28.37138],[-16.76929,28.37105],[-16.76894,28.37115],[-16.76843,28.37115],[-16.76831,28.37079],[-16.76773,28.37102],[-16.76829,28.37167],[-16.7684,28.37257],[-16.76825,28.37261],[-16.76812,28.37284],[-16.76796,28.37285],[-16.76779,28.37264],[-16.76795,28.37231],[-16.7678,28.37246],[-16.76767,28.37243],[-16.76758,28.37221],[-16.7675,28.37228],[-16.76754,28.3725],[-16.7674,28.37269],[-16.76708,28.37269],[-16.76716,28.37278],[-16.76711,28.37287],[-16.7665,28.37253],[-16.76638,28.37263],[-16.76639,28.37282],[-16.76654,28.37298],[-16.76653,28.37319]]]}},{"type":"Feature","properties":{"id":"3801502001"},"geometry":{"type":"Polygon","coordinates":[[[-16.77538,28.37443],[-16.77451,28.37113],[-16.77498,28.37101],[-16.77401,28.36772],[-16.78036,28.3669],[-16.78195,28.36131],[-16.78685,28.36127],[-16.78753,28.36107],[-16.78845,28.36059],[-16.78918,28.35967],[-16.7901,28.35949],[-16.7904,28.35993],[-16.79074,28.36118],[-16.79148,28.3617],[-16.79224,28.36201],[-16.79244,28.36316],[-16.79331,28.36369],[-16.79342,28.36395],[-16.7947,28.36462],[-16.79566,28.36452],[-16.79558,28.36469],[-16.79576,28.36569],[-16.79565,28.36609],[-16.79581,28.36619],[-16.79597,28.36648],[-16.79611,28.36683],[-16.79611,28.36732],[-16.79678,28.36846],[-16.7969,28.36914],[-16.79689,28.36977],[-16.79704,28.37003],[-16.79685,28.37044],[-16.79699,28.37072],[-16.79691,28.37083],[-16.79711,28.37151],[-16.79609,28.37344],[-16.7956,28.37396],[-16.79467,28.37407],[-16.7944,28.37418],[-16.79389,28.37445],[-16.79358,28.37488],[-16.79334,28.37467],[-16.79302,28.37457],[-16.79297,28.37429],[-16.7931,28.37416],[-16.79305,28.37406],[-16.79292,28.37398],[-16.79264,28.37404],[-16.79256,28.37386],[-16.79239,28.37384],[-16.79254,28.3736],[-16.79245,28.37343],[-16.79206,28.37331],[-16.79156,28.37334],[-16.79065,28.37376],[-16.78965,28.37481],[-16.78832,28.37533],[-16.78752,28.37549],[-16.78543,28.37545],[-16.78473,28.37523],[-16.78407,28.37471],[-16.7832,28.37447],[-16.7829,28.37486],[-16.78267,28.37465],[-16.78269,28.37481],[-16.78246,28.37505],[-16.7824,28.37528],[-16.78219,28.37537],[-16.7821,28.37526],[-16.78215,28.37499],[-16.78225,28.37493],[-16.78186,28.37485],[-16.78118,28.37506],[-16.78104,28.37486],[-16.78097,28.37495],[-16.7809,28.37492],[-16.78103,28.37438],[-16.78089,28.37422],[-16.78068,28.37431],[-16.7806,28.37399],[-16.78076,28.37381],[-16.78061,28.37387],[-16.78064,28.3738],[-16.78092,28.37362],[-16.78078,28.37337],[-16.78061,28.37332],[-16.78006,28.37348],[-16.77994,28.374],[-16.7798,28.37408],[-16.77963,28.37326],[-16.77936,28.37305],[-16.77908,28.37306],[-16.77891,28.37376],[-16.77868,28.37399],[-16.77766,28.37411],[-16.77773,28.37438],[-16.77765,28.37448],[-16.77694,28.37446],[-16.77679,28.37407],[-16.77668,28.37403],[-16.7766,28.37408],[-16.77658,28.37434],[-16.7767,28.37448],[-16.77653,28.37483],[-16.77609,28.37476],[-16.776,28.37438],[-16.77592,28.37474],[-16.77588,28.37455],[-16.77582,28.37463],[-16.77572,28.37458],[-16.77565,28.37464],[-16.77552,28.3744],[-16.77538,28.37443]]]}},{"type":"Feature","properties":{"id":"3801502002"},"geometry":{"type":"Polygon","coordinates":[[[-16.73749,28.37063],[-16.73723,28.36861],[-16.73927,28.36861],[-16.73925,28.36811],[-16.73949,28.3673],[-16.73953,28.36656],[-16.73966,28.36603],[-16.73982,28.36589],[-16.73995,28.36547],[-16.73991,28.36494],[-16.73962,28.36444],[-16.73963,28.36416],[-16.73951,28.36393],[-16.73947,28.36334],[-16.73924,28.36306],[-16.73928,28.36277],[-16.73952,28.36247],[-16.7396,28.36188],[-16.73937,28.36134],[-16.73955,28.36088],[-16.73972,28.36072],[-16.73978,28.36022],[-16.74001,28.3598],[-16.74017,28.35795],[-16.74,28.35771],[-16.7398,28.35705],[-16.73989,28.35664],[-16.7398,28.35642],[-16.73992,28.35602],[-16.73979,28.35339],[-16.73921,28.35326],[-16.73923,28.35307],[-16.74025,28.35204],[-16.74107,28.3518],[-16.74163,28.35148],[-16.74257,28.35031],[-16.74248,28.34989],[-16.7428,28.34918],[-16.74388,28.34785],[-16.74438,28.34744],[-16.74461,28.34682],[-16.74467,28.3461],[-16.74454,28.34535],[-16.74366,28.34526],[-16.74373,28.34511],[-16.74365,28.34492],[-16.74378,28.34469],[-16.74375,28.34429],[-16.74342,28.34343],[-16.74341,28.34322],[-16.74377,28.34262],[-16.74385,28.34226],[-16.74408,28.34214],[-16.7441,28.34156],[-16.74335,28.33918],[-16.74164,28.33449],[-16.73755,28.32422],[-16.73558,28.31842],[-16.7341,28.31492],[-16.73165,28.30765],[-16.73111,28.30567],[-16.7297,28.30295],[-16.72995,28.30209],[-16.72766,28.3003],[-16.72833,28.29846],[-16.72772,28.29797],[-16.72754,28.29735],[-16.7274,28.2946],[-16.72571,28.29335],[-16.72489,28.29218],[-16.72308,28.2903],[-16.72153,28.2882],[-16.7193,28.28673],[-16.71766,28.28526],[-16.71551,28.28353],[-16.71482,28.28329],[-16.70044,28.2716],[-16.72317,28.28004],[-16.73685,28.28502],[-16.74206,28.28671],[-16.74308,28.28749],[-16.74564,28.28988],[-16.74668,28.29075],[-16.74791,28.29227],[-16.7515,28.29585],[-16.75252,28.29725],[-16.7535,28.29815],[-16.75708,28.30209],[-16.75764,28.30296],[-16.76331,28.31866],[-16.76527,28.32532],[-16.76734,28.33147],[-16.76548,28.34159],[-16.76446,28.34657],[-16.76383,28.35027],[-16.76504,28.35987],[-16.76551,28.36531],[-16.76528,28.36518],[-16.7645,28.36418],[-16.76376,28.36355],[-16.76294,28.36345],[-16.76155,28.36501],[-16.76112,28.36522],[-16.761,28.3654],[-16.76014,28.36598],[-16.76008,28.3661],[-16.75881,28.36616],[-16.75841,28.36639],[-16.75837,28.36652],[-16.75766,28.36665],[-16.75705,28.36687],[-16.75648,28.36651],[-16.75597,28.36637],[-16.75551,28.36644],[-16.75497,28.36708],[-16.75383,28.36756],[-16.75342,28.36758],[-16.75317,28.36741],[-16.75262,28.36734],[-16.75234,28.36722],[-16.75109,28.36755],[-16.74791,28.36877],[-16.74728,28.36891],[-16.7462,28.37006],[-16.74549,28.37018],[-16.74493,28.37046],[-16.74449,28.3705],[-16.74382,28.37042],[-16.74326,28.37057],[-16.74275,28.37043],[-16.74183,28.37061],[-16.74008,28.37071],[-16.73976,28.37083],[-16.73893,28.37082],[-16.73812,28.37068],[-16.73787,28.37075],[-16.73749,28.37063]]]}}]}