{"type":"FeatureCollection","features":[{"type":"Feature","properties":{"id":"3801001001"},"geometry":{"type":"Polygon","coordinates":[[[-16.83007,28.3923],[-16.83077,28.38668],[-16.83105,28.38369],[-16.83173,28.37948],[-16.83238,28.37275],[-16.83264,28.3722],[-16.83363,28.37068],[-16.83439,28.37064],[-16.83515,28.37001],[-16.83565,28.36986],[-16.83605,28.36988],[-16.84433,28.3717],[-16.84569,28.3717],[-16.84557,28.37102],[-16.84548,28.37101],[-16.84554,28.36927],[-16.84638,28.36958],[-16.8483,28.36968],[-16.84985,28.36993],[-16.84936,28.36912],[-16.8498,28.36891],[-16.84994,28.36901],[-16.85028,28.36902],[-16.85049,28.36912],[-16.85087,28.36942],[-16.85135,28.37006],[-16.85129,28.37095],[-16.85168,28.37149],[-16.85276,28.37355],[-16.85378,28.37524],[-16.85712,28.37993],[-16.85681,28.38026],[-16.85697,28.38024],[-16.85726,28.38037],[-16.85711,28.38046],[-16.857,28.38033],[-16.8569,28.38038],[-16.85677,28.38061],[-16.85689,28.38084],[-16.85678,28.38089],[-16.85665,28.38063],[-16.8567,28.38032],[-16.85623,28.38039],[-16.85592,28.38033],[-16.85556,28.38056],[-16.85522,28.38112],[-16.85485,28.38125],[-16.85505,28.38146],[-16.85494,28.38169],[-16.85502,28.3818],[-16.85488,28.38194],[-16.85514,28.38192],[-16.85519,28.38202],[-16.8549,28.38214],[-16.85491,28.38221],[-16.85501,28.38219],[-16.85501,28.38228],[-16.8543,28.38276],[-16.85477,28.38332],[-16.8547,28.3834],[-16.85434,28.38332],[-16.85408,28.38338],[-16.85434,28.38363],[-16.8542,28.38366],[-16.85422,28.3838],[-16.85442,28.38412],[-16.85411,28.38426],[-16.85388,28.38406],[-16.85374,28.38416],[-16.85373,28.38404],[-16.85369,28.38448],[-16.8536,28.38411],[-16.85353,28.38411],[-16.85349,28.38431],[-16.85316,28.38472],[-16.85282,28.38476],[-16.8529,28.38501],[-16.85304,28.38508],[-16.85292,28.38527],[-16.85249,28.38522],[-16.8521,28.3848],[-16.85198,28.3849],[-16.85175,28.38487],[-16.85164,28.38499],[-16.85113,28.38514],[-16.85104,28.38569],[-16.85095,28.38558],[-16.85074,28.38574],[-16.85018,28.38574],[-16.85002,28.38605],[-16.85009,28.38619],[-16.85027,28.3862],[-16.85028,28.38649],[-16.85003,28.38655],[-16.84951,28.38696],[-16.84934,28.38723],[-16.84934,28.38742],[-16.84919,28.38736],[-16.84922,28.38754],[-16.84909,28.38773],[-16.84896,28.38772],[-16.84891,28.38808],[-16.84886,28.38798],[-16.84868,28.38792],[-16.84858,28.38764],[-16.84845,28.3876],[-16.84827,28.3877],[-16.84814,28.38803],[-16.84799,28.38813],[-16.84793,28.38786],[-16.84769,28.3876],[-16.84716,28.38785],[-16.84702,28.38803],[-16.84716,28.38819],[-16.84679,28.38851],[-16.8467,28.38849],[-16.84675,28.38823],[-16.84623,28.3884],[-16.84622,28.38812],[-16.84632,28.38794],[-16.84625,28.38776],[-16.846,28.3878],[-16.84603,28.38796],[-16.84587,28.3882],[-16.84578,28.38815],[-16.84574,28.38787],[-16.84541,28.38795],[-16.84536,28.38806],[-16.84552,28.38821],[-16.84556,28.38844],[-16.84541,28.38828],[-16.84492,28.38839],[-16.84503,28.38795],[-16.84481,28.38809],[-16.84476,28.38793],[-16.84451,28.38782],[-16.84452,28.38766],[-16.84442,28.38774],[-16.84428,28.38769],[-16.84444,28.38752],[-16.84443,28.38726],[-16.84426,28.38725],[-16.8442,28.38697],[-16.84402,28.38699],[-16.84419,28.38717],[-16.84379,28.38772],[-16.84374,28.38752],[-16.84382,28.38729],[-16.84368,28.38726],[-16.84358,28.38767],[-16.8434,28.38746],[-16.84313,28.38734],[-16.84321,28.38721],[-16.84339,28.38732],[-16.84336,28.3871],[-16.84354,28.3869],[-16.84334,28.38687],[-16.84317,28.38669],[-16.84293,28.38712],[-16.84282,28.38711],[-16.84287,28.38686],[-16.84247,28.38688],[-16.84223,28.38704],[-16.84202,28.38733],[-16.84181,28.3871],[-16.84171,28.3871],[-16.84112,28.38801],[-16.84104,28.38865],[-16.84141,28.38892],[-16.84153,28.38907],[-16.84148,28.38924],[-16.84166,28.38944],[-16.84143,28.38941],[-16.84096,28.38908],[-16.84082,28.38911],[-16.84106,28.38937],[-16.84114,28.38968],[-16.84098,28.38981],[-16.84117,28.39],[-16.84115,28.39009],[-16.84143,28.39031],[-16.84113,28.39065],[-16.84081,28.39062],[-16.84063,28.39071],[-16.84049,28.39054],[-16.84037,28.39056],[-16.84019,28.3904],[-16.83984,28.39057],[-16.8398,28.39043],[-16.84002,28.39024],[-16.83987,28.38989],[-16.83924,28.39],[-16.83907,28.39014],[-16.83878,28.39008],[-16.83817,28.39039],[-16.83785,28.39111],[-16.83764,28.39127],[-16.8375,28.39152],[-16.83701,28.39129],[-16.83692,28.3914],[-16.83677,28.39137],[-16.83624,28.39169],[-16.83545,28.39185],[-16.83516,28.39223],[-16.83491,28.39228],[-16.83488,28.3921],[-16.83467,28.39213],[-16.8347,28.39233],[-16.83427,28.39249],[-16.83391,28.39249],[-16.83401,28.39235],[-16.83391,28.39232],[-16.83341,28.39274],[-16.83311,28.39277],[-16.83261,28.39266],[-16.83238,28.39282],[-16.83295,28.39296],[-16.83292,28.39301],[-16.83241,28.39296],[-16.83208,28.39283],[-16.83189,28.39294],[-16.83164,28.39288],[-16.83165,28.39305],[-16.8311,28.39293],[-16.8309,28.39302],[-16.83007,28.3923]]]}},{"type":"Feature","properties":{"id":"3801001002"},"geometry":{"type":"Polygon","coordinates":[[[-16.84539,28.35217],[-16.83521,28.35236],[-16.83459,28.35164],[-16.83453,28.35143],[-16.83402,28.35095],[-16.83394,28.35065],[-16.83396,28.34912],[-16.83361,28.34862],[-16.83346,28.34819],[-16.83352,28.34772],[-16.83397,28.34682],[-16.83393,28.34581],[-16.83361,28.34424],[-16.83401,28.34324],[-16.83413,28.3427],[-16.83389,28.34221],[-16.83388,28.34132],[-16.83363,28.34045],[-16.83364,28.34004],[-16.83405,28.33906],[-16.83402,28.33767],[-16.83417,28.33706],[-16.83413,28.33638],[-16.83406,28.33607],[-16.83341,28.33481],[-16.83318,28.33455],[-16.83231,28.33406],[-16.83197,28.33359],[-16.83203,28.33149],[-16.83175,28.33082],[-16.83172,28.33045],[-16.83197,28.32935],[-16.83176,28.3289],[-16.83069,28.32749],[-16.83047,28.32677],[-16.83072,28.3249],[-16.83055,28.32478],[-16.82962,28.32493],[-16.82923,28.32493],[-16.82893,28.32481],[-16.82865,28.32435],[-16.82849,28.32328],[-16.82848,28.32282],[-16.82856,28.32266],[-16.82788,28.32247],[-16.82757,28.32172],[-16.82738,28.32076],[-16.82667,28.32028],[-16.82654,28.31995],[-16.82657,28.31945],[-16.82644,28.31929],[-16.82601,28.31886],[-16.82541,28.31873],[-16.82504,28.3188],[-16.82474,28.3183],[-16.8248,28.31802],[-16.82467,28.31692],[-16.8243,28.31645],[-16.82164,28.31455],[-16.82057,28.31456],[-16.82048,28.31441],[-16.82008,28.31432],[-16.81857,28.31437],[-16.81864,28.31412],[-16.81923,28.31376],[-16.81917,28.31334],[-16.81976,28.31306],[-16.81997,28.31276],[-16.82099,28.31215],[-16.82154,28.31125],[-16.82167,28.31117],[-16.82253,28.31122],[-16.82294,28.31112],[-16.82353,28.31117],[-16.82389,28.31107],[-16.82499,28.30913],[-16.82525,28.30889],[-16.82544,28.30806],[-16.82558,28.30782],[-16.82638,28.30705],[-16.82628,28.30654],[-16.8261,28.30647],[-16.82487,28.30483],[-16.82406,28.30435],[-16.82388,28.304],[-16.82333,28.30367],[-16.82329,28.30348],[-16.82381,28.30311],[-16.82378,28.30276],[-16.8239,28.30224],[-16.82358,28.30124],[-16.82357,28.30091],[-16.82401,28.30029],[-16.82401,28.29999],[-16.82363,28.29896],[-16.82239,28.29843],[-16.82206,28.29813],[-16.82166,28.29744],[-16.82133,28.29597],[-16.82113,28.29577],[-16.82094,28.29526],[-16.8209,28.29459],[-16.82078,28.29435],[-16.82133,28.2927],[-16.82245,28.29267],[-16.82319,28.29288],[-16.82369,28.29324],[-16.82408,28.29324],[-16.82453,28.29307],[-16.82505,28.29306],[-16.82597,28.29278],[-16.82812,28.2925],[-16.8287,28.29232],[-16.83101,28.29314],[-16.83228,28.29303],[-16.83233,28.29273],[-16.83179,28.29218],[-16.83183,28.29201],[-16.83244,28.29152],[-16.83279,28.29156],[-16.83335,28.2919],[-16.83344,28.29184],[-16.83343,28.29158],[-16.8336,28.29135],[-16.83344,28.29114],[-16.83276,28.29063],[-16.83213,28.29082],[-16.83193,28.29063],[-16.83186,28.29033],[-16.83236,28.29007],[-16.83282,28.2893],[-16.8336,28.28879],[-16.83384,28.28824],[-16.83395,28.28818],[-16.83472,28.2883],[-16.83549,28.2883],[-16.83619,28.28736],[-16.83654,28.28722],[-16.83715,28.28726],[-16.83764,28.28677],[-16.8382,28.28641],[-16.83876,28.28661],[-16.83955,28.28658],[-16.84004,28.28606],[-16.84029,28.28592],[-16.84058,28.28524],[-16.84104,28.28483],[-16.84162,28.28454],[-16.84172,28.28426],[-16.84204,28.28425],[-16.84228,28.28442],[-16.84241,28.28466],[-16.84283,28.2847],[-16.84362,28.28416],[-16.84374,28.28395],[-16.84367,28.28376],[-16.84376,28.28351],[-16.84405,28.28309],[-16.84456,28.28306],[-16.84542,28.28327],[-16.84607,28.28309],[-16.84675,28.28312],[-16.84706,28.28305],[-16.84718,28.28285],[-16.84717,28.28257],[-16.84682,28.28185],[-16.84694,28.28152],[-16.84724,28.28133],[-16.84724,28.28095],[-16.8479,28.28021],[-16.84809,28.2801],[-16.84867,28.27927],[-16.84917,28.27897],[-16.84971,28.27843],[-16.84979,28.27728],[-16.85004,28.27717],[-16.85089,28.27713],[-16.85058,28.27636],[-16.85102,28.27582],[-16.85126,28.27481],[-16.8519,28.27391],[-16.85211,28.27369],[-16.85261,28.27345],[-16.85281,28.27311],[-16.85388,28.27291],[-16.85491,28.27293],[-16.85608,28.27322],[-16.85622,28.27317],[-16.85641,28.2734],[-16.85678,28.27347],[-16.85686,28.27387],[-16.85697,28.27383],[-16.85697,28.27408],[-16.85705,28.27415],[-16.85743,28.27409],[-16.85766,28.27427],[-16.85827,28.27422],[-16.85932,28.27483],[-16.85931,28.27493],[-16.85915,28.27505],[-16.85923,28.27524],[-16.85921,28.27584],[-16.85947,28.27624],[-16.8598,28.27652],[-16.85984,28.27674],[-16.86034,28.27758],[-16.86098,28.27841],[-16.86102,28.27859],[-16.86077,28.27895],[-16.86122,28.2791],[-16.86142,28.27932],[-16.86131,28.27954],[-16.8614,28.27975],[-16.86119,28.27997],[-16.86136,28.28055],[-16.8618,28.28106],[-16.86237,28.28116],[-16.86247,28.28151],[-16.86227,28.28188],[-16.86226,28.28231],[-16.86257,28.2827],[-16.86313,28.28265],[-16.86319,28.2829],[-16.86336,28.28308],[-16.86334,28.28337],[-16.86284,28.28358],[-16.86252,28.28394],[-16.86252,28.28416],[-16.86265,28.28427],[-16.86301,28.28421],[-16.86297,28.28442],[-16.86159,28.28475],[-16.86148,28.28488],[-16.86137,28.28607],[-16.86147,28.28757],[-16.86201,28.28839],[-16.86251,28.28886],[-16.86285,28.28914],[-16.86302,28.28898],[-16.86309,28.28898],[-16.86286,28.28915],[-16.86308,28.28933],[-16.86333,28.28938],[-16.86367,28.2891],[-16.86377,28.2889],[-16.86392,28.28886],[-16.86437,28.28899],[-16.86462,28.28923],[-16.86505,28.28913],[-16.86509,28.28929],[-16.86486,28.28932],[-16.8647,28.28958],[-16.865,28.28974],[-16.86509,28.2895],[-16.86527,28.28966],[-16.86518,28.28988],[-16.86546,28.29004],[-16.86569,28.29008],[-16.86613,28.28983],[-16.86637,28.28998],[-16.8664,28.29025],[-16.86614,28.29029],[-16.86618,28.29005],[-16.86609,28.28997],[-16.86587,28.29018],[-16.86588,28.29039],[-16.86552,28.29052],[-16.86497,28.29097],[-16.86496,28.29143],[-16.86538,28.29145],[-16.8657,28.29183],[-16.86621,28.29216],[-16.8665,28.29287],[-16.86683,28.29288],[-16.86703,28.2928],[-16.86786,28.293],[-16.86799,28.29317],[-16.86814,28.29306],[-16.86813,28.29316],[-16.86801,28.29322],[-16.8673,28.29295],[-16.86698,28.29292],[-16.8668,28.29304],[-16.86697,28.29316],[-16.867,28.29334],[-16.86741,28.29362],[-16.86806,28.29432],[-16.86855,28.29457],[-16.86873,28.29453],[-16.86943,28.29513],[-16.86957,28.29509],[-16.86952,28.29584],[-16.86974,28.29598],[-16.8698,28.29616],[-16.86993,28.29615],[-16.87037,28.29638],[-16.87055,28.29725],[-16.87076,28.29747],[-16.87069,28.29788],[-16.8705,28.29798],[-16.87037,28.29827],[-16.87055,28.29915],[-16.87068,28.29941],[-16.87109,28.29969],[-16.87162,28.29974],[-16.87186,28.29996],[-16.87232,28.29962],[-16.87323,28.29967],[-16.87344,28.29961],[-16.87359,28.29969],[-16.87387,28.29961],[-16.87403,28.29975],[-16.87582,28.29999],[-16.8764,28.30066],[-16.87706,28.30107],[-16.87796,28.30144],[-16.87839,28.30129],[-16.87864,28.30132],[-16.87862,28.30147],[-16.87833,28.30161],[-16.8783,28.30183],[-16.87839,28.302],[-16.87892,28.3024],[-16.88001,28.30289],[-16.88027,28.30323],[-16.88051,28.30364],[-16.88063,28.30419],[-16.88136,28.30518],[-16.88126,28.30704],[-16.88144,28.30779],[-16.88177,28.30865],[-16.88175,28.30885],[-16.88129,28.30927],[-16.8809,28.30984],[-16.8808,28.31027],[-16.88037,28.31101],[-16.8804,28.3123],[-16.88079,28.31281],[-16.88083,28.31306],[-16.88108,28.31309],[-16.88113,28.31325],[-16.88175,28.31379],[-16.88204,28.31424],[-16.8826,28.31449],[-16.88272,28.31463],[-16.88375,28.31504],[-16.88416,28.31538],[-16.88489,28.31557],[-16.88512,28.3158],[-16.88525,28.3162],[-16.8861,28.31695],[-16.88647,28.31703],[-16.88763,28.31675],[-16.88764,28.31695],[-16.88774,28.31706],[-16.88801,28.3171],[-16.88825,28.31693],[-16.88834,28.31696],[-16.88879,28.3175],[-16.88952,28.31797],[-16.88961,28.31844],[-16.88991,28.31888],[-16.89014,28.31901],[-16.89019,28.3193],[-16.89042,28.31945],[-16.89028,28.31971],[-16.8905,28.31982],[-16.89047,28.32003],[-16.8906,28.32032],[-16.89183,28.32027],[-16.89227,28.32037],[-16.893,28.32139],[-16.89322,28.32192],[-16.8936,28.32209],[-16.89386,28.32244],[-16.89402,28.32287],[-16.8943,28.32302],[-16.89436,28.32326],[-16.89481,28.32374],[-16.89484,28.32495],[-16.89464,28.32556],[-16.89484,28.32584],[-16.89487,28.32677],[-16.89607,28.32687],[-16.89656,28.32747],[-16.89694,28.32773],[-16.89762,28.32859],[-16.89748,28.32891],[-16.8965,28.32975],[-16.8961,28.33074],[-16.8961,28.33122],[-16.89652,28.33178],[-16.89654,28.33202],[-16.89705,28.33224],[-16.89779,28.33241],[-16.89885,28.33222],[-16.89971,28.33244],[-16.9001,28.33264],[-16.90043,28.33318],[-16.90075,28.33334],[-16.90134,28.33388],[-16.9019,28.33419],[-16.90226,28.3342],[-16.90253,28.33436],[-16.90246,28.33447],[-16.90258,28.33521],[-16.90306,28.33557],[-16.9034,28.33565],[-16.90348,28.33605],[-16.90383,28.33627],[-16.90441,28.33715],[-16.90436,28.33737],[-16.90448,28.33753],[-16.90428,28.33773],[-16.90433,28.33795],[-16.9046,28.33826],[-16.9053,28.33851],[-16.90526,28.3386],[-16.90544,28.33859],[-16.9056,28.33846],[-16.90603,28.33858],[-16.90604,28.33864],[-16.90577,28.33862],[-16.90625,28.33909],[-16.90648,28.33914],[-16.90672,28.339],[-16.90705,28.33917],[-16.90707,28.33933],[-16.9072,28.33938],[-16.90736,28.33927],[-16.90757,28.33926],[-16.90764,28.33952],[-16.90823,28.33967],[-16.90865,28.33955],[-16.90867,28.33943],[-16.90893,28.33924],[-16.90952,28.33914],[-16.91013,28.33892],[-16.91031,28.33872],[-16.91011,28.33867],[-16.91031,28.33843],[-16.91045,28.33839],[-16.91058,28.33851],[-16.91058,28.34707],[-16.90559,28.35066],[-16.88648,28.36224],[-16.88292,28.3582],[-16.87928,28.35988],[-16.87912,28.35373],[-16.87504,28.35126],[-16.86569,28.35141],[-16.86353,28.35442],[-16.85797,28.35462],[-16.85673,28.35178],[-16.84539,28.35217]]]}},{"type":"Feature","properties":{"id":"3801001003"},"geometry":{"type":"Polygon","coordinates":[[[-16.85712,28.37993],[-16.85378,28.37524],[-16.85276,28.37355],[-16.85168,28.37149],[-16.85129,28.37095],[-16.85135,28.37006],[-16.85083,28.36938],[-16.85038,28.36906],[-16.8499,28.369],[-16.84967,28.3687],[-16.84952,28.36729],[-16.84941,28.36702],[-16.84911,28.36667],[-16.84879,28.36568],[-16.84867,28.36494],[-16.84904,28.36383],[-16.849,28.36306],[-16.84928,28.36273],[-16.84976,28.36249],[-16.8498,28.36222],[-16.84935,28.36151],[-16.84931,28.36093],[-16.84895,28.36053],[-16.8485,28.3602],[-16.84813,28.35927],[-16.84762,28.3592],[-16.84733,28.35905],[-16.84703,28.35906],[-16.84688,28.35864],[-16.84666,28.35843],[-16.84658,28.35818],[-16.84663,28.35775],[-16.8469,28.35767],[-16.84697,28.35756],[-16.84688,28.35706],[-16.84677,28.35698],[-16.84677,28.35668],[-16.84655,28.35634],[-16.84677,28.3559],[-16.84672,28.35528],[-16.84657,28.35499],[-16.84609,28.35471],[-16.8459,28.35432],[-16.84575,28.35419],[-16.84573,28.3537],[-16.84523,28.35275],[-16.84539,28.35217],[-16.85673,28.35178],[-16.85797,28.35462],[-16.86353,28.35442],[-16.86569,28.35141],[-16.87504,28.35126],[-16.87912,28.35373],[-16.87928,28.35988],[-16.88292,28.3582],[-16.88648,28.36224],[-16.90559,28.35066],[-16.91058,28.34707],[-16.91058,28.33851],[-16.91075,28.33865],[-16.91124,28.3387],[-16.91101,28.33887],[-16.91095,28.3394],[-16.91088,28.33943],[-16.91076,28.33927],[-16.91094,28.33956],[-16.9111,28.33966],[-16.91149,28.33971],[-16.91151,28.33977],[-16.91128,28.33986],[-16.91133,28.33994],[-16.91148,28.33997],[-16.91151,28.33983],[-16.91173,28.33983],[-16.912,28.34012],[-16.91235,28.33996],[-16.91239,28.34016],[-16.91226,28.34024],[-16.91282,28.34012],[-16.91276,28.3402],[-16.91288,28.34041],[-16.91363,28.34065],[-16.91366,28.34093],[-16.91416,28.34101],[-16.91416,28.34125],[-16.91432,28.34127],[-16.9144,28.34139],[-16.91476,28.34144],[-16.91505,28.34128],[-16.91526,28.34137],[-16.91532,28.34155],[-16.91553,28.34145],[-16.91587,28.34181],[-16.91589,28.34195],[-16.91571,28.34218],[-16.91574,28.34234],[-16.91586,28.34239],[-16.91622,28.34215],[-16.9168,28.34237],[-16.91702,28.34232],[-16.91708,28.34254],[-16.91748,28.3426],[-16.91772,28.34246],[-16.91779,28.34271],[-16.91807,28.3426],[-16.91831,28.34269],[-16.91858,28.3426],[-16.91885,28.34279],[-16.91948,28.34272],[-16.91956,28.34288],[-16.91971,28.34269],[-16.91984,28.34281],[-16.91998,28.34266],[-16.91989,28.34232],[-16.91998,28.34219],[-16.9197,28.34205],[-16.91927,28.34214],[-16.91916,28.34189],[-16.91957,28.34189],[-16.92005,28.34203],[-16.92023,28.34163],[-16.9202,28.34148],[-16.92051,28.34114],[-16.9204,28.34096],[-16.92061,28.34088],[-16.9207,28.34102],[-16.92095,28.34113],[-16.92102,28.34083],[-16.92156,28.34139],[-16.92164,28.34163],[-16.92153,28.34179],[-16.92172,28.34196],[-16.92181,28.34188],[-16.92207,28.34198],[-16.92272,28.34186],[-16.92313,28.34151],[-16.92344,28.34136],[-16.92352,28.34144],[-16.92382,28.34129],[-16.92389,28.34138],[-16.9241,28.34133],[-16.92466,28.34147],[-16.92531,28.34144],[-16.92526,28.34153],[-16.92504,28.34158],[-16.92491,28.34177],[-16.92443,28.34192],[-16.92446,28.34201],[-16.92593,28.3419],[-16.92567,28.34212],[-16.9252,28.34202],[-16.92451,28.34222],[-16.92448,28.34247],[-16.92405,28.3425],[-16.92399,28.34266],[-16.92375,28.34271],[-16.9231,28.3426],[-16.92297,28.34235],[-16.92291,28.34248],[-16.92265,28.34255],[-16.92239,28.34246],[-16.92183,28.3427],[-16.92071,28.34283],[-16.92097,28.34323],[-16.92117,28.34328],[-16.92134,28.34322],[-16.92144,28.34338],[-16.92163,28.34344],[-16.92152,28.34351],[-16.92165,28.34368],[-16.92152,28.34376],[-16.92134,28.34368],[-16.92135,28.34377],[-16.92204,28.34415],[-16.92217,28.34411],[-16.92218,28.34423],[-16.92202,28.34429],[-16.92213,28.34441],[-16.9219,28.34437],[-16.92195,28.34449],[-16.92181,28.34446],[-16.92171,28.34472],[-16.9219,28.34492],[-16.92195,28.34477],[-16.92215,28.34474],[-16.92231,28.34502],[-16.92223,28.34514],[-16.92199,28.34513],[-16.92203,28.34537],[-16.92228,28.34556],[-16.9225,28.3455],[-16.92247,28.34537],[-16.92258,28.34533],[-16.92266,28.34542],[-16.92258,28.34553],[-16.9229,28.34566],[-16.92272,28.34579],[-16.92307,28.3461],[-16.92252,28.34601],[-16.92264,28.34622],[-16.9226,28.34629],[-16.92281,28.34645],[-16.92285,28.34665],[-16.92225,28.34677],[-16.92229,28.34688],[-16.92248,28.34702],[-16.92291,28.34696],[-16.92251,28.34715],[-16.9227,28.34744],[-16.92316,28.34753],[-16.9231,28.34767],[-16.92323,28.34768],[-16.92326,28.34749],[-16.92336,28.34746],[-16.92349,28.34774],[-16.92312,28.34798],[-16.9233,28.34814],[-16.92333,28.34844],[-16.92356,28.34882],[-16.92399,28.34899],[-16.9237,28.34903],[-16.92359,28.3493],[-16.92406,28.34973],[-16.9239,28.3498],[-16.92393,28.35003],[-16.92421,28.35015],[-16.92393,28.35014],[-16.92409,28.35024],[-16.9239,28.35024],[-16.92395,28.35029],[-16.92387,28.35037],[-16.92392,28.35053],[-16.9241,28.3506],[-16.92414,28.35071],[-16.92398,28.35074],[-16.92383,28.35062],[-16.92383,28.35083],[-16.92409,28.35102],[-16.92371,28.35116],[-16.92373,28.35145],[-16.92386,28.35158],[-16.92357,28.3517],[-16.92343,28.3516],[-16.92347,28.3519],[-16.92336,28.3518],[-16.92331,28.35189],[-16.92344,28.35203],[-16.92318,28.35206],[-16.92361,28.35226],[-16.9235,28.35226],[-16.92367,28.35239],[-16.92354,28.35251],[-16.92371,28.3527],[-16.92352,28.35284],[-16.92367,28.35294],[-16.92358,28.35316],[-16.92379,28.35325],[-16.92349,28.35331],[-16.92364,28.35342],[-16.92353,28.35365],[-16.92324,28.35368],[-16.92341,28.3538],[-16.92358,28.35378],[-16.92359,28.35385],[-16.92343,28.35393],[-16.92339,28.35424],[-16.92327,28.35431],[-16.92335,28.3544],[-16.92328,28.35452],[-16.92293,28.35466],[-16.92287,28.35554],[-16.92275,28.35555],[-16.92276,28.35573],[-16.92251,28.35584],[-16.9224,28.35559],[-16.92226,28.35557],[-16.92189,28.35523],[-16.92173,28.3556],[-16.92203,28.35594],[-16.92178,28.35621],[-16.92117,28.35631],[-16.9209,28.35602],[-16.92075,28.35612],[-16.92061,28.35602],[-16.92041,28.35611],[-16.92017,28.35682],[-16.92022,28.35695],[-16.92052,28.35691],[-16.92041,28.357],[-16.92048,28.35717],[-16.92023,28.35708],[-16.92008,28.35728],[-16.91953,28.35732],[-16.91964,28.35779],[-16.91914,28.35784],[-16.91924,28.35819],[-16.91907,28.35848],[-16.91889,28.35839],[-16.91844,28.3586],[-16.91819,28.35856],[-16.91821,28.35878],[-16.91791,28.35897],[-16.91799,28.3591],[-16.91785,28.3592],[-16.91793,28.35931],[-16.9177,28.35954],[-16.91769,28.35965],[-16.91787,28.35983],[-16.91783,28.35993],[-16.9174,28.3598],[-16.91722,28.36002],[-16.9174,28.36036],[-16.91782,28.36065],[-16.91782,28.36091],[-16.91773,28.36074],[-16.91729,28.36099],[-16.91694,28.36085],[-16.9168,28.36093],[-16.91658,28.36131],[-16.91633,28.36119],[-16.91615,28.36134],[-16.91591,28.36131],[-16.91585,28.3614],[-16.91572,28.36127],[-16.91538,28.36123],[-16.91514,28.3613],[-16.91504,28.36122],[-16.91486,28.36127],[-16.91484,28.36136],[-16.91469,28.36135],[-16.91468,28.36143],[-16.91445,28.36141],[-16.91433,28.36149],[-16.91427,28.36184],[-16.91375,28.36191],[-16.91324,28.36225],[-16.91295,28.36226],[-16.91298,28.36216],[-16.91269,28.36212],[-16.91258,28.36199],[-16.91244,28.36211],[-16.91224,28.36196],[-16.91194,28.36198],[-16.91178,28.36192],[-16.9117,28.36177],[-16.91153,28.3619],[-16.91098,28.3618],[-16.91071,28.36201],[-16.91062,28.36248],[-16.91072,28.36283],[-16.9109,28.36296],[-16.91059,28.36316],[-16.91058,28.36264],[-16.91048,28.36247],[-16.91032,28.36245],[-16.9101,28.36304],[-16.9101,28.36317],[-16.91017,28.3632],[-16.91006,28.36333],[-16.90996,28.36311],[-16.90988,28.36314],[-16.9097,28.36299],[-16.90951,28.36263],[-16.90939,28.36274],[-16.90948,28.36314],[-16.90913,28.36276],[-16.90888,28.36282],[-16.90887,28.36303],[-16.90874,28.36322],[-16.90836,28.36326],[-16.9082,28.36306],[-16.90812,28.36322],[-16.90799,28.36278],[-16.90781,28.36275],[-16.90765,28.36251],[-16.90741,28.36272],[-16.90765,28.36282],[-16.90767,28.36297],[-16.90736,28.363],[-16.90753,28.36312],[-16.90755,28.36324],[-16.90717,28.36301],[-16.90709,28.36324],[-16.90659,28.36352],[-16.90673,28.36331],[-16.90646,28.36311],[-16.90626,28.36318],[-16.90598,28.36313],[-16.90596,28.36322],[-16.90621,28.36341],[-16.90624,28.36359],[-16.90642,28.36371],[-16.90648,28.36404],[-16.90626,28.36399],[-16.90622,28.36374],[-16.90611,28.36364],[-16.90578,28.36363],[-16.90575,28.36384],[-16.90556,28.36374],[-16.90564,28.36385],[-16.90554,28.36403],[-16.90586,28.36427],[-16.90519,28.36414],[-16.90496,28.36434],[-16.90483,28.36452],[-16.90503,28.36483],[-16.90504,28.36524],[-16.90485,28.36481],[-16.9047,28.36472],[-16.90455,28.36477],[-16.9046,28.36445],[-16.90445,28.36445],[-16.90425,28.36466],[-16.90425,28.36488],[-16.90411,28.36491],[-16.90355,28.36448],[-16.90354,28.36418],[-16.9035,28.36408],[-16.90341,28.36414],[-16.9034,28.36397],[-16.90324,28.36437],[-16.90289,28.36468],[-16.90281,28.3643],[-16.90262,28.36447],[-16.9025,28.36414],[-16.90223,28.36424],[-16.90198,28.36408],[-16.90182,28.36381],[-16.90167,28.36403],[-16.90174,28.36419],[-16.90195,28.36424],[-16.90189,28.36436],[-16.90136,28.36448],[-16.90125,28.36459],[-16.90107,28.36448],[-16.90119,28.36428],[-16.90114,28.36414],[-16.90095,28.36407],[-16.90093,28.36422],[-16.90078,28.36424],[-16.90067,28.36444],[-16.90086,28.36429],[-16.90099,28.36447],[-16.90083,28.36478],[-16.90067,28.36488],[-16.90068,28.36507],[-16.90052,28.36515],[-16.90018,28.365],[-16.90032,28.36463],[-16.89998,28.36408],[-16.89983,28.36411],[-16.89955,28.36396],[-16.8993,28.36409],[-16.89935,28.36393],[-16.89918,28.36388],[-16.89914,28.36413],[-16.89887,28.36412],[-16.89881,28.36397],[-16.89869,28.36394],[-16.89828,28.3642],[-16.89821,28.36389],[-16.89801,28.36389],[-16.89793,28.36373],[-16.8979,28.36345],[-16.89799,28.36329],[-16.89793,28.36313],[-16.89807,28.36306],[-16.89744,28.36257],[-16.89718,28.36248],[-16.89545,28.36255],[-16.89496,28.36273],[-16.8948,28.36299],[-16.89404,28.36306],[-16.89362,28.36336],[-16.89331,28.36337],[-16.89308,28.36327],[-16.89261,28.36333],[-16.89227,28.36358],[-16.89242,28.36389],[-16.89169,28.36336],[-16.89132,28.36327],[-16.8911,28.36331],[-16.89064,28.3635],[-16.89017,28.36385],[-16.88984,28.36432],[-16.88986,28.36464],[-16.8893,28.36514],[-16.88936,28.36539],[-16.88983,28.36559],[-16.88984,28.36565],[-16.88958,28.36559],[-16.88962,28.36585],[-16.88935,28.36554],[-16.8891,28.36548],[-16.88865,28.36552],[-16.88853,28.36581],[-16.88837,28.36555],[-16.88843,28.36537],[-16.88818,28.36506],[-16.88745,28.3648],[-16.88696,28.36484],[-16.88575,28.36575],[-16.88515,28.3664],[-16.88486,28.36692],[-16.88492,28.36723],[-16.88526,28.36774],[-16.88554,28.3679],[-16.88563,28.36842],[-16.88576,28.36848],[-16.88568,28.36863],[-16.88563,28.36854],[-16.88554,28.36868],[-16.88534,28.36869],[-16.88528,28.36895],[-16.88401,28.3681],[-16.88374,28.36803],[-16.88264,28.36739],[-16.88215,28.36731],[-16.88032,28.36816],[-16.87974,28.36865],[-16.87916,28.36898],[-16.87909,28.36925],[-16.87857,28.3692],[-16.87844,28.36932],[-16.87835,28.36925],[-16.87821,28.36949],[-16.87795,28.36951],[-16.87781,28.36986],[-16.87768,28.36983],[-16.87724,28.36999],[-16.87695,28.37024],[-16.87686,28.37023],[-16.8769,28.37013],[-16.87673,28.37024],[-16.87668,28.37005],[-16.87649,28.37018],[-16.87667,28.37026],[-16.87658,28.37042],[-16.87636,28.37004],[-16.87611,28.37006],[-16.87589,28.3703],[-16.87566,28.37087],[-16.87541,28.3709],[-16.87521,28.37063],[-16.87502,28.37067],[-16.87497,28.37039],[-16.8748,28.37037],[-16.87477,28.37049],[-16.87466,28.3705],[-16.87441,28.37013],[-16.87439,28.36993],[-16.87416,28.36997],[-16.8741,28.37008],[-16.87401,28.37004],[-16.87385,28.37026],[-16.87371,28.37022],[-16.8736,28.37033],[-16.87329,28.37036],[-16.87292,28.37055],[-16.87273,28.37089],[-16.87249,28.37064],[-16.87252,28.37114],[-16.87235,28.37086],[-16.87228,28.37084],[-16.87224,28.371],[-16.87214,28.37097],[-16.87214,28.37076],[-16.87203,28.37072],[-16.87197,28.37073],[-16.87205,28.37109],[-16.87193,28.37124],[-16.87162,28.37124],[-16.8715,28.37107],[-16.87121,28.37115],[-16.87092,28.37143],[-16.87092,28.37199],[-16.87057,28.37232],[-16.8706,28.37264],[-16.87044,28.37303],[-16.87049,28.37327],[-16.87014,28.37354],[-16.87032,28.37397],[-16.87028,28.37412],[-16.87021,28.37417],[-16.87014,28.3741],[-16.87013,28.37418],[-16.87069,28.37473],[-16.87061,28.37479],[-16.87046,28.37463],[-16.87069,28.37508],[-16.8704,28.37487],[-16.87025,28.37486],[-16.87026,28.3751],[-16.87014,28.37533],[-16.87024,28.37544],[-16.87006,28.37562],[-16.87002,28.37555],[-16.86989,28.37561],[-16.86999,28.37536],[-16.86992,28.37527],[-16.86965,28.3753],[-16.86955,28.37519],[-16.86926,28.37526],[-16.86872,28.37483],[-16.86828,28.37495],[-16.86808,28.37483],[-16.8676,28.37476],[-16.86703,28.37493],[-16.86696,28.37512],[-16.86706,28.37522],[-16.86711,28.3756],[-16.86736,28.37585],[-16.86706,28.37582],[-16.86705,28.37598],[-16.86686,28.37597],[-16.86677,28.37544],[-16.8667,28.37568],[-16.86607,28.37575],[-16.86583,28.37565],[-16.86572,28.37574],[-16.86592,28.37613],[-16.86549,28.37616],[-16.86545,28.37602],[-16.86567,28.37579],[-16.86558,28.37575],[-16.86548,28.37585],[-16.86527,28.37567],[-16.86501,28.37577],[-16.86512,28.37607],[-16.86501,28.37636],[-16.86486,28.3764],[-16.86433,28.37591],[-16.86426,28.37593],[-16.86428,28.37603],[-16.86413,28.37598],[-16.86406,28.37569],[-16.86384,28.37568],[-16.86375,28.37546],[-16.8637,28.37565],[-16.86353,28.37551],[-16.86329,28.37549],[-16.86337,28.37534],[-16.86361,28.37534],[-16.86318,28.37514],[-16.86285,28.37531],[-16.8627,28.37566],[-16.86229,28.37532],[-16.86201,28.37533],[-16.86191,28.37525],[-16.86145,28.37533],[-16.86147,28.37563],[-16.86171,28.37598],[-16.86156,28.37613],[-16.86122,28.3761],[-16.86111,28.37584],[-16.86095,28.37574],[-16.86092,28.37585],[-16.86074,28.37553],[-16.8606,28.37554],[-16.86053,28.37573],[-16.86042,28.37576],[-16.86024,28.37561],[-16.86007,28.37583],[-16.85995,28.37625],[-16.86019,28.37621],[-16.86055,28.37633],[-16.8607,28.37679],[-16.86055,28.37688],[-16.86081,28.37716],[-16.86095,28.37755],[-16.86055,28.37766],[-16.8603,28.37752],[-16.86031,28.3777],[-16.86006,28.37754],[-16.8599,28.37759],[-16.86007,28.37763],[-16.86007,28.3777],[-16.8599,28.37772],[-16.86015,28.37805],[-16.86035,28.37825],[-16.86047,28.37826],[-16.86035,28.37835],[-16.86058,28.37834],[-16.86065,28.37842],[-16.86045,28.37868],[-16.86054,28.37881],[-16.86046,28.37898],[-16.85971,28.37925],[-16.85942,28.37945],[-16.85936,28.3796],[-16.85924,28.37944],[-16.85864,28.37938],[-16.85821,28.37949],[-16.85816,28.37942],[-16.85827,28.37936],[-16.85791,28.37931],[-16.85814,28.37968],[-16.85787,28.37996],[-16.8576,28.37999],[-16.85754,28.37977],[-16.85743,28.37973],[-16.85726,28.37977],[-16.85712,28.37993]]]}},{"type":"Feature","properties":{"id":"3801001004"},"geometry":{"type":"Polygon","coordinates":[[[-16.83363,28.37068],[-16.83484,28.36879],[-16.83399,28.36351],[-16.83353,28.36189],[-16.83315,28.35865],[-16.83293,28.35772],[-16.83349,28.35692],[-16.83357,28.35666],[-16.83441,28.35585],[-16.83485,28.35527],[-16.83491,28.35477],[-16.83529,28.35405],[-16.83528,28.35294],[-16.83548,28.35273],[-16.83521,28.35236],[-16.84539,28.35217],[-16.84523,28.35275],[-16.84573,28.3537],[-16.84575,28.35419],[-16.8459,28.35432],[-16.84609,28.35471],[-16.84657,28.35499],[-16.84672,28.35528],[-16.84677,28.3559],[-16.84655,28.35634],[-16.84677,28.35668],[-16.84677,28.35698],[-16.84688,28.35706],[-16.84697,28.35756],[-16.8469,28.35767],[-16.84663,28.35775],[-16.84658,28.35818],[-16.84666,28.35843],[-16.84688,28.35864],[-16.84703,28.35906],[-16.84733,28.35905],[-16.84762,28.3592],[-16.84813,28.35927],[-16.8485,28.3602],[-16.84895,28.36053],[-16.84931,28.36093],[-16.84935,28.36151],[-16.8498,28.36222],[-16.84976,28.36249],[-16.84928,28.36273],[-16.849,28.36306],[-16.84904,28.36383],[-16.84867,28.36494],[-16.84879,28.36568],[-16.84914,28.36676],[-16.84949,28.36721],[-16.84962,28.36854],[-16.8498,28.36891],[-16.84936,28.36912],[-16.84985,28.36993],[-16.8483,28.36968],[-16.84638,28.36958],[-16.84554,28.36927],[-16.84548,28.37101],[-16.84557,28.37102],[-16.84569,28.3717],[-16.84433,28.3717],[-16.83605,28.36988],[-16.83565,28.36986],[-16.83515,28.37001],[-16.83439,28.37064],[-16.83363,28.37068]]]}}]}