{"type":"FeatureCollection","features":[{"type":"Feature","properties":{"id":"3801701001"},"geometry":{"type":"Polygon","coordinates":[[[-16.55238,28.16743],[-16.56247,28.16498],[-16.56682,28.16366],[-16.57046,28.16192],[-16.57281,28.16053],[-16.57291,28.16039],[-16.57277,28.1599],[-16.57358,28.1594],[-16.57343,28.15871],[-16.5736,28.15821],[-16.57377,28.15836],[-16.57389,28.15887],[-16.57416,28.15933],[-16.57445,28.15952],[-16.57506,28.15961],[-16.57554,28.15998],[-16.57594,28.15992],[-16.57576,28.15976],[-16.57567,28.15951],[-16.5757,28.15932],[-16.57589,28.1592],[-16.57618,28.1592],[-16.57652,28.15955],[-16.57679,28.15967],[-16.57775,28.15934],[-16.57823,28.15938],[-16.57819,28.15887],[-16.57885,28.15864],[-16.57899,28.15834],[-16.57906,28.15738],[-16.57944,28.1565],[-16.57934,28.15626],[-16.57909,28.15601],[-16.57907,28.15583],[-16.5794,28.15585],[-16.57973,28.156],[-16.58015,28.15652],[-16.5804,28.1567],[-16.58077,28.15667],[-16.58093,28.15649],[-16.58066,28.15622],[-16.58045,28.15535],[-16.58051,28.15512],[-16.581,28.15495],[-16.58134,28.15494],[-16.58166,28.15521],[-16.5817,28.15558],[-16.58196,28.15583],[-16.58211,28.15575],[-16.58214,28.15544],[-16.5824,28.15511],[-16.58264,28.15451],[-16.58294,28.1544],[-16.58331,28.15465],[-16.5834,28.15452],[-16.58307,28.15393],[-16.58306,28.15267],[-16.58288,28.15227],[-16.58326,28.15224],[-16.58297,28.15133],[-16.583,28.15117],[-16.58316,28.15092],[-16.5836,28.15082],[-16.58368,28.15057],[-16.58354,28.15],[-16.58379,28.14999],[-16.5842,28.14972],[-16.58411,28.14938],[-16.58387,28.14908],[-16.58419,28.14902],[-16.5845,28.1491],[-16.5845,28.14903],[-16.58445,28.1489],[-16.58393,28.14851],[-16.58396,28.14794],[-16.58341,28.14733],[-16.58341,28.14703],[-16.58315,28.1468],[-16.58278,28.14669],[-16.5818,28.14614],[-16.58169,28.14595],[-16.58183,28.14575],[-16.58171,28.14558],[-16.58048,28.14511],[-16.58026,28.14442],[-16.58011,28.14423],[-16.57947,28.14402],[-16.57907,28.1441],[-16.57881,28.14401],[-16.57879,28.1438],[-16.57845,28.14329],[-16.57859,28.14305],[-16.57824,28.14274],[-16.57805,28.14243],[-16.57826,28.14193],[-16.5782,28.14173],[-16.5776,28.14134],[-16.57719,28.14069],[-16.5766,28.14057],[-16.57625,28.1396],[-16.57598,28.1395],[-16.57546,28.13952],[-16.57525,28.13919],[-16.57483,28.13892],[-16.57477,28.13848],[-16.57446,28.13809],[-16.5744,28.13787],[-16.57372,28.13737],[-16.57378,28.13694],[-16.57368,28.13665],[-16.57327,28.1363],[-16.57278,28.13608],[-16.57267,28.13563],[-16.57232,28.1357],[-16.57199,28.13558],[-16.57115,28.13494],[-16.57065,28.13432],[-16.57034,28.13375],[-16.57032,28.1335],[-16.57045,28.13324],[-16.57042,28.133],[-16.57005,28.13249],[-16.57,28.13212],[-16.56955,28.1319],[-16.56954,28.13163],[-16.56933,28.13135],[-16.5694,28.13091],[-16.5692,28.13061],[-16.5698,28.12892],[-16.56974,28.12865],[-16.56895,28.1275],[-16.56893,28.12707],[-16.56864,28.12608],[-16.56866,28.12562],[-16.56801,28.12472],[-16.56771,28.1246],[-16.56743,28.12471],[-16.56712,28.12469],[-16.56574,28.12345],[-16.56523,28.12287],[-16.56432,28.12222],[-16.5639,28.12151],[-16.56324,28.12119],[-16.56297,28.12045],[-16.56255,28.11991],[-16.56197,28.1196],[-16.56161,28.11952],[-16.56108,28.11867],[-16.5609,28.11809],[-16.56124,28.11757],[-16.56149,28.1176],[-16.56194,28.11823],[-16.56211,28.11823],[-16.56193,28.11726],[-16.56209,28.11711],[-16.56229,28.11716],[-16.56248,28.11754],[-16.56332,28.11806],[-16.56387,28.11808],[-16.56412,28.11834],[-16.56431,28.11829],[-16.5643,28.11804],[-16.56414,28.11786],[-16.56355,28.11759],[-16.56314,28.11718],[-16.56331,28.11688],[-16.56424,28.117],[-16.56478,28.11631],[-16.56385,28.11431],[-16.56485,28.11379],[-16.56437,28.11427],[-16.56483,28.11523],[-16.56584,28.11642],[-16.56596,28.1171],[-16.56636,28.11782],[-16.56645,28.11814],[-16.56706,28.1189],[-16.56789,28.11948],[-16.57,28.12033],[-16.5702,28.12052],[-16.57046,28.12099],[-16.57111,28.12162],[-16.57142,28.1218],[-16.57229,28.1221],[-16.57315,28.12274],[-16.57328,28.12273],[-16.57338,28.12255],[-16.57498,28.12317],[-16.57535,28.12347],[-16.57591,28.12398],[-16.57616,28.12438],[-16.57663,28.12569],[-16.57688,28.12595],[-16.57728,28.12616],[-16.57711,28.12668],[-16.57716,28.12702],[-16.57784,28.12745],[-16.57866,28.12849],[-16.57858,28.12877],[-16.57895,28.12862],[-16.57898,28.12831],[-16.57946,28.12817],[-16.57957,28.12849],[-16.57994,28.12845],[-16.57992,28.12865],[-16.58006,28.12885],[-16.58034,28.1288],[-16.58063,28.12895],[-16.58062,28.12921],[-16.58121,28.12947],[-16.58187,28.12943],[-16.58193,28.12957],[-16.58236,28.12987],[-16.58238,28.13013],[-16.58273,28.13094],[-16.58256,28.13204],[-16.58212,28.13272],[-16.58207,28.13357],[-16.58248,28.13453],[-16.58248,28.13504],[-16.58303,28.13543],[-16.5834,28.13551],[-16.58406,28.13537],[-16.58463,28.13539],[-16.58527,28.13586],[-16.586,28.1361],[-16.58692,28.13686],[-16.58734,28.13702],[-16.58958,28.13729],[-16.58989,28.13776],[-16.59098,28.13831],[-16.5912,28.13868],[-16.5925,28.13912],[-16.59274,28.13941],[-16.59287,28.14029],[-16.5921,28.13994],[-16.59192,28.13998],[-16.59234,28.14093],[-16.59281,28.14136],[-16.59295,28.1419],[-16.59336,28.14264],[-16.59336,28.14289],[-16.59302,28.14303],[-16.59296,28.14316],[-16.59322,28.14355],[-16.59308,28.14404],[-16.59317,28.14424],[-16.59315,28.14468],[-16.59301,28.14476],[-16.59287,28.14451],[-16.59255,28.14435],[-16.59248,28.14439],[-16.59244,28.14467],[-16.59114,28.14507],[-16.59055,28.14534],[-16.5918,28.1465],[-16.5923,28.14675],[-16.59276,28.14737],[-16.59275,28.14752],[-16.59296,28.14759],[-16.59307,28.14777],[-16.59307,28.14846],[-16.59327,28.14897],[-16.59316,28.14945],[-16.59319,28.15025],[-16.59352,28.15163],[-16.59411,28.1523],[-16.59418,28.15248],[-16.59413,28.15285],[-16.59486,28.15361],[-16.5949,28.15378],[-16.59463,28.154],[-16.59419,28.15385],[-16.5939,28.15397],[-16.59367,28.15438],[-16.59329,28.15443],[-16.59295,28.15433],[-16.59188,28.15483],[-16.59136,28.15483],[-16.59165,28.15597],[-16.59261,28.15629],[-16.5928,28.15722],[-16.59338,28.15804],[-16.59365,28.15827],[-16.59372,28.1583],[-16.60013,28.15454],[-16.60258,28.15405],[-16.6072,28.15419],[-16.61079,28.15514],[-16.61245,28.15536],[-16.61406,28.15578],[-16.61483,28.15589],[-16.61511,28.15627],[-16.61524,28.15671],[-16.61554,28.1569],[-16.61594,28.15756],[-16.61585,28.15817],[-16.61622,28.15859],[-16.61612,28.15947],[-16.61623,28.15989],[-16.61581,28.16044],[-16.61578,28.16124],[-16.61548,28.16143],[-16.61536,28.1621],[-16.61516,28.16223],[-16.61483,28.16267],[-16.61451,28.16379],[-16.61403,28.16422],[-16.61372,28.16475],[-16.61371,28.16509],[-16.6134,28.16535],[-16.61323,28.16596],[-16.61323,28.16638],[-16.61239,28.16729],[-16.6124,28.16778],[-16.61188,28.16898],[-16.61185,28.16943],[-16.61157,28.16973],[-16.61135,28.17014],[-16.61135,28.17033],[-16.61149,28.17058],[-16.61143,28.17073],[-16.61146,28.17188],[-16.6116,28.17203],[-16.61188,28.17278],[-16.61218,28.17316],[-16.61288,28.17367],[-16.61345,28.17436],[-16.61384,28.17572],[-16.61443,28.17668],[-16.61403,28.1771],[-16.61387,28.17809],[-16.61363,28.17882],[-16.6135,28.17893],[-16.61347,28.17976],[-16.61336,28.18001],[-16.61345,28.18014],[-16.61381,28.18203],[-16.61374,28.18265],[-16.61381,28.18283],[-16.61408,28.18306],[-16.61444,28.18386],[-16.6144,28.18401],[-16.61368,28.18436],[-16.6135,28.18528],[-16.6137,28.18617],[-16.61332,28.18671],[-16.61328,28.18697],[-16.61328,28.18749],[-16.61351,28.1878],[-16.61353,28.18849],[-16.6138,28.18883],[-16.61389,28.18922],[-16.61351,28.1898],[-16.61322,28.18989],[-16.61318,28.19004],[-16.61345,28.19096],[-16.61425,28.19201],[-16.61438,28.19206],[-16.61425,28.19244],[-16.61465,28.1929],[-16.61423,28.19351],[-16.61406,28.19395],[-16.6144,28.19449],[-16.61451,28.19484],[-16.61447,28.19504],[-16.61474,28.19541],[-16.61492,28.19614],[-16.61517,28.1965],[-16.61509,28.19705],[-16.6154,28.19761],[-16.61578,28.19786],[-16.6162,28.19826],[-16.61629,28.19846],[-16.61724,28.19836],[-16.61774,28.19907],[-16.61868,28.19929],[-16.61907,28.19978],[-16.61952,28.19998],[-16.61979,28.20057],[-16.62025,28.20081],[-16.62077,28.20087],[-16.6211,28.20102],[-16.6213,28.20128],[-16.62135,28.20153],[-16.62128,28.20197],[-16.621,28.20224],[-16.62074,28.20236],[-16.62004,28.2024],[-16.61981,28.20261],[-16.61879,28.2058],[-16.61881,28.20652],[-16.61871,28.20708],[-16.61877,28.20773],[-16.61904,28.20886],[-16.61907,28.20965],[-16.6193,28.21029],[-16.61867,28.21172],[-16.61874,28.21186],[-16.6186,28.21364],[-16.60715,28.21672],[-16.60549,28.21712],[-16.60151,28.21775],[-16.59971,28.21821],[-16.59918,28.21774],[-16.59763,28.21597],[-16.59701,28.21539],[-16.59686,28.21479],[-16.59645,28.21459],[-16.59621,28.21415],[-16.59556,28.21358],[-16.59534,28.21288],[-16.59536,28.21254],[-16.59525,28.21212],[-16.59428,28.21137],[-16.59403,28.21087],[-16.59352,28.20918],[-16.59293,28.20811],[-16.59305,28.20787],[-16.59308,28.20743],[-16.59269,28.2068],[-16.5922,28.20653],[-16.59181,28.20676],[-16.59126,28.20682],[-16.59112,28.20662],[-16.59071,28.20653],[-16.59005,28.20623],[-16.58974,28.20582],[-16.58984,28.20545],[-16.58971,28.20502],[-16.58973,28.20451],[-16.58965,28.2044],[-16.58889,28.204],[-16.58841,28.20419],[-16.58832,28.20451],[-16.58789,28.20491],[-16.58766,28.20489],[-16.58729,28.20469],[-16.58693,28.20469],[-16.58643,28.2038],[-16.58613,28.2035],[-16.58609,28.20245],[-16.58595,28.20216],[-16.58572,28.20207],[-16.5843,28.20207],[-16.58356,28.20169],[-16.58314,28.20159],[-16.5825,28.20069],[-16.5823,28.20056],[-16.58176,28.20058],[-16.58104,28.20083],[-16.58032,28.20142],[-16.57987,28.20165],[-16.57898,28.20165],[-16.5785,28.20122],[-16.57788,28.20108],[-16.57696,28.20117],[-16.57671,28.20095],[-16.57633,28.19976],[-16.57547,28.1983],[-16.57554,28.19776],[-16.57479,28.19742],[-16.57426,28.19674],[-16.57418,28.19616],[-16.57369,28.19541],[-16.57359,28.19426],[-16.5733,28.19412],[-16.57291,28.19363],[-16.57234,28.1934],[-16.57231,28.19311],[-16.57217,28.19295],[-16.57167,28.19289],[-16.5717,28.19248],[-16.57093,28.19208],[-16.57042,28.19196],[-16.57009,28.19172],[-16.57027,28.19121],[-16.57027,28.19094],[-16.56972,28.19049],[-16.56962,28.18978],[-16.56983,28.18935],[-16.56949,28.18868],[-16.56946,28.18833],[-16.56928,28.18791],[-16.56788,28.18714],[-16.56765,28.18713],[-16.5673,28.18727],[-16.56706,28.18719],[-16.56637,28.18551],[-16.56585,28.18513],[-16.56589,28.18491],[-16.56623,28.18462],[-16.56633,28.18442],[-16.5669,28.18427],[-16.56699,28.18404],[-16.56685,28.18382],[-16.56594,28.18349],[-16.56578,28.1833],[-16.56536,28.18315],[-16.56507,28.1827],[-16.56504,28.18198],[-16.56532,28.18118],[-16.56478,28.1806],[-16.56443,28.18055],[-16.56414,28.18041],[-16.56412,28.18021],[-16.56449,28.17972],[-16.5645,28.17955],[-16.56404,28.17894],[-16.56408,28.17847],[-16.56395,28.17814],[-16.56329,28.17749],[-16.56294,28.17736],[-16.56279,28.17716],[-16.56245,28.17712],[-16.56186,28.1765],[-16.56202,28.17614],[-16.56169,28.17581],[-16.56131,28.17559],[-16.561,28.17553],[-16.56082,28.17536],[-16.56088,28.17517],[-16.56123,28.17479],[-16.56121,28.17444],[-16.56111,28.17437],[-16.5602,28.17434],[-16.55986,28.17423],[-16.55924,28.17367],[-16.55929,28.17335],[-16.55949,28.17313],[-16.55936,28.17286],[-16.55938,28.17254],[-16.55862,28.17218],[-16.55825,28.17142],[-16.55802,28.17127],[-16.55784,28.17128],[-16.55755,28.17154],[-16.55708,28.17151],[-16.55661,28.17163],[-16.55616,28.17199],[-16.55598,28.1718],[-16.5559,28.17155],[-16.55603,28.17116],[-16.55597,28.17078],[-16.55582,28.17051],[-16.55525,28.17026],[-16.55515,28.17004],[-16.55523,28.16955],[-16.55535,28.16946],[-16.55573,28.16941],[-16.556,28.16917],[-16.55599,28.169],[-16.55581,28.1688],[-16.55484,28.16836],[-16.55442,28.16832],[-16.55404,28.1681],[-16.55334,28.16818],[-16.55233,28.16811],[-16.55245,28.16757],[-16.55238,28.16743]]]}},{"type":"Feature","properties":{"id":"3801701002"},"geometry":{"type":"Polygon","coordinates":[[[-16.59351,28.11722],[-16.59348,28.11655],[-16.59318,28.11559],[-16.59315,28.11493],[-16.59346,28.11379],[-16.59402,28.11312],[-16.59406,28.1129],[-16.59374,28.11202],[-16.59347,28.11154],[-16.59425,28.11129],[-16.59489,28.11087],[-16.59415,28.11048],[-16.59388,28.11026],[-16.59353,28.11021],[-16.59301,28.10947],[-16.59218,28.10901],[-16.59204,28.10881],[-16.59189,28.10759],[-16.59142,28.10601],[-16.5901,28.10506],[-16.58927,28.10473],[-16.58901,28.10449],[-16.58911,28.10418],[-16.58903,28.10335],[-16.58908,28.10282],[-16.58887,28.10196],[-16.58888,28.10136],[-16.58902,28.10126],[-16.58927,28.10024],[-16.58922,28.09986],[-16.58978,28.09821],[-16.5896,28.09795],[-16.59008,28.09652],[-16.59079,28.09524],[-16.59137,28.095],[-16.59147,28.09484],[-16.59145,28.09453],[-16.59114,28.0938],[-16.58997,28.092],[-16.58784,28.09365],[-16.58754,28.09401],[-16.587,28.09399],[-16.58668,28.09426],[-16.58664,28.09519],[-16.58591,28.09508],[-16.58579,28.0951],[-16.58574,28.09531],[-16.58477,28.09546],[-16.58349,28.09726],[-16.58274,28.09681],[-16.58243,28.09679],[-16.58189,28.09658],[-16.58156,28.0968],[-16.5811,28.09696],[-16.5809,28.09723],[-16.58104,28.09742],[-16.58125,28.09744],[-16.58127,28.09757],[-16.58072,28.09779],[-16.58026,28.09863],[-16.5798,28.0985],[-16.57966,28.09822],[-16.57915,28.09844],[-16.57898,28.09891],[-16.57926,28.09936],[-16.5793,28.0996],[-16.57928,28.09973],[-16.57893,28.09993],[-16.57877,28.09998],[-16.57839,28.0997],[-16.57728,28.09857],[-16.57693,28.09893],[-16.57655,28.09777],[-16.57636,28.09734],[-16.57613,28.09713],[-16.57579,28.09698],[-16.5753,28.09696],[-16.57415,28.09743],[-16.57447,28.09683],[-16.57531,28.09626],[-16.5761,28.09619],[-16.57615,28.09604],[-16.57606,28.09583],[-16.57663,28.09539],[-16.57678,28.09507],[-16.57743,28.09462],[-16.57752,28.09427],[-16.57742,28.09389],[-16.57802,28.09357],[-16.57826,28.09319],[-16.57853,28.09302],[-16.57845,28.09267],[-16.57862,28.09241],[-16.57858,28.09196],[-16.5788,28.09117],[-16.57918,28.09042],[-16.57971,28.08978],[-16.58072,28.08892],[-16.58099,28.08885],[-16.58154,28.08843],[-16.58251,28.08789],[-16.58402,28.08752],[-16.58468,28.08746],[-16.58492,28.0875],[-16.58519,28.08773],[-16.58576,28.08783],[-16.58615,28.08817],[-16.58722,28.08879],[-16.58761,28.08916],[-16.58783,28.08963],[-16.58797,28.08969],[-16.58815,28.08961],[-16.58807,28.08911],[-16.58861,28.08888],[-16.58893,28.08861],[-16.59082,28.08907],[-16.59108,28.08803],[-16.59114,28.08793],[-16.59142,28.0879],[-16.59179,28.08771],[-16.59217,28.0865],[-16.59329,28.08662],[-16.59358,28.08655],[-16.59357,28.08601],[-16.59376,28.08543],[-16.59417,28.08488],[-16.59431,28.08392],[-16.59445,28.08382],[-16.59458,28.08345],[-16.59483,28.08322],[-16.59489,28.08296],[-16.5952,28.08307],[-16.59531,28.08302],[-16.59534,28.08245],[-16.59567,28.08232],[-16.59735,28.08221],[-16.59782,28.08286],[-16.59794,28.08291],[-16.59821,28.08284],[-16.59877,28.08221],[-16.59941,28.0821],[-16.60015,28.08241],[-16.6011,28.0825],[-16.60133,28.08275],[-16.60177,28.08384],[-16.60209,28.08378],[-16.60277,28.08417],[-16.60329,28.08434],[-16.60286,28.08473],[-16.60282,28.08537],[-16.60252,28.08585],[-16.6026,28.08626],[-16.60229,28.08761],[-16.60232,28.08843],[-16.60202,28.08871],[-16.60139,28.08902],[-16.60153,28.09016],[-16.60145,28.09035],[-16.60106,28.09055],[-16.60041,28.09075],[-16.60019,28.09103],[-16.60028,28.09136],[-16.60115,28.0919],[-16.6012,28.09207],[-16.6011,28.09239],[-16.60069,28.09275],[-16.60001,28.09299],[-16.59981,28.09326],[-16.5998,28.09387],[-16.60009,28.09433],[-16.6005,28.09449],[-16.6014,28.09463],[-16.60168,28.09483],[-16.60167,28.09535],[-16.60111,28.09643],[-16.60118,28.09669],[-16.60144,28.09677],[-16.60168,28.09699],[-16.60174,28.0973],[-16.60151,28.09778],[-16.60111,28.09823],[-16.60125,28.09846],[-16.60167,28.09872],[-16.6017,28.09886],[-16.60101,28.09934],[-16.60102,28.0997],[-16.60082,28.09995],[-16.60083,28.10006],[-16.60106,28.10034],[-16.60164,28.10055],[-16.60191,28.10084],[-16.60195,28.10126],[-16.60221,28.10147],[-16.60235,28.10224],[-16.60288,28.10247],[-16.60296,28.1026],[-16.60302,28.10331],[-16.60324,28.10392],[-16.60295,28.1044],[-16.60308,28.1046],[-16.60332,28.10472],[-16.60334,28.10529],[-16.60343,28.10548],[-16.60395,28.10579],[-16.60406,28.10623],[-16.60417,28.10631],[-16.60459,28.10642],[-16.60516,28.10638],[-16.60558,28.10652],[-16.60607,28.10735],[-16.60665,28.10767],[-16.60676,28.10786],[-16.607,28.10792],[-16.60708,28.10821],[-16.60738,28.1086],[-16.60747,28.10913],[-16.60775,28.10942],[-16.60781,28.11053],[-16.60841,28.11106],[-16.60848,28.1114],[-16.60884,28.11185],[-16.60921,28.11199],[-16.60962,28.1123],[-16.61068,28.11258],[-16.61094,28.11278],[-16.61099,28.1131],[-16.61073,28.11342],[-16.61093,28.11371],[-16.61098,28.114],[-16.6112,28.11409],[-16.611,28.11469],[-16.61156,28.11481],[-16.61188,28.11526],[-16.61159,28.11582],[-16.61128,28.11583],[-16.61128,28.11616],[-16.61145,28.11667],[-16.61214,28.11756],[-16.61222,28.11816],[-16.61212,28.11833],[-16.61199,28.11836],[-16.61121,28.11814],[-16.61081,28.11812],[-16.61061,28.11822],[-16.6105,28.11847],[-16.61152,28.11946],[-16.61158,28.11993],[-16.61134,28.12015],[-16.61132,28.12039],[-16.61151,28.12157],[-16.61174,28.12204],[-16.61175,28.12245],[-16.61199,28.12286],[-16.61251,28.12322],[-16.61281,28.12368],[-16.61281,28.1239],[-16.61256,28.12439],[-16.61284,28.12475],[-16.61262,28.12564],[-16.61272,28.12601],[-16.61293,28.12626],[-16.61354,28.12669],[-16.61426,28.12696],[-16.61442,28.12731],[-16.61486,28.12771],[-16.61503,28.12815],[-16.61528,28.12844],[-16.61541,28.12874],[-16.61525,28.12901],[-16.61529,28.12915],[-16.61577,28.12973],[-16.61611,28.12988],[-16.61624,28.13022],[-16.61694,28.13052],[-16.61743,28.13094],[-16.61769,28.13092],[-16.6182,28.13119],[-16.6183,28.13171],[-16.61822,28.13223],[-16.61846,28.13256],[-16.61864,28.13255],[-16.61903,28.13278],[-16.61957,28.13376],[-16.6201,28.13396],[-16.62015,28.13469],[-16.62067,28.13497],[-16.62096,28.13529],[-16.62105,28.13581],[-16.62133,28.13614],[-16.62142,28.13669],[-16.62132,28.13708],[-16.62175,28.13743],[-16.62161,28.13772],[-16.62187,28.13804],[-16.62192,28.13847],[-16.62177,28.13881],[-16.62153,28.13894],[-16.62146,28.13911],[-16.6217,28.13997],[-16.62162,28.14035],[-16.62168,28.14098],[-16.62156,28.14112],[-16.62173,28.14125],[-16.62159,28.14187],[-16.6219,28.1426],[-16.6218,28.1428],[-16.62178,28.14344],[-16.6216,28.14367],[-16.62093,28.14402],[-16.62038,28.14488],[-16.61996,28.14512],[-16.61874,28.14557],[-16.61795,28.14571],[-16.61731,28.14615],[-16.61718,28.14673],[-16.61485,28.15058],[-16.61485,28.14983],[-16.61503,28.14926],[-16.61531,28.14884],[-16.61527,28.14861],[-16.61551,28.14828],[-16.61554,28.14762],[-16.61583,28.14689],[-16.61682,28.14567],[-16.61726,28.14459],[-16.61777,28.14416],[-16.61768,28.14334],[-16.61728,28.14271],[-16.6174,28.14204],[-16.61723,28.14174],[-16.61726,28.14135],[-16.61711,28.14122],[-16.61691,28.14067],[-16.61698,28.14053],[-16.61733,28.14028],[-16.6174,28.13984],[-16.6176,28.13953],[-16.61751,28.13894],[-16.61765,28.13861],[-16.61761,28.13833],[-16.61671,28.13749],[-16.61651,28.13681],[-16.61625,28.1365],[-16.61579,28.13655],[-16.61523,28.13694],[-16.61494,28.13702],[-16.61431,28.13687],[-16.61386,28.13653],[-16.61322,28.13629],[-16.61276,28.13632],[-16.61244,28.13574],[-16.61177,28.13568],[-16.61163,28.1354],[-16.61165,28.1347],[-16.61147,28.13424],[-16.61076,28.13377],[-16.61072,28.13344],[-16.61041,28.13324],[-16.61008,28.13271],[-16.60997,28.13265],[-16.60971,28.13267],[-16.60949,28.13247],[-16.60892,28.13234],[-16.60757,28.13124],[-16.60729,28.13024],[-16.60821,28.13014],[-16.60726,28.12901],[-16.60682,28.12884],[-16.60703,28.12877],[-16.6061,28.12812],[-16.60556,28.12748],[-16.60522,28.12724],[-16.60504,28.12673],[-16.60479,28.12644],[-16.60483,28.1262],[-16.60474,28.126],[-16.60458,28.12582],[-16.60401,28.12552],[-16.60298,28.12448],[-16.60219,28.12388],[-16.60118,28.12364],[-16.60045,28.1233],[-16.59942,28.12226],[-16.59916,28.12186],[-16.599,28.12119],[-16.59828,28.12028],[-16.59668,28.11927],[-16.59612,28.11867],[-16.59596,28.11857],[-16.59553,28.11868],[-16.59504,28.11848],[-16.59431,28.11848],[-16.59422,28.11804],[-16.59351,28.11722]]]}},{"type":"Feature","properties":{"id":"3801701003"},"geometry":{"type":"Polygon","coordinates":[[[-16.56205,28.08257],[-16.56306,28.08183],[-16.56151,28.08012],[-16.56266,28.07935],[-16.5617,28.07771],[-16.56274,28.07721],[-16.56334,28.07719],[-16.56354,28.07676],[-16.56346,28.07636],[-16.56356,28.07604],[-16.56405,28.07568],[-16.56447,28.0756],[-16.5654,28.07495],[-16.56587,28.07497],[-16.56669,28.07432],[-16.56692,28.07423],[-16.56768,28.07318],[-16.56791,28.07239],[-16.56842,28.07167],[-16.56944,28.07123],[-16.56967,28.07122],[-16.57106,28.07172],[-16.57185,28.07059],[-16.57267,28.07024],[-16.57323,28.07014],[-16.57401,28.06963],[-16.57476,28.06941],[-16.57501,28.06948],[-16.57528,28.06977],[-16.57579,28.07009],[-16.57621,28.07063],[-16.57641,28.07068],[-16.57699,28.0706],[-16.57736,28.07029],[-16.57936,28.06942],[-16.57934,28.06894],[-16.57957,28.06844],[-16.58,28.06793],[-16.58054,28.06644],[-16.58147,28.06615],[-16.58182,28.06538],[-16.58226,28.06494],[-16.58331,28.06428],[-16.58442,28.06425],[-16.58488,28.06405],[-16.58513,28.06403],[-16.58533,28.06403],[-16.58559,28.06425],[-16.58613,28.06423],[-16.58656,28.06366],[-16.58688,28.06348],[-16.5869,28.06293],[-16.58858,28.06043],[-16.58922,28.06034],[-16.59048,28.05967],[-16.59075,28.05964],[-16.5911,28.05984],[-16.59137,28.06033],[-16.59131,28.06087],[-16.59139,28.06104],[-16.59165,28.06111],[-16.59186,28.06106],[-16.59218,28.06081],[-16.59284,28.06061],[-16.59292,28.06012],[-16.59325,28.05957],[-16.59652,28.05788],[-16.59718,28.05712],[-16.59789,28.05548],[-16.59819,28.05555],[-16.59821,28.05584],[-16.59847,28.05601],[-16.59869,28.05603],[-16.5989,28.05583],[-16.59927,28.0552],[-16.59922,28.05398],[-16.59949,28.0531],[-16.60059,28.05293],[-16.60145,28.0526],[-16.60277,28.05245],[-16.604,28.05249],[-16.60512,28.05229],[-16.60583,28.05242],[-16.60604,28.05237],[-16.60623,28.05218],[-16.60637,28.05218],[-16.60585,28.05353],[-16.60627,28.05485],[-16.60647,28.05514],[-16.6065,28.05547],[-16.60551,28.05651],[-16.60522,28.0576],[-16.6054,28.05814],[-16.60547,28.05879],[-16.60576,28.05904],[-16.60579,28.05936],[-16.60549,28.06003],[-16.6058,28.06052],[-16.60582,28.06077],[-16.60563,28.06102],[-16.60469,28.06157],[-16.60468,28.06188],[-16.60494,28.06229],[-16.60495,28.0625],[-16.60417,28.06304],[-16.60402,28.06324],[-16.60382,28.0637],[-16.60399,28.06419],[-16.60395,28.06447],[-16.60371,28.06461],[-16.60314,28.06464],[-16.60263,28.06495],[-16.60222,28.06588],[-16.60222,28.06658],[-16.60212,28.06674],[-16.60173,28.06691],[-16.60144,28.06715],[-16.60128,28.06752],[-16.60133,28.06799],[-16.6016,28.06863],[-16.60215,28.06929],[-16.60282,28.06968],[-16.6031,28.07001],[-16.60331,28.07071],[-16.60306,28.07111],[-16.60321,28.07143],[-16.60311,28.07171],[-16.60354,28.0721],[-16.60373,28.07247],[-16.60352,28.07316],[-16.60368,28.07369],[-16.60369,28.07448],[-16.60333,28.0748],[-16.60381,28.07527],[-16.60368,28.07584],[-16.60334,28.07648],[-16.60372,28.07755],[-16.60367,28.07773],[-16.60335,28.078],[-16.60302,28.0785],[-16.60292,28.07935],[-16.6031,28.07959],[-16.60362,28.07967],[-16.60396,28.07993],[-16.60398,28.0802],[-16.60385,28.08044],[-16.60338,28.08047],[-16.60322,28.08064],[-16.60319,28.08138],[-16.60336,28.08176],[-16.60389,28.0823],[-16.60397,28.08266],[-16.60392,28.08298],[-16.60378,28.08321],[-16.60305,28.08345],[-16.60297,28.08354],[-16.60299,28.08367],[-16.60338,28.08361],[-16.60351,28.08372],[-16.60352,28.08403],[-16.60329,28.08434],[-16.60277,28.08417],[-16.60209,28.08378],[-16.60177,28.08384],[-16.60133,28.08275],[-16.6011,28.0825],[-16.60015,28.08241],[-16.59941,28.0821],[-16.59899,28.08213],[-16.59866,28.08229],[-16.59821,28.08284],[-16.59794,28.08291],[-16.59782,28.08286],[-16.59735,28.08221],[-16.59567,28.08232],[-16.59534,28.08245],[-16.59535,28.08292],[-16.59525,28.08306],[-16.59489,28.08296],[-16.59483,28.08322],[-16.59458,28.08345],[-16.59445,28.08382],[-16.59431,28.08392],[-16.59417,28.08488],[-16.59376,28.08543],[-16.59357,28.08601],[-16.59358,28.08655],[-16.59329,28.08662],[-16.59217,28.0865],[-16.59179,28.08771],[-16.59142,28.0879],[-16.59114,28.08793],[-16.59108,28.08803],[-16.59082,28.08907],[-16.58893,28.08861],[-16.58861,28.08888],[-16.58807,28.08911],[-16.58815,28.08961],[-16.58797,28.08969],[-16.58783,28.08963],[-16.58761,28.08916],[-16.58722,28.08879],[-16.58615,28.08817],[-16.58576,28.08783],[-16.58519,28.08773],[-16.58492,28.0875],[-16.58407,28.08751],[-16.58251,28.08789],[-16.58154,28.08843],[-16.58099,28.08885],[-16.58066,28.08897],[-16.57927,28.09027],[-16.5788,28.09117],[-16.57858,28.09196],[-16.57862,28.09241],[-16.57845,28.09267],[-16.57853,28.09302],[-16.57826,28.09319],[-16.57802,28.09357],[-16.57742,28.09389],[-16.57752,28.09427],[-16.57743,28.09462],[-16.57678,28.09507],[-16.57663,28.09539],[-16.57606,28.09583],[-16.57615,28.09604],[-16.5761,28.09619],[-16.57531,28.09626],[-16.57447,28.09683],[-16.57415,28.09743],[-16.57167,28.09801],[-16.57122,28.09788],[-16.57079,28.09747],[-16.56964,28.09448],[-16.56956,28.0936],[-16.56972,28.09236],[-16.5697,28.09194],[-16.56957,28.09163],[-16.5679,28.09055],[-16.56752,28.08995],[-16.56718,28.08534],[-16.56702,28.08463],[-16.56666,28.0844],[-16.56632,28.08435],[-16.5653,28.08463],[-16.56482,28.08455],[-16.56341,28.08347],[-16.56205,28.08257]]]}},{"type":"Feature","properties":{"id":"3801701004"},"geometry":{"type":"Polygon","coordinates":[[[-16.57377,28.15836],[-16.57308,28.15791],[-16.57255,28.15732],[-16.57101,28.15673],[-16.56973,28.15561],[-16.56876,28.15403],[-16.56844,28.15234],[-16.56707,28.14932],[-16.56625,28.14789],[-16.56595,28.14695],[-16.56522,28.14582],[-16.56478,28.14488],[-16.56457,28.14471],[-16.56455,28.14451],[-16.56391,28.14381],[-16.56317,28.14332],[-16.56282,28.14284],[-16.56285,28.14248],[-16.56272,28.14231],[-16.56234,28.1422],[-16.56225,28.142],[-16.56188,28.14169],[-16.56101,28.14151],[-16.56093,28.14134],[-16.56042,28.14108],[-16.56016,28.14073],[-16.5599,28.14058],[-16.55975,28.14021],[-16.55955,28.13999],[-16.55954,28.13908],[-16.55925,28.13897],[-16.55931,28.13861],[-16.5589,28.13805],[-16.55842,28.13766],[-16.55809,28.13715],[-16.55783,28.1369],[-16.55758,28.13688],[-16.55722,28.13644],[-16.55689,28.13626],[-16.55678,28.13601],[-16.55649,28.13591],[-16.55612,28.13559],[-16.55587,28.1358],[-16.55567,28.13562],[-16.55541,28.13496],[-16.55548,28.13486],[-16.55577,28.13478],[-16.55579,28.13453],[-16.55568,28.13406],[-16.55543,28.13386],[-16.55539,28.13358],[-16.55496,28.13357],[-16.55477,28.13327],[-16.55442,28.1332],[-16.5541,28.13295],[-16.55373,28.13311],[-16.55305,28.13308],[-16.55225,28.13286],[-16.55176,28.13283],[-16.55141,28.13251],[-16.55067,28.13232],[-16.55056,28.13208],[-16.55079,28.13128],[-16.55058,28.13094],[-16.5501,28.13032],[-16.54977,28.13011],[-16.54925,28.13004],[-16.54894,28.12968],[-16.54921,28.12906],[-16.54963,28.12892],[-16.54956,28.12826],[-16.54859,28.12791],[-16.54841,28.12766],[-16.54817,28.1269],[-16.54841,28.12617],[-16.54836,28.12602],[-16.54728,28.12594],[-16.54699,28.12555],[-16.54694,28.12518],[-16.54672,28.12501],[-16.54556,28.12497],[-16.54465,28.12385],[-16.54435,28.12386],[-16.54376,28.12419],[-16.54351,28.12396],[-16.54289,28.12362],[-16.5424,28.12306],[-16.54247,28.12264],[-16.54224,28.12234],[-16.54179,28.1222],[-16.54136,28.12163],[-16.54119,28.12154],[-16.54073,28.12155],[-16.54071,28.12244],[-16.5403,28.12268],[-16.54021,28.12287],[-16.5398,28.12279],[-16.53949,28.12257],[-16.53896,28.12249],[-16.53869,28.12211],[-16.53814,28.12212],[-16.53759,28.12186],[-16.53754,28.12132],[-16.53744,28.12121],[-16.53665,28.12102],[-16.53666,28.12045],[-16.5352,28.11958],[-16.5353,28.11923],[-16.53546,28.11909],[-16.53479,28.11824],[-16.53477,28.1176],[-16.53468,28.11746],[-16.53421,28.11732],[-16.53367,28.11732],[-16.53348,28.11708],[-16.53339,28.1167],[-16.53318,28.11651],[-16.53273,28.11568],[-16.53209,28.11555],[-16.53186,28.11519],[-16.53124,28.11477],[-16.53131,28.1145],[-16.53083,28.11386],[-16.5307,28.1132],[-16.53046,28.11296],[-16.53036,28.11243],[-16.53028,28.11233],[-16.52981,28.11229],[-16.52961,28.11212],[-16.52977,28.11115],[-16.52913,28.11065],[-16.52847,28.10996],[-16.52828,28.10931],[-16.52816,28.10921],[-16.52745,28.10916],[-16.52733,28.109],[-16.52727,28.10852],[-16.52715,28.1085],[-16.52673,28.10807],[-16.52651,28.10797],[-16.5261,28.10796],[-16.52585,28.10752],[-16.52548,28.10739],[-16.52556,28.1068],[-16.52549,28.10648],[-16.5252,28.10647],[-16.52467,28.10674],[-16.52423,28.1067],[-16.52418,28.1064],[-16.52463,28.10614],[-16.52481,28.10593],[-16.52483,28.10566],[-16.52423,28.10558],[-16.52398,28.10569],[-16.52393,28.1059],[-16.52372,28.10597],[-16.52301,28.10584],[-16.52262,28.10558],[-16.5226,28.10536],[-16.52285,28.10471],[-16.52281,28.10455],[-16.52249,28.10423],[-16.52212,28.1041],[-16.52174,28.10412],[-16.52142,28.10401],[-16.52069,28.10311],[-16.52054,28.10306],[-16.5194,28.10329],[-16.5192,28.1032],[-16.51896,28.10289],[-16.51834,28.10289],[-16.51815,28.10267],[-16.51816,28.10235],[-16.51846,28.10198],[-16.51831,28.10181],[-16.51794,28.10177],[-16.51745,28.10218],[-16.51692,28.10215],[-16.51628,28.10177],[-16.51572,28.1011],[-16.51535,28.10089],[-16.51392,28.10098],[-16.51327,28.1008],[-16.51318,28.10072],[-16.51319,28.10051],[-16.51348,28.09989],[-16.51349,28.09962],[-16.51292,28.099],[-16.51311,28.09846],[-16.51303,28.09831],[-16.51193,28.09806],[-16.51106,28.09751],[-16.51077,28.09703],[-16.51043,28.09694],[-16.51003,28.09656],[-16.50933,28.09659],[-16.50895,28.09638],[-16.50889,28.09621],[-16.5091,28.0958],[-16.50872,28.0955],[-16.5082,28.09534],[-16.50808,28.09522],[-16.508,28.09478],[-16.50773,28.09443],[-16.50757,28.09387],[-16.50734,28.0936],[-16.50704,28.09287],[-16.50776,28.09175],[-16.50858,28.08986],[-16.50883,28.09053],[-16.50898,28.0907],[-16.50961,28.091],[-16.51002,28.09131],[-16.51012,28.09171],[-16.51074,28.09239],[-16.51119,28.09261],[-16.51245,28.09294],[-16.51271,28.09312],[-16.51333,28.09385],[-16.5137,28.09396],[-16.5148,28.09493],[-16.51493,28.09516],[-16.51508,28.09525],[-16.51547,28.09517],[-16.51657,28.09587],[-16.51683,28.09575],[-16.51717,28.09591],[-16.51735,28.09629],[-16.51731,28.09688],[-16.51781,28.0975],[-16.51846,28.0976],[-16.5191,28.09746],[-16.51956,28.09751],[-16.51985,28.0974],[-16.52027,28.09743],[-16.52084,28.0973],[-16.52237,28.09748],[-16.52289,28.09733],[-16.52309,28.09747],[-16.52319,28.09786],[-16.5235,28.09819],[-16.52401,28.0984],[-16.52472,28.09902],[-16.52546,28.0994],[-16.52662,28.09894],[-16.52742,28.09885],[-16.52773,28.09872],[-16.5283,28.09912],[-16.52857,28.09917],[-16.52952,28.09899],[-16.53019,28.09925],[-16.53068,28.09918],[-16.53252,28.09935],[-16.53358,28.09935],[-16.53383,28.09926],[-16.5343,28.0995],[-16.5351,28.09941],[-16.5356,28.09968],[-16.53571,28.09956],[-16.53613,28.09966],[-16.5365,28.09963],[-16.5372,28.0994],[-16.53743,28.09943],[-16.5378,28.09972],[-16.53827,28.09986],[-16.53886,28.09976],[-16.53944,28.09986],[-16.54018,28.10019],[-16.54032,28.10053],[-16.54079,28.10078],[-16.54109,28.10116],[-16.54118,28.10159],[-16.54172,28.10077],[-16.54225,28.10078],[-16.54281,28.10115],[-16.54338,28.10123],[-16.54374,28.10154],[-16.54396,28.10193],[-16.54484,28.1023],[-16.54574,28.10251],[-16.54576,28.10303],[-16.54588,28.10317],[-16.54659,28.10365],[-16.54729,28.10375],[-16.54763,28.10405],[-16.54858,28.10446],[-16.54969,28.10571],[-16.55019,28.10612],[-16.55036,28.10521],[-16.5507,28.10479],[-16.55199,28.10384],[-16.553,28.10342],[-16.55398,28.10337],[-16.55476,28.10358],[-16.5551,28.10382],[-16.55576,28.10461],[-16.55601,28.10472],[-16.55667,28.10465],[-16.5571,28.10424],[-16.5571,28.10336],[-16.55693,28.1029],[-16.55626,28.10225],[-16.55484,28.10108],[-16.55506,28.10084],[-16.55545,28.10083],[-16.55576,28.10123],[-16.55608,28.10125],[-16.55629,28.10111],[-16.55665,28.10066],[-16.55764,28.10069],[-16.55776,28.10066],[-16.55784,28.10052],[-16.55776,28.10034],[-16.55748,28.10017],[-16.557,28.09938],[-16.55694,28.09887],[-16.5567,28.09815],[-16.55613,28.09703],[-16.55594,28.09606],[-16.55533,28.09535],[-16.5554,28.09515],[-16.55599,28.09456],[-16.55703,28.09516],[-16.55805,28.09537],[-16.55828,28.09523],[-16.55894,28.09526],[-16.55905,28.09514],[-16.56028,28.09487],[-16.56084,28.09449],[-16.56143,28.09376],[-16.56162,28.09367],[-16.56223,28.09385],[-16.56276,28.09376],[-16.56453,28.09184],[-16.56477,28.09149],[-16.56475,28.09135],[-16.56506,28.09113],[-16.56531,28.09166],[-16.5664,28.09068],[-16.56699,28.0904],[-16.56704,28.0902],[-16.56722,28.09012],[-16.5676,28.09011],[-16.5679,28.09055],[-16.56957,28.09163],[-16.5697,28.09194],[-16.56972,28.09236],[-16.56957,28.09415],[-16.57079,28.09747],[-16.57122,28.09788],[-16.57167,28.09801],[-16.57373,28.09754],[-16.57355,28.098],[-16.5736,28.09832],[-16.57287,28.09914],[-16.57242,28.09938],[-16.57222,28.09975],[-16.57219,28.10019],[-16.57243,28.10069],[-16.57221,28.10123],[-16.57219,28.10191],[-16.57171,28.10232],[-16.57149,28.10231],[-16.57116,28.10245],[-16.571,28.1028],[-16.57125,28.10363],[-16.57098,28.10397],[-16.57098,28.10435],[-16.57079,28.10466],[-16.57125,28.10557],[-16.57127,28.10617],[-16.57116,28.10663],[-16.57091,28.10695],[-16.5708,28.10746],[-16.57051,28.10795],[-16.57014,28.10823],[-16.57019,28.10867],[-16.57042,28.10904],[-16.57015,28.1093],[-16.57004,28.10958],[-16.56989,28.10966],[-16.56987,28.10988],[-16.56935,28.11061],[-16.56937,28.11131],[-16.56912,28.11213],[-16.56829,28.11231],[-16.56745,28.11223],[-16.56694,28.1124],[-16.56633,28.11224],[-16.56591,28.11261],[-16.56584,28.11362],[-16.56562,28.11367],[-16.56518,28.11349],[-16.56499,28.11352],[-16.56485,28.11379],[-16.56385,28.11431],[-16.56454,28.11589],[-16.56479,28.11627],[-16.56424,28.117],[-16.56331,28.11688],[-16.56314,28.11721],[-16.56355,28.11759],[-16.56414,28.11786],[-16.5643,28.11804],[-16.56431,28.11829],[-16.56412,28.11834],[-16.56391,28.11809],[-16.56342,28.11809],[-16.56323,28.11802],[-16.56248,28.11754],[-16.56229,28.11716],[-16.56211,28.11711],[-16.56193,28.11726],[-16.56211,28.11823],[-16.56197,28.11826],[-16.56154,28.11764],[-16.56129,28.11756],[-16.56092,28.11803],[-16.5609,28.11818],[-16.56108,28.11867],[-16.56151,28.11939],[-16.56161,28.11952],[-16.56197,28.1196],[-16.56255,28.11991],[-16.56297,28.12045],[-16.56326,28.12121],[-16.5639,28.12151],[-16.5643,28.1222],[-16.56523,28.12287],[-16.56574,28.12345],[-16.56712,28.12469],[-16.56743,28.12471],[-16.56771,28.1246],[-16.56801,28.12472],[-16.56866,28.12562],[-16.56864,28.12608],[-16.56893,28.12707],[-16.56895,28.1275],[-16.56974,28.12865],[-16.5698,28.12892],[-16.5692,28.13061],[-16.5694,28.13091],[-16.56933,28.13135],[-16.56954,28.13163],[-16.56955,28.1319],[-16.57,28.13212],[-16.57005,28.13249],[-16.57042,28.133],[-16.57045,28.13324],[-16.57032,28.1335],[-16.57034,28.13375],[-16.57065,28.13432],[-16.57115,28.13494],[-16.57199,28.13558],[-16.57232,28.1357],[-16.57267,28.13563],[-16.57278,28.13608],[-16.57327,28.1363],[-16.57368,28.13665],[-16.57378,28.13694],[-16.57372,28.13737],[-16.5744,28.13787],[-16.57446,28.13809],[-16.57477,28.13848],[-16.57483,28.13892],[-16.57525,28.13919],[-16.57546,28.13952],[-16.57598,28.1395],[-16.57625,28.1396],[-16.5766,28.14057],[-16.57719,28.14069],[-16.5776,28.14134],[-16.5782,28.14173],[-16.57826,28.14193],[-16.57805,28.14243],[-16.57824,28.14274],[-16.57859,28.14305],[-16.57845,28.14329],[-16.57879,28.1438],[-16.57881,28.14401],[-16.57907,28.1441],[-16.57947,28.14402],[-16.58011,28.14423],[-16.58026,28.14442],[-16.58048,28.14511],[-16.58171,28.14558],[-16.58183,28.14575],[-16.58169,28.14595],[-16.5818,28.14614],[-16.58322,28.14684],[-16.58346,28.14712],[-16.58341,28.14733],[-16.58396,28.14794],[-16.58393,28.14851],[-16.58445,28.1489],[-16.5845,28.14903],[-16.5845,28.1491],[-16.58419,28.14902],[-16.58387,28.14908],[-16.58411,28.14938],[-16.5842,28.14972],[-16.58379,28.14999],[-16.58354,28.15],[-16.58368,28.15057],[-16.5836,28.15082],[-16.58316,28.15092],[-16.583,28.15117],[-16.58297,28.15133],[-16.58326,28.15224],[-16.58317,28.1523],[-16.58291,28.15225],[-16.58288,28.15232],[-16.58306,28.15267],[-16.58307,28.15393],[-16.58327,28.1542],[-16.58338,28.15457],[-16.58322,28.15463],[-16.58294,28.1544],[-16.58264,28.15451],[-16.5824,28.15511],[-16.58214,28.15544],[-16.58211,28.15575],[-16.58196,28.15583],[-16.5817,28.15558],[-16.58166,28.15521],[-16.58134,28.15494],[-16.581,28.15495],[-16.58051,28.15512],[-16.58045,28.15535],[-16.58066,28.15622],[-16.58093,28.15649],[-16.58077,28.15667],[-16.5804,28.1567],[-16.58015,28.15652],[-16.57973,28.156],[-16.5794,28.15585],[-16.57907,28.15583],[-16.57909,28.15601],[-16.57934,28.15626],[-16.57944,28.1565],[-16.57906,28.15738],[-16.57899,28.15834],[-16.57885,28.15864],[-16.57819,28.15887],[-16.57823,28.15938],[-16.57775,28.15934],[-16.57679,28.15967],[-16.57652,28.15955],[-16.57618,28.1592],[-16.57589,28.1592],[-16.5757,28.15932],[-16.57567,28.15951],[-16.57576,28.15976],[-16.57594,28.15992],[-16.57554,28.15998],[-16.57506,28.15961],[-16.57445,28.15952],[-16.57416,28.15933],[-16.57389,28.15887],[-16.57377,28.15836]]]}},{"type":"Feature","properties":{"id":"3801701005"},"geometry":{"type":"Polygon","coordinates":[[[-16.49013,28.10776],[-16.49089,28.10714],[-16.49175,28.10617],[-16.49504,28.10072],[-16.49609,28.09924],[-16.49663,28.09866],[-16.498,28.09767],[-16.49872,28.09729],[-16.50311,28.09557],[-16.50475,28.09484],[-16.50633,28.09367],[-16.50704,28.09287],[-16.50734,28.0936],[-16.50757,28.09387],[-16.50773,28.09443],[-16.508,28.09478],[-16.50808,28.09522],[-16.5082,28.09534],[-16.50872,28.0955],[-16.5091,28.0958],[-16.50889,28.09621],[-16.50907,28.09649],[-16.50933,28.09659],[-16.51003,28.09656],[-16.51043,28.09694],[-16.51077,28.09703],[-16.51106,28.09751],[-16.51193,28.09806],[-16.51303,28.09831],[-16.51311,28.09846],[-16.51292,28.099],[-16.51349,28.09962],[-16.51348,28.09989],[-16.51319,28.10051],[-16.51318,28.10072],[-16.51327,28.1008],[-16.51392,28.10098],[-16.51535,28.10089],[-16.51572,28.1011],[-16.51628,28.10177],[-16.51692,28.10215],[-16.51745,28.10218],[-16.51794,28.10177],[-16.51831,28.10181],[-16.51846,28.10198],[-16.51816,28.10235],[-16.51815,28.10267],[-16.51834,28.10289],[-16.51896,28.10289],[-16.5192,28.1032],[-16.5194,28.10329],[-16.52054,28.10306],[-16.52069,28.10311],[-16.52142,28.10401],[-16.52174,28.10412],[-16.52212,28.1041],[-16.52249,28.10423],[-16.52281,28.10455],[-16.52285,28.10471],[-16.5226,28.10536],[-16.52262,28.10558],[-16.52301,28.10584],[-16.52372,28.10597],[-16.52393,28.1059],[-16.52398,28.10569],[-16.52423,28.10558],[-16.52483,28.10566],[-16.52481,28.10593],[-16.52463,28.10614],[-16.52418,28.1064],[-16.52423,28.1067],[-16.52467,28.10674],[-16.5252,28.10647],[-16.52549,28.10648],[-16.52556,28.1068],[-16.52548,28.10739],[-16.52585,28.10752],[-16.5261,28.10796],[-16.52651,28.10797],[-16.52673,28.10807],[-16.52715,28.1085],[-16.52727,28.10852],[-16.52733,28.109],[-16.52745,28.10916],[-16.52816,28.10921],[-16.52828,28.10931],[-16.52847,28.10996],[-16.52913,28.11065],[-16.52977,28.11115],[-16.52961,28.11212],[-16.52981,28.11229],[-16.53028,28.11233],[-16.53036,28.11243],[-16.53046,28.11296],[-16.5307,28.1132],[-16.53083,28.11386],[-16.53131,28.1145],[-16.53124,28.11477],[-16.53186,28.11519],[-16.53209,28.11555],[-16.53273,28.11568],[-16.53318,28.11651],[-16.53339,28.1167],[-16.53348,28.11708],[-16.53367,28.11732],[-16.53421,28.11732],[-16.53468,28.11746],[-16.53477,28.1176],[-16.53479,28.11824],[-16.53546,28.11909],[-16.5353,28.11923],[-16.5352,28.11958],[-16.53666,28.12045],[-16.53665,28.12102],[-16.53744,28.12121],[-16.53754,28.12132],[-16.53759,28.12186],[-16.53814,28.12212],[-16.53869,28.12211],[-16.53896,28.12249],[-16.53949,28.12257],[-16.5398,28.12279],[-16.54021,28.12287],[-16.5403,28.12268],[-16.54071,28.12244],[-16.54073,28.12155],[-16.54119,28.12154],[-16.54136,28.12163],[-16.54179,28.1222],[-16.54224,28.12234],[-16.54247,28.12264],[-16.5424,28.12306],[-16.54289,28.12362],[-16.54351,28.12396],[-16.54376,28.12419],[-16.54435,28.12386],[-16.54465,28.12385],[-16.54556,28.12497],[-16.54672,28.12501],[-16.54694,28.12518],[-16.54699,28.12555],[-16.54728,28.12594],[-16.54836,28.12602],[-16.54841,28.12617],[-16.54817,28.1269],[-16.54841,28.12766],[-16.54859,28.12791],[-16.54956,28.12826],[-16.54963,28.12892],[-16.54921,28.12906],[-16.54894,28.12968],[-16.54925,28.13004],[-16.54977,28.13011],[-16.5501,28.13032],[-16.55058,28.13094],[-16.55079,28.13128],[-16.55056,28.13208],[-16.55067,28.13232],[-16.55141,28.13251],[-16.55176,28.13283],[-16.55225,28.13286],[-16.55305,28.13308],[-16.55373,28.13311],[-16.5541,28.13295],[-16.55442,28.1332],[-16.55477,28.13327],[-16.55496,28.13357],[-16.55536,28.13356],[-16.55543,28.13386],[-16.55568,28.13406],[-16.55579,28.13453],[-16.55577,28.13478],[-16.55548,28.13486],[-16.55541,28.13496],[-16.55567,28.13562],[-16.55587,28.1358],[-16.55612,28.13559],[-16.55649,28.13591],[-16.55678,28.13601],[-16.55689,28.13626],[-16.55722,28.13644],[-16.55758,28.13688],[-16.55783,28.1369],[-16.55809,28.13715],[-16.55842,28.13766],[-16.5589,28.13805],[-16.55931,28.13861],[-16.55925,28.13897],[-16.55954,28.13908],[-16.55955,28.13999],[-16.55975,28.14021],[-16.5599,28.14058],[-16.56016,28.14073],[-16.56042,28.14108],[-16.56093,28.14134],[-16.56101,28.14151],[-16.56188,28.14169],[-16.56225,28.142],[-16.56234,28.1422],[-16.56272,28.14231],[-16.56285,28.14248],[-16.56282,28.14284],[-16.56317,28.14332],[-16.56391,28.14381],[-16.56453,28.14448],[-16.56457,28.14471],[-16.56478,28.14488],[-16.56522,28.14582],[-16.56595,28.14695],[-16.56625,28.14789],[-16.56707,28.14932],[-16.56844,28.15234],[-16.56876,28.15403],[-16.56973,28.15561],[-16.57101,28.15673],[-16.57255,28.15732],[-16.57308,28.15791],[-16.5736,28.15821],[-16.57343,28.15871],[-16.57358,28.1594],[-16.57277,28.1599],[-16.57291,28.16039],[-16.57281,28.16053],[-16.57046,28.16192],[-16.56682,28.16366],[-16.56247,28.16498],[-16.55842,28.16599],[-16.55238,28.16743],[-16.55229,28.16735],[-16.55203,28.16737],[-16.55185,28.16729],[-16.55181,28.16698],[-16.55204,28.16677],[-16.55205,28.16648],[-16.5523,28.16625],[-16.55214,28.16595],[-16.55216,28.1655],[-16.552,28.16536],[-16.55183,28.16532],[-16.55081,28.16561],[-16.55041,28.16515],[-16.54982,28.16518],[-16.54897,28.1648],[-16.54846,28.16416],[-16.54792,28.16374],[-16.54765,28.16331],[-16.54747,28.16331],[-16.54744,28.1637],[-16.54729,28.16377],[-16.54638,28.16328],[-16.54637,28.16304],[-16.54661,28.16257],[-16.54653,28.16237],[-16.54628,28.16242],[-16.54597,28.1622],[-16.54615,28.16178],[-16.54608,28.16159],[-16.54585,28.16164],[-16.54502,28.16126],[-16.5444,28.16113],[-16.54417,28.16118],[-16.54364,28.16095],[-16.54335,28.16081],[-16.54318,28.16044],[-16.54294,28.16022],[-16.54245,28.15998],[-16.54209,28.15998],[-16.54208,28.16016],[-16.54186,28.16026],[-16.54149,28.16018],[-16.54136,28.16002],[-16.54149,28.15955],[-16.54143,28.15948],[-16.54091,28.15949],[-16.53992,28.15924],[-16.53976,28.15899],[-16.53956,28.15888],[-16.53913,28.1582],[-16.53834,28.15779],[-16.53815,28.15733],[-16.53791,28.15706],[-16.53521,28.15575],[-16.53524,28.1548],[-16.53463,28.1544],[-16.53452,28.15404],[-16.53395,28.15343],[-16.53313,28.15288],[-16.53282,28.15286],[-16.53267,28.15275],[-16.53279,28.15248],[-16.53267,28.15215],[-16.53227,28.15192],[-16.53183,28.1509],[-16.53138,28.15063],[-16.53131,28.14996],[-16.5308,28.14972],[-16.53066,28.14904],[-16.53026,28.14851],[-16.53038,28.14836],[-16.5307,28.14826],[-16.5307,28.14812],[-16.5304,28.14782],[-16.53,28.14804],[-16.52953,28.14809],[-16.52948,28.14801],[-16.52964,28.14765],[-16.52958,28.14748],[-16.5291,28.14734],[-16.52908,28.14706],[-16.52897,28.14701],[-16.52864,28.14705],[-16.52825,28.14695],[-16.52822,28.14684],[-16.52843,28.1465],[-16.52829,28.14598],[-16.52784,28.14575],[-16.52731,28.14507],[-16.52694,28.14499],[-16.52692,28.14488],[-16.52716,28.14461],[-16.52699,28.14423],[-16.5265,28.14421],[-16.52624,28.1441],[-16.52578,28.14346],[-16.52584,28.14334],[-16.52619,28.14322],[-16.52627,28.1427],[-16.52644,28.1424],[-16.52633,28.14188],[-16.526,28.1416],[-16.52593,28.14142],[-16.52561,28.14123],[-16.52596,28.14046],[-16.52569,28.13985],[-16.52586,28.13961],[-16.5261,28.13957],[-16.52628,28.13937],[-16.52564,28.13872],[-16.52564,28.1382],[-16.52582,28.13784],[-16.52547,28.13758],[-16.52548,28.13745],[-16.52524,28.13722],[-16.52521,28.13696],[-16.52479,28.13688],[-16.52458,28.13659],[-16.52421,28.13656],[-16.52359,28.13617],[-16.52321,28.13583],[-16.52314,28.13543],[-16.52256,28.13456],[-16.52277,28.13415],[-16.52258,28.13372],[-16.52251,28.13363],[-16.52177,28.13366],[-16.52161,28.1336],[-16.52149,28.13323],[-16.52158,28.1329],[-16.52152,28.13264],[-16.52074,28.13267],[-16.52048,28.13236],[-16.51995,28.13198],[-16.52015,28.13142],[-16.52014,28.13119],[-16.51955,28.13112],[-16.51925,28.13062],[-16.51861,28.13029],[-16.51787,28.13008],[-16.51734,28.12957],[-16.51699,28.12963],[-16.5169,28.12997],[-16.51669,28.13002],[-16.51641,28.12993],[-16.51602,28.12957],[-16.51586,28.12952],[-16.51443,28.12984],[-16.51408,28.12971],[-16.5138,28.12997],[-16.51191,28.13013],[-16.51168,28.12969],[-16.51174,28.12933],[-16.51162,28.12917],[-16.51111,28.12903],[-16.51052,28.12903],[-16.50993,28.12868],[-16.50827,28.1283],[-16.50698,28.12772],[-16.50625,28.12719],[-16.50531,28.12698],[-16.50511,28.12681],[-16.504,28.12651],[-16.50397,28.12629],[-16.50439,28.12595],[-16.50451,28.12563],[-16.50442,28.12513],[-16.50402,28.12486],[-16.50381,28.12441],[-16.50363,28.12424],[-16.50355,28.12391],[-16.50356,28.12377],[-16.50398,28.12313],[-16.50398,28.12278],[-16.50338,28.1227],[-16.50299,28.12249],[-16.503,28.12197],[-16.50284,28.12165],[-16.50256,28.1214],[-16.50208,28.12138],[-16.50195,28.12128],[-16.50188,28.12098],[-16.50193,28.12063],[-16.50161,28.12064],[-16.5011,28.12042],[-16.50098,28.12017],[-16.50122,28.11982],[-16.50116,28.11965],[-16.5005,28.11952],[-16.49998,28.11921],[-16.49985,28.11842],[-16.5001,28.11815],[-16.49993,28.11778],[-16.49922,28.11749],[-16.4981,28.11723],[-16.49788,28.11701],[-16.49749,28.11696],[-16.49693,28.11657],[-16.49665,28.11575],[-16.49672,28.11552],[-16.49704,28.11502],[-16.4975,28.11485],[-16.49766,28.11463],[-16.49716,28.11399],[-16.49723,28.11349],[-16.49708,28.11335],[-16.49564,28.11306],[-16.49509,28.11255],[-16.49335,28.1122],[-16.49295,28.11168],[-16.49281,28.11131],[-16.49243,28.1109],[-16.49192,28.11057],[-16.49073,28.10912],[-16.49055,28.10883],[-16.4906,28.10844],[-16.49046,28.10808],[-16.49013,28.10776]]]}},{"type":"Feature","properties":{"id":"3801701006"},"geometry":{"type":"Polygon","coordinates":[[[-16.57663,28.12569],[-16.57702,28.12559],[-16.57707,28.12544],[-16.57693,28.12497],[-16.57706,28.12485],[-16.57751,28.12471],[-16.57756,28.12444],[-16.57758,28.12404],[-16.57742,28.12329],[-16.57756,28.1222],[-16.5775,28.12137],[-16.57747,28.12115],[-16.57699,28.12039],[-16.57698,28.12015],[-16.57757,28.11946],[-16.57856,28.11902],[-16.57901,28.1191],[-16.57969,28.11899],[-16.58033,28.11932],[-16.5805,28.12022],[-16.58089,28.11973],[-16.5826,28.11868],[-16.58308,28.11933],[-16.58343,28.11914],[-16.58291,28.11835],[-16.58326,28.11835],[-16.584,28.11819],[-16.58624,28.1175],[-16.58824,28.11756],[-16.58892,28.11783],[-16.58956,28.11832],[-16.59101,28.11793],[-16.59159,28.11788],[-16.59182,28.11809],[-16.59196,28.11803],[-16.59215,28.11773],[-16.59291,28.11721],[-16.5935,28.11711],[-16.59351,28.11722],[-16.59422,28.11804],[-16.59431,28.11848],[-16.59504,28.11848],[-16.59553,28.11868],[-16.59596,28.11857],[-16.59668,28.11927],[-16.59821,28.12022],[-16.599,28.12119],[-16.59916,28.12186],[-16.59942,28.12226],[-16.60045,28.1233],[-16.60118,28.12364],[-16.60219,28.12388],[-16.60298,28.12448],[-16.60401,28.12552],[-16.60458,28.12582],[-16.60474,28.126],[-16.60483,28.1262],[-16.60479,28.12644],[-16.60504,28.12673],[-16.60522,28.12724],[-16.60556,28.12748],[-16.6061,28.12812],[-16.60703,28.12877],[-16.60682,28.12884],[-16.60726,28.12901],[-16.60821,28.13014],[-16.60729,28.13024],[-16.60757,28.13124],[-16.60892,28.13234],[-16.60949,28.13247],[-16.60971,28.13267],[-16.60997,28.13265],[-16.61008,28.13271],[-16.61041,28.13324],[-16.61072,28.13344],[-16.61076,28.13377],[-16.61147,28.13424],[-16.61165,28.1347],[-16.61163,28.1354],[-16.61177,28.13568],[-16.61244,28.13574],[-16.61276,28.13632],[-16.61322,28.13629],[-16.61386,28.13653],[-16.61431,28.13687],[-16.61494,28.13702],[-16.61523,28.13694],[-16.61579,28.13655],[-16.61625,28.1365],[-16.61651,28.13681],[-16.61671,28.13749],[-16.61763,28.13837],[-16.61765,28.13861],[-16.61751,28.13894],[-16.6176,28.13953],[-16.6174,28.13984],[-16.61733,28.14028],[-16.61698,28.14053],[-16.61691,28.14067],[-16.61711,28.14122],[-16.61726,28.14135],[-16.61723,28.14174],[-16.6174,28.14204],[-16.61728,28.14271],[-16.61768,28.14334],[-16.61777,28.14416],[-16.61726,28.14459],[-16.61682,28.14567],[-16.61583,28.14689],[-16.61554,28.14762],[-16.61551,28.14828],[-16.61527,28.14861],[-16.61531,28.14884],[-16.61503,28.14926],[-16.61485,28.14983],[-16.61485,28.15058],[-16.61319,28.15315],[-16.61313,28.15386],[-16.61333,28.15406],[-16.61372,28.15421],[-16.61438,28.15556],[-16.61483,28.15589],[-16.61406,28.15578],[-16.61245,28.15536],[-16.61079,28.15514],[-16.6072,28.15419],[-16.60258,28.15405],[-16.60013,28.15454],[-16.59372,28.1583],[-16.59365,28.15827],[-16.59338,28.15804],[-16.5928,28.15722],[-16.59261,28.15629],[-16.59165,28.15597],[-16.59136,28.15483],[-16.59188,28.15483],[-16.59295,28.15433],[-16.59329,28.15443],[-16.59367,28.15438],[-16.5939,28.15397],[-16.59419,28.15385],[-16.59463,28.154],[-16.5949,28.15378],[-16.59486,28.15361],[-16.59413,28.15285],[-16.59418,28.15248],[-16.59411,28.1523],[-16.59352,28.15163],[-16.59319,28.15025],[-16.59316,28.14945],[-16.59327,28.14897],[-16.59307,28.14846],[-16.59307,28.14777],[-16.59296,28.14759],[-16.59275,28.14752],[-16.59276,28.14737],[-16.5923,28.14675],[-16.5918,28.1465],[-16.59055,28.14534],[-16.59114,28.14507],[-16.59244,28.14467],[-16.59248,28.14439],[-16.59255,28.14435],[-16.59287,28.14451],[-16.59301,28.14476],[-16.59315,28.14468],[-16.59317,28.14424],[-16.59308,28.14404],[-16.59322,28.14355],[-16.59296,28.14316],[-16.59302,28.14303],[-16.59336,28.14289],[-16.59336,28.14264],[-16.59295,28.1419],[-16.59281,28.14136],[-16.59234,28.14093],[-16.59192,28.13998],[-16.5921,28.13994],[-16.59287,28.14029],[-16.59274,28.13941],[-16.5925,28.13912],[-16.5912,28.13868],[-16.59098,28.13831],[-16.58989,28.13776],[-16.58958,28.13729],[-16.58734,28.13702],[-16.58692,28.13686],[-16.586,28.1361],[-16.58527,28.13586],[-16.58463,28.13539],[-16.58406,28.13537],[-16.5834,28.13551],[-16.58303,28.13543],[-16.58248,28.13504],[-16.58248,28.13453],[-16.58207,28.13357],[-16.58212,28.13272],[-16.58256,28.13204],[-16.58273,28.13094],[-16.58238,28.13013],[-16.58236,28.12987],[-16.58193,28.12957],[-16.58187,28.12943],[-16.58121,28.12947],[-16.58062,28.12921],[-16.58063,28.12895],[-16.58034,28.1288],[-16.58006,28.12885],[-16.57992,28.12865],[-16.57994,28.12845],[-16.57957,28.12849],[-16.57946,28.12817],[-16.57898,28.12831],[-16.57895,28.12862],[-16.57858,28.12877],[-16.57866,28.12849],[-16.57784,28.12745],[-16.57716,28.12702],[-16.57711,28.12668],[-16.57728,28.12616],[-16.57688,28.12595],[-16.57663,28.12569]]]}},{"type":"Feature","properties":{"id":"3801701007"},"geometry":{"type":"Polygon","coordinates":[[[-16.53854,28.04689],[-16.53572,28.04373],[-16.53595,28.0438],[-16.53612,28.04397],[-16.53666,28.04402],[-16.53789,28.04381],[-16.53788,28.04366],[-16.53797,28.04365],[-16.53811,28.04384],[-16.5389,28.04366],[-16.54007,28.04303],[-16.54096,28.04236],[-16.54207,28.04082],[-16.54246,28.04001],[-16.54269,28.03922],[-16.54272,28.03896],[-16.54265,28.03877],[-16.54284,28.03837],[-16.54289,28.03782],[-16.54268,28.03764],[-16.54299,28.03743],[-16.54297,28.0364],[-16.54279,28.03589],[-16.5425,28.0355],[-16.54225,28.03534],[-16.54194,28.03534],[-16.54166,28.03517],[-16.54125,28.03521],[-16.54104,28.035],[-16.5411,28.0343],[-16.541,28.03423],[-16.54099,28.03407],[-16.54065,28.03389],[-16.54063,28.03353],[-16.53991,28.03318],[-16.53973,28.0332],[-16.53954,28.03305],[-16.53959,28.03292],[-16.53985,28.0329],[-16.54004,28.03269],[-16.54001,28.03174],[-16.54021,28.03127],[-16.54045,28.03098],[-16.54057,28.03107],[-16.54069,28.031],[-16.54071,28.0308],[-16.54053,28.03078],[-16.54046,28.03061],[-16.54105,28.03008],[-16.54112,28.0302],[-16.54129,28.03014],[-16.54124,28.02994],[-16.54135,28.02932],[-16.54132,28.02905],[-16.54118,28.02902],[-16.54122,28.02892],[-16.54165,28.02875],[-16.54183,28.02885],[-16.54258,28.02861],[-16.54282,28.02871],[-16.54289,28.0285],[-16.54311,28.02845],[-16.54316,28.02804],[-16.54364,28.0275],[-16.5436,28.0272],[-16.54435,28.02704],[-16.54451,28.02679],[-16.54479,28.02675],[-16.54491,28.02664],[-16.54499,28.02687],[-16.54495,28.02715],[-16.54465,28.02818],[-16.54431,28.02861],[-16.54411,28.02905],[-16.54394,28.02978],[-16.54373,28.02996],[-16.5437,28.03015],[-16.54294,28.03072],[-16.54306,28.03197],[-16.54334,28.03201],[-16.54343,28.03267],[-16.54385,28.03287],[-16.54454,28.03348],[-16.54488,28.03355],[-16.54677,28.0346],[-16.54724,28.03476],[-16.54794,28.03681],[-16.54853,28.04091],[-16.54868,28.04133],[-16.54881,28.04153],[-16.55052,28.0429],[-16.55095,28.04375],[-16.55355,28.04654],[-16.5534,28.04967],[-16.55347,28.05032],[-16.55331,28.05062],[-16.55254,28.05119],[-16.55317,28.05236],[-16.55529,28.0553],[-16.55552,28.0559],[-16.55633,28.06012],[-16.55594,28.06185],[-16.55562,28.06229],[-16.55548,28.06301],[-16.5561,28.06482],[-16.55615,28.06534],[-16.55673,28.06695],[-16.5567,28.06704],[-16.55766,28.06975],[-16.55545,28.07053],[-16.55532,28.07021],[-16.55498,28.06983],[-16.5533,28.06866],[-16.55276,28.06847],[-16.55053,28.06802],[-16.54935,28.06717],[-16.54898,28.06668],[-16.54873,28.06606],[-16.54497,28.05864],[-16.54496,28.05844],[-16.54571,28.05715],[-16.54578,28.05491],[-16.54562,28.05436],[-16.54502,28.0536],[-16.54445,28.05316],[-16.54251,28.052],[-16.54164,28.05133],[-16.54002,28.0489],[-16.53854,28.04689]]]}},{"type":"Feature","properties":{"id":"3801701008"},"geometry":{"type":"Polygon","coordinates":[[[-16.55679,28.081],[-16.55847,28.07979],[-16.55856,28.08],[-16.55982,28.08128],[-16.56071,28.08174],[-16.56312,28.08327],[-16.56108,28.08434],[-16.5575,28.08186],[-16.55679,28.081]]]}},{"type":"Feature","properties":{"id":"3801701009"},"geometry":{"type":"Polygon","coordinates":[[[-16.56485,28.11379],[-16.56495,28.11357],[-16.56508,28.11349],[-16.56562,28.11367],[-16.56584,28.11362],[-16.56591,28.11261],[-16.56633,28.11224],[-16.56691,28.1124],[-16.56745,28.11223],[-16.56829,28.11231],[-16.56882,28.11224],[-16.56919,28.11206],[-16.56938,28.11128],[-16.56935,28.11061],[-16.56987,28.10988],[-16.56989,28.10966],[-16.57004,28.10958],[-16.57015,28.1093],[-16.57042,28.10904],[-16.57019,28.10867],[-16.57014,28.10823],[-16.57051,28.10795],[-16.5708,28.10746],[-16.57091,28.10695],[-16.57116,28.10663],[-16.57127,28.10623],[-16.57125,28.10557],[-16.57079,28.10466],[-16.57098,28.10435],[-16.57098,28.10397],[-16.57125,28.10363],[-16.57098,28.1029],[-16.57108,28.10256],[-16.57134,28.10235],[-16.57181,28.10227],[-16.57219,28.10191],[-16.57221,28.10123],[-16.57243,28.10069],[-16.57219,28.10019],[-16.57222,28.09975],[-16.57242,28.09938],[-16.57287,28.09914],[-16.5736,28.09832],[-16.57355,28.098],[-16.57373,28.09754],[-16.5753,28.09696],[-16.57579,28.09698],[-16.57636,28.09734],[-16.57723,28.10003],[-16.57726,28.10169],[-16.57756,28.10239],[-16.57887,28.10461],[-16.57909,28.10514],[-16.58291,28.103],[-16.58439,28.10521],[-16.58523,28.10681],[-16.58542,28.10697],[-16.58639,28.10913],[-16.5877,28.11166],[-16.58786,28.11214],[-16.58734,28.11217],[-16.58332,28.11348],[-16.58309,28.11391],[-16.58293,28.11403],[-16.58179,28.11424],[-16.58132,28.11451],[-16.58099,28.11509],[-16.58084,28.11518],[-16.58065,28.11512],[-16.58042,28.11484],[-16.58017,28.11482],[-16.57983,28.11504],[-16.57933,28.1162],[-16.5788,28.11678],[-16.5777,28.11933],[-16.57698,28.12015],[-16.57699,28.12039],[-16.57747,28.12115],[-16.5775,28.12137],[-16.57756,28.1222],[-16.57742,28.12329],[-16.57758,28.12404],[-16.57756,28.12444],[-16.57751,28.12471],[-16.57706,28.12485],[-16.57693,28.12497],[-16.57707,28.12544],[-16.57702,28.12559],[-16.57663,28.12569],[-16.57633,28.12474],[-16.57591,28.12398],[-16.57498,28.12317],[-16.57338,28.12255],[-16.57328,28.12273],[-16.57315,28.12274],[-16.57229,28.1221],[-16.57142,28.1218],[-16.57111,28.12162],[-16.57046,28.12099],[-16.5702,28.12052],[-16.57,28.12033],[-16.56789,28.11948],[-16.5668,28.11863],[-16.56645,28.11814],[-16.56636,28.11782],[-16.56596,28.1171],[-16.56584,28.11642],[-16.56483,28.11523],[-16.56437,28.11427],[-16.56485,28.11379]]]}},{"type":"Feature","properties":{"id":"3801701010"},"geometry":{"type":"Polygon","coordinates":[[[-16.54812,28.03782],[-16.55243,28.03485],[-16.55319,28.03452],[-16.55405,28.03441],[-16.55482,28.03443],[-16.55869,28.03503],[-16.55949,28.03502],[-16.56048,28.0348],[-16.56309,28.03369],[-16.56393,28.03351],[-16.5713,28.03319],[-16.5728,28.03308],[-16.57488,28.0328],[-16.57587,28.03257],[-16.57722,28.03168],[-16.57787,28.03137],[-16.57846,28.03121],[-16.59395,28.02963],[-16.59393,28.02994],[-16.59679,28.03266],[-16.59913,28.03521],[-16.59919,28.03553],[-16.59912,28.03572],[-16.59928,28.03616],[-16.59933,28.0369],[-16.59999,28.03798],[-16.60035,28.03899],[-16.60084,28.03966],[-16.60136,28.04006],[-16.60237,28.04059],[-16.60285,28.04143],[-16.6037,28.04252],[-16.60499,28.04334],[-16.60582,28.04403],[-16.60587,28.04439],[-16.60561,28.04507],[-16.60565,28.0452],[-16.60678,28.04561],[-16.60598,28.04751],[-16.60548,28.04804],[-16.6054,28.04895],[-16.60514,28.04944],[-16.60657,28.05092],[-16.60658,28.05169],[-16.60647,28.05197],[-16.6008,28.0524],[-16.59779,28.05304],[-16.58171,28.05836],[-16.57964,28.05921],[-16.57788,28.06012],[-16.57161,28.06419],[-16.56912,28.06566],[-16.56672,28.06665],[-16.55766,28.06975],[-16.5567,28.06704],[-16.55673,28.06695],[-16.55615,28.06534],[-16.5561,28.06482],[-16.55548,28.06301],[-16.55562,28.06229],[-16.55594,28.06185],[-16.55633,28.06012],[-16.55552,28.0559],[-16.55529,28.0553],[-16.55317,28.05236],[-16.55254,28.05119],[-16.55331,28.05062],[-16.55347,28.05032],[-16.5534,28.04967],[-16.55355,28.04654],[-16.55095,28.04375],[-16.55052,28.0429],[-16.54881,28.04153],[-16.54868,28.04133],[-16.54853,28.04091],[-16.54812,28.03782]]]}},{"type":"Feature","properties":{"id":"3801701011"},"geometry":{"type":"Polygon","coordinates":[[[-16.50858,28.08986],[-16.50894,28.08905],[-16.50968,28.0879],[-16.51062,28.08701],[-16.51146,28.08641],[-16.52299,28.08144],[-16.52453,28.08066],[-16.52588,28.07957],[-16.52851,28.07616],[-16.52969,28.07494],[-16.53093,28.07407],[-16.53249,28.07341],[-16.53344,28.07316],[-16.53461,28.07299],[-16.54667,28.07252],[-16.5484,28.07236],[-16.55096,28.07626],[-16.55163,28.07764],[-16.55602,28.07577],[-16.5561,28.07582],[-16.55748,28.07561],[-16.55762,28.07678],[-16.55588,28.07778],[-16.5543,28.07887],[-16.55266,28.07955],[-16.51718,28.09593],[-16.51683,28.09575],[-16.51657,28.09587],[-16.51547,28.09517],[-16.51508,28.09525],[-16.51493,28.09516],[-16.5148,28.09493],[-16.5137,28.09396],[-16.51333,28.09385],[-16.51271,28.09312],[-16.51245,28.09294],[-16.51119,28.09261],[-16.51074,28.09239],[-16.51012,28.09171],[-16.51002,28.09131],[-16.50961,28.091],[-16.50898,28.0907],[-16.50883,28.09053],[-16.50858,28.08986]]]}},{"type":"Feature","properties":{"id":"3801701012"},"geometry":{"type":"Polygon","coordinates":[[[-16.58786,28.11214],[-16.5877,28.11166],[-16.58639,28.10913],[-16.58542,28.10697],[-16.58523,28.10681],[-16.58439,28.10521],[-16.58291,28.103],[-16.57909,28.10514],[-16.57887,28.10461],[-16.57756,28.10239],[-16.57726,28.10169],[-16.57727,28.10028],[-16.57693,28.09893],[-16.57728,28.09857],[-16.57797,28.09933],[-16.57877,28.09998],[-16.57919,28.0998],[-16.57928,28.09973],[-16.57926,28.09936],[-16.57898,28.09891],[-16.57915,28.09844],[-16.57966,28.09822],[-16.5798,28.0985],[-16.58026,28.09863],[-16.58072,28.09779],[-16.58127,28.09757],[-16.58125,28.09744],[-16.58104,28.09742],[-16.5809,28.09723],[-16.5811,28.09696],[-16.58156,28.0968],[-16.58189,28.09658],[-16.58243,28.09679],[-16.58274,28.09681],[-16.58349,28.09726],[-16.58477,28.09546],[-16.58574,28.09531],[-16.58579,28.0951],[-16.58591,28.09508],[-16.58664,28.09519],[-16.58668,28.09426],[-16.587,28.09399],[-16.58754,28.09401],[-16.58784,28.09365],[-16.58997,28.092],[-16.59114,28.0938],[-16.59145,28.09453],[-16.59147,28.09484],[-16.59137,28.095],[-16.59079,28.09524],[-16.59008,28.09652],[-16.5896,28.09795],[-16.58978,28.09821],[-16.58922,28.09986],[-16.58927,28.10024],[-16.58902,28.10126],[-16.58888,28.10136],[-16.58887,28.10196],[-16.58908,28.10282],[-16.58903,28.10335],[-16.58911,28.10418],[-16.58901,28.10449],[-16.58927,28.10473],[-16.5901,28.10506],[-16.59142,28.10601],[-16.59189,28.10759],[-16.59204,28.10881],[-16.59218,28.10901],[-16.59301,28.10947],[-16.59353,28.11021],[-16.59388,28.11026],[-16.59415,28.11048],[-16.59489,28.11087],[-16.59425,28.11129],[-16.59322,28.11159],[-16.5922,28.1115],[-16.5907,28.11189],[-16.58931,28.11184],[-16.58874,28.1123],[-16.58786,28.11214]]]}},{"type":"Feature","properties":{"id":"3801701013"},"geometry":{"type":"Polygon","coordinates":[[[-16.5578,28.07802],[-16.55838,28.07791],[-16.55939,28.07711],[-16.55867,28.07579],[-16.56028,28.07511],[-16.56152,28.07777],[-16.56056,28.07815],[-16.55919,28.07915],[-16.55847,28.07979],[-16.5578,28.07802]]]}},{"type":"Feature","properties":{"id":"3801701014"},"geometry":{"type":"Polygon","coordinates":[[[-16.53308,28.04374],[-16.53317,28.0434],[-16.53399,28.0427],[-16.53457,28.0425],[-16.53484,28.0426],[-16.53552,28.04211],[-16.53558,28.04217],[-16.53496,28.04263],[-16.53496,28.04292],[-16.53854,28.04689],[-16.53684,28.04806],[-16.53308,28.04374]]]}},{"type":"Feature","properties":{"id":"3801701015"},"geometry":{"type":"Polygon","coordinates":[[[-16.55363,28.07115],[-16.55545,28.07053],[-16.55731,28.07494],[-16.55748,28.07561],[-16.5561,28.07582],[-16.55602,28.07577],[-16.55558,28.07594],[-16.55506,28.07497],[-16.55363,28.07115]]]}},{"type":"Feature","properties":{"id":"3801701016"},"geometry":{"type":"Polygon","coordinates":[[[-16.57757,28.11946],[-16.57788,28.11896],[-16.57888,28.11661],[-16.57933,28.1162],[-16.5797,28.11529],[-16.57994,28.11492],[-16.58017,28.11482],[-16.58042,28.11484],[-16.58065,28.11512],[-16.58084,28.11518],[-16.58099,28.11509],[-16.58132,28.11451],[-16.58179,28.11424],[-16.58293,28.11403],[-16.58309,28.11391],[-16.58332,28.11348],[-16.58734,28.11217],[-16.58767,28.11211],[-16.58874,28.1123],[-16.58931,28.11184],[-16.5907,28.11189],[-16.5922,28.1115],[-16.59301,28.1116],[-16.59347,28.11154],[-16.59374,28.11202],[-16.59406,28.1129],[-16.59402,28.11312],[-16.59346,28.11379],[-16.59315,28.11493],[-16.59318,28.11559],[-16.59348,28.11655],[-16.5935,28.11711],[-16.59291,28.11721],[-16.59215,28.11773],[-16.59196,28.11803],[-16.59182,28.11809],[-16.59159,28.11788],[-16.59101,28.11793],[-16.58956,28.11832],[-16.58892,28.11783],[-16.58824,28.11756],[-16.58624,28.1175],[-16.584,28.11819],[-16.58326,28.11835],[-16.58291,28.11835],[-16.58343,28.11914],[-16.58308,28.11933],[-16.5826,28.11868],[-16.58089,28.11973],[-16.5805,28.12022],[-16.58033,28.11932],[-16.57969,28.11899],[-16.57901,28.1191],[-16.57856,28.11902],[-16.57757,28.11946]]]}},{"type":"Feature","properties":{"id":"3801701017"},"geometry":{"type":"Polygon","coordinates":[[[-16.56028,28.07511],[-16.55844,28.07052],[-16.55797,28.06963],[-16.56447,28.06742],[-16.56481,28.06806],[-16.56421,28.06939],[-16.56519,28.07142],[-16.56524,28.07184],[-16.56504,28.07386],[-16.5642,28.07376],[-16.56371,28.0738],[-16.5637,28.07421],[-16.56403,28.07568],[-16.5635,28.07615],[-16.56355,28.07666],[-16.56342,28.07709],[-16.56322,28.07723],[-16.56274,28.07721],[-16.56214,28.07756],[-16.56152,28.07777],[-16.56028,28.07511]]]}},{"type":"Feature","properties":{"id":"3801701018"},"geometry":{"type":"Polygon","coordinates":[[[-16.53284,28.04786],[-16.5331,28.04719],[-16.5333,28.04586],[-16.53316,28.04557],[-16.5333,28.04538],[-16.53329,28.0452],[-16.53313,28.045],[-16.53303,28.04463],[-16.53308,28.04374],[-16.53684,28.04806],[-16.53854,28.04689],[-16.53999,28.04886],[-16.53794,28.04996],[-16.53643,28.04843],[-16.53551,28.04812],[-16.53427,28.04831],[-16.53387,28.04852],[-16.53284,28.04786]]]}},{"type":"Feature","properties":{"id":"3801701019"},"geometry":{"type":"Polygon","coordinates":[[[-16.54257,28.10097],[-16.54296,28.10074],[-16.54403,28.10035],[-16.5448,28.10024],[-16.54512,28.10035],[-16.54541,28.10088],[-16.54556,28.10089],[-16.5466,28.10018],[-16.54721,28.10034],[-16.5477,28.10035],[-16.54784,28.10028],[-16.54769,28.09975],[-16.5472,28.09872],[-16.54719,28.09773],[-16.54735,28.097],[-16.54689,28.09557],[-16.54699,28.09542],[-16.54713,28.09539],[-16.54754,28.09589],[-16.54801,28.09606],[-16.54908,28.09603],[-16.54923,28.09594],[-16.54926,28.09578],[-16.5491,28.09511],[-16.54878,28.09475],[-16.54824,28.09453],[-16.54805,28.09426],[-16.54805,28.09396],[-16.54841,28.09287],[-16.54872,28.09256],[-16.54893,28.09248],[-16.54977,28.09077],[-16.55007,28.09037],[-16.55093,28.08967],[-16.56312,28.08327],[-16.56482,28.08455],[-16.5653,28.08463],[-16.56632,28.08435],[-16.56666,28.0844],[-16.56702,28.08463],[-16.56718,28.08534],[-16.56745,28.08941],[-16.5676,28.09011],[-16.56704,28.0902],[-16.56699,28.0904],[-16.5664,28.09068],[-16.56531,28.09166],[-16.56506,28.09113],[-16.56475,28.09135],[-16.56477,28.09149],[-16.56453,28.09184],[-16.56276,28.09376],[-16.56223,28.09385],[-16.56162,28.09367],[-16.56143,28.09376],[-16.56084,28.09449],[-16.56031,28.09486],[-16.55905,28.09514],[-16.55894,28.09526],[-16.55828,28.09523],[-16.55805,28.09537],[-16.55703,28.09516],[-16.55599,28.09456],[-16.55533,28.09526],[-16.55594,28.09606],[-16.55613,28.09703],[-16.5567,28.09815],[-16.55694,28.09887],[-16.557,28.09938],[-16.55748,28.10017],[-16.55784,28.10044],[-16.55776,28.10066],[-16.55665,28.10066],[-16.55629,28.10111],[-16.55608,28.10125],[-16.55576,28.10123],[-16.55545,28.10083],[-16.55506,28.10084],[-16.55484,28.10108],[-16.55626,28.10225],[-16.55693,28.1029],[-16.5571,28.10336],[-16.55714,28.10403],[-16.5571,28.10424],[-16.55686,28.10453],[-16.55649,28.10472],[-16.55601,28.10472],[-16.55576,28.10461],[-16.5551,28.10382],[-16.55476,28.10358],[-16.55398,28.10337],[-16.553,28.10342],[-16.55199,28.10384],[-16.5507,28.10479],[-16.55036,28.10521],[-16.55019,28.10612],[-16.54969,28.10571],[-16.54858,28.10446],[-16.54763,28.10405],[-16.54729,28.10375],[-16.54659,28.10365],[-16.54588,28.10317],[-16.54576,28.10303],[-16.54574,28.10251],[-16.54484,28.1023],[-16.54396,28.10193],[-16.54374,28.10154],[-16.54338,28.10123],[-16.54281,28.10115],[-16.54257,28.10097]]]}},{"type":"Feature","properties":{"id":"3801701020"},"geometry":{"type":"Polygon","coordinates":[[[-16.51718,28.09593],[-16.55266,28.07955],[-16.5543,28.07887],[-16.55588,28.07778],[-16.55762,28.07678],[-16.55784,28.07815],[-16.55847,28.07979],[-16.55744,28.0806],[-16.55535,28.08186],[-16.55482,28.08228],[-16.55478,28.08254],[-16.55523,28.08433],[-16.55503,28.08448],[-16.55485,28.08482],[-16.55445,28.08508],[-16.55443,28.08522],[-16.55501,28.08593],[-16.55523,28.08642],[-16.55516,28.08683],[-16.55483,28.08665],[-16.55449,28.08658],[-16.55434,28.08667],[-16.5541,28.08709],[-16.55382,28.08731],[-16.55328,28.08716],[-16.55189,28.08753],[-16.55155,28.08778],[-16.55109,28.08829],[-16.551,28.08852],[-16.5511,28.08935],[-16.55103,28.0895],[-16.55084,28.08955],[-16.55095,28.0897],[-16.55035,28.0901],[-16.54977,28.09077],[-16.54893,28.09248],[-16.54872,28.09256],[-16.54841,28.09287],[-16.54805,28.09396],[-16.54805,28.09426],[-16.54824,28.09453],[-16.54878,28.09475],[-16.5491,28.09511],[-16.54926,28.09578],[-16.54923,28.09594],[-16.54908,28.09603],[-16.54801,28.09606],[-16.54754,28.09589],[-16.54713,28.09539],[-16.54699,28.09542],[-16.54689,28.09557],[-16.54735,28.097],[-16.54719,28.09773],[-16.5472,28.09872],[-16.54769,28.09975],[-16.54784,28.10028],[-16.5477,28.10035],[-16.54721,28.10034],[-16.5466,28.10018],[-16.54556,28.10089],[-16.54541,28.10088],[-16.54512,28.10035],[-16.5448,28.10024],[-16.54403,28.10035],[-16.54296,28.10074],[-16.54257,28.10097],[-16.54225,28.10078],[-16.54172,28.10077],[-16.54118,28.10159],[-16.54109,28.10116],[-16.54079,28.10078],[-16.54032,28.10053],[-16.54018,28.10019],[-16.53979,28.09998],[-16.53911,28.09978],[-16.53827,28.09986],[-16.53804,28.0998],[-16.5378,28.09972],[-16.53743,28.09943],[-16.5372,28.0994],[-16.5365,28.09963],[-16.53613,28.09966],[-16.53571,28.09956],[-16.5356,28.09968],[-16.5351,28.09941],[-16.5343,28.0995],[-16.53383,28.09926],[-16.53358,28.09935],[-16.53252,28.09935],[-16.53068,28.09918],[-16.53019,28.09925],[-16.52952,28.09899],[-16.52857,28.09917],[-16.5283,28.09912],[-16.52773,28.09872],[-16.52742,28.09885],[-16.52662,28.09894],[-16.52546,28.0994],[-16.52472,28.09902],[-16.52401,28.0984],[-16.5235,28.09819],[-16.52319,28.09786],[-16.52309,28.09747],[-16.52289,28.09733],[-16.52237,28.09748],[-16.52084,28.0973],[-16.52027,28.09743],[-16.51985,28.0974],[-16.51956,28.09751],[-16.5191,28.09746],[-16.51846,28.0976],[-16.51781,28.0975],[-16.51731,28.09688],[-16.51735,28.09629],[-16.51718,28.09593]]]}},{"type":"Feature","properties":{"id":"3801701021"},"geometry":{"type":"Polygon","coordinates":[[[-16.54812,28.03782],[-16.54784,28.03637],[-16.54724,28.03476],[-16.54677,28.0346],[-16.54488,28.03355],[-16.54454,28.03348],[-16.54385,28.03287],[-16.54343,28.03267],[-16.54334,28.03201],[-16.54306,28.03197],[-16.54294,28.03113],[-16.54297,28.03064],[-16.5437,28.03015],[-16.54373,28.02996],[-16.54394,28.02978],[-16.54411,28.02905],[-16.54431,28.02861],[-16.54465,28.02818],[-16.54495,28.02715],[-16.54499,28.02687],[-16.54491,28.02664],[-16.54512,28.02634],[-16.54517,28.02607],[-16.5454,28.02583],[-16.54536,28.02564],[-16.54554,28.02556],[-16.5457,28.02563],[-16.54577,28.02546],[-16.54591,28.02556],[-16.54621,28.02522],[-16.54644,28.02517],[-16.54645,28.02487],[-16.54687,28.02481],[-16.54698,28.02487],[-16.54689,28.025],[-16.54717,28.02494],[-16.54755,28.02531],[-16.54771,28.02517],[-16.54784,28.02527],[-16.54797,28.02525],[-16.54812,28.02501],[-16.54834,28.02531],[-16.54907,28.02526],[-16.54928,28.02541],[-16.54949,28.02603],[-16.54985,28.0259],[-16.55016,28.02593],[-16.55049,28.02621],[-16.55061,28.02615],[-16.55071,28.02619],[-16.5509,28.02599],[-16.55099,28.02605],[-16.55092,28.0269],[-16.55116,28.02717],[-16.55142,28.02728],[-16.55146,28.02744],[-16.55128,28.02807],[-16.5514,28.02815],[-16.55169,28.02785],[-16.55174,28.02791],[-16.55166,28.02899],[-16.55151,28.02918],[-16.55168,28.02943],[-16.55191,28.02932],[-16.55196,28.02937],[-16.55186,28.02961],[-16.55318,28.03032],[-16.55504,28.03102],[-16.55603,28.03122],[-16.55764,28.03141],[-16.55892,28.03139],[-16.55996,28.03122],[-16.56108,28.03076],[-16.56116,28.03053],[-16.56173,28.02998],[-16.56216,28.02989],[-16.56302,28.03002],[-16.56342,28.02989],[-16.56347,28.02973],[-16.5639,28.02933],[-16.56406,28.02932],[-16.56422,28.02945],[-16.56515,28.02929],[-16.56527,28.02935],[-16.5656,28.02932],[-16.56641,28.02895],[-16.56663,28.02893],[-16.56714,28.02902],[-16.5673,28.02937],[-16.56777,28.02941],[-16.56778,28.02968],[-16.56797,28.02981],[-16.56792,28.02995],[-16.56821,28.03005],[-16.56832,28.03034],[-16.56846,28.03039],[-16.56841,28.03053],[-16.56859,28.03061],[-16.56938,28.0307],[-16.56951,28.03051],[-16.56971,28.03046],[-16.56994,28.03068],[-16.56992,28.03083],[-16.57028,28.031],[-16.57139,28.03115],[-16.57184,28.03108],[-16.57201,28.03118],[-16.57215,28.03099],[-16.57228,28.03103],[-16.57242,28.03089],[-16.57286,28.03087],[-16.57317,28.03048],[-16.57333,28.03049],[-16.57334,28.03063],[-16.57351,28.03077],[-16.57411,28.03096],[-16.57492,28.03085],[-16.57521,28.03073],[-16.57537,28.03048],[-16.57574,28.03031],[-16.57578,28.03009],[-16.57635,28.02976],[-16.57639,28.0296],[-16.57745,28.02926],[-16.57785,28.02928],[-16.57799,28.02943],[-16.57813,28.0294],[-16.57814,28.02928],[-16.57833,28.0292],[-16.57947,28.0291],[-16.57998,28.02922],[-16.58015,28.02903],[-16.58027,28.02935],[-16.58038,28.02923],[-16.58051,28.0293],[-16.58061,28.02918],[-16.58065,28.02932],[-16.58112,28.02958],[-16.58147,28.02999],[-16.58155,28.02998],[-16.58164,28.02983],[-16.58147,28.02964],[-16.58151,28.02911],[-16.58177,28.02892],[-16.58218,28.02889],[-16.58226,28.02876],[-16.58227,28.02897],[-16.58261,28.02894],[-16.58283,28.02914],[-16.58305,28.02912],[-16.58314,28.02897],[-16.5832,28.02911],[-16.5835,28.02901],[-16.58404,28.02909],[-16.58423,28.02922],[-16.58479,28.02926],[-16.58506,28.02915],[-16.58517,28.02927],[-16.58565,28.02928],[-16.58605,28.02916],[-16.58607,28.02944],[-16.58619,28.02947],[-16.58652,28.0293],[-16.58655,28.02946],[-16.58664,28.02948],[-16.58678,28.02936],[-16.58683,28.02954],[-16.58697,28.02953],[-16.58745,28.02915],[-16.58774,28.02907],[-16.58783,28.02896],[-16.5881,28.02893],[-16.58852,28.02822],[-16.58865,28.02864],[-16.58887,28.02852],[-16.58897,28.02858],[-16.58924,28.02856],[-16.5893,28.02849],[-16.58921,28.02843],[-16.58938,28.02815],[-16.58992,28.02804],[-16.59005,28.02813],[-16.59023,28.02804],[-16.59039,28.02819],[-16.59055,28.0282],[-16.59063,28.02789],[-16.59101,28.02762],[-16.59129,28.0277],[-16.59141,28.02761],[-16.59143,28.02786],[-16.59156,28.02794],[-16.59164,28.0276],[-16.59175,28.02753],[-16.59205,28.02762],[-16.59211,28.02757],[-16.59249,28.02779],[-16.59263,28.02818],[-16.59261,28.02856],[-16.59269,28.02864],[-16.59345,28.02879],[-16.59355,28.02859],[-16.59362,28.0287],[-16.59397,28.0287],[-16.59437,28.02893],[-16.59474,28.02899],[-16.59512,28.02919],[-16.59549,28.0292],[-16.59575,28.02903],[-16.59579,28.02877],[-16.59606,28.02839],[-16.5961,28.02801],[-16.59627,28.02807],[-16.59655,28.02775],[-16.59676,28.02786],[-16.59687,28.02733],[-16.59695,28.02794],[-16.59704,28.02794],[-16.5971,28.02821],[-16.59696,28.02818],[-16.59694,28.02853],[-16.59708,28.02867],[-16.5972,28.02906],[-16.59766,28.02939],[-16.59731,28.02995],[-16.59724,28.03031],[-16.59744,28.03162],[-16.59784,28.03241],[-16.5979,28.03339],[-16.59822,28.03385],[-16.59857,28.03407],[-16.59886,28.03413],[-16.59913,28.03521],[-16.59679,28.03266],[-16.59393,28.02994],[-16.59395,28.02963],[-16.57846,28.03121],[-16.57787,28.03137],[-16.57722,28.03168],[-16.57587,28.03257],[-16.57488,28.0328],[-16.5728,28.03308],[-16.5713,28.03319],[-16.56393,28.03351],[-16.56309,28.03369],[-16.56048,28.0348],[-16.55949,28.03502],[-16.55869,28.03503],[-16.55482,28.03443],[-16.55405,28.03441],[-16.55319,28.03452],[-16.55243,28.03485],[-16.54812,28.03782]]]}},{"type":"Feature","properties":{"id":"3801701022"},"geometry":{"type":"Polygon","coordinates":[[[-16.56447,28.06742],[-16.56752,28.06636],[-16.56912,28.06566],[-16.57161,28.06419],[-16.57788,28.06012],[-16.57964,28.05921],[-16.58171,28.05836],[-16.59779,28.05304],[-16.6008,28.0524],[-16.60647,28.05197],[-16.60637,28.05218],[-16.60623,28.05218],[-16.60604,28.05237],[-16.60583,28.05242],[-16.60512,28.05229],[-16.604,28.05249],[-16.60277,28.05245],[-16.60126,28.05263],[-16.60059,28.05293],[-16.59949,28.0531],[-16.59922,28.05398],[-16.59927,28.0552],[-16.5989,28.05583],[-16.59869,28.05603],[-16.59847,28.05601],[-16.59821,28.05584],[-16.59819,28.05555],[-16.59789,28.05548],[-16.59718,28.05712],[-16.59652,28.05788],[-16.59325,28.05957],[-16.59292,28.06012],[-16.59284,28.06061],[-16.59218,28.06081],[-16.59186,28.06106],[-16.59165,28.06111],[-16.59139,28.06104],[-16.59131,28.06087],[-16.59137,28.06033],[-16.5911,28.05984],[-16.59075,28.05964],[-16.59048,28.05967],[-16.58922,28.06034],[-16.58858,28.06043],[-16.5869,28.06293],[-16.58688,28.06348],[-16.58656,28.06366],[-16.58613,28.06423],[-16.58559,28.06425],[-16.58533,28.06403],[-16.58513,28.06403],[-16.58488,28.06405],[-16.58442,28.06425],[-16.58331,28.06428],[-16.58226,28.06494],[-16.58182,28.06538],[-16.58147,28.06615],[-16.58054,28.06644],[-16.58,28.06793],[-16.57957,28.06844],[-16.57934,28.06894],[-16.57936,28.06942],[-16.57736,28.07029],[-16.57699,28.0706],[-16.57641,28.07068],[-16.57621,28.07063],[-16.57579,28.07009],[-16.57528,28.06977],[-16.57501,28.06948],[-16.57476,28.06941],[-16.57401,28.06963],[-16.57323,28.07014],[-16.57267,28.07024],[-16.57185,28.07059],[-16.57106,28.07172],[-16.56967,28.07122],[-16.56944,28.07123],[-16.56899,28.0714],[-16.56842,28.07167],[-16.56806,28.07214],[-16.56783,28.07259],[-16.56768,28.07318],[-16.56692,28.07423],[-16.56669,28.07432],[-16.56587,28.07497],[-16.5654,28.07495],[-16.56447,28.0756],[-16.56403,28.07568],[-16.5637,28.07421],[-16.56371,28.0738],[-16.5642,28.07376],[-16.56504,28.07386],[-16.56524,28.07184],[-16.5651,28.07113],[-16.56421,28.06939],[-16.56481,28.06806],[-16.56447,28.06742]]]}},{"type":"Feature","properties":{"id":"3801701023"},"geometry":{"type":"Polygon","coordinates":[[[-16.5578,28.07802],[-16.55743,28.07526],[-16.55545,28.07053],[-16.55797,28.06963],[-16.55844,28.07052],[-16.56028,28.07511],[-16.55867,28.07579],[-16.55939,28.07711],[-16.55838,28.07791],[-16.5578,28.07802]]]}},{"type":"Feature","properties":{"id":"3801701024"},"geometry":{"type":"Polygon","coordinates":[[[-16.5484,28.07236],[-16.5507,28.07196],[-16.55363,28.07115],[-16.55506,28.07497],[-16.55558,28.07594],[-16.55163,28.07764],[-16.55096,28.07626],[-16.5484,28.07236]]]}},{"type":"Feature","properties":{"id":"3801701025"},"geometry":{"type":"Polygon","coordinates":[[[-16.55679,28.081],[-16.5575,28.08186],[-16.56108,28.08434],[-16.55093,28.08967],[-16.55084,28.08955],[-16.55103,28.0895],[-16.5511,28.08935],[-16.551,28.08852],[-16.55109,28.08829],[-16.55155,28.08778],[-16.55189,28.08753],[-16.55328,28.08716],[-16.55382,28.08731],[-16.5541,28.08709],[-16.55434,28.08667],[-16.55449,28.08658],[-16.55483,28.08665],[-16.55516,28.08683],[-16.55523,28.08642],[-16.55501,28.08593],[-16.55443,28.08522],[-16.55445,28.08508],[-16.55485,28.08482],[-16.55503,28.08448],[-16.55523,28.08433],[-16.55477,28.08244],[-16.55491,28.08218],[-16.55535,28.08186],[-16.55679,28.081]]]}},{"type":"Feature","properties":{"id":"3801701026"},"geometry":{"type":"Polygon","coordinates":[[[-16.5617,28.07771],[-16.56266,28.07935],[-16.56151,28.08012],[-16.56306,28.08183],[-16.56205,28.08257],[-16.55982,28.08128],[-16.55856,28.08],[-16.55847,28.07979],[-16.55919,28.07915],[-16.56056,28.07815],[-16.5617,28.07771]]]}},{"type":"Feature","properties":{"id":"3801701027"},"geometry":{"type":"Polygon","coordinates":[[[-16.53284,28.04786],[-16.53387,28.04852],[-16.53427,28.04831],[-16.53551,28.04812],[-16.53643,28.04843],[-16.53794,28.04996],[-16.53999,28.04886],[-16.54112,28.05063],[-16.54188,28.05158],[-16.54445,28.05316],[-16.54502,28.0536],[-16.54562,28.05436],[-16.54578,28.05491],[-16.54578,28.05545],[-16.54571,28.05715],[-16.54496,28.05844],[-16.54497,28.05864],[-16.54873,28.06606],[-16.54898,28.06668],[-16.54935,28.06717],[-16.55053,28.06802],[-16.55276,28.06847],[-16.5533,28.06866],[-16.55498,28.06983],[-16.55532,28.07021],[-16.55545,28.07053],[-16.55207,28.07162],[-16.54876,28.07232],[-16.54667,28.07252],[-16.53461,28.07299],[-16.53344,28.07316],[-16.53249,28.07341],[-16.53093,28.07407],[-16.5303,28.07447],[-16.52911,28.07548],[-16.52635,28.07905],[-16.52515,28.08023],[-16.52453,28.08066],[-16.52299,28.08144],[-16.51229,28.086],[-16.51146,28.08641],[-16.51062,28.08701],[-16.50968,28.0879],[-16.50939,28.08832],[-16.50894,28.08905],[-16.50746,28.09228],[-16.50677,28.09322],[-16.50633,28.09367],[-16.50475,28.09484],[-16.50311,28.09557],[-16.49872,28.09729],[-16.498,28.09767],[-16.49663,28.09866],[-16.49609,28.09924],[-16.49504,28.10072],[-16.49175,28.10617],[-16.49089,28.10714],[-16.49013,28.10776],[-16.48992,28.10743],[-16.4899,28.10716],[-16.48947,28.10668],[-16.48934,28.10636],[-16.48826,28.10576],[-16.4876,28.10564],[-16.48734,28.10536],[-16.48702,28.10389],[-16.48708,28.10227],[-16.4869,28.10182],[-16.48601,28.10085],[-16.4856,28.10066],[-16.48489,28.10055],[-16.48378,28.09977],[-16.48324,28.09928],[-16.48298,28.09875],[-16.48263,28.09842],[-16.4826,28.09822],[-16.48276,28.09799],[-16.48272,28.09767],[-16.4818,28.09527],[-16.48236,28.09466],[-16.483,28.09429],[-16.48418,28.09328],[-16.48423,28.09319],[-16.48416,28.09298],[-16.48471,28.09303],[-16.4849,28.09321],[-16.48546,28.09295],[-16.48554,28.0928],[-16.48575,28.09295],[-16.48587,28.09294],[-16.48667,28.09259],[-16.48692,28.09238],[-16.48699,28.09209],[-16.48729,28.09196],[-16.48746,28.09175],[-16.48795,28.09154],[-16.48826,28.09162],[-16.48863,28.0911],[-16.48879,28.09101],[-16.48905,28.09047],[-16.48969,28.09026],[-16.48978,28.09029],[-16.49009,28.09001],[-16.49085,28.08844],[-16.49087,28.08793],[-16.49107,28.08784],[-16.49113,28.08748],[-16.49059,28.08738],[-16.48987,28.08667],[-16.48939,28.08577],[-16.48924,28.08488],[-16.4894,28.08459],[-16.48967,28.08461],[-16.48967,28.08473],[-16.48947,28.08483],[-16.48946,28.08492],[-16.48953,28.08508],[-16.48959,28.08495],[-16.48974,28.08493],[-16.4898,28.08533],[-16.48957,28.08535],[-16.48956,28.08545],[-16.48974,28.08554],[-16.49011,28.08543],[-16.49064,28.0856],[-16.49093,28.08595],[-16.49137,28.08609],[-16.49158,28.08563],[-16.49128,28.08555],[-16.49128,28.08536],[-16.49018,28.08514],[-16.49009,28.08493],[-16.49048,28.08441],[-16.49105,28.08313],[-16.49106,28.08234],[-16.49135,28.08174],[-16.49174,28.08135],[-16.49187,28.08057],[-16.49203,28.08061],[-16.49228,28.08025],[-16.49247,28.07914],[-16.49265,28.0788],[-16.49275,28.07873],[-16.49303,28.0789],[-16.49334,28.07889],[-16.49391,28.07873],[-16.49388,28.07864],[-16.49398,28.0786],[-16.49434,28.07891],[-16.49452,28.07885],[-16.49506,28.07901],[-16.49519,28.07886],[-16.49527,28.07903],[-16.49558,28.07924],[-16.49594,28.07907],[-16.49689,28.07839],[-16.49725,28.07802],[-16.49773,28.07774],[-16.49826,28.07777],[-16.49911,28.07767],[-16.49963,28.07742],[-16.50006,28.07763],[-16.50063,28.07761],[-16.50147,28.07733],[-16.5018,28.07713],[-16.50184,28.07699],[-16.5024,28.07699],[-16.50268,28.07712],[-16.50303,28.0769],[-16.50426,28.07557],[-16.50496,28.07457],[-16.50546,28.07347],[-16.50548,28.07327],[-16.50533,28.07302],[-16.50591,28.073],[-16.50603,28.07277],[-16.50643,28.07148],[-16.50661,28.07044],[-16.50668,28.06863],[-16.50651,28.06823],[-16.50666,28.06815],[-16.50674,28.06787],[-16.50662,28.06768],[-16.50687,28.06773],[-16.50694,28.06765],[-16.50701,28.06774],[-16.50733,28.06757],[-16.50746,28.06759],[-16.5076,28.06725],[-16.50753,28.06707],[-16.5078,28.06715],[-16.50776,28.06702],[-16.50796,28.06713],[-16.50797,28.06675],[-16.50822,28.06678],[-16.5084,28.06657],[-16.50866,28.06664],[-16.50879,28.06658],[-16.50897,28.06637],[-16.5088,28.06603],[-16.50914,28.06616],[-16.50945,28.06597],[-16.50969,28.06597],[-16.50989,28.0657],[-16.50986,28.06538],[-16.50961,28.06522],[-16.50952,28.065],[-16.50965,28.06498],[-16.50976,28.0651],[-16.50996,28.06511],[-16.51026,28.0653],[-16.51036,28.06479],[-16.51064,28.06466],[-16.51082,28.06477],[-16.51092,28.06501],[-16.51102,28.065],[-16.51106,28.06488],[-16.51117,28.0649],[-16.51151,28.06508],[-16.5116,28.06528],[-16.51192,28.06527],[-16.51236,28.06503],[-16.51223,28.06486],[-16.51228,28.06469],[-16.51261,28.06481],[-16.51265,28.06476],[-16.51247,28.06456],[-16.51251,28.06433],[-16.51336,28.06409],[-16.51336,28.06392],[-16.51304,28.06382],[-16.51351,28.06387],[-16.51377,28.06378],[-16.51447,28.06392],[-16.51455,28.06387],[-16.51458,28.06372],[-16.5138,28.0634],[-16.51364,28.06322],[-16.51394,28.06299],[-16.51408,28.06311],[-16.51435,28.06306],[-16.51469,28.06317],[-16.51472,28.06307],[-16.51457,28.06273],[-16.51462,28.06239],[-16.51484,28.06224],[-16.51519,28.06179],[-16.51532,28.06176],[-16.51563,28.06196],[-16.51592,28.06177],[-16.51577,28.06151],[-16.51603,28.06107],[-16.51552,28.06054],[-16.51557,28.06032],[-16.51539,28.06024],[-16.51551,28.06003],[-16.51535,28.05979],[-16.51545,28.05929],[-16.51596,28.05971],[-16.51641,28.05995],[-16.51776,28.06026],[-16.51865,28.06013],[-16.51879,28.05998],[-16.51915,28.05985],[-16.5193,28.05992],[-16.51942,28.05985],[-16.51935,28.05969],[-16.5196,28.05961],[-16.51967,28.0598],[-16.51985,28.05982],[-16.5202,28.05946],[-16.52055,28.05941],[-16.52073,28.0593],[-16.52083,28.05908],[-16.52061,28.05892],[-16.52129,28.05834],[-16.52154,28.0577],[-16.52099,28.05731],[-16.52091,28.0571],[-16.52107,28.05703],[-16.52105,28.05642],[-16.52121,28.05606],[-16.5215,28.0559],[-16.52178,28.0555],[-16.52221,28.05554],[-16.52241,28.05527],[-16.52225,28.05503],[-16.52176,28.0548],[-16.52167,28.0547],[-16.52169,28.05447],[-16.52134,28.05403],[-16.52166,28.05398],[-16.52211,28.05324],[-16.52252,28.05297],[-16.52253,28.05275],[-16.52324,28.05233],[-16.52327,28.05224],[-16.52371,28.05205],[-16.52377,28.05183],[-16.52394,28.05192],[-16.52419,28.05188],[-16.52448,28.05156],[-16.52482,28.0514],[-16.52496,28.05146],[-16.52546,28.05133],[-16.52549,28.0512],[-16.52522,28.05108],[-16.52513,28.05086],[-16.52542,28.05031],[-16.52529,28.05016],[-16.52564,28.05008],[-16.52595,28.05022],[-16.52603,28.05011],[-16.52641,28.0501],[-16.52648,28.05029],[-16.5267,28.05011],[-16.52739,28.05019],[-16.5276,28.05006],[-16.5276,28.04984],[-16.52771,28.04973],[-16.5281,28.04969],[-16.5282,28.04947],[-16.52849,28.04949],[-16.52857,28.04959],[-16.52865,28.04946],[-16.52894,28.04933],[-16.52928,28.04946],[-16.52963,28.04993],[-16.5298,28.05002],[-16.53034,28.04997],[-16.53109,28.04978],[-16.53145,28.04961],[-16.53189,28.04912],[-16.53222,28.04894],[-16.53284,28.04786]]]}}]}