{"type":"FeatureCollection","features":[{"type":"Feature","properties":{"id":"3802701001"},"geometry":{"type":"Polygon","coordinates":[[[-17.83814,28.74455],[-17.83816,28.74402],[-17.83833,28.74369],[-17.83816,28.74339],[-17.83716,28.74314],[-17.83687,28.743],[-17.83652,28.74253],[-17.83604,28.74218],[-17.83556,28.74199],[-17.83535,28.74176],[-17.83529,28.74093],[-17.83564,28.74006],[-17.83549,28.73918],[-17.8351,28.73823],[-17.83541,28.73772],[-17.83555,28.73722],[-17.83532,28.73627],[-17.83549,28.73578],[-17.83556,28.73484],[-17.8357,28.73444],[-17.83509,28.73268],[-17.83518,28.73239],[-17.83575,28.73209],[-17.83563,28.73165],[-17.83572,28.73056],[-17.8356,28.73022],[-17.83572,28.72982],[-17.8355,28.72942],[-17.83571,28.72861],[-17.83553,28.72796],[-17.83561,28.72755],[-17.83549,28.72732],[-17.83555,28.72692],[-17.83614,28.72609],[-17.83671,28.7257],[-17.83707,28.72528],[-17.83838,28.72433],[-17.83843,28.72402],[-17.83828,28.7239],[-17.8381,28.72305],[-17.83734,28.72159],[-17.83756,28.72062],[-17.83769,28.72039],[-17.83762,28.72018],[-17.83772,28.71918],[-17.8374,28.71876],[-17.83739,28.71861],[-17.83769,28.71775],[-17.83775,28.71704],[-17.83825,28.71656],[-17.83954,28.71601],[-17.83974,28.71596],[-17.84025,28.71604],[-17.84135,28.7151],[-17.84182,28.71452],[-17.84228,28.71434],[-17.84301,28.7139],[-17.84349,28.71304],[-17.84348,28.71261],[-17.84312,28.71204],[-17.84317,28.7118],[-17.84344,28.71138],[-17.84407,28.71077],[-17.84429,28.7104],[-17.84435,28.70912],[-17.84418,28.70875],[-17.84443,28.70811],[-17.84474,28.70762],[-17.84471,28.70706],[-17.84533,28.70603],[-17.84527,28.70551],[-17.84547,28.70483],[-17.8455,28.70418],[-17.8454,28.70404],[-17.8451,28.70409],[-17.84448,28.70378],[-17.84408,28.70329],[-17.84328,28.70276],[-17.84273,28.70173],[-17.84221,28.70116],[-17.84157,28.70008],[-17.84022,28.6985],[-17.83996,28.69824],[-17.83942,28.69794],[-17.83925,28.69773],[-17.8391,28.69731],[-17.83849,28.69693],[-17.83665,28.69531],[-17.83591,28.694],[-17.83582,28.6935],[-17.83591,28.69229],[-17.83571,28.69166],[-17.83505,28.69154],[-17.83486,28.69144],[-17.83374,28.69032],[-17.83368,28.68942],[-17.83343,28.68874],[-17.83361,28.68816],[-17.83361,28.68772],[-17.8329,28.68621],[-17.83254,28.68592],[-17.83216,28.6849],[-17.83159,28.68418],[-17.83082,28.68386],[-17.82999,28.68304],[-17.82971,28.68219],[-17.82963,28.68183],[-17.82979,28.68047],[-17.82999,28.67993],[-17.83009,28.67867],[-17.83033,28.67796],[-17.83006,28.67742],[-17.82975,28.67611],[-17.82974,28.67571],[-17.82951,28.67537],[-17.8293,28.67473],[-17.82908,28.67441],[-17.82861,28.6742],[-17.82833,28.67392],[-17.82825,28.67351],[-17.82802,28.67312],[-17.82796,28.67174],[-17.82757,28.67107],[-17.82779,28.67077],[-17.82782,28.66979],[-17.82719,28.66892],[-17.82709,28.66811],[-17.82665,28.66737],[-17.82622,28.66623],[-17.8262,28.66596],[-17.8264,28.66554],[-17.82624,28.66504],[-17.82625,28.66443],[-17.82664,28.6635],[-17.82625,28.66198],[-17.82623,28.66142],[-17.82602,28.66109],[-17.82578,28.66035],[-17.82547,28.65986],[-17.82542,28.65941],[-17.82564,28.65866],[-17.82564,28.658],[-17.82585,28.65764],[-17.82565,28.65708],[-17.8257,28.65664],[-17.82557,28.6562],[-17.825,28.65513],[-17.82511,28.65427],[-17.82482,28.65343],[-17.82517,28.65252],[-17.82511,28.65204],[-17.82539,28.65173],[-17.82524,28.65105],[-17.82519,28.64996],[-17.82534,28.64946],[-17.8252,28.64886],[-17.82577,28.64806],[-17.82527,28.64704],[-17.82527,28.64609],[-17.82498,28.64574],[-17.82489,28.64543],[-17.82493,28.6448],[-17.82481,28.64418],[-17.82481,28.64346],[-17.82497,28.6427],[-17.8244,28.6418],[-17.82447,28.64093],[-17.82472,28.64008],[-17.82468,28.63941],[-17.8249,28.63835],[-17.82555,28.63701],[-17.82552,28.6365],[-17.82568,28.6353],[-17.826,28.63426],[-17.82639,28.6323],[-17.82672,28.63175],[-17.82679,28.63071],[-17.83052,28.63184],[-17.84665,28.63876],[-17.84654,28.6396],[-17.84683,28.63987],[-17.84715,28.63983],[-17.84726,28.63971],[-17.84704,28.63928],[-17.84709,28.63915],[-17.84726,28.63909],[-17.84806,28.63926],[-17.84965,28.63904],[-17.85011,28.63912],[-17.85101,28.63902],[-17.8515,28.63912],[-17.85217,28.63893],[-17.85254,28.63901],[-17.85282,28.63855],[-17.8531,28.63869],[-17.85341,28.63871],[-17.85413,28.63823],[-17.85441,28.63828],[-17.8546,28.63821],[-17.85495,28.63795],[-17.8552,28.63756],[-17.8556,28.63723],[-17.85892,28.63707],[-17.86054,28.63711],[-17.86084,28.63688],[-17.86131,28.63712],[-17.86224,28.63693],[-17.86222,28.63779],[-17.86206,28.63885],[-17.8617,28.64017],[-17.86163,28.64095],[-17.86176,28.64119],[-17.86218,28.64149],[-17.8624,28.6415],[-17.86282,28.64171],[-17.86318,28.64167],[-17.86302,28.64353],[-17.86409,28.64346],[-17.86551,28.64299],[-17.86608,28.64353],[-17.86646,28.64554],[-17.86685,28.64593],[-17.8677,28.64634],[-17.86795,28.64654],[-17.86845,28.64717],[-17.8687,28.64796],[-17.86935,28.64838],[-17.87086,28.64899],[-17.87157,28.64912],[-17.87261,28.64916],[-17.87176,28.64986],[-17.87116,28.65011],[-17.87128,28.65058],[-17.87194,28.65155],[-17.87268,28.6537],[-17.8726,28.65407],[-17.87277,28.65848],[-17.87126,28.66738],[-17.87047,28.68642],[-17.85987,28.7437],[-17.83814,28.74455]]]}},{"type":"Feature","properties":{"id":"3802702001"},"geometry":{"type":"Polygon","coordinates":[[[-17.87047,28.68642],[-17.87126,28.66738],[-17.87277,28.65848],[-17.8726,28.65407],[-17.87268,28.6537],[-17.87194,28.65155],[-17.87128,28.65058],[-17.87116,28.65011],[-17.87176,28.64986],[-17.87261,28.64916],[-17.87322,28.64847],[-17.87338,28.6481],[-17.87404,28.64803],[-17.87426,28.64773],[-17.87425,28.64732],[-17.87463,28.64693],[-17.87665,28.64656],[-17.87753,28.64664],[-17.87868,28.6465],[-17.88055,28.64714],[-17.88093,28.64684],[-17.88256,28.64679],[-17.88301,28.64647],[-17.88473,28.64576],[-17.8861,28.6457],[-17.88479,28.64768],[-17.88408,28.64846],[-17.8838,28.64902],[-17.8839,28.65017],[-17.88546,28.6507],[-17.88431,28.65623],[-17.8837,28.66127],[-17.88196,28.66714],[-17.88238,28.68629],[-17.87047,28.68642]]]}},{"type":"Feature","properties":{"id":"3802703001"},"geometry":{"type":"Polygon","coordinates":[[[-17.86457,28.76084],[-17.86364,28.76052],[-17.86324,28.76014],[-17.86312,28.75986],[-17.86255,28.75974],[-17.86183,28.76],[-17.86077,28.75983],[-17.86045,28.75954],[-17.85942,28.75902],[-17.85902,28.75823],[-17.85891,28.7575],[-17.85863,28.75766],[-17.85835,28.75768],[-17.85814,28.75747],[-17.85761,28.7576],[-17.85706,28.75742],[-17.85653,28.75702],[-17.8562,28.7569],[-17.85592,28.75649],[-17.85514,28.75619],[-17.85469,28.75589],[-17.85396,28.75488],[-17.85338,28.75434],[-17.85182,28.75346],[-17.84961,28.75012],[-17.8486,28.74987],[-17.8473,28.74977],[-17.84608,28.74952],[-17.84569,28.74966],[-17.8455,28.74962],[-17.84448,28.74914],[-17.84429,28.74894],[-17.84348,28.74875],[-17.84233,28.74805],[-17.84185,28.74761],[-17.84139,28.7476],[-17.84039,28.74684],[-17.8395,28.74674],[-17.83881,28.7464],[-17.83819,28.74497],[-17.83814,28.74455],[-17.85987,28.7437],[-17.87047,28.68642],[-17.88238,28.68629],[-17.88196,28.66714],[-17.8837,28.66127],[-17.88431,28.65623],[-17.88546,28.6507],[-17.8839,28.65017],[-17.88379,28.64938],[-17.88385,28.64886],[-17.88408,28.64846],[-17.88479,28.64768],[-17.8861,28.6457],[-17.88692,28.64613],[-17.8874,28.6465],[-17.88891,28.64706],[-17.88967,28.6476],[-17.89058,28.64793],[-17.89092,28.64799],[-17.89194,28.64783],[-17.89237,28.64804],[-17.89268,28.64804],[-17.89378,28.64836],[-17.89389,28.64842],[-17.89392,28.64971],[-17.89548,28.6502],[-17.89653,28.65006],[-17.90009,28.64813],[-17.90087,28.64877],[-17.90114,28.64917],[-17.90111,28.6494],[-17.90061,28.64988],[-17.90045,28.65017],[-17.90039,28.65053],[-17.9005,28.65088],[-17.90167,28.65215],[-17.90243,28.65355],[-17.90289,28.65387],[-17.90382,28.65393],[-17.90429,28.65419],[-17.90566,28.65595],[-17.90578,28.65639],[-17.90453,28.6565],[-17.9018,28.65699],[-17.90085,28.65684],[-17.89958,28.65734],[-17.89913,28.65729],[-17.89764,28.6578],[-17.89709,28.65772],[-17.89639,28.65746],[-17.89576,28.65742],[-17.89505,28.65725],[-17.89421,28.65729],[-17.89389,28.65763],[-17.89333,28.65787],[-17.89269,28.6578],[-17.89256,28.65789],[-17.89201,28.65774],[-17.89194,28.65761],[-17.89168,28.65772],[-17.89134,28.65809],[-17.89089,28.658],[-17.89055,28.65817],[-17.89096,28.65847],[-17.89082,28.65872],[-17.89043,28.65889],[-17.88982,28.65893],[-17.88962,28.65909],[-17.88917,28.65927],[-17.88911,28.65947],[-17.88965,28.65984],[-17.88969,28.66044],[-17.88979,28.66058],[-17.88995,28.66066],[-17.89047,28.6607],[-17.89102,28.66092],[-17.89164,28.66189],[-17.89224,28.66231],[-17.89242,28.66256],[-17.89291,28.66254],[-17.89384,28.66224],[-17.89451,28.66219],[-17.89563,28.6616],[-17.89576,28.66179],[-17.89612,28.66167],[-17.89639,28.66168],[-17.89689,28.66205],[-17.89772,28.66229],[-17.89789,28.66238],[-17.89791,28.66248],[-17.89955,28.66305],[-17.90026,28.6631],[-17.90075,28.66345],[-17.90147,28.66368],[-17.90168,28.66393],[-17.90257,28.66459],[-17.90309,28.66515],[-17.9032,28.66585],[-17.90367,28.66648],[-17.90379,28.66686],[-17.90406,28.66705],[-17.90475,28.66726],[-17.90508,28.6675],[-17.90518,28.6677],[-17.90473,28.6687],[-17.9047,28.66946],[-17.90513,28.66999],[-17.90574,28.67039],[-17.90744,28.67047],[-17.90836,28.67108],[-17.9094,28.67219],[-17.91063,28.67281],[-17.911,28.67289],[-17.91166,28.67281],[-17.91203,28.67226],[-17.9125,28.67186],[-17.91438,28.67088],[-17.91588,28.67024],[-17.91829,28.66963],[-17.91887,28.66964],[-17.91934,28.66995],[-17.91974,28.67058],[-17.91993,28.67124],[-17.92011,28.67142],[-17.92051,28.67153],[-17.92205,28.6698],[-17.92268,28.66858],[-17.92283,28.66752],[-17.92299,28.66748],[-17.92315,28.66755],[-17.92414,28.66863],[-17.92533,28.66972],[-17.92603,28.67107],[-17.92666,28.67141],[-17.92726,28.6721],[-17.92744,28.67246],[-17.92734,28.67281],[-17.92721,28.67294],[-17.92541,28.67416],[-17.9239,28.6749],[-17.92227,28.67608],[-17.92155,28.67681],[-17.92134,28.6773],[-17.92125,28.67814],[-17.92141,28.68017],[-17.92127,28.68206],[-17.92093,28.68353],[-17.92105,28.68511],[-17.92124,28.68548],[-17.92165,28.68577],[-17.92227,28.68665],[-17.92265,28.68681],[-17.92279,28.68709],[-17.92271,28.688],[-17.92309,28.6886],[-17.92313,28.68917],[-17.9234,28.68953],[-17.92334,28.69012],[-17.92346,28.69052],[-17.92349,28.69145],[-17.92406,28.69203],[-17.92414,28.69279],[-17.92398,28.69316],[-17.92325,28.69392],[-17.92207,28.69491],[-17.92203,28.69509],[-17.92222,28.69541],[-17.92224,28.69563],[-17.92206,28.69599],[-17.92209,28.69657],[-17.92191,28.69696],[-17.92139,28.69723],[-17.92111,28.69758],[-17.92005,28.6983],[-17.92013,28.6988],[-17.92002,28.6993],[-17.91911,28.69986],[-17.91899,28.70008],[-17.91826,28.70042],[-17.91747,28.70107],[-17.91717,28.70147],[-17.91712,28.70188],[-17.9161,28.70272],[-17.91547,28.70351],[-17.91537,28.70382],[-17.91587,28.70459],[-17.91595,28.70536],[-17.91574,28.70561],[-17.915,28.70616],[-17.91394,28.70673],[-17.91356,28.70705],[-17.91336,28.70743],[-17.91302,28.70763],[-17.91247,28.70817],[-17.91169,28.70938],[-17.91206,28.70975],[-17.91188,28.7101],[-17.91189,28.71044],[-17.91169,28.71065],[-17.91134,28.71134],[-17.91119,28.71192],[-17.911,28.71219],[-17.91063,28.71248],[-17.91045,28.71287],[-17.91004,28.71303],[-17.90897,28.71409],[-17.90896,28.71446],[-17.90864,28.7151],[-17.90872,28.71552],[-17.9083,28.71636],[-17.90864,28.71699],[-17.90955,28.71776],[-17.90945,28.71852],[-17.90923,28.71912],[-17.90927,28.71964],[-17.909,28.72019],[-17.90893,28.72065],[-17.90793,28.72178],[-17.90714,28.72217],[-17.90693,28.72239],[-17.90667,28.7225],[-17.90618,28.72359],[-17.90535,28.72417],[-17.9052,28.72437],[-17.90506,28.72471],[-17.90527,28.72493],[-17.90544,28.72534],[-17.9052,28.72566],[-17.90501,28.72668],[-17.90482,28.72722],[-17.90439,28.72746],[-17.90386,28.72817],[-17.9025,28.72921],[-17.90232,28.72965],[-17.90177,28.73047],[-17.90169,28.73091],[-17.90142,28.73126],[-17.90159,28.73203],[-17.90187,28.73256],[-17.90187,28.73278],[-17.90227,28.73355],[-17.9022,28.73423],[-17.90232,28.73465],[-17.90209,28.73487],[-17.90199,28.73522],[-17.90156,28.73548],[-17.90084,28.73569],[-17.90076,28.7361],[-17.90047,28.73659],[-17.89878,28.73691],[-17.89854,28.73713],[-17.89847,28.73741],[-17.89828,28.7376],[-17.89909,28.73774],[-17.89952,28.73812],[-17.89964,28.73859],[-17.89935,28.73921],[-17.89954,28.73948],[-17.89955,28.73994],[-17.89973,28.7401],[-17.90003,28.74071],[-17.90022,28.74135],[-17.90018,28.74151],[-17.89954,28.74226],[-17.89951,28.7426],[-17.89937,28.74278],[-17.89808,28.74356],[-17.89753,28.74369],[-17.89748,28.74382],[-17.8972,28.74398],[-17.89693,28.74452],[-17.8967,28.74471],[-17.89554,28.74506],[-17.89589,28.74548],[-17.89591,28.74602],[-17.89627,28.74649],[-17.89625,28.74689],[-17.89596,28.74755],[-17.8952,28.7476],[-17.89467,28.74788],[-17.89393,28.74804],[-17.89315,28.74845],[-17.89281,28.74852],[-17.89243,28.74908],[-17.89217,28.74931],[-17.89202,28.74966],[-17.89155,28.75001],[-17.89096,28.74999],[-17.89074,28.74987],[-17.89001,28.7501],[-17.88942,28.75061],[-17.88924,28.75158],[-17.88881,28.75207],[-17.88853,28.7527],[-17.8881,28.75321],[-17.88778,28.75336],[-17.88753,28.75337],[-17.88751,28.7536],[-17.8871,28.75381],[-17.88574,28.75379],[-17.88486,28.7543],[-17.88393,28.75594],[-17.88357,28.75694],[-17.88232,28.7587],[-17.88152,28.759],[-17.88078,28.75906],[-17.88045,28.7594],[-17.87996,28.75968],[-17.87884,28.75988],[-17.87839,28.76071],[-17.87831,28.76078],[-17.87812,28.76074],[-17.8777,28.76117],[-17.87753,28.76151],[-17.87649,28.76223],[-17.87582,28.76227],[-17.87549,28.76205],[-17.87426,28.76178],[-17.87349,28.76137],[-17.8731,28.76096],[-17.87222,28.76064],[-17.87193,28.76033],[-17.87166,28.76022],[-17.87131,28.7603],[-17.87088,28.76019],[-17.87035,28.75985],[-17.87007,28.76017],[-17.86977,28.76025],[-17.86867,28.7609],[-17.86815,28.76095],[-17.86784,28.76108],[-17.86722,28.76108],[-17.86653,28.76133],[-17.86601,28.76138],[-17.86533,28.76123],[-17.86505,28.76116],[-17.86457,28.76084]]]}},{"type":"Feature","properties":{"id":"3802703002"},"geometry":{"type":"Polygon","coordinates":[[[-17.8861,28.6457],[-17.88488,28.64572],[-17.88317,28.64641],[-17.8832,28.64533],[-17.88297,28.64371],[-17.88302,28.64344],[-17.88231,28.63866],[-17.88224,28.63651],[-17.8818,28.63143],[-17.87886,28.62311],[-17.87976,28.62303],[-17.8817,28.62344],[-17.88245,28.62372],[-17.88466,28.6239],[-17.88476,28.62498],[-17.88513,28.6255],[-17.88497,28.6263],[-17.88514,28.62705],[-17.88546,28.62761],[-17.88571,28.62855],[-17.88593,28.62897],[-17.88624,28.62929],[-17.88643,28.62981],[-17.8871,28.63029],[-17.88762,28.63096],[-17.88803,28.63266],[-17.88859,28.63293],[-17.889,28.63346],[-17.88925,28.6336],[-17.88956,28.63361],[-17.89175,28.6332],[-17.8922,28.63337],[-17.89287,28.63401],[-17.89309,28.63441],[-17.89321,28.63508],[-17.89432,28.63632],[-17.89449,28.6366],[-17.8946,28.63694],[-17.89464,28.63783],[-17.89544,28.63867],[-17.89569,28.63924],[-17.89702,28.6412],[-17.89726,28.64199],[-17.8975,28.64438],[-17.89768,28.645],[-17.89825,28.64559],[-17.89964,28.64624],[-17.89988,28.64643],[-17.90004,28.64681],[-17.90001,28.64789],[-17.90009,28.64813],[-17.89653,28.65006],[-17.89548,28.6502],[-17.89392,28.64971],[-17.89389,28.64842],[-17.89378,28.64836],[-17.89268,28.64804],[-17.89237,28.64804],[-17.89194,28.64783],[-17.89092,28.64799],[-17.89058,28.64793],[-17.88967,28.6476],[-17.88891,28.64706],[-17.8874,28.6465],[-17.88692,28.64613],[-17.8861,28.6457]]]}},{"type":"Feature","properties":{"id":"3802704001"},"geometry":{"type":"Polygon","coordinates":[[[-17.82679,28.63071],[-17.82761,28.62924],[-17.828,28.62903],[-17.82858,28.6284],[-17.82872,28.62771],[-17.82965,28.62609],[-17.83002,28.62528],[-17.83078,28.62446],[-17.83139,28.62417],[-17.83202,28.62263],[-17.83227,28.62224],[-17.83236,28.62012],[-17.83305,28.61843],[-17.83435,28.61674],[-17.83524,28.61613],[-17.83512,28.61539],[-17.83478,28.61479],[-17.83474,28.61378],[-17.83454,28.61255],[-17.83583,28.60894],[-17.83629,28.60854],[-17.83757,28.60793],[-17.83823,28.60691],[-17.83911,28.60605],[-17.83936,28.60587],[-17.84069,28.60539],[-17.84092,28.60502],[-17.84076,28.60323],[-17.84098,28.60271],[-17.84038,28.6012],[-17.83979,28.60063],[-17.83946,28.59978],[-17.83963,28.59934],[-17.84015,28.59885],[-17.84091,28.59861],[-17.8407,28.59681],[-17.84057,28.59653],[-17.83977,28.59557],[-17.83915,28.59493],[-17.83816,28.59411],[-17.83865,28.59362],[-17.8387,28.59341],[-17.83843,28.5927],[-17.83806,28.5925],[-17.83753,28.59241],[-17.8371,28.59177],[-17.83712,28.59105],[-17.83739,28.5906],[-17.83767,28.59036],[-17.83827,28.59004],[-17.83864,28.58965],[-17.83853,28.58926],[-17.83742,28.58865],[-17.83728,28.58847],[-17.83726,28.58825],[-17.83744,28.58795],[-17.83797,28.58744],[-17.83813,28.58715],[-17.83836,28.5855],[-17.83816,28.58518],[-17.8382,28.58416],[-17.83783,28.58374],[-17.83731,28.58357],[-17.83666,28.5825],[-17.83664,28.58146],[-17.83683,28.58121],[-17.83669,28.58094],[-17.8367,28.58072],[-17.83687,28.57989],[-17.83741,28.57922],[-17.83776,28.5791],[-17.83794,28.57887],[-17.83829,28.57872],[-17.83854,28.57849],[-17.83864,28.57801],[-17.83838,28.57734],[-17.83827,28.57727],[-17.83678,28.57694],[-17.83632,28.57668],[-17.83622,28.57652],[-17.83625,28.57625],[-17.8364,28.57612],[-17.83885,28.57538],[-17.83883,28.57482],[-17.83916,28.57424],[-17.83899,28.57397],[-17.83816,28.5734],[-17.83787,28.57257],[-17.83796,28.57071],[-17.83801,28.57056],[-17.839,28.56971],[-17.83921,28.56942],[-17.8393,28.56913],[-17.83928,28.56826],[-17.83907,28.56785],[-17.83889,28.56713],[-17.83855,28.56659],[-17.83817,28.56563],[-17.83778,28.56534],[-17.83751,28.56494],[-17.83763,28.56451],[-17.83742,28.56443],[-17.83713,28.56417],[-17.837,28.56392],[-17.837,28.56362],[-17.83711,28.56345],[-17.83769,28.56307],[-17.83788,28.56281],[-17.83771,28.56235],[-17.83681,28.56137],[-17.83656,28.56071],[-17.83659,28.56048],[-17.83694,28.55969],[-17.83744,28.5592],[-17.83726,28.55814],[-17.83799,28.55685],[-17.83841,28.55582],[-17.83857,28.55567],[-17.83947,28.55521],[-17.83996,28.55514],[-17.84037,28.55518],[-17.84091,28.55538],[-17.84176,28.55532],[-17.84319,28.55508],[-17.84436,28.55477],[-17.84817,28.5543],[-17.85201,28.55364],[-17.85386,28.55348],[-17.85483,28.55361],[-17.85707,28.55418],[-17.86073,28.55439],[-17.86162,28.55457],[-17.86776,28.55454],[-17.86865,28.55447],[-17.87454,28.55453],[-17.87563,28.55727],[-17.87583,28.5582],[-17.87618,28.5588],[-17.87644,28.55976],[-17.87646,28.5604],[-17.8757,28.56362],[-17.87577,28.5641],[-17.8765,28.56575],[-17.87667,28.56728],[-17.87673,28.56943],[-17.87705,28.57113],[-17.87781,28.57334],[-17.8787,28.57482],[-17.87913,28.57571],[-17.87947,28.57706],[-17.87989,28.57764],[-17.88012,28.57853],[-17.87998,28.57946],[-17.8797,28.58034],[-17.87977,28.58112],[-17.88054,28.5817],[-17.88075,28.58208],[-17.88052,28.58282],[-17.88078,28.58358],[-17.88081,28.58416],[-17.88047,28.58482],[-17.88053,28.58605],[-17.87999,28.58704],[-17.87992,28.58748],[-17.88002,28.58767],[-17.8805,28.58803],[-17.88056,28.58829],[-17.88018,28.5891],[-17.87944,28.58989],[-17.87946,28.59019],[-17.87981,28.59108],[-17.87928,28.59235],[-17.87903,28.59268],[-17.87904,28.59291],[-17.87939,28.59337],[-17.87934,28.59375],[-17.87922,28.59391],[-17.87877,28.5941],[-17.87864,28.59427],[-17.87856,28.59459],[-17.87861,28.59536],[-17.87913,28.59598],[-17.8802,28.59657],[-17.88032,28.59674],[-17.88023,28.59776],[-17.88037,28.59811],[-17.8807,28.59841],[-17.88092,28.59897],[-17.88058,28.60012],[-17.88061,28.60084],[-17.88091,28.60143],[-17.88119,28.60338],[-17.88149,28.60393],[-17.88289,28.60579],[-17.88312,28.60632],[-17.88344,28.61052],[-17.88285,28.61343],[-17.88289,28.61461],[-17.8832,28.61531],[-17.8838,28.61602],[-17.88443,28.61623],[-17.88482,28.61686],[-17.8852,28.61701],[-17.88541,28.61827],[-17.88526,28.61852],[-17.88479,28.6188],[-17.8846,28.61954],[-17.88433,28.61983],[-17.88518,28.62069],[-17.88534,28.62111],[-17.88535,28.62143],[-17.88559,28.6219],[-17.8854,28.62213],[-17.88487,28.62222],[-17.8851,28.62293],[-17.88506,28.62313],[-17.88466,28.62354],[-17.88466,28.6239],[-17.88245,28.62372],[-17.8817,28.62344],[-17.87976,28.62303],[-17.87886,28.62311],[-17.8818,28.63143],[-17.88224,28.63651],[-17.88231,28.63866],[-17.88302,28.64344],[-17.88297,28.64371],[-17.8832,28.64533],[-17.88317,28.64641],[-17.88256,28.64679],[-17.88093,28.64684],[-17.88055,28.64714],[-17.87868,28.6465],[-17.87753,28.64664],[-17.87665,28.64656],[-17.87463,28.64693],[-17.87425,28.64732],[-17.87426,28.64773],[-17.87404,28.64803],[-17.87338,28.6481],[-17.87322,28.64847],[-17.87261,28.64916],[-17.87099,28.64902],[-17.86935,28.64838],[-17.86883,28.64806],[-17.8686,28.64778],[-17.86845,28.64717],[-17.86795,28.64654],[-17.8677,28.64634],[-17.867,28.64602],[-17.86656,28.64567],[-17.86632,28.64512],[-17.86608,28.64353],[-17.86551,28.64299],[-17.86409,28.64346],[-17.86302,28.64353],[-17.86318,28.64167],[-17.86282,28.64171],[-17.8624,28.6415],[-17.86218,28.64149],[-17.86176,28.64119],[-17.86163,28.64095],[-17.8617,28.64017],[-17.86206,28.63885],[-17.86222,28.63779],[-17.86224,28.63693],[-17.86131,28.63712],[-17.86084,28.63688],[-17.86054,28.63711],[-17.85892,28.63707],[-17.8556,28.63723],[-17.8552,28.63756],[-17.85495,28.63795],[-17.8546,28.63821],[-17.85441,28.63828],[-17.85413,28.63823],[-17.85341,28.63871],[-17.8531,28.63869],[-17.85282,28.63855],[-17.85254,28.63901],[-17.85217,28.63893],[-17.8515,28.63912],[-17.85101,28.63902],[-17.85011,28.63912],[-17.84965,28.63904],[-17.84806,28.63926],[-17.84726,28.63909],[-17.84709,28.63915],[-17.84704,28.63928],[-17.84726,28.63971],[-17.84715,28.63983],[-17.84683,28.63987],[-17.84654,28.6396],[-17.84665,28.63876],[-17.83052,28.63184],[-17.82679,28.63071]]]}}]}