{"type":"FeatureCollection","features":[{"type":"Feature","properties":{"id":"3803601001"},"geometry":{"type":"Polygon","coordinates":[[[-17.11501,28.09313],[-17.11293,28.09447],[-17.11173,28.09304],[-17.11035,28.09097],[-17.11031,28.09072],[-17.11009,28.09062],[-17.10958,28.08968],[-17.10991,28.0887],[-17.10836,28.08829],[-17.10833,28.08838],[-17.10816,28.08833],[-17.10822,28.08818],[-17.1086,28.0882],[-17.11004,28.08859],[-17.10992,28.08913],[-17.11017,28.08926],[-17.11077,28.08927],[-17.11134,28.089],[-17.11399,28.09107],[-17.1148,28.09242],[-17.11501,28.09313]]]}},{"type":"Feature","properties":{"id":"3803601002"},"geometry":{"type":"Polygon","coordinates":[[[-17.12469,28.10105],[-17.12358,28.1002],[-17.12229,28.09956],[-17.12186,28.09915],[-17.12057,28.09835],[-17.12001,28.09809],[-17.11933,28.0976],[-17.11783,28.09684],[-17.11729,28.09634],[-17.11692,28.09622],[-17.11619,28.09578],[-17.11532,28.0947],[-17.1148,28.09242],[-17.11399,28.09107],[-17.11134,28.089],[-17.1122,28.0882],[-17.11207,28.08782],[-17.11233,28.08781],[-17.11299,28.08747],[-17.11379,28.08661],[-17.1136,28.08587],[-17.11348,28.0858],[-17.11322,28.08584],[-17.11344,28.08567],[-17.11341,28.08554],[-17.11302,28.08537],[-17.11263,28.08495],[-17.11267,28.08454],[-17.11344,28.08287],[-17.1133,28.08275],[-17.11365,28.08256],[-17.11376,28.08163],[-17.11366,28.08128],[-17.114,28.08113],[-17.11406,28.08085],[-17.11459,28.08046],[-17.11477,28.08002],[-17.11498,28.07979],[-17.11573,28.07925],[-17.11597,28.07916],[-17.1165,28.07913],[-17.11688,28.07884],[-17.11745,28.07788],[-17.11795,28.0756],[-17.11855,28.07523],[-17.11888,28.07515],[-17.11917,28.07497],[-17.1198,28.07429],[-17.12049,28.07383],[-17.12148,28.0735],[-17.1217,28.0733],[-17.12193,28.07326],[-17.12207,28.07309],[-17.12251,28.07301],[-17.12268,28.07313],[-17.12304,28.07307],[-17.12338,28.07278],[-17.12398,28.07258],[-17.12413,28.07264],[-17.1242,28.07286],[-17.12445,28.07304],[-17.12495,28.07318],[-17.12567,28.07319],[-17.12608,28.0733],[-17.1264,28.07346],[-17.12647,28.07365],[-17.12697,28.07344],[-17.12747,28.07392],[-17.12798,28.07389],[-17.12851,28.07369],[-17.13056,28.07234],[-17.13069,28.07221],[-17.1306,28.07182],[-17.13092,28.07179],[-17.13126,28.07156],[-17.13136,28.07109],[-17.13165,28.07063],[-17.13234,28.07047],[-17.13242,28.06996],[-17.13259,28.06991],[-17.13283,28.06964],[-17.13308,28.06953],[-17.13349,28.06951],[-17.1335,28.06937],[-17.13363,28.06947],[-17.13382,28.06944],[-17.13411,28.06909],[-17.13402,28.0689],[-17.13485,28.06872],[-17.13496,28.06834],[-17.13523,28.06844],[-17.13576,28.06847],[-17.13595,28.06828],[-17.13643,28.0682],[-17.13702,28.06777],[-17.13703,28.06754],[-17.13721,28.0676],[-17.13728,28.06731],[-17.13767,28.06735],[-17.13778,28.06729],[-17.13789,28.06691],[-17.13784,28.06633],[-17.1386,28.06621],[-17.13871,28.06598],[-17.1385,28.06577],[-17.13883,28.06567],[-17.13897,28.06531],[-17.13952,28.06514],[-17.13979,28.0652],[-17.14008,28.06499],[-17.14077,28.06489],[-17.141,28.06494],[-17.14136,28.06437],[-17.14184,28.0643],[-17.14373,28.06228],[-17.14467,28.06076],[-17.14466,28.06059],[-17.14421,28.0604],[-17.14447,28.0604],[-17.1438,28.05922],[-17.14366,28.05876],[-17.14367,28.05848],[-17.14427,28.05812],[-17.14438,28.05758],[-17.14426,28.0565],[-17.14391,28.05573],[-17.14441,28.05545],[-17.14488,28.05541],[-17.14508,28.0553],[-17.14524,28.05508],[-17.14515,28.05483],[-17.1453,28.05456],[-17.14529,28.05419],[-17.14552,28.05418],[-17.14561,28.054],[-17.14576,28.05397],[-17.14621,28.05418],[-17.14652,28.05422],[-17.14703,28.05401],[-17.14724,28.05382],[-17.1472,28.05358],[-17.14749,28.0535],[-17.14764,28.05362],[-17.14777,28.05399],[-17.14786,28.05396],[-17.1479,28.05403],[-17.14792,28.05386],[-17.14804,28.05377],[-17.14803,28.05415],[-17.14833,28.0544],[-17.14852,28.05442],[-17.14844,28.05455],[-17.14899,28.05488],[-17.14917,28.05478],[-17.14923,28.05503],[-17.1494,28.05492],[-17.14951,28.05517],[-17.14974,28.05536],[-17.14984,28.05567],[-17.15001,28.05574],[-17.15123,28.05558],[-17.1526,28.05501],[-17.15312,28.05465],[-17.15301,28.05431],[-17.15328,28.05403],[-17.15353,28.05348],[-17.15414,28.05299],[-17.15465,28.05286],[-17.15464,28.05237],[-17.15493,28.05218],[-17.15473,28.05173],[-17.15488,28.05165],[-17.1549,28.05152],[-17.15466,28.0513],[-17.15477,28.05099],[-17.15515,28.05077],[-17.15521,28.05055],[-17.1558,28.05066],[-17.15588,28.05054],[-17.15606,28.05055],[-17.1563,28.05036],[-17.15671,28.04974],[-17.15687,28.04932],[-17.15697,28.04928],[-17.157,28.04896],[-17.15717,28.04888],[-17.15746,28.04895],[-17.15788,28.04867],[-17.15833,28.04878],[-17.15864,28.04874],[-17.1587,28.04886],[-17.15981,28.04868],[-17.15999,28.04862],[-17.16028,28.04815],[-17.16081,28.0479],[-17.16105,28.04752],[-17.16101,28.04678],[-17.1613,28.04563],[-17.16111,28.04528],[-17.16101,28.04482],[-17.16132,28.04478],[-17.16161,28.04455],[-17.16207,28.04506],[-17.16225,28.04511],[-17.16255,28.045],[-17.16273,28.04482],[-17.16281,28.04437],[-17.16304,28.04413],[-17.16299,28.0437],[-17.16283,28.04343],[-17.16291,28.04336],[-17.16311,28.04346],[-17.1633,28.04336],[-17.16385,28.04295],[-17.16392,28.04273],[-17.16471,28.04281],[-17.16528,28.04313],[-17.16659,28.04321],[-17.16713,28.04308],[-17.16795,28.04247],[-17.16834,28.04189],[-17.16838,28.04167],[-17.16828,28.04109],[-17.16804,28.04074],[-17.16816,28.04061],[-17.16831,28.04064],[-17.16856,28.0402],[-17.16844,28.03955],[-17.16804,28.03913],[-17.16761,28.03889],[-17.1673,28.03833],[-17.1672,28.03777],[-17.1673,28.03744],[-17.167,28.03689],[-17.16793,28.0359],[-17.16815,28.03597],[-17.16878,28.03551],[-17.17005,28.03572],[-17.17042,28.03555],[-17.1706,28.03556],[-17.17085,28.03572],[-17.171,28.0362],[-17.17186,28.03732],[-17.1724,28.03836],[-17.17277,28.03859],[-17.1728,28.03873],[-17.17293,28.03873],[-17.17287,28.03853],[-17.17319,28.03874],[-17.17353,28.03926],[-17.1739,28.03939],[-17.17452,28.03944],[-17.17529,28.03927],[-17.17537,28.03925],[-17.17534,28.03907],[-17.17542,28.03892],[-17.17551,28.03904],[-17.17681,28.03868],[-17.17791,28.03851],[-17.17849,28.03831],[-17.17882,28.03811],[-17.17869,28.03782],[-17.17871,28.03751],[-17.17907,28.03802],[-17.17943,28.03804],[-17.17999,28.03795],[-17.18115,28.03729],[-17.1816,28.03677],[-17.18129,28.03645],[-17.1813,28.03603],[-17.18138,28.03594],[-17.18128,28.03563],[-17.18139,28.03537],[-17.18172,28.03517],[-17.18243,28.03542],[-17.18403,28.03393],[-17.18396,28.0334],[-17.18305,28.03191],[-17.18318,28.03178],[-17.1836,28.03177],[-17.18391,28.03126],[-17.18422,28.03104],[-17.18445,28.03044],[-17.18466,28.03038],[-17.18498,28.03055],[-17.18522,28.03035],[-17.18527,28.03011],[-17.18515,28.02988],[-17.18524,28.02975],[-17.18558,28.02974],[-17.18578,28.02982],[-17.18611,28.02966],[-17.18622,28.02973],[-17.18653,28.02966],[-17.18682,28.02944],[-17.18726,28.02949],[-17.18806,28.0292],[-17.18912,28.02934],[-17.18968,28.02967],[-17.19062,28.02969],[-17.19333,28.02952],[-17.19509,28.02921],[-17.1987,28.03336],[-17.19895,28.03427],[-17.19945,28.03521],[-17.20025,28.03632],[-17.20074,28.03747],[-17.20142,28.03854],[-17.20277,28.03972],[-17.20341,28.04099],[-17.20405,28.0428],[-17.20497,28.04458],[-17.20624,28.04615],[-17.20696,28.04685],[-17.20808,28.04766],[-17.20969,28.04924],[-17.21019,28.05028],[-17.21036,28.05175],[-17.21118,28.05421],[-17.21241,28.05585],[-17.2138,28.05899],[-17.21548,28.06043],[-17.21655,28.0617],[-17.21702,28.06397],[-17.21747,28.06535],[-17.21807,28.0661],[-17.21918,28.06691],[-17.22045,28.06827],[-17.22139,28.0695],[-17.22263,28.07223],[-17.2254,28.07708],[-17.22685,28.07944],[-17.22859,28.0814],[-17.23072,28.08584],[-17.23204,28.08838],[-17.2335,28.09216],[-17.23392,28.09416],[-17.23485,28.09677],[-17.23526,28.09962],[-17.23637,28.10212],[-17.23772,28.10377],[-17.23899,28.10579],[-17.23673,28.10714],[-17.23612,28.10719],[-17.23395,28.10665],[-17.23222,28.10711],[-17.23117,28.10778],[-17.231,28.10797],[-17.22973,28.10864],[-17.22888,28.10878],[-17.22757,28.10877],[-17.22739,28.10895],[-17.2259,28.10943],[-17.22494,28.10952],[-17.22213,28.10802],[-17.22097,28.10778],[-17.22015,28.1081],[-17.21945,28.1088],[-17.21838,28.11047],[-17.21774,28.11165],[-17.21774,28.11182],[-17.21728,28.11107],[-17.2173,28.11048],[-17.2172,28.11007],[-17.21642,28.10922],[-17.21582,28.10905],[-17.2149,28.10911],[-17.21453,28.10917],[-17.21385,28.10965],[-17.21363,28.10967],[-17.21349,28.10959],[-17.21339,28.10942],[-17.21369,28.10874],[-17.21345,28.10704],[-17.21327,28.10655],[-17.21286,28.10616],[-17.21258,28.10604],[-17.21129,28.10593],[-17.21079,28.10573],[-17.19295,28.10809],[-17.18927,28.10837],[-17.18737,28.10881],[-17.18371,28.10927],[-17.181,28.10946],[-17.17657,28.10932],[-17.17265,28.10998],[-17.17189,28.11133],[-17.17021,28.1131],[-17.16899,28.11389],[-17.1677,28.11447],[-17.16504,28.11488],[-17.16345,28.11482],[-17.16154,28.11413],[-17.15832,28.11144],[-17.15576,28.11019],[-17.15213,28.1086],[-17.14935,28.107],[-17.14568,28.10529],[-17.13671,28.10219],[-17.13595,28.1018],[-17.13505,28.10175],[-17.134,28.10147],[-17.13223,28.10136],[-17.13077,28.10209],[-17.12812,28.10156],[-17.12699,28.10192],[-17.12565,28.10134],[-17.12501,28.10092],[-17.12483,28.10091],[-17.12469,28.10105]]]}},{"type":"Feature","properties":{"id":"3803601003"},"geometry":{"type":"Polygon","coordinates":[[[-17.12268,28.10323],[-17.12371,28.10226],[-17.12486,28.1009],[-17.12699,28.10192],[-17.12812,28.10156],[-17.13077,28.10209],[-17.13223,28.10136],[-17.134,28.10147],[-17.13505,28.10175],[-17.13595,28.1018],[-17.13671,28.10219],[-17.14568,28.10529],[-17.14935,28.107],[-17.15213,28.1086],[-17.15576,28.11019],[-17.15832,28.11144],[-17.16154,28.11413],[-17.16345,28.11482],[-17.16504,28.11488],[-17.1677,28.11447],[-17.16899,28.11389],[-17.17021,28.1131],[-17.17189,28.11133],[-17.17265,28.10998],[-17.17657,28.10932],[-17.181,28.10946],[-17.18371,28.10927],[-17.18737,28.10881],[-17.18927,28.10837],[-17.19295,28.10809],[-17.21079,28.10573],[-17.21129,28.10593],[-17.21258,28.10604],[-17.21286,28.10616],[-17.21327,28.10655],[-17.21345,28.10704],[-17.21368,28.10861],[-17.21366,28.10887],[-17.21339,28.10942],[-17.21355,28.10964],[-17.21385,28.10965],[-17.21463,28.10914],[-17.216,28.10907],[-17.21656,28.10933],[-17.2172,28.11007],[-17.2173,28.11048],[-17.21728,28.11107],[-17.21774,28.11182],[-17.21773,28.11229],[-17.21879,28.11465],[-17.21928,28.1165],[-17.21854,28.11861],[-17.21755,28.11995],[-17.21575,28.12107],[-17.21381,28.12135],[-17.21156,28.12192],[-17.20896,28.12245],[-17.2065,28.12319],[-17.20401,28.12359],[-17.20226,28.12408],[-17.2016,28.1245],[-17.20033,28.12506],[-17.19756,28.12577],[-17.19564,28.12656],[-17.19476,28.12743],[-17.1943,28.12838],[-17.1922,28.12969],[-17.18965,28.13091],[-17.18804,28.13143],[-17.18751,28.13168],[-17.18716,28.13196],[-17.18577,28.13091],[-17.1846,28.13054],[-17.1834,28.13068],[-17.18308,28.13085],[-17.18275,28.1314],[-17.18303,28.1319],[-17.18297,28.13212],[-17.18279,28.13224],[-17.182,28.13249],[-17.18102,28.13226],[-17.1806,28.13251],[-17.18035,28.13255],[-17.17834,28.13148],[-17.17773,28.13101],[-17.17709,28.131],[-17.17688,28.13092],[-17.17669,28.13064],[-17.17675,28.13001],[-17.17667,28.1298],[-17.17641,28.12962],[-17.17587,28.12976],[-17.17554,28.12963],[-17.17546,28.12886],[-17.17504,28.12839],[-17.17486,28.12835],[-17.17454,28.12843],[-17.1741,28.12823],[-17.17362,28.12864],[-17.17349,28.12865],[-17.17281,28.12849],[-17.17199,28.12806],[-17.17173,28.12783],[-17.17137,28.12786],[-17.17112,28.12775],[-17.17121,28.12707],[-17.17106,28.12664],[-17.17093,28.12658],[-17.17017,28.12659],[-17.16965,28.12595],[-17.1692,28.12601],[-17.16895,28.12635],[-17.16884,28.12683],[-17.16864,28.12694],[-17.16787,28.12647],[-17.16743,28.12589],[-17.16725,28.1258],[-17.16704,28.12587],[-17.16682,28.12618],[-17.16557,28.12653],[-17.16544,28.12643],[-17.16511,28.12552],[-17.16438,28.1256],[-17.16405,28.12575],[-17.16387,28.1256],[-17.1639,28.12526],[-17.16379,28.12507],[-17.16323,28.12499],[-17.16308,28.12457],[-17.16264,28.12461],[-17.16211,28.12429],[-17.16198,28.12436],[-17.1618,28.12472],[-17.16154,28.12478],[-17.16042,28.12439],[-17.15906,28.12361],[-17.15709,28.12364],[-17.15605,28.12321],[-17.1553,28.12308],[-17.1545,28.1228],[-17.15267,28.12233],[-17.15229,28.12193],[-17.15203,28.12183],[-17.15091,28.12207],[-17.15013,28.12184],[-17.14953,28.12228],[-17.14887,28.12229],[-17.14868,28.12245],[-17.14864,28.12267],[-17.14896,28.12335],[-17.14882,28.12355],[-17.14838,28.12381],[-17.14844,28.12431],[-17.14835,28.12455],[-17.14789,28.12474],[-17.14713,28.12455],[-17.14667,28.12391],[-17.14569,28.12329],[-17.14547,28.12294],[-17.14551,28.12237],[-17.146,28.12162],[-17.146,28.12081],[-17.14587,28.12055],[-17.14562,28.12036],[-17.14328,28.11961],[-17.14188,28.11779],[-17.14155,28.11749],[-17.14113,28.11739],[-17.13979,28.11748],[-17.13944,28.11739],[-17.13883,28.11671],[-17.13862,28.11541],[-17.13847,28.11512],[-17.13817,28.11488],[-17.13716,28.11457],[-17.1364,28.11371],[-17.13398,28.11284],[-17.13267,28.11207],[-17.13041,28.11099],[-17.12983,28.11123],[-17.12895,28.11137],[-17.12779,28.1118],[-17.12731,28.11177],[-17.12674,28.11156],[-17.12579,28.11085],[-17.12485,28.10943],[-17.12453,28.10859],[-17.12465,28.10814],[-17.12497,28.10754],[-17.1254,28.10717],[-17.12529,28.10671],[-17.1249,28.10601],[-17.12379,28.10483],[-17.12321,28.10384],[-17.12268,28.10323]]]}},{"type":"Feature","properties":{"id":"3803601005"},"geometry":{"type":"Polygon","coordinates":[[[-17.10592,28.08941],[-17.10685,28.08923],[-17.10886,28.08986],[-17.10896,28.0908],[-17.10887,28.09195],[-17.10918,28.09245],[-17.10985,28.09307],[-17.11086,28.09373],[-17.1115,28.09435],[-17.11297,28.09547],[-17.1142,28.09673],[-17.11711,28.09872],[-17.11926,28.10059],[-17.12252,28.10309],[-17.12299,28.10355],[-17.12372,28.10474],[-17.1249,28.10601],[-17.12529,28.10671],[-17.1254,28.10717],[-17.12497,28.10754],[-17.12465,28.10814],[-17.12453,28.10859],[-17.12485,28.10943],[-17.12579,28.11085],[-17.12674,28.11156],[-17.12731,28.11177],[-17.12779,28.1118],[-17.12895,28.11137],[-17.12983,28.11123],[-17.13041,28.11099],[-17.13267,28.11207],[-17.13398,28.11284],[-17.1364,28.11371],[-17.13716,28.11457],[-17.13817,28.11488],[-17.13847,28.11512],[-17.13862,28.11541],[-17.13883,28.11671],[-17.13944,28.11739],[-17.13979,28.11748],[-17.14113,28.11739],[-17.14155,28.11749],[-17.14188,28.11779],[-17.14328,28.11961],[-17.14562,28.12036],[-17.14587,28.12055],[-17.146,28.12081],[-17.146,28.12162],[-17.14551,28.12237],[-17.14547,28.12294],[-17.14569,28.12329],[-17.14667,28.12391],[-17.14713,28.12455],[-17.14789,28.12474],[-17.14835,28.12455],[-17.14844,28.12431],[-17.14838,28.12381],[-17.14882,28.12355],[-17.14896,28.12335],[-17.14864,28.12267],[-17.14868,28.12245],[-17.14887,28.12229],[-17.14953,28.12228],[-17.15013,28.12184],[-17.15091,28.12207],[-17.15203,28.12183],[-17.15229,28.12193],[-17.15267,28.12233],[-17.1545,28.1228],[-17.1553,28.12308],[-17.15605,28.12321],[-17.15709,28.12364],[-17.15906,28.12361],[-17.16042,28.12439],[-17.16154,28.12478],[-17.1618,28.12472],[-17.16198,28.12436],[-17.16211,28.12429],[-17.16264,28.12461],[-17.16308,28.12457],[-17.16323,28.12499],[-17.16379,28.12507],[-17.1639,28.12526],[-17.16387,28.1256],[-17.16405,28.12575],[-17.16438,28.1256],[-17.16511,28.12552],[-17.16544,28.12643],[-17.16557,28.12653],[-17.16682,28.12618],[-17.16704,28.12587],[-17.16725,28.1258],[-17.16743,28.12589],[-17.16787,28.12647],[-17.16864,28.12694],[-17.16884,28.12683],[-17.16895,28.12635],[-17.1692,28.12601],[-17.16971,28.12597],[-17.17017,28.12659],[-17.17093,28.12658],[-17.17106,28.12664],[-17.17121,28.12707],[-17.17112,28.12775],[-17.17137,28.12786],[-17.17173,28.12783],[-17.17199,28.12806],[-17.17281,28.12849],[-17.17349,28.12865],[-17.17362,28.12864],[-17.1741,28.12823],[-17.17454,28.12843],[-17.17486,28.12835],[-17.17504,28.12839],[-17.17546,28.12886],[-17.17554,28.12963],[-17.17587,28.12976],[-17.17641,28.12962],[-17.17667,28.1298],[-17.17675,28.13001],[-17.17669,28.13064],[-17.17688,28.13092],[-17.17709,28.131],[-17.17777,28.13103],[-17.17834,28.13148],[-17.18026,28.13253],[-17.18057,28.13252],[-17.18102,28.13226],[-17.182,28.13249],[-17.18284,28.13222],[-17.18303,28.1319],[-17.18277,28.13152],[-17.18277,28.13132],[-17.18308,28.13085],[-17.18337,28.13069],[-17.18467,28.13055],[-17.18586,28.13098],[-17.18716,28.13196],[-17.18522,28.13376],[-17.18242,28.1354],[-17.18188,28.1358],[-17.18098,28.13715],[-17.18074,28.13733],[-17.18029,28.13809],[-17.18005,28.13899],[-17.18029,28.14019],[-17.17996,28.14169],[-17.17921,28.14291],[-17.17879,28.14313],[-17.17735,28.14334],[-17.17567,28.14324],[-17.17415,28.14328],[-17.17216,28.14403],[-17.17129,28.14516],[-17.16958,28.14682],[-17.16884,28.14745],[-17.16767,28.14789],[-17.16631,28.148],[-17.16356,28.14799],[-17.16189,28.14777],[-17.15738,28.14767],[-17.15638,28.14746],[-17.15472,28.14763],[-17.15087,28.14886],[-17.14863,28.14984],[-17.14688,28.15041],[-17.14609,28.15106],[-17.14572,28.15124],[-17.14419,28.15355],[-17.14354,28.15421],[-17.14214,28.15537],[-17.1401,28.15727],[-17.13926,28.1585],[-17.13844,28.16037],[-17.1379,28.16009],[-17.13781,28.16018],[-17.13779,28.16005],[-17.13749,28.15993],[-17.13711,28.1599],[-17.13692,28.16003],[-17.1369,28.15993],[-17.13649,28.1598],[-17.13638,28.15955],[-17.13618,28.15945],[-17.13618,28.15936],[-17.13607,28.15937],[-17.13606,28.15923],[-17.13555,28.15867],[-17.1353,28.15805],[-17.1335,28.15709],[-17.1332,28.15589],[-17.13226,28.15501],[-17.13151,28.15472],[-17.13091,28.15475],[-17.13012,28.15496],[-17.12959,28.15494],[-17.12908,28.15477],[-17.12847,28.15416],[-17.12848,28.15404],[-17.12813,28.15354],[-17.12751,28.15298],[-17.12667,28.15268],[-17.12598,28.15224],[-17.12546,28.1522],[-17.12506,28.15228],[-17.12474,28.15242],[-17.12441,28.15273],[-17.12403,28.15282],[-17.1237,28.15264],[-17.12297,28.15268],[-17.12171,28.15235],[-17.12131,28.15195],[-17.12106,28.15233],[-17.12079,28.15253],[-17.1208,28.15304],[-17.12061,28.15344],[-17.12043,28.1535],[-17.12003,28.15335],[-17.11959,28.15333],[-17.11942,28.15349],[-17.11914,28.15354],[-17.11934,28.15373],[-17.11929,28.15377],[-17.11896,28.15354],[-17.11856,28.15345],[-17.11889,28.15342],[-17.11898,28.15319],[-17.11894,28.15304],[-17.11904,28.15292],[-17.11895,28.15264],[-17.11859,28.15252],[-17.11865,28.15237],[-17.11796,28.15202],[-17.1177,28.15171],[-17.11772,28.15152],[-17.118,28.1514],[-17.11798,28.15126],[-17.11837,28.1509],[-17.11842,28.15072],[-17.11805,28.14946],[-17.1176,28.14907],[-17.11778,28.14829],[-17.11752,28.14817],[-17.11689,28.14836],[-17.1172,28.14822],[-17.11812,28.14752],[-17.11803,28.14671],[-17.11765,28.14562],[-17.11719,28.14505],[-17.11613,28.14427],[-17.11438,28.14348],[-17.11337,28.14339],[-17.1132,28.14356],[-17.11318,28.14395],[-17.1131,28.14407],[-17.11294,28.1441],[-17.11292,28.14425],[-17.11251,28.14443],[-17.1122,28.14447],[-17.11217,28.14437],[-17.11234,28.14408],[-17.11231,28.14341],[-17.11205,28.14302],[-17.11153,28.14289],[-17.11132,28.14275],[-17.11128,28.14242],[-17.11143,28.14197],[-17.11074,28.14162],[-17.11091,28.14125],[-17.11084,28.14094],[-17.11098,28.14071],[-17.11093,28.1405],[-17.11116,28.14029],[-17.11152,28.14022],[-17.11175,28.13987],[-17.11175,28.13968],[-17.11208,28.13935],[-17.11208,28.1392],[-17.11181,28.13889],[-17.11244,28.13861],[-17.11283,28.13826],[-17.11353,28.13697],[-17.11364,28.13648],[-17.11359,28.13596],[-17.11391,28.13564],[-17.11377,28.13541],[-17.11349,28.13538],[-17.11374,28.13512],[-17.11368,28.13503],[-17.11345,28.135],[-17.11349,28.13481],[-17.11336,28.13437],[-17.11241,28.13332],[-17.11168,28.13296],[-17.11133,28.13293],[-17.11118,28.13258],[-17.11104,28.13247],[-17.11075,28.13244],[-17.11015,28.13256],[-17.10982,28.1325],[-17.10982,28.13239],[-17.11036,28.13177],[-17.11014,28.13155],[-17.11008,28.13132],[-17.10956,28.13075],[-17.10818,28.13019],[-17.10747,28.13016],[-17.10688,28.13028],[-17.10667,28.1301],[-17.1065,28.12958],[-17.1062,28.12938],[-17.10547,28.12936],[-17.10487,28.12955],[-17.10466,28.12954],[-17.10382,28.12866],[-17.10337,28.12852],[-17.10318,28.12772],[-17.10346,28.12654],[-17.10372,28.12618],[-17.10497,28.12496],[-17.105,28.12481],[-17.10476,28.1247],[-17.10504,28.12462],[-17.10563,28.12394],[-17.10599,28.12304],[-17.10602,28.12274],[-17.10545,28.12073],[-17.10531,28.12059],[-17.10493,28.12047],[-17.10494,28.11997],[-17.10509,28.11952],[-17.10515,28.11883],[-17.10455,28.11834],[-17.10479,28.11814],[-17.10506,28.11807],[-17.10511,28.1175],[-17.10487,28.11672],[-17.10463,28.11663],[-17.10465,28.11602],[-17.1043,28.11513],[-17.10398,28.11471],[-17.1036,28.11493],[-17.10337,28.11482],[-17.10335,28.11444],[-17.10367,28.11462],[-17.10383,28.11446],[-17.10379,28.11425],[-17.10358,28.1141],[-17.10293,28.11407],[-17.10165,28.11447],[-17.10127,28.1144],[-17.10119,28.11428],[-17.10141,28.11386],[-17.10188,28.11358],[-17.10228,28.11304],[-17.10293,28.11312],[-17.10341,28.11266],[-17.10369,28.11251],[-17.10433,28.11255],[-17.10544,28.11229],[-17.10574,28.11177],[-17.10582,28.111],[-17.10571,28.11067],[-17.10549,28.11049],[-17.10528,28.11056],[-17.10507,28.11052],[-17.10456,28.1107],[-17.10416,28.11069],[-17.10403,28.11059],[-17.10385,28.11007],[-17.10384,28.1099],[-17.104,28.10976],[-17.10403,28.10959],[-17.10372,28.10932],[-17.10405,28.10902],[-17.10372,28.10883],[-17.10375,28.10864],[-17.10356,28.10842],[-17.10396,28.10825],[-17.10411,28.10804],[-17.10397,28.10771],[-17.10402,28.1074],[-17.10418,28.10666],[-17.1045,28.10619],[-17.10442,28.10582],[-17.10422,28.10556],[-17.10386,28.10539],[-17.10418,28.10517],[-17.10382,28.10473],[-17.10389,28.10454],[-17.10414,28.10446],[-17.10434,28.10417],[-17.10427,28.10361],[-17.10412,28.10341],[-17.10377,28.10327],[-17.10332,28.10336],[-17.10322,28.10353],[-17.1028,28.10341],[-17.10249,28.10351],[-17.10218,28.10399],[-17.10173,28.104],[-17.10182,28.10355],[-17.10196,28.10348],[-17.10173,28.10327],[-17.10195,28.10326],[-17.10203,28.10316],[-17.10197,28.10297],[-17.10179,28.10283],[-17.1018,28.10254],[-17.10149,28.10222],[-17.10107,28.10215],[-17.10083,28.10197],[-17.10079,28.10185],[-17.10108,28.10146],[-17.10093,28.101],[-17.10118,28.1008],[-17.10147,28.10035],[-17.10165,28.10028],[-17.10174,28.10008],[-17.10167,28.09996],[-17.10134,28.09995],[-17.10088,28.09975],[-17.10079,28.09963],[-17.10097,28.0994],[-17.10149,28.0993],[-17.10161,28.0987],[-17.10116,28.09793],[-17.10061,28.09761],[-17.10033,28.09763],[-17.09933,28.09818],[-17.09927,28.09805],[-17.09894,28.09818],[-17.09891,28.09805],[-17.09914,28.09777],[-17.09899,28.09763],[-17.09918,28.09751],[-17.09869,28.09726],[-17.09913,28.09685],[-17.0992,28.09664],[-17.09903,28.09635],[-17.09873,28.09633],[-17.09899,28.09604],[-17.09891,28.09599],[-17.09862,28.09605],[-17.09848,28.09563],[-17.09864,28.0955],[-17.09952,28.09526],[-17.10006,28.09483],[-17.10061,28.09389],[-17.10133,28.09372],[-17.1022,28.09324],[-17.10383,28.09213],[-17.10404,28.09187],[-17.10457,28.09163],[-17.10424,28.09112],[-17.10465,28.09147],[-17.10484,28.09142],[-17.10536,28.09077],[-17.10568,28.0898],[-17.10524,28.0897],[-17.10527,28.08939],[-17.105,28.08933],[-17.10461,28.08954],[-17.10445,28.08949],[-17.10439,28.08943],[-17.10453,28.08927],[-17.10507,28.08914],[-17.10592,28.08941]],[[-17.11054,28.09997],[-17.11103,28.10023],[-17.11154,28.09974],[-17.11219,28.1001],[-17.11253,28.09984],[-17.11281,28.10003],[-17.1138,28.09922],[-17.11344,28.09861],[-17.11262,28.0976],[-17.11264,28.0971],[-17.11186,28.09581],[-17.11115,28.09553],[-17.1106,28.0951],[-17.10995,28.0949],[-17.10952,28.09486],[-17.10969,28.09507],[-17.10952,28.0957],[-17.10939,28.09585],[-17.11004,28.09703],[-17.10969,28.09822],[-17.10922,28.09852],[-17.10903,28.09894],[-17.11066,28.09982],[-17.11054,28.09997]]]}},{"type":"Feature","properties":{"id":"3803601006"},"geometry":{"type":"Polygon","coordinates":[[[-17.10619,28.08931],[-17.10613,28.08909],[-17.1063,28.08919],[-17.10641,28.08902],[-17.10702,28.08724],[-17.10732,28.0869],[-17.10779,28.08554],[-17.10885,28.08384],[-17.10871,28.08377],[-17.10887,28.08351],[-17.10915,28.08365],[-17.10817,28.08523],[-17.10843,28.08535],[-17.10767,28.08661],[-17.10788,28.08667],[-17.10742,28.08806],[-17.10749,28.08801],[-17.10792,28.08818],[-17.10788,28.08828],[-17.10779,28.08826],[-17.10785,28.08836],[-17.10777,28.08835],[-17.10746,28.08929],[-17.10952,28.08987],[-17.10958,28.08968],[-17.11009,28.09062],[-17.11031,28.09072],[-17.11035,28.09097],[-17.11173,28.09304],[-17.11267,28.09419],[-17.11544,28.09708],[-17.11603,28.09793],[-17.11587,28.09792],[-17.1142,28.09673],[-17.11297,28.09547],[-17.1115,28.09435],[-17.11086,28.09373],[-17.10985,28.09307],[-17.10915,28.09242],[-17.109,28.09205],[-17.10887,28.09195],[-17.10896,28.0908],[-17.10886,28.08986],[-17.10685,28.08923],[-17.10619,28.08931]]]}},{"type":"Feature","properties":{"id":"3803601007"},"geometry":{"type":"Polygon","coordinates":[[[-17.11054,28.09997],[-17.11066,28.09982],[-17.10903,28.09894],[-17.10922,28.09852],[-17.10969,28.09822],[-17.11004,28.09703],[-17.10939,28.09585],[-17.10952,28.0957],[-17.10969,28.09507],[-17.10952,28.09486],[-17.10995,28.0949],[-17.1106,28.0951],[-17.11115,28.09553],[-17.11186,28.09581],[-17.11264,28.0971],[-17.11262,28.0976],[-17.11344,28.09861],[-17.1138,28.09922],[-17.11281,28.10003],[-17.11253,28.09984],[-17.11219,28.1001],[-17.11154,28.09974],[-17.11103,28.10023],[-17.11054,28.09997]]]}},{"type":"Feature","properties":{"id":"3803601008"},"geometry":{"type":"Polygon","coordinates":[[[-17.11293,28.09447],[-17.11501,28.09313],[-17.11532,28.0947],[-17.11619,28.09578],[-17.11692,28.09622],[-17.11729,28.09634],[-17.11783,28.09684],[-17.11933,28.0976],[-17.12001,28.09809],[-17.12057,28.09835],[-17.12186,28.09915],[-17.12229,28.09956],[-17.12358,28.1002],[-17.12469,28.10105],[-17.12371,28.10226],[-17.12268,28.10323],[-17.11926,28.10059],[-17.1172,28.09878],[-17.11603,28.09793],[-17.11544,28.09708],[-17.11293,28.09447]]]}}]}