{"type":"FeatureCollection","features":[{"type":"Feature","properties":{"id":"3804201001"},"geometry":{"type":"Polygon","coordinates":[[[-16.81126,28.36777],[-16.81196,28.36704],[-16.81308,28.36675],[-16.81369,28.3662],[-16.81409,28.36597],[-16.81422,28.36578],[-16.81414,28.36487],[-16.81443,28.36428],[-16.81419,28.36374],[-16.81443,28.3632],[-16.81427,28.36271],[-16.81369,28.36206],[-16.81362,28.36184],[-16.81372,28.36157],[-16.81421,28.3611],[-16.81409,28.35991],[-16.8142,28.35948],[-16.81432,28.35935],[-16.81432,28.35884],[-16.81454,28.35808],[-16.81429,28.35689],[-16.81445,28.35646],[-16.81405,28.35546],[-16.81397,28.35435],[-16.81428,28.35397],[-16.81491,28.35414],[-16.81588,28.35384],[-16.81617,28.35368],[-16.81642,28.35332],[-16.81632,28.35284],[-16.81481,28.35263],[-16.81496,28.35252],[-16.82245,28.35317],[-16.82438,28.35357],[-16.82436,28.35395],[-16.8245,28.3543],[-16.82442,28.35466],[-16.82454,28.35497],[-16.82493,28.35538],[-16.82493,28.35556],[-16.82442,28.35603],[-16.82422,28.3565],[-16.82389,28.35676],[-16.82374,28.35705],[-16.82315,28.35761],[-16.82313,28.35795],[-16.82341,28.35853],[-16.82307,28.35945],[-16.82262,28.36016],[-16.82267,28.36056],[-16.82208,28.36097],[-16.82147,28.36161],[-16.82145,28.36208],[-16.82123,28.36241],[-16.82117,28.36285],[-16.82042,28.36403],[-16.81977,28.36473],[-16.81994,28.36543],[-16.81994,28.36649],[-16.82013,28.36663],[-16.82018,28.36696],[-16.81976,28.36783],[-16.81894,28.36865],[-16.81821,28.36906],[-16.81612,28.36876],[-16.81552,28.36896],[-16.8149,28.36903],[-16.81417,28.36893],[-16.81318,28.36942],[-16.81126,28.36777]]]}},{"type":"Feature","properties":{"id":"3804201002"},"geometry":{"type":"Polygon","coordinates":[[[-16.80968,28.37668],[-16.81016,28.37618],[-16.8105,28.37557],[-16.8109,28.37509],[-16.81083,28.37454],[-16.81095,28.37401],[-16.81113,28.37369],[-16.81155,28.37327],[-16.81172,28.3729],[-16.81173,28.3727],[-16.81161,28.37252],[-16.81043,28.37186],[-16.81088,28.37153],[-16.81091,28.37131],[-16.81069,28.37112],[-16.81068,28.37065],[-16.80987,28.37015],[-16.80979,28.36992],[-16.81057,28.36928],[-16.81115,28.36847],[-16.81126,28.36777],[-16.81318,28.36942],[-16.81417,28.36893],[-16.8149,28.36903],[-16.81552,28.36896],[-16.81612,28.36876],[-16.81821,28.36906],[-16.81894,28.36865],[-16.81976,28.36783],[-16.82018,28.36696],[-16.82013,28.36663],[-16.82051,28.36669],[-16.82065,28.36679],[-16.82085,28.36724],[-16.82045,28.36794],[-16.82051,28.36895],[-16.82072,28.36945],[-16.82062,28.36979],[-16.81967,28.37133],[-16.81944,28.37223],[-16.81835,28.3736],[-16.81829,28.37432],[-16.81862,28.37571],[-16.8182,28.37653],[-16.81736,28.37704],[-16.81733,28.37758],[-16.81688,28.37811],[-16.81547,28.3791],[-16.8151,28.3793],[-16.81466,28.37936],[-16.81451,28.37965],[-16.81412,28.37957],[-16.81356,28.3798],[-16.81274,28.37942],[-16.81265,28.37903],[-16.813,28.3786],[-16.81266,28.37841],[-16.81243,28.37843],[-16.81251,28.37827],[-16.81205,28.3779],[-16.81187,28.37793],[-16.81171,28.37807],[-16.81177,28.37775],[-16.81145,28.37768],[-16.81112,28.37773],[-16.81105,28.37764],[-16.81069,28.37789],[-16.81048,28.37782],[-16.81043,28.37791],[-16.81029,28.37783],[-16.81021,28.3779],[-16.8101,28.37786],[-16.81,28.37744],[-16.8101,28.37711],[-16.80968,28.37668]]]}},{"type":"Feature","properties":{"id":"3804201003"},"geometry":{"type":"Polygon","coordinates":[[[-16.79358,28.37488],[-16.79389,28.37445],[-16.7944,28.37418],[-16.79467,28.37407],[-16.79563,28.37395],[-16.79576,28.37371],[-16.79609,28.37344],[-16.79711,28.37151],[-16.79691,28.37083],[-16.79699,28.37072],[-16.79685,28.37044],[-16.79704,28.37003],[-16.79689,28.36977],[-16.7969,28.36914],[-16.79678,28.36846],[-16.79611,28.36732],[-16.79611,28.36683],[-16.79597,28.36648],[-16.79581,28.36619],[-16.79565,28.36609],[-16.79576,28.36563],[-16.79558,28.36469],[-16.79574,28.36398],[-16.79568,28.36303],[-16.79588,28.3612],[-16.79522,28.36016],[-16.79471,28.35778],[-16.79403,28.35681],[-16.7934,28.35629],[-16.7932,28.35562],[-16.79322,28.35493],[-16.79304,28.3532],[-16.79316,28.35263],[-16.79461,28.35001],[-16.79617,28.3491],[-16.7965,28.3482],[-16.7969,28.34752],[-16.79749,28.34689],[-16.79773,28.34546],[-16.79823,28.34482],[-16.79826,28.34424],[-16.79912,28.3425],[-16.80003,28.3394],[-16.80026,28.33905],[-16.80038,28.33849],[-16.8007,28.33823],[-16.80076,28.33806],[-16.80062,28.33757],[-16.80097,28.33645],[-16.80093,28.33612],[-16.80116,28.33529],[-16.80165,28.33419],[-16.80186,28.33344],[-16.80225,28.33304],[-16.80347,28.33102],[-16.80368,28.3304],[-16.8047,28.32873],[-16.80592,28.3264],[-16.80644,28.32563],[-16.80785,28.32481],[-16.80789,28.32432],[-16.80833,28.32366],[-16.80834,28.32298],[-16.8085,28.32238],[-16.80839,28.32197],[-16.80843,28.32138],[-16.80877,28.32068],[-16.80881,28.31989],[-16.80892,28.3195],[-16.80872,28.31814],[-16.80879,28.31763],[-16.80782,28.31592],[-16.80766,28.31549],[-16.80767,28.31513],[-16.80722,28.31481],[-16.80687,28.3144],[-16.8069,28.31394],[-16.80704,28.31354],[-16.80697,28.31334],[-16.80753,28.31317],[-16.80784,28.31212],[-16.80815,28.31198],[-16.80875,28.31192],[-16.80975,28.31136],[-16.81035,28.3114],[-16.81128,28.31114],[-16.81207,28.31128],[-16.81234,28.31125],[-16.81285,28.31162],[-16.81492,28.31208],[-16.81594,28.31208],[-16.81657,28.31255],[-16.81831,28.31432],[-16.8192,28.31439],[-16.82008,28.31432],[-16.82048,28.31441],[-16.82057,28.31456],[-16.82164,28.31455],[-16.8243,28.31645],[-16.82467,28.31692],[-16.8248,28.31802],[-16.82474,28.3183],[-16.82504,28.3188],[-16.82541,28.31873],[-16.82601,28.31886],[-16.82644,28.31929],[-16.82657,28.31945],[-16.82654,28.31995],[-16.82667,28.32028],[-16.82738,28.32076],[-16.82757,28.32172],[-16.82788,28.32247],[-16.82856,28.32266],[-16.82848,28.32282],[-16.82849,28.32328],[-16.82865,28.32435],[-16.82893,28.32481],[-16.82923,28.32493],[-16.82962,28.32493],[-16.83055,28.32478],[-16.83072,28.3249],[-16.83047,28.32677],[-16.83069,28.32749],[-16.83176,28.3289],[-16.83197,28.32935],[-16.83172,28.33045],[-16.83175,28.33082],[-16.83203,28.33149],[-16.83197,28.33359],[-16.83231,28.33406],[-16.83318,28.33455],[-16.83341,28.33481],[-16.83406,28.33607],[-16.83413,28.33638],[-16.83417,28.33706],[-16.83402,28.33767],[-16.83405,28.33906],[-16.83364,28.34004],[-16.83363,28.34045],[-16.83388,28.34132],[-16.83389,28.34221],[-16.83413,28.3427],[-16.83401,28.34324],[-16.83361,28.34424],[-16.83393,28.34581],[-16.83397,28.34682],[-16.83352,28.34772],[-16.83346,28.34819],[-16.83361,28.34862],[-16.83396,28.34912],[-16.83394,28.35065],[-16.83402,28.35095],[-16.83453,28.35143],[-16.83459,28.35164],[-16.83548,28.35273],[-16.83528,28.35294],[-16.83529,28.35405],[-16.83491,28.35477],[-16.83485,28.35527],[-16.83473,28.35546],[-16.83357,28.35666],[-16.829,28.35473],[-16.82651,28.35401],[-16.82245,28.35317],[-16.81496,28.35252],[-16.81481,28.35263],[-16.81632,28.35284],[-16.81642,28.35332],[-16.81617,28.35368],[-16.81588,28.35384],[-16.81491,28.35414],[-16.81428,28.35397],[-16.81397,28.35435],[-16.81405,28.35546],[-16.81445,28.35646],[-16.81429,28.35689],[-16.81454,28.35808],[-16.81432,28.35884],[-16.81432,28.35935],[-16.8142,28.35948],[-16.81409,28.35991],[-16.81421,28.3611],[-16.81372,28.36157],[-16.81362,28.36184],[-16.81369,28.36206],[-16.81427,28.36271],[-16.81443,28.3632],[-16.81418,28.36377],[-16.81443,28.36428],[-16.81414,28.36487],[-16.81423,28.36574],[-16.81409,28.36597],[-16.81369,28.3662],[-16.81308,28.36675],[-16.81208,28.36698],[-16.81182,28.36715],[-16.81126,28.36777],[-16.81118,28.36842],[-16.81063,28.36922],[-16.8098,28.36986],[-16.80987,28.37015],[-16.81068,28.37065],[-16.81069,28.37112],[-16.81091,28.37131],[-16.81088,28.37153],[-16.81043,28.37186],[-16.81156,28.37249],[-16.81174,28.37277],[-16.81161,28.37318],[-16.81111,28.37372],[-16.81091,28.37411],[-16.81082,28.3746],[-16.8109,28.37509],[-16.8101,28.37626],[-16.80968,28.37668],[-16.80908,28.37638],[-16.80831,28.37616],[-16.80727,28.37612],[-16.80659,28.37627],[-16.80647,28.37645],[-16.80667,28.37677],[-16.8062,28.37711],[-16.80622,28.37739],[-16.80613,28.37759],[-16.8062,28.37779],[-16.80603,28.3775],[-16.80585,28.37754],[-16.80599,28.37794],[-16.80577,28.378],[-16.80594,28.37844],[-16.80584,28.3785],[-16.80588,28.37878],[-16.80557,28.37853],[-16.80541,28.37888],[-16.80527,28.37868],[-16.80517,28.37889],[-16.80505,28.37889],[-16.80509,28.37898],[-16.80485,28.37891],[-16.80467,28.37906],[-16.8044,28.37905],[-16.8039,28.3781],[-16.80378,28.3776],[-16.8035,28.37751],[-16.80342,28.3774],[-16.80334,28.37743],[-16.80324,28.37713],[-16.80301,28.37693],[-16.80266,28.37709],[-16.80254,28.37671],[-16.80182,28.37684],[-16.80087,28.37679],[-16.80064,28.37694],[-16.80027,28.37703],[-16.80031,28.37716],[-16.80012,28.37705],[-16.80002,28.37708],[-16.7999,28.37722],[-16.79967,28.37727],[-16.79951,28.37753],[-16.79962,28.37797],[-16.79946,28.3779],[-16.79912,28.37795],[-16.79883,28.37779],[-16.79853,28.37741],[-16.7983,28.37739],[-16.79821,28.37758],[-16.79781,28.37773],[-16.79724,28.37734],[-16.79665,28.37731],[-16.79665,28.37715],[-16.79656,28.37712],[-16.79662,28.37708],[-16.79652,28.37702],[-16.79635,28.37713],[-16.79564,28.37726],[-16.79511,28.37696],[-16.79496,28.37699],[-16.79459,28.37678],[-16.7944,28.37681],[-16.79436,28.37657],[-16.79454,28.37645],[-16.79448,28.37629],[-16.79456,28.37622],[-16.79441,28.37607],[-16.79428,28.37607],[-16.79438,28.37591],[-16.79352,28.37571],[-16.7938,28.37549],[-16.79363,28.37523],[-16.79358,28.37488]]]}},{"type":"Feature","properties":{"id":"3804201004"},"geometry":{"type":"Polygon","coordinates":[[[-16.81451,28.37965],[-16.81466,28.37936],[-16.8151,28.3793],[-16.81547,28.3791],[-16.81688,28.37811],[-16.81733,28.37758],[-16.81736,28.37704],[-16.8182,28.37653],[-16.81862,28.37571],[-16.81829,28.37432],[-16.81835,28.3736],[-16.81944,28.37223],[-16.81967,28.37133],[-16.82043,28.37016],[-16.82072,28.36945],[-16.82051,28.36895],[-16.82045,28.36794],[-16.82052,28.36769],[-16.82084,28.36733],[-16.82084,28.36715],[-16.82058,28.36673],[-16.82004,28.36662],[-16.81995,28.36653],[-16.81994,28.36543],[-16.81976,28.36477],[-16.82042,28.36403],[-16.82117,28.36285],[-16.82123,28.36241],[-16.82145,28.36208],[-16.82147,28.36161],[-16.82208,28.36097],[-16.82267,28.36056],[-16.82262,28.36016],[-16.82307,28.35945],[-16.82341,28.35853],[-16.82313,28.35795],[-16.82315,28.35761],[-16.82374,28.35705],[-16.82389,28.35676],[-16.82422,28.3565],[-16.82442,28.35603],[-16.82493,28.35556],[-16.82493,28.35538],[-16.82454,28.35497],[-16.82442,28.35466],[-16.8245,28.3543],[-16.82436,28.35395],[-16.82438,28.35357],[-16.82651,28.35401],[-16.829,28.35473],[-16.83357,28.35666],[-16.83349,28.35692],[-16.83293,28.35772],[-16.83315,28.35865],[-16.83353,28.36189],[-16.83399,28.36351],[-16.83484,28.36879],[-16.83264,28.3722],[-16.83238,28.37275],[-16.83173,28.37948],[-16.83105,28.38369],[-16.83077,28.38668],[-16.83007,28.3923],[-16.82962,28.39224],[-16.82943,28.39245],[-16.82953,28.39269],[-16.82924,28.39303],[-16.82945,28.39337],[-16.82906,28.39329],[-16.829,28.39307],[-16.82887,28.39304],[-16.82831,28.39355],[-16.82806,28.39362],[-16.82797,28.39334],[-16.8277,28.39319],[-16.82788,28.3931],[-16.82807,28.3932],[-16.82807,28.39314],[-16.82797,28.39297],[-16.82777,28.39297],[-16.82784,28.39273],[-16.82763,28.3923],[-16.82747,28.39214],[-16.82724,28.39211],[-16.82703,28.39218],[-16.8266,28.39256],[-16.82628,28.39243],[-16.82608,28.3922],[-16.82568,28.39213],[-16.8257,28.39203],[-16.82591,28.392],[-16.82586,28.3919],[-16.82607,28.39189],[-16.82614,28.39175],[-16.82606,28.39165],[-16.8256,28.39169],[-16.82548,28.39159],[-16.82551,28.39123],[-16.82577,28.39061],[-16.82576,28.39037],[-16.82565,28.3903],[-16.82539,28.39046],[-16.82533,28.39075],[-16.82523,28.39082],[-16.8253,28.39048],[-16.82512,28.39047],[-16.82541,28.39025],[-16.8253,28.38972],[-16.82549,28.38931],[-16.82534,28.38907],[-16.82552,28.38902],[-16.82547,28.3888],[-16.82535,28.38887],[-16.82516,28.38876],[-16.8255,28.38867],[-16.82561,28.38837],[-16.82557,28.38816],[-16.82544,28.38815],[-16.82525,28.3879],[-16.82557,28.38747],[-16.82537,28.38746],[-16.82544,28.38733],[-16.82533,28.38731],[-16.82537,28.38721],[-16.82511,28.38703],[-16.82498,28.38707],[-16.82488,28.38692],[-16.82472,28.38718],[-16.82437,28.38726],[-16.82422,28.38743],[-16.82405,28.38744],[-16.82359,28.38799],[-16.82315,28.38803],[-16.82309,28.38793],[-16.82334,28.38763],[-16.82307,28.38778],[-16.82292,28.38775],[-16.82283,28.38761],[-16.82292,28.3874],[-16.82268,28.38726],[-16.82266,28.38707],[-16.82225,28.38679],[-16.82186,28.38678],[-16.82182,28.38663],[-16.82192,28.38652],[-16.82175,28.38628],[-16.82142,28.38611],[-16.82117,28.38617],[-16.82096,28.38607],[-16.82102,28.38587],[-16.82126,28.38569],[-16.82111,28.38537],[-16.8208,28.38526],[-16.82104,28.38451],[-16.82037,28.38454],[-16.82041,28.38439],[-16.82019,28.38446],[-16.82001,28.38435],[-16.81973,28.3846],[-16.81955,28.38439],[-16.8194,28.38442],[-16.81929,28.38427],[-16.81916,28.38432],[-16.81912,28.38446],[-16.81901,28.38446],[-16.81892,28.38408],[-16.81858,28.38383],[-16.81827,28.38387],[-16.81782,28.38368],[-16.81784,28.38349],[-16.81821,28.38346],[-16.81811,28.38334],[-16.81779,28.3834],[-16.8175,28.38364],[-16.81738,28.38352],[-16.81745,28.38328],[-16.81707,28.38318],[-16.81695,28.38298],[-16.81701,28.3829],[-16.81718,28.38304],[-16.81733,28.38303],[-16.81714,28.3829],[-16.81717,28.38275],[-16.81707,28.38268],[-16.81749,28.38225],[-16.81731,28.38222],[-16.81728,28.38232],[-16.81718,28.38231],[-16.81722,28.38219],[-16.81706,28.38202],[-16.81715,28.38186],[-16.81697,28.38188],[-16.81698,28.38167],[-16.81662,28.38178],[-16.81663,28.38149],[-16.81599,28.38202],[-16.81587,28.38196],[-16.81556,28.38211],[-16.81534,28.38182],[-16.81517,28.38186],[-16.81507,28.38203],[-16.81487,28.38192],[-16.81485,28.38177],[-16.81441,28.38137],[-16.81434,28.38117],[-16.81444,28.3808],[-16.81484,28.38039],[-16.81451,28.37965]]]}}]}