{"type":"FeatureCollection","features":[{"type":"Feature","properties":{"id":"3804901001"},"geometry":{"type":"Polygon","coordinates":[[[-17.31962,28.10167],[-17.32097,28.10024],[-17.32171,28.0993],[-17.32242,28.09798],[-17.32382,28.09695],[-17.32527,28.09604],[-17.32579,28.09543],[-17.32616,28.09435],[-17.32664,28.09337],[-17.32703,28.09201],[-17.3273,28.08995],[-17.32762,28.08886],[-17.32739,28.08849],[-17.3277,28.08664],[-17.32701,28.0846],[-17.32711,28.08415],[-17.32826,28.08347],[-17.32914,28.08279],[-17.33042,28.08149],[-17.33094,28.08234],[-17.33138,28.08259],[-17.33214,28.08253],[-17.33287,28.08208],[-17.33273,28.08186],[-17.33291,28.08143],[-17.33118,28.08024],[-17.33116,28.08005],[-17.33133,28.07995],[-17.33328,28.08129],[-17.33403,28.08201],[-17.33497,28.0825],[-17.33542,28.08298],[-17.33611,28.08346],[-17.33652,28.08393],[-17.337,28.0843],[-17.33794,28.08457],[-17.33796,28.08486],[-17.33739,28.08559],[-17.33752,28.08585],[-17.33777,28.08593],[-17.33801,28.08576],[-17.33832,28.08585],[-17.33889,28.08585],[-17.33928,28.08607],[-17.33953,28.08659],[-17.33947,28.0871],[-17.33971,28.08818],[-17.33956,28.08903],[-17.33979,28.0902],[-17.34091,28.09305],[-17.3418,28.09446],[-17.34224,28.09481],[-17.34251,28.0949],[-17.34291,28.09485],[-17.34335,28.09459],[-17.34392,28.0946],[-17.34421,28.0947],[-17.34441,28.09493],[-17.34458,28.09551],[-17.34473,28.09571],[-17.34524,28.09592],[-17.34583,28.09634],[-17.34675,28.09649],[-17.3476,28.09696],[-17.34837,28.0977],[-17.34848,28.09799],[-17.34872,28.09825],[-17.34887,28.09888],[-17.34897,28.09894],[-17.34869,28.0991],[-17.34847,28.09972],[-17.34775,28.10008],[-17.34729,28.10079],[-17.34708,28.1014],[-17.3468,28.10144],[-17.34484,28.10014],[-17.34264,28.09898],[-17.33994,28.09727],[-17.33817,28.09685],[-17.33693,28.09695],[-17.33526,28.09771],[-17.33386,28.09862],[-17.33275,28.09958],[-17.33183,28.10073],[-17.33076,28.10157],[-17.329,28.10248],[-17.32723,28.1016],[-17.32338,28.10142],[-17.3205,28.10167],[-17.31962,28.10167]]]}},{"type":"Feature","properties":{"id":"3804901002"},"geometry":{"type":"Polygon","coordinates":[[[-17.34203,28.15371],[-17.34075,28.15304],[-17.33831,28.15218],[-17.33522,28.15258],[-17.3334,28.15298],[-17.33274,28.15305],[-17.33074,28.15253],[-17.32953,28.15197],[-17.32856,28.15139],[-17.32413,28.14768],[-17.3226,28.14632],[-17.32203,28.14533],[-17.32072,28.14412],[-17.31948,28.14337],[-17.31842,28.14302],[-17.31706,28.14306],[-17.31636,28.1432],[-17.31557,28.14366],[-17.31498,28.14418],[-17.31376,28.145],[-17.31332,28.14521],[-17.31242,28.14587],[-17.3118,28.14665],[-17.31018,28.14967],[-17.30968,28.15025],[-17.3087,28.15101],[-17.30797,28.15137],[-17.30613,28.15181],[-17.30297,28.15202],[-17.29954,28.15159],[-17.29757,28.15115],[-17.29468,28.15076],[-17.29357,28.15041],[-17.29084,28.14863],[-17.2896,28.14741],[-17.28733,28.1463],[-17.28553,28.14387],[-17.28416,28.14276],[-17.28222,28.13947],[-17.28086,28.13556],[-17.28049,28.13479],[-17.27937,28.1335],[-17.2763,28.13211],[-17.27561,28.13163],[-17.27439,28.13043],[-17.27345,28.12989],[-17.27175,28.12972],[-17.2705,28.12977],[-17.26837,28.1291],[-17.26777,28.12867],[-17.26865,28.12814],[-17.27079,28.12778],[-17.27233,28.12709],[-17.27317,28.12687],[-17.2755,28.12695],[-17.27789,28.12722],[-17.28021,28.12729],[-17.28178,28.12724],[-17.28379,28.12684],[-17.28556,28.12617],[-17.28825,28.12391],[-17.2889,28.12294],[-17.28893,28.12174],[-17.2891,28.12065],[-17.28962,28.11965],[-17.29194,28.11809],[-17.29479,28.11674],[-17.29567,28.11651],[-17.29711,28.11592],[-17.30083,28.11418],[-17.30347,28.11245],[-17.30404,28.11199],[-17.3072,28.10872],[-17.30841,28.10793],[-17.30989,28.10734],[-17.31252,28.106],[-17.31612,28.10325],[-17.31849,28.10231],[-17.31962,28.10167],[-17.3205,28.10167],[-17.32338,28.10142],[-17.32723,28.1016],[-17.329,28.10248],[-17.33076,28.10157],[-17.33183,28.10073],[-17.33275,28.09958],[-17.33386,28.09862],[-17.33526,28.09771],[-17.33693,28.09695],[-17.33817,28.09685],[-17.33994,28.09727],[-17.34264,28.09898],[-17.34484,28.10014],[-17.3468,28.10144],[-17.34708,28.1014],[-17.34714,28.1024],[-17.34689,28.10345],[-17.34697,28.10386],[-17.34669,28.10449],[-17.34658,28.10528],[-17.34714,28.10675],[-17.34691,28.10786],[-17.34696,28.10851],[-17.3468,28.10925],[-17.34707,28.11026],[-17.34714,28.11148],[-17.34736,28.1122],[-17.34783,28.11261],[-17.34768,28.11265],[-17.34729,28.11252],[-17.34725,28.11325],[-17.34691,28.11341],[-17.3467,28.11365],[-17.34657,28.11437],[-17.34638,28.11484],[-17.34661,28.11625],[-17.34686,28.11664],[-17.34697,28.11702],[-17.3476,28.11725],[-17.34745,28.11756],[-17.34742,28.11813],[-17.34602,28.11864],[-17.34605,28.11889],[-17.34624,28.11917],[-17.34621,28.11937],[-17.34613,28.11949],[-17.34568,28.11962],[-17.34557,28.11991],[-17.34562,28.12013],[-17.3459,28.12034],[-17.34602,28.12074],[-17.34568,28.12124],[-17.34534,28.12142],[-17.34511,28.12176],[-17.34531,28.12211],[-17.34514,28.12301],[-17.34519,28.1239],[-17.34452,28.12426],[-17.34431,28.12456],[-17.34418,28.12515],[-17.34374,28.12545],[-17.34367,28.12558],[-17.34354,28.12554],[-17.34323,28.12569],[-17.34252,28.12646],[-17.34198,28.12768],[-17.34211,28.12799],[-17.34226,28.12807],[-17.34226,28.12826],[-17.34203,28.12887],[-17.34157,28.12948],[-17.34149,28.13009],[-17.34122,28.13062],[-17.34124,28.13093],[-17.34105,28.1313],[-17.34148,28.13262],[-17.34143,28.13298],[-17.34158,28.13378],[-17.34196,28.13427],[-17.34258,28.13428],[-17.34273,28.13436],[-17.34246,28.13479],[-17.34243,28.13517],[-17.34259,28.13552],[-17.34279,28.1356],[-17.34281,28.13574],[-17.34274,28.13591],[-17.34253,28.13605],[-17.3427,28.13644],[-17.34286,28.13664],[-17.34307,28.13667],[-17.34315,28.13688],[-17.34292,28.13713],[-17.34258,28.13732],[-17.34241,28.13761],[-17.34247,28.13797],[-17.34268,28.13803],[-17.34248,28.13836],[-17.34273,28.13865],[-17.34269,28.1389],[-17.34325,28.13897],[-17.34321,28.13904],[-17.3427,28.1391],[-17.34268,28.13929],[-17.34296,28.13937],[-17.34304,28.13951],[-17.34271,28.13986],[-17.34273,28.14057],[-17.34287,28.14084],[-17.34317,28.14107],[-17.34442,28.14177],[-17.3446,28.1418],[-17.34487,28.1417],[-17.34514,28.14182],[-17.34545,28.14213],[-17.34517,28.14238],[-17.3452,28.14249],[-17.34556,28.14261],[-17.34619,28.143],[-17.34645,28.14361],[-17.34641,28.14369],[-17.34589,28.14382],[-17.3461,28.14427],[-17.34583,28.1446],[-17.34533,28.14485],[-17.3452,28.14527],[-17.34552,28.14586],[-17.34579,28.14592],[-17.34585,28.146],[-17.34578,28.14666],[-17.3459,28.147],[-17.34589,28.14745],[-17.34635,28.14752],[-17.34644,28.14763],[-17.34636,28.14777],[-17.34659,28.14793],[-17.34663,28.14814],[-17.34624,28.14836],[-17.34638,28.14848],[-17.34601,28.14866],[-17.34494,28.14888],[-17.34504,28.14926],[-17.34546,28.14936],[-17.34505,28.14971],[-17.34411,28.14968],[-17.34403,28.14976],[-17.3442,28.1501],[-17.34516,28.15069],[-17.34502,28.15078],[-17.34473,28.15074],[-17.34453,28.1508],[-17.34444,28.15099],[-17.34452,28.15125],[-17.34566,28.15139],[-17.34574,28.15152],[-17.34558,28.15171],[-17.34566,28.15189],[-17.346,28.15183],[-17.34612,28.15189],[-17.34633,28.1518],[-17.34645,28.15186],[-17.34605,28.15216],[-17.34558,28.15224],[-17.34488,28.15253],[-17.34372,28.15258],[-17.34285,28.15247],[-17.34328,28.15277],[-17.34313,28.15286],[-17.34293,28.15323],[-17.34234,28.15336],[-17.34235,28.15348],[-17.34262,28.1536],[-17.34261,28.15371],[-17.34203,28.15371]]]}}]}