{"type":"FeatureCollection","features":[{"type":"Feature","properties":{"id":"3805101001"},"geometry":{"type":"Polygon","coordinates":[[[-16.46273,28.43918],[-16.46228,28.43861],[-16.46177,28.43863],[-16.46117,28.43853],[-16.46068,28.43828],[-16.45973,28.43819],[-16.4592,28.43829],[-16.45897,28.43809],[-16.45852,28.43792],[-16.45824,28.4376],[-16.45785,28.43742],[-16.45709,28.43727],[-16.45672,28.43695],[-16.45643,28.43683],[-16.45556,28.43679],[-16.45389,28.43605],[-16.45338,28.436],[-16.45292,28.43584],[-16.4523,28.43588],[-16.45189,28.43544],[-16.45126,28.43531],[-16.45118,28.43513],[-16.45049,28.43472],[-16.44936,28.43365],[-16.44851,28.43319],[-16.44814,28.43283],[-16.44709,28.43255],[-16.4468,28.4318],[-16.44593,28.43119],[-16.4455,28.43108],[-16.44386,28.43029],[-16.44327,28.43035],[-16.44229,28.43024],[-16.44187,28.42978],[-16.44131,28.42936],[-16.44034,28.42893],[-16.43969,28.42876],[-16.43915,28.42875],[-16.43869,28.42843],[-16.43813,28.42853],[-16.43791,28.4283],[-16.43765,28.42837],[-16.43704,28.42882],[-16.43685,28.42884],[-16.43674,28.4288],[-16.43653,28.42847],[-16.43483,28.42798],[-16.43442,28.42798],[-16.43276,28.42727],[-16.43263,28.42707],[-16.4324,28.42693],[-16.43138,28.42703],[-16.43088,28.42729],[-16.43021,28.42718],[-16.42969,28.42693],[-16.42874,28.42687],[-16.42853,28.42694],[-16.42802,28.42734],[-16.42734,28.42691],[-16.4267,28.42677],[-16.42628,28.42678],[-16.42611,28.42669],[-16.42594,28.42654],[-16.42594,28.42639],[-16.4253,28.42581],[-16.42507,28.42544],[-16.42479,28.42545],[-16.42433,28.42521],[-16.42381,28.42455],[-16.42364,28.42406],[-16.42322,28.42341],[-16.42249,28.42291],[-16.42129,28.4217],[-16.42126,28.42136],[-16.42092,28.42081],[-16.42042,28.4204],[-16.41951,28.42],[-16.41928,28.41945],[-16.41893,28.41896],[-16.41886,28.41888],[-16.41843,28.41883],[-16.41774,28.41808],[-16.41769,28.41732],[-16.41736,28.41694],[-16.41692,28.41667],[-16.41672,28.41606],[-16.41616,28.41527],[-16.41617,28.41509],[-16.418,28.41388],[-16.41816,28.41354],[-16.41873,28.41284],[-16.4186,28.41224],[-16.41837,28.41202],[-16.41851,28.41161],[-16.41831,28.41119],[-16.41882,28.40956],[-16.41873,28.40901],[-16.42043,28.40914],[-16.4213,28.40859],[-16.4216,28.40819],[-16.42375,28.40934],[-16.42493,28.41071],[-16.42486,28.41227],[-16.42453,28.41311],[-16.42388,28.41404],[-16.42387,28.41426],[-16.42419,28.41474],[-16.42457,28.415],[-16.42502,28.41555],[-16.42569,28.41576],[-16.42625,28.4163],[-16.42832,28.41747],[-16.4285,28.41791],[-16.42881,28.41821],[-16.42915,28.41835],[-16.43007,28.41844],[-16.43052,28.41873],[-16.43088,28.41964],[-16.4313,28.42],[-16.43164,28.42045],[-16.43198,28.42062],[-16.43289,28.42216],[-16.4333,28.42257],[-16.43404,28.42287],[-16.43438,28.42321],[-16.43486,28.42323],[-16.4354,28.42366],[-16.43571,28.4237],[-16.43589,28.42382],[-16.4363,28.4238],[-16.43705,28.42391],[-16.43772,28.42416],[-16.43774,28.4244],[-16.4379,28.42466],[-16.43795,28.42515],[-16.43838,28.42556],[-16.43873,28.42563],[-16.43896,28.42558],[-16.44006,28.42607],[-16.44055,28.4258],[-16.44077,28.4258],[-16.44134,28.42596],[-16.4422,28.42606],[-16.44331,28.42612],[-16.44378,28.42604],[-16.44424,28.42624],[-16.44539,28.42636],[-16.44562,28.42654],[-16.44623,28.42655],[-16.44666,28.42667],[-16.44773,28.4265],[-16.44803,28.42664],[-16.44822,28.42702],[-16.44891,28.42792],[-16.44938,28.4282],[-16.45056,28.42835],[-16.45142,28.42878],[-16.45212,28.42899],[-16.45235,28.42884],[-16.45347,28.42906],[-16.45444,28.42991],[-16.45552,28.43049],[-16.45592,28.43097],[-16.45618,28.43104],[-16.45653,28.43151],[-16.45708,28.43197],[-16.45782,28.43239],[-16.45812,28.43296],[-16.45878,28.4333],[-16.45917,28.43394],[-16.45957,28.43424],[-16.46029,28.435],[-16.46064,28.43554],[-16.46099,28.43568],[-16.46144,28.43608],[-16.46203,28.43633],[-16.46255,28.43676],[-16.46302,28.43691],[-16.46374,28.43749],[-16.46416,28.43756],[-16.46441,28.43775],[-16.46517,28.43808],[-16.46543,28.43851],[-16.46576,28.43941],[-16.46613,28.43972],[-16.46624,28.43995],[-16.46651,28.44015],[-16.46674,28.44048],[-16.46589,28.44067],[-16.46477,28.44045],[-16.46464,28.44025],[-16.46432,28.44017],[-16.46335,28.43945],[-16.46273,28.43918]]]}},{"type":"Feature","properties":{"id":"3805101002"},"geometry":{"type":"Polygon","coordinates":[[[-16.46674,28.44048],[-16.46651,28.44015],[-16.46624,28.43995],[-16.46613,28.43972],[-16.46576,28.43941],[-16.46543,28.43851],[-16.46517,28.43808],[-16.46441,28.43775],[-16.46416,28.43756],[-16.46374,28.43749],[-16.46356,28.43736],[-16.46463,28.43662],[-16.466,28.43618],[-16.46799,28.43514],[-16.46949,28.43459],[-16.47026,28.434],[-16.47068,28.43382],[-16.47089,28.43403],[-16.47198,28.43347],[-16.47307,28.43394],[-16.47283,28.43415],[-16.47326,28.43405],[-16.47535,28.43501],[-16.47574,28.43466],[-16.47614,28.43398],[-16.47699,28.43435],[-16.4781,28.43512],[-16.47912,28.43604],[-16.47955,28.4371],[-16.48024,28.43768],[-16.4804,28.43806],[-16.48037,28.43875],[-16.48012,28.4393],[-16.48049,28.43996],[-16.47996,28.43999],[-16.4795,28.44017],[-16.47914,28.44064],[-16.47905,28.44102],[-16.47876,28.44115],[-16.47779,28.44123],[-16.47695,28.44094],[-16.47661,28.44098],[-16.47624,28.44136],[-16.47538,28.44191],[-16.47447,28.44295],[-16.47405,28.44295],[-16.47385,28.44304],[-16.47347,28.44273],[-16.47305,28.44257],[-16.47258,28.44253],[-16.4718,28.44222],[-16.47091,28.44227],[-16.47011,28.44201],[-16.46967,28.442],[-16.46947,28.44189],[-16.46901,28.4413],[-16.46872,28.44129],[-16.46819,28.44093],[-16.46789,28.44092],[-16.46772,28.44069],[-16.46712,28.44065],[-16.46674,28.44048]]]}},{"type":"Feature","properties":{"id":"3805101003"},"geometry":{"type":"Polygon","coordinates":[[[-16.459,28.43365],[-16.45878,28.4333],[-16.45812,28.43296],[-16.45782,28.43239],[-16.45708,28.43197],[-16.45653,28.43151],[-16.45618,28.43104],[-16.45592,28.43097],[-16.45552,28.43049],[-16.45444,28.42991],[-16.45347,28.42906],[-16.45235,28.42884],[-16.45212,28.42899],[-16.45142,28.42878],[-16.45056,28.42835],[-16.44938,28.4282],[-16.44891,28.42792],[-16.44822,28.42702],[-16.44803,28.42664],[-16.44784,28.42654],[-16.44762,28.42649],[-16.44666,28.42667],[-16.44623,28.42655],[-16.44562,28.42654],[-16.44539,28.42636],[-16.44424,28.42624],[-16.44378,28.42604],[-16.44331,28.42612],[-16.4422,28.42606],[-16.44134,28.42596],[-16.44077,28.4258],[-16.44055,28.4258],[-16.44006,28.42607],[-16.43896,28.42558],[-16.43873,28.42563],[-16.43838,28.42556],[-16.43795,28.42515],[-16.4379,28.42466],[-16.43774,28.4244],[-16.43772,28.42416],[-16.43705,28.42391],[-16.4363,28.4238],[-16.43589,28.42382],[-16.43571,28.4237],[-16.4354,28.42366],[-16.43486,28.42323],[-16.43438,28.42321],[-16.43404,28.42287],[-16.4333,28.42257],[-16.43289,28.42216],[-16.43198,28.42062],[-16.43164,28.42045],[-16.4313,28.42],[-16.43088,28.41964],[-16.43052,28.41873],[-16.43007,28.41844],[-16.42915,28.41835],[-16.42881,28.41821],[-16.4285,28.41791],[-16.42832,28.41747],[-16.42625,28.4163],[-16.42569,28.41576],[-16.42502,28.41555],[-16.42457,28.415],[-16.42419,28.41474],[-16.42387,28.41426],[-16.42388,28.41404],[-16.42453,28.41311],[-16.42486,28.41227],[-16.42493,28.41071],[-16.42375,28.40934],[-16.4216,28.40819],[-16.42255,28.40678],[-16.42262,28.40481],[-16.42275,28.40446],[-16.4231,28.40406],[-16.42365,28.40391],[-16.42427,28.40388],[-16.42464,28.40365],[-16.42471,28.40328],[-16.42416,28.40126],[-16.42415,28.40074],[-16.42441,28.39962],[-16.42435,28.3994],[-16.42368,28.39885],[-16.42338,28.39848],[-16.42324,28.39805],[-16.42364,28.39689],[-16.42427,28.3961],[-16.42473,28.39588],[-16.42539,28.39588],[-16.42645,28.3957],[-16.4277,28.39562],[-16.42807,28.3954],[-16.42894,28.39526],[-16.42964,28.39496],[-16.43025,28.39492],[-16.43044,28.39479],[-16.4332,28.39477],[-16.43475,28.39409],[-16.43642,28.39301],[-16.43608,28.39376],[-16.43514,28.39433],[-16.43508,28.3952],[-16.4354,28.39631],[-16.43635,28.39722],[-16.43672,28.39823],[-16.43695,28.3994],[-16.43721,28.39956],[-16.43781,28.3994],[-16.4383,28.39937],[-16.43961,28.39991],[-16.4402,28.40053],[-16.44081,28.40092],[-16.44095,28.4015],[-16.44162,28.402],[-16.44222,28.40268],[-16.44232,28.40298],[-16.44222,28.40328],[-16.44229,28.40351],[-16.44308,28.40391],[-16.44361,28.40404],[-16.44361,28.40436],[-16.44391,28.40442],[-16.44439,28.40471],[-16.44451,28.40493],[-16.44448,28.40524],[-16.4442,28.40562],[-16.44478,28.40601],[-16.44483,28.40661],[-16.44519,28.40679],[-16.44554,28.40743],[-16.44593,28.40763],[-16.44648,28.40831],[-16.44697,28.40849],[-16.44739,28.40924],[-16.44787,28.40963],[-16.44791,28.40995],[-16.44821,28.41017],[-16.44813,28.41122],[-16.44859,28.41142],[-16.44872,28.4121],[-16.44911,28.41246],[-16.44914,28.41298],[-16.44967,28.41346],[-16.44955,28.41428],[-16.44971,28.41485],[-16.44967,28.41527],[-16.44974,28.41542],[-16.45044,28.41541],[-16.45065,28.41555],[-16.45073,28.41599],[-16.45131,28.41639],[-16.45167,28.41654],[-16.45244,28.41646],[-16.45306,28.4166],[-16.45332,28.4167],[-16.45391,28.41723],[-16.45448,28.41744],[-16.45496,28.41844],[-16.45563,28.4189],[-16.4561,28.41945],[-16.45668,28.41978],[-16.4575,28.4207],[-16.4581,28.42104],[-16.45837,28.4214],[-16.45888,28.4218],[-16.45971,28.42292],[-16.46117,28.42374],[-16.46119,28.42388],[-16.46077,28.42513],[-16.46219,28.42579],[-16.4642,28.42716],[-16.46621,28.42877],[-16.46642,28.42908],[-16.468,28.43035],[-16.46839,28.4308],[-16.46764,28.43095],[-16.46685,28.43126],[-16.46547,28.43116],[-16.46465,28.43133],[-16.46353,28.4319],[-16.46296,28.43203],[-16.46262,28.43249],[-16.4622,28.4325],[-16.46143,28.43288],[-16.46039,28.43375],[-16.45998,28.43372],[-16.45959,28.43394],[-16.45919,28.43362],[-16.459,28.43365]]]}},{"type":"Feature","properties":{"id":"3805101004"},"geometry":{"type":"Polygon","coordinates":[[[-16.43642,28.39301],[-16.43763,28.3922],[-16.44102,28.39133],[-16.44194,28.39093],[-16.44283,28.39035],[-16.44368,28.39185],[-16.44436,28.39561],[-16.4445,28.39579],[-16.44794,28.39917],[-16.44799,28.39937],[-16.44868,28.39954],[-16.44904,28.40011],[-16.44947,28.40048],[-16.45,28.40077],[-16.45026,28.40124],[-16.45076,28.40161],[-16.45143,28.40191],[-16.45239,28.40359],[-16.453,28.40389],[-16.45372,28.40448],[-16.45432,28.40446],[-16.45482,28.40459],[-16.45527,28.40494],[-16.45569,28.40574],[-16.45696,28.40663],[-16.45753,28.40779],[-16.45771,28.40939],[-16.45796,28.4095],[-16.45863,28.4103],[-16.45887,28.41071],[-16.45904,28.41128],[-16.45969,28.41148],[-16.45983,28.41179],[-16.46025,28.41208],[-16.46046,28.4131],[-16.4602,28.41482],[-16.46134,28.4155],[-16.46156,28.41585],[-16.46142,28.41631],[-16.46083,28.41651],[-16.46059,28.41682],[-16.46071,28.41701],[-16.46108,28.41729],[-16.46124,28.41762],[-16.46127,28.41803],[-16.4616,28.41835],[-16.46158,28.41868],[-16.46141,28.41897],[-16.46146,28.41929],[-16.46156,28.41938],[-16.46256,28.41902],[-16.46285,28.41906],[-16.46256,28.41963],[-16.46261,28.42014],[-16.46362,28.42075],[-16.46407,28.42148],[-16.46438,28.42165],[-16.4648,28.42207],[-16.46486,28.42242],[-16.4653,28.42335],[-16.46557,28.42342],[-16.46614,28.42315],[-16.46653,28.42311],[-16.46748,28.42345],[-16.46817,28.42427],[-16.46883,28.42469],[-16.46883,28.42485],[-16.46844,28.42514],[-16.46851,28.42534],[-16.47013,28.42603],[-16.47061,28.42646],[-16.47084,28.42642],[-16.47112,28.42575],[-16.47152,28.42692],[-16.47105,28.42774],[-16.47086,28.42841],[-16.47027,28.42954],[-16.47026,28.42996],[-16.47006,28.43032],[-16.47009,28.43051],[-16.46839,28.4308],[-16.468,28.43035],[-16.46642,28.42908],[-16.46621,28.42877],[-16.4642,28.42716],[-16.46219,28.42579],[-16.46077,28.42513],[-16.46119,28.42388],[-16.46117,28.42374],[-16.45971,28.42292],[-16.45888,28.4218],[-16.45837,28.4214],[-16.4581,28.42104],[-16.4575,28.4207],[-16.45668,28.41978],[-16.4561,28.41945],[-16.45563,28.4189],[-16.45496,28.41844],[-16.45448,28.41744],[-16.45391,28.41723],[-16.45332,28.4167],[-16.45306,28.4166],[-16.45244,28.41646],[-16.45167,28.41654],[-16.45131,28.41639],[-16.45073,28.41599],[-16.45065,28.41555],[-16.45044,28.41541],[-16.44974,28.41542],[-16.44967,28.41527],[-16.44971,28.41485],[-16.44955,28.41428],[-16.44967,28.41346],[-16.44914,28.41298],[-16.44911,28.41246],[-16.44872,28.4121],[-16.44859,28.41142],[-16.44813,28.41122],[-16.44821,28.41017],[-16.44791,28.40995],[-16.44787,28.40963],[-16.44739,28.40924],[-16.44697,28.40849],[-16.44648,28.40831],[-16.44593,28.40763],[-16.44554,28.40743],[-16.44519,28.40679],[-16.44483,28.40661],[-16.44478,28.40601],[-16.4442,28.40562],[-16.44448,28.40524],[-16.44451,28.40493],[-16.44439,28.40471],[-16.44391,28.40442],[-16.44361,28.40436],[-16.44361,28.40404],[-16.44308,28.40391],[-16.44229,28.40351],[-16.44222,28.40328],[-16.44232,28.40298],[-16.44222,28.40268],[-16.44162,28.402],[-16.44095,28.4015],[-16.44081,28.40092],[-16.4402,28.40053],[-16.43961,28.39991],[-16.4383,28.39937],[-16.43781,28.3994],[-16.43721,28.39956],[-16.43695,28.3994],[-16.43672,28.39823],[-16.43635,28.39722],[-16.4354,28.39631],[-16.43508,28.3952],[-16.43514,28.39433],[-16.43608,28.39376],[-16.43642,28.39301]]]}},{"type":"Feature","properties":{"id":"3805101005"},"geometry":{"type":"Polygon","coordinates":[[[-16.47193,28.43351],[-16.47091,28.43232],[-16.47021,28.432],[-16.47026,28.43142],[-16.47006,28.43032],[-16.47026,28.42996],[-16.47027,28.42954],[-16.47086,28.42841],[-16.47105,28.42774],[-16.47152,28.42692],[-16.47111,28.42567],[-16.47118,28.42559],[-16.47149,28.42567],[-16.47178,28.42585],[-16.47206,28.42644],[-16.47286,28.4265],[-16.47274,28.42711],[-16.47289,28.42736],[-16.47317,28.42746],[-16.4737,28.42716],[-16.47409,28.42725],[-16.47452,28.42764],[-16.47562,28.42789],[-16.47588,28.42815],[-16.47613,28.42824],[-16.47639,28.42812],[-16.47674,28.42779],[-16.47699,28.42717],[-16.47713,28.42715],[-16.47739,28.4273],[-16.47762,28.42726],[-16.4778,28.42715],[-16.47782,28.42686],[-16.47806,28.42664],[-16.47866,28.42646],[-16.47881,28.42711],[-16.47777,28.42846],[-16.47694,28.42997],[-16.47538,28.43108],[-16.47426,28.43206],[-16.4733,28.43371],[-16.47307,28.43394],[-16.47193,28.43351]]]}},{"type":"Feature","properties":{"id":"3805101006"},"geometry":{"type":"Polygon","coordinates":[[[-16.48049,28.43996],[-16.48012,28.4393],[-16.4804,28.43853],[-16.4804,28.43806],[-16.48029,28.43774],[-16.47955,28.4371],[-16.47912,28.43604],[-16.47802,28.43505],[-16.47699,28.43435],[-16.47614,28.43398],[-16.47574,28.43466],[-16.47535,28.43501],[-16.47326,28.43405],[-16.47283,28.43415],[-16.4733,28.43371],[-16.47426,28.43206],[-16.47538,28.43108],[-16.47694,28.42997],[-16.47777,28.42846],[-16.47881,28.42711],[-16.47866,28.42646],[-16.4796,28.42622],[-16.47972,28.42631],[-16.47973,28.42663],[-16.48007,28.42665],[-16.48024,28.42688],[-16.48015,28.42705],[-16.47977,28.4273],[-16.47976,28.42745],[-16.48014,28.42767],[-16.4812,28.4279],[-16.48198,28.42873],[-16.48257,28.42908],[-16.48291,28.42953],[-16.48342,28.42999],[-16.48408,28.43029],[-16.48436,28.43113],[-16.4841,28.4315],[-16.48406,28.43177],[-16.48415,28.43194],[-16.48466,28.4321],[-16.48507,28.43256],[-16.48569,28.43302],[-16.4863,28.43322],[-16.48682,28.43353],[-16.48694,28.43378],[-16.48701,28.43457],[-16.48797,28.43617],[-16.48821,28.43677],[-16.4879,28.43721],[-16.48766,28.43733],[-16.48757,28.43747],[-16.48729,28.43752],[-16.48693,28.43774],[-16.48608,28.43876],[-16.48551,28.43905],[-16.48524,28.43932],[-16.4845,28.43935],[-16.48379,28.43959],[-16.48371,28.43982],[-16.4839,28.44023],[-16.48343,28.44],[-16.48316,28.44024],[-16.48281,28.44025],[-16.48194,28.44072],[-16.48119,28.44078],[-16.48095,28.44061],[-16.48075,28.44002],[-16.48049,28.43996]]]}},{"type":"Feature","properties":{"id":"3805101007"},"geometry":{"type":"Polygon","coordinates":[[[-16.459,28.43365],[-16.45919,28.43362],[-16.45959,28.43394],[-16.45998,28.43372],[-16.46039,28.43375],[-16.46143,28.43288],[-16.4622,28.4325],[-16.46262,28.43249],[-16.46296,28.43203],[-16.46353,28.4319],[-16.46465,28.43133],[-16.46547,28.43116],[-16.46685,28.43126],[-16.46764,28.43095],[-16.47009,28.43051],[-16.47026,28.43142],[-16.47021,28.432],[-16.47091,28.43232],[-16.47193,28.43351],[-16.47089,28.43403],[-16.47068,28.43382],[-16.47026,28.434],[-16.46949,28.43459],[-16.46799,28.43514],[-16.466,28.43618],[-16.46463,28.43662],[-16.46356,28.43736],[-16.46302,28.43691],[-16.46255,28.43676],[-16.46203,28.43633],[-16.46144,28.43608],[-16.46099,28.43568],[-16.46064,28.43554],[-16.46029,28.435],[-16.45957,28.43424],[-16.45917,28.43394],[-16.459,28.43365]]]}}]}