{"type":"FeatureCollection","features":[{"type":"Feature","properties":{"id":"3900801001"},"geometry":{"type":"Polygon","coordinates":[[[-3.81714,43.40176],[-3.81756,43.40086],[-3.81848,43.40026],[-3.82038,43.40011],[-3.81975,43.40144],[-3.82024,43.40166],[-3.82164,43.40193],[-3.82056,43.40225],[-3.81844,43.40222],[-3.81813,43.40228],[-3.81714,43.40176]]]}},{"type":"Feature","properties":{"id":"3900801002"},"geometry":{"type":"Polygon","coordinates":[[[-3.82145,43.39831],[-3.82282,43.39951],[-3.82161,43.39991],[-3.82161,43.40012],[-3.82056,43.40004],[-3.82003,43.40015],[-3.81849,43.40025],[-3.81884,43.39992],[-3.82028,43.3992],[-3.82145,43.39831]]]}},{"type":"Feature","properties":{"id":"3900801003"},"geometry":{"type":"Polygon","coordinates":[[[-3.82038,43.40011],[-3.82056,43.40004],[-3.82133,43.40006],[-3.82453,43.4008],[-3.82419,43.40089],[-3.82304,43.40152],[-3.82186,43.40189],[-3.82139,43.40191],[-3.82024,43.40166],[-3.81975,43.40144],[-3.82038,43.40011]]]}},{"type":"Feature","properties":{"id":"3900801004"},"geometry":{"type":"Polygon","coordinates":[[[-3.82161,43.40012],[-3.82161,43.39991],[-3.82424,43.39897],[-3.82521,43.39851],[-3.8254,43.39906],[-3.82522,43.40074],[-3.82453,43.4008],[-3.82161,43.40012]]]}},{"type":"Feature","properties":{"id":"3900801005"},"geometry":{"type":"Polygon","coordinates":[[[-3.81445,43.40213],[-3.81422,43.40138],[-3.8162,43.40064],[-3.81659,43.40127],[-3.81711,43.40179],[-3.81813,43.40228],[-3.81844,43.40222],[-3.82017,43.40228],[-3.82091,43.40219],[-3.82317,43.40147],[-3.8243,43.40084],[-3.82533,43.40077],[-3.82525,43.40118],[-3.82628,43.40196],[-3.82662,43.40244],[-3.82684,43.40308],[-3.82737,43.40346],[-3.82685,43.40473],[-3.82963,43.40623],[-3.82896,43.40653],[-3.82896,43.40693],[-3.82844,43.40737],[-3.82825,43.40768],[-3.82698,43.41084],[-3.82596,43.41175],[-3.82458,43.41234],[-3.82198,43.41288],[-3.82136,43.41236],[-3.82044,43.40924],[-3.81922,43.40687],[-3.81912,43.40689],[-3.81907,43.40681],[-3.81931,43.40647],[-3.81883,43.40632],[-3.81884,43.40626],[-3.81846,43.4061],[-3.81743,43.40749],[-3.81731,43.40753],[-3.81724,43.40743],[-3.81821,43.40617],[-3.81756,43.40584],[-3.81678,43.40598],[-3.81684,43.40609],[-3.81679,43.4061],[-3.81666,43.40579],[-3.81681,43.40592],[-3.81749,43.4058],[-3.81771,43.40554],[-3.81824,43.40519],[-3.8191,43.40492],[-3.81903,43.4048],[-3.81655,43.40551],[-3.81652,43.40544],[-3.81799,43.40499],[-3.81783,43.4047],[-3.81693,43.4049],[-3.81859,43.40444],[-3.81854,43.40434],[-3.81685,43.40481],[-3.81651,43.40434],[-3.817,43.40417],[-3.81689,43.40397],[-3.81637,43.40402],[-3.816,43.40341],[-3.81665,43.4032],[-3.81657,43.40307],[-3.81594,43.40325],[-3.8158,43.403],[-3.81612,43.40289],[-3.81592,43.40215],[-3.81445,43.40213]]]}},{"type":"Feature","properties":{"id":"3900801006"},"geometry":{"type":"Polygon","coordinates":[[[-3.82145,43.39831],[-3.81597,43.39499],[-3.81572,43.39472],[-3.81563,43.3944],[-3.81929,43.39543],[-3.8213,43.39634],[-3.82176,43.39492],[-3.82601,43.39551],[-3.825,43.39584],[-3.82508,43.39627],[-3.82529,43.39644],[-3.82488,43.39711],[-3.82482,43.39787],[-3.82521,43.39851],[-3.82282,43.39951],[-3.82145,43.39831]]]}},{"type":"Feature","properties":{"id":"3900801007"},"geometry":{"type":"Polygon","coordinates":[[[-3.81621,43.40065],[-3.81746,43.3998],[-3.8193,43.39804],[-3.8199,43.39734],[-3.82145,43.39831],[-3.82028,43.3992],[-3.81884,43.39992],[-3.81849,43.40025],[-3.81765,43.40079],[-3.81714,43.40176],[-3.81659,43.40127],[-3.81621,43.40065]]]}},{"type":"Feature","properties":{"id":"3900801008"},"geometry":{"type":"Polygon","coordinates":[[[-3.80807,43.39558],[-3.80851,43.39469],[-3.8095,43.39369],[-3.8109,43.39288],[-3.81149,43.39267],[-3.81485,43.39224],[-3.81581,43.39484],[-3.8199,43.39734],[-3.8193,43.39804],[-3.81686,43.40028],[-3.81621,43.40065],[-3.81422,43.40138],[-3.81382,43.40013],[-3.81292,43.39856],[-3.81231,43.3978],[-3.81091,43.39646],[-3.80989,43.39582],[-3.80928,43.39566],[-3.80807,43.39558]]]}},{"type":"Feature","properties":{"id":"3900801009"},"geometry":{"type":"Polygon","coordinates":[[[-3.81563,43.3944],[-3.81485,43.39224],[-3.81642,43.3923],[-3.81933,43.39289],[-3.82145,43.39344],[-3.82362,43.39351],[-3.82696,43.39393],[-3.82726,43.3939],[-3.82667,43.39495],[-3.82687,43.39526],[-3.82601,43.39551],[-3.82176,43.39492],[-3.8213,43.39634],[-3.81929,43.39543],[-3.81563,43.3944]]]}},{"type":"Feature","properties":{"id":"3900802001"},"geometry":{"type":"Polygon","coordinates":[[[-3.82896,43.40693],[-3.82896,43.40653],[-3.82963,43.40623],[-3.82685,43.40473],[-3.82737,43.40346],[-3.82684,43.40308],[-3.82662,43.40244],[-3.82628,43.40196],[-3.82525,43.40118],[-3.82539,43.40083],[-3.82522,43.40074],[-3.8254,43.39906],[-3.82524,43.39855],[-3.82484,43.39796],[-3.8248,43.39755],[-3.82493,43.39696],[-3.82529,43.39644],[-3.82508,43.39627],[-3.825,43.39584],[-3.82687,43.39526],[-3.82667,43.39495],[-3.82726,43.3939],[-3.8294,43.39373],[-3.83025,43.39379],[-3.83329,43.39449],[-3.83314,43.39534],[-3.83339,43.39605],[-3.8342,43.39721],[-3.83435,43.39772],[-3.83701,43.39794],[-3.83754,43.39804],[-3.83796,43.39825],[-3.83825,43.39849],[-3.8388,43.39932],[-3.83942,43.39947],[-3.84237,43.4022],[-3.83752,43.40492],[-3.83701,43.40507],[-3.83828,43.40569],[-3.83734,43.40665],[-3.83613,43.40739],[-3.83553,43.40746],[-3.83508,43.40708],[-3.83457,43.40698],[-3.83286,43.40695],[-3.83074,43.40667],[-3.82963,43.40666],[-3.82896,43.40693]]]}},{"type":"Feature","properties":{"id":"3900802002"},"geometry":{"type":"Polygon","coordinates":[[[-3.84389,43.40302],[-3.84237,43.4022],[-3.83942,43.39947],[-3.8388,43.39932],[-3.83825,43.39849],[-3.83796,43.39825],[-3.83754,43.39804],[-3.83701,43.39794],[-3.83435,43.39772],[-3.8342,43.39721],[-3.83339,43.39605],[-3.83314,43.39534],[-3.83329,43.39449],[-3.83396,43.39466],[-3.83436,43.39465],[-3.83588,43.39405],[-3.83751,43.39297],[-3.83958,43.39137],[-3.84166,43.38952],[-3.8427,43.38913],[-3.84335,43.38933],[-3.84453,43.39011],[-3.84502,43.39017],[-3.84557,43.3901],[-3.84601,43.38991],[-3.84746,43.38806],[-3.84811,43.38766],[-3.84982,43.38602],[-3.8576,43.38778],[-3.86099,43.3899],[-3.85825,43.3979],[-3.85496,43.40068],[-3.84966,43.40572],[-3.84867,43.40511],[-3.84891,43.4047],[-3.84879,43.40373],[-3.84892,43.40293],[-3.84873,43.40282],[-3.84859,43.40278],[-3.84825,43.40319],[-3.8478,43.40327],[-3.84671,43.4038],[-3.84639,43.40368],[-3.84644,43.40326],[-3.84597,43.40234],[-3.84503,43.40301],[-3.84435,43.40264],[-3.84389,43.40302]]]}},{"type":"Feature","properties":{"id":"3900802003"},"geometry":{"type":"Polygon","coordinates":[[[-3.83553,43.40746],[-3.83613,43.40739],[-3.83715,43.40677],[-3.83828,43.40569],[-3.83983,43.40606],[-3.84158,43.40711],[-3.84199,43.40604],[-3.84226,43.40547],[-3.84237,43.40544],[-3.84289,43.40421],[-3.84336,43.40358],[-3.84435,43.40264],[-3.84503,43.40301],[-3.84597,43.40234],[-3.84644,43.40326],[-3.84639,43.40368],[-3.84671,43.4038],[-3.8478,43.40327],[-3.84825,43.40319],[-3.84859,43.40278],[-3.84892,43.40293],[-3.84879,43.40373],[-3.84891,43.4047],[-3.84867,43.40511],[-3.84966,43.40572],[-3.84591,43.40925],[-3.84384,43.41236],[-3.84178,43.41327],[-3.84146,43.41334],[-3.84116,43.41324],[-3.84012,43.41224],[-3.83944,43.41136],[-3.83789,43.41069],[-3.83746,43.41035],[-3.83636,43.40896],[-3.83553,43.40746]]]}},{"type":"Feature","properties":{"id":"3900802004"},"geometry":{"type":"Polygon","coordinates":[[[-3.83828,43.40569],[-3.83701,43.40507],[-3.83752,43.40492],[-3.84242,43.40217],[-3.84389,43.40302],[-3.84289,43.40421],[-3.84237,43.40544],[-3.84226,43.40547],[-3.84199,43.40604],[-3.84158,43.40711],[-3.83983,43.40606],[-3.83828,43.40569]]]}}]}