{"type":"FeatureCollection","features":[{"type":"Feature","properties":{"id":"3901901001"},"geometry":{"type":"Polygon","coordinates":[[[-3.92013,43.34195],[-3.92062,43.34066],[-3.91901,43.33816],[-3.92036,43.33754],[-3.92145,43.33349],[-3.92074,43.33129],[-3.92485,43.32334],[-3.92559,43.32235],[-3.93066,43.31912],[-3.9313,43.31858],[-3.93106,43.31836],[-3.92996,43.31823],[-3.92902,43.3178],[-3.92909,43.31704],[-3.93031,43.31703],[-3.93114,43.31632],[-3.9309,43.31624],[-3.93029,43.31575],[-3.93117,43.31508],[-3.933,43.31502],[-3.93325,43.31436],[-3.9338,43.31437],[-3.9336,43.31372],[-3.93394,43.31214],[-3.93531,43.31131],[-3.93551,43.31075],[-3.93626,43.31021],[-3.9364,43.30918],[-3.9379,43.30828],[-3.939,43.308],[-3.93973,43.30807],[-3.94105,43.30939],[-3.94137,43.30935],[-3.94099,43.30886],[-3.94104,43.30833],[-3.94265,43.30782],[-3.94438,43.30533],[-3.94416,43.30464],[-3.94452,43.30418],[-3.94518,43.30273],[-3.94521,43.30151],[-3.94572,43.30082],[-3.94612,43.29975],[-3.94683,43.29842],[-3.96157,43.30557],[-3.95614,43.3074],[-3.95557,43.30766],[-3.95533,43.30788],[-3.95518,43.30852],[-3.9555,43.30943],[-3.95568,43.30965],[-3.95605,43.3097],[-3.95773,43.30942],[-3.95829,43.30958],[-3.95843,43.30984],[-3.95844,43.31053],[-3.95795,43.31174],[-3.95791,43.31265],[-3.95824,43.31374],[-3.95909,43.31522],[-3.95914,43.31597],[-3.95796,43.31903],[-3.95756,43.32138],[-3.95619,43.32513],[-3.95475,43.32669],[-3.95457,43.32821],[-3.95403,43.32913],[-3.9517,43.33184],[-3.94326,43.33406],[-3.9399,43.33504],[-3.93479,43.33742],[-3.93317,43.33713],[-3.92821,43.33867],[-3.92524,43.33917],[-3.92052,43.34199],[-3.92013,43.34195]]]}},{"type":"Feature","properties":{"id":"3901901002"},"geometry":{"type":"Polygon","coordinates":[[[-3.90419,43.34188],[-3.90393,43.33811],[-3.90494,43.33342],[-3.90492,43.33246],[-3.9044,43.33196],[-3.90394,43.3317],[-3.89971,43.33009],[-3.89609,43.3262],[-3.89416,43.32075],[-3.89287,43.31354],[-3.89798,43.30931],[-3.90143,43.30913],[-3.90885,43.31079],[-3.91414,43.31006],[-3.9184,43.30779],[-3.92407,43.30535],[-3.92606,43.30418],[-3.91992,43.29252],[-3.9195,43.29229],[-3.91964,43.29214],[-3.91983,43.29224],[-3.93147,43.29186],[-3.93713,43.29503],[-3.946,43.29802],[-3.94683,43.29842],[-3.94612,43.29975],[-3.94572,43.30082],[-3.94521,43.30151],[-3.94518,43.30273],[-3.94452,43.30418],[-3.94416,43.30464],[-3.94438,43.30533],[-3.94265,43.30782],[-3.94104,43.30833],[-3.94099,43.30886],[-3.94137,43.30935],[-3.94105,43.30939],[-3.93973,43.30807],[-3.939,43.308],[-3.9379,43.30828],[-3.9364,43.30918],[-3.93626,43.31021],[-3.93551,43.31075],[-3.93531,43.31131],[-3.93394,43.31214],[-3.9336,43.31372],[-3.9338,43.31437],[-3.93325,43.31436],[-3.933,43.31502],[-3.93117,43.31508],[-3.93029,43.31575],[-3.9309,43.31624],[-3.93114,43.31632],[-3.93031,43.31703],[-3.92909,43.31704],[-3.92902,43.3178],[-3.92996,43.31823],[-3.93106,43.31836],[-3.9313,43.31858],[-3.93066,43.31912],[-3.92559,43.32235],[-3.92485,43.32334],[-3.92074,43.33129],[-3.92145,43.33349],[-3.92036,43.33754],[-3.91901,43.33816],[-3.92062,43.34066],[-3.92013,43.34195],[-3.9166,43.34155],[-3.9139,43.3416],[-3.9086,43.34202],[-3.90696,43.34223],[-3.90419,43.34188]]]}}]}