{"type":"FeatureCollection","features":[{"type":"Feature","properties":{"id":"3902601001"},"geometry":{"type":"Polygon","coordinates":[[[-3.8999,43.17252],[-3.90407,43.17347],[-3.9059,43.17085],[-3.9408,43.161],[-3.95366,43.15462],[-3.9543,43.156],[-3.9547,43.15646],[-3.95415,43.15871],[-3.95401,43.16148],[-3.9546,43.16305],[-3.95456,43.16359],[-3.95377,43.1658],[-3.95375,43.16614],[-3.95436,43.16678],[-3.95733,43.16797],[-3.96079,43.16964],[-3.96259,43.16969],[-3.96434,43.17018],[-3.96613,43.17111],[-3.96656,43.17145],[-3.96841,43.17357],[-3.96912,43.175],[-3.96966,43.17563],[-3.97054,43.17604],[-3.97357,43.17672],[-3.97261,43.17744],[-3.97266,43.1811],[-3.97181,43.1829],[-3.96987,43.18585],[-3.96798,43.18773],[-3.96741,43.18806],[-3.96596,43.18848],[-3.96273,43.19024],[-3.96273,43.19033],[-3.96013,43.19077],[-3.95993,43.19127],[-3.95931,43.1917],[-3.95715,43.19227],[-3.95562,43.19228],[-3.95514,43.19224],[-3.95484,43.19212],[-3.95388,43.19237],[-3.95209,43.19306],[-3.95183,43.19359],[-3.95205,43.19381],[-3.95197,43.19388],[-3.95091,43.19389],[-3.95021,43.19371],[-3.94934,43.19423],[-3.94902,43.19422],[-3.94867,43.19382],[-3.94744,43.19492],[-3.94637,43.1951],[-3.9455,43.19606],[-3.94511,43.19669],[-3.94475,43.19681],[-3.94313,43.19659],[-3.94214,43.19656],[-3.94048,43.19692],[-3.93982,43.19826],[-3.93886,43.19979],[-3.93902,43.20029],[-3.93566,43.20342],[-3.93375,43.20504],[-3.9297,43.20709],[-3.92954,43.20675],[-3.92679,43.2051],[-3.92529,43.20444],[-3.92466,43.20393],[-3.92402,43.20358],[-3.92291,43.20334],[-3.92102,43.2025],[-3.92036,43.202],[-3.9192,43.20063],[-3.91728,43.19941],[-3.91443,43.19647],[-3.91325,43.19579],[-3.91152,43.19538],[-3.90989,43.19448],[-3.90954,43.19419],[-3.90903,43.19341],[-3.90849,43.19294],[-3.9078,43.19164],[-3.90723,43.19108],[-3.90692,43.19044],[-3.90686,43.18978],[-3.90633,43.18847],[-3.90643,43.18805],[-3.90758,43.18723],[-3.9081,43.18702],[-3.90883,43.18653],[-3.90943,43.18567],[-3.90983,43.18269],[-3.90971,43.18199],[-3.90896,43.18071],[-3.90849,43.18019],[-3.90646,43.17856],[-3.90579,43.17843],[-3.9047,43.17853],[-3.90448,43.17842],[-3.90403,43.17795],[-3.90392,43.17768],[-3.90388,43.17645],[-3.90342,43.17592],[-3.90273,43.17551],[-3.90206,43.1745],[-3.90093,43.17338],[-3.8999,43.17252]]]}},{"type":"Feature","properties":{"id":"3902601002"},"geometry":{"type":"Polygon","coordinates":[[[-3.9297,43.20709],[-3.93375,43.20504],[-3.93566,43.20342],[-3.93902,43.20029],[-3.93886,43.19979],[-3.93982,43.19826],[-3.94048,43.19692],[-3.94214,43.19656],[-3.94313,43.19659],[-3.94475,43.19681],[-3.94511,43.19669],[-3.9455,43.19606],[-3.94637,43.1951],[-3.94744,43.19492],[-3.94867,43.19382],[-3.94902,43.19422],[-3.94934,43.19423],[-3.95021,43.19371],[-3.95091,43.19389],[-3.95197,43.19388],[-3.95205,43.19381],[-3.95183,43.19359],[-3.95209,43.19306],[-3.95388,43.19237],[-3.95484,43.19212],[-3.95514,43.19224],[-3.95562,43.19228],[-3.95715,43.19227],[-3.95931,43.1917],[-3.95993,43.19127],[-3.96013,43.19077],[-3.96273,43.19033],[-3.96273,43.19024],[-3.96596,43.18848],[-3.96741,43.18806],[-3.96798,43.18773],[-3.96987,43.18585],[-3.97181,43.1829],[-3.97266,43.1811],[-3.97261,43.17744],[-3.97357,43.17672],[-3.97395,43.17692],[-3.97587,43.17848],[-3.97657,43.1793],[-3.97667,43.17972],[-3.97819,43.18226],[-3.97828,43.18304],[-3.9782,43.18448],[-3.97857,43.18698],[-3.97808,43.18862],[-3.97839,43.19],[-3.97895,43.19123],[-3.97911,43.19205],[-3.97888,43.19333],[-3.97907,43.19411],[-3.97945,43.19463],[-3.97958,43.19517],[-3.97937,43.19577],[-3.97889,43.19618],[-3.97762,43.1967],[-3.98027,43.2059],[-3.98985,43.22355],[-4.00198,43.23285],[-3.99609,43.24359],[-3.99665,43.24449],[-3.99766,43.24543],[-3.99867,43.24605],[-3.99922,43.24661],[-3.99903,43.24851],[-3.99908,43.24889],[-3.99934,43.24925],[-3.99803,43.24956],[-3.99123,43.24573],[-3.99004,43.24624],[-3.98941,43.24632],[-3.98782,43.24681],[-3.98634,43.24766],[-3.98508,43.24817],[-3.98204,43.24896],[-3.98022,43.24975],[-3.97962,43.24987],[-3.97766,43.24993],[-3.97382,43.25178],[-3.9732,43.25254],[-3.97211,43.25326],[-3.96975,43.25514],[-3.9684,43.25638],[-3.96304,43.25705],[-3.96342,43.26438],[-3.96572,43.26798],[-3.96528,43.26986],[-3.95271,43.27625],[-3.94478,43.27811],[-3.94377,43.27571],[-3.9433,43.27496],[-3.9429,43.27436],[-3.94102,43.27232],[-3.94062,43.27111],[-3.94059,43.26922],[-3.94071,43.26877],[-3.94125,43.26793],[-3.94318,43.26626],[-3.9435,43.26587],[-3.94482,43.26275],[-3.94531,43.26048],[-3.94521,43.25962],[-3.9449,43.25846],[-3.94496,43.25677],[-3.94404,43.25559],[-3.94394,43.25525],[-3.94396,43.25485],[-3.94467,43.25308],[-3.94472,43.25221],[-3.94448,43.25144],[-3.9442,43.25107],[-3.94262,43.24987],[-3.94248,43.24942],[-3.94263,43.24892],[-3.94343,43.24819],[-3.94407,43.24729],[-3.94508,43.24551],[-3.94567,43.24483],[-3.9462,43.24337],[-3.94639,43.24112],[-3.94628,43.24092],[-3.9453,43.24065],[-3.94481,43.24025],[-3.94471,43.24002],[-3.94472,43.23796],[-3.94456,43.23766],[-3.94354,43.23672],[-3.94343,43.23647],[-3.94394,43.23421],[-3.9444,43.2331],[-3.94492,43.23216],[-3.94532,43.23055],[-3.94564,43.23002],[-3.94611,43.22859],[-3.94614,43.22751],[-3.94587,43.22662],[-3.94517,43.22581],[-3.94464,43.22488],[-3.94403,43.22302],[-3.94303,43.22203],[-3.9421,43.22148],[-3.93952,43.22056],[-3.93907,43.22018],[-3.93889,43.21949],[-3.93936,43.21795],[-3.93945,43.21731],[-3.93916,43.2167],[-3.93882,43.2164],[-3.93789,43.2159],[-3.93615,43.21523],[-3.93552,43.21465],[-3.93481,43.2137],[-3.93317,43.21277],[-3.9321,43.2116],[-3.93136,43.21028],[-3.92978,43.20957],[-3.9294,43.20898],[-3.92938,43.20838],[-3.92976,43.20751],[-3.9297,43.20709]]]}}]}