{"type":"FeatureCollection","features":[{"type":"Feature","properties":{"id":"3902701001"},"geometry":{"type":"Polygon","coordinates":[[[-4.1454,42.98925],[-4.14524,42.98863],[-4.14516,42.98714],[-4.14593,42.98617],[-4.1489,42.98178],[-4.14898,42.98107],[-4.1493,42.98065],[-4.14942,42.97964],[-4.15013,42.97859],[-4.15027,42.97742],[-4.15049,42.97706],[-4.15073,42.9769],[-4.15105,42.97682],[-4.15205,42.97606],[-4.15386,42.975],[-4.15642,42.97389],[-4.16425,42.97849],[-4.16351,42.98027],[-4.1665,42.98528],[-4.16353,42.98732],[-4.16104,42.98714],[-4.158,42.98744],[-4.157,42.98743],[-4.15499,42.98711],[-4.15456,42.98696],[-4.15141,42.98841],[-4.15075,42.98841],[-4.14825,42.98912],[-4.14784,42.98905],[-4.14768,42.98887],[-4.14656,42.98931],[-4.14617,42.98957],[-4.14588,42.98961],[-4.14566,42.98934],[-4.1454,42.98925]]]}},{"type":"Feature","properties":{"id":"3902701002"},"geometry":{"type":"Polygon","coordinates":[[[-4.07813,43.03502],[-4.07943,43.03222],[-4.08191,43.02997],[-4.08384,43.02541],[-4.08389,43.02503],[-4.08347,43.02297],[-4.08302,43.02241],[-4.08154,43.02127],[-4.08135,43.01987],[-4.0807,43.01756],[-4.08255,43.01549],[-4.08476,43.01351],[-4.08697,43.01248],[-4.08835,43.00721],[-4.08927,43.0046],[-4.08929,43.00344],[-4.0893,43.00169],[-4.08871,43.00017],[-4.08848,42.99823],[-4.08523,42.99531],[-4.0839,42.99392],[-4.08255,42.99282],[-4.08146,42.99223],[-4.08063,42.99201],[-4.07936,42.99141],[-4.07741,42.99038],[-4.07803,42.98755],[-4.07854,42.9827],[-4.07882,42.97827],[-4.07959,42.97517],[-4.08403,42.97023],[-4.08553,42.96622],[-4.08648,42.96506],[-4.08707,42.96398],[-4.0884,42.9599],[-4.08334,42.95938],[-4.07698,42.95445],[-4.07362,42.94767],[-4.07457,42.94805],[-4.07564,42.94832],[-4.07637,42.94822],[-4.07844,42.94062],[-4.07971,42.93712],[-4.08016,42.93633],[-4.08053,42.93604],[-4.08322,42.93287],[-4.0854,42.93041],[-4.08629,42.92958],[-4.08944,42.92601],[-4.09074,42.92533],[-4.0941,42.92331],[-4.09763,42.92288],[-4.10161,42.92226],[-4.10405,42.922],[-4.10442,42.92182],[-4.10529,42.92079],[-4.11321,42.92073],[-4.11672,42.919],[-4.1172,42.91885],[-4.11973,42.91873],[-4.12131,42.91895],[-4.12192,42.91893],[-4.12614,42.91794],[-4.12909,42.91946],[-4.13077,42.92019],[-4.1316,42.92073],[-4.1336,42.92142],[-4.1357,42.9219],[-4.13805,42.92224],[-4.13168,42.93063],[-4.13011,42.93311],[-4.1289,42.93408],[-4.12886,42.93434],[-4.12937,42.93789],[-4.13014,42.93882],[-4.13062,42.93919],[-4.13143,42.93959],[-4.13324,42.94125],[-4.13671,42.94333],[-4.13799,42.9446],[-4.13824,42.94503],[-4.13965,42.94565],[-4.14402,42.9473],[-4.14453,42.9474],[-4.14862,42.94746],[-4.15016,42.94706],[-4.15629,42.94461],[-4.15864,42.94382],[-4.15981,42.94409],[-4.16473,42.94614],[-4.17108,42.9479],[-4.17622,42.94918],[-4.17968,42.94978],[-4.18514,42.95029],[-4.18438,42.9515],[-4.18349,42.95434],[-4.18232,42.95697],[-4.17982,42.96124],[-4.1792,42.96194],[-4.17763,42.96325],[-4.17228,42.9686],[-4.17095,42.97056],[-4.16955,42.97295],[-4.16748,42.97585],[-4.16705,42.97691],[-4.16695,42.97834],[-4.16583,42.97834],[-4.16425,42.97849],[-4.15235,42.9715],[-4.14861,42.97252],[-4.14515,42.97453],[-4.14175,42.9797],[-4.13915,42.98576],[-4.13826,42.98563],[-4.13685,42.98569],[-4.13618,42.98592],[-4.13476,42.98669],[-4.13455,42.98692],[-4.13423,42.98863],[-4.13338,42.99008],[-4.13119,42.99274],[-4.12685,42.99975],[-4.12515,43.00014],[-4.12582,43.00095],[-4.12617,43.00159],[-4.1263,43.00585],[-4.12513,43.00858],[-4.12171,43.01144],[-4.12002,43.01196],[-4.12192,43.01203],[-4.12245,43.01247],[-4.12359,43.01305],[-4.12583,43.01546],[-4.12559,43.0225],[-4.11834,43.02356],[-4.10897,43.02582],[-4.10205,43.03004],[-4.09783,43.03521],[-4.09692,43.03784],[-4.09558,43.03702],[-4.09099,43.03319],[-4.0904,43.0329],[-4.08618,43.03174],[-4.08072,43.03528],[-4.07934,43.0352],[-4.07813,43.03502]]]}},{"type":"Feature","properties":{"id":"3902701003"},"geometry":{"type":"Polygon","coordinates":[[[-4.13915,42.98576],[-4.14175,42.9797],[-4.14515,42.97453],[-4.14861,42.97252],[-4.15235,42.9715],[-4.15642,42.97389],[-4.15386,42.975],[-4.15205,42.97606],[-4.15105,42.97682],[-4.15049,42.97706],[-4.15027,42.97742],[-4.15013,42.97859],[-4.14942,42.97964],[-4.1493,42.98065],[-4.14898,42.98107],[-4.1489,42.98178],[-4.14593,42.98617],[-4.14516,42.98714],[-4.14524,42.98863],[-4.1454,42.98925],[-4.14094,42.98776],[-4.13915,42.98576]]]}},{"type":"Feature","properties":{"id":"3902701004"},"geometry":{"type":"Polygon","coordinates":[[[-4.09692,43.03784],[-4.09783,43.03521],[-4.10205,43.03004],[-4.10897,43.02582],[-4.11834,43.02356],[-4.12559,43.0225],[-4.12583,43.01546],[-4.12687,43.01368],[-4.12905,43.01303],[-4.1328,43.01271],[-4.13573,43.01218],[-4.14932,43.00318],[-4.1465,43.00012],[-4.14606,42.99882],[-4.14668,42.99765],[-4.15039,42.99318],[-4.148,42.99231],[-4.14588,42.98961],[-4.14617,42.98957],[-4.14656,42.98931],[-4.14768,42.98887],[-4.14784,42.98905],[-4.14825,42.98912],[-4.15075,42.98841],[-4.15141,42.98841],[-4.15456,42.98696],[-4.15499,42.98711],[-4.157,42.98743],[-4.158,42.98744],[-4.16104,42.98714],[-4.16353,42.98732],[-4.1665,42.98528],[-4.16935,42.98685],[-4.16954,42.98714],[-4.16978,42.9884],[-4.16811,42.99014],[-4.16609,42.99172],[-4.16535,42.99254],[-4.16361,42.99489],[-4.16267,42.99633],[-4.16192,42.998],[-4.16154,43.00009],[-4.15975,43.00201],[-4.15707,43.01124],[-4.15674,43.01483],[-4.15724,43.01648],[-4.15673,43.01872],[-4.15683,43.01996],[-4.15664,43.02267],[-4.15526,43.02454],[-4.16021,43.02807],[-4.16118,43.02991],[-4.15838,43.03452],[-4.15726,43.0377],[-4.157,43.03824],[-4.15596,43.03966],[-4.15538,43.04187],[-4.15296,43.04442],[-4.15493,43.04769],[-4.15519,43.05023],[-4.15359,43.05389],[-4.15169,43.05947],[-4.15058,43.06177],[-4.1443,43.06672],[-4.14109,43.06912],[-4.13599,43.07377],[-4.13588,43.07669],[-4.13548,43.07823],[-4.13421,43.07984],[-4.13605,43.08099],[-4.13639,43.08137],[-4.13653,43.08193],[-4.1368,43.08214],[-4.13758,43.08225],[-4.13861,43.08215],[-4.13651,43.08533],[-4.1323,43.08793],[-4.13147,43.08733],[-4.13126,43.08704],[-4.12993,43.08628],[-4.12921,43.0854],[-4.12854,43.08504],[-4.1261,43.08436],[-4.12358,43.08345],[-4.12092,43.08207],[-4.12242,43.07608],[-4.12208,43.07476],[-4.12126,43.07339],[-4.12099,43.06911],[-4.12192,43.06669],[-4.12195,43.06633],[-4.12088,43.06228],[-4.12067,43.06212],[-4.11558,43.06052],[-4.11426,43.05998],[-4.10902,43.05827],[-4.10678,43.05809],[-4.1058,43.0559],[-4.10562,43.05571],[-4.10153,43.05277],[-4.10069,43.0518],[-4.10063,43.05126],[-4.10109,43.04953],[-4.10054,43.04787],[-4.10097,43.04717],[-4.10077,43.04378],[-4.10381,43.04224],[-4.09993,43.04046],[-4.09867,43.0389],[-4.09692,43.03784]]]}}]}