{"type":"FeatureCollection","features":[{"type":"Feature","properties":{"id":"3904801001"},"geometry":{"type":"Polygon","coordinates":[[[-3.77899,43.32765],[-3.77827,43.32113],[-3.77592,43.3194],[-3.77542,43.31814],[-3.77522,43.31569],[-3.77779,43.30769],[-3.77829,43.30695],[-3.77735,43.30477],[-3.77641,43.30124],[-3.77835,43.29757],[-3.77879,43.29717],[-3.78086,43.29654],[-3.78471,43.29609],[-3.78716,43.29598],[-3.79033,43.296],[-3.79226,43.29695],[-3.79578,43.29819],[-3.79638,43.29866],[-3.79858,43.29738],[-3.79985,43.2976],[-3.80117,43.29741],[-3.80407,43.29773],[-3.81908,43.30447],[-3.82196,43.30787],[-3.82516,43.31492],[-3.82767,43.31695],[-3.84368,43.32694],[-3.84004,43.33081],[-3.83197,43.33902],[-3.82868,43.34292],[-3.82585,43.34681],[-3.82359,43.35035],[-3.8211,43.35357],[-3.8132,43.35716],[-3.80698,43.36134],[-3.80822,43.35805],[-3.80728,43.35664],[-3.80697,43.35637],[-3.80309,43.35413],[-3.80219,43.35408],[-3.80084,43.35045],[-3.79828,43.34686],[-3.79825,43.34368],[-3.79775,43.34299],[-3.79669,43.34234],[-3.79645,43.34037],[-3.79557,43.33894],[-3.79411,43.33772],[-3.78959,43.33588],[-3.79,43.33342],[-3.78975,43.33299],[-3.78897,43.33228],[-3.78791,43.33183],[-3.78708,43.33175],[-3.78105,43.32917],[-3.77899,43.32765]]]}},{"type":"Feature","properties":{"id":"3904801002"},"geometry":{"type":"Polygon","coordinates":[[[-3.80738,43.37046],[-3.80608,43.36455],[-3.80698,43.36134],[-3.8132,43.35716],[-3.8211,43.35357],[-3.82359,43.35035],[-3.82585,43.34681],[-3.82868,43.34292],[-3.83197,43.33902],[-3.84004,43.33081],[-3.84368,43.32694],[-3.85231,43.33249],[-3.85533,43.3351],[-3.85423,43.33781],[-3.85229,43.34542],[-3.84552,43.34863],[-3.84966,43.35539],[-3.84871,43.35578],[-3.84942,43.35902],[-3.84533,43.359],[-3.84177,43.36022],[-3.84151,43.3604],[-3.84025,43.36187],[-3.83891,43.36384],[-3.83846,43.36744],[-3.83643,43.36773],[-3.83504,43.36819],[-3.83408,43.36834],[-3.83296,43.36827],[-3.83207,43.36837],[-3.82757,43.3699],[-3.82724,43.36991],[-3.82654,43.36971],[-3.82557,43.3696],[-3.82451,43.36967],[-3.82341,43.36955],[-3.82203,43.36967],[-3.82017,43.37027],[-3.81948,43.37035],[-3.81652,43.37143],[-3.81494,43.37084],[-3.81458,43.3708],[-3.81295,43.37009],[-3.80954,43.37011],[-3.80738,43.37046]]]}}]}