{"type":"FeatureCollection","features":[{"type":"Feature","properties":{"id":"3906001001"},"geometry":{"type":"Polygon","coordinates":[[[-4.13956,43.3612],[-4.1388,43.36042],[-4.13585,43.35926],[-4.13474,43.35797],[-4.13265,43.35661],[-4.13104,43.35642],[-4.12575,43.35704],[-4.12339,43.35778],[-4.1224,43.35789],[-4.11989,43.35782],[-4.11843,43.35802],[-4.11668,43.35848],[-4.11541,43.35828],[-4.11455,43.35833],[-4.11456,43.35792],[-4.11535,43.3574],[-4.11878,43.35594],[-4.12,43.35272],[-4.12028,43.34967],[-4.11904,43.33206],[-4.12727,43.32967],[-4.13208,43.33035],[-4.13825,43.33171],[-4.14036,43.32839],[-4.14648,43.32437],[-4.15047,43.32392],[-4.15506,43.32314],[-4.15931,43.32132],[-4.16265,43.32233],[-4.16266,43.32268],[-4.16305,43.32308],[-4.16404,43.32374],[-4.16456,43.32426],[-4.16529,43.32473],[-4.16573,43.32484],[-4.16793,43.325],[-4.16876,43.3249],[-4.16916,43.32437],[-4.16944,43.32419],[-4.17018,43.32399],[-4.17425,43.32374],[-4.175,43.32682],[-4.17459,43.32782],[-4.17423,43.32828],[-4.17377,43.32857],[-4.17357,43.32883],[-4.17344,43.32944],[-4.17373,43.33075],[-4.17347,43.33248],[-4.17329,43.33658],[-4.17349,43.337],[-4.1738,43.33715],[-4.17369,43.33752],[-4.17331,43.33793],[-4.17324,43.33838],[-4.17276,43.33889],[-4.171,43.33922],[-4.16972,43.33995],[-4.16925,43.34043],[-4.16911,43.34069],[-4.16919,43.34149],[-4.16902,43.34225],[-4.1685,43.34354],[-4.16937,43.34417],[-4.16626,43.34893],[-4.16126,43.34944],[-4.15783,43.34821],[-4.15479,43.34861],[-4.15295,43.3496],[-4.1518,43.34941],[-4.15175,43.34835],[-4.15129,43.34931],[-4.14972,43.35065],[-4.14833,43.35225],[-4.14814,43.35279],[-4.14852,43.35333],[-4.14958,43.35348],[-4.15205,43.3553],[-4.15289,43.35564],[-4.15282,43.35627],[-4.15211,43.35756],[-4.15107,43.35897],[-4.14822,43.36164],[-4.1464,43.36262],[-4.14514,43.36356],[-4.14455,43.36446],[-4.14342,43.36567],[-4.14267,43.36575],[-4.14151,43.36561],[-4.14075,43.36537],[-4.14022,43.36494],[-4.13988,43.36452],[-4.13945,43.36318],[-4.13956,43.3612]]]}},{"type":"Feature","properties":{"id":"3906001002"},"geometry":{"type":"Polygon","coordinates":[[[-4.09323,43.35535],[-4.09264,43.35487],[-4.09198,43.35454],[-4.09026,43.35383],[-4.09027,43.35375],[-4.08835,43.35301],[-4.0854,43.35031],[-4.08357,43.34886],[-4.08159,43.34793],[-4.08185,43.34692],[-4.08008,43.34297],[-4.08001,43.34242],[-4.08021,43.34205],[-4.08568,43.33756],[-4.08779,43.33546],[-4.0886,43.33342],[-4.08854,43.33318],[-4.09356,43.3303],[-4.09405,43.33013],[-4.09756,43.32978],[-4.10165,43.329],[-4.10271,43.32869],[-4.10402,43.32876],[-4.1046,43.32843],[-4.10519,43.32827],[-4.10769,43.32787],[-4.10989,43.32668],[-4.11151,43.32616],[-4.11351,43.32445],[-4.11703,43.32579],[-4.11788,43.32684],[-4.11895,43.33208],[-4.11904,43.33206],[-4.12028,43.34967],[-4.12,43.35272],[-4.11878,43.35594],[-4.11535,43.3574],[-4.11456,43.35792],[-4.11455,43.35833],[-4.11294,43.35927],[-4.11221,43.35953],[-4.11131,43.3596],[-4.10719,43.35829],[-4.10454,43.35592],[-4.09835,43.35585],[-4.09824,43.35535],[-4.09323,43.35535]]]}},{"type":"Feature","properties":{"id":"3906002001"},"geometry":{"type":"Polygon","coordinates":[[[-4.08992,43.37277],[-4.08604,43.36899],[-4.08545,43.36798],[-4.082,43.36353],[-4.07517,43.36199],[-4.0758,43.36043],[-4.07695,43.35875],[-4.07893,43.35937],[-4.08149,43.36055],[-4.08353,43.36072],[-4.08425,43.36043],[-4.08486,43.35978],[-4.08524,43.35901],[-4.08575,43.35877],[-4.08664,43.35887],[-4.08826,43.35943],[-4.08856,43.35891],[-4.09111,43.35935],[-4.09134,43.35875],[-4.09102,43.35671],[-4.09323,43.35535],[-4.09824,43.35535],[-4.09835,43.35585],[-4.10454,43.35592],[-4.10719,43.35829],[-4.11131,43.3596],[-4.10986,43.3598],[-4.1069,43.36058],[-4.10105,43.36162],[-4.09832,43.36243],[-4.09847,43.36347],[-4.09977,43.36431],[-4.09979,43.36562],[-4.09875,43.36664],[-4.09725,43.36707],[-4.09527,43.36831],[-4.08992,43.37277]]]}},{"type":"Feature","properties":{"id":"3906002002"},"geometry":{"type":"Polygon","coordinates":[[[-4.09725,43.36707],[-4.09875,43.36664],[-4.09979,43.36562],[-4.09977,43.36431],[-4.09847,43.36347],[-4.09832,43.36243],[-4.10036,43.36178],[-4.1069,43.36058],[-4.10986,43.3598],[-4.11221,43.35953],[-4.11294,43.35927],[-4.11457,43.35832],[-4.11541,43.35828],[-4.11668,43.35848],[-4.11843,43.35802],[-4.11989,43.35782],[-4.1224,43.35789],[-4.12339,43.35778],[-4.12575,43.35704],[-4.1276,43.35681],[-4.13104,43.35642],[-4.13265,43.35661],[-4.13474,43.35797],[-4.13585,43.35926],[-4.1388,43.36042],[-4.13956,43.3612],[-4.13726,43.36293],[-4.13728,43.36413],[-4.13682,43.36513],[-4.13683,43.36567],[-4.13723,43.36627],[-4.13762,43.36654],[-4.13967,43.36734],[-4.14117,43.36814],[-4.14284,43.36982],[-4.14356,43.37013],[-4.14442,43.37064],[-4.14554,43.37166],[-4.14838,43.37299],[-4.14988,43.37387],[-4.15107,43.37432],[-4.15163,43.37433],[-4.14538,43.37938],[-4.14226,43.37962],[-4.13757,43.37902],[-4.13127,43.37837],[-4.12706,43.37706],[-4.12509,43.3767],[-4.11973,43.37646],[-4.11507,43.37551],[-4.11142,43.37458],[-4.10808,43.37265],[-4.09725,43.36707]]]}},{"type":"Feature","properties":{"id":"3906002003"},"geometry":{"type":"Polygon","coordinates":[[[-4.07695,43.35875],[-4.07763,43.35777],[-4.0791,43.35501],[-4.07921,43.35346],[-4.08051,43.35198],[-4.08132,43.34853],[-4.08159,43.34793],[-4.08357,43.34886],[-4.0854,43.35031],[-4.08835,43.35301],[-4.09027,43.35375],[-4.09026,43.35383],[-4.09198,43.35454],[-4.09264,43.35487],[-4.09323,43.35535],[-4.09102,43.35671],[-4.09134,43.35875],[-4.09111,43.35935],[-4.08856,43.35891],[-4.08826,43.35943],[-4.08664,43.35887],[-4.08575,43.35877],[-4.08524,43.35901],[-4.08486,43.35978],[-4.08425,43.36043],[-4.08353,43.36072],[-4.08149,43.36055],[-4.07893,43.35937],[-4.07695,43.35875]]]}}]}