{"type":"FeatureCollection","features":[{"type":"Feature","properties":{"id":"3907901001"},"geometry":{"type":"Polygon","coordinates":[[[-3.45656,43.44322],[-3.45667,43.44323],[-3.45668,43.44275],[-3.46201,43.44189],[-3.46302,43.44154],[-3.46199,43.43942],[-3.46315,43.44158],[-3.46326,43.44152],[-3.4633,43.44161],[-3.46317,43.44163],[-3.46335,43.44196],[-3.4634,43.44266],[-3.46319,43.44179],[-3.46269,43.44193],[-3.46277,43.44207],[-3.46142,43.44249],[-3.46165,43.44432],[-3.46294,43.44428],[-3.4629,43.44365],[-3.46336,43.44362],[-3.46341,43.44326],[-3.46352,43.44475],[-3.46174,43.4448],[-3.46023,43.44426],[-3.45733,43.44448],[-3.45731,43.44427],[-3.45747,43.444],[-3.45792,43.44379],[-3.45789,43.44363],[-3.45739,43.44366],[-3.45656,43.44322]]]}},{"type":"Feature","properties":{"id":"3907901002"},"geometry":{"type":"Polygon","coordinates":[[[-3.45574,43.44585],[-3.4557,43.44317],[-3.45656,43.44322],[-3.45739,43.44366],[-3.45789,43.44363],[-3.45792,43.44379],[-3.45747,43.444],[-3.45731,43.44427],[-3.45733,43.44448],[-3.46023,43.44426],[-3.46144,43.44474],[-3.46232,43.44482],[-3.46748,43.44448],[-3.47202,43.44392],[-3.47447,43.44344],[-3.47483,43.4433],[-3.47296,43.4526],[-3.47578,43.45534],[-3.47684,43.45693],[-3.47854,43.45731],[-3.47957,43.45842],[-3.48576,43.45717],[-3.48024,43.46066],[-3.47996,43.46094],[-3.47937,43.46064],[-3.47793,43.46103],[-3.47599,43.46133],[-3.47328,43.46126],[-3.47257,43.46096],[-3.47173,43.46095],[-3.47042,43.4606],[-3.46789,43.45953],[-3.46573,43.45826],[-3.46319,43.45927],[-3.46254,43.45847],[-3.4619,43.45876],[-3.46079,43.45864],[-3.45901,43.45646],[-3.45879,43.45593],[-3.45893,43.45533],[-3.46008,43.45432],[-3.4602,43.45392],[-3.46014,43.45362],[-3.45502,43.44733],[-3.45574,43.44585]]]}},{"type":"Feature","properties":{"id":"3907901003"},"geometry":{"type":"Polygon","coordinates":[[[-3.4549,43.44219],[-3.45556,43.44278],[-3.4557,43.44315],[-3.45573,43.44398],[-3.45211,43.44397],[-3.45179,43.44414],[-3.44961,43.44249],[-3.4503,43.44206],[-3.45095,43.44186],[-3.45106,43.44171],[-3.45203,43.44154],[-3.45206,43.44174],[-3.45326,43.44172],[-3.45414,43.44182],[-3.4549,43.44219]]]}},{"type":"Feature","properties":{"id":"3907901004"},"geometry":{"type":"Polygon","coordinates":[[[-3.45252,43.46491],[-3.45304,43.46417],[-3.45405,43.46346],[-3.45451,43.46206],[-3.45444,43.46072],[-3.45411,43.46014],[-3.45405,43.45975],[-3.45372,43.45927],[-3.45395,43.45892],[-3.45318,43.45838],[-3.45336,43.45709],[-3.4544,43.45691],[-3.45527,43.45615],[-3.45533,43.45591],[-3.45572,43.45584],[-3.45576,43.45548],[-3.45598,43.45538],[-3.45693,43.45534],[-3.45691,43.45501],[-3.45725,43.45493],[-3.45726,43.4538],[-3.45718,43.453],[-3.45583,43.45113],[-3.45516,43.4497],[-3.45475,43.44916],[-3.45434,43.44784],[-3.45333,43.44577],[-3.45272,43.44498],[-3.45173,43.4444],[-3.45173,43.44419],[-3.45211,43.44397],[-3.45573,43.44398],[-3.45574,43.44585],[-3.45502,43.44733],[-3.46014,43.45362],[-3.4602,43.45392],[-3.46008,43.45432],[-3.45893,43.45533],[-3.45879,43.45593],[-3.45901,43.45646],[-3.46079,43.45864],[-3.4619,43.45876],[-3.46254,43.45847],[-3.46319,43.45927],[-3.46573,43.45826],[-3.46789,43.45953],[-3.47042,43.4606],[-3.47173,43.46095],[-3.47257,43.46096],[-3.47328,43.46126],[-3.47599,43.46133],[-3.47793,43.46103],[-3.47937,43.46064],[-3.47996,43.46094],[-3.48024,43.46066],[-3.48576,43.45717],[-3.48602,43.45712],[-3.48737,43.45752],[-3.4845,43.46423],[-3.48595,43.46549],[-3.48448,43.46483],[-3.48387,43.46474],[-3.4794,43.46605],[-3.47811,43.46699],[-3.47715,43.46814],[-3.47551,43.46893],[-3.47549,43.46826],[-3.47588,43.46706],[-3.47123,43.46611],[-3.46916,43.4659],[-3.46876,43.46594],[-3.46765,43.46562],[-3.46282,43.46491],[-3.45922,43.46458],[-3.45638,43.46478],[-3.45551,43.46471],[-3.45499,43.46482],[-3.4543,43.46475],[-3.45299,43.46495],[-3.45252,43.46491]]]}},{"type":"Feature","properties":{"id":"3907902001"},"geometry":{"type":"Polygon","coordinates":[[[-3.45667,43.44323],[-3.4557,43.44317],[-3.45556,43.44278],[-3.4549,43.44219],[-3.45532,43.44198],[-3.45553,43.44146],[-3.46176,43.44157],[-3.46183,43.44183],[-3.46201,43.44189],[-3.45668,43.44275],[-3.45667,43.44323]]]}},{"type":"Feature","properties":{"id":"3907902002"},"geometry":{"type":"Polygon","coordinates":[[[-3.45553,43.44146],[-3.45546,43.43932],[-3.45834,43.43909],[-3.45887,43.439],[-3.45883,43.43882],[-3.45869,43.43883],[-3.45868,43.43876],[-3.45905,43.43872],[-3.45906,43.4388],[-3.45892,43.43881],[-3.45895,43.43899],[-3.45973,43.43895],[-3.46025,43.43903],[-3.46088,43.4393],[-3.46129,43.43986],[-3.46174,43.43978],[-3.46136,43.43994],[-3.46139,43.44],[-3.46092,43.44011],[-3.46104,43.44036],[-3.46113,43.44033],[-3.46176,43.44157],[-3.45553,43.44146]]]}},{"type":"Feature","properties":{"id":"3907902003"},"geometry":{"type":"Polygon","coordinates":[[[-3.45546,43.43932],[-3.45553,43.44146],[-3.45541,43.44184],[-3.45519,43.44205],[-3.45484,43.44222],[-3.45462,43.44202],[-3.45414,43.44182],[-3.45326,43.44172],[-3.45206,43.44174],[-3.45203,43.44154],[-3.45106,43.44171],[-3.45095,43.44186],[-3.4503,43.44206],[-3.44961,43.44249],[-3.45178,43.44413],[-3.45173,43.4444],[-3.45272,43.44498],[-3.45309,43.44539],[-3.45434,43.44784],[-3.45475,43.44916],[-3.45516,43.4497],[-3.45583,43.45113],[-3.45718,43.453],[-3.45725,43.45493],[-3.45691,43.45501],[-3.45693,43.45534],[-3.45598,43.45538],[-3.45576,43.45548],[-3.45572,43.45584],[-3.45533,43.45591],[-3.45527,43.45615],[-3.4544,43.45691],[-3.45336,43.45709],[-3.45318,43.45838],[-3.45395,43.45892],[-3.45372,43.45927],[-3.45405,43.45975],[-3.45411,43.46014],[-3.45453,43.46108],[-3.45449,43.46224],[-3.45419,43.46283],[-3.45405,43.46346],[-3.45292,43.46428],[-3.45266,43.46477],[-3.45213,43.46535],[-3.45003,43.46578],[-3.44933,43.46671],[-3.44883,43.46709],[-3.44836,43.46683],[-3.44813,43.46682],[-3.44728,43.46712],[-3.44708,43.46712],[-3.44671,43.46597],[-3.44636,43.46593],[-3.44554,43.46616],[-3.44533,43.46613],[-3.44484,43.46579],[-3.445,43.46571],[-3.44487,43.46547],[-3.44471,43.4654],[-3.44394,43.4653],[-3.4434,43.46547],[-3.44302,43.46547],[-3.44276,43.46536],[-3.44271,43.46543],[-3.44243,43.46526],[-3.44235,43.46511],[-3.44194,43.46512],[-3.44156,43.46481],[-3.44113,43.46489],[-3.44094,43.46476],[-3.44078,43.46481],[-3.44062,43.46449],[-3.44039,43.46455],[-3.4404,43.46485],[-3.44015,43.46459],[-3.43964,43.46438],[-3.43948,43.46448],[-3.43937,43.46434],[-3.4391,43.46456],[-3.43902,43.46443],[-3.43891,43.46445],[-3.43879,43.4646],[-3.43865,43.46424],[-3.43829,43.46422],[-3.43809,43.46431],[-3.43774,43.46423],[-3.43779,43.46436],[-3.43749,43.46428],[-3.43742,43.46448],[-3.43722,43.4645],[-3.43709,43.46435],[-3.43634,43.46428],[-3.43622,43.46443],[-3.43552,43.4646],[-3.43528,43.46455],[-3.43519,43.46423],[-3.435,43.46409],[-3.4347,43.46408],[-3.43462,43.4643],[-3.43453,43.4643],[-3.43433,43.46391],[-3.43377,43.46368],[-3.43357,43.46371],[-3.43341,43.46357],[-3.43308,43.46356],[-3.43254,43.46267],[-3.43204,43.46252],[-3.43207,43.46242],[-3.4318,43.46226],[-3.43153,43.46229],[-3.43142,43.46221],[-3.43147,43.46209],[-3.43103,43.46194],[-3.4309,43.46172],[-3.43098,43.46168],[-3.43071,43.46136],[-3.43047,43.46128],[-3.43026,43.46099],[-3.42997,43.46086],[-3.42969,43.45988],[-3.42935,43.45984],[-3.42936,43.45972],[-3.42848,43.45933],[-3.42835,43.45919],[-3.42861,43.45903],[-3.42843,43.45897],[-3.42843,43.45876],[-3.42796,43.45844],[-3.42775,43.45815],[-3.42775,43.45792],[-3.42755,43.45791],[-3.42735,43.45762],[-3.42713,43.45764],[-3.42725,43.45738],[-3.42718,43.45706],[-3.4269,43.45683],[-3.4269,43.4567],[-3.42737,43.45631],[-3.4273,43.45618],[-3.42702,43.45625],[-3.42667,43.45614],[-3.42681,43.45607],[-3.42693,43.45614],[-3.42726,43.45591],[-3.42706,43.45587],[-3.42697,43.45563],[-3.42695,43.45536],[-3.42718,43.45501],[-3.42669,43.45533],[-3.42628,43.45542],[-3.42676,43.45501],[-3.42654,43.45485],[-3.42684,43.45449],[-3.42648,43.45471],[-3.42642,43.4546],[-3.42669,43.45426],[-3.42693,43.45419],[-3.4269,43.45411],[-3.42729,43.45389],[-3.42729,43.45371],[-3.42682,43.45382],[-3.42636,43.45349],[-3.42645,43.45337],[-3.42635,43.45314],[-3.42695,43.45272],[-3.42685,43.45253],[-3.42653,43.45268],[-3.42636,43.45256],[-3.42686,43.4523],[-3.42704,43.45239],[-3.42758,43.45204],[-3.42742,43.45201],[-3.42752,43.4519],[-3.42743,43.45189],[-3.42704,43.452],[-3.42677,43.45198],[-3.427,43.4518],[-3.42689,43.4518],[-3.42689,43.45168],[-3.42702,43.45156],[-3.42602,43.45198],[-3.42639,43.45168],[-3.42637,43.45158],[-3.42599,43.45174],[-3.42656,43.45139],[-3.42624,43.4514],[-3.42595,43.45152],[-3.42592,43.45143],[-3.42576,43.45154],[-3.42552,43.4515],[-3.42549,43.45137],[-3.42629,43.45109],[-3.42669,43.45109],[-3.42654,43.45096],[-3.4268,43.45085],[-3.42677,43.45063],[-3.42655,43.45063],[-3.42636,43.45045],[-3.42639,43.45032],[-3.42594,43.45042],[-3.4259,43.45035],[-3.42649,43.45019],[-3.42679,43.44999],[-3.42683,43.44972],[-3.42657,43.44945],[-3.42691,43.44943],[-3.4269,43.44931],[-3.42728,43.44894],[-3.4272,43.44874],[-3.42695,43.44865],[-3.4274,43.44831],[-3.42698,43.44826],[-3.42747,43.44799],[-3.42777,43.44767],[-3.42762,43.44737],[-3.427,43.44694],[-3.42664,43.44643],[-3.42625,43.44627],[-3.42594,43.44592],[-3.42596,43.44574],[-3.42674,43.44535],[-3.42624,43.445],[-3.42562,43.44411],[-3.4259,43.44398],[-3.42592,43.44382],[-3.42634,43.44352],[-3.42694,43.44365],[-3.42746,43.44303],[-3.42797,43.44276],[-3.42868,43.44257],[-3.42888,43.44225],[-3.42878,43.44186],[-3.42896,43.44169],[-3.42931,43.44159],[-3.42976,43.44125],[-3.4309,43.44068],[-3.4316,43.44049],[-3.43222,43.43979],[-3.43308,43.43944],[-3.43338,43.43942],[-3.43367,43.43922],[-3.43446,43.43893],[-3.43541,43.43869],[-3.4356,43.43848],[-3.43667,43.43837],[-3.43767,43.43786],[-3.43778,43.43756],[-3.43817,43.43741],[-3.43846,43.43712],[-3.43932,43.43715],[-3.43999,43.43737],[-3.44056,43.43743],[-3.44066,43.43754],[-3.44115,43.43749],[-3.44237,43.43765],[-3.44264,43.43776],[-3.44318,43.43824],[-3.44335,43.43859],[-3.44509,43.43881],[-3.44562,43.43878],[-3.44564,43.43893],[-3.44722,43.43892],[-3.44937,43.43932],[-3.45358,43.43949],[-3.45502,43.43935],[-3.45501,43.43897],[-3.45507,43.43935],[-3.45546,43.43932]]]}}]}