{"type":"FeatureCollection","features":[{"type":"Feature","properties":{"id":"4006301001"},"geometry":{"type":"Polygon","coordinates":[[[-4.31151,41.40248],[-4.31142,41.40209],[-4.31223,41.40146],[-4.31185,41.40114],[-4.31204,41.40101],[-4.31239,41.40096],[-4.31266,41.40136],[-4.3137,41.40066],[-4.31422,41.40083],[-4.31429,41.40064],[-4.31462,41.40047],[-4.31477,41.40023],[-4.31514,41.40031],[-4.31576,41.40003],[-4.31636,41.39994],[-4.31699,41.40005],[-4.31715,41.40019],[-4.31691,41.40067],[-4.31691,41.40099],[-4.31895,41.40116],[-4.31995,41.40185],[-4.31946,41.40188],[-4.31979,41.40234],[-4.31834,41.40319],[-4.31739,41.4039],[-4.31563,41.40379],[-4.31475,41.40365],[-4.31151,41.40248]]]}},{"type":"Feature","properties":{"id":"4006301002"},"geometry":{"type":"Polygon","coordinates":[[[-4.31143,41.40612],[-4.31146,41.40524],[-4.31128,41.40454],[-4.31037,41.40403],[-4.30976,41.40347],[-4.30977,41.40281],[-4.31098,41.40245],[-4.31143,41.40245],[-4.31475,41.40365],[-4.31591,41.40382],[-4.31747,41.40386],[-4.31829,41.40415],[-4.32072,41.40446],[-4.3205,41.40518],[-4.32092,41.40625],[-4.32259,41.40836],[-4.32256,41.40843],[-4.32092,41.40854],[-4.32096,41.40871],[-4.31975,41.40891],[-4.31963,41.40859],[-4.31898,41.40864],[-4.31899,41.40909],[-4.31846,41.40927],[-4.31836,41.40859],[-4.31678,41.40831],[-4.31656,41.40861],[-4.31483,41.40827],[-4.31438,41.40798],[-4.31418,41.40798],[-4.31378,41.4076],[-4.31425,41.40738],[-4.31413,41.40713],[-4.31423,41.40697],[-4.31364,41.40651],[-4.3125,41.40609],[-4.31143,41.40612]]]}},{"type":"Feature","properties":{"id":"4006301003"},"geometry":{"type":"Polygon","coordinates":[[[-4.24317,41.46089],[-4.24132,41.45925],[-4.23859,41.45807],[-4.23549,41.45706],[-4.2346,41.45658],[-4.23349,41.45574],[-4.23044,41.45787],[-4.22977,41.45865],[-4.22784,41.45997],[-4.21445,41.45143],[-4.20501,41.43786],[-4.20301,41.43086],[-4.20518,41.42085],[-4.20707,41.4184],[-4.20613,41.41655],[-4.20572,41.4154],[-4.20559,41.41435],[-4.20116,41.41223],[-4.20303,41.4107],[-4.20296,41.40563],[-4.20242,41.4035],[-4.20342,41.40093],[-4.20799,41.39876],[-4.21376,41.39722],[-4.2155,41.39712],[-4.2182,41.39415],[-4.22107,41.39418],[-4.22293,41.39186],[-4.22477,41.39027],[-4.22897,41.38273],[-4.2275,41.37987],[-4.22878,41.37265],[-4.22798,41.37108],[-4.22438,41.369],[-4.22148,41.36616],[-4.22495,41.36384],[-4.22581,41.35849],[-4.22784,41.35836],[-4.23253,41.35775],[-4.23051,41.35476],[-4.22752,41.34867],[-4.22607,41.34656],[-4.22512,41.34539],[-4.22133,41.342],[-4.21865,41.34016],[-4.2196,41.33916],[-4.22131,41.33699],[-4.22126,41.33651],[-4.22153,41.33607],[-4.22662,41.33423],[-4.22757,41.33399],[-4.22994,41.3321],[-4.2315,41.33137],[-4.23349,41.33024],[-4.23435,41.32936],[-4.23622,41.3278],[-4.23828,41.32618],[-4.2411,41.32421],[-4.24426,41.32531],[-4.24579,41.3255],[-4.24966,41.32536],[-4.25477,41.3264],[-4.2587,41.32792],[-4.26425,41.33066],[-4.27104,41.33356],[-4.27339,41.33436],[-4.27417,41.3342],[-4.27512,41.33418],[-4.27711,41.33443],[-4.27878,41.33497],[-4.28042,41.3347],[-4.28627,41.33693],[-4.28795,41.33695],[-4.29147,41.33956],[-4.29253,41.3407],[-4.29303,41.34147],[-4.29509,41.34296],[-4.29528,41.34439],[-4.29629,41.34455],[-4.30015,41.34457],[-4.30183,41.34492],[-4.30442,41.34486],[-4.30559,41.34417],[-4.31109,41.34667],[-4.31286,41.34725],[-4.31487,41.34732],[-4.31613,41.34765],[-4.31964,41.34875],[-4.32109,41.34951],[-4.32039,41.35111],[-4.31896,41.35307],[-4.31565,41.35535],[-4.31503,41.35553],[-4.31385,41.35561],[-4.30701,41.35572],[-4.30439,41.35586],[-4.30409,41.35624],[-4.30444,41.35689],[-4.30502,41.35846],[-4.30499,41.35888],[-4.30576,41.35895],[-4.30742,41.35883],[-4.31041,41.35912],[-4.32256,41.35973],[-4.32396,41.35996],[-4.32472,41.35922],[-4.32592,41.35829],[-4.32614,41.35844],[-4.32781,41.35873],[-4.3288,41.35877],[-4.33028,41.35902],[-4.33311,41.35928],[-4.33332,41.35936],[-4.33361,41.3598],[-4.33467,41.36215],[-4.33505,41.36246],[-4.34155,41.36456],[-4.34374,41.36512],[-4.34614,41.36408],[-4.34868,41.36284],[-4.35515,41.36463],[-4.36393,41.36545],[-4.36526,41.36551],[-4.36853,41.3649],[-4.37098,41.36519],[-4.37349,41.36526],[-4.38152,41.36193],[-4.38245,41.36262],[-4.38428,41.36438],[-4.38217,41.36732],[-4.37812,41.36688],[-4.36833,41.36751],[-4.36869,41.37342],[-4.37041,41.37629],[-4.37133,41.37607],[-4.37233,41.37628],[-4.3732,41.37682],[-4.37381,41.37756],[-4.37695,41.37682],[-4.37907,41.37695],[-4.38049,41.37751],[-4.38138,41.37804],[-4.38352,41.37878],[-4.38157,41.3812],[-4.38134,41.38315],[-4.38444,41.38833],[-4.38575,41.38943],[-4.39042,41.39263],[-4.39044,41.39415],[-4.39182,41.39542],[-4.3928,41.39843],[-4.39403,41.39861],[-4.39297,41.39993],[-4.39286,41.40105],[-4.39045,41.4023],[-4.39079,41.40315],[-4.38697,41.40434],[-4.38816,41.40564],[-4.3836,41.40896],[-4.38345,41.40934],[-4.38425,41.40957],[-4.38774,41.40826],[-4.38956,41.40826],[-4.38932,41.41075],[-4.38415,41.41516],[-4.37665,41.42086],[-4.36713,41.4211],[-4.36549,41.42152],[-4.36245,41.42303],[-4.36114,41.42428],[-4.36213,41.4308],[-4.36199,41.43358],[-4.36492,41.436],[-4.36493,41.43888],[-4.36135,41.44466],[-4.36259,41.44714],[-4.36227,41.44746],[-4.36256,41.44865],[-4.36239,41.44993],[-4.35789,41.4492],[-4.3515,41.44964],[-4.35051,41.44994],[-4.34944,41.44997],[-4.34845,41.45051],[-4.34668,41.44808],[-4.34572,41.44856],[-4.34325,41.44815],[-4.3408,41.44908],[-4.33895,41.44915],[-4.33745,41.44897],[-4.33554,41.44816],[-4.33397,41.44654],[-4.33168,41.44498],[-4.33093,41.44528],[-4.32786,41.44479],[-4.32725,41.44513],[-4.3277,41.44575],[-4.32398,41.44678],[-4.32043,41.44843],[-4.31945,41.45012],[-4.31899,41.45131],[-4.31922,41.45332],[-4.3135,41.45511],[-4.30915,41.45556],[-4.30639,41.45657],[-4.30506,41.45692],[-4.30194,41.45738],[-4.30083,41.45742],[-4.30063,41.45772],[-4.30004,41.45772],[-4.29678,41.456],[-4.29415,41.45498],[-4.2932,41.45486],[-4.29099,41.45502],[-4.29018,41.45528],[-4.28943,41.45637],[-4.2878,41.45825],[-4.28547,41.45817],[-4.28493,41.4583],[-4.2842,41.45876],[-4.28327,41.45882],[-4.27934,41.45833],[-4.27819,41.45832],[-4.27415,41.4579],[-4.27013,41.46127],[-4.26858,41.46037],[-4.26744,41.45942],[-4.26662,41.45825],[-4.26602,41.4576],[-4.26503,41.45701],[-4.26438,41.4562],[-4.26369,41.45439],[-4.2611,41.45059],[-4.26099,41.45502],[-4.25992,41.45645],[-4.25838,41.45738],[-4.24823,41.46209],[-4.24721,41.46226],[-4.24571,41.46204],[-4.24392,41.46142],[-4.24317,41.46089]],[[-4.31747,41.40386],[-4.31834,41.40319],[-4.31979,41.40234],[-4.31946,41.40188],[-4.31995,41.40185],[-4.31997,41.40196],[-4.32052,41.40196],[-4.32095,41.40209],[-4.32374,41.40196],[-4.32442,41.40161],[-4.32539,41.40053],[-4.32402,41.40021],[-4.32286,41.39971],[-4.32189,41.39909],[-4.32082,41.39789],[-4.32042,41.39758],[-4.32079,41.39759],[-4.32084,41.39742],[-4.32078,41.39719],[-4.32053,41.39715],[-4.3203,41.39698],[-4.32069,41.39673],[-4.3198,41.39635],[-4.31899,41.39661],[-4.31655,41.39568],[-4.31592,41.39388],[-4.3146,41.39377],[-4.31431,41.39356],[-4.31417,41.39357],[-4.31392,41.39376],[-4.31332,41.3933],[-4.31169,41.39328],[-4.31176,41.39277],[-4.3115,41.39245],[-4.31181,41.3923],[-4.31152,41.39184],[-4.311,41.39135],[-4.30855,41.39186],[-4.30538,41.36098],[-4.30365,41.35809],[-4.29908,41.35774],[-4.29843,41.36066],[-4.2985,41.36417],[-4.30212,41.38272],[-4.28245,41.38314],[-4.27438,41.37899],[-4.26553,41.38451],[-4.26732,41.38621],[-4.27912,41.38794],[-4.28122,41.38758],[-4.28031,41.3903],[-4.28549,41.39038],[-4.29105,41.39131],[-4.30132,41.3953],[-4.30292,41.39634],[-4.30429,41.3959],[-4.30454,41.39661],[-4.30513,41.39644],[-4.30589,41.3966],[-4.30612,41.39683],[-4.30554,41.39724],[-4.30592,41.39784],[-4.30604,41.39826],[-4.30579,41.39848],[-4.30614,41.39898],[-4.30676,41.39889],[-4.30693,41.39933],[-4.30792,41.39939],[-4.30839,41.39908],[-4.3089,41.39916],[-4.30905,41.39956],[-4.30956,41.39983],[-4.30977,41.39978],[-4.30951,41.40086],[-4.30908,41.40115],[-4.30845,41.40184],[-4.30809,41.40193],[-4.30773,41.40261],[-4.30445,41.40454],[-4.30254,41.40518],[-4.29786,41.40598],[-4.2994,41.40768],[-4.3033,41.40659],[-4.30652,41.40526],[-4.30654,41.40509],[-4.30758,41.40488],[-4.30873,41.40451],[-4.31024,41.40553],[-4.31089,41.40573],[-4.31085,41.40609],[-4.3125,41.40609],[-4.31364,41.40651],[-4.31423,41.40697],[-4.31413,41.40713],[-4.31425,41.40738],[-4.31378,41.4076],[-4.31418,41.40798],[-4.31438,41.40798],[-4.31483,41.40827],[-4.31656,41.40861],[-4.31678,41.40831],[-4.31836,41.40859],[-4.31846,41.40927],[-4.31899,41.40909],[-4.31898,41.40864],[-4.31963,41.40859],[-4.31975,41.40891],[-4.32096,41.40871],[-4.32092,41.40854],[-4.32256,41.40843],[-4.32259,41.40836],[-4.32092,41.40625],[-4.3205,41.40518],[-4.32072,41.40446],[-4.31829,41.40415],[-4.31747,41.40386]]]}},{"type":"Feature","properties":{"id":"4006302001"},"geometry":{"type":"Polygon","coordinates":[[[-4.31995,41.40185],[-4.31895,41.40116],[-4.31691,41.40099],[-4.31691,41.40067],[-4.31715,41.40019],[-4.31665,41.39995],[-4.31576,41.40003],[-4.31514,41.40031],[-4.31477,41.40023],[-4.31462,41.40047],[-4.31429,41.40064],[-4.31422,41.40083],[-4.3137,41.40066],[-4.31374,41.3999],[-4.3129,41.39978],[-4.31229,41.39988],[-4.31202,41.39976],[-4.31194,41.39966],[-4.31224,41.39944],[-4.31171,41.39878],[-4.3114,41.39856],[-4.31122,41.39824],[-4.31102,41.39824],[-4.30983,41.39631],[-4.30788,41.39398],[-4.30714,41.39205],[-4.30929,41.39175],[-4.311,41.39135],[-4.31152,41.39184],[-4.31181,41.3923],[-4.3115,41.39245],[-4.31176,41.39277],[-4.31169,41.39328],[-4.31332,41.3933],[-4.31392,41.39376],[-4.31417,41.39357],[-4.31431,41.39356],[-4.3146,41.39377],[-4.31592,41.39388],[-4.31655,41.39568],[-4.31899,41.39661],[-4.3198,41.39635],[-4.32069,41.39673],[-4.3203,41.39698],[-4.32053,41.39715],[-4.32078,41.39719],[-4.32084,41.39742],[-4.32079,41.39759],[-4.32042,41.39758],[-4.32082,41.39789],[-4.32189,41.39909],[-4.32286,41.39971],[-4.32402,41.40021],[-4.32539,41.40053],[-4.32442,41.40161],[-4.32374,41.40196],[-4.32095,41.40209],[-4.32052,41.40196],[-4.31997,41.40196],[-4.31995,41.40185]]]}},{"type":"Feature","properties":{"id":"4006302002"},"geometry":{"type":"Polygon","coordinates":[[[-4.30604,41.39826],[-4.30738,41.39787],[-4.30786,41.3978],[-4.30854,41.39788],[-4.30941,41.39868],[-4.31009,41.39861],[-4.31032,41.39885],[-4.3114,41.39934],[-4.31222,41.39987],[-4.3129,41.39978],[-4.31374,41.3999],[-4.3137,41.40066],[-4.31331,41.40098],[-4.31266,41.40136],[-4.31239,41.40096],[-4.31204,41.40101],[-4.31185,41.40114],[-4.31223,41.40146],[-4.31142,41.40209],[-4.31151,41.40248],[-4.31085,41.40246],[-4.30977,41.40281],[-4.30976,41.40347],[-4.31037,41.40403],[-4.31128,41.40454],[-4.31146,41.40524],[-4.31143,41.40612],[-4.31085,41.40609],[-4.31089,41.40573],[-4.31024,41.40553],[-4.30873,41.40451],[-4.30758,41.40488],[-4.30654,41.40509],[-4.30652,41.40526],[-4.3033,41.40659],[-4.2994,41.40768],[-4.29786,41.40598],[-4.30254,41.40518],[-4.30445,41.40454],[-4.30773,41.40261],[-4.30809,41.40193],[-4.30845,41.40184],[-4.30908,41.40115],[-4.30951,41.40086],[-4.30977,41.39978],[-4.30956,41.39983],[-4.30905,41.39956],[-4.3089,41.39916],[-4.30839,41.39908],[-4.30792,41.39939],[-4.30693,41.39933],[-4.30676,41.39889],[-4.30614,41.39898],[-4.30579,41.39848],[-4.30604,41.39826]]]}},{"type":"Feature","properties":{"id":"4006302003"},"geometry":{"type":"Polygon","coordinates":[[[-4.32109,41.34951],[-4.3231,41.3509],[-4.3243,41.35149],[-4.32803,41.35211],[-4.33004,41.35223],[-4.33148,41.35203],[-4.33463,41.35092],[-4.33486,41.34932],[-4.33541,41.34683],[-4.33571,41.34424],[-4.3355,41.34036],[-4.33538,41.33974],[-4.33587,41.33613],[-4.33626,41.33527],[-4.33614,41.33358],[-4.33655,41.33134],[-4.33791,41.32689],[-4.3376,41.32437],[-4.33663,41.31909],[-4.33561,41.31245],[-4.33886,41.30949],[-4.34144,41.30691],[-4.3393,41.30355],[-4.33631,41.29801],[-4.34025,41.28882],[-4.34762,41.27265],[-4.34748,41.2698],[-4.34214,41.26888],[-4.34176,41.26686],[-4.34186,41.26687],[-4.33957,41.26461],[-4.33934,41.26237],[-4.33833,41.25669],[-4.33775,41.25502],[-4.33771,41.24757],[-4.33806,41.24593],[-4.34093,41.24537],[-4.34269,41.24633],[-4.34915,41.24648],[-4.35203,41.24636],[-4.35651,41.24707],[-4.36744,41.2503],[-4.36895,41.25107],[-4.37132,41.25134],[-4.37665,41.25342],[-4.37626,41.25525],[-4.37566,41.25646],[-4.37359,41.26171],[-4.37558,41.26231],[-4.37735,41.26372],[-4.37833,41.26484],[-4.37972,41.26739],[-4.3823,41.26885],[-4.38658,41.27061],[-4.38795,41.27146],[-4.38939,41.27298],[-4.39239,41.27453],[-4.39408,41.27556],[-4.3965,41.2761],[-4.39774,41.27657],[-4.39958,41.27792],[-4.39998,41.27933],[-4.39201,41.28711],[-4.38831,41.29039],[-4.39335,41.30273],[-4.39313,41.3137],[-4.39322,41.31916],[-4.39694,41.32394],[-4.39434,41.33357],[-4.39043,41.35049],[-4.39647,41.3588],[-4.39719,41.3593],[-4.40198,41.36193],[-4.40267,41.36208],[-4.40239,41.36282],[-4.40107,41.36255],[-4.4,41.36293],[-4.39786,41.36307],[-4.39704,41.36304],[-4.39486,41.36252],[-4.39297,41.36187],[-4.3911,41.36108],[-4.38967,41.361],[-4.38671,41.36154],[-4.38606,41.3619],[-4.38428,41.36438],[-4.38245,41.36262],[-4.38152,41.36193],[-4.38639,41.35819],[-4.38598,41.35547],[-4.38194,41.35349],[-4.3809,41.35156],[-4.38016,41.351],[-4.37782,41.34831],[-4.3766,41.34645],[-4.37385,41.3457],[-4.36678,41.35077],[-4.36767,41.35652],[-4.36799,41.35754],[-4.36835,41.36114],[-4.36888,41.36217],[-4.3772,41.36247],[-4.37894,41.36206],[-4.38146,41.36195],[-4.37349,41.36526],[-4.37098,41.36519],[-4.36853,41.3649],[-4.36526,41.36551],[-4.36393,41.36545],[-4.35515,41.36463],[-4.34868,41.36284],[-4.34614,41.36408],[-4.34374,41.36512],[-4.34155,41.36456],[-4.33505,41.36246],[-4.33467,41.36215],[-4.33361,41.3598],[-4.33332,41.35936],[-4.33311,41.35928],[-4.33028,41.35902],[-4.3288,41.35877],[-4.32781,41.35873],[-4.32614,41.35844],[-4.32592,41.35829],[-4.32472,41.35922],[-4.32396,41.35996],[-4.32256,41.35973],[-4.31041,41.35912],[-4.30742,41.35883],[-4.30576,41.35895],[-4.30499,41.35888],[-4.30502,41.35846],[-4.30444,41.35689],[-4.30409,41.35624],[-4.30439,41.35586],[-4.30701,41.35572],[-4.31385,41.35561],[-4.31503,41.35553],[-4.31565,41.35535],[-4.31896,41.35307],[-4.32039,41.35111],[-4.32109,41.34951]]]}},{"type":"Feature","properties":{"id":"4006302004"},"geometry":{"type":"Polygon","coordinates":[[[-4.30604,41.39826],[-4.30592,41.39784],[-4.30554,41.39724],[-4.30612,41.39683],[-4.30589,41.3966],[-4.30513,41.39644],[-4.30454,41.39661],[-4.30429,41.3959],[-4.30292,41.39634],[-4.30132,41.3953],[-4.29105,41.39131],[-4.28549,41.39038],[-4.28031,41.3903],[-4.28122,41.38758],[-4.27912,41.38794],[-4.26732,41.38621],[-4.26553,41.38451],[-4.27438,41.37899],[-4.28245,41.38314],[-4.30212,41.38272],[-4.2985,41.36417],[-4.29843,41.36066],[-4.29908,41.35774],[-4.30365,41.35809],[-4.30538,41.36098],[-4.30855,41.39186],[-4.30714,41.39205],[-4.30788,41.39398],[-4.30983,41.39631],[-4.31102,41.39824],[-4.31122,41.39824],[-4.3114,41.39856],[-4.31171,41.39878],[-4.31224,41.39944],[-4.31204,41.39954],[-4.31197,41.3997],[-4.31173,41.39962],[-4.3114,41.39934],[-4.31032,41.39885],[-4.31009,41.39861],[-4.30941,41.39868],[-4.30854,41.39788],[-4.30822,41.39781],[-4.30738,41.39787],[-4.30604,41.39826]]]}}]}