{"type":"FeatureCollection","features":[{"type":"Feature","properties":{"id":"4100601001"},"geometry":{"type":"Polygon","coordinates":[[[-5.66821,37.61548],[-5.66828,37.61601],[-5.66754,37.61613],[-5.66599,37.61665],[-5.66645,37.61784],[-5.66604,37.61757],[-5.66569,37.61758],[-5.66407,37.61844],[-5.66181,37.61812],[-5.66071,37.61829],[-5.66016,37.61676],[-5.66158,37.61623],[-5.66179,37.61388],[-5.66202,37.61272],[-5.66737,37.61151],[-5.66784,37.61247],[-5.66775,37.61252],[-5.66782,37.61273],[-5.66825,37.61335],[-5.6679,37.61365],[-5.66792,37.61371],[-5.66872,37.61414],[-5.6678,37.61461],[-5.66821,37.61548]]]}},{"type":"Feature","properties":{"id":"4100602001"},"geometry":{"type":"Polygon","coordinates":[[[-5.67087,37.61815],[-5.67066,37.61821],[-5.67093,37.61879],[-5.67059,37.61894],[-5.66979,37.62117],[-5.66944,37.62183],[-5.66732,37.6186],[-5.66645,37.61784],[-5.66599,37.61665],[-5.66754,37.61613],[-5.66828,37.61601],[-5.6682,37.61548],[-5.67013,37.61507],[-5.67134,37.6152],[-5.67131,37.61533],[-5.67107,37.61549],[-5.67071,37.61741],[-5.67062,37.61744],[-5.67087,37.61815]]]}},{"type":"Feature","properties":{"id":"4100602002"},"geometry":{"type":"Polygon","coordinates":[[[-5.61806,37.69928],[-5.61611,37.69936],[-5.61634,37.69806],[-5.61678,37.69642],[-5.61774,37.69363],[-5.61785,37.69307],[-5.61775,37.69202],[-5.61813,37.69062],[-5.61827,37.69033],[-5.61897,37.68969],[-5.61993,37.68611],[-5.62168,37.68343],[-5.62047,37.68108],[-5.61977,37.67914],[-5.61835,37.67672],[-5.61759,37.67624],[-5.61713,37.67554],[-5.61731,37.67199],[-5.6162,37.67036],[-5.61464,37.66865],[-5.61425,37.66759],[-5.61358,37.66684],[-5.61257,37.66522],[-5.61218,37.66387],[-5.61086,37.66082],[-5.61053,37.6584],[-5.61051,37.65749],[-5.6107,37.65684],[-5.61054,37.65512],[-5.6111,37.65439],[-5.61058,37.65197],[-5.61043,37.65064],[-5.61071,37.64869],[-5.611,37.64755],[-5.61208,37.64448],[-5.61256,37.64278],[-5.61311,37.64168],[-5.61332,37.64086],[-5.61345,37.63854],[-5.61336,37.63728],[-5.61314,37.6361],[-5.61279,37.63525],[-5.61217,37.63439],[-5.61034,37.63227],[-5.60897,37.63092],[-5.60427,37.62525],[-5.60253,37.62203],[-5.60197,37.62071],[-5.60455,37.6208],[-5.60633,37.62053],[-5.60706,37.62031],[-5.61196,37.61799],[-5.61223,37.61777],[-5.61373,37.61539],[-5.615,37.61421],[-5.61556,37.61318],[-5.61707,37.61203],[-5.61734,37.61126],[-5.61844,37.61036],[-5.62107,37.60748],[-5.62175,37.60704],[-5.62296,37.60668],[-5.62384,37.60661],[-5.62512,37.60669],[-5.62937,37.60756],[-5.63588,37.60941],[-5.63698,37.60979],[-5.63835,37.61044],[-5.64299,37.61306],[-5.64385,37.61336],[-5.64742,37.61349],[-5.64845,37.61338],[-5.65346,37.61142],[-5.65444,37.6108],[-5.65672,37.60865],[-5.65784,37.60751],[-5.65859,37.60626],[-5.65921,37.60467],[-5.65893,37.60062],[-5.65876,37.59972],[-5.65781,37.59837],[-5.6573,37.59781],[-5.6539,37.5952],[-5.65286,37.59458],[-5.65206,37.59395],[-5.65074,37.59259],[-5.64979,37.59078],[-5.64953,37.58988],[-5.64946,37.58917],[-5.64972,37.58817],[-5.65007,37.58741],[-5.65055,37.58656],[-5.6514,37.58599],[-5.65345,37.58558],[-5.65671,37.5852],[-5.65926,37.58479],[-5.66173,37.58357],[-5.66291,37.58321],[-5.66468,37.58294],[-5.66598,37.58301],[-5.66753,37.58328],[-5.67063,37.58441],[-5.67155,37.585],[-5.67345,37.58674],[-5.67518,37.58949],[-5.67611,37.59008],[-5.67821,37.59195],[-5.6839,37.59573],[-5.68467,37.59648],[-5.68515,37.59728],[-5.68546,37.59895],[-5.6854,37.60033],[-5.68478,37.6038],[-5.68438,37.60497],[-5.68326,37.60733],[-5.68278,37.6081],[-5.68238,37.60856],[-5.68186,37.60895],[-5.67982,37.61004],[-5.67881,37.61135],[-5.67834,37.61172],[-5.6765,37.61216],[-5.67391,37.61466],[-5.67452,37.61685],[-5.67881,37.62136],[-5.68173,37.62263],[-5.68791,37.62325],[-5.68814,37.62448],[-5.68847,37.62533],[-5.68862,37.62603],[-5.68855,37.62673],[-5.68829,37.62741],[-5.68734,37.62886],[-5.68414,37.63449],[-5.68341,37.63625],[-5.68185,37.6392],[-5.67928,37.64352],[-5.6772,37.6474],[-5.6761,37.64906],[-5.67612,37.6526],[-5.67561,37.65396],[-5.67542,37.65488],[-5.67502,37.65575],[-5.67247,37.65971],[-5.67149,37.66096],[-5.6667,37.66463],[-5.66406,37.66544],[-5.66238,37.66686],[-5.65776,37.67005],[-5.65478,37.67081],[-5.64939,37.67333],[-5.6397,37.67672],[-5.63935,37.67696],[-5.63853,37.67765],[-5.63752,37.67887],[-5.63656,37.68025],[-5.63557,37.68229],[-5.63343,37.68614],[-5.62997,37.68832],[-5.62681,37.69102],[-5.62311,37.69479],[-5.62093,37.69783],[-5.61897,37.69935],[-5.61806,37.69928]],[[-5.67066,37.61821],[-5.67087,37.61815],[-5.67062,37.61744],[-5.67071,37.61741],[-5.67107,37.61549],[-5.67131,37.61533],[-5.67134,37.6152],[-5.67013,37.61507],[-5.66821,37.61548],[-5.6678,37.61461],[-5.66872,37.61414],[-5.66792,37.61371],[-5.6679,37.61365],[-5.66825,37.61335],[-5.66782,37.61273],[-5.66775,37.61252],[-5.66784,37.61247],[-5.66737,37.61151],[-5.66202,37.61272],[-5.66179,37.61388],[-5.66158,37.61623],[-5.66016,37.61676],[-5.66071,37.61829],[-5.66181,37.61812],[-5.66407,37.61844],[-5.66532,37.61772],[-5.66569,37.61758],[-5.66604,37.61757],[-5.66689,37.61816],[-5.66732,37.6186],[-5.66944,37.62183],[-5.66979,37.62117],[-5.67059,37.61894],[-5.67093,37.61879],[-5.67066,37.61821]]]}}]}