{"type":"FeatureCollection","features":[{"type":"Feature","properties":{"id":"4100301001"},"geometry":{"type":"Polygon","coordinates":[[[-6.16139,37.42639],[-6.16192,37.42599],[-6.16041,37.42481],[-6.16036,37.42419],[-6.16044,37.42374],[-6.16071,37.42353],[-6.16131,37.42277],[-6.16179,37.4219],[-6.16202,37.42186],[-6.163,37.42234],[-6.16376,37.42317],[-6.16484,37.42346],[-6.16506,37.42381],[-6.16502,37.42445],[-6.16545,37.42535],[-6.16624,37.42522],[-6.16685,37.42447],[-6.16721,37.42437],[-6.16741,37.4242],[-6.16791,37.42301],[-6.16858,37.42283],[-6.16988,37.42225],[-6.17095,37.42073],[-6.17137,37.41905],[-6.17151,37.41891],[-6.17191,37.419],[-6.17264,37.41826],[-6.17302,37.41807],[-6.17413,37.41834],[-6.17514,37.41888],[-6.17538,37.41912],[-6.17588,37.4202],[-6.17689,37.42083],[-6.17765,37.42167],[-6.17824,37.42165],[-6.17967,37.42083],[-6.17965,37.42129],[-6.17992,37.4215],[-6.18506,37.4221],[-6.18518,37.42225],[-6.18542,37.42307],[-6.18516,37.42461],[-6.18638,37.42628],[-6.18767,37.42756],[-6.18905,37.43064],[-6.18911,37.43095],[-6.18843,37.43218],[-6.18883,37.43289],[-6.18936,37.43358],[-6.19108,37.4355],[-6.1923,37.43678],[-6.19338,37.43766],[-6.1935,37.43844],[-6.19349,37.43932],[-6.19359,37.43967],[-6.19382,37.43986],[-6.19361,37.44124],[-6.19345,37.44357],[-6.19622,37.44749],[-6.19728,37.44943],[-6.19785,37.45066],[-6.19812,37.45151],[-6.19807,37.45195],[-6.19764,37.45261],[-6.19697,37.45299],[-6.19532,37.45324],[-6.19477,37.45412],[-6.19387,37.45417],[-6.19137,37.45616],[-6.19021,37.45821],[-6.18742,37.46114],[-6.18719,37.46202],[-6.18725,37.46338],[-6.18758,37.4648],[-6.18755,37.46515],[-6.18728,37.46585],[-6.187,37.46605],[-6.18666,37.466],[-6.18455,37.46517],[-6.18309,37.4648],[-6.18211,37.4647],[-6.18091,37.4647],[-6.17883,37.46501],[-6.17733,37.46561],[-6.17502,37.46308],[-6.17382,37.4614],[-6.17336,37.46045],[-6.17193,37.45133],[-6.17175,37.45082],[-6.17139,37.45032],[-6.17034,37.44961],[-6.16988,37.44944],[-6.16889,37.44932],[-6.16852,37.44917],[-6.16831,37.4485],[-6.16772,37.44729],[-6.16611,37.44527],[-6.1654,37.44404],[-6.16448,37.44161],[-6.16394,37.43936],[-6.16412,37.43799],[-6.16317,37.43553],[-6.16311,37.43431],[-6.16286,37.43386],[-6.162,37.43302],[-6.16181,37.43232],[-6.1617,37.43132],[-6.1619,37.42993],[-6.16187,37.4284],[-6.16169,37.42739],[-6.16135,37.42675],[-6.16139,37.42639]]]}},{"type":"Feature","properties":{"id":"4100301002"},"geometry":{"type":"Polygon","coordinates":[[[-6.163,37.42234],[-6.16343,37.42254],[-6.16339,37.42179],[-6.16386,37.41937],[-6.16418,37.41938],[-6.16434,37.41898],[-6.16459,37.41876],[-6.16481,37.41833],[-6.16574,37.41748],[-6.16568,37.41656],[-6.16576,37.41621],[-6.16614,37.41567],[-6.16689,37.415],[-6.16743,37.41498],[-6.16766,37.41479],[-6.16802,37.4148],[-6.16918,37.41534],[-6.16947,37.41539],[-6.16948,37.41571],[-6.1697,37.41582],[-6.17039,37.41572],[-6.1711,37.41532],[-6.17176,37.41528],[-6.1723,37.41538],[-6.17255,37.41558],[-6.17264,37.41585],[-6.17222,37.41635],[-6.17245,37.41675],[-6.17328,37.41732],[-6.17302,37.41807],[-6.17264,37.41826],[-6.17191,37.419],[-6.17151,37.41891],[-6.17137,37.41905],[-6.17095,37.42073],[-6.16988,37.42225],[-6.16858,37.42283],[-6.16791,37.42301],[-6.16741,37.4242],[-6.16672,37.42459],[-6.16635,37.42518],[-6.16545,37.42535],[-6.16502,37.42445],[-6.16499,37.42362],[-6.16484,37.42346],[-6.16376,37.42317],[-6.163,37.42234]]]}}]}