{"type":"FeatureCollection","features":[{"type":"Feature","properties":{"id":"4101601001"},"geometry":{"type":"Polygon","coordinates":[[[-6.139,37.34196],[-6.13919,37.34152],[-6.13882,37.34078],[-6.13847,37.34052],[-6.13825,37.34021],[-6.13784,37.33857],[-6.13815,37.33856],[-6.14032,37.33914],[-6.14182,37.33936],[-6.14523,37.33895],[-6.14581,37.33891],[-6.14649,37.339],[-6.1471,37.33914],[-6.14827,37.33966],[-6.15007,37.34059],[-6.15047,37.3407],[-6.15295,37.34076],[-6.15354,37.34091],[-6.15426,37.34127],[-6.15561,37.34172],[-6.15559,37.34226],[-6.15617,37.3444],[-6.15686,37.34514],[-6.15265,37.34475],[-6.15095,37.34416],[-6.1498,37.34411],[-6.14797,37.34426],[-6.14658,37.34421],[-6.14605,37.34429],[-6.14589,37.34419],[-6.1449,37.34439],[-6.14342,37.34425],[-6.14346,37.34399],[-6.14329,37.34386],[-6.14143,37.3429],[-6.14061,37.34236],[-6.13977,37.34237],[-6.139,37.34196]]]}},{"type":"Feature","properties":{"id":"4101601002"},"geometry":{"type":"Polygon","coordinates":[[[-6.13786,37.33858],[-6.13723,37.33627],[-6.13792,37.33623],[-6.13792,37.33631],[-6.13938,37.33637],[-6.13935,37.33598],[-6.13978,37.33499],[-6.14028,37.33511],[-6.14072,37.33412],[-6.14097,37.33294],[-6.1405,37.33284],[-6.14091,37.33243],[-6.14217,37.33232],[-6.14287,37.33207],[-6.14564,37.33156],[-6.14668,37.33118],[-6.14688,37.3314],[-6.14813,37.33078],[-6.14848,37.33073],[-6.15119,37.33066],[-6.1523,37.33104],[-6.15383,37.33113],[-6.15482,37.33115],[-6.15653,37.33102],[-6.15786,37.33111],[-6.15812,37.33248],[-6.15724,37.33251],[-6.15749,37.33318],[-6.1576,37.33462],[-6.15845,37.33632],[-6.1585,37.33667],[-6.15689,37.33837],[-6.15561,37.34172],[-6.15426,37.34127],[-6.15354,37.34091],[-6.15295,37.34076],[-6.15047,37.3407],[-6.15007,37.34059],[-6.14827,37.33966],[-6.1471,37.33914],[-6.14649,37.339],[-6.14581,37.33891],[-6.14523,37.33895],[-6.14182,37.33936],[-6.14032,37.33914],[-6.13815,37.33856],[-6.13786,37.33858]]]}},{"type":"Feature","properties":{"id":"4101601003"},"geometry":{"type":"Polygon","coordinates":[[[-6.13744,37.3503],[-6.13823,37.34766],[-6.13809,37.34554],[-6.13792,37.34476],[-6.13798,37.34385],[-6.139,37.34196],[-6.13977,37.34237],[-6.14061,37.34236],[-6.14143,37.3429],[-6.14329,37.34386],[-6.14346,37.34399],[-6.14342,37.34425],[-6.1449,37.34439],[-6.14589,37.34419],[-6.14605,37.34429],[-6.14658,37.34421],[-6.14797,37.34426],[-6.1498,37.34411],[-6.15095,37.34416],[-6.15265,37.34475],[-6.15686,37.34514],[-6.15712,37.34545],[-6.158,37.34581],[-6.15817,37.34598],[-6.15828,37.34664],[-6.15808,37.34867],[-6.15779,37.34946],[-6.15757,37.35124],[-6.15771,37.35149],[-6.15838,37.35184],[-6.15874,37.35187],[-6.1592,37.35167],[-6.15956,37.35177],[-6.15974,37.35311],[-6.15857,37.35294],[-6.15759,37.35301],[-6.15667,37.35337],[-6.15495,37.35477],[-6.15475,37.35524],[-6.15507,37.35623],[-6.15504,37.35663],[-6.15416,37.3575],[-6.15365,37.35842],[-6.14909,37.3587],[-6.14611,37.35914],[-6.14367,37.35927],[-6.14293,37.35891],[-6.14251,37.3585],[-6.14222,37.35838],[-6.14158,37.35842],[-6.14108,37.3582],[-6.14052,37.35698],[-6.13908,37.3557],[-6.13827,37.35426],[-6.13772,37.35369],[-6.13751,37.35316],[-6.13731,37.35119],[-6.13744,37.3503]]]}},{"type":"Feature","properties":{"id":"4101601004"},"geometry":{"type":"Polygon","coordinates":[[[-6.13723,37.33627],[-6.13694,37.33535],[-6.13402,37.33317],[-6.13394,37.33304],[-6.134,37.33287],[-6.13522,37.33178],[-6.13584,37.33162],[-6.13628,37.33132],[-6.13647,37.33097],[-6.13684,37.33073],[-6.13791,37.33032],[-6.13839,37.33003],[-6.13978,37.32883],[-6.13966,37.3281],[-6.14075,37.32706],[-6.14099,37.3267],[-6.14091,37.32626],[-6.14113,37.32578],[-6.14135,37.32565],[-6.14173,37.32559],[-6.14176,37.32509],[-6.14258,37.32458],[-6.14273,37.3243],[-6.14274,37.32394],[-6.14304,37.32344],[-6.14341,37.3221],[-6.14388,37.32171],[-6.14425,37.32122],[-6.14421,37.32088],[-6.144,37.3206],[-6.14403,37.32044],[-6.14438,37.3203],[-6.14456,37.32011],[-6.1441,37.31949],[-6.14411,37.31932],[-6.14468,37.31847],[-6.14482,37.3178],[-6.14722,37.31839],[-6.14751,37.31794],[-6.15153,37.31838],[-6.1513,37.31878],[-6.15153,37.31883],[-6.15219,37.3196],[-6.15321,37.3205],[-6.15375,37.32068],[-6.15551,37.32086],[-6.15564,37.32098],[-6.15593,37.32219],[-6.15608,37.32231],[-6.15195,37.32596],[-6.15325,37.32697],[-6.15333,37.32723],[-6.15323,37.32771],[-6.15335,37.328],[-6.15501,37.32962],[-6.15644,37.33078],[-6.15685,37.33095],[-6.15753,37.33097],[-6.15764,37.33109],[-6.15653,37.33102],[-6.15433,37.33115],[-6.1523,37.33104],[-6.15119,37.33066],[-6.14848,37.33073],[-6.14813,37.33078],[-6.14688,37.3314],[-6.14668,37.33118],[-6.14564,37.33156],[-6.14287,37.33207],[-6.14217,37.33232],[-6.14091,37.33243],[-6.1405,37.33284],[-6.14097,37.33294],[-6.14072,37.33412],[-6.14028,37.33511],[-6.13978,37.33499],[-6.13935,37.33598],[-6.13938,37.33637],[-6.13792,37.33631],[-6.13792,37.33623],[-6.13723,37.33627]]]}},{"type":"Feature","properties":{"id":"4101602001"},"geometry":{"type":"Polygon","coordinates":[[[-6.13796,37.33909],[-6.13825,37.34021],[-6.13847,37.34052],[-6.13882,37.34078],[-6.13919,37.34152],[-6.13871,37.34259],[-6.13798,37.34385],[-6.13792,37.34476],[-6.13809,37.34554],[-6.13823,37.34766],[-6.13744,37.3503],[-6.13507,37.34958],[-6.13458,37.34927],[-6.13288,37.34775],[-6.13268,37.34733],[-6.13151,37.34579],[-6.13074,37.34386],[-6.13011,37.34185],[-6.13329,37.33904],[-6.13796,37.33909]]]}},{"type":"Feature","properties":{"id":"4101602002"},"geometry":{"type":"Polygon","coordinates":[[[-6.14028,37.36678],[-6.13982,37.36536],[-6.13968,37.36353],[-6.13928,37.36311],[-6.13782,37.36284],[-6.13697,37.36294],[-6.13504,37.36268],[-6.13372,37.36225],[-6.13293,37.36235],[-6.13267,37.36229],[-6.13237,37.36212],[-6.13094,37.36079],[-6.13052,37.36057],[-6.13027,37.36055],[-6.12994,37.36076],[-6.12967,37.36123],[-6.12956,37.36172],[-6.12963,37.36225],[-6.12911,37.36306],[-6.13055,37.36391],[-6.13084,37.36419],[-6.13136,37.36508],[-6.13194,37.36545],[-6.13241,37.36561],[-6.13379,37.36586],[-6.13457,37.36585],[-6.13845,37.36542],[-6.13982,37.36536],[-6.1397,37.36591],[-6.13892,37.36722],[-6.13813,37.36801],[-6.13775,37.36818],[-6.13451,37.36886],[-6.13423,37.3691],[-6.1342,37.36984],[-6.13093,37.37413],[-6.12944,37.37668],[-6.12918,37.37667],[-6.12866,37.37647],[-6.12775,37.3758],[-6.12714,37.37552],[-6.12561,37.37539],[-6.12518,37.37514],[-6.12513,37.37377],[-6.12486,37.37275],[-6.12505,37.372],[-6.12494,37.37113],[-6.12521,37.36853],[-6.12292,37.36819],[-6.1217,37.36774],[-6.12153,37.36751],[-6.12148,37.36726],[-6.12167,37.36665],[-6.1222,37.36553],[-6.12243,37.36479],[-6.12275,37.36432],[-6.12276,37.36409],[-6.12206,37.3639],[-6.12184,37.3636],[-6.12199,37.36282],[-6.12168,37.3626],[-6.12122,37.36251],[-6.11878,37.36273],[-6.11842,37.36269],[-6.118,37.36192],[-6.11767,37.36044],[-6.11719,37.35967],[-6.11716,37.3593],[-6.11767,37.35832],[-6.11771,37.35756],[-6.11797,37.35726],[-6.11936,37.35685],[-6.11957,37.35663],[-6.11972,37.35547],[-6.11942,37.3551],[-6.11828,37.35475],[-6.11791,37.35474],[-6.11545,37.35526],[-6.11425,37.35538],[-6.11142,37.35615],[-6.10703,37.35703],[-6.10501,37.35734],[-6.1034,37.35733],[-6.10283,37.3572],[-6.1022,37.35731],[-6.10049,37.35728],[-6.09892,37.35705],[-6.09857,37.35694],[-6.09837,37.35672],[-6.09788,37.35654],[-6.09599,37.3562],[-6.09509,37.35626],[-6.09458,37.35613],[-6.09439,37.35591],[-6.09435,37.35559],[-6.09448,37.35485],[-6.09436,37.3545],[-6.09438,37.35393],[-6.09454,37.35336],[-6.09444,37.35309],[-6.09458,37.35264],[-6.09444,37.35219],[-6.09474,37.35196],[-6.09494,37.35193],[-6.09505,37.35162],[-6.09489,37.35093],[-6.09492,37.35058],[-6.09467,37.35047],[-6.09454,37.35027],[-6.09483,37.3497],[-6.09445,37.34914],[-6.09433,37.34847],[-6.09338,37.34786],[-6.09321,37.34759],[-6.09314,37.34725],[-6.09336,37.34675],[-6.09336,37.34636],[-6.0932,37.34616],[-6.093,37.3461],[-6.09278,37.34626],[-6.09258,37.34625],[-6.09241,37.34607],[-6.0926,37.34572],[-6.09298,37.34543],[-6.09248,37.34493],[-6.09238,37.34434],[-6.09249,37.34432],[-6.09225,37.34336],[-6.0923,37.3427],[-6.09218,37.34239],[-6.09244,37.34073],[-6.09219,37.34034],[-6.09229,37.33992],[-6.09219,37.33921],[-6.09191,37.33847],[-6.09201,37.33793],[-6.0928,37.33716],[-6.09333,37.33644],[-6.0933,37.33614],[-6.09268,37.33455],[-6.09289,37.33376],[-6.09288,37.33321],[-6.09236,37.33243],[-6.09249,37.33178],[-6.09283,37.33147],[-6.09307,37.33065],[-6.09343,37.33009],[-6.09341,37.32977],[-6.09292,37.32907],[-6.09292,37.32825],[-6.09305,37.32763],[-6.09352,37.32771],[-6.09577,37.3267],[-6.09781,37.32615],[-6.09841,37.3261],[-6.10039,37.32638],[-6.10395,37.32671],[-6.10494,37.32695],[-6.10553,37.32662],[-6.10573,37.3266],[-6.10704,37.32732],[-6.10748,37.32737],[-6.10956,37.32687],[-6.1105,37.32679],[-6.11136,37.32682],[-6.11205,37.32759],[-6.11241,37.32749],[-6.11287,37.32626],[-6.11307,37.32601],[-6.11468,37.32559],[-6.11509,37.32617],[-6.11578,37.32767],[-6.11708,37.3268],[-6.1183,37.32768],[-6.12416,37.32649],[-6.12494,37.32638],[-6.12551,37.3264],[-6.1263,37.32664],[-6.12985,37.32596],[-6.13114,37.32584],[-6.13076,37.32388],[-6.13074,37.32318],[-6.13172,37.32315],[-6.13222,37.31951],[-6.13288,37.31832],[-6.13338,37.31775],[-6.13574,37.31566],[-6.13592,37.31368],[-6.13597,37.31025],[-6.13581,37.30817],[-6.13542,37.30655],[-6.13643,37.30385],[-6.13724,37.30265],[-6.13787,37.30193],[-6.1399,37.30003],[-6.14119,37.2992],[-6.14195,37.29768],[-6.14496,37.29576],[-6.14493,37.29429],[-6.14503,37.2939],[-6.14561,37.29324],[-6.14756,37.29199],[-6.14793,37.29143],[-6.1479,37.29127],[-6.14727,37.29113],[-6.14612,37.29113],[-6.14124,37.2917],[-6.14148,37.29127],[-6.14245,37.28786],[-6.14253,37.28729],[-6.14245,37.28617],[-6.14188,37.28407],[-6.13999,37.2808],[-6.13936,37.28013],[-6.13923,37.27982],[-6.13859,37.27655],[-6.13855,37.27562],[-6.13893,37.27401],[-6.13947,37.27323],[-6.13956,37.27285],[-6.1394,37.27168],[-6.13955,37.27059],[-6.13974,37.26973],[-6.14035,37.26821],[-6.14053,37.26746],[-6.14051,37.26665],[-6.14001,37.26433],[-6.14,37.26388],[-6.1402,37.26283],[-6.14025,37.26115],[-6.14043,37.26052],[-6.14082,37.25971],[-6.14153,37.25907],[-6.14254,37.2586],[-6.14385,37.25837],[-6.14462,37.25809],[-6.14531,37.25801],[-6.14744,37.25814],[-6.14924,37.258],[-6.14993,37.2578],[-6.15045,37.25754],[-6.1517,37.25669],[-6.15236,37.25643],[-6.15292,37.25638],[-6.15393,37.25674],[-6.15516,37.2578],[-6.15634,37.25829],[-6.15687,37.25836],[-6.1581,37.2582],[-6.15896,37.25832],[-6.16162,37.2597],[-6.1624,37.25993],[-6.16439,37.26008],[-6.16488,37.26],[-6.1662,37.25947],[-6.16787,37.25763],[-6.16864,37.25697],[-6.17192,37.25483],[-6.17274,37.25451],[-6.17408,37.25432],[-6.17396,37.25478],[-6.17673,37.25525],[-6.17731,37.25549],[-6.17784,37.25586],[-6.17939,37.25626],[-6.17964,37.25639],[-6.17971,37.25669],[-6.18031,37.25725],[-6.18089,37.25754],[-6.18079,37.25797],[-6.18084,37.2588],[-6.18095,37.25911],[-6.18127,37.25943],[-6.18191,37.25991],[-6.18391,37.26108],[-6.18509,37.26212],[-6.1872,37.2635],[-6.18767,37.2634],[-6.18881,37.26415],[-6.18937,37.26516],[-6.19292,37.26766],[-6.195,37.27125],[-6.19741,37.27183],[-6.198,37.27283],[-6.19639,37.27458],[-6.19578,37.27489],[-6.19512,37.27506],[-6.19438,37.27512],[-6.19381,37.27532],[-6.19264,37.27605],[-6.19234,37.27649],[-6.19219,37.277],[-6.19195,37.27847],[-6.19114,37.27994],[-6.18963,37.28194],[-6.18931,37.28276],[-6.18921,37.28333],[-6.18926,37.28411],[-6.18991,37.28749],[-6.19121,37.28843],[-6.19136,37.28896],[-6.19127,37.29014],[-6.19106,37.29086],[-6.19397,37.29243],[-6.19461,37.29262],[-6.19568,37.2936],[-6.19594,37.29371],[-6.19904,37.29359],[-6.2002,37.29446],[-6.20023,37.29557],[-6.20052,37.29551],[-6.20052,37.29693],[-6.20032,37.29767],[-6.19947,37.29888],[-6.19925,37.29952],[-6.19913,37.30009],[-6.1992,37.30184],[-6.19368,37.30188],[-6.19357,37.30237],[-6.19361,37.30329],[-6.19385,37.30511],[-6.19194,37.30558],[-6.19189,37.30618],[-6.1908,37.30631],[-6.18847,37.30817],[-6.18767,37.30858],[-6.18724,37.30937],[-6.18651,37.30999],[-6.18574,37.31048],[-6.18489,37.31124],[-6.1839,37.31429],[-6.18363,37.31586],[-6.18326,37.31914],[-6.18317,37.3205],[-6.18327,37.32129],[-6.18361,37.32196],[-6.1851,37.32255],[-6.18615,37.32313],[-6.18689,37.32371],[-6.18734,37.32424],[-6.18746,37.32461],[-6.18736,37.32484],[-6.18639,37.32594],[-6.18648,37.32638],[-6.18463,37.32675],[-6.18555,37.3306],[-6.18432,37.33096],[-6.18393,37.33154],[-6.18391,37.33187],[-6.18484,37.33341],[-6.18509,37.33389],[-6.18508,37.33412],[-6.18496,37.33437],[-6.18451,37.33477],[-6.18354,37.33537],[-6.18301,37.33558],[-6.18221,37.3356],[-6.18187,37.3357],[-6.18067,37.33642],[-6.1793,37.33659],[-6.17866,37.33679],[-6.17678,37.33752],[-6.17649,37.3377],[-6.17625,37.33808],[-6.17666,37.33929],[-6.17785,37.34162],[-6.18009,37.34446],[-6.18036,37.34527],[-6.18074,37.34591],[-6.18088,37.34661],[-6.18115,37.34721],[-6.18178,37.34791],[-6.18191,37.3483],[-6.18268,37.34855],[-6.18326,37.34851],[-6.18351,37.34861],[-6.18454,37.34938],[-6.18472,37.35003],[-6.18561,37.35055],[-6.1857,37.35077],[-6.1861,37.35114],[-6.18625,37.35165],[-6.18636,37.353],[-6.18594,37.35349],[-6.18505,37.35382],[-6.18413,37.354],[-6.18128,37.3542],[-6.18086,37.35307],[-6.181,37.35277],[-6.18132,37.35243],[-6.18161,37.35162],[-6.18176,37.35145],[-6.18242,37.35115],[-6.18254,37.35066],[-6.1825,37.35019],[-6.18212,37.34943],[-6.1813,37.34824],[-6.18083,37.34725],[-6.18064,37.34709],[-6.18025,37.34693],[-6.17945,37.3469],[-6.17895,37.34666],[-6.17843,37.34654],[-6.17779,37.34651],[-6.17728,37.34659],[-6.17609,37.34705],[-6.17464,37.34792],[-6.17023,37.34966],[-6.16869,37.3507],[-6.1676,37.35169],[-6.16707,37.35201],[-6.16629,37.35223],[-6.16465,37.3521],[-6.16361,37.35237],[-6.16239,37.35236],[-6.16051,37.35309],[-6.15996,37.35314],[-6.15974,37.35311],[-6.15956,37.35177],[-6.1592,37.35167],[-6.15874,37.35187],[-6.15838,37.35184],[-6.15771,37.35149],[-6.15755,37.35102],[-6.15779,37.34946],[-6.15808,37.34867],[-6.15828,37.34664],[-6.15817,37.34598],[-6.158,37.34581],[-6.15712,37.34545],[-6.15624,37.34452],[-6.15559,37.34226],[-6.15565,37.34155],[-6.15689,37.33837],[-6.1585,37.33667],[-6.15845,37.33632],[-6.1576,37.33462],[-6.15749,37.33318],[-6.15724,37.33251],[-6.15812,37.33248],[-6.15786,37.33111],[-6.15765,37.3311],[-6.15753,37.33097],[-6.15685,37.33095],[-6.15585,37.33037],[-6.15335,37.328],[-6.15323,37.32771],[-6.15333,37.32723],[-6.15325,37.32697],[-6.15195,37.32596],[-6.15608,37.32231],[-6.15589,37.32207],[-6.15564,37.32098],[-6.15551,37.32086],[-6.15375,37.32068],[-6.15321,37.3205],[-6.15219,37.3196],[-6.15153,37.31883],[-6.1513,37.31878],[-6.15153,37.31838],[-6.14751,37.31794],[-6.14722,37.31839],[-6.14482,37.3178],[-6.14468,37.31847],[-6.14411,37.31932],[-6.1441,37.31949],[-6.14456,37.32011],[-6.14438,37.3203],[-6.14403,37.32044],[-6.144,37.3206],[-6.14421,37.32088],[-6.14425,37.32122],[-6.14388,37.32171],[-6.14341,37.3221],[-6.14304,37.32344],[-6.14274,37.32394],[-6.14273,37.3243],[-6.14258,37.32458],[-6.14176,37.32509],[-6.14173,37.32559],[-6.14135,37.32565],[-6.14113,37.32578],[-6.14091,37.32626],[-6.14099,37.3267],[-6.14075,37.32706],[-6.13966,37.3281],[-6.13978,37.32883],[-6.13839,37.33003],[-6.13791,37.33032],[-6.13684,37.33073],[-6.13647,37.33097],[-6.13628,37.33132],[-6.13584,37.33162],[-6.13522,37.33178],[-6.13441,37.33244],[-6.13438,37.33259],[-6.134,37.33287],[-6.13394,37.33304],[-6.13694,37.33535],[-6.13796,37.33909],[-6.13329,37.33904],[-6.13011,37.34185],[-6.13037,37.34276],[-6.13151,37.34579],[-6.13323,37.34812],[-6.13458,37.34927],[-6.13507,37.34958],[-6.13749,37.35031],[-6.13731,37.35119],[-6.13762,37.35354],[-6.13827,37.35426],[-6.13926,37.35593],[-6.14029,37.35671],[-6.14052,37.35698],[-6.14108,37.3582],[-6.14158,37.35842],[-6.14222,37.35838],[-6.14251,37.3585],[-6.14293,37.35891],[-6.14367,37.35927],[-6.14611,37.35914],[-6.14909,37.3587],[-6.15365,37.35842],[-6.1534,37.35887],[-6.15343,37.35905],[-6.15372,37.35941],[-6.15374,37.35994],[-6.15577,37.36145],[-6.15622,37.36218],[-6.15665,37.36205],[-6.15685,37.36258],[-6.15766,37.36397],[-6.1584,37.3644],[-6.15792,37.3649],[-6.15707,37.36522],[-6.15648,37.36368],[-6.15619,37.36375],[-6.15613,37.36368],[-6.15466,37.36373],[-6.15454,37.36316],[-6.15528,37.36291],[-6.15528,37.36255],[-6.15513,37.36217],[-6.1549,37.36218],[-6.15437,37.36239],[-6.15413,37.36227],[-6.15464,37.36202],[-6.15435,37.36176],[-6.15155,37.36358],[-6.15303,37.36598],[-6.15311,37.3663],[-6.15309,37.36649],[-6.15277,37.36633],[-6.15218,37.36822],[-6.1517,37.36862],[-6.15222,37.36896],[-6.15264,37.36967],[-6.15283,37.36965],[-6.15294,37.36978],[-6.1529,37.37054],[-6.15268,37.37055],[-6.15302,37.37131],[-6.15437,37.37098],[-6.15485,37.37199],[-6.15413,37.37244],[-6.15412,37.37266],[-6.15102,37.37339],[-6.14881,37.37371],[-6.14798,37.37414],[-6.14736,37.3746],[-6.14749,37.37301],[-6.14787,37.37158],[-6.1493,37.37164],[-6.14895,37.37086],[-6.14925,37.37056],[-6.15051,37.36989],[-6.15184,37.36899],[-6.15159,37.36893],[-6.15074,37.36901],[-6.14848,37.3694],[-6.14805,37.36939],[-6.14762,37.36924],[-6.14692,37.36876],[-6.14643,37.36818],[-6.14608,37.36821],[-6.14581,37.36833],[-6.14528,37.36884],[-6.14448,37.36918],[-6.14261,37.37085],[-6.14195,37.37012],[-6.14158,37.36907],[-6.14028,37.36678]],[[-6.1083,37.34213],[-6.11162,37.34227],[-6.11408,37.34209],[-6.11531,37.34109],[-6.117,37.34083],[-6.11815,37.34043],[-6.11875,37.34031],[-6.12007,37.3404],[-6.12024,37.33987],[-6.1203,37.33871],[-6.11991,37.33691],[-6.11915,37.33461],[-6.11903,37.33449],[-6.11789,37.33411],[-6.1176,37.3339],[-6.1177,37.33344],[-6.11759,37.3312],[-6.11806,37.32956],[-6.11577,37.32948],[-6.11542,37.32997],[-6.11391,37.32898],[-6.11416,37.32842],[-6.11354,37.32804],[-6.11323,37.32796],[-6.11218,37.32856],[-6.11144,37.32872],[-6.10957,37.32891],[-6.10902,37.32885],[-6.10616,37.32806],[-6.1055,37.32956],[-6.10448,37.32972],[-6.10382,37.32971],[-6.10296,37.32951],[-6.10275,37.32999],[-6.10262,37.33055],[-6.10356,37.33084],[-6.10724,37.33168],[-6.10775,37.33237],[-6.10827,37.33244],[-6.10955,37.33239],[-6.11032,37.33286],[-6.11051,37.33311],[-6.11052,37.33344],[-6.11034,37.33375],[-6.11006,37.3338],[-6.10915,37.33344],[-6.1072,37.33299],[-6.10757,37.33344],[-6.10743,37.33385],[-6.1072,37.33393],[-6.10634,37.33372],[-6.10589,37.33344],[-6.10473,37.33295],[-6.10421,37.33343],[-6.10425,37.33442],[-6.10551,37.33745],[-6.10571,37.33888],[-6.10536,37.3401],[-6.10547,37.34044],[-6.10608,37.34024],[-6.10651,37.34106],[-6.10607,37.34157],[-6.10594,37.34184],[-6.10602,37.34213],[-6.10641,37.34223],[-6.1083,37.34213]]]}}]}