{"type":"FeatureCollection","features":[{"type":"Feature","properties":{"id":"4103601001"},"geometry":{"type":"Polygon","coordinates":[[[-5.63035,37.08453],[-5.62901,37.08331],[-5.62824,37.08071],[-5.62802,37.07948],[-5.62926,37.07786],[-5.6314,37.07662],[-5.63218,37.07653],[-5.6326,37.07882],[-5.63287,37.07966],[-5.63394,37.08028],[-5.63456,37.08038],[-5.63529,37.08011],[-5.63558,37.08024],[-5.63592,37.08058],[-5.63514,37.08151],[-5.63499,37.08144],[-5.63476,37.08163],[-5.6346,37.08151],[-5.63427,37.08156],[-5.63405,37.08177],[-5.63343,37.08132],[-5.63137,37.08386],[-5.63035,37.08453]]]}},{"type":"Feature","properties":{"id":"4103601002"},"geometry":{"type":"Polygon","coordinates":[[[-5.62931,37.08513],[-5.63137,37.08386],[-5.63343,37.08132],[-5.63405,37.08177],[-5.63427,37.08156],[-5.6346,37.08151],[-5.63476,37.08163],[-5.63499,37.08144],[-5.63514,37.08151],[-5.63591,37.08063],[-5.63616,37.08121],[-5.63619,37.08191],[-5.63474,37.08385],[-5.63428,37.08419],[-5.63236,37.08499],[-5.63052,37.08628],[-5.62931,37.08513]]]}},{"type":"Feature","properties":{"id":"4103602001"},"geometry":{"type":"Polygon","coordinates":[[[-5.63289,37.07967],[-5.63495,37.07769],[-5.63574,37.07706],[-5.63622,37.07744],[-5.63629,37.07793],[-5.63663,37.07813],[-5.63761,37.07714],[-5.63776,37.07724],[-5.63714,37.07841],[-5.63702,37.07903],[-5.63697,37.0791],[-5.63673,37.07901],[-5.63551,37.07998],[-5.63461,37.08036],[-5.6344,37.08037],[-5.63394,37.08028],[-5.63289,37.07967]]]}},{"type":"Feature","properties":{"id":"4103602002"},"geometry":{"type":"Polygon","coordinates":[[[-5.63713,37.07845],[-5.63776,37.07724],[-5.63761,37.07714],[-5.63663,37.07813],[-5.63629,37.07793],[-5.63622,37.07744],[-5.63575,37.07706],[-5.63732,37.07586],[-5.63809,37.07316],[-5.63933,37.0733],[-5.64119,37.07323],[-5.64151,37.07349],[-5.64156,37.07359],[-5.64144,37.07377],[-5.64186,37.07433],[-5.64002,37.07558],[-5.63755,37.07857],[-5.63713,37.07845]]]}},{"type":"Feature","properties":{"id":"4103602003"},"geometry":{"type":"Polygon","coordinates":[[[-5.64253,37.11103],[-5.64079,37.11062],[-5.637,37.11121],[-5.63403,37.11138],[-5.63267,37.11134],[-5.62705,37.11085],[-5.62519,37.11079],[-5.61858,37.10977],[-5.61653,37.109],[-5.61324,37.10865],[-5.61239,37.10868],[-5.61214,37.10803],[-5.61111,37.10651],[-5.61003,37.10547],[-5.60913,37.10438],[-5.60597,37.10049],[-5.60508,37.09919],[-5.60456,37.09814],[-5.60418,37.09682],[-5.6044,37.0909],[-5.60407,37.08263],[-5.60411,37.07924],[-5.60368,37.07569],[-5.60335,37.07446],[-5.60338,37.07386],[-5.6037,37.07129],[-5.6043,37.06812],[-5.60601,37.06222],[-5.60652,37.05961],[-5.60668,37.05815],[-5.60709,37.05686],[-5.60782,37.05284],[-5.60973,37.04448],[-5.60973,37.04391],[-5.60945,37.04229],[-5.60962,37.03965],[-5.60927,37.03722],[-5.60844,37.0344],[-5.60752,37.03157],[-5.60716,37.03075],[-5.60587,37.03103],[-5.60556,37.03086],[-5.60536,37.03039],[-5.60511,37.02903],[-5.60508,37.02782],[-5.60488,37.02622],[-5.60558,37.01855],[-5.60545,37.01723],[-5.60385,37.01314],[-5.60317,37.01207],[-5.60288,37.01144],[-5.60263,37.01051],[-5.60239,37.0101],[-5.60039,37.00758],[-5.59955,37.00634],[-5.59834,37.0042],[-5.59691,37.00221],[-5.59475,37.00014],[-5.59247,36.99754],[-5.59102,36.99492],[-5.5888,36.99159],[-5.58745,36.98805],[-5.58553,36.9841],[-5.58496,36.98311],[-5.58244,36.97967],[-5.58229,36.97899],[-5.58243,36.97775],[-5.58233,36.97614],[-5.58066,36.96942],[-5.5802,36.96861],[-5.57642,36.96348],[-5.57333,36.95834],[-5.57217,36.95707],[-5.57046,36.95461],[-5.56766,36.94936],[-5.56507,36.94602],[-5.56138,36.94171],[-5.56043,36.94033],[-5.55724,36.93478],[-5.55321,36.92888],[-5.55253,36.92749],[-5.55106,36.92328],[-5.54939,36.92139],[-5.54729,36.91849],[-5.54237,36.91072],[-5.54093,36.90917],[-5.53936,36.90699],[-5.53909,36.90607],[-5.539,36.90403],[-5.53624,36.89885],[-5.53382,36.89345],[-5.53901,36.89539],[-5.54732,36.89894],[-5.56404,36.90763],[-5.56537,36.90803],[-5.5668,36.90828],[-5.56966,36.90896],[-5.57586,36.91116],[-5.57925,36.9127],[-5.58087,36.91372],[-5.58211,36.91429],[-5.5834,36.91509],[-5.58369,36.91546],[-5.58457,36.91759],[-5.58585,36.92146],[-5.58569,36.92283],[-5.58635,36.93011],[-5.58639,36.93313],[-5.58691,36.93628],[-5.587,36.93982],[-5.58677,36.94441],[-5.58711,36.94701],[-5.58815,36.94689],[-5.5886,36.94737],[-5.59142,36.95219],[-5.5941,36.95738],[-5.59443,36.95826],[-5.59496,36.9603],[-5.59605,36.96065],[-5.59695,36.96461],[-5.6008,36.96523],[-5.60177,36.96566],[-5.60652,36.96873],[-5.61124,36.97196],[-5.61157,36.97231],[-5.6117,36.97278],[-5.61285,36.97377],[-5.61357,36.97487],[-5.61376,36.9754],[-5.61374,36.97585],[-5.61316,36.97826],[-5.61278,36.98052],[-5.61242,36.9815],[-5.61221,36.98174],[-5.61,36.98312],[-5.60852,36.98431],[-5.61232,36.9871],[-5.61481,36.98937],[-5.61558,36.98961],[-5.61877,36.99095],[-5.62013,36.99208],[-5.62463,36.99717],[-5.62588,36.99818],[-5.62789,37.00016],[-5.62941,37.00102],[-5.63071,37.00214],[-5.63418,37.00647],[-5.63606,37.00852],[-5.63737,37.01032],[-5.63813,37.0118],[-5.64035,37.01447],[-5.64227,37.01627],[-5.64377,37.01789],[-5.64539,37.01931],[-5.64685,37.02036],[-5.64799,37.02164],[-5.64919,37.0232],[-5.65022,37.02392],[-5.65142,37.0252],[-5.65442,37.02781],[-5.65679,37.03006],[-5.65836,37.0309],[-5.66107,37.03284],[-5.66439,37.03474],[-5.66547,37.0356],[-5.66739,37.03845],[-5.66806,37.03914],[-5.6693,37.03959],[-5.67044,37.0402],[-5.67117,37.04042],[-5.67313,37.04055],[-5.67392,37.04082],[-5.67448,37.04131],[-5.67578,37.04411],[-5.67657,37.04525],[-5.67892,37.04754],[-5.67806,37.05026],[-5.67884,37.05114],[-5.67853,37.05183],[-5.67836,37.05256],[-5.67837,37.05335],[-5.67791,37.05364],[-5.67732,37.05497],[-5.67729,37.05549],[-5.67764,37.0565],[-5.67825,37.06158],[-5.6791,37.06288],[-5.67925,37.06371],[-5.67918,37.06594],[-5.67826,37.06836],[-5.67796,37.06931],[-5.6779,37.06998],[-5.67831,37.07128],[-5.6784,37.0775],[-5.67852,37.07962],[-5.67701,37.08003],[-5.67616,37.08054],[-5.67537,37.08116],[-5.67338,37.08363],[-5.67253,37.08445],[-5.67168,37.0855],[-5.67136,37.0863],[-5.67119,37.0879],[-5.67196,37.09044],[-5.67186,37.09095],[-5.67157,37.09164],[-5.67119,37.0921],[-5.66969,37.09344],[-5.6677,37.09693],[-5.66573,37.10077],[-5.66368,37.10446],[-5.66342,37.10462],[-5.66189,37.1046],[-5.65995,37.1037],[-5.6592,37.10352],[-5.65863,37.10351],[-5.65834,37.1036],[-5.65795,37.10423],[-5.65748,37.10595],[-5.65651,37.10877],[-5.6556,37.11104],[-5.65512,37.11198],[-5.65473,37.1123],[-5.6542,37.11261],[-5.65365,37.11273],[-5.65258,37.11262],[-5.65102,37.11221],[-5.64728,37.11194],[-5.64348,37.11136],[-5.64253,37.11103]],[[-5.63616,37.08121],[-5.63591,37.08053],[-5.63558,37.08024],[-5.63529,37.08011],[-5.63515,37.08014],[-5.63551,37.07998],[-5.63673,37.07901],[-5.63697,37.0791],[-5.63713,37.07845],[-5.63755,37.07857],[-5.64002,37.07558],[-5.64186,37.07433],[-5.64144,37.07377],[-5.64156,37.07359],[-5.64151,37.07349],[-5.64119,37.07323],[-5.63933,37.0733],[-5.63809,37.07316],[-5.63732,37.07586],[-5.63495,37.07769],[-5.63289,37.07967],[-5.6326,37.07882],[-5.63218,37.07653],[-5.6314,37.07662],[-5.62926,37.07786],[-5.62802,37.07948],[-5.62805,37.07983],[-5.62901,37.08331],[-5.63035,37.08453],[-5.62931,37.08513],[-5.63052,37.08628],[-5.63236,37.08499],[-5.63428,37.08419],[-5.63474,37.08385],[-5.63619,37.08191],[-5.63616,37.08121]]]}}]}