{"type":"FeatureCollection","features":[{"type":"Feature","properties":{"id":"4104501001"},"geometry":{"type":"Polygon","coordinates":[[[-6.15785,37.52973],[-6.15775,37.52825],[-6.15734,37.5283],[-6.15728,37.52798],[-6.15718,37.528],[-6.15696,37.5276],[-6.15755,37.52738],[-6.15754,37.52726],[-6.156,37.52745],[-6.15591,37.52716],[-6.15605,37.52706],[-6.15605,37.52657],[-6.15596,37.52651],[-6.15654,37.52559],[-6.15651,37.52548],[-6.15597,37.5254],[-6.15506,37.52545],[-6.15491,37.52518],[-6.15535,37.52451],[-6.15529,37.5244],[-6.15497,37.52445],[-6.15416,37.52502],[-6.15345,37.52539],[-6.15348,37.52568],[-6.15164,37.52661],[-6.10943,37.48513],[-6.11003,37.48397],[-6.10977,37.4818],[-6.10941,37.48053],[-6.10812,37.47709],[-6.10988,37.47597],[-6.11179,37.47452],[-6.11268,37.47402],[-6.11309,37.47435],[-6.11342,37.47526],[-6.11352,37.4762],[-6.1133,37.47741],[-6.11503,37.47756],[-6.11678,37.47724],[-6.11845,37.47712],[-6.1224,37.47847],[-6.1227,37.4787],[-6.1248,37.47951],[-6.1264,37.47966],[-6.12974,37.47973],[-6.1306,37.47995],[-6.13321,37.4809],[-6.13708,37.48171],[-6.13761,37.48174],[-6.14157,37.48144],[-6.14303,37.48149],[-6.14537,37.48185],[-6.14691,37.48231],[-6.15038,37.48305],[-6.15189,37.48326],[-6.15324,37.48369],[-6.15691,37.48572],[-6.15724,37.48583],[-6.15881,37.48601],[-6.15943,37.48637],[-6.16291,37.48978],[-6.16496,37.49128],[-6.17154,37.49469],[-6.17318,37.49546],[-6.17437,37.49567],[-6.17498,37.49587],[-6.17515,37.49602],[-6.1752,37.49621],[-6.17473,37.49803],[-6.17443,37.50008],[-6.17404,37.50051],[-6.17459,37.50065],[-6.17805,37.50053],[-6.17963,37.50058],[-6.1808,37.50077],[-6.18471,37.50104],[-6.18767,37.50102],[-6.18846,37.50091],[-6.18959,37.50109],[-6.19116,37.50097],[-6.19229,37.50105],[-6.19436,37.50098],[-6.19525,37.50079],[-6.19553,37.50057],[-6.19581,37.50007],[-6.19579,37.49954],[-6.19654,37.49766],[-6.19699,37.4973],[-6.19786,37.49688],[-6.19874,37.49921],[-6.19924,37.50009],[-6.20026,37.50143],[-6.20069,37.50247],[-6.20124,37.50331],[-6.20205,37.50551],[-6.2025,37.50725],[-6.20261,37.50846],[-6.20286,37.5091],[-6.20555,37.51328],[-6.20675,37.51619],[-6.2076,37.5187],[-6.20965,37.52107],[-6.21004,37.52126],[-6.2109,37.52235],[-6.21274,37.52363],[-6.21475,37.52539],[-6.21564,37.52498],[-6.21704,37.52512],[-6.21741,37.52578],[-6.21649,37.52789],[-6.16363,37.53349],[-6.16243,37.53367],[-6.15835,37.53236],[-6.15925,37.53099],[-6.15908,37.52951],[-6.15785,37.52973]]]}},{"type":"Feature","properties":{"id":"4104501002"},"geometry":{"type":"Polygon","coordinates":[[[-6.15164,37.52661],[-6.15348,37.52568],[-6.15345,37.52539],[-6.15416,37.52502],[-6.15497,37.52445],[-6.15529,37.5244],[-6.15535,37.52451],[-6.15491,37.52518],[-6.15506,37.52545],[-6.15597,37.5254],[-6.15651,37.52548],[-6.15654,37.52559],[-6.15596,37.52651],[-6.15605,37.52657],[-6.15605,37.52706],[-6.15591,37.52716],[-6.156,37.52745],[-6.15754,37.52726],[-6.15755,37.52738],[-6.15696,37.5276],[-6.15718,37.528],[-6.15728,37.52798],[-6.15734,37.5283],[-6.15775,37.52825],[-6.15784,37.52876],[-6.15392,37.52941],[-6.15342,37.5297],[-6.15327,37.52958],[-6.15297,37.52872],[-6.15266,37.52837],[-6.15283,37.52805],[-6.15281,37.52786],[-6.1527,37.52784],[-6.15269,37.52671],[-6.15182,37.52697],[-6.15164,37.52661]]]}},{"type":"Feature","properties":{"id":"4104502001"},"geometry":{"type":"Polygon","coordinates":[[[-6.10915,37.54445],[-6.10882,37.54415],[-6.10873,37.54379],[-6.10864,37.54232],[-6.10769,37.54175],[-6.10711,37.54125],[-6.10633,37.54004],[-6.10618,37.53954],[-6.10622,37.53915],[-6.10663,37.538],[-6.1066,37.53772],[-6.10645,37.53733],[-6.10471,37.53585],[-6.10364,37.53199],[-6.10308,37.53051],[-6.10261,37.52985],[-6.10097,37.52843],[-6.10041,37.52751],[-6.09931,37.52503],[-6.09875,37.52462],[-6.09827,37.52443],[-6.097,37.52421],[-6.09652,37.52401],[-6.09618,37.52374],[-6.09568,37.52304],[-6.095,37.52102],[-6.09474,37.52089],[-6.09385,37.52089],[-6.0932,37.52069],[-6.09199,37.51942],[-6.09165,37.51891],[-6.0915,37.51855],[-6.09155,37.51804],[-6.0935,37.51666],[-6.09388,37.51612],[-6.0939,37.51559],[-6.09292,37.5126],[-6.09238,37.51222],[-6.09205,37.5122],[-6.09049,37.51244],[-6.08995,37.51224],[-6.0898,37.51208],[-6.08969,37.51184],[-6.08969,37.51145],[-6.09005,37.51071],[-6.09122,37.50907],[-6.09089,37.5086],[-6.09028,37.50816],[-6.08972,37.50785],[-6.08693,37.50667],[-6.0866,37.50642],[-6.08637,37.50602],[-6.08634,37.50557],[-6.08696,37.5043],[-6.08689,37.50386],[-6.08669,37.50347],[-6.08634,37.50321],[-6.09126,37.5001],[-6.09461,37.49895],[-6.09695,37.49791],[-6.09896,37.4968],[-6.10449,37.49167],[-6.10563,37.49045],[-6.10831,37.48699],[-6.10943,37.48513],[-6.15164,37.52661],[-6.15182,37.52697],[-6.15269,37.52671],[-6.1527,37.52784],[-6.15281,37.52786],[-6.15283,37.52805],[-6.15266,37.52837],[-6.15297,37.52872],[-6.15327,37.52958],[-6.15342,37.5297],[-6.15392,37.52941],[-6.15461,37.52931],[-6.15427,37.53119],[-6.15356,37.53111],[-6.15355,37.5313],[-6.15373,37.53157],[-6.15341,37.53171],[-6.15325,37.53209],[-6.15243,37.53208],[-6.15246,37.53241],[-6.1515,37.53247],[-6.15151,37.53262],[-6.15078,37.53268],[-6.15053,37.53296],[-6.15063,37.53303],[-6.15018,37.53337],[-6.15137,37.53414],[-6.15131,37.53438],[-6.15086,37.53474],[-6.15129,37.53553],[-6.15334,37.53602],[-6.15347,37.53588],[-6.15358,37.53608],[-6.15033,37.53804],[-6.1497,37.53883],[-6.11758,37.55462],[-6.1169,37.55422],[-6.11666,37.55329],[-6.11649,37.553],[-6.11605,37.55281],[-6.11542,37.55291],[-6.11444,37.5536],[-6.11414,37.5537],[-6.11379,37.55371],[-6.11321,37.55348],[-6.11278,37.5527],[-6.11268,37.55209],[-6.11296,37.55174],[-6.11399,37.55171],[-6.1144,37.55145],[-6.11452,37.55121],[-6.11476,37.54948],[-6.11462,37.549],[-6.11442,37.54856],[-6.11325,37.547],[-6.11278,37.54661],[-6.10915,37.54445]]]}},{"type":"Feature","properties":{"id":"4104502002"},"geometry":{"type":"Polygon","coordinates":[[[-6.15925,37.53099],[-6.15736,37.53381],[-6.15388,37.53548],[-6.15403,37.53628],[-6.15262,37.53773],[-6.15113,37.5379],[-6.14892,37.54011],[-6.14877,37.5402],[-6.1487,37.54016],[-6.1479,37.54081],[-6.11864,37.55723],[-6.1194,37.55636],[-6.11948,37.55604],[-6.11935,37.55564],[-6.11846,37.55503],[-6.11758,37.55462],[-6.1497,37.53883],[-6.15033,37.53804],[-6.15358,37.53608],[-6.15347,37.53588],[-6.15334,37.53602],[-6.15129,37.53553],[-6.15086,37.53474],[-6.15131,37.53438],[-6.15137,37.53414],[-6.15018,37.53337],[-6.15063,37.53303],[-6.15053,37.53296],[-6.15078,37.53268],[-6.15151,37.53262],[-6.1515,37.53247],[-6.15246,37.53241],[-6.15243,37.53208],[-6.15325,37.53209],[-6.15341,37.53171],[-6.15373,37.53157],[-6.15355,37.5313],[-6.15356,37.53111],[-6.15427,37.53119],[-6.15459,37.52932],[-6.15784,37.52876],[-6.15785,37.52973],[-6.15908,37.52951],[-6.15925,37.53099]]]}},{"type":"Feature","properties":{"id":"4104502003"},"geometry":{"type":"Polygon","coordinates":[[[-6.13124,37.58712],[-6.13123,37.58452],[-6.13047,37.583],[-6.13044,37.58227],[-6.13065,37.581],[-6.13038,37.57958],[-6.13031,37.57849],[-6.13056,37.57766],[-6.13104,37.57667],[-6.13034,37.57522],[-6.13009,37.5744],[-6.12932,37.57322],[-6.12944,37.5723],[-6.12807,37.57115],[-6.12764,37.57103],[-6.127,37.57102],[-6.12654,37.57123],[-6.12629,37.57109],[-6.12624,37.57046],[-6.12614,37.57031],[-6.12571,37.57012],[-6.12536,37.57011],[-6.12444,37.57071],[-6.12405,37.57031],[-6.12375,37.57044],[-6.12361,37.57098],[-6.12345,37.57115],[-6.12315,37.5712],[-6.12275,37.57009],[-6.12252,37.56985],[-6.1219,37.56974],[-6.12169,37.56959],[-6.12159,37.56873],[-6.12113,37.56828],[-6.12043,37.56787],[-6.12054,37.56719],[-6.11947,37.56716],[-6.11906,37.56699],[-6.11904,37.56677],[-6.11969,37.56521],[-6.12004,37.56464],[-6.12048,37.5643],[-6.12113,37.56402],[-6.12085,37.56347],[-6.12093,37.56323],[-6.12107,37.56307],[-6.12175,37.56277],[-6.1219,37.56236],[-6.12168,37.56202],[-6.1213,37.56171],[-6.12029,37.56137],[-6.11958,37.56093],[-6.11945,37.56043],[-6.11967,37.55922],[-6.11949,37.55883],[-6.11851,37.55807],[-6.11841,37.5577],[-6.11864,37.55723],[-6.1479,37.54081],[-6.1487,37.54016],[-6.14877,37.5402],[-6.14892,37.54011],[-6.15113,37.5379],[-6.15262,37.53773],[-6.15403,37.53628],[-6.15388,37.53548],[-6.15443,37.5352],[-6.1554,37.53646],[-6.16084,37.53622],[-6.1634,37.53695],[-6.16701,37.53769],[-6.16704,37.53776],[-6.2191,37.53465],[-6.22068,37.53746],[-6.22082,37.53835],[-6.2215,37.5404],[-6.2237,37.54323],[-6.22475,37.54417],[-6.22509,37.54586],[-6.22752,37.54977],[-6.2276,37.55099],[-6.22779,37.55166],[-6.22835,37.55291],[-6.23007,37.55316],[-6.23045,37.554],[-6.23133,37.55459],[-6.23264,37.556],[-6.2333,37.55618],[-6.2336,37.55635],[-6.23391,37.55696],[-6.23385,37.55771],[-6.23398,37.55805],[-6.23499,37.55969],[-6.23485,37.56055],[-6.23459,37.56101],[-6.23437,37.56122],[-6.23274,37.56206],[-6.23245,37.56231],[-6.23224,37.56278],[-6.23231,37.56319],[-6.23304,37.56408],[-6.23308,37.56434],[-6.23294,37.56486],[-6.23244,37.56574],[-6.232,37.56694],[-6.23208,37.5671],[-6.23257,37.56738],[-6.23263,37.56756],[-6.23203,37.5692],[-6.23132,37.57037],[-6.23042,37.57103],[-6.23015,37.57135],[-6.22993,37.57195],[-6.22892,37.57272],[-6.22864,37.57306],[-6.22856,37.57338],[-6.2286,37.57389],[-6.22939,37.57695],[-6.22904,37.5771],[-6.22939,37.57822],[-6.22909,37.57918],[-6.22905,37.57965],[-6.22916,37.58022],[-6.22939,37.58065],[-6.22984,37.5811],[-6.22997,37.58145],[-6.22991,37.58209],[-6.22951,37.58319],[-6.22917,37.58343],[-6.22901,37.58371],[-6.22917,37.58522],[-6.22903,37.58562],[-6.22865,37.58604],[-6.22842,37.58656],[-6.22839,37.58716],[-6.22948,37.58853],[-6.23017,37.58921],[-6.23048,37.58983],[-6.23112,37.59071],[-6.23146,37.59142],[-6.23239,37.59418],[-6.23239,37.59479],[-6.23222,37.59551],[-6.23225,37.59746],[-6.23203,37.59793],[-6.23192,37.59861],[-6.23207,37.60062],[-6.23201,37.60115],[-6.23218,37.60173],[-6.23256,37.60219],[-6.23378,37.60445],[-6.2351,37.60615],[-6.2358,37.60681],[-6.23752,37.60802],[-6.23851,37.60846],[-6.2394,37.6093],[-6.23966,37.61018],[-6.24124,37.61094],[-6.24161,37.61129],[-6.24238,37.61366],[-6.24319,37.61535],[-6.24337,37.61664],[-6.2433,37.61748],[-6.2454,37.6198],[-6.2471,37.62241],[-6.25051,37.6251],[-6.25283,37.62615],[-6.2552,37.62753],[-6.25722,37.62812],[-6.25686,37.6283],[-6.25502,37.62885],[-6.25102,37.62944],[-6.24909,37.62982],[-6.24751,37.63073],[-6.24474,37.63184],[-6.24141,37.63345],[-6.23273,37.63634],[-6.23142,37.63498],[-6.23001,37.63388],[-6.22875,37.63172],[-6.22744,37.62699],[-6.22693,37.62464],[-6.22602,37.62261],[-6.22239,37.62017],[-6.22169,37.61871],[-6.22129,37.61826],[-6.22057,37.61764],[-6.21897,37.6165],[-6.21815,37.61532],[-6.2179,37.61566],[-6.21679,37.61334],[-6.21063,37.61096],[-6.2074,37.61049],[-6.20639,37.61027],[-6.20615,37.61159],[-6.2055,37.61168],[-6.2052,37.60975],[-6.2025,37.60807],[-6.20015,37.60723],[-6.19452,37.60583],[-6.19134,37.6045],[-6.1884,37.6036],[-6.18767,37.60343],[-6.18558,37.6036],[-6.18481,37.60342],[-6.18214,37.60195],[-6.17955,37.60197],[-6.17931,37.60315],[-6.1794,37.60338],[-6.17742,37.60374],[-6.17662,37.60426],[-6.17632,37.60477],[-6.17606,37.60624],[-6.1758,37.60653],[-6.17434,37.60735],[-6.17285,37.60803],[-6.17187,37.60818],[-6.17064,37.60914],[-6.16997,37.60921],[-6.1677,37.60873],[-6.16727,37.6088],[-6.16599,37.60951],[-6.16484,37.60887],[-6.1624,37.60791],[-6.16128,37.60738],[-6.16071,37.60719],[-6.15889,37.60688],[-6.15755,37.60579],[-6.15344,37.60371],[-6.15292,37.60323],[-6.15271,37.60236],[-6.15239,37.60196],[-6.1513,37.60128],[-6.15066,37.6007],[-6.15018,37.59962],[-6.14912,37.59831],[-6.14735,37.59658],[-6.14701,37.59615],[-6.14337,37.59515],[-6.1403,37.5955],[-6.13908,37.5955],[-6.13852,37.59559],[-6.13727,37.59601],[-6.13669,37.59511],[-6.13551,37.59392],[-6.13474,37.59288],[-6.13337,37.59188],[-6.13236,37.58936],[-6.13202,37.58716],[-6.13124,37.58712]]]}},{"type":"Feature","properties":{"id":"4104502004"},"geometry":{"type":"Polygon","coordinates":[[[-6.15443,37.53521],[-6.15736,37.53381],[-6.15837,37.53237],[-6.16243,37.53367],[-6.16363,37.53349],[-6.21649,37.52789],[-6.21633,37.52827],[-6.21728,37.532],[-6.2191,37.53465],[-6.16704,37.53776],[-6.16701,37.53769],[-6.1634,37.53695],[-6.16084,37.53622],[-6.1554,37.53646],[-6.15443,37.53521]]]}}]}