{"type":"FeatureCollection","features":[{"type":"Feature","properties":{"id":"4106701001"},"geometry":{"type":"Polygon","coordinates":[[[-6.18471,37.50104],[-6.1808,37.50077],[-6.17963,37.50058],[-6.17805,37.50053],[-6.17459,37.50065],[-6.17404,37.50051],[-6.17443,37.50008],[-6.17473,37.49803],[-6.1752,37.49621],[-6.17498,37.49587],[-6.17437,37.49567],[-6.17318,37.49546],[-6.17154,37.49469],[-6.16496,37.49128],[-6.16291,37.48978],[-6.15917,37.48617],[-6.15837,37.48591],[-6.15724,37.48583],[-6.15691,37.48572],[-6.15324,37.48369],[-6.15189,37.48326],[-6.15038,37.48305],[-6.14691,37.48231],[-6.14537,37.48185],[-6.14303,37.48149],[-6.14157,37.48144],[-6.13761,37.48174],[-6.13708,37.48171],[-6.13321,37.4809],[-6.1306,37.47995],[-6.12974,37.47973],[-6.1264,37.47966],[-6.1248,37.47951],[-6.1227,37.4787],[-6.1224,37.47847],[-6.12205,37.47777],[-6.12184,37.47683],[-6.12192,37.47572],[-6.12225,37.47393],[-6.12257,37.47049],[-6.12387,37.46502],[-6.12487,37.46311],[-6.12614,37.46094],[-6.12692,37.45981],[-6.12787,37.45914],[-6.12992,37.45668],[-6.1304,37.45597],[-6.13117,37.45378],[-6.13205,37.45259],[-6.13252,37.45016],[-6.13278,37.44967],[-6.13382,37.44899],[-6.13486,37.44806],[-6.13538,37.44792],[-6.13563,37.44776],[-6.13615,37.44713],[-6.13694,37.44647],[-6.13704,37.44621],[-6.13699,37.44543],[-6.13717,37.44457],[-6.13895,37.44114],[-6.14104,37.43765],[-6.14152,37.43665],[-6.14152,37.43615],[-6.14113,37.43546],[-6.13916,37.43299],[-6.13726,37.43146],[-6.13617,37.42909],[-6.13594,37.42809],[-6.13577,37.42547],[-6.13685,37.42361],[-6.13787,37.42257],[-6.14353,37.42305],[-6.14493,37.42278],[-6.14552,37.42254],[-6.14738,37.42222],[-6.14987,37.42091],[-6.14882,37.41903],[-6.15235,37.41783],[-6.15367,37.41802],[-6.15369,37.41815],[-6.15487,37.4184],[-6.15575,37.41847],[-6.15579,37.41818],[-6.15609,37.41822],[-6.1563,37.41758],[-6.15648,37.41758],[-6.15648,37.41702],[-6.15675,37.41655],[-6.15679,37.4161],[-6.15697,37.41604],[-6.15797,37.41794],[-6.15665,37.41897],[-6.15548,37.41859],[-6.15522,37.41927],[-6.15523,37.41966],[-6.15466,37.41969],[-6.15395,37.41987],[-6.1537,37.42088],[-6.1539,37.42191],[-6.15324,37.4244],[-6.15281,37.42545],[-6.15229,37.42636],[-6.15028,37.4286],[-6.14944,37.43076],[-6.14934,37.43135],[-6.14966,37.43219],[-6.15217,37.43646],[-6.15328,37.43885],[-6.15573,37.44365],[-6.15743,37.44606],[-6.15938,37.44838],[-6.15995,37.44932],[-6.16049,37.44977],[-6.16365,37.45147],[-6.16544,37.45259],[-6.16619,37.45318],[-6.16633,37.45367],[-6.16651,37.4562],[-6.16681,37.45673],[-6.16987,37.45836],[-6.17044,37.45919],[-6.17055,37.4597],[-6.17045,37.46077],[-6.17056,37.46155],[-6.17081,37.46234],[-6.1714,37.46278],[-6.17209,37.46313],[-6.17518,37.46556],[-6.18113,37.47046],[-6.18248,37.4717],[-6.18373,37.47428],[-6.1839,37.47607],[-6.18493,37.47876],[-6.18514,37.48036],[-6.18608,37.48222],[-6.18798,37.48482],[-6.18837,37.48592],[-6.18808,37.48648],[-6.1882,37.48695],[-6.18671,37.48963],[-6.18647,37.49078],[-6.18742,37.49577],[-6.18849,37.49724],[-6.18872,37.4988],[-6.18848,37.50092],[-6.18767,37.50102],[-6.18471,37.50104]]]}},{"type":"Feature","properties":{"id":"4106701002"},"geometry":{"type":"Polygon","coordinates":[[[-6.19229,37.50105],[-6.19116,37.50097],[-6.18959,37.50109],[-6.18848,37.50092],[-6.18872,37.4988],[-6.18849,37.49724],[-6.18742,37.49577],[-6.18647,37.49078],[-6.18671,37.48963],[-6.1882,37.48695],[-6.18808,37.48648],[-6.18837,37.48592],[-6.18798,37.48482],[-6.18608,37.48222],[-6.18514,37.48036],[-6.18493,37.47876],[-6.1839,37.47607],[-6.18373,37.47428],[-6.18248,37.4717],[-6.18113,37.47046],[-6.17518,37.46556],[-6.17209,37.46313],[-6.1714,37.46278],[-6.17081,37.46234],[-6.17056,37.46155],[-6.17045,37.46077],[-6.17055,37.4597],[-6.17044,37.45919],[-6.16987,37.45836],[-6.16681,37.45673],[-6.16651,37.4562],[-6.16633,37.45367],[-6.16619,37.45318],[-6.16544,37.45259],[-6.16365,37.45147],[-6.16049,37.44977],[-6.15995,37.44932],[-6.15938,37.44838],[-6.15743,37.44606],[-6.15573,37.44365],[-6.15328,37.43885],[-6.15217,37.43646],[-6.14966,37.43219],[-6.14934,37.43135],[-6.14944,37.43076],[-6.15028,37.4286],[-6.15229,37.42636],[-6.15281,37.42545],[-6.15324,37.4244],[-6.1539,37.42191],[-6.1537,37.42088],[-6.15395,37.41987],[-6.15466,37.41969],[-6.15523,37.41966],[-6.15522,37.41927],[-6.15548,37.41859],[-6.15665,37.41897],[-6.15797,37.41794],[-6.15807,37.41802],[-6.15795,37.41828],[-6.15895,37.41875],[-6.15982,37.41878],[-6.16184,37.41992],[-6.16078,37.4215],[-6.16172,37.42171],[-6.16205,37.42187],[-6.16179,37.4219],[-6.16131,37.42277],[-6.16071,37.42353],[-6.16044,37.42374],[-6.16038,37.42464],[-6.16041,37.42481],[-6.16192,37.42599],[-6.16139,37.42639],[-6.16135,37.42675],[-6.16169,37.42739],[-6.16187,37.4284],[-6.1619,37.42993],[-6.1617,37.43132],[-6.16181,37.43232],[-6.162,37.43302],[-6.16286,37.43386],[-6.16311,37.43431],[-6.16317,37.43553],[-6.16412,37.43799],[-6.16394,37.43936],[-6.16448,37.44161],[-6.1654,37.44404],[-6.16611,37.44527],[-6.16772,37.44729],[-6.16831,37.4485],[-6.16852,37.44917],[-6.16889,37.44932],[-6.16988,37.44944],[-6.17034,37.44961],[-6.17139,37.45032],[-6.17175,37.45082],[-6.17193,37.45133],[-6.17336,37.46045],[-6.17382,37.4614],[-6.17502,37.46308],[-6.17733,37.46561],[-6.17883,37.46501],[-6.18091,37.4647],[-6.18211,37.4647],[-6.18309,37.4648],[-6.18455,37.46517],[-6.18666,37.466],[-6.187,37.46605],[-6.18728,37.46585],[-6.18755,37.46515],[-6.18758,37.4648],[-6.18725,37.46338],[-6.18719,37.46202],[-6.18742,37.46114],[-6.19021,37.45821],[-6.19137,37.45616],[-6.19387,37.45417],[-6.19477,37.45412],[-6.19532,37.45324],[-6.19697,37.45299],[-6.19764,37.45261],[-6.19807,37.45195],[-6.19812,37.45151],[-6.19785,37.45066],[-6.19728,37.44943],[-6.19622,37.44749],[-6.19345,37.44357],[-6.19361,37.44124],[-6.19382,37.43986],[-6.19539,37.43971],[-6.19667,37.43781],[-6.19852,37.43334],[-6.19951,37.43357],[-6.20125,37.43216],[-6.20998,37.43534],[-6.21485,37.43814],[-6.21516,37.43966],[-6.2155,37.44068],[-6.21783,37.44458],[-6.21957,37.44978],[-6.21891,37.45368],[-6.21642,37.46276],[-6.21263,37.46591],[-6.21273,37.46669],[-6.21317,37.46786],[-6.2096,37.47109],[-6.20905,37.47173],[-6.20592,37.48014],[-6.20358,37.48496],[-6.1997,37.4936],[-6.19887,37.49577],[-6.19786,37.49688],[-6.19699,37.4973],[-6.19654,37.49766],[-6.19579,37.49954],[-6.19581,37.50007],[-6.19553,37.50057],[-6.19525,37.50079],[-6.19436,37.50098],[-6.19229,37.50105]]]}},{"type":"Feature","properties":{"id":"4106701003"},"geometry":{"type":"Polygon","coordinates":[[[-6.13787,37.42257],[-6.1387,37.42166],[-6.13983,37.41997],[-6.14039,37.41882],[-6.14059,37.41745],[-6.14099,37.41676],[-6.14167,37.41629],[-6.14316,37.41599],[-6.14449,37.41583],[-6.14464,37.4157],[-6.14462,37.41536],[-6.14409,37.41391],[-6.14398,37.41194],[-6.14481,37.41014],[-6.14483,37.40992],[-6.14567,37.40848],[-6.14592,37.40844],[-6.14699,37.40865],[-6.14902,37.40829],[-6.14962,37.40811],[-6.15,37.41048],[-6.15057,37.41268],[-6.15081,37.41588],[-6.15125,37.41656],[-6.15368,37.41685],[-6.15367,37.41802],[-6.15235,37.41783],[-6.14882,37.41903],[-6.14987,37.42091],[-6.14738,37.42222],[-6.14552,37.42254],[-6.14493,37.42278],[-6.14353,37.42305],[-6.13787,37.42257]]]}},{"type":"Feature","properties":{"id":"4106702001"},"geometry":{"type":"Polygon","coordinates":[[[-6.15807,37.41802],[-6.15697,37.41604],[-6.15679,37.4161],[-6.15675,37.41655],[-6.15648,37.41702],[-6.15648,37.41758],[-6.1563,37.41758],[-6.15609,37.41822],[-6.15579,37.41818],[-6.15575,37.41847],[-6.15487,37.4184],[-6.15369,37.41815],[-6.15361,37.41749],[-6.15368,37.41685],[-6.15116,37.41653],[-6.15081,37.41588],[-6.15057,37.41268],[-6.15,37.41048],[-6.14962,37.40811],[-6.15092,37.40778],[-6.15194,37.40772],[-6.15261,37.407],[-6.15272,37.40714],[-6.15275,37.40813],[-6.15324,37.40872],[-6.15343,37.40969],[-6.15371,37.41023],[-6.15409,37.4105],[-6.15489,37.41075],[-6.15541,37.41101],[-6.15652,37.41233],[-6.1569,37.41258],[-6.15902,37.41389],[-6.16135,37.41495],[-6.16029,37.41558],[-6.15963,37.41667],[-6.15906,37.41726],[-6.16071,37.41815],[-6.16082,37.41861],[-6.16098,37.41874],[-6.1608,37.41908],[-6.16046,37.41914],[-6.15982,37.41878],[-6.15895,37.41875],[-6.15795,37.41828],[-6.15807,37.41802]]]}},{"type":"Feature","properties":{"id":"4106702002"},"geometry":{"type":"Polygon","coordinates":[[[-6.16343,37.42254],[-6.16183,37.42174],[-6.16078,37.4215],[-6.16184,37.41992],[-6.16045,37.41913],[-6.1608,37.41908],[-6.16098,37.41874],[-6.16082,37.41861],[-6.16071,37.41815],[-6.15906,37.41726],[-6.15963,37.41667],[-6.16029,37.41558],[-6.16135,37.41495],[-6.15902,37.41389],[-6.1569,37.41258],[-6.15652,37.41233],[-6.15541,37.41101],[-6.15489,37.41075],[-6.15409,37.4105],[-6.15371,37.41023],[-6.15343,37.40969],[-6.15324,37.40872],[-6.15275,37.40813],[-6.15272,37.40714],[-6.15259,37.407],[-6.1529,37.40664],[-6.15602,37.4044],[-6.1573,37.40368],[-6.15787,37.40344],[-6.15867,37.40331],[-6.16035,37.40332],[-6.16242,37.40375],[-6.16332,37.40381],[-6.1642,37.40374],[-6.16607,37.40396],[-6.16715,37.40378],[-6.16835,37.40377],[-6.16854,37.40413],[-6.16854,37.40458],[-6.16764,37.40474],[-6.16776,37.40559],[-6.16799,37.40622],[-6.16922,37.40636],[-6.16974,37.40688],[-6.17009,37.40769],[-6.17018,37.40894],[-6.17032,37.40942],[-6.17065,37.41009],[-6.17122,37.41066],[-6.17166,37.41087],[-6.17326,37.41132],[-6.17355,37.41149],[-6.17373,37.41177],[-6.17373,37.41199],[-6.17261,37.41326],[-6.17267,37.41355],[-6.17324,37.4141],[-6.17275,37.41495],[-6.17245,37.41477],[-6.17207,37.41471],[-6.17049,37.41481],[-6.16958,37.41535],[-6.16934,37.4154],[-6.16811,37.41482],[-6.16776,37.41477],[-6.16743,37.41498],[-6.16689,37.415],[-6.16614,37.41567],[-6.16572,37.41632],[-6.16574,37.41748],[-6.16481,37.41833],[-6.16459,37.41876],[-6.16434,37.41898],[-6.16418,37.41938],[-6.16386,37.41937],[-6.16339,37.42179],[-6.16343,37.42254]]]}}]}