{"type":"FeatureCollection","features":[{"type":"Feature","properties":{"id":"4106501001"},"geometry":{"type":"Polygon","coordinates":[[[-5.45115,37.12547],[-5.45146,37.12427],[-5.45139,37.12369],[-5.45117,37.12342],[-5.45146,37.12226],[-5.45166,37.12232],[-5.4517,37.12219],[-5.45276,37.12158],[-5.45382,37.12126],[-5.45449,37.12122],[-5.45264,37.12367],[-5.45421,37.1249],[-5.45577,37.12532],[-5.45653,37.12526],[-5.45981,37.12451],[-5.46027,37.12425],[-5.46066,37.12424],[-5.46069,37.1245],[-5.46046,37.12528],[-5.4603,37.12637],[-5.46018,37.12657],[-5.45928,37.12714],[-5.45743,37.12775],[-5.45413,37.12984],[-5.45398,37.1297],[-5.45261,37.12646],[-5.45238,37.12558],[-5.45115,37.12547]]]}},{"type":"Feature","properties":{"id":"4106501002"},"geometry":{"type":"Polygon","coordinates":[[[-5.4388,37.13039],[-5.43991,37.12949],[-5.44141,37.13023],[-5.44206,37.13004],[-5.44272,37.13012],[-5.44342,37.13036],[-5.44462,37.13114],[-5.44473,37.12939],[-5.44742,37.12943],[-5.44728,37.13098],[-5.44802,37.13104],[-5.44804,37.13089],[-5.44901,37.13093],[-5.44906,37.13288],[-5.44922,37.13376],[-5.44909,37.13408],[-5.44871,37.13409],[-5.44675,37.13271],[-5.44426,37.13375],[-5.44274,37.13471],[-5.43883,37.13437],[-5.43907,37.13132],[-5.43767,37.13148],[-5.4388,37.13039]]]}},{"type":"Feature","properties":{"id":"4106501003"},"geometry":{"type":"Polygon","coordinates":[[[-5.45062,37.12741],[-5.45115,37.12547],[-5.45238,37.12558],[-5.45261,37.12646],[-5.45398,37.1297],[-5.45413,37.12984],[-5.45743,37.12775],[-5.45904,37.12723],[-5.45974,37.12691],[-5.4603,37.12637],[-5.46046,37.12528],[-5.46056,37.12509],[-5.46062,37.12518],[-5.46055,37.12549],[-5.46072,37.12737],[-5.46036,37.1296],[-5.46005,37.13031],[-5.45989,37.13127],[-5.45966,37.13158],[-5.45869,37.13246],[-5.4582,37.13276],[-5.45768,37.1335],[-5.45759,37.13427],[-5.4567,37.13586],[-5.45581,37.13791],[-5.45539,37.13934],[-5.45503,37.14126],[-5.45359,37.1379],[-5.45333,37.13683],[-5.4533,37.13628],[-5.45287,37.1349],[-5.45155,37.13162],[-5.45391,37.13001],[-5.45282,37.12946],[-5.45062,37.12741]]]}},{"type":"Feature","properties":{"id":"4106501004"},"geometry":{"type":"Polygon","coordinates":[[[-5.44902,37.13408],[-5.44922,37.13376],[-5.44906,37.13288],[-5.44901,37.13093],[-5.44804,37.13089],[-5.44802,37.13104],[-5.44728,37.13098],[-5.4473,37.13026],[-5.4474,37.13026],[-5.44742,37.12943],[-5.44905,37.12945],[-5.44902,37.12739],[-5.44946,37.12643],[-5.44997,37.12676],[-5.45162,37.12842],[-5.45282,37.12946],[-5.45391,37.13001],[-5.45155,37.13162],[-5.45287,37.1349],[-5.4533,37.13628],[-5.45333,37.13683],[-5.45359,37.1379],[-5.45505,37.14133],[-5.45452,37.14146],[-5.45392,37.14363],[-5.45304,37.14578],[-5.45279,37.14666],[-5.45288,37.14724],[-5.45268,37.14785],[-5.45221,37.14861],[-5.45137,37.14939],[-5.45109,37.15031],[-5.45094,37.15043],[-5.45055,37.15042],[-5.45071,37.14927],[-5.45043,37.1481],[-5.45018,37.14421],[-5.4489,37.13501],[-5.44902,37.13408]]]}},{"type":"Feature","properties":{"id":"4106501005"},"geometry":{"type":"Polygon","coordinates":[[[-5.43991,37.12949],[-5.44127,37.12846],[-5.44286,37.1275],[-5.44633,37.12619],[-5.44802,37.12568],[-5.44946,37.12643],[-5.44902,37.12739],[-5.44905,37.12945],[-5.44473,37.12939],[-5.44462,37.13114],[-5.44342,37.13036],[-5.44272,37.13012],[-5.44206,37.13004],[-5.44141,37.13023],[-5.43991,37.12949]]]}},{"type":"Feature","properties":{"id":"4106502001"},"geometry":{"type":"Polygon","coordinates":[[[-5.45345,37.12265],[-5.45449,37.12122],[-5.45619,37.12107],[-5.45815,37.12102],[-5.45966,37.12106],[-5.45994,37.12134],[-5.45836,37.12178],[-5.45817,37.12194],[-5.45704,37.12234],[-5.45626,37.12244],[-5.45584,37.1227],[-5.45528,37.12327],[-5.45511,37.12318],[-5.45473,37.12355],[-5.45408,37.12331],[-5.45391,37.12298],[-5.45419,37.12282],[-5.45345,37.12265]]]}},{"type":"Feature","properties":{"id":"4106502002"},"geometry":{"type":"Polygon","coordinates":[[[-5.45323,37.11996],[-5.45613,37.11918],[-5.45608,37.11865],[-5.45807,37.11862],[-5.4586,37.11904],[-5.45624,37.11984],[-5.45644,37.12108],[-5.45416,37.12125],[-5.45414,37.12109],[-5.45335,37.12041],[-5.45323,37.11996]]]}},{"type":"Feature","properties":{"id":"4106502003"},"geometry":{"type":"Polygon","coordinates":[[[-5.46137,37.12317],[-5.46029,37.12173],[-5.45966,37.12106],[-5.45745,37.12101],[-5.45644,37.12108],[-5.45624,37.11984],[-5.45765,37.1194],[-5.45924,37.11873],[-5.461,37.11664],[-5.46202,37.11724],[-5.4633,37.11783],[-5.46335,37.11797],[-5.46466,37.11879],[-5.46502,37.11922],[-5.46503,37.11949],[-5.46477,37.11991],[-5.46137,37.12317]]]}},{"type":"Feature","properties":{"id":"4106502004"},"geometry":{"type":"Polygon","coordinates":[[[-5.45345,37.12265],[-5.45419,37.12282],[-5.45391,37.12298],[-5.45408,37.12331],[-5.45473,37.12355],[-5.45511,37.12318],[-5.45528,37.12327],[-5.45584,37.1227],[-5.45626,37.12244],[-5.45704,37.12234],[-5.45817,37.12194],[-5.45836,37.12178],[-5.45994,37.12134],[-5.46137,37.12317],[-5.46084,37.12361],[-5.46061,37.12424],[-5.46027,37.12425],[-5.45981,37.12451],[-5.45683,37.12521],[-5.45577,37.12532],[-5.45421,37.1249],[-5.45264,37.12367],[-5.45345,37.12265]]]}},{"type":"Feature","properties":{"id":"4106502005"},"geometry":{"type":"Polygon","coordinates":[[[-5.46069,37.1245],[-5.46061,37.12424],[-5.46084,37.12361],[-5.46139,37.1232],[-5.46186,37.12265],[-5.46477,37.11991],[-5.46503,37.11949],[-5.46502,37.11922],[-5.46541,37.11903],[-5.46758,37.11912],[-5.46853,37.11904],[-5.47041,37.1211],[-5.46961,37.1212],[-5.46869,37.12149],[-5.46767,37.12157],[-5.46587,37.12147],[-5.46588,37.12199],[-5.46516,37.12199],[-5.46467,37.12473],[-5.46492,37.1248],[-5.46458,37.12566],[-5.46262,37.12483],[-5.46069,37.1245]]]}},{"type":"Feature","properties":{"id":"4106502006"},"geometry":{"type":"Polygon","coordinates":[[[-5.46458,37.12566],[-5.46492,37.1248],[-5.46467,37.12473],[-5.46516,37.12199],[-5.46588,37.12199],[-5.46587,37.12147],[-5.46767,37.12157],[-5.46869,37.12149],[-5.46987,37.12117],[-5.47026,37.12248],[-5.46927,37.12308],[-5.46905,37.1238],[-5.46914,37.12418],[-5.46843,37.12691],[-5.46768,37.12682],[-5.46614,37.12645],[-5.46458,37.12566]]]}},{"type":"Feature","properties":{"id":"4106503001"},"geometry":{"type":"Polygon","coordinates":[[[-5.44997,37.12676],[-5.44826,37.12586],[-5.44717,37.12518],[-5.44712,37.12486],[-5.4474,37.12453],[-5.44725,37.1237],[-5.44788,37.12338],[-5.44791,37.12213],[-5.448,37.12211],[-5.4482,37.1225],[-5.44911,37.12271],[-5.4493,37.12207],[-5.44978,37.12223],[-5.45067,37.12226],[-5.45135,37.1225],[-5.45117,37.12342],[-5.45139,37.12369],[-5.45146,37.12427],[-5.45062,37.12744],[-5.44997,37.12676]]]}},{"type":"Feature","properties":{"id":"4106503002"},"geometry":{"type":"Polygon","coordinates":[[[-5.43604,37.12213],[-5.43634,37.12286],[-5.43679,37.12355],[-5.43806,37.12429],[-5.43893,37.12465],[-5.43984,37.12484],[-5.44094,37.1249],[-5.44152,37.12476],[-5.44268,37.12423],[-5.44392,37.12412],[-5.44442,37.12399],[-5.44556,37.12332],[-5.44608,37.12317],[-5.4466,37.12326],[-5.44709,37.12379],[-5.44725,37.12373],[-5.44733,37.12394],[-5.4474,37.12453],[-5.44712,37.12486],[-5.44717,37.12518],[-5.44802,37.12568],[-5.44471,37.12677],[-5.44416,37.12575],[-5.44363,37.1259],[-5.44171,37.12685],[-5.44138,37.12679],[-5.44073,37.12687],[-5.44032,37.12734],[-5.43964,37.12762],[-5.4396,37.12788],[-5.43943,37.12803],[-5.43784,37.12834],[-5.43737,37.12862],[-5.43475,37.12875],[-5.43376,37.12871],[-5.43226,37.12842],[-5.43184,37.12808],[-5.43041,37.12761],[-5.42918,37.12694],[-5.42692,37.12675],[-5.42554,37.12621],[-5.4244,37.12607],[-5.42424,37.12595],[-5.42733,37.12536],[-5.42761,37.12522],[-5.4279,37.12486],[-5.4282,37.12472],[-5.4287,37.12461],[-5.42951,37.12459],[-5.42998,37.12442],[-5.43113,37.12389],[-5.43261,37.1229],[-5.43324,37.12265],[-5.43457,37.12236],[-5.43492,37.12213],[-5.43604,37.12213]]]}},{"type":"Feature","properties":{"id":"4106503003"},"geometry":{"type":"Polygon","coordinates":[[[-5.44806,37.12216],[-5.44737,37.12191],[-5.44731,37.12165],[-5.44741,37.1215],[-5.4471,37.12102],[-5.4464,37.11919],[-5.44506,37.11919],[-5.44071,37.11889],[-5.44085,37.11854],[-5.44112,37.11828],[-5.44137,37.11814],[-5.44188,37.11808],[-5.44208,37.11792],[-5.44244,37.11789],[-5.44302,37.11769],[-5.44319,37.11736],[-5.44369,37.11711],[-5.44391,37.11688],[-5.44476,37.11715],[-5.44512,37.11704],[-5.44609,37.11628],[-5.44639,37.11619],[-5.44675,37.11545],[-5.44727,37.11505],[-5.44734,37.11456],[-5.4472,37.11427],[-5.44746,37.11412],[-5.4477,37.11539],[-5.44862,37.11716],[-5.44963,37.11785],[-5.4501,37.11856],[-5.45134,37.11895],[-5.4518,37.11921],[-5.45126,37.12025],[-5.45146,37.12048],[-5.45166,37.12232],[-5.45146,37.12226],[-5.45135,37.1225],[-5.45067,37.12226],[-5.44978,37.12223],[-5.4493,37.12207],[-5.44916,37.12271],[-5.4482,37.1225],[-5.44806,37.12216]]]}},{"type":"Feature","properties":{"id":"4106503005"},"geometry":{"type":"Polygon","coordinates":[[[-5.43604,37.12213],[-5.43507,37.12065],[-5.43256,37.11812],[-5.43108,37.11727],[-5.42927,37.11716],[-5.42934,37.11692],[-5.42993,37.11673],[-5.43103,37.11678],[-5.4322,37.1171],[-5.43419,37.11823],[-5.43558,37.11877],[-5.43636,37.11897],[-5.43761,37.11883],[-5.44072,37.11881],[-5.44071,37.11889],[-5.44506,37.11919],[-5.4464,37.11919],[-5.4471,37.12102],[-5.44741,37.1215],[-5.44731,37.12165],[-5.44737,37.12191],[-5.44791,37.12213],[-5.44788,37.12338],[-5.44709,37.12379],[-5.4466,37.12326],[-5.44608,37.12317],[-5.44556,37.12332],[-5.44442,37.12399],[-5.44392,37.12412],[-5.44268,37.12423],[-5.44152,37.12476],[-5.44094,37.1249],[-5.43984,37.12484],[-5.43893,37.12465],[-5.43806,37.12429],[-5.43679,37.12355],[-5.43634,37.12286],[-5.43604,37.12213]]]}},{"type":"Feature","properties":{"id":"4106503006"},"geometry":{"type":"Polygon","coordinates":[[[-5.43943,37.12803],[-5.4396,37.12788],[-5.43964,37.12762],[-5.44032,37.12734],[-5.44073,37.12687],[-5.44138,37.12679],[-5.44171,37.12685],[-5.44363,37.1259],[-5.44416,37.12575],[-5.44471,37.12677],[-5.44286,37.1275],[-5.44127,37.12846],[-5.4388,37.13039],[-5.43943,37.12803]]]}},{"type":"Feature","properties":{"id":"4106504001"},"geometry":{"type":"Polygon","coordinates":[[[-5.44977,37.11806],[-5.45113,37.11799],[-5.452,37.11775],[-5.45315,37.1173],[-5.4541,37.11714],[-5.45384,37.11741],[-5.45332,37.11769],[-5.45254,37.1185],[-5.4527,37.11849],[-5.45311,37.11924],[-5.45238,37.11969],[-5.45275,37.12004],[-5.45323,37.11996],[-5.45335,37.12041],[-5.45414,37.12109],[-5.45416,37.12125],[-5.45303,37.12147],[-5.4517,37.12219],[-5.45146,37.12048],[-5.45126,37.12025],[-5.4518,37.11921],[-5.45134,37.11895],[-5.4501,37.11856],[-5.44977,37.11806]]]}},{"type":"Feature","properties":{"id":"4106504002"},"geometry":{"type":"Polygon","coordinates":[[[-5.44977,37.11806],[-5.44963,37.11785],[-5.44862,37.11716],[-5.44788,37.11585],[-5.4477,37.11539],[-5.44734,37.11364],[-5.44749,37.11337],[-5.44702,37.11257],[-5.4469,37.11213],[-5.4465,37.11165],[-5.44643,37.11129],[-5.44921,37.11171],[-5.44985,37.11238],[-5.45246,37.11333],[-5.45269,37.1136],[-5.45421,37.11436],[-5.45453,37.1147],[-5.45473,37.11469],[-5.45477,37.11548],[-5.45459,37.11566],[-5.45427,37.1168],[-5.45406,37.11712],[-5.45368,37.11726],[-5.45315,37.1173],[-5.452,37.11775],[-5.45113,37.11799],[-5.44977,37.11806]]]}},{"type":"Feature","properties":{"id":"4106504003"},"geometry":{"type":"Polygon","coordinates":[[[-5.45267,37.11854],[-5.45462,37.1185],[-5.45522,37.11857],[-5.45532,37.11816],[-5.45622,37.11826],[-5.45648,37.11781],[-5.45645,37.11696],[-5.45792,37.11658],[-5.45726,37.11552],[-5.45685,37.11507],[-5.45701,37.11454],[-5.45734,37.1141],[-5.45813,37.11337],[-5.45901,37.11224],[-5.45963,37.11177],[-5.46173,37.10981],[-5.46275,37.10931],[-5.46436,37.10923],[-5.46547,37.10886],[-5.46554,37.10943],[-5.46539,37.1111],[-5.46406,37.11329],[-5.46387,37.11387],[-5.46277,37.11459],[-5.46264,37.11484],[-5.46258,37.11565],[-5.46134,37.11616],[-5.45924,37.11873],[-5.4586,37.11904],[-5.45807,37.11862],[-5.45608,37.11865],[-5.45613,37.11918],[-5.45275,37.12004],[-5.45238,37.11969],[-5.45311,37.11924],[-5.45267,37.11854]]]}},{"type":"Feature","properties":{"id":"4106504004"},"geometry":{"type":"Polygon","coordinates":[[[-5.45462,37.1185],[-5.45254,37.1185],[-5.45295,37.11805],[-5.4541,37.11714],[-5.45459,37.11566],[-5.45477,37.11548],[-5.45473,37.11469],[-5.45453,37.1147],[-5.45421,37.11436],[-5.45269,37.1136],[-5.45239,37.1133],[-5.45229,37.1128],[-5.45238,37.11273],[-5.45264,37.11281],[-5.45389,37.11226],[-5.45422,37.11186],[-5.45456,37.11185],[-5.45457,37.11194],[-5.45477,37.11203],[-5.45537,37.1119],[-5.45551,37.11162],[-5.4559,37.11122],[-5.45627,37.11115],[-5.45628,37.11069],[-5.45642,37.11055],[-5.45656,37.11043],[-5.45711,37.11051],[-5.45722,37.11041],[-5.45722,37.11018],[-5.45747,37.10992],[-5.45743,37.10981],[-5.45845,37.10907],[-5.45853,37.10884],[-5.45899,37.10885],[-5.45937,37.10908],[-5.45981,37.10858],[-5.46064,37.10831],[-5.46131,37.10846],[-5.46187,37.10889],[-5.4631,37.10861],[-5.46385,37.10887],[-5.46474,37.1085],[-5.46507,37.1082],[-5.4653,37.10819],[-5.46514,37.10845],[-5.46535,37.10879],[-5.46529,37.10892],[-5.46436,37.10923],[-5.46275,37.10931],[-5.46173,37.10981],[-5.45857,37.11271],[-5.45813,37.11337],[-5.45734,37.1141],[-5.45701,37.11454],[-5.45685,37.11507],[-5.45726,37.11552],[-5.45792,37.11658],[-5.45645,37.11696],[-5.45648,37.11781],[-5.45622,37.11826],[-5.45532,37.11816],[-5.45522,37.11857],[-5.45462,37.1185]]]}},{"type":"Feature","properties":{"id":"4106505001"},"geometry":{"type":"Polygon","coordinates":[[[-5.35218,37.20955],[-5.35203,37.20723],[-5.35186,37.20658],[-5.35127,37.20576],[-5.35129,37.20558],[-5.3526,37.20376],[-5.35174,37.20295],[-5.35127,37.20202],[-5.35114,37.20145],[-5.35168,37.19898],[-5.35101,37.19721],[-5.35091,37.19661],[-5.35098,37.19623],[-5.35162,37.19489],[-5.35259,37.19334],[-5.35437,37.19152],[-5.35673,37.19069],[-5.35836,37.19023],[-5.35885,37.19004],[-5.35901,37.1898],[-5.35866,37.18719],[-5.35813,37.18515],[-5.35799,37.18415],[-5.35812,37.18348],[-5.35829,37.18326],[-5.36021,37.18187],[-5.36065,37.18164],[-5.36112,37.1812],[-5.36121,37.18091],[-5.36098,37.18022],[-5.36049,37.17944],[-5.36022,37.17871],[-5.36019,37.17823],[-5.36038,37.17711],[-5.36039,37.1759],[-5.36023,37.17457],[-5.36082,37.17235],[-5.36073,37.17113],[-5.36124,37.16884],[-5.36133,37.16801],[-5.36114,37.16685],[-5.36101,37.1649],[-5.36079,37.16441],[-5.35917,37.16221],[-5.35815,37.16118],[-5.35789,37.16003],[-5.35732,37.15932],[-5.35696,37.15788],[-5.35679,37.15631],[-5.35593,37.15243],[-5.35556,37.15139],[-5.35521,37.15082],[-5.3545,37.14997],[-5.353,37.14872],[-5.35208,37.14737],[-5.35162,37.14636],[-5.35039,37.14458],[-5.34887,37.14292],[-5.3477,37.14197],[-5.34644,37.14133],[-5.34579,37.14087],[-5.34144,37.1387],[-5.33772,37.13626],[-5.33633,37.13581],[-5.33389,37.13443],[-5.33107,37.13353],[-5.32872,37.13228],[-5.32783,37.13143],[-5.32425,37.12946],[-5.32326,37.12876],[-5.32,37.12691],[-5.31869,37.12561],[-5.31805,37.12474],[-5.31755,37.12451],[-5.3163,37.1235],[-5.31465,37.12161],[-5.31235,37.11794],[-5.31163,37.1164],[-5.30848,37.11079],[-5.30697,37.10747],[-5.30599,37.10578],[-5.30423,37.10222],[-5.30254,37.10012],[-5.30157,37.09926],[-5.30023,37.09773],[-5.2988,37.09657],[-5.29803,37.09626],[-5.29682,37.0955],[-5.29495,37.09459],[-5.29364,37.09409],[-5.29242,37.09388],[-5.29025,37.09302],[-5.28905,37.09267],[-5.28682,37.09234],[-5.28418,37.09118],[-5.28326,37.09065],[-5.2825,37.09035],[-5.28152,37.09013],[-5.27981,37.08869],[-5.2793,37.08806],[-5.27893,37.08789],[-5.27741,37.08775],[-5.2768,37.08759],[-5.2752,37.08658],[-5.27405,37.08641],[-5.27281,37.08592],[-5.27065,37.0844],[-5.26928,37.08278],[-5.2688,37.08235],[-5.2673,37.08153],[-5.26689,37.08107],[-5.26665,37.08001],[-5.26659,37.07863],[-5.26647,37.07841],[-5.26301,37.07679],[-5.25674,37.07255],[-5.25471,37.07139],[-5.252,37.07006],[-5.24867,37.06796],[-5.24743,37.06736],[-5.24538,37.0671],[-5.24385,37.06609],[-5.24304,37.0657],[-5.23963,37.06435],[-5.23779,37.06346],[-5.23623,37.06323],[-5.23581,37.06303],[-5.23439,37.06276],[-5.23333,37.0627],[-5.23232,37.06199],[-5.23165,37.06177],[-5.22975,37.06151],[-5.22694,37.06065],[-5.22551,37.06046],[-5.22437,37.06053],[-5.22458,37.06016],[-5.22528,37.0599],[-5.22842,37.05911],[-5.23089,37.058],[-5.23176,37.05725],[-5.23251,37.0556],[-5.23276,37.0554],[-5.23575,37.05378],[-5.2372,37.05288],[-5.23759,37.05322],[-5.23792,37.05335],[-5.23839,37.05336],[-5.24162,37.05254],[-5.24231,37.05243],[-5.24604,37.0522],[-5.24884,37.05186],[-5.25319,37.05163],[-5.26024,37.05162],[-5.26068,37.05155],[-5.26593,37.04927],[-5.26699,37.04862],[-5.26846,37.04789],[-5.27269,37.04633],[-5.27481,37.04595],[-5.27686,37.04629],[-5.27978,37.04693],[-5.28087,37.04673],[-5.28181,37.04666],[-5.28237,37.04695],[-5.28344,37.04657],[-5.28465,37.04646],[-5.28572,37.04657],[-5.28661,37.04653],[-5.28894,37.04677],[-5.29038,37.04663],[-5.29163,37.04669],[-5.2931,37.04417],[-5.29488,37.0432],[-5.2954,37.04281],[-5.29642,37.04164],[-5.29665,37.04115],[-5.29794,37.03969],[-5.29903,37.03889],[-5.3021,37.03736],[-5.30289,37.03687],[-5.30433,37.03573],[-5.30671,37.03434],[-5.30929,37.0331],[-5.31003,37.03266],[-5.31055,37.0322],[-5.31133,37.03126],[-5.31246,37.03068],[-5.31337,37.02991],[-5.31447,37.02924],[-5.31515,37.02803],[-5.31608,37.02737],[-5.31768,37.02644],[-5.31842,37.02573],[-5.31922,37.02542],[-5.32048,37.02329],[-5.32101,37.02276],[-5.32138,37.02271],[-5.32227,37.0228],[-5.32303,37.0221],[-5.32412,37.02085],[-5.32494,37.02024],[-5.32611,37.01956],[-5.32823,37.01862],[-5.32959,37.01823],[-5.33088,37.01614],[-5.33237,37.01577],[-5.33277,37.01557],[-5.33409,37.01457],[-5.3357,37.01318],[-5.33665,37.01251],[-5.3375,37.01174],[-5.33794,37.01105],[-5.339,37.00691],[-5.33952,37.00621],[-5.33941,37.0052],[-5.33965,37.00456],[-5.34151,37.00578],[-5.34265,37.00618],[-5.34479,37.00628],[-5.34606,37.00602],[-5.34641,37.00607],[-5.3467,37.00625],[-5.34767,37.00781],[-5.34798,37.00802],[-5.34956,37.00848],[-5.35062,37.0076],[-5.3513,37.0072],[-5.35211,37.00692],[-5.3524,37.00695],[-5.35356,37.00758],[-5.35518,37.00864],[-5.35575,37.00889],[-5.35708,37.00917],[-5.3577,37.00964],[-5.35876,37.01059],[-5.35897,37.01098],[-5.35918,37.01189],[-5.35943,37.01249],[-5.36,37.01331],[-5.36041,37.0134],[-5.36149,37.01337],[-5.36183,37.01345],[-5.36331,37.01441],[-5.3639,37.01511],[-5.36402,37.01546],[-5.36407,37.01646],[-5.3642,37.01676],[-5.36414,37.01787],[-5.36404,37.01824],[-5.36216,37.01997],[-5.36182,37.02039],[-5.36143,37.02214],[-5.36135,37.02373],[-5.36144,37.02444],[-5.3617,37.02493],[-5.3625,37.02592],[-5.36311,37.02691],[-5.3634,37.02711],[-5.36516,37.02662],[-5.3687,37.02506],[-5.36943,37.02485],[-5.37032,37.02477],[-5.37114,37.02418],[-5.37288,37.0233],[-5.37305,37.0229],[-5.37346,37.02253],[-5.3742,37.02207],[-5.37454,37.02203],[-5.37627,37.02263],[-5.37676,37.02286],[-5.37724,37.02323],[-5.37797,37.02347],[-5.37829,37.02369],[-5.37909,37.02461],[-5.37938,37.0248],[-5.38066,37.02477],[-5.38096,37.02486],[-5.38118,37.02516],[-5.38126,37.02566],[-5.38289,37.02688],[-5.38374,37.02814],[-5.38456,37.0287],[-5.38483,37.02929],[-5.38502,37.02945],[-5.38545,37.02959],[-5.38511,37.03063],[-5.38537,37.03151],[-5.38559,37.03164],[-5.38647,37.0317],[-5.38696,37.03195],[-5.38748,37.03207],[-5.38952,37.03221],[-5.39207,37.03301],[-5.39268,37.03337],[-5.3933,37.03394],[-5.39383,37.03429],[-5.39471,37.03463],[-5.3962,37.036],[-5.39637,37.03665],[-5.39631,37.03795],[-5.39653,37.03964],[-5.39674,37.04014],[-5.39704,37.0406],[-5.39748,37.04092],[-5.39834,37.04138],[-5.3989,37.04154],[-5.39926,37.0415],[-5.40035,37.04115],[-5.4015,37.04038],[-5.40254,37.03902],[-5.40355,37.03747],[-5.40485,37.03635],[-5.4044,37.03569],[-5.4043,37.03516],[-5.4044,37.03433],[-5.40397,37.03363],[-5.40373,37.03223],[-5.40355,37.03185],[-5.40365,37.03091],[-5.40242,37.02789],[-5.40233,37.02703],[-5.40298,37.02737],[-5.40421,37.02629],[-5.40449,37.025],[-5.40496,37.02461],[-5.4047,37.02391],[-5.40395,37.02401],[-5.4036,37.02395],[-5.4026,37.02356],[-5.40096,37.02311],[-5.40035,37.02286],[-5.39904,37.02197],[-5.39853,37.02152],[-5.39805,37.02089],[-5.39743,37.01959],[-5.39651,37.01903],[-5.39631,37.01879],[-5.3965,37.01781],[-5.39762,37.01528],[-5.39797,37.01293],[-5.39961,37.01218],[-5.39997,37.01156],[-5.40103,37.01158],[-5.40126,37.01245],[-5.40185,37.01334],[-5.4027,37.01401],[-5.40411,37.01478],[-5.40494,37.01545],[-5.40547,37.01575],[-5.40638,37.01598],[-5.40661,37.01613],[-5.40746,37.01708],[-5.40845,37.01688],[-5.40872,37.01614],[-5.40875,37.01557],[-5.41198,37.01432],[-5.41301,37.01402],[-5.41382,37.01393],[-5.41411,37.01403],[-5.41451,37.01485],[-5.41489,37.01522],[-5.41509,37.01529],[-5.41531,37.01512],[-5.41609,37.01492],[-5.41633,37.01446],[-5.41708,37.01381],[-5.41808,37.01348],[-5.41872,37.0134],[-5.4197,37.01243],[-5.42014,37.01164],[-5.42047,37.01127],[-5.42075,37.01112],[-5.42108,37.01115],[-5.42011,37.01321],[-5.42009,37.01356],[-5.42044,37.01469],[-5.42079,37.01672],[-5.42125,37.02331],[-5.42143,37.02446],[-5.42295,37.02795],[-5.42434,37.03242],[-5.42561,37.03494],[-5.42672,37.03664],[-5.42704,37.03744],[-5.42714,37.03789],[-5.42689,37.03885],[-5.42678,37.04026],[-5.42733,37.04318],[-5.42774,37.04457],[-5.42874,37.04617],[-5.42959,37.04686],[-5.4307,37.04815],[-5.43114,37.04941],[-5.43132,37.05039],[-5.43305,37.05222],[-5.43336,37.05239],[-5.43369,37.05245],[-5.43551,37.05223],[-5.43956,37.05101],[-5.44041,37.05055],[-5.44187,37.0495],[-5.4428,37.04946],[-5.44491,37.04954],[-5.44566,37.04963],[-5.44731,37.05015],[-5.44791,37.05022],[-5.45022,37.04873],[-5.45118,37.04792],[-5.45898,37.04238],[-5.45945,37.04214],[-5.46269,37.04123],[-5.46485,37.04076],[-5.46588,37.0411],[-5.46724,37.04172],[-5.46918,37.04222],[-5.47312,37.04294],[-5.47848,37.0416],[-5.48013,37.0415],[-5.48334,37.0407],[-5.48875,37.03984],[-5.49141,37.03957],[-5.49394,37.03974],[-5.49688,37.0397],[-5.50011,37.03909],[-5.50091,37.03851],[-5.50439,37.03643],[-5.50561,37.03597],[-5.51025,37.03384],[-5.51099,37.0336],[-5.51124,37.03426],[-5.51164,37.03488],[-5.51585,37.04494],[-5.5166,37.046],[-5.51742,37.04671],[-5.5184,37.04731],[-5.52102,37.04867],[-5.52516,37.05057],[-5.52758,37.05182],[-5.52893,37.05263],[-5.52989,37.05342],[-5.53072,37.05448],[-5.53155,37.05534],[-5.53202,37.05552],[-5.53439,37.05568],[-5.53597,37.05606],[-5.53881,37.05706],[-5.54467,37.05949],[-5.54553,37.05975],[-5.55049,37.06057],[-5.55324,37.06153],[-5.55799,37.06297],[-5.56109,37.06343],[-5.56077,37.06451],[-5.5599,37.06615],[-5.56118,37.06643],[-5.56192,37.06666],[-5.56222,37.06686],[-5.56454,37.07103],[-5.56561,37.07325],[-5.56628,37.07419],[-5.56666,37.07456],[-5.57957,37.07361],[-5.58377,37.0734],[-5.59132,37.0726],[-5.59031,37.07327],[-5.58369,37.07655],[-5.58,37.07872],[-5.57412,37.08036],[-5.56776,37.0813],[-5.56795,37.08205],[-5.56871,37.08382],[-5.56976,37.08548],[-5.57017,37.08629],[-5.57036,37.08702],[-5.56968,37.08741],[-5.56882,37.08812],[-5.56852,37.0885],[-5.56808,37.0894],[-5.56785,37.09031],[-5.56796,37.09105],[-5.56863,37.09202],[-5.56934,37.09273],[-5.5711,37.09369],[-5.5716,37.09461],[-5.57166,37.09505],[-5.57163,37.09548],[-5.57139,37.09589],[-5.57096,37.09614],[-5.57004,37.09647],[-5.56869,37.09748],[-5.56821,37.09806],[-5.56784,37.09884],[-5.56779,37.09935],[-5.56813,37.10144],[-5.56907,37.10372],[-5.56966,37.10472],[-5.57004,37.10626],[-5.56975,37.10883],[-5.56975,37.10967],[-5.56989,37.11016],[-5.56947,37.11252],[-5.5695,37.1135],[-5.57152,37.11952],[-5.57241,37.12122],[-5.57271,37.12277],[-5.57268,37.12453],[-5.57233,37.12627],[-5.57126,37.12885],[-5.57081,37.1297],[-5.57265,37.13007],[-5.57637,37.13063],[-5.5788,37.13122],[-5.58254,37.13252],[-5.58222,37.13438],[-5.58096,37.14004],[-5.57876,37.1395],[-5.57753,37.1396],[-5.57401,37.14033],[-5.57329,37.14069],[-5.5747,37.1422],[-5.57505,37.14299],[-5.57579,37.14619],[-5.57553,37.14798],[-5.57532,37.14874],[-5.57536,37.14927],[-5.57575,37.15038],[-5.5763,37.15133],[-5.57728,37.1526],[-5.57755,37.15346],[-5.57661,37.15414],[-5.57555,37.1547],[-5.57441,37.15545],[-5.57062,37.15871],[-5.56717,37.16129],[-5.56561,37.16219],[-5.56432,37.16204],[-5.56315,37.16288],[-5.56204,37.16343],[-5.55774,37.16511],[-5.55391,37.16677],[-5.5493,37.16934],[-5.54575,37.17223],[-5.54541,37.17263],[-5.54474,37.17532],[-5.54243,37.17604],[-5.53917,37.17689],[-5.53577,37.17715],[-5.536,37.17776],[-5.53696,37.17921],[-5.53567,37.18001],[-5.53619,37.18181],[-5.53692,37.18501],[-5.53436,37.18599],[-5.53273,37.1872],[-5.53178,37.18773],[-5.52911,37.18862],[-5.52605,37.1891],[-5.52475,37.18917],[-5.52201,37.18896],[-5.52101,37.18856],[-5.52065,37.18827],[-5.51904,37.18905],[-5.51762,37.18941],[-5.51274,37.1898],[-5.51233,37.1898],[-5.51155,37.18962],[-5.51109,37.18964],[-5.50935,37.19006],[-5.50902,37.19006],[-5.50753,37.18916],[-5.50599,37.18805],[-5.50484,37.18801],[-5.50224,37.18849],[-5.49979,37.18872],[-5.4954,37.18884],[-5.49489,37.18937],[-5.49469,37.18984],[-5.49451,37.19099],[-5.49366,37.1929],[-5.49288,37.19499],[-5.49274,37.19591],[-5.49298,37.19874],[-5.49362,37.1996],[-5.49301,37.20095],[-5.49281,37.202],[-5.49184,37.20078],[-5.49052,37.20001],[-5.48992,37.19986],[-5.4857,37.19971],[-5.48388,37.19912],[-5.4815,37.19892],[-5.47853,37.19854],[-5.48048,37.20263],[-5.48088,37.20371],[-5.48016,37.20444],[-5.47995,37.20481],[-5.48,37.20507],[-5.48257,37.20766],[-5.47963,37.20953],[-5.4781,37.21004],[-5.47525,37.21022],[-5.47259,37.21059],[-5.46966,37.21056],[-5.4641,37.21109],[-5.46304,37.21103],[-5.46254,37.21111],[-5.4613,37.21338],[-5.46084,37.21403],[-5.46009,37.21473],[-5.45873,37.21553],[-5.45756,37.21609],[-5.45578,37.21638],[-5.45528,37.21657],[-5.44963,37.21986],[-5.44512,37.22124],[-5.44392,37.22169],[-5.44343,37.22201],[-5.4416,37.22371],[-5.44074,37.22427],[-5.43964,37.22436],[-5.43883,37.22429],[-5.4381,37.22409],[-5.43696,37.22351],[-5.43586,37.22322],[-5.43554,37.22325],[-5.43453,37.2242],[-5.43419,37.22438],[-5.43326,37.22425],[-5.43307,37.22441],[-5.43198,37.22764],[-5.43197,37.22879],[-5.43151,37.2294],[-5.43129,37.23005],[-5.43116,37.23114],[-5.42945,37.23231],[-5.42919,37.2328],[-5.42919,37.23324],[-5.42958,37.23407],[-5.42974,37.23475],[-5.42818,37.23422],[-5.42608,37.23317],[-5.42376,37.23297],[-5.42309,37.23279],[-5.42233,37.23279],[-5.42159,37.23321],[-5.42065,37.23336],[-5.41819,37.23231],[-5.41752,37.23213],[-5.41718,37.23218],[-5.41631,37.23272],[-5.41463,37.23335],[-5.41424,37.23361],[-5.41206,37.23414],[-5.4095,37.23489],[-5.40776,37.23523],[-5.40596,37.23523],[-5.4043,37.23455],[-5.40241,37.23421],[-5.40162,37.23375],[-5.40097,37.23286],[-5.39983,37.23174],[-5.39924,37.23083],[-5.39865,37.23038],[-5.39716,37.23018],[-5.39505,37.22912],[-5.39441,37.22889],[-5.3915,37.22884],[-5.3911,37.22864],[-5.39032,37.22802],[-5.38995,37.22758],[-5.38941,37.22722],[-5.38806,37.22698],[-5.38753,37.2268],[-5.38537,37.22468],[-5.38222,37.22263],[-5.3809,37.22196],[-5.3783,37.21959],[-5.3754,37.2186],[-5.36835,37.21596],[-5.36053,37.21225],[-5.35509,37.2098],[-5.3543,37.20951],[-5.35294,37.20919],[-5.35218,37.20955]],[[-5.45505,37.14133],[-5.45539,37.13934],[-5.45581,37.13791],[-5.4567,37.13586],[-5.45759,37.13427],[-5.45768,37.1335],[-5.4582,37.13276],[-5.45869,37.13246],[-5.45966,37.13158],[-5.45989,37.13127],[-5.46005,37.13031],[-5.46036,37.1296],[-5.46072,37.12737],[-5.46055,37.12549],[-5.46069,37.1245],[-5.46262,37.12483],[-5.46432,37.12552],[-5.46614,37.12645],[-5.46768,37.12682],[-5.46843,37.12691],[-5.46914,37.12418],[-5.46905,37.1238],[-5.46927,37.12308],[-5.47026,37.12248],[-5.46986,37.12115],[-5.47041,37.1211],[-5.46869,37.11914],[-5.46853,37.11904],[-5.46758,37.11912],[-5.46541,37.11903],[-5.46502,37.11922],[-5.46466,37.11879],[-5.46335,37.11797],[-5.4633,37.11783],[-5.46202,37.11724],[-5.461,37.11664],[-5.46134,37.11616],[-5.46258,37.11565],[-5.46264,37.11484],[-5.46277,37.11459],[-5.46387,37.11387],[-5.46406,37.11329],[-5.46539,37.1111],[-5.46554,37.10943],[-5.46547,37.10886],[-5.46529,37.10892],[-5.46535,37.10879],[-5.46514,37.10845],[-5.4653,37.10819],[-5.46507,37.1082],[-5.46474,37.1085],[-5.46385,37.10887],[-5.4631,37.10861],[-5.46187,37.10889],[-5.46131,37.10846],[-5.46064,37.10831],[-5.45981,37.10858],[-5.45937,37.10908],[-5.45899,37.10885],[-5.45853,37.10884],[-5.45845,37.10907],[-5.45743,37.10981],[-5.45747,37.10992],[-5.45722,37.11018],[-5.45722,37.11041],[-5.45711,37.11051],[-5.45656,37.11043],[-5.45642,37.11055],[-5.45628,37.11069],[-5.45627,37.11115],[-5.4559,37.11122],[-5.45551,37.11162],[-5.45537,37.1119],[-5.45477,37.11203],[-5.45457,37.11194],[-5.45456,37.11185],[-5.45422,37.11186],[-5.45389,37.11226],[-5.45264,37.11281],[-5.45238,37.11273],[-5.45229,37.1128],[-5.45239,37.1133],[-5.44985,37.11238],[-5.44921,37.11171],[-5.44643,37.11129],[-5.4465,37.11165],[-5.4469,37.11213],[-5.44702,37.11257],[-5.44749,37.11337],[-5.44734,37.11364],[-5.44746,37.11412],[-5.4472,37.11427],[-5.44734,37.11456],[-5.44727,37.11505],[-5.44675,37.11545],[-5.44639,37.11619],[-5.44609,37.11628],[-5.44512,37.11704],[-5.44476,37.11715],[-5.44391,37.11688],[-5.44369,37.11711],[-5.44319,37.11736],[-5.44302,37.11769],[-5.44244,37.11789],[-5.44208,37.11792],[-5.44188,37.11808],[-5.44137,37.11814],[-5.44085,37.11854],[-5.44062,37.11886],[-5.43761,37.11883],[-5.43636,37.11897],[-5.43558,37.11877],[-5.43419,37.11823],[-5.4322,37.1171],[-5.43103,37.11678],[-5.42993,37.11673],[-5.42934,37.11692],[-5.42927,37.11716],[-5.43108,37.11727],[-5.43256,37.11812],[-5.43507,37.12065],[-5.43604,37.12213],[-5.43492,37.12213],[-5.43457,37.12236],[-5.43324,37.12265],[-5.43261,37.1229],[-5.43113,37.12389],[-5.42998,37.12442],[-5.42951,37.12459],[-5.4287,37.12461],[-5.4282,37.12472],[-5.4279,37.12486],[-5.42761,37.12522],[-5.42733,37.12536],[-5.42424,37.12595],[-5.4244,37.12607],[-5.42554,37.12621],[-5.42692,37.12675],[-5.42918,37.12694],[-5.43041,37.12761],[-5.43184,37.12808],[-5.43226,37.12842],[-5.43376,37.12871],[-5.4353,37.12874],[-5.43581,37.12865],[-5.43737,37.12862],[-5.43784,37.12834],[-5.43943,37.12803],[-5.4388,37.13039],[-5.43767,37.13148],[-5.43907,37.13132],[-5.43883,37.13437],[-5.44274,37.13471],[-5.44426,37.13375],[-5.44675,37.13271],[-5.44871,37.13409],[-5.44902,37.13408],[-5.4489,37.13501],[-5.45018,37.14421],[-5.45043,37.1481],[-5.45071,37.14927],[-5.45055,37.15042],[-5.45094,37.15043],[-5.45109,37.15031],[-5.45137,37.14939],[-5.45221,37.14861],[-5.45268,37.14785],[-5.45288,37.14724],[-5.45279,37.14666],[-5.45304,37.14578],[-5.45392,37.14363],[-5.45452,37.14146],[-5.45505,37.14133]]]}}]}