{"type":"FeatureCollection","features":[{"type":"Feature","properties":{"id":"4106601001"},"geometry":{"type":"Polygon","coordinates":[[[-5.50831,37.97841],[-5.50557,37.97826],[-5.50482,37.97732],[-5.50465,37.9767],[-5.5044,37.97643],[-5.50423,37.97583],[-5.50396,37.97568],[-5.50379,37.97536],[-5.50353,37.97525],[-5.50325,37.97495],[-5.50303,37.97448],[-5.50312,37.97427],[-5.50384,37.97396],[-5.50525,37.97263],[-5.50542,37.97184],[-5.50526,37.97139],[-5.50474,37.97101],[-5.50321,37.9702],[-5.50256,37.9701],[-5.50199,37.96982],[-5.50151,37.96922],[-5.50139,37.96883],[-5.50181,37.96815],[-5.50162,37.9678],[-5.50123,37.96771],[-5.50039,37.96789],[-5.49968,37.9679],[-5.49918,37.96738],[-5.49918,37.9669],[-5.49988,37.96552],[-5.49987,37.96443],[-5.49964,37.96333],[-5.49983,37.96282],[-5.50039,37.96234],[-5.50041,37.96215],[-5.50027,37.96194],[-5.49934,37.96141],[-5.49872,37.96084],[-5.49823,37.96035],[-5.49802,37.95987],[-5.49751,37.95985],[-5.49706,37.96004],[-5.49611,37.96011],[-5.49599,37.96024],[-5.49613,37.96103],[-5.49605,37.9613],[-5.49534,37.96121],[-5.49454,37.9601],[-5.49435,37.9597],[-5.49488,37.95864],[-5.49487,37.95837],[-5.49461,37.95789],[-5.49508,37.95707],[-5.49508,37.95661],[-5.49445,37.95555],[-5.49413,37.95526],[-5.49361,37.95508],[-5.493,37.95453],[-5.49313,37.95254],[-5.49284,37.95213],[-5.49255,37.95134],[-5.49225,37.95106],[-5.49142,37.95067],[-5.49107,37.95038],[-5.49108,37.95007],[-5.49088,37.94965],[-5.49005,37.9487],[-5.48958,37.94857],[-5.48853,37.94849],[-5.48834,37.94827],[-5.48825,37.94776],[-5.48833,37.94719],[-5.48875,37.94612],[-5.48871,37.94517],[-5.4884,37.94491],[-5.48712,37.94451],[-5.48592,37.94386],[-5.48473,37.94339],[-5.484,37.9433],[-5.48274,37.94337],[-5.48117,37.94316],[-5.48089,37.943],[-5.48061,37.94253],[-5.47823,37.94154],[-5.47779,37.94051],[-5.47746,37.94007],[-5.47676,37.93955],[-5.47558,37.93888],[-5.47379,37.93752],[-5.47298,37.93704],[-5.47179,37.93659],[-5.47078,37.93634],[-5.46996,37.93593],[-5.46898,37.93515],[-5.46818,37.93485],[-5.46716,37.93427],[-5.46637,37.93405],[-5.46525,37.93349],[-5.4648,37.9335],[-5.46444,37.93338],[-5.46463,37.93309],[-5.46369,37.93257],[-5.46279,37.93123],[-5.46224,37.93073],[-5.46263,37.93057],[-5.46259,37.93035],[-5.46138,37.92966],[-5.45989,37.9285],[-5.45903,37.92644],[-5.4564,37.92422],[-5.45532,37.92396],[-5.45304,37.92404],[-5.45208,37.92392],[-5.44992,37.9234],[-5.44841,37.92344],[-5.44377,37.92159],[-5.44336,37.92136],[-5.44288,37.9208],[-5.44244,37.92045],[-5.44126,37.91979],[-5.44106,37.9195],[-5.44096,37.91882],[-5.44066,37.91802],[-5.43991,37.91675],[-5.43951,37.91645],[-5.43926,37.91538],[-5.43723,37.91251],[-5.43675,37.91223],[-5.43438,37.91128],[-5.4328,37.91016],[-5.43282,37.90991],[-5.4334,37.90865],[-5.43359,37.90774],[-5.43352,37.90745],[-5.43255,37.90642],[-5.42911,37.90534],[-5.42867,37.90512],[-5.42832,37.90486],[-5.42807,37.90432],[-5.4259,37.9028],[-5.42433,37.90145],[-5.42293,37.90117],[-5.42142,37.90058],[-5.41854,37.90069],[-5.4183,37.90055],[-5.41812,37.90024],[-5.41784,37.90014],[-5.41753,37.90023],[-5.41733,37.90078],[-5.41713,37.90071],[-5.417,37.9004],[-5.41676,37.8982],[-5.41632,37.89805],[-5.41451,37.89803],[-5.41511,37.89762],[-5.41731,37.89689],[-5.41902,37.89499],[-5.4208,37.8933],[-5.42097,37.893],[-5.42083,37.89107],[-5.42092,37.89046],[-5.42197,37.88924],[-5.42206,37.88888],[-5.42183,37.88861],[-5.42081,37.8886],[-5.42011,37.88848],[-5.41861,37.88787],[-5.41792,37.8875],[-5.41723,37.88677],[-5.41642,37.88521],[-5.41611,37.88429],[-5.41611,37.88324],[-5.41657,37.88228],[-5.41688,37.8813],[-5.41668,37.88086],[-5.41536,37.8794],[-5.41533,37.87905],[-5.4154,37.87877],[-5.41577,37.8785],[-5.41663,37.87823],[-5.41735,37.87787],[-5.41755,37.87753],[-5.41682,37.87667],[-5.41636,37.87657],[-5.41568,37.87697],[-5.41512,37.87707],[-5.41463,37.87692],[-5.41431,37.87634],[-5.41409,37.87564],[-5.41378,37.87522],[-5.41376,37.87455],[-5.41413,37.87294],[-5.41495,37.87029],[-5.41494,37.86984],[-5.41471,37.86946],[-5.41438,37.86935],[-5.41378,37.86943],[-5.41323,37.86972],[-5.41297,37.86997],[-5.41264,37.87105],[-5.41247,37.87126],[-5.41215,37.87145],[-5.41164,37.87155],[-5.41091,37.87135],[-5.4106,37.87118],[-5.41043,37.87085],[-5.41043,37.87027],[-5.41011,37.86985],[-5.40956,37.86947],[-5.40857,37.86913],[-5.40819,37.86863],[-5.40793,37.86761],[-5.40847,37.86664],[-5.40846,37.8661],[-5.41462,37.86456],[-5.41759,37.865],[-5.41902,37.86512],[-5.41957,37.86597],[-5.42059,37.86723],[-5.42268,37.86886],[-5.42356,37.86934],[-5.42435,37.86951],[-5.42521,37.86951],[-5.42619,37.86926],[-5.42714,37.86883],[-5.42824,37.8685],[-5.42822,37.87038],[-5.42871,37.87249],[-5.42872,37.87335],[-5.42893,37.87465],[-5.42926,37.87552],[-5.4298,37.87589],[-5.4313,37.8761],[-5.43176,37.87638],[-5.43232,37.87697],[-5.43315,37.87816],[-5.43359,37.87831],[-5.43428,37.87838],[-5.43474,37.87859],[-5.43472,37.87893],[-5.43371,37.87965],[-5.43302,37.87976],[-5.43266,37.87966],[-5.43179,37.87874],[-5.43145,37.87879],[-5.43032,37.88019],[-5.42976,37.88111],[-5.4299,37.88177],[-5.4306,37.88254],[-5.43185,37.88354],[-5.43275,37.88375],[-5.43363,37.88371],[-5.43402,37.88382],[-5.4345,37.88474],[-5.43497,37.88517],[-5.43539,37.88517],[-5.4356,37.88498],[-5.43592,37.8843],[-5.43624,37.88391],[-5.43656,37.88395],[-5.43811,37.88575],[-5.43858,37.88602],[-5.43904,37.88594],[-5.44003,37.88531],[-5.44066,37.88518],[-5.44111,37.88529],[-5.44186,37.8865],[-5.44529,37.8902],[-5.44589,37.89034],[-5.44668,37.89032],[-5.44699,37.89057],[-5.44708,37.89091],[-5.4458,37.89355],[-5.44551,37.89446],[-5.44578,37.89493],[-5.44634,37.89545],[-5.44736,37.89618],[-5.44787,37.89633],[-5.44837,37.89622],[-5.4495,37.8957],[-5.45065,37.89504],[-5.451,37.89503],[-5.45142,37.89516],[-5.4518,37.89547],[-5.452,37.89616],[-5.45242,37.89694],[-5.4528,37.89712],[-5.45331,37.89706],[-5.45501,37.89571],[-5.45533,37.89569],[-5.45568,37.89606],[-5.45597,37.89705],[-5.45621,37.89745],[-5.45652,37.89769],[-5.45703,37.89791],[-5.45728,37.89814],[-5.45746,37.89875],[-5.4578,37.89911],[-5.45819,37.89928],[-5.45896,37.89937],[-5.45918,37.89953],[-5.4598,37.90179],[-5.4604,37.90253],[-5.4615,37.90347],[-5.46177,37.90391],[-5.46181,37.90441],[-5.46147,37.90524],[-5.46159,37.90678],[-5.46183,37.90739],[-5.46313,37.90918],[-5.46372,37.90951],[-5.46415,37.90963],[-5.46638,37.90949],[-5.46772,37.90948],[-5.46837,37.90956],[-5.46881,37.90983],[-5.47029,37.91121],[-5.47149,37.9119],[-5.47224,37.9127],[-5.47267,37.91299],[-5.47318,37.91306],[-5.47397,37.91299],[-5.47461,37.91278],[-5.47608,37.91184],[-5.47657,37.91164],[-5.47697,37.91168],[-5.47733,37.91187],[-5.4774,37.91205],[-5.47722,37.91309],[-5.47722,37.9138],[-5.47754,37.91476],[-5.47852,37.91603],[-5.47873,37.91645],[-5.47912,37.91777],[-5.47976,37.91865],[-5.48058,37.9192],[-5.48134,37.91945],[-5.48492,37.92007],[-5.48601,37.92037],[-5.48732,37.92082],[-5.48898,37.92155],[-5.4893,37.92181],[-5.48972,37.92274],[-5.48982,37.92343],[-5.48951,37.92567],[-5.48976,37.92643],[-5.49039,37.92741],[-5.49123,37.92821],[-5.49255,37.92924],[-5.49556,37.9308],[-5.49641,37.93147],[-5.49902,37.933],[-5.5007,37.93325],[-5.50226,37.93322],[-5.50356,37.93347],[-5.50401,37.9337],[-5.5041,37.93396],[-5.50397,37.93434],[-5.50382,37.93643],[-5.50416,37.93801],[-5.50456,37.93861],[-5.50462,37.93888],[-5.5038,37.93941],[-5.50361,37.93984],[-5.50372,37.94044],[-5.5043,37.94157],[-5.50593,37.94277],[-5.50602,37.94296],[-5.50599,37.94336],[-5.50573,37.94401],[-5.50613,37.94431],[-5.50633,37.94462],[-5.50668,37.94545],[-5.50765,37.94707],[-5.50819,37.9482],[-5.50846,37.94846],[-5.51058,37.94951],[-5.51245,37.94955],[-5.5129,37.94972],[-5.51511,37.95111],[-5.51712,37.95178],[-5.51847,37.95312],[-5.51829,37.9536],[-5.51685,37.9549],[-5.51652,37.95538],[-5.51641,37.95583],[-5.51676,37.95709],[-5.51675,37.9578],[-5.51699,37.95804],[-5.51742,37.95807],[-5.51875,37.95784],[-5.51904,37.95792],[-5.51933,37.95808],[-5.51995,37.95901],[-5.52045,37.95927],[-5.5214,37.95955],[-5.5223,37.9603],[-5.52233,37.9606],[-5.52131,37.96239],[-5.52048,37.96292],[-5.51889,37.96375],[-5.51851,37.9641],[-5.51816,37.96505],[-5.51749,37.96568],[-5.51653,37.96682],[-5.51587,37.96702],[-5.51551,37.96748],[-5.51525,37.96808],[-5.51511,37.96898],[-5.51514,37.96973],[-5.51541,37.97054],[-5.51578,37.97115],[-5.51695,37.97221],[-5.51714,37.97261],[-5.51711,37.9749],[-5.51688,37.97542],[-5.51652,37.9758],[-5.5151,37.97643],[-5.5147,37.97679],[-5.5146,37.97722],[-5.51473,37.9791],[-5.51426,37.97989],[-5.51368,37.98026],[-5.51332,37.9809],[-5.51277,37.98094],[-5.51223,37.98079],[-5.51097,37.97993],[-5.51044,37.97941],[-5.5102,37.97891],[-5.50831,37.97841]]]}},{"type":"Feature","properties":{"id":"4106602001"},"geometry":{"type":"Polygon","coordinates":[[[-5.46263,37.93057],[-5.46224,37.93073],[-5.46279,37.93123],[-5.46369,37.93257],[-5.46463,37.93309],[-5.46444,37.93338],[-5.4648,37.9335],[-5.46525,37.93349],[-5.46637,37.93405],[-5.46716,37.93427],[-5.46818,37.93485],[-5.46898,37.93515],[-5.46996,37.93593],[-5.47078,37.93634],[-5.47228,37.93676],[-5.47298,37.93704],[-5.47379,37.93752],[-5.47558,37.93888],[-5.47676,37.93955],[-5.47746,37.94007],[-5.47779,37.94051],[-5.47823,37.94154],[-5.48061,37.94253],[-5.48089,37.943],[-5.48117,37.94316],[-5.48274,37.94337],[-5.484,37.9433],[-5.48473,37.94339],[-5.48592,37.94386],[-5.48712,37.94451],[-5.4884,37.94491],[-5.48871,37.94517],[-5.48875,37.94612],[-5.48833,37.94719],[-5.48825,37.94776],[-5.48834,37.94827],[-5.48853,37.94849],[-5.48958,37.94857],[-5.49005,37.9487],[-5.49088,37.94965],[-5.49108,37.95007],[-5.49107,37.95038],[-5.49142,37.95067],[-5.49225,37.95106],[-5.49255,37.95134],[-5.49284,37.95213],[-5.49313,37.95254],[-5.493,37.95453],[-5.49361,37.95508],[-5.49413,37.95526],[-5.49445,37.95555],[-5.49508,37.95661],[-5.49508,37.95707],[-5.49461,37.95789],[-5.49487,37.95837],[-5.49488,37.95864],[-5.49435,37.9597],[-5.49454,37.9601],[-5.49534,37.96121],[-5.49605,37.9613],[-5.49613,37.96103],[-5.49599,37.96024],[-5.49611,37.96011],[-5.49706,37.96004],[-5.49751,37.95985],[-5.49802,37.95987],[-5.49823,37.96035],[-5.49872,37.96084],[-5.49934,37.96141],[-5.50027,37.96194],[-5.50041,37.96215],[-5.50039,37.96234],[-5.49983,37.96282],[-5.49964,37.96333],[-5.49987,37.96443],[-5.49988,37.96552],[-5.49918,37.9669],[-5.49918,37.96738],[-5.49968,37.9679],[-5.50039,37.96789],[-5.50123,37.96771],[-5.50162,37.9678],[-5.50181,37.96815],[-5.50139,37.96883],[-5.50151,37.96922],[-5.50199,37.96982],[-5.50256,37.9701],[-5.50321,37.9702],[-5.50474,37.97101],[-5.50526,37.97139],[-5.50542,37.97184],[-5.50525,37.97263],[-5.50384,37.97396],[-5.50335,37.97412],[-5.50312,37.97427],[-5.50303,37.97448],[-5.50325,37.97495],[-5.50353,37.97525],[-5.50379,37.97536],[-5.50396,37.97568],[-5.50423,37.97583],[-5.5044,37.97643],[-5.50465,37.9767],[-5.50482,37.97732],[-5.50557,37.97826],[-5.50831,37.97841],[-5.5102,37.97891],[-5.51044,37.97941],[-5.51166,37.98044],[-5.51223,37.98079],[-5.51277,37.98094],[-5.51332,37.9809],[-5.51329,37.98101],[-5.5127,37.98107],[-5.51115,37.98146],[-5.51031,37.98187],[-5.50785,37.98373],[-5.50372,37.98633],[-5.50268,37.9872],[-5.50089,37.98902],[-5.49903,37.99067],[-5.49793,37.99188],[-5.49646,37.99389],[-5.49585,37.99502],[-5.49431,37.99985],[-5.49371,38.00012],[-5.49414,37.99934],[-5.49425,37.99883],[-5.49351,37.99623],[-5.49084,37.99336],[-5.49066,37.99304],[-5.49034,37.99283],[-5.48981,37.9928],[-5.48926,37.99296],[-5.48844,37.99346],[-5.48782,37.99366],[-5.48736,37.99361],[-5.48706,37.9934],[-5.48601,37.99122],[-5.48527,37.99035],[-5.48431,37.99014],[-5.48355,37.99021],[-5.48292,37.99017],[-5.48239,37.99005],[-5.48187,37.98979],[-5.48153,37.98949],[-5.48133,37.98846],[-5.48116,37.98817],[-5.48084,37.98791],[-5.47994,37.98764],[-5.47952,37.98695],[-5.47934,37.98523],[-5.47907,37.98485],[-5.47862,37.98459],[-5.47747,37.98421],[-5.47655,37.98322],[-5.47632,37.98263],[-5.47624,37.98183],[-5.47653,37.98047],[-5.47644,37.98],[-5.4754,37.97766],[-5.47502,37.97639],[-5.47465,37.97572],[-5.47405,37.97519],[-5.47356,37.97525],[-5.47314,37.97554],[-5.47273,37.97567],[-5.47241,37.97564],[-5.47202,37.97519],[-5.47191,37.97484],[-5.47142,37.97451],[-5.47101,37.9745],[-5.4703,37.97467],[-5.47002,37.9745],[-5.46972,37.97355],[-5.46971,37.97205],[-5.46932,37.97101],[-5.46894,37.97072],[-5.46828,37.97051],[-5.46745,37.97096],[-5.46708,37.971],[-5.46625,37.9704],[-5.46554,37.97055],[-5.46518,37.97049],[-5.46415,37.96983],[-5.46347,37.96968],[-5.46188,37.96956],[-5.46102,37.96895],[-5.46059,37.96881],[-5.4601,37.96879],[-5.45907,37.96901],[-5.45791,37.96903],[-5.45774,37.96889],[-5.45733,37.96763],[-5.45705,37.96731],[-5.45514,37.96669],[-5.4542,37.96662],[-5.45226,37.96718],[-5.45193,37.96687],[-5.45176,37.96627],[-5.45178,37.96549],[-5.45163,37.96516],[-5.45063,37.96429],[-5.45026,37.96384],[-5.44978,37.96356],[-5.44829,37.96353],[-5.44783,37.96335],[-5.44758,37.96311],[-5.44758,37.96202],[-5.44726,37.96145],[-5.44497,37.96116],[-5.4444,37.96085],[-5.44356,37.96017],[-5.44314,37.96006],[-5.44215,37.96004],[-5.44047,37.95932],[-5.4391,37.95897],[-5.43744,37.95889],[-5.43588,37.95824],[-5.43567,37.95799],[-5.43563,37.95761],[-5.43591,37.95689],[-5.43565,37.95653],[-5.43417,37.95515],[-5.43216,37.95388],[-5.43089,37.95353],[-5.42992,37.9528],[-5.42864,37.95234],[-5.4278,37.95125],[-5.42656,37.95024],[-5.42614,37.95007],[-5.42466,37.9499],[-5.42425,37.94978],[-5.42333,37.94921],[-5.42267,37.94894],[-5.42222,37.94885],[-5.42105,37.94898],[-5.42063,37.94883],[-5.42047,37.94868],[-5.42046,37.94845],[-5.42064,37.94822],[-5.4207,37.94783],[-5.4204,37.94738],[-5.41992,37.94698],[-5.41957,37.94615],[-5.41903,37.94546],[-5.41767,37.94457],[-5.41647,37.94422],[-5.41561,37.94368],[-5.41438,37.94156],[-5.41438,37.94112],[-5.41465,37.94059],[-5.41528,37.93856],[-5.41575,37.93809],[-5.41704,37.93729],[-5.41852,37.93658],[-5.41883,37.93634],[-5.4192,37.93556],[-5.41932,37.93503],[-5.41921,37.93471],[-5.41867,37.93445],[-5.41818,37.93437],[-5.41796,37.93417],[-5.41801,37.93384],[-5.41905,37.93296],[-5.41902,37.93248],[-5.41877,37.93171],[-5.41897,37.93147],[-5.41978,37.93106],[-5.42035,37.93039],[-5.42107,37.92925],[-5.4215,37.92924],[-5.422,37.92941],[-5.42228,37.93047],[-5.42261,37.93081],[-5.42291,37.93087],[-5.42323,37.93072],[-5.42336,37.93019],[-5.42318,37.92953],[-5.42332,37.92906],[-5.42409,37.92775],[-5.42427,37.92725],[-5.42418,37.92697],[-5.42391,37.92676],[-5.42335,37.92673],[-5.42261,37.9271],[-5.42179,37.92818],[-5.4216,37.92826],[-5.42079,37.92783],[-5.41992,37.92789],[-5.41819,37.92827],[-5.41717,37.9286],[-5.41663,37.92861],[-5.41651,37.92836],[-5.4174,37.92729],[-5.41879,37.92688],[-5.41932,37.9265],[-5.4202,37.92546],[-5.42016,37.92492],[-5.41979,37.92446],[-5.41767,37.92328],[-5.4172,37.92285],[-5.41692,37.92227],[-5.41696,37.92176],[-5.41724,37.9212],[-5.41782,37.92076],[-5.41876,37.92037],[-5.41977,37.91957],[-5.42181,37.91871],[-5.42208,37.91843],[-5.42198,37.91818],[-5.42133,37.918],[-5.42068,37.91807],[-5.42022,37.91801],[-5.41976,37.91774],[-5.41924,37.91712],[-5.41838,37.9169],[-5.41797,37.91655],[-5.41761,37.91535],[-5.41641,37.91296],[-5.41635,37.91264],[-5.41651,37.91226],[-5.41727,37.9115],[-5.41734,37.91114],[-5.41697,37.90948],[-5.41657,37.90823],[-5.41673,37.90705],[-5.41663,37.9068],[-5.41627,37.90664],[-5.41536,37.90668],[-5.41472,37.9066],[-5.41416,37.90617],[-5.41352,37.90485],[-5.41404,37.90359],[-5.41415,37.90298],[-5.41371,37.90144],[-5.41417,37.89847],[-5.41451,37.89803],[-5.41632,37.89805],[-5.41676,37.8982],[-5.417,37.9004],[-5.41713,37.90071],[-5.41733,37.90078],[-5.41753,37.90023],[-5.41784,37.90014],[-5.41812,37.90024],[-5.4183,37.90055],[-5.41854,37.90069],[-5.42142,37.90058],[-5.42293,37.90117],[-5.42433,37.90145],[-5.4259,37.9028],[-5.42807,37.90432],[-5.42832,37.90486],[-5.42867,37.90512],[-5.42911,37.90534],[-5.43255,37.90642],[-5.43352,37.90745],[-5.43359,37.90774],[-5.4334,37.90865],[-5.43282,37.90991],[-5.4328,37.91016],[-5.43438,37.91128],[-5.43675,37.91223],[-5.43723,37.91251],[-5.43926,37.91538],[-5.43951,37.91645],[-5.43991,37.91675],[-5.44066,37.91802],[-5.44096,37.91882],[-5.44106,37.9195],[-5.44126,37.91979],[-5.44244,37.92045],[-5.44288,37.9208],[-5.44336,37.92136],[-5.44377,37.92159],[-5.44841,37.92344],[-5.44992,37.9234],[-5.45208,37.92392],[-5.45304,37.92404],[-5.45532,37.92396],[-5.4564,37.92422],[-5.45903,37.92644],[-5.45989,37.9285],[-5.46138,37.92966],[-5.46259,37.93035],[-5.46263,37.93057]]]}}]}