{"type":"FeatureCollection","features":[{"type":"Feature","properties":{"id":"4106101001"},"geometry":{"type":"Polygon","coordinates":[[[-4.93757,37.36293],[-4.93774,37.36269],[-4.93644,37.36202],[-4.93267,37.35649],[-4.93802,37.35469],[-4.93841,37.35276],[-4.93888,37.34891],[-4.94284,37.34754],[-4.94412,37.3472],[-4.94681,37.34714],[-4.94981,37.34676],[-4.95128,37.34644],[-4.95231,37.34608],[-4.95388,37.34503],[-4.95449,37.34483],[-4.95558,37.34469],[-4.95883,37.34454],[-4.95948,37.34462],[-4.96199,37.34572],[-4.96377,37.34638],[-4.96511,37.34676],[-4.96612,37.34685],[-4.9671,37.34682],[-4.96865,37.34664],[-4.97058,37.34678],[-4.97141,37.34694],[-4.97332,37.34757],[-4.97596,37.34776],[-4.97944,37.34878],[-4.98001,37.34875],[-4.98105,37.34848],[-4.9842,37.34734],[-4.98339,37.34915],[-4.98223,37.35008],[-4.98173,37.35065],[-4.98168,37.35106],[-4.98195,37.35152],[-4.98296,37.3526],[-4.98281,37.35273],[-4.98094,37.35345],[-4.98022,37.35393],[-4.97986,37.35445],[-4.97974,37.35487],[-4.98046,37.35653],[-4.98094,37.35823],[-4.98124,37.3586],[-4.98261,37.35917],[-4.9822,37.36073],[-4.98212,37.36154],[-4.98223,37.36176],[-4.98257,37.36189],[-4.98332,37.36197],[-4.9836,37.36219],[-4.98397,37.36396],[-4.98475,37.36507],[-4.98593,37.36773],[-4.98619,37.368],[-4.988,37.36875],[-4.98898,37.36964],[-4.96992,37.37566],[-4.97081,37.37672],[-4.967,37.37784],[-4.96599,37.37682],[-4.95824,37.37983],[-4.95668,37.38033],[-4.95629,37.37922],[-4.95474,37.37754],[-4.95376,37.37673],[-4.95202,37.37494],[-4.95119,37.37389],[-4.94991,37.37263],[-4.9479,37.37004],[-4.94618,37.36866],[-4.9459,37.36819],[-4.94415,37.36629],[-4.94355,37.36596],[-4.94122,37.36503],[-4.9387,37.36341],[-4.93757,37.36293]]]}},{"type":"Feature","properties":{"id":"4106101002"},"geometry":{"type":"Polygon","coordinates":[[[-4.90476,37.37017],[-4.90543,37.36871],[-4.9105,37.36932],[-4.91656,37.36963],[-4.91842,37.36991],[-4.92089,37.37013],[-4.92439,37.37073],[-4.92573,37.3699],[-4.92751,37.37009],[-4.92862,37.36935],[-4.93097,37.36722],[-4.93299,37.3675],[-4.93718,37.36345],[-4.93757,37.36293],[-4.93776,37.36295],[-4.9387,37.36341],[-4.94122,37.36503],[-4.94355,37.36596],[-4.9444,37.36653],[-4.9459,37.36819],[-4.94618,37.36866],[-4.9479,37.37004],[-4.94991,37.37263],[-4.95119,37.37389],[-4.95202,37.37494],[-4.95376,37.37673],[-4.95474,37.37754],[-4.95629,37.37922],[-4.95668,37.38033],[-4.94624,37.38394],[-4.9366,37.38705],[-4.93597,37.38679],[-4.93223,37.39114],[-4.9302,37.39335],[-4.92852,37.39497],[-4.92535,37.39768],[-4.92323,37.39917],[-4.92156,37.40021],[-4.91499,37.40647],[-4.91367,37.40759],[-4.91237,37.40843],[-4.91215,37.40805],[-4.9117,37.40609],[-4.91132,37.40532],[-4.91059,37.40455],[-4.91015,37.40368],[-4.90942,37.40289],[-4.90832,37.4021],[-4.90778,37.40183],[-4.9072,37.40047],[-4.90493,37.39804],[-4.90445,37.39738],[-4.90288,37.39409],[-4.90192,37.39233],[-4.90325,37.39071],[-4.90454,37.38934],[-4.90471,37.38791],[-4.90456,37.38717],[-4.90423,37.38687],[-4.90184,37.38611],[-4.90127,37.38583],[-4.90069,37.38475],[-4.9005,37.38394],[-4.90053,37.38336],[-4.90082,37.38234],[-4.90122,37.38155],[-4.90265,37.37965],[-4.90282,37.37895],[-4.90279,37.37815],[-4.90148,37.3733],[-4.9017,37.37263],[-4.90213,37.37217],[-4.9027,37.37177],[-4.9035,37.37147],[-4.90415,37.37098],[-4.90476,37.37017]]]}}]}