{"type":"FeatureCollection","features":[{"type":"Feature","properties":{"id":"4107301001"},"geometry":{"type":"Polygon","coordinates":[[[-5.80998,37.87973],[-5.80744,37.87996],[-5.80542,37.88003],[-5.8036,37.8796],[-5.80248,37.87954],[-5.80209,37.87963],[-5.80104,37.88027],[-5.80024,37.881],[-5.79966,37.8813],[-5.79913,37.88181],[-5.79619,37.88294],[-5.79475,37.88311],[-5.79493,37.88195],[-5.79477,37.88128],[-5.7943,37.88091],[-5.79087,37.88003],[-5.79053,37.8801],[-5.79022,37.88029],[-5.78981,37.88099],[-5.7895,37.88132],[-5.78846,37.88215],[-5.78801,37.88229],[-5.78711,37.88241],[-5.78457,37.88246],[-5.78301,37.88271],[-5.78187,37.88309],[-5.78006,37.88312],[-5.77871,37.8825],[-5.77848,37.88184],[-5.77965,37.87921],[-5.77943,37.87868],[-5.77868,37.87836],[-5.7779,37.87822],[-5.77713,37.87762],[-5.7758,37.877],[-5.77457,37.87613],[-5.77227,37.87575],[-5.77131,37.87538],[-5.77073,37.87501],[-5.76992,37.87427],[-5.76901,37.87242],[-5.76848,37.87185],[-5.76783,37.87164],[-5.76652,37.87156],[-5.76608,37.87133],[-5.76266,37.86898],[-5.76109,37.86808],[-5.75793,37.86694],[-5.75602,37.86545],[-5.75565,37.86529],[-5.75513,37.8652],[-5.7547,37.86525],[-5.75337,37.86557],[-5.75177,37.86573],[-5.74968,37.86539],[-5.74909,37.86538],[-5.7469,37.86634],[-5.74603,37.86649],[-5.74465,37.86638],[-5.7427,37.86571],[-5.74237,37.86552],[-5.74192,37.8649],[-5.74175,37.86436],[-5.74219,37.86263],[-5.74205,37.86207],[-5.74177,37.86171],[-5.74145,37.8616],[-5.7398,37.86149],[-5.73928,37.86139],[-5.73877,37.86112],[-5.73798,37.85988],[-5.73762,37.85965],[-5.73664,37.8605],[-5.73567,37.86101],[-5.73507,37.86119],[-5.73317,37.8613],[-5.73198,37.86156],[-5.7308,37.8622],[-5.73019,37.86298],[-5.724,37.86203],[-5.72219,37.86044],[-5.72063,37.85879],[-5.71932,37.85769],[-5.71843,37.85718],[-5.71578,37.85615],[-5.71164,37.85439],[-5.71128,37.85416],[-5.7121,37.85328],[-5.71218,37.85306],[-5.71209,37.85276],[-5.71112,37.85129],[-5.71085,37.85015],[-5.71063,37.84991],[-5.70828,37.84876],[-5.70755,37.84861],[-5.70598,37.84757],[-5.70572,37.84731],[-5.70573,37.84677],[-5.70611,37.84573],[-5.70555,37.84504],[-5.7049,37.84472],[-5.70376,37.84473],[-5.70345,37.84466],[-5.70313,37.84443],[-5.70197,37.84291],[-5.69932,37.84152],[-5.69864,37.84032],[-5.69857,37.83996],[-5.69868,37.83933],[-5.69907,37.83891],[-5.69929,37.83814],[-5.69921,37.83725],[-5.69888,37.83683],[-5.69748,37.83579],[-5.69764,37.83537],[-5.69767,37.83466],[-5.69698,37.83353],[-5.69677,37.83246],[-5.69631,37.83219],[-5.69444,37.83176],[-5.69353,37.83139],[-5.69275,37.83072],[-5.69247,37.83063],[-5.69194,37.83059],[-5.69117,37.83072],[-5.68999,37.83066],[-5.68837,37.83086],[-5.68801,37.83083],[-5.68766,37.83065],[-5.68647,37.82908],[-5.68617,37.82824],[-5.68524,37.82729],[-5.68514,37.82694],[-5.68519,37.82663],[-5.6857,37.82568],[-5.68589,37.82499],[-5.68589,37.82465],[-5.6857,37.82427],[-5.68549,37.82414],[-5.68505,37.82409],[-5.68419,37.82417],[-5.6833,37.82446],[-5.68187,37.82534],[-5.68017,37.82737],[-5.67945,37.82758],[-5.67902,37.82728],[-5.67868,37.82732],[-5.67783,37.82768],[-5.67749,37.82771],[-5.67672,37.82748],[-5.67517,37.82669],[-5.67283,37.82538],[-5.67243,37.82499],[-5.6722,37.82456],[-5.67221,37.82396],[-5.67274,37.82299],[-5.67342,37.82206],[-5.67358,37.82167],[-5.67359,37.82125],[-5.67312,37.81951],[-5.67327,37.81909],[-5.67408,37.81837],[-5.67451,37.81774],[-5.67527,37.81545],[-5.67649,37.81407],[-5.67667,37.81372],[-5.67683,37.81204],[-5.67692,37.81164],[-5.67717,37.81124],[-5.67749,37.81093],[-5.6785,37.81052],[-5.68138,37.8099],[-5.68177,37.80971],[-5.68271,37.80898],[-5.68354,37.80808],[-5.6839,37.80739],[-5.68414,37.80631],[-5.68413,37.80523],[-5.68423,37.80488],[-5.68444,37.80466],[-5.68555,37.80395],[-5.68566,37.80362],[-5.68511,37.80129],[-5.68588,37.79957],[-5.6859,37.79917],[-5.68573,37.79886],[-5.68545,37.79857],[-5.685,37.79839],[-5.68345,37.79819],[-5.67997,37.79572],[-5.67969,37.79532],[-5.67928,37.79434],[-5.67898,37.7929],[-5.67914,37.79174],[-5.67941,37.7912],[-5.68065,37.7897],[-5.681,37.78907],[-5.68105,37.78879],[-5.68042,37.78775],[-5.68042,37.78746],[-5.68058,37.78701],[-5.68135,37.78577],[-5.68163,37.78549],[-5.6823,37.78515],[-5.68321,37.78504],[-5.68418,37.7851],[-5.68514,37.78478],[-5.68588,37.78421],[-5.68652,37.78292],[-5.68661,37.78201],[-5.68612,37.78152],[-5.68454,37.78051],[-5.68435,37.78022],[-5.68434,37.77981],[-5.68478,37.7789],[-5.68643,37.77721],[-5.68657,37.77694],[-5.68649,37.77658],[-5.6862,37.77609],[-5.68416,37.77383],[-5.68348,37.77287],[-5.68326,37.77233],[-5.6832,37.77185],[-5.6834,37.77092],[-5.6854,37.76812],[-5.68572,37.7667],[-5.68529,37.76579],[-5.68493,37.76557],[-5.68217,37.76497],[-5.68117,37.76447],[-5.68059,37.76404],[-5.67915,37.7623],[-5.67901,37.76196],[-5.67895,37.76106],[-5.67919,37.76012],[-5.68018,37.75796],[-5.68021,37.75661],[-5.68003,37.75567],[-5.67864,37.75367],[-5.67839,37.75291],[-5.67838,37.7525],[-5.67868,37.75178],[-5.6791,37.75134],[-5.68062,37.75052],[-5.68156,37.75025],[-5.68242,37.7502],[-5.68435,37.7505],[-5.68522,37.75047],[-5.68626,37.75015],[-5.68675,37.74982],[-5.68731,37.74894],[-5.68744,37.74818],[-5.68742,37.74756],[-5.68717,37.74662],[-5.68658,37.74505],[-5.68666,37.74433],[-5.68693,37.74396],[-5.68757,37.74341],[-5.68924,37.74229],[-5.68946,37.74205],[-5.69105,37.73889],[-5.69164,37.73838],[-5.69312,37.73756],[-5.69556,37.73756],[-5.70245,37.73861],[-5.70327,37.73837],[-5.70357,37.738],[-5.70381,37.73754],[-5.704,37.73665],[-5.70388,37.73649],[-5.70466,37.73629],[-5.72265,37.73344],[-5.72761,37.73308],[-5.73291,37.73254],[-5.73442,37.73243],[-5.73617,37.73247],[-5.74525,37.73043],[-5.75124,37.72891],[-5.75881,37.72679],[-5.77435,37.7156],[-5.77777,37.71401],[-5.77932,37.71284],[-5.7927,37.70451],[-5.79728,37.70274],[-5.79479,37.69569],[-5.79407,37.69329],[-5.7919,37.68757],[-5.79704,37.68742],[-5.80856,37.68733],[-5.81538,37.68684],[-5.81985,37.68621],[-5.82069,37.68601],[-5.82625,37.68527],[-5.83171,37.68465],[-5.8341,37.68454],[-5.83626,37.6846],[-5.8365,37.68439],[-5.83827,37.68549],[-5.84136,37.6886],[-5.84214,37.68927],[-5.84321,37.68997],[-5.84733,37.69183],[-5.84842,37.69224],[-5.85285,37.6934],[-5.85433,37.69405],[-5.85568,37.69479],[-5.85949,37.69611],[-5.86362,37.6974],[-5.86404,37.69782],[-5.86345,37.70177],[-5.86342,37.70338],[-5.86357,37.70448],[-5.86412,37.70553],[-5.86469,37.70624],[-5.86683,37.70743],[-5.86996,37.70817],[-5.87424,37.71072],[-5.87612,37.71193],[-5.87748,37.71302],[-5.87969,37.7157],[-5.88029,37.7163],[-5.88111,37.71696],[-5.88247,37.71738],[-5.88313,37.71786],[-5.88479,37.71947],[-5.88514,37.71999],[-5.88491,37.72115],[-5.88487,37.72232],[-5.88413,37.72413],[-5.88364,37.72452],[-5.88227,37.72518],[-5.88113,37.72602],[-5.87874,37.72731],[-5.87846,37.72774],[-5.87826,37.73034],[-5.87837,37.73625],[-5.87855,37.73819],[-5.87852,37.73965],[-5.87836,37.74109],[-5.87797,37.74243],[-5.87768,37.74519],[-5.878,37.74601],[-5.88053,37.74887],[-5.88103,37.74915],[-5.88206,37.74947],[-5.88362,37.7498],[-5.88542,37.74992],[-5.88592,37.75011],[-5.88608,37.75054],[-5.88704,37.7542],[-5.88705,37.75482],[-5.88682,37.75528],[-5.8858,37.75628],[-5.88524,37.75785],[-5.88431,37.75935],[-5.88388,37.76034],[-5.88327,37.76121],[-5.88363,37.76149],[-5.88448,37.76148],[-5.88559,37.76162],[-5.88673,37.76146],[-5.88694,37.7615],[-5.88729,37.76214],[-5.88764,37.76253],[-5.8898,37.76394],[-5.8903,37.76442],[-5.89125,37.76662],[-5.89157,37.769],[-5.89192,37.77028],[-5.89325,37.77282],[-5.89352,37.77492],[-5.894,37.77631],[-5.89491,37.778],[-5.8958,37.78115],[-5.8963,37.78217],[-5.89658,37.78242],[-5.89833,37.78285],[-5.90225,37.78338],[-5.90562,37.78367],[-5.90675,37.78394],[-5.90719,37.7843],[-5.90914,37.78727],[-5.91014,37.78841],[-5.91064,37.78918],[-5.91124,37.79103],[-5.91105,37.79166],[-5.90966,37.79411],[-5.90742,37.7966],[-5.90729,37.79693],[-5.90784,37.79936],[-5.90847,37.8035],[-5.90871,37.80425],[-5.91167,37.80632],[-5.91291,37.80694],[-5.91507,37.80749],[-5.91586,37.80781],[-5.91891,37.80835],[-5.92036,37.80868],[-5.92104,37.80892],[-5.92215,37.81],[-5.92372,37.8142],[-5.92397,37.81522],[-5.92387,37.81582],[-5.91907,37.82232],[-5.91862,37.82338],[-5.91858,37.82394],[-5.91661,37.82513],[-5.91554,37.82551],[-5.91342,37.82594],[-5.91259,37.82588],[-5.91046,37.8253],[-5.90985,37.82502],[-5.90936,37.82459],[-5.90902,37.82379],[-5.90917,37.8218],[-5.90906,37.8214],[-5.90879,37.82104],[-5.90642,37.82044],[-5.9054,37.82034],[-5.90539,37.82091],[-5.90557,37.82182],[-5.9056,37.82339],[-5.90544,37.82396],[-5.90499,37.8241],[-5.90432,37.82413],[-5.90203,37.82393],[-5.90125,37.82399],[-5.90092,37.82428],[-5.90088,37.82458],[-5.90111,37.82512],[-5.90142,37.8269],[-5.90121,37.82753],[-5.90083,37.828],[-5.89886,37.82934],[-5.89649,37.83069],[-5.89521,37.83155],[-5.89379,37.83058],[-5.89323,37.8308],[-5.89021,37.83249],[-5.88866,37.83343],[-5.88761,37.83421],[-5.88751,37.83609],[-5.88758,37.83761],[-5.88797,37.83999],[-5.88803,37.84117],[-5.88795,37.8415],[-5.88766,37.84172],[-5.88312,37.84337],[-5.88163,37.84148],[-5.88023,37.83991],[-5.87626,37.84164],[-5.87881,37.84415],[-5.87874,37.84551],[-5.87742,37.84536],[-5.87707,37.84571],[-5.87576,37.84797],[-5.87533,37.84897],[-5.87763,37.85259],[-5.87655,37.85273],[-5.87538,37.85269],[-5.87496,37.85279],[-5.87278,37.85462],[-5.87088,37.85584],[-5.86935,37.85698],[-5.86852,37.85781],[-5.8693,37.85846],[-5.86972,37.85907],[-5.86978,37.85961],[-5.86976,37.86021],[-5.86959,37.86072],[-5.86922,37.86105],[-5.86813,37.86165],[-5.86813,37.86192],[-5.86915,37.86282],[-5.8695,37.86338],[-5.86983,37.86421],[-5.8691,37.86595],[-5.86825,37.866],[-5.86798,37.86618],[-5.86733,37.86688],[-5.86592,37.86699],[-5.86496,37.86789],[-5.8646,37.86813],[-5.86363,37.86831],[-5.86324,37.86857],[-5.86301,37.86827],[-5.86268,37.8672],[-5.86238,37.86664],[-5.8618,37.86654],[-5.86121,37.86662],[-5.86108,37.86675],[-5.86105,37.86707],[-5.86147,37.86792],[-5.8613,37.86899],[-5.86243,37.87005],[-5.86267,37.87036],[-5.86272,37.87071],[-5.86248,37.871],[-5.86204,37.87118],[-5.85982,37.87158],[-5.85955,37.87155],[-5.8581,37.87097],[-5.85675,37.87219],[-5.8562,37.87331],[-5.85627,37.8735],[-5.85691,37.87392],[-5.85682,37.87446],[-5.85616,37.87579],[-5.85433,37.8749],[-5.85201,37.87423],[-5.85072,37.87442],[-5.84894,37.87507],[-5.84847,37.87371],[-5.84823,37.87343],[-5.84676,37.87241],[-5.84499,37.8705],[-5.84352,37.86959],[-5.84219,37.86863],[-5.84096,37.86798],[-5.83964,37.86746],[-5.83899,37.86704],[-5.83784,37.86575],[-5.83719,37.86568],[-5.83558,37.866],[-5.83304,37.86684],[-5.83091,37.86701],[-5.83043,37.86767],[-5.82962,37.86924],[-5.82825,37.87117],[-5.82583,37.87318],[-5.82458,37.87459],[-5.82034,37.88078],[-5.81941,37.88186],[-5.81825,37.88256],[-5.81742,37.88288],[-5.81617,37.88286],[-5.81571,37.88271],[-5.81441,37.88166],[-5.81357,37.88113],[-5.81189,37.88027],[-5.81049,37.87979],[-5.80998,37.87973]],[[-5.76889,37.84281],[-5.76894,37.84194],[-5.76909,37.84173],[-5.76902,37.84146],[-5.76718,37.83951],[-5.76681,37.83954],[-5.76625,37.83932],[-5.76531,37.83918],[-5.76488,37.84],[-5.76436,37.83995],[-5.76417,37.84084],[-5.7639,37.84126],[-5.76415,37.84205],[-5.76384,37.84234],[-5.76366,37.84223],[-5.76347,37.84253],[-5.7634,37.84279],[-5.76368,37.84281],[-5.76365,37.84314],[-5.76283,37.84544],[-5.76377,37.84571],[-5.76557,37.84656],[-5.76813,37.84721],[-5.77061,37.84731],[-5.77203,37.84775],[-5.77218,37.84759],[-5.77273,37.8464],[-5.77159,37.8458],[-5.76978,37.8441],[-5.7698,37.84354],[-5.76889,37.84281]]]}},{"type":"Feature","properties":{"id":"4107301002"},"geometry":{"type":"Polygon","coordinates":[[[-5.76436,37.83995],[-5.76488,37.84],[-5.76531,37.83918],[-5.76562,37.83921],[-5.76625,37.83932],[-5.76681,37.83954],[-5.76718,37.83951],[-5.76815,37.84049],[-5.76902,37.84146],[-5.76909,37.84173],[-5.76894,37.84194],[-5.76889,37.84281],[-5.7698,37.84354],[-5.76978,37.8441],[-5.77159,37.8458],[-5.77273,37.8464],[-5.77218,37.84759],[-5.77203,37.84775],[-5.77061,37.84731],[-5.76813,37.84721],[-5.76557,37.84656],[-5.76377,37.84571],[-5.76283,37.84544],[-5.76365,37.84314],[-5.76368,37.84281],[-5.7634,37.84279],[-5.76347,37.84253],[-5.76366,37.84223],[-5.76384,37.84234],[-5.76415,37.84205],[-5.7639,37.84126],[-5.76417,37.84084],[-5.76436,37.83995]]]}}]}