{"type":"FeatureCollection","features":[{"type":"Feature","properties":{"id":"4108501001"},"geometry":{"type":"Polygon","coordinates":[[[-6.11064,37.41879],[-6.10915,37.41839],[-6.10914,37.41826],[-6.10793,37.41841],[-6.10586,37.41834],[-6.1048,37.41847],[-6.10403,37.41877],[-6.10269,37.41826],[-6.10241,37.4181],[-6.10328,37.41742],[-6.10319,37.41736],[-6.10339,37.41715],[-6.10309,37.41698],[-6.10363,37.41631],[-6.10417,37.41598],[-6.10277,37.41536],[-6.10083,37.41495],[-6.1017,37.4131],[-6.10062,37.41287],[-6.09676,37.41231],[-6.09875,37.4096],[-6.10022,37.40647],[-6.10062,37.40589],[-6.10179,37.40461],[-6.10355,37.40332],[-6.1066,37.40142],[-6.10773,37.40152],[-6.10935,37.40125],[-6.10958,37.40109],[-6.11057,37.39947],[-6.11124,37.39898],[-6.1126,37.39824],[-6.1144,37.39704],[-6.11643,37.39599],[-6.11797,37.39531],[-6.11833,37.39504],[-6.11865,37.39452],[-6.11936,37.39492],[-6.11947,37.39512],[-6.11952,37.39607],[-6.1197,37.39641],[-6.12002,37.39658],[-6.12093,37.39643],[-6.12153,37.39648],[-6.12389,37.39785],[-6.12459,37.39802],[-6.12553,37.39804],[-6.12728,37.39792],[-6.12877,37.39767],[-6.12874,37.39799],[-6.12825,37.39855],[-6.1268,37.39961],[-6.12687,37.40117],[-6.12673,37.40177],[-6.12655,37.40227],[-6.12578,37.40351],[-6.1254,37.4046],[-6.12516,37.40488],[-6.12472,37.40499],[-6.1211,37.40538],[-6.12069,37.40551],[-6.12029,37.40599],[-6.12035,37.40631],[-6.1206,37.40657],[-6.12142,37.4071],[-6.12127,37.40992],[-6.12127,37.41137],[-6.12139,37.41169],[-6.12161,37.41195],[-6.12276,37.41241],[-6.123,37.41267],[-6.12313,37.41306],[-6.12311,37.41381],[-6.12372,37.41512],[-6.12392,37.41525],[-6.12432,37.41535],[-6.12628,37.41505],[-6.1294,37.41477],[-6.13116,37.41527],[-6.13179,37.41533],[-6.13214,37.41528],[-6.13246,37.41503],[-6.13264,37.41462],[-6.13368,37.41322],[-6.13401,37.41209],[-6.13429,37.41191],[-6.13552,37.41181],[-6.13621,37.41102],[-6.1365,37.41084],[-6.13736,37.41068],[-6.13852,37.41098],[-6.13905,37.41097],[-6.14117,37.41033],[-6.14196,37.4099],[-6.1425,37.40971],[-6.14347,37.40959],[-6.14483,37.40992],[-6.14481,37.41014],[-6.14407,37.4116],[-6.14395,37.41249],[-6.14409,37.41391],[-6.14462,37.41536],[-6.14464,37.4157],[-6.14449,37.41583],[-6.14316,37.41599],[-6.14167,37.41629],[-6.14099,37.41676],[-6.14059,37.41745],[-6.14039,37.41882],[-6.13983,37.41997],[-6.1387,37.42166],[-6.13789,37.42255],[-6.13672,37.42251],[-6.13377,37.42286],[-6.12981,37.42318],[-6.12217,37.42232],[-6.12172,37.42216],[-6.12074,37.4216],[-6.12105,37.41809],[-6.11941,37.41819],[-6.11925,37.42005],[-6.11903,37.42099],[-6.11543,37.42068],[-6.11323,37.42022],[-6.11321,37.42005],[-6.11356,37.41923],[-6.11246,37.41931],[-6.11243,37.41923],[-6.11129,37.41907],[-6.11126,37.41881],[-6.11064,37.41879]]]}},{"type":"Feature","properties":{"id":"4108501002"},"geometry":{"type":"MultiPolygon","coordinates":[[[[-6.1224,37.47847],[-6.11845,37.47712],[-6.11678,37.47724],[-6.11503,37.47756],[-6.1133,37.47741],[-6.11352,37.4762],[-6.11329,37.47473],[-6.11309,37.47435],[-6.11265,37.47404],[-6.11123,37.47261],[-6.11098,37.47231],[-6.11092,37.47193],[-6.11093,37.471],[-6.1125,37.4688],[-6.11268,37.46861],[-6.11296,37.4685],[-6.11415,37.46821],[-6.11458,37.46759],[-6.11505,37.46628],[-6.11596,37.4652],[-6.11616,37.4651],[-6.11615,37.46501],[-6.11578,37.46493],[-6.11567,37.4648],[-6.11581,37.46366],[-6.11514,37.46209],[-6.11467,37.46129],[-6.11457,37.45854],[-6.11443,37.45835],[-6.11496,37.45556],[-6.11578,37.4541],[-6.11611,37.45281],[-6.11684,37.45125],[-6.11672,37.45077],[-6.11644,37.45051],[-6.11617,37.45042],[-6.11382,37.44977],[-6.11122,37.44832],[-6.10933,37.44794],[-6.10644,37.44673],[-6.10475,37.44469],[-6.10482,37.44352],[-6.10519,37.44235],[-6.105,37.44199],[-6.10368,37.44047],[-6.1032,37.4394],[-6.10315,37.43894],[-6.1046,37.43597],[-6.10547,37.4334],[-6.10745,37.42864],[-6.10796,37.42652],[-6.10784,37.42619],[-6.10736,37.42555],[-6.10899,37.42391],[-6.1092,37.42341],[-6.10904,37.42263],[-6.10902,37.42185],[-6.10961,37.42141],[-6.11012,37.42065],[-6.1105,37.41975],[-6.11064,37.41878],[-6.11126,37.41881],[-6.11129,37.41907],[-6.11243,37.41923],[-6.11246,37.41931],[-6.11356,37.41923],[-6.11321,37.42005],[-6.11323,37.42022],[-6.11543,37.42068],[-6.11903,37.42099],[-6.11925,37.42005],[-6.11941,37.41819],[-6.12105,37.41809],[-6.12074,37.4216],[-6.12172,37.42216],[-6.12217,37.42232],[-6.12981,37.42318],[-6.13377,37.42286],[-6.13672,37.42251],[-6.13789,37.42255],[-6.13685,37.42361],[-6.13577,37.42547],[-6.13594,37.42809],[-6.13617,37.42909],[-6.13726,37.43146],[-6.13916,37.43299],[-6.14113,37.43546],[-6.14152,37.43615],[-6.14155,37.43645],[-6.14104,37.43765],[-6.13895,37.44114],[-6.13717,37.44457],[-6.13699,37.44543],[-6.13704,37.44621],[-6.13694,37.44647],[-6.13615,37.44713],[-6.13563,37.44776],[-6.13538,37.44792],[-6.13486,37.44806],[-6.13382,37.44899],[-6.13278,37.44967],[-6.13252,37.45016],[-6.13205,37.45259],[-6.13117,37.45378],[-6.1304,37.45597],[-6.12992,37.45668],[-6.12787,37.45914],[-6.12692,37.45981],[-6.12614,37.46094],[-6.12487,37.46311],[-6.12387,37.46502],[-6.12257,37.47049],[-6.12225,37.47393],[-6.12192,37.47572],[-6.1219,37.47726],[-6.1224,37.47847]]],[[[-6.02357,37.44668],[-6.02478,37.44649],[-6.02513,37.44847],[-6.02404,37.44861],[-6.02357,37.44668]]]]}},{"type":"Feature","properties":{"id":"4108501003"},"geometry":{"type":"Polygon","coordinates":[[[-6.02995,37.49255],[-6.02953,37.49121],[-6.02683,37.49102],[-6.0256,37.48858],[-6.02584,37.48837],[-6.0268,37.48803],[-6.02784,37.48705],[-6.02794,37.48618],[-6.02932,37.48494],[-6.02956,37.48461],[-6.02978,37.48387],[-6.02972,37.48362],[-6.02928,37.48284],[-6.02849,37.48205],[-6.0259,37.48074],[-6.02457,37.48022],[-6.02432,37.47997],[-6.02425,37.47965],[-6.02448,37.47899],[-6.02483,37.47853],[-6.02539,37.47808],[-6.02661,37.47742],[-6.02779,37.477],[-6.02835,37.47544],[-6.02858,37.47524],[-6.02891,37.47512],[-6.0298,37.47529],[-6.03016,37.47527],[-6.03034,37.47506],[-6.03041,37.47474],[-6.03067,37.47451],[-6.03087,37.47456],[-6.03271,37.47648],[-6.03304,37.47669],[-6.03336,37.47678],[-6.03403,37.47674],[-6.03434,37.4766],[-6.03485,37.47616],[-6.03496,37.47587],[-6.03491,37.47534],[-6.03441,37.47388],[-6.03411,37.47121],[-6.03455,37.46884],[-6.03497,37.46779],[-6.03541,37.46704],[-6.03694,37.4653],[-6.0377,37.46426],[-6.03971,37.46115],[-6.03991,37.46038],[-6.03998,37.45946],[-6.0403,37.45871],[-6.04039,37.45797],[-6.04034,37.45658],[-6.04071,37.45469],[-6.04073,37.45408],[-6.04063,37.45375],[-6.03963,37.45248],[-6.03819,37.45135],[-6.03746,37.451],[-6.03687,37.45179],[-6.03625,37.45234],[-6.03588,37.45241],[-6.03507,37.45232],[-6.03413,37.45238],[-6.0334,37.45216],[-6.03328,37.45173],[-6.03433,37.4509],[-6.03462,37.45036],[-6.03466,37.45002],[-6.03458,37.44975],[-6.0333,37.44935],[-6.03269,37.44929],[-6.0315,37.44938],[-6.03109,37.44951],[-6.03097,37.44973],[-6.03101,37.45147],[-6.03054,37.45332],[-6.02817,37.45396],[-6.02757,37.45404],[-6.02649,37.45398],[-6.02575,37.45356],[-6.02547,37.45305],[-6.0255,37.4502],[-6.02555,37.44887],[-6.02591,37.44753],[-6.02629,37.44714],[-6.02841,37.44585],[-6.02907,37.44485],[-6.02914,37.44381],[-6.02874,37.44263],[-6.02834,37.44026],[-6.02826,37.43765],[-6.02791,37.43697],[-6.02665,37.43572],[-6.02577,37.43446],[-6.02505,37.43375],[-6.02434,37.43237],[-6.02404,37.43167],[-6.02384,37.43074],[-6.02394,37.42972],[-6.02335,37.42795],[-6.02413,37.42769],[-6.026,37.42665],[-6.02705,37.42594],[-6.02797,37.42493],[-6.02848,37.42531],[-6.02959,37.42679],[-6.03086,37.42866],[-6.03187,37.43078],[-6.03431,37.43506],[-6.03503,37.4379],[-6.03625,37.44155],[-6.03646,37.44179],[-6.03697,37.44207],[-6.03821,37.44216],[-6.03863,37.4424],[-6.0391,37.44316],[-6.03969,37.4498],[-6.0401,37.45139],[-6.03981,37.45199],[-6.04017,37.4525],[-6.04638,37.45295],[-6.05003,37.45185],[-6.05451,37.45125],[-6.05508,37.45164],[-6.05563,37.45163],[-6.05728,37.45215],[-6.05782,37.45211],[-6.05839,37.45186],[-6.06006,37.45166],[-6.06065,37.45191],[-6.06089,37.4522],[-6.06084,37.45273],[-6.061,37.45309],[-6.0617,37.45369],[-6.06223,37.45383],[-6.06259,37.4541],[-6.06318,37.45411],[-6.06342,37.45555],[-6.06346,37.4566],[-6.07124,37.45685],[-6.08721,37.45617],[-6.08952,37.45666],[-6.09121,37.45721],[-6.09163,37.45685],[-6.09273,37.45539],[-6.09447,37.45275],[-6.09627,37.45087],[-6.09158,37.4452],[-6.09237,37.44444],[-6.0931,37.44308],[-6.09434,37.44211],[-6.09459,37.44155],[-6.09457,37.44127],[-6.09422,37.44048],[-6.09387,37.43825],[-6.09352,37.43723],[-6.09267,37.43567],[-6.0914,37.43401],[-6.09118,37.43345],[-6.09118,37.43319],[-6.09141,37.43288],[-6.09204,37.43251],[-6.09226,37.43218],[-6.09235,37.43171],[-6.09209,37.43049],[-6.09201,37.42879],[-6.09145,37.42813],[-6.09121,37.42687],[-6.09156,37.42645],[-6.09194,37.42634],[-6.09285,37.42626],[-6.09347,37.42596],[-6.09369,37.42536],[-6.09356,37.42435],[-6.09392,37.423],[-6.09372,37.42179],[-6.0938,37.42148],[-6.09443,37.42049],[-6.09462,37.41945],[-6.0945,37.41846],[-6.09471,37.41677],[-6.09554,37.41442],[-6.09668,37.41243],[-6.09676,37.41231],[-6.09737,37.41237],[-6.1017,37.4131],[-6.10083,37.41495],[-6.10277,37.41536],[-6.10417,37.41598],[-6.10363,37.41631],[-6.10309,37.41698],[-6.10339,37.41715],[-6.10319,37.41736],[-6.10328,37.41742],[-6.10241,37.4181],[-6.10251,37.41816],[-6.10403,37.41877],[-6.1048,37.41847],[-6.10586,37.41834],[-6.10793,37.41841],[-6.10914,37.41826],[-6.10915,37.41839],[-6.11064,37.41879],[-6.1105,37.41975],[-6.11012,37.42065],[-6.10961,37.42141],[-6.10902,37.42185],[-6.10904,37.42263],[-6.1092,37.42341],[-6.10899,37.42391],[-6.10736,37.42555],[-6.10784,37.42619],[-6.10796,37.42652],[-6.10745,37.42864],[-6.10547,37.4334],[-6.1046,37.43597],[-6.10321,37.43868],[-6.1032,37.4394],[-6.10368,37.44047],[-6.105,37.44199],[-6.10519,37.44235],[-6.10482,37.44352],[-6.10475,37.44469],[-6.10644,37.44673],[-6.10933,37.44794],[-6.11149,37.44843],[-6.11399,37.44984],[-6.11644,37.45051],[-6.11672,37.45077],[-6.11684,37.45125],[-6.11611,37.45281],[-6.11578,37.4541],[-6.11496,37.45556],[-6.11443,37.45835],[-6.11457,37.45854],[-6.11467,37.46129],[-6.11514,37.46209],[-6.11581,37.46366],[-6.11567,37.4648],[-6.11578,37.46493],[-6.11615,37.46501],[-6.11616,37.4651],[-6.11596,37.4652],[-6.11505,37.46628],[-6.11458,37.46759],[-6.11415,37.46821],[-6.11268,37.46861],[-6.11093,37.471],[-6.11098,37.47231],[-6.11265,37.47404],[-6.11179,37.47452],[-6.10988,37.47597],[-6.10812,37.47709],[-6.10941,37.48053],[-6.10977,37.4818],[-6.11003,37.48397],[-6.10906,37.48586],[-6.10831,37.48699],[-6.10563,37.49045],[-6.10449,37.49167],[-6.09896,37.4968],[-6.09695,37.49791],[-6.09461,37.49895],[-6.09126,37.5001],[-6.08634,37.50321],[-6.08437,37.50279],[-6.08282,37.50176],[-6.08209,37.50105],[-6.08191,37.50069],[-6.082,37.50015],[-6.08168,37.49991],[-6.08129,37.49926],[-6.08118,37.49852],[-6.08174,37.49786],[-6.08153,37.49729],[-6.08072,37.49664],[-6.07926,37.49582],[-6.07823,37.49561],[-6.07728,37.49492],[-6.07625,37.4926],[-6.07529,37.49249],[-6.07489,37.4929],[-6.07453,37.49304],[-6.07421,37.49303],[-6.07326,37.49249],[-6.07279,37.49174],[-6.07176,37.49118],[-6.07056,37.49124],[-6.06951,37.49185],[-6.06862,37.49268],[-6.0676,37.49296],[-6.06673,37.49348],[-6.06581,37.49388],[-6.06368,37.49539],[-6.06307,37.49649],[-6.06205,37.4976],[-6.06123,37.49799],[-6.06059,37.49866],[-6.05896,37.49902],[-6.05726,37.49777],[-6.05656,37.49748],[-6.05547,37.49673],[-6.05451,37.49588],[-6.05426,37.49575],[-6.05342,37.49576],[-6.05145,37.49502],[-6.04924,37.49483],[-6.0484,37.4939],[-6.0479,37.49362],[-6.0465,37.49311],[-6.04469,37.49263],[-6.04242,37.49075],[-6.04084,37.49009],[-6.04004,37.49],[-6.03869,37.49025],[-6.03821,37.49023],[-6.03653,37.48982],[-6.03569,37.48987],[-6.03386,37.49045],[-6.03235,37.49111],[-6.03103,37.49182],[-6.02995,37.49255]]]}}]}