{"type":"FeatureCollection","features":[{"type":"Feature","properties":{"id":"4109601001"},"geometry":{"type":"Polygon","coordinates":[[[-6.06831,37.41956],[-6.0666,37.4195],[-6.06661,37.41862],[-6.06693,37.41835],[-6.06449,37.41833],[-6.05978,37.41775],[-6.05964,37.41834],[-6.05679,37.41773],[-6.03907,37.41937],[-6.04169,37.41658],[-6.04352,37.41549],[-6.04404,37.4157],[-6.04441,37.41569],[-6.0454,37.41547],[-6.04746,37.41437],[-6.04862,37.4141],[-6.04925,37.41416],[-6.05177,37.41485],[-6.05199,37.4148],[-6.05274,37.41395],[-6.05324,37.41371],[-6.05426,37.41355],[-6.05599,37.41346],[-6.05633,37.41331],[-6.05762,37.41252],[-6.05832,37.4119],[-6.05895,37.41124],[-6.06053,37.40921],[-6.06075,37.40943],[-6.06179,37.41001],[-6.06288,37.41048],[-6.06373,37.41072],[-6.06539,37.41071],[-6.06649,37.41084],[-6.06817,37.41231],[-6.06868,37.41264],[-6.06926,37.41288],[-6.07065,37.41311],[-6.07255,37.41385],[-6.07509,37.41568],[-6.07581,37.41606],[-6.07596,37.41689],[-6.07594,37.41767],[-6.07508,37.41957],[-6.07134,37.41955],[-6.06833,37.41941],[-6.06831,37.41956]]]}},{"type":"Feature","properties":{"id":"4109601002"},"geometry":{"type":"Polygon","coordinates":[[[-6.08952,37.45666],[-6.08721,37.45617],[-6.07124,37.45685],[-6.06346,37.4566],[-6.06342,37.45555],[-6.06308,37.45356],[-6.0625,37.45236],[-6.06238,37.45099],[-6.06209,37.44978],[-6.06205,37.44834],[-6.06107,37.44655],[-6.05975,37.44467],[-6.0583,37.44202],[-6.0573,37.43946],[-6.05722,37.43667],[-6.05663,37.43431],[-6.05633,37.43382],[-6.05869,37.43424],[-6.05957,37.43429],[-6.05988,37.43416],[-6.0613,37.43253],[-6.06276,37.43126],[-6.06439,37.43041],[-6.06596,37.42921],[-6.06711,37.4287],[-6.06904,37.42806],[-6.06968,37.42767],[-6.07186,37.42565],[-6.07286,37.42406],[-6.0742,37.42333],[-6.07458,37.42297],[-6.07515,37.42064],[-6.07507,37.41961],[-6.07514,37.41928],[-6.07594,37.41767],[-6.07595,37.41689],[-6.07735,37.41711],[-6.07712,37.41668],[-6.07706,37.41605],[-6.07754,37.41601],[-6.07717,37.4151],[-6.07797,37.41511],[-6.07785,37.41494],[-6.07803,37.41482],[-6.0779,37.41474],[-6.07793,37.41447],[-6.07887,37.4139],[-6.0788,37.4136],[-6.07966,37.41314],[-6.0799,37.41115],[-6.08079,37.41124],[-6.08085,37.41031],[-6.08146,37.40997],[-6.08244,37.41055],[-6.08293,37.41097],[-6.08431,37.41282],[-6.08531,37.41355],[-6.08668,37.41393],[-6.08722,37.41396],[-6.09073,37.41358],[-6.09573,37.41409],[-6.09471,37.41677],[-6.0945,37.41846],[-6.09462,37.41945],[-6.09443,37.42049],[-6.0938,37.42148],[-6.09372,37.42179],[-6.09392,37.423],[-6.09356,37.42435],[-6.09369,37.42536],[-6.09347,37.42596],[-6.09285,37.42626],[-6.09194,37.42634],[-6.09156,37.42645],[-6.09121,37.42687],[-6.09145,37.42813],[-6.09201,37.42879],[-6.09209,37.43049],[-6.09235,37.43171],[-6.09226,37.43218],[-6.09204,37.43251],[-6.09141,37.43288],[-6.09118,37.43319],[-6.09118,37.43345],[-6.0914,37.43401],[-6.09267,37.43567],[-6.09352,37.43723],[-6.09387,37.43825],[-6.09422,37.44048],[-6.09457,37.44127],[-6.09459,37.44155],[-6.09434,37.44211],[-6.0931,37.44308],[-6.09237,37.44444],[-6.09158,37.4452],[-6.09627,37.45087],[-6.09447,37.45275],[-6.09273,37.45539],[-6.09163,37.45685],[-6.09121,37.45721],[-6.08952,37.45666]]]}},{"type":"Feature","properties":{"id":"4109601003"},"geometry":{"type":"Polygon","coordinates":[[[-6.07596,37.41689],[-6.07581,37.41606],[-6.07509,37.41568],[-6.07255,37.41385],[-6.07065,37.41311],[-6.06926,37.41288],[-6.06868,37.41264],[-6.06817,37.41231],[-6.06649,37.41084],[-6.06539,37.41071],[-6.06373,37.41072],[-6.06288,37.41048],[-6.06179,37.41001],[-6.06075,37.40943],[-6.06053,37.40921],[-6.06147,37.40794],[-6.06196,37.40699],[-6.06211,37.40643],[-6.06217,37.40487],[-6.06205,37.40309],[-6.06225,37.40157],[-6.06213,37.40018],[-6.06438,37.40029],[-6.06562,37.40057],[-6.0667,37.40054],[-6.06826,37.40144],[-6.0689,37.40216],[-6.07059,37.4025],[-6.073,37.40315],[-6.07366,37.40348],[-6.07502,37.40369],[-6.07576,37.40419],[-6.07848,37.40524],[-6.08111,37.40674],[-6.08223,37.40723],[-6.08572,37.4079],[-6.08919,37.4089],[-6.09049,37.40936],[-6.0932,37.41008],[-6.09453,37.41078],[-6.09542,37.4116],[-6.09595,37.41193],[-6.0968,37.41227],[-6.09573,37.41409],[-6.09073,37.41358],[-6.08815,37.4139],[-6.08668,37.41393],[-6.08531,37.41355],[-6.08431,37.41282],[-6.08293,37.41097],[-6.08244,37.41055],[-6.08146,37.40997],[-6.08085,37.41031],[-6.08079,37.41124],[-6.0799,37.41115],[-6.07966,37.41314],[-6.0788,37.4136],[-6.07887,37.4139],[-6.07793,37.41447],[-6.0779,37.41474],[-6.07803,37.41482],[-6.07785,37.41494],[-6.07797,37.41511],[-6.07717,37.4151],[-6.07754,37.41601],[-6.07706,37.41605],[-6.07712,37.41668],[-6.07735,37.41711],[-6.07596,37.41689]]]}},{"type":"Feature","properties":{"id":"4109601004"},"geometry":{"type":"Polygon","coordinates":[[[-6.06213,37.40018],[-6.06262,37.39886],[-6.06295,37.3974],[-6.0628,37.3968],[-6.06185,37.39576],[-6.06166,37.3954],[-6.06078,37.39317],[-6.06179,37.39321],[-6.06216,37.39305],[-6.06273,37.39198],[-6.06302,37.39175],[-6.06423,37.39123],[-6.06445,37.39098],[-6.0642,37.39018],[-6.06451,37.38986],[-6.06486,37.38981],[-6.06569,37.3902],[-6.07069,37.39369],[-6.07519,37.39517],[-6.07619,37.39463],[-6.07636,37.39431],[-6.07624,37.39375],[-6.0778,37.39344],[-6.08008,37.39334],[-6.08097,37.39315],[-6.08142,37.39316],[-6.08257,37.39337],[-6.08391,37.39334],[-6.08484,37.39355],[-6.08522,37.39379],[-6.08633,37.39417],[-6.08681,37.39428],[-6.08823,37.39434],[-6.08838,37.39448],[-6.08844,37.39574],[-6.08856,37.39626],[-6.08904,37.39756],[-6.08909,37.39795],[-6.08894,37.39952],[-6.08906,37.39973],[-6.08939,37.39985],[-6.09247,37.39966],[-6.09418,37.39976],[-6.09482,37.39988],[-6.09733,37.40076],[-6.09995,37.40117],[-6.10177,37.40121],[-6.10307,37.40161],[-6.10406,37.40166],[-6.10525,37.40153],[-6.10599,37.40136],[-6.1066,37.40142],[-6.10355,37.40332],[-6.10179,37.40461],[-6.10062,37.40589],[-6.09971,37.40744],[-6.09875,37.4096],[-6.0968,37.41227],[-6.09595,37.41193],[-6.09542,37.4116],[-6.09453,37.41078],[-6.0932,37.41008],[-6.09049,37.40936],[-6.08919,37.4089],[-6.08572,37.4079],[-6.08223,37.40723],[-6.08111,37.40674],[-6.07848,37.40524],[-6.07576,37.40419],[-6.07502,37.40369],[-6.07366,37.40348],[-6.073,37.40315],[-6.07059,37.4025],[-6.0689,37.40216],[-6.06826,37.40144],[-6.0667,37.40054],[-6.06562,37.40057],[-6.06438,37.40029],[-6.06213,37.40018]]]}},{"type":"Feature","properties":{"id":"4109601005"},"geometry":{"type":"Polygon","coordinates":[[[-6.04826,37.43076],[-6.04785,37.43077],[-6.04751,37.43112],[-6.04692,37.43121],[-6.0465,37.43114],[-6.04379,37.43004],[-6.04276,37.42995],[-6.04136,37.43016],[-6.03967,37.42976],[-6.03772,37.42965],[-6.03656,37.429],[-6.03601,37.42841],[-6.03555,37.42819],[-6.03325,37.42836],[-6.03303,37.4282],[-6.03233,37.42707],[-6.03014,37.42405],[-6.03213,37.42358],[-6.03495,37.42312],[-6.03432,37.42123],[-6.03597,37.42062],[-6.03749,37.41982],[-6.03878,37.41954],[-6.03907,37.41937],[-6.05679,37.41773],[-6.05964,37.41834],[-6.05978,37.41775],[-6.06449,37.41833],[-6.06693,37.41835],[-6.06661,37.41862],[-6.0666,37.4195],[-6.06831,37.41956],[-6.06833,37.41941],[-6.07134,37.41955],[-6.07508,37.41957],[-6.07515,37.42064],[-6.07458,37.42297],[-6.0742,37.42333],[-6.07286,37.42406],[-6.07186,37.42565],[-6.06968,37.42767],[-6.06904,37.42806],[-6.06711,37.4287],[-6.06596,37.42921],[-6.06439,37.43041],[-6.06276,37.43126],[-6.0613,37.43253],[-6.05988,37.43416],[-6.05957,37.43429],[-6.05869,37.43424],[-6.05633,37.43382],[-6.05556,37.43286],[-6.05522,37.43263],[-6.05446,37.43232],[-6.05129,37.43186],[-6.0502,37.4314],[-6.04826,37.43076]]]}}]}