{"type":"FeatureCollection","features":[{"type":"Feature","properties":{"id":"4202001001"},"geometry":{"type":"Polygon","coordinates":[[[-2.53262,41.48838],[-2.532,41.48772],[-2.53124,41.48631],[-2.53118,41.48568],[-2.52882,41.48123],[-2.52922,41.47921],[-2.52969,41.47844],[-2.53018,41.47576],[-2.53214,41.47652],[-2.53101,41.47782],[-2.53281,41.47888],[-2.5336,41.47896],[-2.5349,41.47892],[-2.5357,41.48216],[-2.53749,41.48398],[-2.54151,41.48282],[-2.54254,41.485],[-2.54243,41.48503],[-2.54226,41.48706],[-2.54198,41.48738],[-2.54371,41.48865],[-2.54143,41.48913],[-2.53752,41.49082],[-2.53763,41.49111],[-2.53957,41.49213],[-2.54405,41.49418],[-2.54366,41.4952],[-2.54177,41.49495],[-2.54192,41.49649],[-2.53828,41.49786],[-2.53834,41.49762],[-2.53818,41.49762],[-2.53818,41.49786],[-2.5372,41.49826],[-2.53428,41.48963],[-2.53269,41.48835],[-2.53262,41.48838]]]}},{"type":"Feature","properties":{"id":"4202001002"},"geometry":{"type":"Polygon","coordinates":[[[-2.52934,41.47904],[-2.52922,41.47921],[-2.52882,41.48123],[-2.53118,41.48568],[-2.53124,41.48631],[-2.532,41.48772],[-2.53266,41.48843],[-2.53199,41.48882],[-2.53179,41.48905],[-2.53121,41.49032],[-2.53083,41.49014],[-2.52893,41.48958],[-2.52826,41.48784],[-2.52808,41.48695],[-2.52855,41.48526],[-2.52927,41.48407],[-2.52484,41.48041],[-2.52668,41.4795],[-2.52696,41.47987],[-2.52884,41.47974],[-2.529,41.47904],[-2.52934,41.47904]]]}},{"type":"Feature","properties":{"id":"4202001003"},"geometry":{"type":"Polygon","coordinates":[[[-2.47307,41.57884],[-2.47245,41.57609],[-2.47235,41.5751],[-2.47165,41.57365],[-2.47192,41.5726],[-2.47104,41.57169],[-2.47092,41.5709],[-2.46711,41.56848],[-2.46949,41.5677],[-2.47167,41.56723],[-2.47466,41.56675],[-2.47623,41.56658],[-2.47773,41.56671],[-2.48257,41.56886],[-2.48363,41.56906],[-2.48476,41.56903],[-2.4867,41.56829],[-2.48751,41.56781],[-2.488,41.56719],[-2.48867,41.56603],[-2.48883,41.56534],[-2.48857,41.56429],[-2.48776,41.56287],[-2.48779,41.56236],[-2.48823,41.56164],[-2.48978,41.55991],[-2.48962,41.55654],[-2.48919,41.55321],[-2.48768,41.55164],[-2.48734,41.55108],[-2.48746,41.55036],[-2.48796,41.54945],[-2.48879,41.54833],[-2.49,41.54704],[-2.4903,41.54615],[-2.49034,41.54418],[-2.4899,41.54145],[-2.48999,41.54077],[-2.49068,41.53898],[-2.49391,41.53285],[-2.49394,41.53215],[-2.49359,41.53123],[-2.49324,41.52958],[-2.49354,41.52877],[-2.49491,41.52766],[-2.49993,41.52568],[-2.50089,41.52543],[-2.50257,41.52475],[-2.50372,41.5253],[-2.50432,41.52546],[-2.50489,41.52551],[-2.50605,41.52506],[-2.50916,41.52228],[-2.50976,41.52186],[-2.51,41.52142],[-2.50989,41.52093],[-2.50954,41.52058],[-2.5081,41.52015],[-2.50764,41.51976],[-2.50694,41.5186],[-2.50575,41.51746],[-2.50429,41.51582],[-2.50332,41.51605],[-2.49823,41.51161],[-2.49776,41.51101],[-2.49762,41.51049],[-2.49768,41.51005],[-2.49914,41.50642],[-2.49462,41.50311],[-2.49503,41.50013],[-2.49525,41.49919],[-2.49515,41.49799],[-2.49386,41.49766],[-2.49258,41.49714],[-2.49055,41.495],[-2.49038,41.49312],[-2.48042,41.49373],[-2.4801,41.49327],[-2.47975,41.49303],[-2.48037,41.49251],[-2.48365,41.48852],[-2.48435,41.48825],[-2.48459,41.48685],[-2.48493,41.48574],[-2.48553,41.48497],[-2.48631,41.48425],[-2.48608,41.48347],[-2.48618,41.48221],[-2.4852,41.48212],[-2.48471,41.48056],[-2.4857,41.47956],[-2.48673,41.47972],[-2.49295,41.47635],[-2.49524,41.47709],[-2.50253,41.47057],[-2.50331,41.46913],[-2.50288,41.4681],[-2.50476,41.46684],[-2.50414,41.46625],[-2.50164,41.46682],[-2.49957,41.46348],[-2.50068,41.4615],[-2.50074,41.45972],[-2.50481,41.45847],[-2.50913,41.45659],[-2.51392,41.45911],[-2.51611,41.45853],[-2.51772,41.45913],[-2.51859,41.46033],[-2.51882,41.46173],[-2.51947,41.46261],[-2.51978,41.46475],[-2.52088,41.46504],[-2.52939,41.46652],[-2.53157,41.46468],[-2.53318,41.46462],[-2.53468,41.46442],[-2.5344,41.46307],[-2.53604,41.46263],[-2.53665,41.46352],[-2.53748,41.46263],[-2.54646,41.45777],[-2.54194,41.45695],[-2.54515,41.45483],[-2.54484,41.4528],[-2.54604,41.4451],[-2.54725,41.44491],[-2.54564,41.44158],[-2.54161,41.44002],[-2.54236,41.43809],[-2.54049,41.43764],[-2.53427,41.4364],[-2.53284,41.42796],[-2.53345,41.41543],[-2.53155,41.40113],[-2.53193,41.40007],[-2.53387,41.39804],[-2.53628,41.39608],[-2.5389,41.39303],[-2.54581,41.38834],[-2.54608,41.37877],[-2.55119,41.37832],[-2.55842,41.37785],[-2.56261,41.37669],[-2.56439,41.376],[-2.56631,41.37718],[-2.56887,41.37803],[-2.57142,41.37864],[-2.57485,41.37877],[-2.57992,41.37848],[-2.58413,41.37881],[-2.58789,41.37865],[-2.58881,41.38033],[-2.58833,41.38522],[-2.59405,41.38655],[-2.59528,41.38827],[-2.59753,41.39052],[-2.59774,41.39157],[-2.60024,41.38887],[-2.60799,41.38752],[-2.6148,41.38798],[-2.62127,41.38989],[-2.63325,41.38909],[-2.64061,41.38581],[-2.64613,41.39331],[-2.64357,41.41441],[-2.63534,41.41832],[-2.60073,41.43298],[-2.59783,41.43614],[-2.59453,41.44242],[-2.59485,41.4541],[-2.59872,41.47056],[-2.59722,41.47363],[-2.58389,41.47108],[-2.5827,41.47058],[-2.58179,41.47049],[-2.58042,41.47079],[-2.57847,41.47161],[-2.5779,41.47232],[-2.57751,41.47317],[-2.57757,41.47596],[-2.57841,41.47596],[-2.57935,41.48407],[-2.58013,41.48584],[-2.58055,41.48722],[-2.57928,41.49054],[-2.58297,41.49208],[-2.58353,41.49338],[-2.58618,41.49419],[-2.58696,41.49456],[-2.58832,41.49542],[-2.5894,41.49636],[-2.59178,41.49914],[-2.59303,41.50018],[-2.59428,41.50073],[-2.59467,41.50103],[-2.59544,41.50212],[-2.5971,41.50323],[-2.59457,41.50939],[-2.59472,41.51011],[-2.59609,41.5132],[-2.59602,41.51399],[-2.59613,41.5148],[-2.59775,41.51816],[-2.59885,41.51843],[-2.59874,41.51943],[-2.59937,41.51974],[-2.60038,41.51976],[-2.60246,41.52187],[-2.60253,41.52302],[-2.60271,41.52394],[-2.60329,41.52525],[-2.60398,41.52612],[-2.60565,41.52746],[-2.60552,41.52958],[-2.60636,41.53121],[-2.60645,41.53196],[-2.60615,41.53289],[-2.60484,41.53551],[-2.60322,41.53739],[-2.60484,41.54021],[-2.60569,41.54248],[-2.60541,41.54358],[-2.60574,41.5459],[-2.60579,41.54981],[-2.60669,41.55146],[-2.60285,41.55257],[-2.59275,41.55657],[-2.59134,41.55804],[-2.59003,41.55903],[-2.58848,41.55963],[-2.58635,41.56019],[-2.58588,41.56038],[-2.58388,41.56185],[-2.58019,41.56485],[-2.57946,41.56529],[-2.57764,41.56601],[-2.57127,41.56992],[-2.57046,41.57024],[-2.56831,41.57025],[-2.56781,41.57039],[-2.5644,41.57263],[-2.56368,41.57288],[-2.56073,41.57349],[-2.55738,41.57404],[-2.55615,41.57446],[-2.55554,41.57479],[-2.55227,41.57494],[-2.54883,41.57525],[-2.54632,41.5756],[-2.54322,41.57579],[-2.54118,41.57578],[-2.53848,41.57597],[-2.53668,41.57595],[-2.53431,41.57628],[-2.53241,41.57635],[-2.53064,41.57936],[-2.52517,41.58031],[-2.52333,41.58077],[-2.5223,41.58087],[-2.52089,41.58079],[-2.52015,41.58093],[-2.51812,41.58107],[-2.51565,41.58041],[-2.51208,41.57878],[-2.50681,41.57781],[-2.50212,41.57624],[-2.50075,41.57642],[-2.49486,41.57663],[-2.48543,41.57504],[-2.48364,41.57453],[-2.48099,41.57333],[-2.47444,41.57825],[-2.47307,41.57884]],[[-2.52934,41.47904],[-2.529,41.47904],[-2.52884,41.47974],[-2.52696,41.47987],[-2.52668,41.4795],[-2.52484,41.48041],[-2.52927,41.48407],[-2.52855,41.48526],[-2.52808,41.48695],[-2.52826,41.48784],[-2.52893,41.48958],[-2.53083,41.49014],[-2.53121,41.49032],[-2.53179,41.48905],[-2.53269,41.48835],[-2.53428,41.48963],[-2.5372,41.49826],[-2.53818,41.49786],[-2.53818,41.49762],[-2.53834,41.49762],[-2.53828,41.49786],[-2.54192,41.49649],[-2.54177,41.49495],[-2.54366,41.4952],[-2.54405,41.49418],[-2.53957,41.49213],[-2.53763,41.49111],[-2.53752,41.49082],[-2.54143,41.48913],[-2.54371,41.48865],[-2.54198,41.48738],[-2.54226,41.48706],[-2.54243,41.48503],[-2.54254,41.485],[-2.54151,41.48282],[-2.53749,41.48398],[-2.5357,41.48216],[-2.5349,41.47892],[-2.5336,41.47896],[-2.53281,41.47888],[-2.53101,41.47782],[-2.53214,41.47652],[-2.53018,41.47576],[-2.52969,41.47844],[-2.52934,41.47904]]]}}]}