{"type":"FeatureCollection","features":[{"type":"Feature","properties":{"id":"4301401001"},"geometry":{"type":"Polygon","coordinates":[[[0.58428,40.7137],[0.58336,40.71287],[0.58245,40.71278],[0.5801,40.71217],[0.57996,40.71232],[0.57946,40.71215],[0.57906,40.71284],[0.57937,40.71416],[0.57923,40.71468],[0.57873,40.71505],[0.58004,40.71602],[0.58428,40.7137]]]}},{"type":"Feature","properties":{"id":"4301401002"},"geometry":{"type":"Polygon","coordinates":[[[0.73694,40.67534],[0.737,40.67523],[0.73744,40.67503],[0.74596,40.67143],[0.74923,40.67061],[0.75743,40.66829],[0.76599,40.6665],[0.77435,40.66426],[0.79003,40.66116],[0.79323,40.65863],[0.79295,40.65843],[0.77901,40.653],[0.76578,40.6462],[0.75685,40.64084],[0.75035,40.63505],[0.74629,40.63618],[0.74301,40.6369],[0.74332,40.63728],[0.74272,40.63745],[0.74109,40.6382],[0.73961,40.63843],[0.74067,40.63751],[0.73946,40.63744],[0.73932,40.63858],[0.73886,40.63844],[0.73528,40.63946],[0.73854,40.63784],[0.73592,40.63786],[0.73492,40.63915],[0.73582,40.64048],[0.73462,40.6393],[0.73359,40.63996],[0.7345,40.64221],[0.73316,40.64039],[0.73339,40.63892],[0.73294,40.63842],[0.73153,40.63906],[0.72729,40.63928],[0.72677,40.64009],[0.72699,40.64178],[0.72597,40.64083],[0.72626,40.63998],[0.72227,40.63898],[0.7179,40.63883],[0.71739,40.64025],[0.71763,40.63947],[0.71694,40.63898],[0.71446,40.6391],[0.71328,40.63864],[0.71252,40.63905],[0.71314,40.63765],[0.71179,40.63899],[0.71175,40.63855],[0.7094,40.63665],[0.70786,40.63527],[0.70845,40.63638],[0.70769,40.63724],[0.70421,40.63857],[0.70233,40.63872],[0.70231,40.63848],[0.70125,40.63763],[0.70116,40.63834],[0.70018,40.63833],[0.70053,40.63806],[0.69968,40.63741],[0.69557,40.6371],[0.69509,40.63631],[0.69478,40.63772],[0.69341,40.63954],[0.69394,40.64062],[0.69248,40.63903],[0.69348,40.63678],[0.69264,40.63651],[0.68814,40.63566],[0.68796,40.63586],[0.68711,40.63617],[0.68693,40.63687],[0.6864,40.63661],[0.68774,40.63537],[0.68587,40.63458],[0.68338,40.6393],[0.68444,40.63657],[0.68346,40.63634],[0.68285,40.63539],[0.68419,40.63447],[0.6811,40.63407],[0.67889,40.63322],[0.67743,40.63209],[0.67234,40.62983],[0.66923,40.62864],[0.66605,40.63005],[0.6674,40.62851],[0.66509,40.62749],[0.66366,40.62652],[0.66353,40.62653],[0.65763,40.63453],[0.6273,40.65333],[0.61197,40.64605],[0.60944,40.64429],[0.60221,40.64173],[0.60108,40.64308],[0.60072,40.64442],[0.60015,40.64593],[0.5994,40.64708],[0.59809,40.64963],[0.59667,40.65297],[0.59521,40.65585],[0.59399,40.65883],[0.59245,40.662],[0.59182,40.66366],[0.59193,40.66533],[0.59216,40.66645],[0.59219,40.66867],[0.592,40.66974],[0.59203,40.67309],[0.59219,40.67381],[0.59219,40.67498],[0.59204,40.67602],[0.59216,40.67923],[0.59185,40.68099],[0.5921,40.68209],[0.59198,40.68281],[0.59206,40.68423],[0.59194,40.68517],[0.59209,40.68673],[0.59195,40.68726],[0.59197,40.68794],[0.59176,40.68934],[0.59172,40.69213],[0.59074,40.69668],[0.59058,40.69792],[0.5901,40.69957],[0.58985,40.70096],[0.58871,40.70352],[0.58623,40.70337],[0.58681,40.70411],[0.58435,40.71002],[0.58006,40.71172],[0.5801,40.71217],[0.58245,40.71278],[0.58336,40.71287],[0.58428,40.7137],[0.5926,40.70916],[0.59846,40.70758],[0.60715,40.70644],[0.61396,40.70584],[0.62049,40.70667],[0.63475,40.71176],[0.64056,40.71403],[0.64617,40.71522],[0.66485,40.72017],[0.67189,40.72109],[0.67482,40.72129],[0.67384,40.71961],[0.67898,40.71433],[0.68338,40.71304],[0.68327,40.71148],[0.68431,40.71074],[0.68487,40.7079],[0.68397,40.70478],[0.67899,40.69994],[0.68036,40.69967],[0.68739,40.69305],[0.69584,40.6878],[0.70595,40.68746],[0.72078,40.68112],[0.72097,40.68149],[0.73694,40.67534]]]}},{"type":"Feature","properties":{"id":"4301402001"},"geometry":{"type":"Polygon","coordinates":[[[0.58004,40.71602],[0.57873,40.71505],[0.57923,40.71468],[0.57937,40.71416],[0.57906,40.71284],[0.57946,40.71215],[0.57821,40.71167],[0.57536,40.7131],[0.57622,40.71394],[0.57922,40.71742],[0.57984,40.71613],[0.58004,40.71602]]]}},{"type":"Feature","properties":{"id":"4301402002"},"geometry":{"type":"Polygon","coordinates":[[[0.57305,40.73406],[0.57426,40.72779],[0.57922,40.71742],[0.57622,40.71394],[0.57537,40.7131],[0.57355,40.71394],[0.57326,40.71385],[0.5727,40.71414],[0.57403,40.71635],[0.56943,40.71744],[0.5687,40.7194],[0.56828,40.7201],[0.56807,40.7209],[0.56757,40.72166],[0.56719,40.72297],[0.56618,40.72521],[0.56499,40.72839],[0.5646,40.72911],[0.56353,40.73171],[0.56322,40.73271],[0.56274,40.73364],[0.56233,40.73532],[0.56232,40.73719],[0.56212,40.73779],[0.56175,40.73844],[0.56164,40.74182],[0.56118,40.74269],[0.56087,40.74306],[0.56059,40.74322],[0.55795,40.74456],[0.55689,40.74495],[0.55479,40.74616],[0.55323,40.74694],[0.56138,40.75088],[0.56182,40.75176],[0.56581,40.75007],[0.56752,40.74878],[0.56872,40.74696],[0.57305,40.73406]]]}},{"type":"Feature","properties":{"id":"4301403001"},"geometry":{"type":"Polygon","coordinates":[[[0.57821,40.71167],[0.5773,40.71124],[0.5756,40.71016],[0.57547,40.70994],[0.57252,40.70746],[0.57188,40.70801],[0.5722,40.70931],[0.57585,40.71286],[0.57821,40.71167]]]}},{"type":"Feature","properties":{"id":"4301403002"},"geometry":{"type":"Polygon","coordinates":[[[0.57355,40.71394],[0.57585,40.71286],[0.5722,40.70931],[0.57188,40.70801],[0.57252,40.70746],[0.57178,40.70685],[0.57096,40.70731],[0.56856,40.70905],[0.56748,40.71011],[0.56707,40.70997],[0.56573,40.70997],[0.56369,40.70905],[0.56004,40.70769],[0.55754,40.70746],[0.55563,40.70707],[0.555,40.70739],[0.55417,40.70764],[0.55223,40.70861],[0.55043,40.7084],[0.5492,40.7087],[0.54804,40.70851],[0.54696,40.70866],[0.54586,40.70796],[0.54444,40.70815],[0.54782,40.71242],[0.54574,40.71946],[0.54616,40.71989],[0.5483,40.72352],[0.54974,40.72478],[0.55044,40.72583],[0.5508,40.72619],[0.55145,40.72738],[0.55154,40.72776],[0.5514,40.72837],[0.55166,40.73031],[0.55261,40.73186],[0.55268,40.73216],[0.55254,40.73245],[0.55259,40.73309],[0.55286,40.73362],[0.55261,40.7431],[0.5521,40.7442],[0.55162,40.74615],[0.55323,40.74694],[0.55479,40.74616],[0.55689,40.74495],[0.55795,40.74456],[0.56059,40.74322],[0.56087,40.74306],[0.56118,40.74269],[0.56164,40.74182],[0.56175,40.73844],[0.56212,40.73779],[0.56232,40.73719],[0.56233,40.73532],[0.56274,40.73364],[0.56322,40.73271],[0.56353,40.73171],[0.5646,40.72911],[0.56499,40.72839],[0.56618,40.72521],[0.56719,40.72297],[0.56757,40.72166],[0.56807,40.7209],[0.56828,40.7201],[0.5687,40.7194],[0.56943,40.71744],[0.57403,40.71635],[0.5727,40.71414],[0.57326,40.71385],[0.57355,40.71394]]]}},{"type":"Feature","properties":{"id":"4301404001"},"geometry":{"type":"Polygon","coordinates":[[[0.5801,40.71217],[0.57985,40.70914],[0.57852,40.70954],[0.57555,40.70969],[0.57558,40.70995],[0.57548,40.70995],[0.5756,40.71016],[0.5773,40.71124],[0.57828,40.7117],[0.57996,40.71232],[0.5801,40.71217]]]}},{"type":"Feature","properties":{"id":"4301404002"},"geometry":{"type":"Polygon","coordinates":[[[0.58606,40.7058],[0.57962,40.70608],[0.58006,40.71172],[0.58435,40.71002],[0.58606,40.7058]]]}},{"type":"Feature","properties":{"id":"4301404003"},"geometry":{"type":"Polygon","coordinates":[[[0.57985,40.70914],[0.57968,40.70695],[0.57267,40.70726],[0.57253,40.70746],[0.57548,40.70995],[0.57558,40.70995],[0.57555,40.70969],[0.57852,40.70954],[0.57985,40.70914]]]}},{"type":"Feature","properties":{"id":"4301404004"},"geometry":{"type":"Polygon","coordinates":[[[0.57252,40.70746],[0.57267,40.70726],[0.57968,40.70695],[0.57943,40.70374],[0.56948,40.70425],[0.56902,40.70391],[0.56669,40.70127],[0.56588,40.70105],[0.56521,40.70101],[0.56477,40.70047],[0.56392,40.7003],[0.56269,40.69974],[0.56214,40.69934],[0.56222,40.69918],[0.562,40.69881],[0.56147,40.6983],[0.56096,40.69801],[0.55863,40.69725],[0.55801,40.69666],[0.55745,40.69645],[0.55705,40.69639],[0.55546,40.69644],[0.55496,40.69638],[0.5545,40.69613],[0.55435,40.69522],[0.55408,40.69489],[0.55254,40.69396],[0.55245,40.69407],[0.55083,40.69268],[0.54982,40.69226],[0.54838,40.69143],[0.54791,40.69099],[0.54714,40.68958],[0.54526,40.68892],[0.54455,40.68856],[0.54384,40.6884],[0.54197,40.6877],[0.53965,40.68705],[0.53731,40.68614],[0.5361,40.68576],[0.53479,40.68557],[0.53374,40.68556],[0.53326,40.69399],[0.54444,40.70815],[0.54586,40.70796],[0.54696,40.70866],[0.54804,40.70851],[0.5492,40.7087],[0.55043,40.7084],[0.55223,40.70861],[0.55417,40.70764],[0.555,40.70739],[0.55563,40.70707],[0.55754,40.70746],[0.56004,40.70769],[0.56369,40.70905],[0.56573,40.70997],[0.56707,40.70997],[0.56748,40.71011],[0.56856,40.70905],[0.57096,40.70731],[0.57178,40.70685],[0.57252,40.70746]]]}},{"type":"Feature","properties":{"id":"4301404005"},"geometry":{"type":"Polygon","coordinates":[[[0.58606,40.7058],[0.58681,40.70411],[0.58623,40.70337],[0.58328,40.70325],[0.57959,40.70227],[0.57936,40.70306],[0.57962,40.70608],[0.58606,40.7058]]]}},{"type":"Feature","properties":{"id":"4301404006"},"geometry":{"type":"Polygon","coordinates":[[[0.57943,40.70374],[0.57936,40.70306],[0.57959,40.70227],[0.58328,40.70325],[0.58871,40.70352],[0.58969,40.70139],[0.59058,40.69792],[0.59074,40.69668],[0.59172,40.69213],[0.59176,40.68934],[0.59197,40.68794],[0.59195,40.68726],[0.59209,40.68673],[0.59194,40.68517],[0.59206,40.68423],[0.59198,40.68281],[0.5921,40.68209],[0.59185,40.68099],[0.59216,40.67923],[0.59204,40.67602],[0.59219,40.67498],[0.59219,40.67381],[0.59203,40.67309],[0.592,40.66974],[0.59219,40.66867],[0.59216,40.66645],[0.59193,40.66533],[0.59182,40.66366],[0.59245,40.662],[0.59399,40.65883],[0.59521,40.65585],[0.59667,40.65297],[0.59809,40.64963],[0.5994,40.64708],[0.60015,40.64593],[0.60072,40.64442],[0.60108,40.64308],[0.60216,40.64171],[0.59146,40.644],[0.57625,40.64868],[0.57306,40.64824],[0.57213,40.64523],[0.56778,40.64515],[0.56511,40.64449],[0.56261,40.64298],[0.56091,40.64289],[0.55547,40.6465],[0.55123,40.64631],[0.54586,40.64498],[0.54262,40.64601],[0.53939,40.64737],[0.54283,40.65452],[0.54398,40.65613],[0.53944,40.66672],[0.53804,40.66972],[0.53691,40.67429],[0.53509,40.6765],[0.53458,40.67805],[0.53292,40.67936],[0.53384,40.68381],[0.53374,40.68556],[0.53479,40.68557],[0.5361,40.68576],[0.53731,40.68614],[0.53965,40.68705],[0.54197,40.6877],[0.54384,40.6884],[0.54455,40.68856],[0.54526,40.68892],[0.54714,40.68958],[0.54791,40.69099],[0.54838,40.69143],[0.54982,40.69226],[0.55083,40.69268],[0.55245,40.69407],[0.55254,40.69396],[0.55408,40.69489],[0.55435,40.69522],[0.5545,40.69613],[0.55496,40.69638],[0.55546,40.69644],[0.55705,40.69639],[0.55745,40.69645],[0.55801,40.69666],[0.55863,40.69725],[0.56096,40.69801],[0.56147,40.6983],[0.562,40.69881],[0.56222,40.69918],[0.56214,40.69934],[0.56269,40.69974],[0.56392,40.7003],[0.56477,40.70047],[0.56521,40.70101],[0.56588,40.70105],[0.56669,40.70127],[0.56902,40.70391],[0.56948,40.70425],[0.57943,40.70374]]]}}]}