{"type":"FeatureCollection","features":[{"type":"Feature","properties":{"id":"4304301001"},"geometry":{"type":"Polygon","coordinates":[[[1.28568,41.17612],[1.29572,41.17388],[1.29715,41.1733],[1.29757,41.17262],[1.29832,41.17235],[1.2995,41.17221],[1.30229,41.17129],[1.30326,41.1708],[1.30457,41.17042],[1.30641,41.17015],[1.30906,41.17046],[1.31019,41.17107],[1.31039,41.17133],[1.31154,41.17134],[1.31192,41.17155],[1.31209,41.17217],[1.31232,41.17244],[1.31432,41.17219],[1.3163,41.17165],[1.31724,41.17131],[1.31798,41.17126],[1.31956,41.1714],[1.32,41.17128],[1.32036,41.17159],[1.32128,41.17292],[1.3219,41.17362],[1.32375,41.17459],[1.32514,41.17474],[1.32579,41.17508],[1.3259,41.17523],[1.32778,41.17581],[1.32778,41.17606],[1.32915,41.17572],[1.3299,41.17567],[1.33012,41.17601],[1.33042,41.17604],[1.33075,41.17594],[1.33242,41.17489],[1.33301,41.17463],[1.3342,41.17435],[1.33505,41.17445],[1.33559,41.17467],[1.33565,41.17602],[1.33598,41.17631],[1.33642,41.17632],[1.33704,41.17561],[1.33792,41.17496],[1.33969,41.17389],[1.34113,41.17338],[1.34139,41.17318],[1.32975,41.16348],[1.3251,41.15805],[1.32443,41.15834],[1.31986,41.1557],[1.31902,41.15104],[1.31609,41.15098],[1.31381,41.15201],[1.31357,41.15645],[1.31459,41.15839],[1.31398,41.15851],[1.31288,41.15782],[1.31257,41.15776],[1.30913,41.1615],[1.30841,41.16258],[1.30741,41.16272],[1.30604,41.16246],[1.30586,41.16293],[1.30717,41.1648],[1.30519,41.16552],[1.29802,41.15931],[1.29547,41.15591],[1.29738,41.15443],[1.29534,41.15321],[1.29338,41.15166],[1.29108,41.15065],[1.29109,41.14901],[1.28718,41.14577],[1.2815,41.14608],[1.27628,41.14884],[1.27473,41.15082],[1.27142,41.15316],[1.27164,41.15898],[1.27389,41.16467],[1.27404,41.16661],[1.27395,41.16716],[1.27409,41.16744],[1.27607,41.16952],[1.27767,41.17036],[1.27789,41.17033],[1.2803,41.17178],[1.27943,41.17464],[1.27992,41.17546],[1.28035,41.17929],[1.28051,41.17971],[1.28183,41.18119],[1.28258,41.18396],[1.2828,41.18387],[1.2834,41.18251],[1.28414,41.18212],[1.28468,41.18144],[1.28399,41.18087],[1.28486,41.18037],[1.28494,41.18013],[1.28471,41.17872],[1.28473,41.17796],[1.28571,41.17759],[1.28624,41.17723],[1.28561,41.17649],[1.28568,41.17612]]]}},{"type":"Feature","properties":{"id":"4304301002"},"geometry":{"type":"MultiPolygon","coordinates":[[[[1.29315,41.20498],[1.29419,41.2019],[1.30022,41.20943],[1.30232,41.20921],[1.30812,41.20742],[1.31086,41.20565],[1.31164,41.20504],[1.31289,41.20526],[1.31441,41.20602],[1.31456,41.20468],[1.31484,41.20421],[1.31536,41.20382],[1.31572,41.20381],[1.31609,41.20398],[1.31942,41.20215],[1.32002,41.20171],[1.32047,41.20157],[1.32081,41.20168],[1.321,41.20195],[1.32103,41.20224],[1.32123,41.2025],[1.32252,41.2022],[1.32442,41.20003],[1.32463,41.19969],[1.32573,41.19918],[1.32603,41.19877],[1.32645,41.19847],[1.32718,41.19835],[1.32828,41.19795],[1.33144,41.19649],[1.33836,41.19296],[1.33822,41.19288],[1.33851,41.19263],[1.33869,41.19185],[1.33898,41.19139],[1.33903,41.19082],[1.33931,41.18988],[1.33966,41.18961],[1.33989,41.18872],[1.34011,41.18858],[1.34092,41.18853],[1.34112,41.18844],[1.34149,41.18796],[1.34196,41.18777],[1.34309,41.18588],[1.34379,41.18517],[1.34314,41.17928],[1.34292,41.17903],[1.34302,41.17888],[1.3414,41.17319],[1.34113,41.17338],[1.33969,41.17389],[1.33792,41.17496],[1.33704,41.17561],[1.33642,41.17632],[1.33598,41.17631],[1.33565,41.17602],[1.33559,41.17467],[1.33505,41.17445],[1.3342,41.17435],[1.33301,41.17463],[1.33242,41.17489],[1.33075,41.17594],[1.33042,41.17604],[1.33012,41.17601],[1.3299,41.17567],[1.32915,41.17572],[1.32778,41.17606],[1.32778,41.17581],[1.3259,41.17523],[1.32579,41.17508],[1.32514,41.17474],[1.32375,41.17459],[1.3219,41.17362],[1.32128,41.17292],[1.32036,41.17159],[1.32,41.17128],[1.31956,41.1714],[1.31798,41.17126],[1.31724,41.17131],[1.3163,41.17165],[1.31432,41.17219],[1.31232,41.17244],[1.31209,41.17217],[1.31192,41.17155],[1.31154,41.17134],[1.31039,41.17133],[1.31019,41.17107],[1.30906,41.17046],[1.30641,41.17015],[1.30457,41.17042],[1.30326,41.1708],[1.30229,41.17129],[1.2995,41.17221],[1.29832,41.17235],[1.29757,41.17262],[1.29715,41.1733],[1.29572,41.17388],[1.28568,41.17612],[1.28561,41.17649],[1.28624,41.17723],[1.28571,41.17759],[1.28473,41.17796],[1.28471,41.17872],[1.28494,41.18013],[1.28486,41.18037],[1.28399,41.18087],[1.28468,41.18144],[1.28414,41.18212],[1.2834,41.18251],[1.2828,41.18387],[1.28258,41.18396],[1.28287,41.18502],[1.28721,41.18782],[1.28699,41.18935],[1.28673,41.19027],[1.28704,41.19114],[1.28624,41.19168],[1.28588,41.19402],[1.28538,41.19574],[1.28539,41.19664],[1.28517,41.19815],[1.28528,41.20062],[1.28734,41.20338],[1.28785,41.20478],[1.2892,41.20629],[1.28614,41.21047],[1.2929,41.20765],[1.29319,41.20626],[1.29315,41.20498]]],[[[1.36638,41.17612],[1.35558,41.17701],[1.36651,41.18506],[1.36674,41.18442],[1.36563,41.184],[1.36533,41.18381],[1.36511,41.1834],[1.36512,41.18289],[1.36575,41.18098],[1.36538,41.18],[1.36543,41.17961],[1.36684,41.1767],[1.36638,41.17612]]]]}}]}