{"type":"FeatureCollection","features":[{"type":"Feature","properties":{"id":"4304401001"},"geometry":{"type":"Polygon","coordinates":[[[0.2771,40.77306],[0.27111,40.76959],[0.27107,40.76809],[0.2755,40.76703],[0.27676,40.76277],[0.27875,40.76435],[0.27869,40.76544],[0.27996,40.76688],[0.28187,40.76724],[0.28303,40.7681],[0.28705,40.76883],[0.28802,40.76771],[0.28786,40.76519],[0.28877,40.76235],[0.28805,40.76164],[0.29024,40.75876],[0.28941,40.75734],[0.29047,40.75544],[0.29045,40.75299],[0.29095,40.75196],[0.29253,40.75144],[0.29387,40.75112],[0.29258,40.75024],[0.29187,40.74927],[0.28843,40.74774],[0.2879,40.74713],[0.28785,40.74685],[0.28798,40.74652],[0.28776,40.74592],[0.28571,40.74414],[0.28487,40.74264],[0.28483,40.74185],[0.2845,40.74096],[0.2804,40.73783],[0.28021,40.7376],[0.28017,40.73725],[0.27701,40.73435],[0.27653,40.73261],[0.27789,40.72985],[0.27869,40.72893],[0.27999,40.72812],[0.28058,40.72761],[0.28194,40.72668],[0.2823,40.72664],[0.28503,40.72688],[0.28617,40.72556],[0.28791,40.72473],[0.28838,40.7237],[0.28902,40.72298],[0.28967,40.72271],[0.29034,40.72256],[0.2913,40.72213],[0.2921,40.71986],[0.29214,40.71897],[0.2929,40.71758],[0.29367,40.71665],[0.29449,40.71589],[0.29503,40.71563],[0.29603,40.71472],[0.29668,40.71447],[0.29736,40.71433],[0.29851,40.71425],[0.29994,40.71351],[0.30093,40.71314],[0.30258,40.7129],[0.30335,40.71298],[0.30399,40.71315],[0.30533,40.71275],[0.30501,40.71252],[0.30485,40.71223],[0.30414,40.70869],[0.30411,40.70806],[0.30434,40.70675],[0.30426,40.702],[0.30475,40.7015],[0.307,40.70129],[0.31261,40.69909],[0.31481,40.69719],[0.31516,40.69667],[0.31562,40.69627],[0.31662,40.69563],[0.31672,40.69446],[0.31722,40.69389],[0.31818,40.69335],[0.32064,40.6926],[0.32143,40.69242],[0.32328,40.69226],[0.32498,40.6919],[0.32736,40.6901],[0.3281,40.68942],[0.33133,40.68784],[0.33853,40.68374],[0.33604,40.67921],[0.336,40.6789],[0.33759,40.67513],[0.34007,40.67192],[0.34199,40.67048],[0.34278,40.66998],[0.34403,40.66937],[0.34784,40.66683],[0.35022,40.66498],[0.35189,40.66278],[0.35272,40.66117],[0.35279,40.66008],[0.35261,40.65945],[0.35503,40.65595],[0.35944,40.64796],[0.35941,40.64663],[0.35251,40.63866],[0.34766,40.63571],[0.34406,40.63047],[0.33791,40.62375],[0.33581,40.61952],[0.33092,40.6127],[0.32977,40.61198],[0.3301,40.61104],[0.32837,40.61116],[0.32591,40.61217],[0.32528,40.61234],[0.32425,40.61237],[0.32354,40.61252],[0.32273,40.61292],[0.32188,40.61354],[0.32089,40.61395],[0.31984,40.61465],[0.31904,40.6149],[0.31848,40.61495],[0.31776,40.61478],[0.31702,40.61416],[0.31646,40.614],[0.31578,40.61403],[0.31104,40.61691],[0.30709,40.61975],[0.30107,40.62261],[0.30017,40.62432],[0.29875,40.626],[0.29264,40.62328],[0.29122,40.62419],[0.28855,40.62521],[0.29191,40.62954],[0.29281,40.63013],[0.29267,40.63167],[0.29211,40.63204],[0.29214,40.63226],[0.29226,40.63234],[0.28894,40.6385],[0.28861,40.63892],[0.2822,40.63578],[0.28163,40.63537],[0.28093,40.6354],[0.27999,40.63448],[0.2803,40.63424],[0.28021,40.63378],[0.27946,40.6332],[0.27804,40.63258],[0.27715,40.63379],[0.2773,40.63546],[0.27616,40.63684],[0.27134,40.63827],[0.27061,40.64052],[0.26654,40.64422],[0.26647,40.64618],[0.26947,40.64782],[0.26929,40.65077],[0.26961,40.65367],[0.26868,40.65526],[0.26818,40.659],[0.27224,40.6644],[0.27333,40.66683],[0.27344,40.66862],[0.27423,40.66967],[0.27524,40.67047],[0.27807,40.67153],[0.28055,40.67202],[0.28213,40.67285],[0.28321,40.67399],[0.28488,40.67644],[0.28524,40.67865],[0.28541,40.67896],[0.28569,40.67918],[0.28675,40.67949],[0.2878,40.68045],[0.2894,40.68225],[0.29053,40.68375],[0.29233,40.68518],[0.29173,40.68657],[0.29167,40.68795],[0.29184,40.68855],[0.28915,40.68983],[0.28715,40.68986],[0.28657,40.69003],[0.2836,40.69153],[0.28302,40.69205],[0.28229,40.69298],[0.28098,40.69369],[0.28052,40.69385],[0.27947,40.69347],[0.27689,40.6944],[0.27656,40.69559],[0.27476,40.69772],[0.27409,40.69829],[0.27258,40.69895],[0.2723,40.70055],[0.27108,40.70167],[0.27013,40.70308],[0.26786,40.70378],[0.26731,40.70387],[0.26656,40.70363],[0.26604,40.70356],[0.2646,40.70434],[0.26243,40.70585],[0.26186,40.70596],[0.26024,40.70587],[0.25876,40.70569],[0.25672,40.70528],[0.25206,40.70497],[0.2513,40.70482],[0.25081,40.70458],[0.24943,40.70331],[0.24856,40.70293],[0.24769,40.7027],[0.2454,40.70177],[0.24316,40.7007],[0.24188,40.70037],[0.24117,40.70042],[0.23972,40.70093],[0.23652,40.70168],[0.23599,40.70208],[0.23575,40.70261],[0.23541,40.70489],[0.23477,40.70628],[0.23411,40.70688],[0.23185,40.7098],[0.22744,40.71502],[0.22663,40.71706],[0.22545,40.72154],[0.22421,40.72507],[0.22414,40.72563],[0.22553,40.7316],[0.22587,40.73277],[0.22612,40.73316],[0.22523,40.73271],[0.2244,40.73248],[0.22316,40.73231],[0.22183,40.73226],[0.21792,40.7326],[0.21704,40.73253],[0.21611,40.73225],[0.21516,40.73184],[0.21421,40.7313],[0.21248,40.72978],[0.21192,40.72949],[0.21118,40.72929],[0.21025,40.72919],[0.2091,40.7292],[0.20881,40.72911],[0.2062,40.72727],[0.20458,40.72636],[0.20325,40.72596],[0.20231,40.72588],[0.2015,40.726],[0.20105,40.72592],[0.19729,40.72417],[0.19583,40.72608],[0.19507,40.72674],[0.19398,40.72875],[0.19261,40.72932],[0.19103,40.73116],[0.18914,40.73061],[0.18829,40.7296],[0.18761,40.72911],[0.18689,40.72871],[0.18555,40.72826],[0.18223,40.72826],[0.18094,40.72866],[0.17072,40.73284],[0.17032,40.7337],[0.16956,40.73445],[0.1681,40.73685],[0.16751,40.73725],[0.16733,40.73766],[0.1673,40.73812],[0.1675,40.73946],[0.16478,40.73984],[0.16449,40.74011],[0.16423,40.74062],[0.16425,40.74127],[0.16329,40.74201],[0.16314,40.74222],[0.16319,40.74243],[0.16424,40.74226],[0.16491,40.74244],[0.16497,40.74281],[0.16481,40.74328],[0.16324,40.74535],[0.16076,40.74794],[0.1601,40.74846],[0.15918,40.75061],[0.1599,40.75075],[0.16036,40.7504],[0.16111,40.75022],[0.1614,40.75024],[0.16188,40.75006],[0.16281,40.74943],[0.16338,40.74929],[0.16455,40.7487],[0.16612,40.74704],[0.16656,40.74594],[0.16741,40.74507],[0.16903,40.74428],[0.17037,40.74338],[0.17181,40.74297],[0.17264,40.74255],[0.17311,40.74208],[0.17536,40.74113],[0.17619,40.74251],[0.17632,40.74326],[0.17623,40.74379],[0.17517,40.74639],[0.17441,40.74733],[0.17418,40.74779],[0.174,40.74895],[0.17435,40.74998],[0.17462,40.75042],[0.17623,40.751],[0.17594,40.75189],[0.17595,40.75355],[0.17545,40.75416],[0.17522,40.75494],[0.17702,40.75517],[0.18036,40.75383],[0.18126,40.75323],[0.18317,40.75374],[0.18367,40.75427],[0.18409,40.75562],[0.1845,40.75507],[0.18487,40.75414],[0.185,40.75309],[0.19013,40.75032],[0.19089,40.75157],[0.19138,40.75218],[0.1941,40.75432],[0.19467,40.75466],[0.19514,40.75537],[0.19562,40.7579],[0.19579,40.75825],[0.19621,40.7586],[0.1972,40.75907],[0.20007,40.75785],[0.20151,40.7576],[0.20203,40.75797],[0.20355,40.76],[0.20444,40.76051],[0.20537,40.76148],[0.20665,40.76219],[0.20753,40.7625],[0.20855,40.76315],[0.20973,40.76441],[0.21099,40.76553],[0.21146,40.76619],[0.21166,40.7669],[0.21199,40.76752],[0.21291,40.76743],[0.21378,40.76724],[0.21628,40.76725],[0.22176,40.76642],[0.22344,40.76555],[0.22443,40.76568],[0.22528,40.76598],[0.22681,40.76697],[0.22811,40.76733],[0.22997,40.76743],[0.22942,40.76784],[0.22926,40.76823],[0.22907,40.76996],[0.22914,40.77056],[0.23033,40.77292],[0.23084,40.77369],[0.23388,40.77534],[0.23462,40.77616],[0.23475,40.77667],[0.2347,40.77711],[0.23449,40.77759],[0.23394,40.77816],[0.23316,40.77939],[0.23417,40.78015],[0.23621,40.7804],[0.23698,40.78013],[0.2384,40.78068],[0.24205,40.78097],[0.24873,40.78249],[0.25281,40.78149],[0.2631,40.78182],[0.26597,40.78028],[0.26886,40.78042],[0.27135,40.78031],[0.27379,40.77687],[0.27492,40.77638],[0.27619,40.77465],[0.2771,40.77306]]]}},{"type":"Feature","properties":{"id":"4304402001"},"geometry":{"type":"Polygon","coordinates":[[[0.28982,40.63684],[0.28818,40.63601],[0.28555,40.6337],[0.28462,40.63307],[0.28323,40.63404],[0.28093,40.63222],[0.279,40.63105],[0.27894,40.63135],[0.27804,40.63258],[0.27946,40.6332],[0.28021,40.63378],[0.2803,40.63424],[0.27999,40.63448],[0.28093,40.6354],[0.28163,40.63537],[0.2822,40.63578],[0.28861,40.63892],[0.28894,40.6385],[0.28982,40.63684]]]}},{"type":"Feature","properties":{"id":"4304402002"},"geometry":{"type":"Polygon","coordinates":[[[0.28855,40.62521],[0.28341,40.62718],[0.27917,40.63006],[0.279,40.63105],[0.28093,40.63222],[0.28323,40.63404],[0.28462,40.63307],[0.28555,40.6337],[0.28818,40.63601],[0.28982,40.63684],[0.29226,40.63234],[0.29214,40.63226],[0.29211,40.63204],[0.29267,40.63167],[0.29281,40.63013],[0.29191,40.62954],[0.28855,40.62521]]]}}]}