{"type":"FeatureCollection","features":[{"type":"Feature","properties":{"id":"4305101001"},"geometry":{"type":"Polygon","coordinates":[[[1.64644,41.2288],[1.6443,41.22038],[1.64797,41.21642],[1.6482,41.21223],[1.6535,41.2074],[1.65261,41.20705],[1.64973,41.20867],[1.64665,41.20857],[1.64689,41.21188],[1.64159,41.21174],[1.64116,41.20374],[1.64253,41.19972],[1.64037,41.19908],[1.63948,41.19892],[1.6349,41.19872],[1.63325,41.1985],[1.63316,41.19912],[1.63352,41.20006],[1.63358,41.20065],[1.6329,41.20149],[1.63255,41.20223],[1.63084,41.20403],[1.63063,41.2052],[1.63129,41.20633],[1.63123,41.20757],[1.63156,41.20823],[1.63116,41.20953],[1.63007,41.21099],[1.6294,41.21231],[1.62845,41.21307],[1.62794,41.21396],[1.62646,41.21506],[1.62494,41.21549],[1.62405,41.21622],[1.61973,41.21683],[1.62004,41.21694],[1.61961,41.21772],[1.61966,41.21954],[1.61994,41.22002],[1.61973,41.22025],[1.61999,41.22108],[1.62095,41.22215],[1.6213,41.22279],[1.62144,41.22339],[1.62176,41.22321],[1.62436,41.22293],[1.63143,41.22446],[1.63267,41.22857],[1.6342,41.22896],[1.63446,41.23096],[1.63609,41.23159],[1.63899,41.23461],[1.64133,41.23536],[1.64263,41.23344],[1.64644,41.2288]]]}},{"type":"Feature","properties":{"id":"4305101002"},"geometry":{"type":"Polygon","coordinates":[[[1.63325,41.1985],[1.63002,41.19778],[1.6264,41.19728],[1.62372,41.19703],[1.62265,41.19682],[1.61997,41.19597],[1.61943,41.19699],[1.61946,41.1977],[1.61879,41.19983],[1.61736,41.20114],[1.61738,41.20138],[1.61784,41.20207],[1.61791,41.20235],[1.61796,41.2033],[1.61777,41.20471],[1.61918,41.20661],[1.61944,41.20721],[1.6188,41.20932],[1.61681,41.21225],[1.61878,41.21374],[1.61957,41.21678],[1.61973,41.21683],[1.62405,41.21622],[1.62494,41.21549],[1.62646,41.21506],[1.62794,41.21396],[1.62845,41.21307],[1.6294,41.21231],[1.63007,41.21099],[1.63116,41.20953],[1.63156,41.20823],[1.63123,41.20757],[1.63129,41.20633],[1.63063,41.2052],[1.63084,41.20403],[1.63255,41.20223],[1.6329,41.20149],[1.63358,41.20065],[1.63352,41.20006],[1.63316,41.19912],[1.63325,41.1985]]]}},{"type":"Feature","properties":{"id":"4305101003"},"geometry":{"type":"Polygon","coordinates":[[[1.64557,41.19562],[1.63513,41.19296],[1.63442,41.19541],[1.63364,41.19678],[1.63337,41.19703],[1.63348,41.19789],[1.63325,41.1985],[1.6349,41.19872],[1.63948,41.19892],[1.64037,41.19908],[1.64253,41.19972],[1.64259,41.19952],[1.64557,41.19562]]]}},{"type":"Feature","properties":{"id":"4305101004"},"geometry":{"type":"Polygon","coordinates":[[[1.63477,41.19436],[1.63513,41.19296],[1.63491,41.1929],[1.61691,41.19068],[1.61442,41.19438],[1.61563,41.19457],[1.61669,41.19488],[1.62265,41.19682],[1.62372,41.19703],[1.6264,41.19728],[1.63002,41.19778],[1.63325,41.1985],[1.63348,41.19789],[1.63337,41.19703],[1.63364,41.19678],[1.63442,41.19541],[1.63463,41.19448],[1.63477,41.19436]]]}},{"type":"Feature","properties":{"id":"4305101005"},"geometry":{"type":"Polygon","coordinates":[[[1.61997,41.19597],[1.61563,41.19457],[1.61452,41.19436],[1.61406,41.19498],[1.61139,41.19508],[1.61042,41.19625],[1.60949,41.19787],[1.60981,41.19927],[1.6106,41.20103],[1.61123,41.20433],[1.61218,41.20563],[1.61213,41.20707],[1.61311,41.20748],[1.61417,41.20893],[1.61436,41.20936],[1.61436,41.20966],[1.61511,41.21098],[1.61681,41.21225],[1.6188,41.20932],[1.61944,41.20721],[1.61918,41.20661],[1.61777,41.20471],[1.61796,41.2033],[1.61791,41.20235],[1.61784,41.20207],[1.61738,41.20138],[1.61736,41.20114],[1.61879,41.19983],[1.61898,41.19941],[1.61946,41.1977],[1.61943,41.19699],[1.61997,41.19597]]]}}]}