{"type":"FeatureCollection","features":[{"type":"Feature","properties":{"id":"4306001001"},"geometry":{"type":"Polygon","coordinates":[[[0.58113,41.32005],[0.58218,41.31124],[0.58625,41.30723],[0.59716,41.29354],[0.59753,41.29352],[0.59979,41.29404],[0.60096,41.29411],[0.60242,41.29399],[0.60419,41.29361],[0.60451,41.29341],[0.60502,41.2919],[0.60544,41.29175],[0.60602,41.29166],[0.60638,41.29174],[0.60676,41.29189],[0.60756,41.2925],[0.60824,41.29255],[0.60887,41.2925],[0.61279,41.29139],[0.61332,41.29112],[0.61377,41.29116],[0.61523,41.29189],[0.61576,41.29205],[0.61673,41.2919],[0.61909,41.29094],[0.61972,41.29124],[0.62082,41.29197],[0.62131,41.29215],[0.62201,41.29226],[0.62321,41.29228],[0.62538,41.2922],[0.62726,41.29158],[0.62842,41.29097],[0.62939,41.29325],[0.63229,41.29441],[0.63366,41.29484],[0.6349,41.29645],[0.63711,41.29756],[0.63796,41.29787],[0.63973,41.29811],[0.6428,41.29873],[0.64526,41.29899],[0.64589,41.29917],[0.64844,41.30079],[0.64902,41.3009],[0.64938,41.30087],[0.65008,41.3002],[0.65046,41.30003],[0.65182,41.30011],[0.65348,41.30044],[0.65628,41.30132],[0.65706,41.30148],[0.65748,41.30164],[0.65786,41.30212],[0.65816,41.30233],[0.66195,41.30362],[0.6621,41.30378],[0.66221,41.30438],[0.66206,41.3049],[0.66217,41.30525],[0.66254,41.30561],[0.66494,41.30672],[0.6657,41.30647],[0.66607,41.30647],[0.66648,41.30683],[0.66671,41.30723],[0.66703,41.30743],[0.66956,41.30855],[0.66971,41.30872],[0.66997,41.30958],[0.67221,41.30917],[0.67346,41.30961],[0.67407,41.30971],[0.67652,41.30956],[0.67799,41.30966],[0.67873,41.30938],[0.67985,41.30808],[0.68112,41.3081],[0.6816,41.30827],[0.68205,41.30857],[0.68393,41.3101],[0.68434,41.31025],[0.68582,41.31041],[0.68794,41.31015],[0.68826,41.3103],[0.6893,41.31158],[0.69043,41.31235],[0.69319,41.31247],[0.69377,41.3126],[0.69416,41.31279],[0.69439,41.31302],[0.69474,41.31383],[0.69504,41.31392],[0.69567,41.31375],[0.69734,41.31247],[0.69819,41.31221],[0.69923,41.31227],[0.7006,41.31259],[0.70341,41.31265],[0.7054,41.31241],[0.70651,41.31179],[0.70724,41.31163],[0.70774,41.31177],[0.70834,41.31227],[0.70906,41.31269],[0.70973,41.31295],[0.7103,41.313],[0.71115,41.31285],[0.71173,41.31237],[0.71196,41.31239],[0.71247,41.31273],[0.71277,41.31343],[0.71301,41.31367],[0.71342,41.31372],[0.71448,41.31355],[0.71474,41.31339],[0.71554,41.3132],[0.71629,41.31274],[0.71713,41.31255],[0.71958,41.31307],[0.72065,41.3132],[0.72358,41.31309],[0.72478,41.31272],[0.72575,41.3134],[0.72738,41.31368],[0.72819,41.3141],[0.72884,41.31464],[0.72994,41.31461],[0.73087,41.31424],[0.73128,41.31418],[0.73243,41.31442],[0.7334,41.314],[0.73357,41.31452],[0.73537,41.31564],[0.73657,41.3161],[0.73789,41.31605],[0.73902,41.31646],[0.7407,41.31691],[0.74119,41.31716],[0.74251,41.31744],[0.74307,41.3174],[0.7446,41.31681],[0.74515,41.31675],[0.74964,41.31716],[0.75067,41.31762],[0.75187,41.31783],[0.75273,41.31728],[0.75213,41.3166],[0.75223,41.31594],[0.75241,41.31559],[0.75292,41.31532],[0.75347,41.31519],[0.75394,41.31491],[0.75194,41.3137],[0.75158,41.31336],[0.75043,41.31157],[0.74879,41.31192],[0.74774,41.31193],[0.74564,41.31178],[0.74346,41.311],[0.7421,41.31061],[0.7419,41.31034],[0.74165,41.30932],[0.73919,41.30874],[0.73857,41.30892],[0.73738,41.30904],[0.73619,41.30928],[0.73518,41.30977],[0.73466,41.30979],[0.73081,41.30944],[0.72906,41.30918],[0.72868,41.30906],[0.72661,41.30787],[0.72477,41.30758],[0.72422,41.30764],[0.72263,41.30746],[0.72174,41.30709],[0.72012,41.30396],[0.71624,41.30353],[0.71423,41.30294],[0.71184,41.30332],[0.7083,41.30314],[0.70532,41.30313],[0.7042,41.30293],[0.70373,41.30275],[0.7018,41.30135],[0.7008,41.3015],[0.69943,41.30185],[0.69453,41.30243],[0.69112,41.304],[0.68891,41.30479],[0.68814,41.3048],[0.68633,41.30456],[0.68466,41.3042],[0.68317,41.30376],[0.68183,41.30365],[0.67608,41.3023],[0.668,41.29863],[0.66771,41.29804],[0.66501,41.29689],[0.66232,41.29647],[0.66065,41.29603],[0.65764,41.29617],[0.65717,41.29467],[0.65366,41.29436],[0.65176,41.29267],[0.65011,41.292],[0.65054,41.28902],[0.64997,41.28775],[0.64785,41.28825],[0.64525,41.28836],[0.64411,41.28774],[0.64308,41.2869],[0.64291,41.28658],[0.64117,41.28592],[0.64025,41.2853],[0.64062,41.2841],[0.63934,41.28389],[0.63915,41.28292],[0.63833,41.28236],[0.63801,41.28174],[0.63754,41.28125],[0.63328,41.28121],[0.63175,41.28082],[0.63127,41.28061],[0.63085,41.28024],[0.62755,41.27854],[0.62251,41.27763],[0.61943,41.27614],[0.61793,41.27577],[0.61702,41.27536],[0.61845,41.27356],[0.61773,41.2724],[0.61748,41.27139],[0.61686,41.27],[0.61603,41.26913],[0.61652,41.26625],[0.61863,41.26549],[0.61886,41.26277],[0.61777,41.26254],[0.61744,41.26233],[0.61576,41.25955],[0.61619,41.25654],[0.61923,41.25526],[0.62027,41.25548],[0.62191,41.2535],[0.62324,41.25285],[0.6243,41.25246],[0.6248,41.25146],[0.6254,41.25076],[0.62742,41.25007],[0.6269,41.24768],[0.62673,41.24732],[0.62689,41.24515],[0.62696,41.24484],[0.62787,41.24412],[0.62793,41.24308],[0.6278,41.24229],[0.62784,41.24133],[0.63023,41.23365],[0.62927,41.23357],[0.6269,41.23285],[0.62583,41.23493],[0.62564,41.23649],[0.62521,41.23731],[0.6226,41.23864],[0.62188,41.23971],[0.62154,41.24005],[0.621,41.24037],[0.62002,41.24143],[0.61871,41.24195],[0.61696,41.24352],[0.61645,41.2438],[0.61505,41.24223],[0.61472,41.24121],[0.61414,41.24005],[0.61343,41.2392],[0.61276,41.23734],[0.59902,41.22344],[0.59812,41.2227],[0.59585,41.21949],[0.59287,41.21856],[0.59195,41.21676],[0.58987,41.21644],[0.58794,41.21678],[0.5874,41.21666],[0.58684,41.21635],[0.58525,41.21521],[0.58342,41.21486],[0.58154,41.21476],[0.57835,41.21381],[0.57711,41.21358],[0.57432,41.21424],[0.57339,41.21437],[0.57237,41.21487],[0.56767,41.21538],[0.56458,41.21608],[0.56248,41.21539],[0.56207,41.21535],[0.56142,41.21566],[0.56071,41.21542],[0.55973,41.21528],[0.55906,41.2153],[0.55828,41.21513],[0.55764,41.21489],[0.55647,41.21406],[0.55584,41.21323],[0.55593,41.21166],[0.55616,41.211],[0.55755,41.20829],[0.55787,41.20813],[0.55712,41.20617],[0.54652,41.20356],[0.51823,41.20142],[0.51645,41.20167],[0.51587,41.20157],[0.51301,41.20068],[0.5116,41.19942],[0.50777,41.19893],[0.50594,41.19834],[0.50488,41.19814],[0.50382,41.1985],[0.49913,41.19798],[0.49753,41.19748],[0.4956,41.19783],[0.49518,41.19819],[0.49484,41.19881],[0.4947,41.19958],[0.49445,41.20009],[0.49431,41.20072],[0.49218,41.20194],[0.49133,41.20355],[0.49057,41.20396],[0.49042,41.20438],[0.48957,41.20515],[0.4885,41.20574],[0.48781,41.20675],[0.48506,41.21192],[0.4852,41.21288],[0.48382,41.21504],[0.48364,41.21558],[0.4837,41.21579],[0.48557,41.21792],[0.48539,41.21878],[0.48535,41.21971],[0.48549,41.22031],[0.4822,41.22259],[0.48244,41.2245],[0.48277,41.22521],[0.48583,41.2271],[0.49068,41.2282],[0.49158,41.22865],[0.49112,41.22943],[0.49042,41.23028],[0.4902,41.23099],[0.49079,41.23146],[0.49173,41.23208],[0.49283,41.2325],[0.49971,41.23318],[0.50294,41.23552],[0.50327,41.23617],[0.50563,41.23674],[0.50678,41.23973],[0.50611,41.24094],[0.50586,41.24173],[0.50471,41.24423],[0.50312,41.24712],[0.50147,41.25672],[0.50064,41.25824],[0.50399,41.26028],[0.50749,41.26055],[0.50699,41.26589],[0.5068,41.2669],[0.50685,41.26739],[0.5074,41.26912],[0.50575,41.27122],[0.50491,41.27173],[0.50308,41.27349],[0.50313,41.27468],[0.5038,41.27642],[0.50532,41.28254],[0.50429,41.28507],[0.5027,41.28685],[0.50363,41.28973],[0.50453,41.28982],[0.50647,41.29034],[0.51023,41.29095],[0.51212,41.29084],[0.51412,41.2906],[0.51603,41.29072],[0.51827,41.29159],[0.52193,41.29071],[0.52403,41.29008],[0.52476,41.28998],[0.52555,41.29017],[0.52616,41.29045],[0.52704,41.29174],[0.52837,41.29499],[0.52901,41.29595],[0.53002,41.29864],[0.53038,41.30034],[0.53497,41.30213],[0.53796,41.30617],[0.54032,41.30861],[0.54226,41.31079],[0.54591,41.32298],[0.55478,41.32666],[0.55755,41.32578],[0.56267,41.32378],[0.56324,41.32336],[0.56567,41.32197],[0.56786,41.32105],[0.57492,41.31849],[0.57548,41.31847],[0.57755,41.31891],[0.57934,41.31939],[0.58113,41.32005]],[[0.54424,41.2306],[0.52842,41.23238],[0.52765,41.2324],[0.52695,41.23141],[0.52869,41.23083],[0.52813,41.22982],[0.52939,41.22951],[0.53135,41.22871],[0.53241,41.22853],[0.53243,41.22834],[0.53375,41.22822],[0.53378,41.22834],[0.53541,41.2283],[0.53505,41.2276],[0.53437,41.22732],[0.53333,41.22732],[0.53338,41.22702],[0.53365,41.227],[0.53444,41.22716],[0.53629,41.22723],[0.53721,41.22697],[0.53939,41.22714],[0.53929,41.22647],[0.53967,41.22621],[0.54017,41.2262],[0.54009,41.22642],[0.54112,41.22687],[0.54261,41.22614],[0.54213,41.2258],[0.5418,41.22574],[0.54114,41.22599],[0.54041,41.226],[0.54006,41.2259],[0.53986,41.22525],[0.53847,41.22528],[0.53808,41.22507],[0.53789,41.22468],[0.53829,41.22285],[0.53916,41.2221],[0.54009,41.22171],[0.5411,41.22174],[0.54174,41.22221],[0.54159,41.22247],[0.54171,41.22263],[0.54453,41.22317],[0.54499,41.22315],[0.54679,41.22265],[0.54733,41.22219],[0.54719,41.2219],[0.54764,41.22149],[0.54834,41.22115],[0.54875,41.22144],[0.54808,41.22207],[0.5484,41.22246],[0.54794,41.22281],[0.5481,41.223],[0.54751,41.22332],[0.5484,41.22436],[0.5479,41.22585],[0.54767,41.2258],[0.54754,41.22652],[0.54771,41.22675],[0.5474,41.22743],[0.54713,41.22775],[0.54709,41.22903],[0.54725,41.22914],[0.5471,41.22927],[0.54725,41.22936],[0.54706,41.22949],[0.54728,41.22965],[0.54738,41.22958],[0.54816,41.23021],[0.54832,41.23014],[0.54853,41.23056],[0.54838,41.23064],[0.5491,41.23138],[0.54802,41.23104],[0.54664,41.23021],[0.54633,41.23054],[0.54534,41.23014],[0.54424,41.2306]],[[0.56004,41.23221],[0.55846,41.23436],[0.55502,41.23643],[0.55242,41.23387],[0.55023,41.23294],[0.54955,41.23247],[0.54963,41.23237],[0.54982,41.23242],[0.55011,41.23223],[0.5503,41.23157],[0.55077,41.23168],[0.55167,41.23013],[0.55203,41.22975],[0.55182,41.22965],[0.55196,41.22936],[0.56004,41.23221]]]}},{"type":"Feature","properties":{"id":"4306001002"},"geometry":{"type":"Polygon","coordinates":[[[0.56004,41.23221],[0.55196,41.22936],[0.55182,41.22965],[0.55203,41.22975],[0.55167,41.23013],[0.55077,41.23168],[0.5503,41.23157],[0.55011,41.23223],[0.54982,41.23242],[0.54963,41.23237],[0.54955,41.23247],[0.55023,41.23294],[0.55242,41.23387],[0.55502,41.23643],[0.55846,41.23436],[0.56004,41.23221]]]}},{"type":"Feature","properties":{"id":"4306002001"},"geometry":{"type":"Polygon","coordinates":[[[0.54424,41.2306],[0.54534,41.23014],[0.54633,41.23054],[0.54664,41.23021],[0.54802,41.23104],[0.5491,41.23138],[0.54838,41.23064],[0.54853,41.23056],[0.54832,41.23014],[0.54816,41.23021],[0.54738,41.22958],[0.54728,41.22965],[0.54706,41.22949],[0.54725,41.22936],[0.5471,41.22927],[0.54725,41.22914],[0.54709,41.22903],[0.54713,41.22775],[0.5474,41.22743],[0.54771,41.22675],[0.54754,41.22652],[0.54767,41.2258],[0.5479,41.22585],[0.5484,41.22436],[0.54751,41.22332],[0.5481,41.223],[0.54794,41.22281],[0.5484,41.22246],[0.54808,41.22207],[0.54875,41.22144],[0.54834,41.22115],[0.54764,41.22149],[0.54719,41.2219],[0.54733,41.22219],[0.54679,41.22265],[0.54499,41.22315],[0.54453,41.22317],[0.54171,41.22263],[0.54159,41.22247],[0.54174,41.22221],[0.5411,41.22174],[0.54009,41.22171],[0.53916,41.2221],[0.53829,41.22285],[0.53789,41.22468],[0.53808,41.22507],[0.53847,41.22528],[0.53986,41.22525],[0.54006,41.2259],[0.54041,41.226],[0.54114,41.22599],[0.5418,41.22574],[0.54213,41.2258],[0.54261,41.22614],[0.54112,41.22687],[0.54009,41.22642],[0.54017,41.2262],[0.53967,41.22621],[0.53929,41.22647],[0.53939,41.22714],[0.53721,41.22697],[0.53629,41.22723],[0.53444,41.22716],[0.53365,41.227],[0.53338,41.22702],[0.53333,41.22732],[0.53437,41.22732],[0.53505,41.2276],[0.53541,41.2283],[0.53378,41.22834],[0.53375,41.22822],[0.53243,41.22834],[0.53241,41.22853],[0.53135,41.22871],[0.52939,41.22951],[0.52813,41.22982],[0.52869,41.23083],[0.52695,41.23141],[0.52765,41.2324],[0.52842,41.23238],[0.54424,41.2306]]]}}]}