{"type":"FeatureCollection","features":[{"type":"Feature","properties":{"id":"4309201001"},"geometry":{"type":"MultiPolygon","coordinates":[[[[0.95997,41.07852],[0.96082,41.07588],[0.96001,41.07414],[0.96,41.07305],[0.95986,41.07274],[0.96024,41.07238],[0.9602,41.07178],[0.95957,41.07214],[0.95928,41.07156],[0.95826,41.07209],[0.9571,41.07165],[0.95612,41.07258],[0.95378,41.07379],[0.93741,41.06],[0.93734,41.06002],[0.92123,41.04681],[0.92175,41.04942],[0.92154,41.05329],[0.92218,41.05508],[0.9182,41.05897],[0.91439,41.06811],[0.91095,41.07131],[0.91083,41.07191],[0.91335,41.07779],[0.9133,41.081],[0.91341,41.08229],[0.92568,41.07908],[0.93478,41.08176],[0.93293,41.08828],[0.93278,41.08854],[0.932,41.08902],[0.93101,41.09078],[0.93074,41.09144],[0.93076,41.09167],[0.93514,41.09902],[0.93706,41.10104],[0.9413,41.1041],[0.94883,41.10438],[0.95732,41.10253],[0.96496,41.0986],[0.97016,41.09556],[0.96982,41.09543],[0.96606,41.09283],[0.96386,41.0904],[0.96187,41.08873],[0.95962,41.08703],[0.9592,41.08615],[0.95977,41.08514],[0.95999,41.08362],[0.95951,41.0828],[0.96164,41.08145],[0.96053,41.08111],[0.96067,41.08016],[0.95997,41.07852]]],[[[0.97406,41.11913],[0.97475,41.11579],[0.97612,41.11598],[0.97613,41.11332],[0.97894,41.10952],[0.97899,41.10696],[0.97977,41.1061],[0.98072,41.10414],[0.98093,41.10403],[0.97631,41.09958],[0.97172,41.10387],[0.97116,41.10878],[0.97043,41.11097],[0.97079,41.11135],[0.97026,41.11343],[0.97143,41.11629],[0.97339,41.11974],[0.97406,41.11913]]]]}},{"type":"Feature","properties":{"id":"4309201002"},"geometry":{"type":"Polygon","coordinates":[[[1.0049,41.06836],[1.00928,41.06606],[1.01331,41.06179],[1.01477,41.05874],[1.02372,41.05201],[1.02332,41.05167],[1.01884,41.05151],[1.0134,41.04917],[1.00412,41.04305],[1.00064,41.04328],[0.9951,41.04238],[0.9929,41.04271],[0.9866,41.04027],[0.97953,41.036],[0.97189,41.03002],[0.97087,41.02972],[0.96945,41.03072],[0.96895,41.0313],[0.96835,41.03233],[0.96842,41.03341],[0.96829,41.0335],[0.96698,41.03363],[0.9665,41.03377],[0.96619,41.034],[0.96598,41.03443],[0.96616,41.03548],[0.96609,41.03583],[0.96576,41.03624],[0.96409,41.03734],[0.96325,41.03816],[0.9621,41.03874],[0.96125,41.03934],[0.96037,41.0395],[0.95875,41.04024],[0.95856,41.04264],[0.9582,41.04341],[0.95754,41.04383],[0.9575,41.04393],[0.95776,41.04439],[0.95771,41.04464],[0.95692,41.0461],[0.95694,41.04636],[0.95786,41.04672],[0.95811,41.04702],[0.95811,41.04721],[0.95775,41.04779],[0.95771,41.04858],[0.95766,41.04869],[0.95595,41.04914],[0.95542,41.04937],[0.95543,41.04977],[0.95598,41.05051],[0.95592,41.05086],[0.95445,41.05133],[0.95423,41.05153],[0.95428,41.0523],[0.95392,41.0531],[0.9534,41.05336],[0.9518,41.05338],[0.95131,41.05353],[0.95022,41.0541],[0.94935,41.05496],[0.94811,41.05535],[0.94754,41.05538],[0.94608,41.05496],[0.94574,41.05503],[0.94404,41.056],[0.94284,41.05711],[0.94246,41.05789],[0.9419,41.05829],[0.94093,41.05884],[0.93965,41.05906],[0.93894,41.05943],[0.93741,41.06],[0.95378,41.07379],[0.95612,41.07258],[0.9571,41.07165],[0.95826,41.07209],[0.95928,41.07156],[0.95957,41.07214],[0.9602,41.07178],[0.96024,41.07238],[0.95986,41.07274],[0.96,41.07305],[0.96001,41.07414],[0.96082,41.07588],[0.95997,41.07852],[0.96067,41.08016],[0.96053,41.08111],[0.96166,41.08146],[0.96857,41.07707],[0.97614,41.07251],[0.98613,41.06587],[0.99891,41.06582],[1.0049,41.06836]]]}},{"type":"Feature","properties":{"id":"4309201003"},"geometry":{"type":"Polygon","coordinates":[[[0.98561,41.10145],[0.98587,41.10104],[0.98645,41.09849],[0.99095,41.09593],[0.99093,41.09357],[0.99231,41.0898],[0.99195,41.08903],[0.99243,41.08842],[0.99251,41.08667],[0.99643,41.08337],[0.99656,41.0829],[0.99604,41.08013],[0.99769,41.07653],[1.00162,41.07203],[1.00353,41.07051],[1.0049,41.06836],[0.99891,41.06582],[0.98613,41.06587],[0.97614,41.07251],[0.96857,41.07707],[0.95951,41.0828],[0.95999,41.08362],[0.95977,41.08514],[0.9592,41.08615],[0.95962,41.08703],[0.96187,41.08873],[0.96386,41.0904],[0.96606,41.09283],[0.96982,41.09543],[0.97016,41.09556],[0.97032,41.09547],[0.97756,41.09841],[0.97631,41.09958],[0.98093,41.10403],[0.98561,41.10145]]]}},{"type":"Feature","properties":{"id":"4309201004"},"geometry":{"type":"Polygon","coordinates":[[[0.93734,41.06002],[0.93894,41.05943],[0.93965,41.05906],[0.94093,41.05884],[0.9419,41.05829],[0.94246,41.05789],[0.94284,41.05711],[0.94404,41.056],[0.94574,41.05503],[0.94608,41.05496],[0.94754,41.05538],[0.94811,41.05535],[0.94935,41.05496],[0.95022,41.0541],[0.95131,41.05353],[0.9518,41.05338],[0.9534,41.05336],[0.95392,41.0531],[0.95428,41.0523],[0.95423,41.05153],[0.95445,41.05133],[0.95592,41.05086],[0.95598,41.05051],[0.95543,41.04977],[0.95542,41.04937],[0.95595,41.04914],[0.95766,41.04869],[0.95771,41.04858],[0.95775,41.04779],[0.95811,41.04721],[0.95811,41.04702],[0.95786,41.04672],[0.95694,41.04636],[0.95692,41.0461],[0.95771,41.04464],[0.95776,41.04439],[0.9575,41.04393],[0.95754,41.04383],[0.9582,41.04341],[0.95856,41.04264],[0.95875,41.04024],[0.96037,41.0395],[0.96125,41.03934],[0.9621,41.03874],[0.96325,41.03816],[0.96409,41.03734],[0.96576,41.03624],[0.96609,41.03583],[0.96616,41.03548],[0.96598,41.03443],[0.96619,41.034],[0.9665,41.03377],[0.96698,41.03363],[0.96829,41.0335],[0.96842,41.03341],[0.96835,41.03233],[0.96895,41.0313],[0.96945,41.03072],[0.97087,41.02972],[0.96708,41.0286],[0.9644,41.02665],[0.95654,41.02017],[0.95513,41.02104],[0.95468,41.02178],[0.95451,41.0223],[0.95296,41.02321],[0.95226,41.02351],[0.95098,41.02373],[0.95034,41.02359],[0.9496,41.02324],[0.9493,41.02323],[0.94907,41.02373],[0.94926,41.02432],[0.94923,41.02455],[0.94753,41.02522],[0.94724,41.02548],[0.94696,41.02603],[0.94634,41.02591],[0.94611,41.02595],[0.94495,41.02659],[0.94465,41.02688],[0.94226,41.02551],[0.94038,41.02601],[0.93989,41.02605],[0.93929,41.02627],[0.93676,41.02678],[0.93636,41.02698],[0.93264,41.0279],[0.93222,41.02797],[0.93125,41.02762],[0.93026,41.02756],[0.92927,41.02787],[0.92906,41.02783],[0.92725,41.02822],[0.92622,41.02878],[0.92968,41.03175],[0.93219,41.03468],[0.92932,41.03652],[0.9282,41.03697],[0.92463,41.03631],[0.922,41.03558],[0.91815,41.03386],[0.91541,41.0321],[0.91457,41.03152],[0.91307,41.03009],[0.91234,41.02936],[0.91102,41.02771],[0.90993,41.0259],[0.90887,41.02345],[0.9087,41.02352],[0.90772,41.02472],[0.90591,41.02554],[0.91082,41.03222],[0.92042,41.04276],[0.92123,41.04681],[0.93734,41.06002]]]}},{"type":"Feature","properties":{"id":"4309201005"},"geometry":{"type":"Polygon","coordinates":[[[0.92884,41.00526],[0.93292,41.00302],[0.93486,41.00517],[0.93523,41.00501],[0.93683,41.0038],[0.93643,41.00333],[0.9374,41.00323],[0.93831,41.00254],[0.93646,40.99972],[0.93313,40.99196],[0.93298,40.99174],[0.93224,40.99151],[0.93014,40.99294],[0.927,40.99262],[0.92478,40.99261],[0.92468,40.99305],[0.92419,40.99297],[0.92387,40.99366],[0.92372,40.99483],[0.92344,40.99577],[0.92335,40.99715],[0.92234,40.99823],[0.92325,41.00005],[0.92401,41.00116],[0.92379,41.0029],[0.91888,41.00524],[0.9217,41.00936],[0.92884,41.00526]]]}},{"type":"Feature","properties":{"id":"4309201006"},"geometry":{"type":"Polygon","coordinates":[[[0.94148,41.00629],[0.93968,41.00466],[0.93831,41.00254],[0.9374,41.00323],[0.93643,41.00333],[0.93683,41.0038],[0.93523,41.00501],[0.93486,41.00517],[0.93292,41.00302],[0.92664,41.00647],[0.9217,41.00936],[0.92597,41.0146],[0.93103,41.01293],[0.93763,41.00787],[0.93963,41.00656],[0.9402,41.00715],[0.94059,41.00677],[0.94148,41.00629]]]}},{"type":"Feature","properties":{"id":"4309201007"},"geometry":{"type":"Polygon","coordinates":[[[0.95069,41.01434],[0.94987,41.0134],[0.94535,41.00979],[0.94148,41.00629],[0.94059,41.00677],[0.9402,41.00715],[0.93963,41.00656],[0.93763,41.00787],[0.93103,41.01293],[0.92597,41.0146],[0.93299,41.02256],[0.94785,41.01463],[0.94847,41.01435],[0.95069,41.01434]]]}},{"type":"Feature","properties":{"id":"4309201008"},"geometry":{"type":"Polygon","coordinates":[[[0.95654,41.02017],[0.95395,41.01804],[0.95069,41.01434],[0.94847,41.01435],[0.93299,41.02256],[0.92597,41.0146],[0.9222,41.01005],[0.91888,41.00524],[0.91697,41.00618],[0.91626,41.00924],[0.9171,41.01065],[0.91532,41.01195],[0.91759,41.01297],[0.91644,41.01632],[0.91502,41.01774],[0.91451,41.01975],[0.91119,41.02133],[0.91037,41.02276],[0.90887,41.02345],[0.90993,41.0259],[0.91102,41.02771],[0.91234,41.02936],[0.91307,41.03009],[0.91457,41.03152],[0.91541,41.0321],[0.91815,41.03386],[0.922,41.03558],[0.92463,41.03631],[0.9282,41.03697],[0.92932,41.03652],[0.93219,41.03468],[0.92968,41.03175],[0.92622,41.02878],[0.92725,41.02822],[0.92906,41.02783],[0.92927,41.02787],[0.93026,41.02756],[0.93125,41.02762],[0.93222,41.02797],[0.93264,41.0279],[0.93636,41.02698],[0.93676,41.02678],[0.93929,41.02627],[0.93989,41.02605],[0.94038,41.02601],[0.94226,41.02551],[0.94465,41.02688],[0.94495,41.02659],[0.94611,41.02595],[0.94634,41.02591],[0.94696,41.02603],[0.94724,41.02548],[0.94753,41.02522],[0.94923,41.02455],[0.94926,41.02432],[0.94907,41.02373],[0.9493,41.02323],[0.9496,41.02324],[0.95034,41.02359],[0.95098,41.02373],[0.95226,41.02351],[0.95296,41.02321],[0.95451,41.0223],[0.95468,41.02178],[0.95513,41.02104],[0.95654,41.02017]]]}}]}