{"type":"FeatureCollection","features":[{"type":"Feature","properties":{"id":"4311101001"},"geometry":{"type":"Polygon","coordinates":[[[1.41775,41.21159],[1.41765,41.21077],[1.41737,41.21048],[1.41704,41.21026],[1.416,41.21016],[1.41546,41.20995],[1.41513,41.20965],[1.4146,41.20866],[1.41371,41.2077],[1.41283,41.20484],[1.4127,41.20384],[1.41231,41.20318],[1.41217,41.20245],[1.4122,41.20208],[1.41281,41.2013],[1.4129,41.20098],[1.41277,41.20057],[1.41283,41.19994],[1.41243,41.19951],[1.41113,41.19895],[1.4112,41.19857],[1.41137,41.19839],[1.41173,41.19832],[1.41244,41.19783],[1.41423,41.19722],[1.41473,41.19658],[1.41491,41.19607],[1.41621,41.19525],[1.41715,41.19488],[1.41682,41.19318],[1.41793,41.19217],[1.41694,41.19115],[1.41803,41.18737],[1.418,41.18714],[1.4176,41.18679],[1.41762,41.18651],[1.41834,41.18568],[1.41858,41.18489],[1.41896,41.18427],[1.41939,41.18301],[1.41989,41.18264],[1.42032,41.18135],[1.4209,41.18097],[1.42096,41.18059],[1.42134,41.18029],[1.42188,41.17867],[1.42247,41.17814],[1.42265,41.17779],[1.42225,41.17668],[1.42217,41.17548],[1.42242,41.17502],[1.42268,41.17401],[1.42202,41.17372],[1.42177,41.17351],[1.42165,41.1732],[1.42176,41.17268],[1.42133,41.17168],[1.42224,41.1713],[1.42249,41.17095],[1.42253,41.17062],[1.42244,41.1706],[1.42227,41.16987],[1.42202,41.16837],[1.42267,41.16682],[1.42372,41.16556],[1.42433,41.16459],[1.42451,41.16197],[1.42378,41.16148],[1.42099,41.16001],[1.41812,41.16053],[1.41365,41.16211],[1.40878,41.15969],[1.4071,41.15909],[1.40632,41.15894],[1.40373,41.16089],[1.40258,41.1621],[1.39946,41.16413],[1.39863,41.16479],[1.39717,41.16637],[1.39601,41.16727],[1.39547,41.16847],[1.39467,41.16979],[1.39307,41.16997],[1.38958,41.17189],[1.38787,41.17295],[1.38759,41.17294],[1.3861,41.17349],[1.38482,41.17339],[1.3842,41.17322],[1.38349,41.17285],[1.38217,41.17461],[1.38236,41.17516],[1.38245,41.17595],[1.38478,41.17834],[1.38913,41.18165],[1.38909,41.18695],[1.38734,41.19171],[1.3875,41.19196],[1.38791,41.19218],[1.3886,41.19285],[1.39118,41.19651],[1.39207,41.19699],[1.39264,41.19782],[1.39417,41.19861],[1.39495,41.19985],[1.39701,41.20169],[1.39492,41.20368],[1.39644,41.20583],[1.40141,41.20612],[1.4034,41.20856],[1.40482,41.21008],[1.4102,41.21245],[1.4112,41.2125],[1.41775,41.21159]],[[1.40524,41.18305],[1.40565,41.18361],[1.40622,41.18341],[1.4088,41.18432],[1.40713,41.18607],[1.40837,41.18619],[1.40967,41.18669],[1.40959,41.18706],[1.41495,41.19053],[1.41154,41.19241],[1.41078,41.19265],[1.41048,41.19497],[1.40965,41.19727],[1.40933,41.19746],[1.40741,41.19703],[1.40517,41.19626],[1.40514,41.19741],[1.40442,41.19829],[1.4037,41.19809],[1.40272,41.19813],[1.40142,41.19804],[1.39901,41.19737],[1.39868,41.1966],[1.39978,41.19574],[1.4015,41.19467],[1.40195,41.19421],[1.40218,41.1931],[1.40275,41.19264],[1.40283,41.19237],[1.40264,41.19066],[1.40077,41.19163],[1.39983,41.19157],[1.39909,41.19114],[1.39838,41.19107],[1.39828,41.18997],[1.39781,41.18938],[1.39636,41.18878],[1.39702,41.18803],[1.39846,41.18741],[1.39946,41.18716],[1.40012,41.18656],[1.40227,41.18509],[1.40123,41.18458],[1.40105,41.18414],[1.40198,41.18308],[1.40238,41.18293],[1.40284,41.18236],[1.40425,41.18265],[1.40524,41.18305]]]}},{"type":"Feature","properties":{"id":"4311101002"},"geometry":{"type":"Polygon","coordinates":[[[1.40514,41.19741],[1.40517,41.19626],[1.40741,41.19703],[1.40933,41.19746],[1.40965,41.19727],[1.41048,41.19497],[1.41078,41.19265],[1.41154,41.19241],[1.41495,41.19053],[1.40959,41.18706],[1.40967,41.18669],[1.40837,41.18619],[1.40713,41.18607],[1.4088,41.18432],[1.40622,41.18341],[1.40565,41.18361],[1.40524,41.18305],[1.40425,41.18265],[1.40284,41.18236],[1.40238,41.18293],[1.40198,41.18308],[1.40105,41.18414],[1.40123,41.18458],[1.40227,41.18509],[1.40012,41.18656],[1.39946,41.18716],[1.39846,41.18741],[1.39702,41.18803],[1.39636,41.18878],[1.39781,41.18938],[1.39828,41.18997],[1.39838,41.19107],[1.39909,41.19114],[1.39983,41.19157],[1.40077,41.19163],[1.40264,41.19066],[1.40283,41.19237],[1.40275,41.19264],[1.40218,41.1931],[1.40195,41.19421],[1.4015,41.19467],[1.39978,41.19574],[1.39868,41.1966],[1.39901,41.19737],[1.40142,41.19804],[1.40272,41.19813],[1.4037,41.19809],[1.40442,41.19829],[1.40514,41.19741]]]}}]}