{"type":"FeatureCollection","features":[{"type":"Feature","properties":{"id":"4313901001"},"geometry":{"type":"Polygon","coordinates":[[[1.39923,41.52022],[1.39833,41.51976],[1.39816,41.5194],[1.39152,41.51839],[1.38914,41.51829],[1.3871,41.51792],[1.38576,41.51777],[1.38518,41.51806],[1.38487,41.51788],[1.38431,41.51856],[1.38375,41.51902],[1.37589,41.51941],[1.37522,41.51994],[1.37314,41.52079],[1.37196,41.52111],[1.36923,41.5225],[1.36723,41.52334],[1.36471,41.52418],[1.35056,41.52962],[1.34492,41.52407],[1.34178,41.52316],[1.33475,41.52619],[1.33275,41.51929],[1.33129,41.51837],[1.32464,41.52169],[1.31999,41.52415],[1.31517,41.52712],[1.31737,41.52894],[1.32172,41.53716],[1.32269,41.53929],[1.32524,41.54368],[1.32924,41.54203],[1.33096,41.54165],[1.33228,41.54055],[1.33285,41.53975],[1.33515,41.53833],[1.33604,41.5382],[1.33772,41.53855],[1.34514,41.53918],[1.34583,41.53854],[1.34271,41.53561],[1.34491,41.53494],[1.3601,41.53657],[1.36343,41.5381],[1.36548,41.54172],[1.36602,41.5421],[1.36719,41.54247],[1.36915,41.54252],[1.37093,41.54241],[1.37306,41.54202],[1.37397,41.54118],[1.37434,41.54036],[1.37391,41.54044],[1.37398,41.53947],[1.37948,41.536],[1.38053,41.53569],[1.38101,41.5351],[1.3815,41.53474],[1.38223,41.534],[1.3833,41.53358],[1.3838,41.53359],[1.386,41.5329],[1.38621,41.53269],[1.38688,41.53241],[1.38706,41.53201],[1.38729,41.53181],[1.38879,41.53113],[1.38885,41.53048],[1.38921,41.5303],[1.38937,41.52985],[1.39071,41.5285],[1.39059,41.528],[1.39088,41.52764],[1.39158,41.52621],[1.39137,41.52546],[1.39212,41.52412],[1.39274,41.52369],[1.39388,41.52268],[1.3942,41.52254],[1.39474,41.52235],[1.39569,41.52256],[1.39644,41.52247],[1.39766,41.52192],[1.39864,41.52128],[1.39923,41.52022]]]}},{"type":"Feature","properties":{"id":"4313902001"},"geometry":{"type":"Polygon","coordinates":[[[1.44708,41.55238],[1.44796,41.54949],[1.44964,41.54539],[1.44972,41.54472],[1.44938,41.54312],[1.44894,41.53706],[1.43654,41.53923],[1.42658,41.5321],[1.42596,41.53187],[1.42551,41.53186],[1.40908,41.53492],[1.40831,41.53417],[1.40725,41.53397],[1.40642,41.5336],[1.40501,41.53204],[1.40521,41.5308],[1.40506,41.53058],[1.40403,41.53079],[1.40298,41.53083],[1.40254,41.53058],[1.40252,41.52966],[1.40211,41.52916],[1.40138,41.5288],[1.4002,41.52878],[1.39989,41.52851],[1.4001,41.52802],[1.40096,41.52755],[1.40103,41.52707],[1.40092,41.52655],[1.40113,41.5255],[1.39982,41.52382],[1.40028,41.52303],[1.40075,41.52187],[1.40088,41.5212],[1.40079,41.52085],[1.39923,41.52022],[1.39864,41.52128],[1.39766,41.52192],[1.39644,41.52247],[1.39569,41.52256],[1.39474,41.52235],[1.3942,41.52254],[1.39388,41.52268],[1.39274,41.52369],[1.39212,41.52412],[1.39137,41.52546],[1.39158,41.52621],[1.39088,41.52764],[1.39059,41.528],[1.39071,41.5285],[1.38937,41.52985],[1.38921,41.5303],[1.38885,41.53048],[1.38879,41.53113],[1.38729,41.53181],[1.38706,41.53201],[1.38688,41.53241],[1.38621,41.53269],[1.386,41.5329],[1.3838,41.53359],[1.3833,41.53358],[1.38223,41.534],[1.3815,41.53474],[1.38101,41.5351],[1.38053,41.53569],[1.37948,41.536],[1.37398,41.53947],[1.37391,41.54044],[1.37434,41.54036],[1.37397,41.54118],[1.37306,41.54202],[1.37093,41.54241],[1.36915,41.54252],[1.36719,41.54247],[1.36602,41.5421],[1.36548,41.54172],[1.36883,41.54764],[1.36648,41.55253],[1.36767,41.55213],[1.3726,41.55142],[1.37336,41.55041],[1.37628,41.54757],[1.37841,41.54594],[1.37965,41.54574],[1.3847,41.54541],[1.38702,41.54514],[1.38978,41.55013],[1.39057,41.55024],[1.39195,41.54995],[1.39333,41.55],[1.39231,41.55516],[1.39226,41.55643],[1.4038,41.55815],[1.40261,41.56431],[1.39583,41.56731],[1.3955,41.5697],[1.39531,41.5703],[1.3938,41.57264],[1.39398,41.5729],[1.39374,41.57367],[1.39381,41.57425],[1.3932,41.57508],[1.39582,41.57749],[1.39671,41.57716],[1.40125,41.57674],[1.40226,41.57674],[1.40365,41.5765],[1.40659,41.57623],[1.41092,41.57548],[1.41257,41.58023],[1.4146,41.58134],[1.41581,41.58239],[1.41644,41.58257],[1.42004,41.5826],[1.42121,41.58238],[1.42207,41.58206],[1.4237,41.58124],[1.42594,41.58067],[1.42646,41.58032],[1.42716,41.58009],[1.42998,41.57968],[1.43065,41.57927],[1.43116,41.57914],[1.43352,41.57886],[1.43392,41.57869],[1.43559,41.57661],[1.43607,41.57627],[1.43892,41.57567],[1.4409,41.57538],[1.44236,41.575],[1.44373,41.57452],[1.44487,41.57399],[1.44553,41.57384],[1.44783,41.57381],[1.4486,41.57329],[1.44978,41.5721],[1.45484,41.56918],[1.45417,41.56905],[1.45355,41.56882],[1.45189,41.56775],[1.4429,41.56406],[1.43996,41.56298],[1.43138,41.55565],[1.43181,41.55447],[1.4325,41.5532],[1.43252,41.55195],[1.4327,41.55141],[1.4331,41.55093],[1.43403,41.55043],[1.43487,41.5502],[1.43572,41.55013],[1.43694,41.5502],[1.43805,41.55004],[1.43932,41.55045],[1.44708,41.55238]]]}}]}