{"type":"FeatureCollection","features":[{"type":"Feature","properties":{"id":"4316201001"},"geometry":{"type":"Polygon","coordinates":[[[0.83611,41.05269],[0.83345,41.05124],[0.83332,41.05109],[0.83335,41.05048],[0.83574,41.0451],[0.83502,41.04387],[0.83513,41.04319],[0.83491,41.04179],[0.83569,41.03939],[0.83645,41.03849],[0.83726,41.03776],[0.83773,41.03747],[0.83828,41.03734],[0.84031,41.03559],[0.84061,41.03506],[0.84167,41.03448],[0.84504,41.03177],[0.84863,41.03223],[0.84935,41.03225],[0.84987,41.03239],[0.85064,41.03114],[0.85096,41.03086],[0.85191,41.03061],[0.85235,41.03059],[0.8553,41.03003],[0.85613,41.02975],[0.85671,41.02982],[0.85961,41.03056],[0.86009,41.02995],[0.86157,41.03062],[0.86236,41.02993],[0.86296,41.02974],[0.8648,41.02886],[0.86547,41.02841],[0.87139,41.02643],[0.871,41.02744],[0.87105,41.0281],[0.87096,41.02835],[0.87039,41.02877],[0.87031,41.02955],[0.87186,41.02925],[0.87211,41.02883],[0.87223,41.0283],[0.8726,41.02802],[0.87473,41.02711],[0.87555,41.02698],[0.87629,41.02715],[0.87709,41.02761],[0.87776,41.0282],[0.87912,41.02906],[0.87943,41.02908],[0.87985,41.02889],[0.87994,41.02862],[0.88035,41.02825],[0.88106,41.02822],[0.8813,41.02792],[0.88124,41.02774],[0.88098,41.02757],[0.88042,41.02737],[0.87885,41.02642],[0.88087,41.02601],[0.88313,41.02609],[0.88359,41.02602],[0.88634,41.02528],[0.88639,41.02591],[0.88621,41.02657],[0.88623,41.02755],[0.88655,41.02822],[0.8868,41.02838],[0.88737,41.0284],[0.88871,41.0275],[0.88992,41.02757],[0.89048,41.02732],[0.89105,41.02726],[0.89294,41.02809],[0.89361,41.02812],[0.89391,41.02796],[0.89411,41.0274],[0.89454,41.02676],[0.89543,41.02751],[0.89577,41.02759],[0.90157,41.0254],[0.90397,41.02588],[0.90497,41.02573],[0.90249,41.02317],[0.89902,41.02062],[0.89734,41.01778],[0.89964,41.01755],[0.90108,41.01643],[0.9053,41.0111],[0.90745,41.01033],[0.90756,41.00922],[0.90795,41.00921],[0.90912,41.00327],[0.91336,41.00095],[0.91119,40.99826],[0.9137,40.99653],[0.91613,40.9946],[0.91343,40.99281],[0.90965,40.98929],[0.90687,40.98701],[0.90057,40.98118],[0.89952,40.98053],[0.89875,40.98019],[0.89765,40.97987],[0.88926,40.98047],[0.88326,40.98321],[0.87671,40.98128],[0.87182,40.97256],[0.87294,40.9613],[0.85939,40.95056],[0.85379,40.94206],[0.84863,40.93722],[0.84667,40.93681],[0.84241,40.93865],[0.84024,40.93864],[0.83878,40.93762],[0.83684,40.93739],[0.83408,40.93837],[0.83035,40.93919],[0.82978,40.94053],[0.828,40.94033],[0.82535,40.94121],[0.8193,40.94075],[0.81888,40.94074],[0.8193,40.94075],[0.81971,40.94126],[0.8208,40.94225],[0.82256,40.943],[0.81978,40.94295],[0.8103,40.9474],[0.80369,40.95304],[0.79829,40.96633],[0.79887,40.96847],[0.793,40.97232],[0.78655,40.98169],[0.78258,40.98914],[0.78228,40.9901],[0.78204,40.99033],[0.782,40.99097],[0.78173,40.99182],[0.78001,40.9921],[0.77659,40.99008],[0.77631,40.99109],[0.77666,40.99213],[0.77667,40.99279],[0.77723,40.99384],[0.77513,40.99647],[0.77509,40.99674],[0.77562,40.99777],[0.77592,40.99805],[0.77781,40.99881],[0.77899,40.9999],[0.77835,41.00077],[0.77875,41.00219],[0.77953,41.0036],[0.77938,41.00514],[0.77918,41.00586],[0.77926,41.00649],[0.78034,41.00719],[0.78133,41.00952],[0.78354,41.01281],[0.7825,41.01386],[0.7841,41.01502],[0.78471,41.01676],[0.78409,41.0174],[0.7838,41.0188],[0.78356,41.01913],[0.78363,41.0196],[0.78351,41.02018],[0.78318,41.02089],[0.78321,41.02167],[0.78361,41.02237],[0.78535,41.02431],[0.7866,41.0248],[0.78574,41.02598],[0.78335,41.02757],[0.78252,41.02798],[0.78128,41.02893],[0.78236,41.03035],[0.78636,41.03257],[0.78832,41.03453],[0.79051,41.03512],[0.79104,41.03654],[0.79432,41.03844],[0.7966,41.039],[0.79706,41.04055],[0.79815,41.04101],[0.80173,41.04555],[0.80128,41.04641],[0.80071,41.0469],[0.8008,41.04735],[0.80151,41.04811],[0.80383,41.04968],[0.80551,41.05356],[0.8084,41.05581],[0.80992,41.05674],[0.81285,41.05919],[0.81767,41.06216],[0.81828,41.0621],[0.81883,41.06218],[0.8192,41.062],[0.82027,41.06067],[0.82157,41.06009],[0.82292,41.05855],[0.82449,41.05777],[0.82597,41.05682],[0.83156,41.05555],[0.83611,41.05269]]]}},{"type":"Feature","properties":{"id":"4316201002"},"geometry":{"type":"Polygon","coordinates":[[[0.92208,40.99111],[0.92099,40.99063],[0.91997,40.99038],[0.9171,40.9904],[0.91697,40.99031],[0.91697,40.98736],[0.91411,40.98591],[0.90847,40.98165],[0.90456,40.97723],[0.9027,40.97648],[0.90187,40.97596],[0.8987,40.97532],[0.89381,40.96993],[0.89136,40.96676],[0.8915,40.9661],[0.89023,40.96658],[0.88861,40.96461],[0.88801,40.96475],[0.88764,40.96362],[0.88643,40.9629],[0.88626,40.96184],[0.88567,40.96162],[0.88501,40.96192],[0.88478,40.96124],[0.8841,40.96107],[0.88257,40.96014],[0.88145,40.95995],[0.88025,40.95824],[0.88019,40.95613],[0.87829,40.95456],[0.87876,40.95435],[0.87644,40.95263],[0.87346,40.95079],[0.87256,40.95103],[0.86987,40.95034],[0.86851,40.94958],[0.86614,40.94955],[0.86552,40.94863],[0.86438,40.94808],[0.86301,40.94693],[0.86049,40.94367],[0.85817,40.9362],[0.85831,40.93478],[0.85806,40.93466],[0.85785,40.93492],[0.85431,40.93559],[0.84863,40.93722],[0.85379,40.94206],[0.85939,40.95056],[0.87294,40.9613],[0.87182,40.97256],[0.87671,40.98128],[0.88326,40.98321],[0.88926,40.98047],[0.89765,40.97987],[0.89875,40.98019],[0.89952,40.98053],[0.90057,40.98118],[0.90687,40.98701],[0.90965,40.98929],[0.91343,40.99281],[0.91613,40.9946],[0.9137,40.99653],[0.91119,40.99826],[0.91336,41.00095],[0.90912,41.00327],[0.90795,41.00921],[0.9083,41.0092],[0.90989,41.00866],[0.9148,41.00498],[0.91579,41.00349],[0.91571,41.00328],[0.91848,40.99789],[0.91801,40.99688],[0.9181,40.99616],[0.91794,40.99586],[0.91815,40.99571],[0.91877,40.99563],[0.91934,40.99575],[0.91968,40.99572],[0.92208,40.99111]]]}},{"type":"Feature","properties":{"id":"4316201003"},"geometry":{"type":"Polygon","coordinates":[[[0.92335,40.99715],[0.92344,40.99577],[0.92372,40.99483],[0.92387,40.99366],[0.92419,40.99297],[0.92351,40.99287],[0.92311,40.99174],[0.92272,40.99136],[0.92211,40.99106],[0.91968,40.99572],[0.91934,40.99575],[0.91877,40.99563],[0.91815,40.99571],[0.91794,40.99586],[0.9181,40.99616],[0.91801,40.99688],[0.91848,40.99789],[0.91571,41.00328],[0.91579,41.00349],[0.9148,41.00498],[0.90989,41.00866],[0.9083,41.0092],[0.90756,41.00922],[0.90745,41.01033],[0.9053,41.0111],[0.90108,41.01643],[0.89964,41.01755],[0.89734,41.01778],[0.89902,41.02062],[0.90249,41.02317],[0.90497,41.02573],[0.90632,41.0254],[0.90772,41.02472],[0.9087,41.02352],[0.91037,41.02276],[0.91119,41.02133],[0.91451,41.01975],[0.91502,41.01774],[0.91644,41.01632],[0.91759,41.01297],[0.91532,41.01195],[0.9171,41.01065],[0.91626,41.00924],[0.91697,41.00618],[0.92379,41.0029],[0.92401,41.00116],[0.92325,41.00005],[0.92234,40.99823],[0.92335,40.99715]]]}},{"type":"Feature","properties":{"id":"4316201004"},"geometry":{"type":"Polygon","coordinates":[[[0.93224,40.99151],[0.93058,40.99081],[0.92415,40.98846],[0.91958,40.98869],[0.91697,40.98736],[0.91697,40.99031],[0.9171,40.9904],[0.91997,40.99038],[0.92099,40.99063],[0.92208,40.99111],[0.92211,40.99106],[0.92272,40.99136],[0.92311,40.99174],[0.92351,40.99287],[0.92468,40.99305],[0.92478,40.99261],[0.927,40.99262],[0.93014,40.99294],[0.93224,40.99151]]]}}]}