{"type":"FeatureCollection","features":[{"type":"Feature","properties":{"id":"4400801001"},"geometry":{"type":"Polygon","coordinates":[[[-0.51097,41.1216],[-0.51108,41.12176],[-0.51149,41.12164],[-0.51214,41.12175],[-0.51226,41.12194],[-0.51251,41.12201],[-0.51262,41.12215],[-0.51475,41.1219],[-0.51858,41.12173],[-0.51953,41.12619],[-0.55335,41.12286],[-0.55356,41.11327],[-0.62098,41.09335],[-0.63205,41.09096],[-0.63698,41.09373],[-0.63962,41.09542],[-0.64179,41.09655],[-0.6428,41.09746],[-0.64536,41.09887],[-0.64668,41.09976],[-0.64756,41.10014],[-0.65669,41.10562],[-0.66044,41.10628],[-0.66172,41.1063],[-0.66377,41.10508],[-0.66567,41.10421],[-0.66734,41.10364],[-0.66972,41.10266],[-0.67165,41.10222],[-0.67422,41.10138],[-0.67643,41.10084],[-0.68381,41.09985],[-0.68722,41.0996],[-0.69184,41.09987],[-0.69123,41.10112],[-0.6919,41.10272],[-0.69199,41.10321],[-0.69194,41.10429],[-0.69169,41.10608],[-0.69151,41.10657],[-0.69097,41.10716],[-0.6927,41.1091],[-0.69403,41.11015],[-0.69397,41.11229],[-0.6907,41.11362],[-0.68999,41.11407],[-0.68512,41.11799],[-0.68336,41.11921],[-0.68229,41.12038],[-0.68037,41.1208],[-0.67867,41.12241],[-0.67588,41.12538],[-0.67193,41.13002],[-0.67137,41.13102],[-0.67124,41.132],[-0.67209,41.13418],[-0.67081,41.1368],[-0.66846,41.13813],[-0.66735,41.14264],[-0.66694,41.14334],[-0.665,41.14595],[-0.66,41.15087],[-0.65729,41.15339],[-0.65525,41.15484],[-0.65262,41.15766],[-0.64651,41.1632],[-0.6445,41.1654],[-0.64426,41.16598],[-0.64425,41.16684],[-0.64398,41.16748],[-0.64082,41.17097],[-0.63984,41.17186],[-0.63754,41.17347],[-0.63579,41.1744],[-0.63328,41.17557],[-0.63034,41.17764],[-0.62411,41.17986],[-0.62188,41.18429],[-0.6169,41.18663],[-0.61278,41.18916],[-0.61259,41.18978],[-0.61229,41.19031],[-0.6117,41.19075],[-0.6099,41.19168],[-0.61136,41.19482],[-0.609,41.19884],[-0.60842,41.19951],[-0.60469,41.20306],[-0.60244,41.20506],[-0.59806,41.20726],[-0.5811,41.20272],[-0.56851,41.19911],[-0.56294,41.19787],[-0.54812,41.19365],[-0.53456,41.1875],[-0.52758,41.18284],[-0.52359,41.17731],[-0.52084,41.17402],[-0.52042,41.17326],[-0.5187,41.16673],[-0.51707,41.16289],[-0.51672,41.16232],[-0.51254,41.15706],[-0.50931,41.15367],[-0.50578,41.14906],[-0.4933,41.14208],[-0.47969,41.13646],[-0.47572,41.13179],[-0.46857,41.12485],[-0.46777,41.12355],[-0.46607,41.12213],[-0.46604,41.12132],[-0.46573,41.12073],[-0.4797,41.12047],[-0.49388,41.12065],[-0.50813,41.12182],[-0.50816,41.12202],[-0.50847,41.12197],[-0.50847,41.12183],[-0.50866,41.12184],[-0.50879,41.12202],[-0.50944,41.12221],[-0.51031,41.12202],[-0.51097,41.1216]]]}},{"type":"Feature","properties":{"id":"4400801002"},"geometry":{"type":"Polygon","coordinates":[[[-0.51953,41.12619],[-0.51858,41.12173],[-0.51475,41.1219],[-0.51262,41.12215],[-0.51251,41.12201],[-0.51226,41.12194],[-0.51214,41.12175],[-0.51149,41.12164],[-0.51108,41.12176],[-0.51095,41.12159],[-0.51031,41.12202],[-0.50944,41.12221],[-0.50879,41.12202],[-0.50866,41.12184],[-0.50847,41.12183],[-0.50847,41.12197],[-0.50816,41.12202],[-0.50813,41.12182],[-0.49388,41.12065],[-0.4797,41.12047],[-0.46573,41.12073],[-0.46404,41.12018],[-0.46274,41.11905],[-0.4618,41.11887],[-0.45886,41.11783],[-0.45778,41.11595],[-0.45759,41.11367],[-0.45795,41.11122],[-0.45955,41.10949],[-0.45982,41.10755],[-0.46125,41.09996],[-0.46105,41.09912],[-0.46074,41.09862],[-0.4586,41.09607],[-0.45792,41.09462],[-0.45711,41.09345],[-0.456,41.0923],[-0.45405,41.09069],[-0.45186,41.08914],[-0.44937,41.08771],[-0.45178,41.0866],[-0.45881,41.08145],[-0.4617,41.07449],[-0.46617,41.06682],[-0.47046,41.05327],[-0.47776,41.04911],[-0.48282,41.04866],[-0.49046,41.04515],[-0.49784,41.04114],[-0.50437,41.04102],[-0.51706,41.04558],[-0.52084,41.04718],[-0.5255,41.04949],[-0.53341,41.05274],[-0.55172,41.06139],[-0.55663,41.06462],[-0.55964,41.06416],[-0.56312,41.06338],[-0.56405,41.06302],[-0.57088,41.05925],[-0.57288,41.05886],[-0.57423,41.05903],[-0.57608,41.06021],[-0.57641,41.06053],[-0.5765,41.06084],[-0.57643,41.06201],[-0.57748,41.06353],[-0.5786,41.06678],[-0.57537,41.06582],[-0.57399,41.06557],[-0.56985,41.06583],[-0.5695,41.06578],[-0.56884,41.06557],[-0.56805,41.06515],[-0.56768,41.06471],[-0.56126,41.06744],[-0.559,41.06857],[-0.55954,41.07058],[-0.56065,41.07061],[-0.56267,41.07135],[-0.5701,41.07491],[-0.5724,41.07642],[-0.57358,41.07681],[-0.57458,41.07675],[-0.57935,41.07714],[-0.58198,41.0775],[-0.58906,41.07872],[-0.59241,41.07953],[-0.59766,41.08048],[-0.60478,41.08226],[-0.60813,41.08261],[-0.61088,41.08303],[-0.61282,41.08342],[-0.61752,41.08469],[-0.6187,41.08479],[-0.62165,41.08466],[-0.62251,41.08479],[-0.62309,41.08508],[-0.62526,41.08672],[-0.62654,41.08792],[-0.63205,41.09096],[-0.62098,41.09335],[-0.55356,41.11327],[-0.55335,41.12286],[-0.51953,41.12619]]]}}]}