{"type":"FeatureCollection","features":[{"type":"Feature","properties":{"id":"4500601001"},"geometry":{"type":"Polygon","coordinates":[[[-4.78802,39.77456],[-4.79398,39.77478],[-4.79574,39.77467],[-4.79856,39.7732],[-4.80526,39.77234],[-4.8059,39.77239],[-4.80644,39.77254],[-4.80772,39.77335],[-4.8171,39.78031],[-4.81748,39.7805],[-4.82485,39.78201],[-4.82555,39.78235],[-4.82742,39.78441],[-4.83171,39.78598],[-4.8322,39.78602],[-4.85129,39.78503],[-4.85243,39.78514],[-4.85321,39.78534],[-4.85978,39.78889],[-4.86069,39.78947],[-4.86139,39.79008],[-4.86478,39.79444],[-4.86872,39.7939],[-4.86866,39.79269],[-4.86816,39.79156],[-4.86772,39.79096],[-4.866,39.78921],[-4.86762,39.78848],[-4.86796,39.78822],[-4.86824,39.78816],[-4.86822,39.78795],[-4.86886,39.78778],[-4.86891,39.78797],[-4.86923,39.78817],[-4.86975,39.78825],[-4.87092,39.78792],[-4.87109,39.78833],[-4.87475,39.7878],[-4.87505,39.78851],[-4.87502,39.78924],[-4.87448,39.7904],[-4.87486,39.79073],[-4.87632,39.7912],[-4.87828,39.79163],[-4.8806,39.79162],[-4.88237,39.79025],[-4.88554,39.7886],[-4.88704,39.78837],[-4.8886,39.78845],[-4.88962,39.7887],[-4.89582,39.78708],[-4.89778,39.78699],[-4.89974,39.78669],[-4.90521,39.78458],[-4.90745,39.78446],[-4.91,39.78418],[-4.91335,39.78414],[-4.9144,39.78426],[-4.91574,39.78427],[-4.91824,39.78418],[-4.92054,39.78381],[-4.92086,39.78387],[-4.9214,39.78377],[-4.92129,39.78454],[-4.9213,39.78679],[-4.92148,39.78957],[-4.92138,39.79016],[-4.92115,39.79069],[-4.9212,39.79458],[-4.91945,39.79522],[-4.91853,39.79568],[-4.91827,39.80193],[-4.91797,39.80524],[-4.91825,39.8096],[-4.91805,39.81362],[-4.91757,39.8167],[-4.91748,39.81971],[-4.91767,39.82574],[-4.91759,39.82686],[-4.91641,39.8284],[-4.91633,39.83134],[-4.91655,39.83354],[-4.9165,39.83426],[-4.91595,39.83677],[-4.91597,39.83713],[-4.91656,39.8381],[-4.91686,39.8389],[-4.91709,39.84004],[-4.91476,39.83945],[-4.9139,39.83858],[-4.91298,39.83822],[-4.91197,39.838],[-4.9088,39.838],[-4.9071,39.83731],[-4.90618,39.83794],[-4.90233,39.83773],[-4.90214,39.83763],[-4.9021,39.83613],[-4.90199,39.83599],[-4.90134,39.83603],[-4.90032,39.8371],[-4.89964,39.83672],[-4.89866,39.83634],[-4.89664,39.83522],[-4.89512,39.83505],[-4.89396,39.83432],[-4.89335,39.83497],[-4.89285,39.8353],[-4.8913,39.83558],[-4.89061,39.83635],[-4.88978,39.83645],[-4.88924,39.83547],[-4.88779,39.83576],[-4.88674,39.8354],[-4.88628,39.83595],[-4.88655,39.83667],[-4.88813,39.83898],[-4.8867,39.84107],[-4.88567,39.84158],[-4.88502,39.84213],[-4.88466,39.84382],[-4.88466,39.84423],[-4.88492,39.84502],[-4.88541,39.8458],[-4.88443,39.8462],[-4.88309,39.84501],[-4.8813,39.84307],[-4.88012,39.84194],[-4.87757,39.84183],[-4.87629,39.84159],[-4.87516,39.84154],[-4.8728,39.84164],[-4.871,39.8416],[-4.86987,39.84147],[-4.86937,39.84122],[-4.86855,39.84048],[-4.86721,39.84033],[-4.86649,39.84009],[-4.86382,39.8383],[-4.86139,39.83628],[-4.86006,39.83577],[-4.85764,39.83585],[-4.85597,39.8358],[-4.85431,39.83535],[-4.85387,39.83505],[-4.85285,39.83462],[-4.8517,39.83448],[-4.84971,39.8347],[-4.8493,39.83492],[-4.84775,39.83613],[-4.84724,39.83631],[-4.84672,39.83639],[-4.84451,39.836],[-4.84392,39.83573],[-4.843,39.83468],[-4.84215,39.83348],[-4.84206,39.83248],[-4.84186,39.83205],[-4.84027,39.8306],[-4.83907,39.82971],[-4.83759,39.82874],[-4.83713,39.82857],[-4.8362,39.82858],[-4.82849,39.82942],[-4.82508,39.83007],[-4.82419,39.82951],[-4.82278,39.82919],[-4.82134,39.82919],[-4.81974,39.82908],[-4.81814,39.82946],[-4.8168,39.83002],[-4.8164,39.82998],[-4.81595,39.82968],[-4.81502,39.82855],[-4.81471,39.82848],[-4.80899,39.82931],[-4.80511,39.82997],[-4.80284,39.83008],[-4.80297,39.82933],[-4.80372,39.82851],[-4.80365,39.82815],[-4.80341,39.82797],[-4.80207,39.8277],[-4.79885,39.82745],[-4.79575,39.82739],[-4.79282,39.82752],[-4.79211,39.82745],[-4.77988,39.82533],[-4.77466,39.82454],[-4.77486,39.82351],[-4.77492,39.82234],[-4.77454,39.82075],[-4.77216,39.81965],[-4.77103,39.81934],[-4.77057,39.81909],[-4.76932,39.81559],[-4.76807,39.81386],[-4.7654,39.81075],[-4.76382,39.80908],[-4.76304,39.80844],[-4.76153,39.80764],[-4.76023,39.80674],[-4.75912,39.80628],[-4.75852,39.80641],[-4.75798,39.80628],[-4.75737,39.80602],[-4.75676,39.8056],[-4.75552,39.80397],[-4.75517,39.80305],[-4.75472,39.801],[-4.7542,39.79941],[-4.75408,39.79781],[-4.75389,39.7971],[-4.75293,39.79481],[-4.75247,39.79408],[-4.75115,39.79125],[-4.75067,39.78938],[-4.75057,39.78824],[-4.75018,39.78698],[-4.74927,39.78461],[-4.74884,39.78377],[-4.74831,39.78298],[-4.74765,39.78229],[-4.74702,39.78121],[-4.74635,39.77926],[-4.75003,39.78168],[-4.75105,39.78219],[-4.75558,39.78377],[-4.7578,39.78296],[-4.76184,39.78116],[-4.76534,39.77906],[-4.76804,39.77928],[-4.7697,39.77901],[-4.77105,39.77863],[-4.7726,39.77806],[-4.77681,39.77612],[-4.78143,39.77419],[-4.78222,39.77488],[-4.78262,39.77505],[-4.78362,39.77517],[-4.78552,39.77518],[-4.78802,39.77456]]]}},{"type":"Feature","properties":{"id":"4500602001"},"geometry":{"type":"Polygon","coordinates":[[[-4.78802,39.77456],[-4.78857,39.77443],[-4.79109,39.7745],[-4.79129,39.77438],[-4.79397,39.77052],[-4.79438,39.76973],[-4.79448,39.76931],[-4.79395,39.7657],[-4.79399,39.76545],[-4.79489,39.76392],[-4.79483,39.76248],[-4.79494,39.76163],[-4.79563,39.76047],[-4.79764,39.75786],[-4.79914,39.75656],[-4.7998,39.75585],[-4.80047,39.75493],[-4.80299,39.75202],[-4.80532,39.7513],[-4.80601,39.75096],[-4.80692,39.75031],[-4.80879,39.74814],[-4.80984,39.74734],[-4.81189,39.74711],[-4.81327,39.74665],[-4.81579,39.74547],[-4.82205,39.7431],[-4.82561,39.7401],[-4.82813,39.73771],[-4.82892,39.73682],[-4.83086,39.73516],[-4.8314,39.73416],[-4.83395,39.72782],[-4.83127,39.72226],[-4.83325,39.72273],[-4.83698,39.72115],[-4.83694,39.72077],[-4.83623,39.71904],[-4.83609,39.71799],[-4.8384,39.71282],[-4.83974,39.70871],[-4.83979,39.70706],[-4.83956,39.70508],[-4.84043,39.70479],[-4.84135,39.7042],[-4.8423,39.70344],[-4.84456,39.7013],[-4.84937,39.69532],[-4.85103,39.69285],[-4.85366,39.68923],[-4.8547,39.68693],[-4.8553,39.68614],[-4.85556,39.68505],[-4.85757,39.68218],[-4.8577,39.68175],[-4.85743,39.68027],[-4.85744,39.67948],[-4.85774,39.67881],[-4.85802,39.67739],[-4.85836,39.67645],[-4.85967,39.67457],[-4.86084,39.67252],[-4.86113,39.67146],[-4.86174,39.66772],[-4.86154,39.66486],[-4.86179,39.66359],[-4.86229,39.66194],[-4.86241,39.66176],[-4.86429,39.6611],[-4.86648,39.66048],[-4.87259,39.66087],[-4.87701,39.66396],[-4.88036,39.6661],[-4.88119,39.66737],[-4.88208,39.67046],[-4.8825,39.67148],[-4.88466,39.67355],[-4.88465,39.674],[-4.88425,39.67515],[-4.88436,39.6755],[-4.88574,39.6778],[-4.88612,39.67877],[-4.88637,39.67995],[-4.88608,39.68716],[-4.88625,39.68828],[-4.88722,39.69213],[-4.88826,39.69449],[-4.88863,39.69579],[-4.88869,39.69654],[-4.88846,39.70021],[-4.88812,39.70346],[-4.88823,39.70476],[-4.88846,39.70575],[-4.88881,39.70649],[-4.89005,39.70824],[-4.89568,39.71509],[-4.89589,39.71554],[-4.89643,39.71762],[-4.89671,39.72107],[-4.89651,39.72249],[-4.89596,39.725],[-4.89378,39.72962],[-4.89373,39.73057],[-4.89384,39.73177],[-4.89406,39.73289],[-4.89449,39.73409],[-4.89638,39.73721],[-4.89705,39.73766],[-4.898,39.73807],[-4.89894,39.73878],[-4.90024,39.74086],[-4.90075,39.74121],[-4.90276,39.74156],[-4.90322,39.74205],[-4.90401,39.74347],[-4.90597,39.74763],[-4.90677,39.7489],[-4.90771,39.75114],[-4.90818,39.75165],[-4.90922,39.75219],[-4.9118,39.75299],[-4.91438,39.75411],[-4.91762,39.7562],[-4.92013,39.75833],[-4.92045,39.75891],[-4.92065,39.76032],[-4.92102,39.76121],[-4.92163,39.76194],[-4.92222,39.76237],[-4.92175,39.76561],[-4.92133,39.76619],[-4.9205,39.76693],[-4.92004,39.76753],[-4.91911,39.76907],[-4.91879,39.77059],[-4.91948,39.7713],[-4.91996,39.77202],[-4.91965,39.77268],[-4.91708,39.77667],[-4.91678,39.77735],[-4.91698,39.77801],[-4.9181,39.77969],[-4.91878,39.78036],[-4.92157,39.78253],[-4.9214,39.78377],[-4.92086,39.78387],[-4.92054,39.78381],[-4.91824,39.78418],[-4.91574,39.78427],[-4.9144,39.78426],[-4.91335,39.78414],[-4.91,39.78418],[-4.90745,39.78446],[-4.90521,39.78458],[-4.89974,39.78669],[-4.89778,39.78699],[-4.89582,39.78708],[-4.88962,39.7887],[-4.8886,39.78845],[-4.88704,39.78837],[-4.88554,39.7886],[-4.88237,39.79025],[-4.8806,39.79162],[-4.87828,39.79163],[-4.87632,39.7912],[-4.87486,39.79073],[-4.87448,39.7904],[-4.87502,39.78924],[-4.87505,39.78851],[-4.87475,39.7878],[-4.87109,39.78833],[-4.87092,39.78792],[-4.86975,39.78825],[-4.86923,39.78817],[-4.86891,39.78797],[-4.86886,39.78778],[-4.86822,39.78795],[-4.86824,39.78816],[-4.86796,39.78822],[-4.86762,39.78848],[-4.866,39.78921],[-4.86772,39.79096],[-4.86816,39.79156],[-4.86866,39.79269],[-4.86872,39.7939],[-4.86478,39.79444],[-4.86139,39.79008],[-4.86069,39.78947],[-4.85978,39.78889],[-4.85321,39.78534],[-4.85243,39.78514],[-4.85129,39.78503],[-4.8322,39.78602],[-4.83171,39.78598],[-4.82742,39.78441],[-4.82555,39.78235],[-4.82485,39.78201],[-4.81748,39.7805],[-4.8171,39.78031],[-4.80772,39.77335],[-4.80644,39.77254],[-4.8059,39.77239],[-4.80526,39.77234],[-4.79856,39.7732],[-4.79574,39.77467],[-4.79398,39.77478],[-4.78802,39.77456]]]}}]}