{"type":"FeatureCollection","features":[{"type":"Feature","properties":{"id":"4505301001"},"geometry":{"type":"Polygon","coordinates":[[[-3.66095,39.31345],[-3.66117,39.31676],[-3.66136,39.31728],[-3.66263,39.31958],[-3.6627,39.32009],[-3.66256,39.32197],[-3.66234,39.32297],[-3.6617,39.3248],[-3.66128,39.3254],[-3.66102,39.3256],[-3.66019,39.3258],[-3.65916,39.32708],[-3.65798,39.32903],[-3.65741,39.32968],[-3.65724,39.33055],[-3.65726,39.33108],[-3.65748,39.33149],[-3.65892,39.33268],[-3.65919,39.33309],[-3.6592,39.33355],[-3.65741,39.33747],[-3.65518,39.34312],[-3.65757,39.3556],[-3.65734,39.35626],[-3.65564,39.36],[-3.65462,39.36263],[-3.6532,39.36316],[-3.6498,39.36414],[-3.646,39.36553],[-3.64141,39.36616],[-3.63891,39.367],[-3.63877,39.36759],[-3.63828,39.36808],[-3.63699,39.36875],[-3.63549,39.36985],[-3.63429,39.37133],[-3.63269,39.37365],[-3.63211,39.37547],[-3.63131,39.37743],[-3.63016,39.379],[-3.62933,39.38044],[-3.62884,39.3816],[-3.62806,39.38222],[-3.62729,39.38315],[-3.62681,39.38452],[-3.62686,39.38625],[-3.62584,39.39042],[-3.62535,39.39169],[-3.62397,39.39326],[-3.62349,39.39398],[-3.62209,39.39673],[-3.62106,39.39933],[-3.62082,39.40036],[-3.61983,39.4024],[-3.61889,39.4051],[-3.61819,39.40658],[-3.6176,39.4093],[-3.61646,39.41234],[-3.61587,39.4135],[-3.61477,39.415],[-3.61432,39.41597],[-3.61257,39.41845],[-3.61203,39.41907],[-3.61047,39.42141],[-3.60823,39.42404],[-3.60743,39.42476],[-3.60506,39.43087],[-3.60502,39.43356],[-3.60439,39.43455],[-3.60411,39.43523],[-3.60315,39.43921],[-3.60282,39.44006],[-3.603,39.44098],[-3.60251,39.44224],[-3.60171,39.44342],[-3.60247,39.44456],[-3.60268,39.4454],[-3.60212,39.44635],[-3.60172,39.44746],[-3.60186,39.44886],[-3.60182,39.45022],[-3.60191,39.45033],[-3.60173,39.45201],[-3.60149,39.45261],[-3.60156,39.45329],[-3.60502,39.45253],[-3.60543,39.4533],[-3.60527,39.45335],[-3.60568,39.45362],[-3.60625,39.4547],[-3.60583,39.4553],[-3.6058,39.45575],[-3.60603,39.45644],[-3.60655,39.45727],[-3.60606,39.45807],[-3.60552,39.45798],[-3.60461,39.45798],[-3.6039,39.45824],[-3.6029,39.4572],[-3.60195,39.45566],[-3.60187,39.45529],[-3.60155,39.4549],[-3.60076,39.45343],[-3.60051,39.45226],[-3.6,39.4511],[-3.59875,39.44905],[-3.59793,39.44681],[-3.59779,39.44604],[-3.59754,39.44541],[-3.5976,39.44461],[-3.59669,39.44108],[-3.59893,39.43115],[-3.59942,39.39133],[-3.59932,39.38818],[-3.59947,39.38774],[-3.60312,39.38078],[-3.61029,39.3692],[-3.61293,39.36687],[-3.61416,39.36284],[-3.61348,39.36015],[-3.61358,39.35928],[-3.61357,39.357],[-3.61383,39.35585],[-3.61342,39.35439],[-3.61335,39.35376],[-3.61342,39.35339],[-3.61763,39.34827],[-3.61789,39.34749],[-3.61855,39.3464],[-3.61914,39.34589],[-3.62088,39.34539],[-3.62215,39.34475],[-3.62339,39.34402],[-3.62543,39.34252],[-3.62704,39.33969],[-3.62782,39.33851],[-3.62787,39.33824],[-3.62829,39.3378],[-3.63015,39.33647],[-3.63249,39.33531],[-3.63382,39.33375],[-3.63462,39.33325],[-3.63659,39.33154],[-3.639,39.32986],[-3.64088,39.329],[-3.64161,39.32852],[-3.64458,39.32616],[-3.64669,39.32471],[-3.64781,39.32368],[-3.64741,39.32319],[-3.64764,39.32308],[-3.64879,39.3231],[-3.65109,39.32149],[-3.65163,39.32128],[-3.6519,39.32083],[-3.65265,39.32003],[-3.65465,39.31824],[-3.65591,39.31897],[-3.65691,39.31914],[-3.65865,39.31848],[-3.65907,39.31816],[-3.65895,39.31762],[-3.65848,39.31712],[-3.65871,39.31668],[-3.65893,39.31573],[-3.65953,39.31481],[-3.66095,39.31345]]]}},{"type":"Feature","properties":{"id":"4505301002"},"geometry":{"type":"Polygon","coordinates":[[[-3.57452,39.46639],[-3.57543,39.46134],[-3.5941,39.45819],[-3.60084,39.45828],[-3.60169,39.45822],[-3.60249,39.45836],[-3.60323,39.45835],[-3.60385,39.45826],[-3.60461,39.45798],[-3.60507,39.45796],[-3.60603,39.45811],[-3.60703,39.45847],[-3.60694,39.45919],[-3.60715,39.46028],[-3.60696,39.46041],[-3.60756,39.46118],[-3.60817,39.46148],[-3.60691,39.46207],[-3.60341,39.46282],[-3.60227,39.46283],[-3.59847,39.46241],[-3.59631,39.46234],[-3.59302,39.46271],[-3.59232,39.46267],[-3.59126,39.46281],[-3.59058,39.463],[-3.59018,39.46325],[-3.58939,39.46353],[-3.58887,39.46388],[-3.58717,39.46431],[-3.58334,39.46479],[-3.58203,39.46555],[-3.58121,39.46562],[-3.58055,39.46581],[-3.57853,39.46682],[-3.57751,39.46815],[-3.57748,39.46846],[-3.57714,39.46907],[-3.57614,39.46937],[-3.57452,39.46639]]]}},{"type":"Feature","properties":{"id":"4505301003"},"geometry":{"type":"Polygon","coordinates":[[[-3.57543,39.46134],[-3.57857,39.44167],[-3.579,39.42913],[-3.57917,39.42695],[-3.57919,39.42507],[-3.57885,39.42199],[-3.57892,39.42167],[-3.58151,39.41421],[-3.58638,39.39911],[-3.58893,39.39034],[-3.59654,39.36518],[-3.60537,39.3371],[-3.60622,39.3329],[-3.60505,39.32991],[-3.60354,39.3265],[-3.60323,39.32554],[-3.60258,39.32243],[-3.60211,39.32153],[-3.60194,39.32041],[-3.60188,39.3194],[-3.60202,39.31843],[-3.60332,39.31344],[-3.60383,39.3119],[-3.60452,39.31049],[-3.60595,39.30831],[-3.60681,39.3074],[-3.60827,39.30613],[-3.60894,39.30579],[-3.611,39.30385],[-3.61169,39.30338],[-3.61802,39.30142],[-3.62237,39.30046],[-3.62267,39.30045],[-3.62285,39.30057],[-3.62389,39.3027],[-3.63893,39.29979],[-3.64235,39.29949],[-3.64769,39.29959],[-3.65148,39.29988],[-3.65512,39.29915],[-3.65749,39.29933],[-3.65743,39.30015],[-3.65782,39.30091],[-3.65846,39.30506],[-3.65905,39.30625],[-3.65902,39.30704],[-3.65992,39.30828],[-3.65985,39.30908],[-3.66052,39.30998],[-3.66095,39.31345],[-3.65953,39.31481],[-3.65912,39.31535],[-3.65878,39.31609],[-3.65871,39.31668],[-3.65848,39.31712],[-3.65895,39.31762],[-3.65907,39.31816],[-3.65865,39.31848],[-3.65691,39.31914],[-3.65591,39.31897],[-3.65465,39.31824],[-3.65265,39.32003],[-3.6519,39.32083],[-3.65163,39.32128],[-3.65109,39.32149],[-3.64879,39.3231],[-3.64764,39.32308],[-3.64741,39.32319],[-3.64781,39.32368],[-3.64669,39.32471],[-3.64458,39.32616],[-3.64161,39.32852],[-3.64088,39.329],[-3.639,39.32986],[-3.63659,39.33154],[-3.63462,39.33325],[-3.63382,39.33375],[-3.63249,39.33531],[-3.63015,39.33647],[-3.62829,39.3378],[-3.62787,39.33824],[-3.62782,39.33851],[-3.62704,39.33969],[-3.62543,39.34252],[-3.62339,39.34402],[-3.62215,39.34475],[-3.62088,39.34539],[-3.61914,39.34589],[-3.61855,39.3464],[-3.61789,39.34749],[-3.61763,39.34827],[-3.61342,39.35339],[-3.61335,39.35376],[-3.61342,39.35439],[-3.61383,39.35585],[-3.61357,39.357],[-3.61358,39.35928],[-3.61348,39.36015],[-3.61416,39.36284],[-3.61293,39.36687],[-3.61029,39.3692],[-3.60312,39.38078],[-3.60006,39.3865],[-3.59932,39.38818],[-3.59942,39.39133],[-3.59893,39.43115],[-3.59669,39.44108],[-3.5976,39.44461],[-3.59754,39.44541],[-3.59779,39.44604],[-3.59793,39.44681],[-3.59875,39.44905],[-3.6,39.4511],[-3.60051,39.45226],[-3.60076,39.45343],[-3.60155,39.4549],[-3.60187,39.45529],[-3.60195,39.45566],[-3.6029,39.4572],[-3.6039,39.45824],[-3.60357,39.45833],[-3.60249,39.45836],[-3.60169,39.45822],[-3.60066,39.45828],[-3.59425,39.45818],[-3.57543,39.46134]]]}},{"type":"Feature","properties":{"id":"4505302001"},"geometry":{"type":"Polygon","coordinates":[[[-3.60603,39.45811],[-3.60655,39.45727],[-3.60603,39.45644],[-3.6058,39.45575],[-3.60583,39.4553],[-3.60625,39.4547],[-3.60568,39.45362],[-3.60527,39.45335],[-3.60543,39.4533],[-3.60502,39.45253],[-3.60156,39.45329],[-3.60149,39.45261],[-3.60173,39.45201],[-3.60191,39.45033],[-3.60182,39.45022],[-3.60186,39.44886],[-3.60172,39.44746],[-3.60212,39.44635],[-3.60268,39.4454],[-3.60247,39.44456],[-3.60171,39.44342],[-3.60251,39.44224],[-3.603,39.44098],[-3.60282,39.44006],[-3.60315,39.43921],[-3.60411,39.43523],[-3.60439,39.43455],[-3.60502,39.43356],[-3.60506,39.43087],[-3.60743,39.42476],[-3.60823,39.42404],[-3.61047,39.42141],[-3.61203,39.41907],[-3.61257,39.41845],[-3.61432,39.41597],[-3.61477,39.415],[-3.61587,39.4135],[-3.61646,39.41234],[-3.6176,39.4093],[-3.61819,39.40658],[-3.61889,39.4051],[-3.61983,39.4024],[-3.62082,39.40036],[-3.62106,39.39933],[-3.62209,39.39673],[-3.62349,39.39398],[-3.62397,39.39326],[-3.62535,39.39169],[-3.62584,39.39042],[-3.62686,39.38625],[-3.62681,39.38452],[-3.62729,39.38315],[-3.62806,39.38222],[-3.62884,39.3816],[-3.62933,39.38044],[-3.63016,39.379],[-3.63119,39.37768],[-3.63211,39.37547],[-3.63269,39.37365],[-3.63429,39.37133],[-3.63549,39.36985],[-3.63699,39.36875],[-3.63828,39.36808],[-3.63877,39.36759],[-3.63891,39.367],[-3.64141,39.36616],[-3.646,39.36553],[-3.6498,39.36414],[-3.6532,39.36316],[-3.65462,39.36263],[-3.65465,39.36339],[-3.65853,39.37793],[-3.65921,39.38217],[-3.65965,39.3837],[-3.66102,39.38698],[-3.66122,39.38933],[-3.66081,39.39504],[-3.66055,39.40144],[-3.66113,39.41096],[-3.66125,39.41141],[-3.66292,39.41446],[-3.66537,39.41851],[-3.66931,39.42429],[-3.66613,39.42489],[-3.66471,39.42502],[-3.66201,39.42648],[-3.66091,39.4273],[-3.65921,39.42805],[-3.65869,39.4281],[-3.6584,39.42862],[-3.65705,39.42977],[-3.65688,39.43024],[-3.65715,39.43044],[-3.65793,39.43066],[-3.65805,39.43107],[-3.65768,39.43148],[-3.6569,39.43168],[-3.65442,39.43307],[-3.65329,39.43402],[-3.65311,39.43455],[-3.65268,39.43471],[-3.65233,39.435],[-3.65205,39.4357],[-3.65173,39.43591],[-3.65102,39.43703],[-3.65061,39.43737],[-3.6505,39.43767],[-3.64992,39.43792],[-3.64981,39.4383],[-3.64949,39.43873],[-3.64826,39.43973],[-3.64826,39.44029],[-3.64789,39.44049],[-3.64766,39.44137],[-3.64737,39.4416],[-3.64744,39.44225],[-3.64702,39.44267],[-3.64682,39.44305],[-3.64677,39.44361],[-3.6464,39.44402],[-3.64579,39.44434],[-3.64545,39.44477],[-3.64499,39.44513],[-3.64465,39.44657],[-3.64489,39.44697],[-3.64472,39.44736],[-3.64467,39.4483],[-3.64484,39.44855],[-3.64491,39.44909],[-3.64448,39.44983],[-3.6446,39.45021],[-3.64423,39.45116],[-3.64374,39.45173],[-3.64306,39.45181],[-3.64231,39.45213],[-3.64069,39.45236],[-3.6404,39.4527],[-3.63777,39.45393],[-3.63687,39.4538],[-3.6358,39.45412],[-3.63546,39.45453],[-3.63395,39.45487],[-3.63326,39.45526],[-3.63221,39.45542],[-3.63178,39.45524],[-3.63059,39.45525],[-3.6291,39.45474],[-3.62809,39.45477],[-3.62672,39.4543],[-3.62585,39.45422],[-3.6251,39.45424],[-3.62449,39.45441],[-3.62307,39.45518],[-3.62136,39.45533],[-3.62026,39.45564],[-3.61823,39.45563],[-3.61598,39.45627],[-3.61479,39.45675],[-3.61299,39.4582],[-3.61246,39.45877],[-3.60817,39.46148],[-3.60756,39.46118],[-3.60696,39.46041],[-3.60715,39.46028],[-3.60694,39.45919],[-3.60703,39.45847],[-3.60603,39.45811]]]}},{"type":"Feature","properties":{"id":"4505302002"},"geometry":{"type":"Polygon","coordinates":[[[-3.60994,39.46038],[-3.61246,39.45877],[-3.61299,39.4582],[-3.61479,39.45675],[-3.61598,39.45627],[-3.61823,39.45563],[-3.62026,39.45564],[-3.62136,39.45533],[-3.62307,39.45518],[-3.62449,39.45441],[-3.6251,39.45424],[-3.62585,39.45422],[-3.62672,39.4543],[-3.62809,39.45477],[-3.6291,39.45474],[-3.63059,39.45525],[-3.63178,39.45524],[-3.63221,39.45542],[-3.63326,39.45526],[-3.63395,39.45487],[-3.63546,39.45453],[-3.6358,39.45412],[-3.63687,39.4538],[-3.63777,39.45393],[-3.6404,39.4527],[-3.64069,39.45236],[-3.64231,39.45213],[-3.64306,39.45181],[-3.64374,39.45173],[-3.64423,39.45116],[-3.6446,39.45021],[-3.64448,39.44983],[-3.64491,39.44909],[-3.64484,39.44855],[-3.64467,39.4483],[-3.64472,39.44736],[-3.64489,39.44697],[-3.64465,39.44657],[-3.64499,39.44513],[-3.64545,39.44477],[-3.64579,39.44434],[-3.6464,39.44402],[-3.64677,39.44361],[-3.64682,39.44305],[-3.64702,39.44267],[-3.64744,39.44225],[-3.64737,39.4416],[-3.64766,39.44137],[-3.64789,39.44049],[-3.64826,39.44029],[-3.64826,39.43973],[-3.64949,39.43873],[-3.64981,39.4383],[-3.64992,39.43792],[-3.6505,39.43767],[-3.65061,39.43737],[-3.65102,39.43703],[-3.65173,39.43591],[-3.65205,39.4357],[-3.65233,39.435],[-3.65268,39.43471],[-3.65311,39.43455],[-3.65329,39.43402],[-3.65442,39.43307],[-3.6569,39.43168],[-3.65768,39.43148],[-3.65805,39.43107],[-3.65793,39.43066],[-3.65715,39.43044],[-3.65688,39.43024],[-3.65705,39.42977],[-3.6584,39.42862],[-3.65869,39.4281],[-3.65921,39.42805],[-3.66091,39.4273],[-3.66201,39.42648],[-3.66471,39.42502],[-3.66613,39.42489],[-3.66931,39.42429],[-3.67668,39.43514],[-3.68178,39.44227],[-3.68254,39.44348],[-3.68524,39.449],[-3.68678,39.45166],[-3.68684,39.45214],[-3.68637,39.45329],[-3.68611,39.4545],[-3.68617,39.45487],[-3.6882,39.4559],[-3.69084,39.45778],[-3.69279,39.45875],[-3.69638,39.4617],[-3.69768,39.46303],[-3.69856,39.46334],[-3.7029,39.46436],[-3.70657,39.46289],[-3.71165,39.46126],[-3.71346,39.46025],[-3.71529,39.45968],[-3.71601,39.459],[-3.71858,39.45763],[-3.71986,39.45769],[-3.72055,39.45755],[-3.7239,39.45622],[-3.72595,39.45565],[-3.7299,39.45557],[-3.73293,39.45504],[-3.73492,39.4549],[-3.73589,39.45491],[-3.73743,39.45517],[-3.74205,39.45471],[-3.74275,39.45459],[-3.74585,39.45363],[-3.74931,39.45318],[-3.75111,39.45285],[-3.75535,39.45303],[-3.75594,39.45291],[-3.75774,39.45225],[-3.7587,39.45205],[-3.7632,39.45189],[-3.76523,39.45151],[-3.76796,39.45153],[-3.76929,39.45169],[-3.77053,39.45266],[-3.77293,39.45309],[-3.77672,39.45432],[-3.78141,39.45607],[-3.78384,39.45716],[-3.78399,39.45734],[-3.78422,39.45867],[-3.78679,39.46567],[-3.78847,39.46954],[-3.79025,39.47426],[-3.79151,39.47462],[-3.79473,39.47579],[-3.7961,39.47682],[-3.79875,39.47941],[-3.79952,39.48037],[-3.80162,39.48413],[-3.80249,39.48493],[-3.80632,39.48794],[-3.8073,39.48853],[-3.80983,39.48918],[-3.8175,39.49082],[-3.82123,39.49044],[-3.8235,39.49066],[-3.82634,39.4917],[-3.8285,39.49261],[-3.83152,39.49342],[-3.83251,39.49394],[-3.83283,39.49422],[-3.83358,39.49568],[-3.83368,39.49628],[-3.835,39.49929],[-3.83529,39.50069],[-3.83767,39.50484],[-3.83981,39.50952],[-3.83992,39.51131],[-3.83974,39.51264],[-3.83976,39.5133],[-3.84113,39.51701],[-3.84162,39.51883],[-3.84236,39.52239],[-3.84428,39.52615],[-3.84399,39.52627],[-3.84327,39.52636],[-3.84258,39.52637],[-3.84135,39.52585],[-3.84075,39.52566],[-3.84038,39.52563],[-3.83791,39.52581],[-3.83438,39.52637],[-3.83269,39.52704],[-3.83155,39.52767],[-3.83116,39.52806],[-3.83051,39.52947],[-3.82994,39.53017],[-3.82953,39.53044],[-3.82757,39.5309],[-3.82299,39.53243],[-3.82245,39.53269],[-3.82124,39.53384],[-3.81875,39.53587],[-3.81711,39.53856],[-3.81668,39.53909],[-3.81419,39.54135],[-3.81407,39.5417],[-3.81431,39.54258],[-3.81439,39.54358],[-3.81409,39.54479],[-3.8139,39.54512],[-3.77525,39.53063],[-3.77351,39.53005],[-3.77051,39.52886],[-3.75106,39.52065],[-3.72972,39.51147],[-3.66587,39.48424],[-3.66054,39.48252],[-3.61587,39.4654],[-3.61641,39.465],[-3.61346,39.46259],[-3.61247,39.46307],[-3.61101,39.46192],[-3.61027,39.46101],[-3.61055,39.46082],[-3.60994,39.46038]]]}},{"type":"Feature","properties":{"id":"4505303001"},"geometry":{"type":"Polygon","coordinates":[[[-3.72558,39.60788],[-3.7246,39.60641],[-3.72371,39.60535],[-3.72304,39.60479],[-3.71836,39.60142],[-3.71677,39.60052],[-3.7161,39.60003],[-3.7122,39.59154],[-3.71125,39.59047],[-3.71017,39.58979],[-3.70657,39.58853],[-3.70487,39.58831],[-3.70125,39.58808],[-3.69862,39.58428],[-3.69714,39.58163],[-3.69379,39.57704],[-3.69279,39.57552],[-3.67832,39.55562],[-3.67723,39.55477],[-3.67386,39.55265],[-3.67101,39.55109],[-3.6693,39.55043],[-3.66625,39.54966],[-3.66325,39.54835],[-3.66224,39.54774],[-3.65952,39.54561],[-3.64994,39.54657],[-3.62122,39.54046],[-3.62293,39.53288],[-3.62286,39.53224],[-3.62129,39.52799],[-3.62004,39.52414],[-3.61176,39.47146],[-3.61169,39.47149],[-3.61122,39.46914],[-3.61034,39.46584],[-3.61024,39.46537],[-3.6103,39.46481],[-3.60985,39.46342],[-3.6093,39.4621],[-3.60886,39.46183],[-3.60854,39.46183],[-3.60817,39.46148],[-3.60994,39.46038],[-3.61055,39.46082],[-3.61027,39.46101],[-3.61101,39.46192],[-3.61247,39.46307],[-3.61346,39.46259],[-3.61641,39.465],[-3.61587,39.4654],[-3.66054,39.48252],[-3.66587,39.48424],[-3.72972,39.51147],[-3.75106,39.52065],[-3.77051,39.52886],[-3.77351,39.53005],[-3.77525,39.53063],[-3.8139,39.54512],[-3.81308,39.54642],[-3.81206,39.54696],[-3.81146,39.5474],[-3.81059,39.54929],[-3.81042,39.55022],[-3.81071,39.55101],[-3.81087,39.55405],[-3.81019,39.55647],[-3.80995,39.558],[-3.80975,39.55855],[-3.80862,39.55955],[-3.80817,39.56111],[-3.80608,39.56518],[-3.80588,39.56633],[-3.80629,39.56719],[-3.80614,39.56787],[-3.80568,39.56852],[-3.80376,39.57023],[-3.80349,39.57173],[-3.8033,39.57215],[-3.80185,39.57331],[-3.80126,39.57432],[-3.80078,39.5747],[-3.79839,39.57593],[-3.79796,39.57626],[-3.7977,39.57668],[-3.79711,39.57814],[-3.79674,39.57873],[-3.79551,39.57991],[-3.79374,39.58105],[-3.79327,39.58164],[-3.79054,39.5869],[-3.78996,39.58779],[-3.78867,39.58928],[-3.78782,39.58999],[-3.78378,39.5925],[-3.78344,39.59264],[-3.78315,39.59265],[-3.78175,39.59224],[-3.78133,39.59231],[-3.77497,39.59531],[-3.77447,39.5958],[-3.77383,39.5977],[-3.77281,39.59897],[-3.77181,39.60144],[-3.77106,39.60238],[-3.77049,39.60284],[-3.76904,39.60376],[-3.76693,39.60477],[-3.76638,39.60526],[-3.76556,39.60578],[-3.76328,39.60645],[-3.76108,39.60731],[-3.75875,39.60845],[-3.75463,39.6107],[-3.75277,39.61192],[-3.75045,39.61329],[-3.74993,39.61348],[-3.74905,39.61347],[-3.74799,39.61312],[-3.74684,39.61288],[-3.74639,39.61287],[-3.74499,39.61372],[-3.74442,39.61383],[-3.74232,39.61386],[-3.74062,39.61369],[-3.7396,39.61346],[-3.73664,39.6122],[-3.73249,39.60955],[-3.73099,39.6088],[-3.7284,39.60802],[-3.72752,39.60788],[-3.72588,39.6078],[-3.72558,39.60788]]]}},{"type":"Feature","properties":{"id":"4505303002"},"geometry":{"type":"Polygon","coordinates":[[[-3.60898,39.53981],[-3.59524,39.51468],[-3.59204,39.50785],[-3.59047,39.50391],[-3.58955,39.5012],[-3.58938,39.50014],[-3.58545,39.48744],[-3.58305,39.48165],[-3.58115,39.47783],[-3.57834,39.47347],[-3.57614,39.46937],[-3.57714,39.46907],[-3.57748,39.46846],[-3.57751,39.46815],[-3.57853,39.46682],[-3.58055,39.46581],[-3.58121,39.46562],[-3.58203,39.46555],[-3.58334,39.46479],[-3.58717,39.46431],[-3.58887,39.46388],[-3.58939,39.46353],[-3.59018,39.46325],[-3.59058,39.463],[-3.59126,39.46281],[-3.59232,39.46267],[-3.59302,39.46271],[-3.59631,39.46234],[-3.59847,39.46241],[-3.60227,39.46283],[-3.60341,39.46282],[-3.60691,39.46207],[-3.60817,39.46148],[-3.60854,39.46183],[-3.60886,39.46183],[-3.6093,39.4621],[-3.60985,39.46342],[-3.6103,39.46481],[-3.61024,39.46537],[-3.61034,39.46584],[-3.61122,39.46914],[-3.61169,39.47149],[-3.61176,39.47146],[-3.62004,39.52414],[-3.62129,39.52799],[-3.62286,39.53224],[-3.62293,39.53288],[-3.62122,39.54046],[-3.61018,39.53812],[-3.60898,39.53981]]]}}]}