{"type":"FeatureCollection","features":[{"type":"Feature","properties":{"id":"4506601001"},"geometry":{"type":"Polygon","coordinates":[[[-4.20323,40.05305],[-4.20332,40.0529],[-4.20335,40.05103],[-4.20738,40.05159],[-4.20772,40.05183],[-4.2079,40.05209],[-4.20877,40.05442],[-4.20897,40.05529],[-4.20811,40.05483],[-4.20536,40.05545],[-4.20323,40.05305]]]}},{"type":"Feature","properties":{"id":"4506601002"},"geometry":{"type":"Polygon","coordinates":[[[-4.1502,40.08115],[-4.14744,40.0714],[-4.15256,40.07082],[-4.15898,40.06915],[-4.16044,40.06795],[-4.17025,40.06451],[-4.17173,40.06407],[-4.17453,40.06341],[-4.17853,40.06222],[-4.18126,40.06154],[-4.18618,40.06121],[-4.18691,40.06103],[-4.19429,40.05858],[-4.2023,40.0566],[-4.20081,40.05501],[-4.20323,40.05305],[-4.20536,40.05545],[-4.20811,40.05483],[-4.2093,40.05545],[-4.2088,40.05626],[-4.20685,40.05809],[-4.20575,40.05938],[-4.20505,40.06043],[-4.20353,40.06172],[-4.2018,40.06365],[-4.19994,40.0662],[-4.19846,40.06745],[-4.19642,40.06999],[-4.19606,40.07072],[-4.196,40.0712],[-4.19577,40.07177],[-4.19466,40.0734],[-4.19406,40.07449],[-4.19383,40.07546],[-4.19362,40.07588],[-4.19096,40.08076],[-4.19,40.08213],[-4.19014,40.08269],[-4.19005,40.08366],[-4.18979,40.08454],[-4.19017,40.08506],[-4.18964,40.08552],[-4.18895,40.08683],[-4.18451,40.09225],[-4.18313,40.09439],[-4.18118,40.09879],[-4.17882,40.10178],[-4.17778,40.10294],[-4.17427,40.10934],[-4.17302,40.11031],[-4.17103,40.11163],[-4.16794,40.10828],[-4.16754,40.10414],[-4.1669,40.10241],[-4.16536,40.09883],[-4.16344,40.09478],[-4.16127,40.09061],[-4.15944,40.08629],[-4.15426,40.08111],[-4.15362,40.0813],[-4.15284,40.08036],[-4.15111,40.08081],[-4.1502,40.08115]]]}},{"type":"Feature","properties":{"id":"4506601003"},"geometry":{"type":"Polygon","coordinates":[[[-4.12395,40.02948],[-4.12541,40.02977],[-4.127,40.02992],[-4.12705,40.02696],[-4.12264,40.02623],[-4.12116,40.02528],[-4.12111,40.02506],[-4.12163,40.02368],[-4.12156,40.02032],[-4.12127,40.01983],[-4.12008,40.01921],[-4.11998,40.01898],[-4.12025,40.01735],[-4.12058,40.01699],[-4.12495,40.01063],[-4.12547,40.01012],[-4.12791,40.01387],[-4.12957,40.01367],[-4.13254,40.013],[-4.13162,40.01121],[-4.1316,40.01095],[-4.1327,40.01065],[-4.13371,40.0117],[-4.13876,40.01047],[-4.14259,40.01011],[-4.14291,40.01022],[-4.14434,40.01182],[-4.14509,40.01231],[-4.14751,40.01354],[-4.14835,40.01292],[-4.14576,40.0106],[-4.14488,40.00965],[-4.14612,40.00905],[-4.14822,40.00825],[-4.14904,40.00716],[-4.15094,40.00773],[-4.15281,40.00955],[-4.15966,40.01248],[-4.1628,40.0122],[-4.16738,40.01192],[-4.16757,40.01511],[-4.17479,40.01562],[-4.17481,40.01729],[-4.17471,40.01811],[-4.17434,40.01892],[-4.17313,40.02043],[-4.17146,40.02143],[-4.1706,40.02174],[-4.16994,40.02184],[-4.16925,40.02172],[-4.1696,40.02344],[-4.16952,40.02404],[-4.16795,40.02436],[-4.16843,40.02564],[-4.16949,40.0253],[-4.17228,40.02412],[-4.17245,40.0263],[-4.17275,40.02677],[-4.17344,40.02739],[-4.17428,40.02786],[-4.1755,40.02813],[-4.17652,40.02921],[-4.17512,40.03155],[-4.1779,40.03318],[-4.17983,40.03446],[-4.18051,40.03596],[-4.18175,40.03778],[-4.18574,40.04221],[-4.1878,40.04352],[-4.18981,40.04459],[-4.19053,40.04511],[-4.19238,40.04583],[-4.19424,40.04706],[-4.19514,40.04736],[-4.1969,40.04748],[-4.19731,40.04758],[-4.1994,40.04858],[-4.20121,40.04964],[-4.20236,40.0506],[-4.20335,40.05103],[-4.20332,40.0529],[-4.20323,40.05305],[-4.20081,40.05501],[-4.2023,40.0566],[-4.19429,40.05858],[-4.18691,40.06103],[-4.18618,40.06121],[-4.18126,40.06154],[-4.17853,40.06222],[-4.17453,40.06341],[-4.17173,40.06407],[-4.17025,40.06451],[-4.16044,40.06795],[-4.15898,40.06915],[-4.15256,40.07082],[-4.14744,40.0714],[-4.14654,40.0696],[-4.14865,40.06792],[-4.1476,40.0663],[-4.14707,40.06574],[-4.14513,40.06632],[-4.14435,40.06669],[-4.14034,40.05778],[-4.14053,40.05687],[-4.13934,40.0541],[-4.13489,40.05091],[-4.13396,40.05135],[-4.1338,40.05126],[-4.13393,40.05028],[-4.13076,40.04876],[-4.12878,40.04228],[-4.12804,40.0424],[-4.12682,40.03865],[-4.12707,40.03795],[-4.12694,40.03607],[-4.126,40.03615],[-4.12438,40.03154],[-4.12395,40.02948]]]}},{"type":"Feature","properties":{"id":"4506602001"},"geometry":{"type":"Polygon","coordinates":[[[-4.20843,40.05357],[-4.2079,40.05209],[-4.20772,40.05183],[-4.20738,40.05159],[-4.20335,40.05103],[-4.20268,40.05079],[-4.20121,40.04964],[-4.1994,40.04858],[-4.19731,40.04758],[-4.1969,40.04748],[-4.19514,40.04736],[-4.19424,40.04706],[-4.19238,40.04583],[-4.19053,40.04511],[-4.18981,40.04459],[-4.18677,40.0429],[-4.1857,40.04215],[-4.18668,40.04161],[-4.18727,40.04109],[-4.18761,40.04115],[-4.18989,40.04302],[-4.19146,40.04304],[-4.19135,40.0428],[-4.19053,40.04218],[-4.19096,40.04171],[-4.19365,40.04269],[-4.19396,40.04255],[-4.19566,40.04362],[-4.19617,40.04189],[-4.19754,40.0435],[-4.19832,40.04326],[-4.19894,40.04226],[-4.19931,40.04194],[-4.20204,40.04098],[-4.2012,40.03978],[-4.20109,40.03948],[-4.20174,40.03913],[-4.20235,40.03916],[-4.20318,40.03872],[-4.20234,40.03781],[-4.20339,40.03687],[-4.20359,40.03647],[-4.2067,40.03722],[-4.20992,40.04562],[-4.21037,40.04662],[-4.21088,40.04685],[-4.21073,40.0473],[-4.21096,40.04791],[-4.211,40.04869],[-4.21064,40.05014],[-4.21007,40.05138],[-4.21251,40.05262],[-4.21296,40.05296],[-4.21344,40.05372],[-4.21361,40.05458],[-4.21342,40.05486],[-4.21256,40.05413],[-4.21117,40.05318],[-4.20987,40.05271],[-4.20944,40.05306],[-4.20943,40.05319],[-4.20843,40.05357]]]}},{"type":"Feature","properties":{"id":"4506602002"},"geometry":{"type":"Polygon","coordinates":[[[-4.17861,40.12812],[-4.17763,40.12263],[-4.17979,40.11705],[-4.17915,40.11675],[-4.17425,40.11537],[-4.17103,40.11163],[-4.17302,40.11031],[-4.17427,40.10934],[-4.17778,40.10294],[-4.17882,40.10178],[-4.18118,40.09879],[-4.18313,40.09439],[-4.18451,40.09225],[-4.18895,40.08683],[-4.18964,40.08552],[-4.19017,40.08506],[-4.18979,40.08454],[-4.19005,40.08366],[-4.19014,40.08269],[-4.19,40.08213],[-4.19096,40.08076],[-4.19362,40.07588],[-4.19383,40.07546],[-4.19406,40.07449],[-4.19466,40.0734],[-4.19577,40.07177],[-4.196,40.0712],[-4.19606,40.07072],[-4.19642,40.06999],[-4.19846,40.06745],[-4.19994,40.0662],[-4.2018,40.06365],[-4.20312,40.06217],[-4.20353,40.06172],[-4.20469,40.06082],[-4.20685,40.05809],[-4.2088,40.05626],[-4.20932,40.05552],[-4.20897,40.05529],[-4.20877,40.05442],[-4.20843,40.05365],[-4.20843,40.05357],[-4.20943,40.05319],[-4.20944,40.05306],[-4.20987,40.05271],[-4.21084,40.05304],[-4.21165,40.05347],[-4.21341,40.05487],[-4.21472,40.05576],[-4.21779,40.05698],[-4.21936,40.05778],[-4.22181,40.05843],[-4.22281,40.05879],[-4.22323,40.05911],[-4.22296,40.05919],[-4.22246,40.05955],[-4.22104,40.06108],[-4.21961,40.06482],[-4.2188,40.06745],[-4.21524,40.08239],[-4.21978,40.08935],[-4.22096,40.08678],[-4.22219,40.0871],[-4.22497,40.08741],[-4.22559,40.08761],[-4.22717,40.08834],[-4.22916,40.08862],[-4.23043,40.08895],[-4.23383,40.09019],[-4.23615,40.09082],[-4.23899,40.09415],[-4.23609,40.09613],[-4.23103,40.09635],[-4.22917,40.09823],[-4.23094,40.10016],[-4.22947,40.10065],[-4.23014,40.10256],[-4.23255,40.10527],[-4.2299,40.10666],[-4.22912,40.10721],[-4.22709,40.11086],[-4.22444,40.11469],[-4.22397,40.11621],[-4.22362,40.11687],[-4.22131,40.11883],[-4.22052,40.11936],[-4.21783,40.11992],[-4.21752,40.1195],[-4.21711,40.11801],[-4.21363,40.11796],[-4.21124,40.11782],[-4.20662,40.11717],[-4.20512,40.11677],[-4.20345,40.11602],[-4.19912,40.11453],[-4.19663,40.11439],[-4.19577,40.11462],[-4.19528,40.1149],[-4.19497,40.1153],[-4.19467,40.11617],[-4.19408,40.11733],[-4.19192,40.12124],[-4.19106,40.12234],[-4.19057,40.12334],[-4.19019,40.12516],[-4.18996,40.12576],[-4.18946,40.12668],[-4.18879,40.12743],[-4.18822,40.12825],[-4.18802,40.1289],[-4.18811,40.12957],[-4.18799,40.13007],[-4.18604,40.13096],[-4.18556,40.13141],[-4.18526,40.13202],[-4.18516,40.13284],[-4.18492,40.13322],[-4.18321,40.1342],[-4.18274,40.13469],[-4.18232,40.1354],[-4.18196,40.13576],[-4.18101,40.13619],[-4.18065,40.13571],[-4.18006,40.13446],[-4.17893,40.13165],[-4.17874,40.13079],[-4.17861,40.12812]]]}},{"type":"Feature","properties":{"id":"4506602003"},"geometry":{"type":"Polygon","coordinates":[[[-4.2071,40.03817],[-4.20739,40.03831],[-4.20874,40.03851],[-4.20876,40.03889],[-4.21037,40.03908],[-4.2109,40.03905],[-4.21187,40.03938],[-4.21237,40.03939],[-4.21281,40.03924],[-4.21345,40.03922],[-4.21448,40.03892],[-4.21565,40.03931],[-4.21664,40.03993],[-4.21657,40.03998],[-4.21791,40.04052],[-4.21894,40.04062],[-4.2194,40.04036],[-4.22149,40.04372],[-4.22316,40.04534],[-4.22315,40.04552],[-4.22161,40.04678],[-4.22329,40.04743],[-4.2244,40.04993],[-4.2246,40.051],[-4.22599,40.05095],[-4.22818,40.05034],[-4.22892,40.05199],[-4.22912,40.05293],[-4.22919,40.05394],[-4.22838,40.05781],[-4.22679,40.05815],[-4.22323,40.05911],[-4.22281,40.05879],[-4.22181,40.05843],[-4.21936,40.05778],[-4.21779,40.05698],[-4.21472,40.05576],[-4.21341,40.05487],[-4.21361,40.05458],[-4.21356,40.05403],[-4.21296,40.05296],[-4.21251,40.05262],[-4.21007,40.05138],[-4.21064,40.05014],[-4.211,40.04869],[-4.21096,40.04791],[-4.21073,40.0473],[-4.21088,40.04685],[-4.21037,40.04662],[-4.20992,40.04562],[-4.2071,40.03817]]]}}]}