{"type":"FeatureCollection","features":[{"type":"Feature","properties":{"id":"4506101001"},"geometry":{"type":"Polygon","coordinates":[[[-4.44668,40.1399],[-4.44577,40.14114],[-4.44594,40.14274],[-4.44453,40.14329],[-4.44429,40.14433],[-4.44451,40.14523],[-4.44481,40.14589],[-4.44476,40.14644],[-4.44448,40.147],[-4.44433,40.14762],[-4.44433,40.14816],[-4.4447,40.14883],[-4.44502,40.15043],[-4.44529,40.15105],[-4.44643,40.15233],[-4.44716,40.1528],[-4.4478,40.1535],[-4.44831,40.15388],[-4.44902,40.15394],[-4.45009,40.15449],[-4.45144,40.15504],[-4.45217,40.15517],[-4.45396,40.15475],[-4.45421,40.15518],[-4.45608,40.15484],[-4.45655,40.15494],[-4.45836,40.15655],[-4.45924,40.15692],[-4.45985,40.15772],[-4.46038,40.15801],[-4.46073,40.15836],[-4.46096,40.1589],[-4.45917,40.15957],[-4.45885,40.15977],[-4.45802,40.16083],[-4.45672,40.16102],[-4.45601,40.16135],[-4.45559,40.16171],[-4.45526,40.16159],[-4.45489,40.16173],[-4.45452,40.16159],[-4.45348,40.16179],[-4.45231,40.16216],[-4.45148,40.16257],[-4.45077,40.16319],[-4.44981,40.16374],[-4.44708,40.16492],[-4.4468,40.16467],[-4.44614,40.16485],[-4.44534,40.16408],[-4.44446,40.16438],[-4.44282,40.16289],[-4.44071,40.16291],[-4.44093,40.16384],[-4.44139,40.16443],[-4.44072,40.16686],[-4.43934,40.16984],[-4.43458,40.17195],[-4.43238,40.17495],[-4.43039,40.17484],[-4.42206,40.17381],[-4.42056,40.17459],[-4.41929,40.17433],[-4.41816,40.17424],[-4.4076,40.17107],[-4.40693,40.17251],[-4.40766,40.17311],[-4.40763,40.17492],[-4.41108,40.17915],[-4.40448,40.17955],[-4.39891,40.17918],[-4.399,40.17881],[-4.39876,40.17729],[-4.39918,40.17598],[-4.39955,40.17395],[-4.39944,40.17351],[-4.39837,40.17253],[-4.39738,40.17102],[-4.39746,40.17042],[-4.39738,40.17014],[-4.397,40.16971],[-4.3971,40.16937],[-4.39752,40.16914],[-4.39795,40.16859],[-4.39836,40.16834],[-4.39953,40.1681],[-4.40013,40.16788],[-4.40056,40.16756],[-4.40003,40.16618],[-4.40049,40.16581],[-4.40146,40.16457],[-4.40314,40.16304],[-4.40356,40.16272],[-4.4046,40.16222],[-4.40552,40.16113],[-4.40603,40.15992],[-4.40692,40.15887],[-4.40912,40.15833],[-4.41062,40.15741],[-4.41209,40.15602],[-4.41448,40.1552],[-4.41583,40.15448],[-4.4184,40.15439],[-4.42207,40.15369],[-4.42416,40.15376],[-4.42631,40.1525],[-4.42735,40.1521],[-4.42866,40.15075],[-4.4293,40.14929],[-4.43201,40.14786],[-4.43311,40.14715],[-4.43545,40.14373],[-4.43803,40.1424],[-4.43929,40.14159],[-4.44091,40.1414],[-4.44182,40.14119],[-4.44314,40.14052],[-4.44411,40.14026],[-4.44668,40.1399]]]}},{"type":"Feature","properties":{"id":"4506101002"},"geometry":{"type":"Polygon","coordinates":[[[-4.35945,40.20109],[-4.35906,40.19876],[-4.35821,40.19753],[-4.35641,40.19253],[-4.35529,40.19181],[-4.35353,40.19092],[-4.35292,40.19072],[-4.35339,40.18827],[-4.3522,40.18756],[-4.3571,40.18543],[-4.36008,40.18252],[-4.36045,40.18222],[-4.36185,40.18153],[-4.36917,40.17915],[-4.37278,40.17749],[-4.37347,40.17693],[-4.37314,40.17622],[-4.37106,40.17494],[-4.37014,40.17415],[-4.36945,40.17372],[-4.36866,40.17332],[-4.36672,40.17303],[-4.36622,40.17288],[-4.36522,40.17191],[-4.36478,40.17179],[-4.36436,40.1718],[-4.36401,40.17203],[-4.36381,40.17305],[-4.36327,40.17294],[-4.3623,40.17225],[-4.36165,40.17162],[-4.3611,40.17086],[-4.36052,40.16934],[-4.3606,40.16886],[-4.36099,40.16843],[-4.3611,40.16694],[-4.36061,40.16635],[-4.35979,40.16563],[-4.35863,40.16491],[-4.3555,40.16392],[-4.35523,40.16371],[-4.35466,40.16285],[-4.35431,40.16257],[-4.35336,40.16213],[-4.35318,40.16183],[-4.35311,40.16118],[-4.35291,40.16069],[-4.3523,40.15997],[-4.35125,40.1593],[-4.3492,40.15825],[-4.3487,40.15778],[-4.34806,40.15739],[-4.34759,40.15722],[-4.34717,40.15718],[-4.34593,40.15756],[-4.34503,40.15773],[-4.34466,40.15767],[-4.34406,40.15683],[-4.34367,40.15663],[-4.34315,40.15654],[-4.3419,40.15658],[-4.34139,40.15638],[-4.34035,40.15571],[-4.3401,40.15517],[-4.34007,40.15444],[-4.34029,40.15384],[-4.34022,40.15338],[-4.3398,40.153],[-4.33919,40.15276],[-4.33822,40.15273],[-4.33596,40.15304],[-4.33461,40.15271],[-4.33317,40.15197],[-4.33253,40.1519],[-4.33047,40.15221],[-4.32977,40.15216],[-4.327,40.15127],[-4.32499,40.15108],[-4.32452,40.15091],[-4.32413,40.15061],[-4.32341,40.1498],[-4.32292,40.14956],[-4.32235,40.14941],[-4.32159,40.14884],[-4.31967,40.14814],[-4.31969,40.1476],[-4.31946,40.14737],[-4.31914,40.14742],[-4.31863,40.14766],[-4.31812,40.14774],[-4.31667,40.1484],[-4.31598,40.14842],[-4.31532,40.14864],[-4.31527,40.14652],[-4.31573,40.14422],[-4.31579,40.14345],[-4.3157,40.14267],[-4.31518,40.14125],[-4.31453,40.13997],[-4.31435,40.13924],[-4.31438,40.13893],[-4.31655,40.13678],[-4.31743,40.1352],[-4.31775,40.13411],[-4.31785,40.13289],[-4.3172,40.12612],[-4.31836,40.12623],[-4.31934,40.12612],[-4.31935,40.12779],[-4.32042,40.12799],[-4.32169,40.12705],[-4.32302,40.12586],[-4.32311,40.12563],[-4.32306,40.12504],[-4.32334,40.1247],[-4.32401,40.12422],[-4.32549,40.1254],[-4.33258,40.12621],[-4.3338,40.12573],[-4.33531,40.12585],[-4.33979,40.12593],[-4.34043,40.12526],[-4.34265,40.12546],[-4.34646,40.12517],[-4.34718,40.12501],[-4.35283,40.12281],[-4.35516,40.12255],[-4.35584,40.12239],[-4.35871,40.12129],[-4.36096,40.12024],[-4.36286,40.11985],[-4.3685,40.11787],[-4.37051,40.11688],[-4.3721,40.1166],[-4.37495,40.1166],[-4.37549,40.11541],[-4.37585,40.11505],[-4.37627,40.11482],[-4.37699,40.11464],[-4.37783,40.11461],[-4.37831,40.11411],[-4.37847,40.11348],[-4.38015,40.11411],[-4.38179,40.11297],[-4.38252,40.1127],[-4.38367,40.11258],[-4.38515,40.11265],[-4.38554,40.11308],[-4.38668,40.11289],[-4.38773,40.11302],[-4.38961,40.11373],[-4.39097,40.11374],[-4.39168,40.11395],[-4.3933,40.11508],[-4.39425,40.11538],[-4.39464,40.11536],[-4.39495,40.11524],[-4.3962,40.1141],[-4.39654,40.11345],[-4.39716,40.11278],[-4.39734,40.11242],[-4.39749,40.11162],[-4.39808,40.11089],[-4.3982,40.10979],[-4.39894,40.10868],[-4.39954,40.10828],[-4.40007,40.1088],[-4.40136,40.10806],[-4.40368,40.10694],[-4.4074,40.10528],[-4.40953,40.10354],[-4.41109,40.10416],[-4.4116,40.10415],[-4.4119,40.10389],[-4.4116,40.10331],[-4.41191,40.10288],[-4.41261,40.1024],[-4.41314,40.10259],[-4.41477,40.10428],[-4.41542,40.10582],[-4.41588,40.10661],[-4.42024,40.11191],[-4.42282,40.11421],[-4.42388,40.1145],[-4.4252,40.11501],[-4.42652,40.11576],[-4.42765,40.11659],[-4.42998,40.11881],[-4.43236,40.12197],[-4.43283,40.12234],[-4.43527,40.12337],[-4.43854,40.12403],[-4.44009,40.12493],[-4.44152,40.12482],[-4.44289,40.12522],[-4.44517,40.12547],[-4.4477,40.12786],[-4.4485,40.12778],[-4.45117,40.12924],[-4.45288,40.12998],[-4.45139,40.1328],[-4.4502,40.13436],[-4.44959,40.13534],[-4.44856,40.13738],[-4.44668,40.1399],[-4.44411,40.14026],[-4.44314,40.14052],[-4.44182,40.14119],[-4.44091,40.1414],[-4.43929,40.14159],[-4.43803,40.1424],[-4.43545,40.14373],[-4.43311,40.14715],[-4.43201,40.14786],[-4.4293,40.14929],[-4.42866,40.15075],[-4.42735,40.1521],[-4.42631,40.1525],[-4.42416,40.15376],[-4.42207,40.15369],[-4.4184,40.15439],[-4.41583,40.15448],[-4.41448,40.1552],[-4.41209,40.15602],[-4.41062,40.15741],[-4.40912,40.15833],[-4.40692,40.15887],[-4.40603,40.15992],[-4.40552,40.16113],[-4.4046,40.16222],[-4.40356,40.16272],[-4.40314,40.16304],[-4.40146,40.16457],[-4.40049,40.16581],[-4.40003,40.16618],[-4.40056,40.16756],[-4.40013,40.16788],[-4.39953,40.1681],[-4.39836,40.16834],[-4.39795,40.16859],[-4.39752,40.16914],[-4.3971,40.16937],[-4.397,40.16971],[-4.39738,40.17014],[-4.39746,40.17042],[-4.39738,40.17102],[-4.39758,40.17138],[-4.39837,40.17253],[-4.39944,40.17351],[-4.39955,40.17395],[-4.39918,40.17598],[-4.39876,40.17729],[-4.399,40.17881],[-4.39891,40.17918],[-4.40448,40.17955],[-4.41108,40.17915],[-4.40763,40.17492],[-4.40766,40.17311],[-4.40693,40.17251],[-4.4076,40.17107],[-4.41816,40.17424],[-4.41929,40.17433],[-4.42056,40.17459],[-4.42206,40.17381],[-4.43039,40.17484],[-4.42101,40.18117],[-4.41937,40.18524],[-4.41186,40.18951],[-4.4074,40.19087],[-4.40672,40.19118],[-4.4055,40.19238],[-4.4033,40.19383],[-4.40564,40.19694],[-4.40576,40.19734],[-4.40463,40.20004],[-4.40472,40.20063],[-4.40779,40.20333],[-4.40648,40.20301],[-4.4029,40.20171],[-4.40075,40.20169],[-4.40011,40.20158],[-4.39858,40.1998],[-4.39617,40.19872],[-4.39556,40.19817],[-4.39394,40.19618],[-4.39338,40.1958],[-4.39265,40.19546],[-4.38932,40.19457],[-4.38934,40.19366],[-4.39003,40.19243],[-4.39229,40.18962],[-4.39359,40.18736],[-4.39388,40.18652],[-4.39412,40.18516],[-4.39252,40.18529],[-4.39143,40.18567],[-4.39024,40.18621],[-4.38459,40.18951],[-4.38403,40.19016],[-4.3819,40.19159],[-4.38002,40.19432],[-4.37947,40.19495],[-4.37852,40.1958],[-4.37774,40.19631],[-4.3746,40.1978],[-4.37274,40.19824],[-4.37095,40.19693],[-4.36881,40.198],[-4.36581,40.20014],[-4.36509,40.20056],[-4.36227,40.20162],[-4.35945,40.20109]]]}}]}