{"type":"FeatureCollection","features":[{"type":"Feature","properties":{"id":"4506701001"},"geometry":{"type":"Polygon","coordinates":[[[-4.24732,39.68086],[-4.25546,39.67917],[-4.25948,39.67856],[-4.26048,39.67553],[-4.2609,39.67505],[-4.26131,39.67391],[-4.26316,39.67156],[-4.26457,39.66892],[-4.26681,39.66992],[-4.26914,39.6703],[-4.27204,39.67113],[-4.27329,39.67168],[-4.27268,39.67262],[-4.27851,39.67491],[-4.27735,39.67622],[-4.27922,39.67687],[-4.28022,39.67743],[-4.28149,39.67796],[-4.28488,39.68077],[-4.2874,39.68391],[-4.29102,39.68656],[-4.29353,39.68465],[-4.29815,39.68611],[-4.29954,39.68625],[-4.30085,39.68626],[-4.30191,39.6864],[-4.30323,39.68722],[-4.30418,39.68758],[-4.29496,39.69257],[-4.28817,39.69609],[-4.2819,39.69947],[-4.27908,39.69911],[-4.27828,39.69866],[-4.27599,39.69959],[-4.27385,39.70008],[-4.27451,39.70128],[-4.27293,39.70161],[-4.27241,39.70134],[-4.27206,39.70082],[-4.27209,39.70035],[-4.27138,39.7003],[-4.27135,39.70039],[-4.2705,39.70021],[-4.27023,39.70025],[-4.26983,39.69947],[-4.26915,39.69984],[-4.26782,39.70098],[-4.26678,39.70165],[-4.26676,39.70195],[-4.26607,39.70264],[-4.2659,39.7027],[-4.2656,39.70259],[-4.26416,39.70378],[-4.26374,39.70435],[-4.26314,39.7055],[-4.26234,39.70612],[-4.26206,39.70665],[-4.26134,39.70735],[-4.25961,39.70789],[-4.25584,39.70939],[-4.25137,39.71098],[-4.24903,39.71155],[-4.24684,39.71183],[-4.24637,39.7117],[-4.24588,39.71114],[-4.24504,39.71066],[-4.24201,39.70637],[-4.24126,39.70617],[-4.24019,39.70606],[-4.2395,39.70553],[-4.23887,39.70461],[-4.23817,39.70299],[-4.23657,39.70145],[-4.23857,39.69836],[-4.24106,39.69558],[-4.24429,39.69282],[-4.24483,39.69216],[-4.24709,39.69035],[-4.24783,39.68984],[-4.24946,39.68926],[-4.25079,39.68518],[-4.24903,39.68364],[-4.24896,39.68294],[-4.24732,39.68086]]]}},{"type":"Feature","properties":{"id":"4506702001"},"geometry":{"type":"Polygon","coordinates":[[[-4.24684,39.71183],[-4.24903,39.71155],[-4.25137,39.71098],[-4.25584,39.70939],[-4.25961,39.70789],[-4.26134,39.70735],[-4.26206,39.70665],[-4.26234,39.70612],[-4.26314,39.7055],[-4.26374,39.70435],[-4.26416,39.70378],[-4.2656,39.70259],[-4.2659,39.7027],[-4.26607,39.70264],[-4.26676,39.70195],[-4.26678,39.70165],[-4.26782,39.70098],[-4.26915,39.69984],[-4.26983,39.69947],[-4.27023,39.70025],[-4.2705,39.70021],[-4.27135,39.70039],[-4.27138,39.7003],[-4.27209,39.70035],[-4.27206,39.70082],[-4.27241,39.70134],[-4.27293,39.70161],[-4.27451,39.70128],[-4.27385,39.70008],[-4.27599,39.69959],[-4.27828,39.69866],[-4.27908,39.69911],[-4.2819,39.69947],[-4.28817,39.69609],[-4.29496,39.69257],[-4.30418,39.68758],[-4.30545,39.68799],[-4.30628,39.68816],[-4.314,39.68898],[-4.32045,39.68839],[-4.3224,39.68966],[-4.32961,39.69952],[-4.33254,39.70457],[-4.33239,39.71191],[-4.33281,39.71848],[-4.33061,39.72123],[-4.32878,39.72411],[-4.32766,39.72549],[-4.32649,39.72633],[-4.3226,39.73009],[-4.31901,39.73303],[-4.31849,39.73367],[-4.31719,39.73576],[-4.31585,39.73819],[-4.31584,39.73908],[-4.31528,39.74061],[-4.31519,39.74421],[-4.3146,39.74706],[-4.3146,39.74749],[-4.31618,39.75107],[-4.3159,39.75403],[-4.31635,39.75623],[-4.31645,39.75826],[-4.3173,39.76305],[-4.31983,39.76362],[-4.32028,39.7639],[-4.32142,39.7652],[-4.32231,39.76603],[-4.32285,39.76629],[-4.32636,39.76684],[-4.32753,39.76793],[-4.33053,39.76918],[-4.33098,39.76994],[-4.33089,39.77143],[-4.32912,39.77225],[-4.32872,39.77329],[-4.32798,39.77374],[-4.32619,39.77457],[-4.32529,39.77421],[-4.32419,39.77415],[-4.322,39.77469],[-4.31951,39.77515],[-4.31323,39.77744],[-4.30854,39.78037],[-4.30692,39.7815],[-4.30616,39.78213],[-4.30419,39.78422],[-4.30231,39.78403],[-4.3022,39.77676],[-4.30287,39.77451],[-4.30373,39.77217],[-4.30502,39.7704],[-4.30524,39.76874],[-4.29819,39.7622],[-4.29409,39.76108],[-4.2859,39.75935],[-4.28587,39.7583],[-4.28066,39.75588],[-4.27731,39.7538],[-4.2732,39.74927],[-4.27222,39.74848],[-4.26966,39.74683],[-4.26767,39.74616],[-4.26548,39.74136],[-4.26372,39.7404],[-4.26193,39.74048],[-4.2605,39.74039],[-4.26213,39.73864],[-4.26271,39.73775],[-4.26338,39.7374],[-4.26379,39.73703],[-4.26375,39.73496],[-4.264,39.73397],[-4.26441,39.73323],[-4.25492,39.72979],[-4.25338,39.72914],[-4.25217,39.72838],[-4.25139,39.72767],[-4.25056,39.7271],[-4.25272,39.72362],[-4.25311,39.72228],[-4.25387,39.72076],[-4.25438,39.72016],[-4.25503,39.71963],[-4.25452,39.71849],[-4.25405,39.71786],[-4.25094,39.71539],[-4.25057,39.71463],[-4.2496,39.71313],[-4.24741,39.71199],[-4.24684,39.71183]]]}}]}