{"type":"FeatureCollection","features":[{"type":"Feature","properties":{"id":"4511801001"},"geometry":{"type":"Polygon","coordinates":[[[-4.22818,40.05034],[-4.22599,40.05095],[-4.2246,40.051],[-4.2244,40.04993],[-4.22329,40.04743],[-4.22161,40.04678],[-4.22315,40.04552],[-4.22316,40.04534],[-4.22149,40.04372],[-4.22169,40.0413],[-4.221,40.03875],[-4.22187,40.03839],[-4.22261,40.03632],[-4.22356,40.03624],[-4.22415,40.03478],[-4.22421,40.0331],[-4.22148,40.03274],[-4.22179,40.03161],[-4.22146,40.02966],[-4.2215,40.02821],[-4.22166,40.02692],[-4.22202,40.02545],[-4.22259,40.02387],[-4.22316,40.02269],[-4.22596,40.01892],[-4.22601,40.01748],[-4.22627,40.01637],[-4.2279,40.01235],[-4.22999,40.00789],[-4.23025,40.00596],[-4.23175,40.00615],[-4.23921,40.00588],[-4.24031,40.00597],[-4.24124,40.00548],[-4.24192,40.00534],[-4.24283,40.00532],[-4.24329,40.00479],[-4.24396,40.00445],[-4.24798,40.00331],[-4.24972,40.00296],[-4.25072,40.00205],[-4.25118,40.00188],[-4.25306,40.00159],[-4.25654,40.00035],[-4.25737,39.99991],[-4.26013,39.99886],[-4.26145,39.99851],[-4.2633,39.99777],[-4.26454,39.9974],[-4.26814,39.99938],[-4.2733,40.00291],[-4.27715,40.00512],[-4.27955,40.00573],[-4.28301,40.00725],[-4.28153,40.01141],[-4.28059,40.01365],[-4.27944,40.01598],[-4.27825,40.01788],[-4.27699,40.01802],[-4.27587,40.01989],[-4.2745,40.0359],[-4.2759,40.04489],[-4.27551,40.04561],[-4.27417,40.047],[-4.27383,40.04721],[-4.27323,40.04733],[-4.27323,40.04755],[-4.27379,40.04885],[-4.27372,40.05353],[-4.27224,40.05716],[-4.27114,40.0595],[-4.27083,40.06064],[-4.27025,40.0621],[-4.26952,40.06267],[-4.26818,40.06404],[-4.26761,40.06326],[-4.26533,40.0638],[-4.26463,40.06444],[-4.26548,40.06515],[-4.26514,40.0658],[-4.26412,40.06562],[-4.26375,40.06507],[-4.26382,40.06485],[-4.26408,40.06465],[-4.26393,40.06448],[-4.26324,40.06492],[-4.26266,40.06467],[-4.26141,40.06319],[-4.25948,40.06245],[-4.25877,40.06257],[-4.2586,40.06211],[-4.25777,40.06159],[-4.2574,40.06079],[-4.25645,40.05982],[-4.25613,40.05968],[-4.25583,40.05982],[-4.25468,40.05863],[-4.25348,40.05929],[-4.25249,40.0581],[-4.25133,40.05749],[-4.25029,40.05707],[-4.24981,40.05714],[-4.24959,40.05746],[-4.24976,40.05876],[-4.24876,40.059],[-4.24851,40.05918],[-4.24854,40.05959],[-4.2477,40.05989],[-4.24781,40.06124],[-4.24521,40.05953],[-4.24474,40.05931],[-4.24276,40.06031],[-4.24173,40.06104],[-4.24144,40.06106],[-4.23923,40.05954],[-4.23958,40.05923],[-4.23952,40.05884],[-4.23864,40.05723],[-4.237,40.05705],[-4.23654,40.05676],[-4.2326,40.05266],[-4.23124,40.05162],[-4.22998,40.05099],[-4.22818,40.05034]]]}},{"type":"Feature","properties":{"id":"4511801002"},"geometry":{"type":"Polygon","coordinates":[[[-4.26818,40.06404],[-4.26952,40.06267],[-4.27025,40.0621],[-4.27083,40.06064],[-4.27114,40.0595],[-4.27224,40.05716],[-4.27372,40.05353],[-4.27379,40.04885],[-4.27323,40.04755],[-4.27323,40.04733],[-4.27383,40.04721],[-4.27417,40.047],[-4.27551,40.04561],[-4.2759,40.04489],[-4.2745,40.0359],[-4.27587,40.01989],[-4.27699,40.01802],[-4.27825,40.01788],[-4.27815,40.01804],[-4.27977,40.01849],[-4.27996,40.01999],[-4.27976,40.02118],[-4.27977,40.02226],[-4.28049,40.02236],[-4.28185,40.02238],[-4.28194,40.02344],[-4.28298,40.02344],[-4.2847,40.02365],[-4.2854,40.02551],[-4.28583,40.02539],[-4.28574,40.02582],[-4.28784,40.02584],[-4.28864,40.0261],[-4.28947,40.02657],[-4.29049,40.02556],[-4.29112,40.02585],[-4.29075,40.02615],[-4.2907,40.02649],[-4.291,40.02683],[-4.29165,40.02728],[-4.29223,40.02736],[-4.29294,40.02714],[-4.29335,40.02746],[-4.29293,40.02789],[-4.29343,40.02836],[-4.29384,40.02852],[-4.29481,40.02812],[-4.29526,40.02822],[-4.29623,40.02876],[-4.29718,40.02944],[-4.29757,40.02915],[-4.29821,40.02955],[-4.29727,40.03043],[-4.2964,40.03101],[-4.29672,40.03133],[-4.29792,40.03113],[-4.29861,40.03123],[-4.29926,40.03148],[-4.29972,40.03124],[-4.30022,40.033],[-4.30086,40.03471],[-4.30165,40.0348],[-4.30194,40.03454],[-4.3033,40.032],[-4.30376,40.03203],[-4.30426,40.03215],[-4.30546,40.03309],[-4.30476,40.03392],[-4.3055,40.03428],[-4.30521,40.03483],[-4.30566,40.03499],[-4.3059,40.03467],[-4.30625,40.03467],[-4.30667,40.03485],[-4.30691,40.03543],[-4.30674,40.03695],[-4.30724,40.03711],[-4.31001,40.03724],[-4.3103,40.0367],[-4.31159,40.03673],[-4.31223,40.03742],[-4.31282,40.03774],[-4.31352,40.03843],[-4.31412,40.03762],[-4.31477,40.03703],[-4.31532,40.03729],[-4.31573,40.03689],[-4.31645,40.03525],[-4.31819,40.03602],[-4.31838,40.03627],[-4.31797,40.03699],[-4.31752,40.03736],[-4.31675,40.03774],[-4.31627,40.03848],[-4.31551,40.03897],[-4.31555,40.0395],[-4.31845,40.04065],[-4.31924,40.04119],[-4.31981,40.04272],[-4.31853,40.04323],[-4.31858,40.04392],[-4.31877,40.04451],[-4.31906,40.04487],[-4.32149,40.04495],[-4.32185,40.04549],[-4.32107,40.0466],[-4.32098,40.04689],[-4.32121,40.04748],[-4.3217,40.04753],[-4.32201,40.04772],[-4.32231,40.04908],[-4.32006,40.04927],[-4.32022,40.04982],[-4.32085,40.04981],[-4.32309,40.04947],[-4.3241,40.05006],[-4.32496,40.04962],[-4.32511,40.05006],[-4.32606,40.05079],[-4.32587,40.05178],[-4.32589,40.05346],[-4.3253,40.05391],[-4.32366,40.05481],[-4.32329,40.05546],[-4.32364,40.05542],[-4.32387,40.05571],[-4.323,40.05596],[-4.32193,40.05599],[-4.32046,40.05658],[-4.31866,40.05575],[-4.31829,40.05461],[-4.31787,40.05415],[-4.31737,40.05386],[-4.31652,40.05357],[-4.31558,40.05275],[-4.31478,40.05182],[-4.31357,40.05112],[-4.31287,40.05102],[-4.3114,40.05098],[-4.30808,40.05053],[-4.30728,40.05289],[-4.3058,40.05255],[-4.30449,40.05254],[-4.30202,40.0517],[-4.30118,40.05239],[-4.30154,40.05257],[-4.30362,40.05307],[-4.30397,40.05336],[-4.30386,40.05369],[-4.30324,40.05445],[-4.30304,40.05503],[-4.30291,40.05598],[-4.30301,40.05633],[-4.3034,40.05653],[-4.30384,40.05644],[-4.30508,40.05659],[-4.30588,40.05726],[-4.30502,40.05777],[-4.30533,40.05811],[-4.30527,40.05862],[-4.30596,40.05953],[-4.30572,40.06048],[-4.30543,40.06078],[-4.30464,40.06084],[-4.30383,40.06101],[-4.30301,40.06185],[-4.3026,40.06195],[-4.30145,40.06197],[-4.3015,40.06249],[-4.3013,40.06269],[-4.29948,40.06359],[-4.2967,40.06475],[-4.29602,40.0649],[-4.29528,40.0649],[-4.29347,40.0646],[-4.29283,40.06502],[-4.2918,40.06549],[-4.28922,40.06626],[-4.28526,40.06705],[-4.28171,40.06794],[-4.27645,40.06908],[-4.27419,40.06908],[-4.27055,40.06937],[-4.27055,40.06883],[-4.27011,40.06836],[-4.26963,40.06842],[-4.26924,40.06864],[-4.26795,40.06555],[-4.26848,40.06512],[-4.26818,40.06404]]]}}]}