{"type":"FeatureCollection","features":[{"type":"Feature","properties":{"id":"4512501001"},"geometry":{"type":"Polygon","coordinates":[[[-5.15513,39.92294],[-5.1533,39.92279],[-5.15227,39.92226],[-5.15196,39.92181],[-5.15178,39.92087],[-5.15179,39.91985],[-5.14919,39.91963],[-5.14901,39.91953],[-5.14857,39.91855],[-5.14805,39.91847],[-5.14605,39.91866],[-5.14169,39.9167],[-5.13935,39.91552],[-5.13829,39.91536],[-5.13579,39.91472],[-5.13402,39.91551],[-5.13288,39.91591],[-5.13108,39.91606],[-5.13119,39.91659],[-5.13178,39.91768],[-5.1302,39.91938],[-5.1296,39.91979],[-5.12551,39.92129],[-5.12357,39.92217],[-5.12334,39.92216],[-5.123,39.92189],[-5.12266,39.92215],[-5.12204,39.92169],[-5.12105,39.92066],[-5.12031,39.92016],[-5.12104,39.91935],[-5.12138,39.91858],[-5.12245,39.91681],[-5.12346,39.91535],[-5.1242,39.91454],[-5.12537,39.91379],[-5.1264,39.91298],[-5.12937,39.90976],[-5.13031,39.90845],[-5.13068,39.90833],[-5.13201,39.90832],[-5.13242,39.9082],[-5.13345,39.90865],[-5.13374,39.90868],[-5.13405,39.90862],[-5.13606,39.9076],[-5.13729,39.90757],[-5.13757,39.90765],[-5.13788,39.90799],[-5.13818,39.90792],[-5.13964,39.90702],[-5.14032,39.90672],[-5.14137,39.90572],[-5.14215,39.9052],[-5.14285,39.905],[-5.14351,39.90494],[-5.1434,39.90462],[-5.14386,39.90347],[-5.14298,39.90142],[-5.14251,39.90104],[-5.14105,39.90018],[-5.14036,39.8991],[-5.13963,39.89845],[-5.13895,39.89765],[-5.13849,39.89686],[-5.13822,39.89601],[-5.13787,39.89344],[-5.13392,39.89201],[-5.13276,39.89172],[-5.13151,39.89162],[-5.13035,39.89137],[-5.12789,39.89109],[-5.12458,39.89147],[-5.12179,39.89166],[-5.12031,39.89187],[-5.11581,39.89281],[-5.11496,39.89266],[-5.1143,39.89219],[-5.11279,39.88986],[-5.11245,39.88907],[-5.11046,39.88637],[-5.11028,39.8859],[-5.11118,39.88425],[-5.11209,39.88202],[-5.11337,39.88052],[-5.11447,39.87861],[-5.11546,39.87735],[-5.11571,39.87688],[-5.11555,39.87556],[-5.11561,39.87502],[-5.11623,39.87348],[-5.11681,39.87284],[-5.11809,39.87173],[-5.11827,39.87143],[-5.11853,39.86942],[-5.11855,39.86833],[-5.11912,39.86565],[-5.1191,39.86453],[-5.11861,39.86344],[-5.11941,39.85985],[-5.11907,39.85737],[-5.11971,39.85397],[-5.11945,39.85286],[-5.1186,39.85107],[-5.11886,39.85065],[-5.1208,39.84875],[-5.12181,39.84716],[-5.12204,39.84657],[-5.12243,39.84438],[-5.12174,39.84217],[-5.1228,39.8421],[-5.12358,39.84192],[-5.1273,39.84028],[-5.12923,39.83931],[-5.13295,39.83829],[-5.13488,39.8379],[-5.13578,39.83759],[-5.14035,39.83567],[-5.14333,39.83414],[-5.14507,39.83307],[-5.14792,39.83211],[-5.14979,39.83163],[-5.15678,39.83038],[-5.15777,39.83199],[-5.15844,39.83349],[-5.15915,39.83447],[-5.1587,39.83559],[-5.15867,39.83633],[-5.15933,39.83797],[-5.15964,39.84341],[-5.16002,39.84478],[-5.1604,39.84569],[-5.16073,39.84856],[-5.16096,39.84918],[-5.16296,39.85252],[-5.164,39.85391],[-5.16428,39.85447],[-5.16492,39.85706],[-5.1654,39.85819],[-5.16651,39.86002],[-5.17448,39.85737],[-5.17758,39.85652],[-5.1813,39.8558],[-5.18534,39.85527],[-5.18827,39.85451],[-5.18996,39.85329],[-5.19034,39.8529],[-5.19084,39.85266],[-5.19311,39.85203],[-5.19488,39.85166],[-5.19813,39.85154],[-5.19953,39.85157],[-5.20195,39.85139],[-5.20253,39.85142],[-5.20435,39.85099],[-5.20588,39.85023],[-5.20661,39.85009],[-5.20849,39.84952],[-5.20896,39.84952],[-5.20987,39.85004],[-5.21099,39.85043],[-5.21273,39.85016],[-5.21367,39.8499],[-5.2155,39.85202],[-5.2159,39.85351],[-5.21519,39.85504],[-5.21544,39.85927],[-5.21692,39.86027],[-5.21549,39.86218],[-5.21432,39.86399],[-5.21391,39.86432],[-5.21355,39.86452],[-5.21034,39.86558],[-5.20825,39.86641],[-5.20451,39.86761],[-5.20409,39.86802],[-5.20308,39.86988],[-5.20239,39.8707],[-5.19774,39.87377],[-5.19582,39.87488],[-5.19462,39.87569],[-5.19181,39.87587],[-5.18522,39.87541],[-5.18232,39.87497],[-5.18142,39.87497],[-5.17968,39.87527],[-5.17943,39.8757],[-5.17896,39.87749],[-5.17821,39.87944],[-5.17752,39.88096],[-5.17657,39.8827],[-5.17765,39.88265],[-5.17842,39.88322],[-5.17922,39.88414],[-5.18071,39.88625],[-5.18106,39.88705],[-5.18137,39.88872],[-5.18161,39.88901],[-5.18273,39.8897],[-5.18303,39.89249],[-5.1829,39.8942],[-5.18371,39.89632],[-5.18441,39.89774],[-5.1857,39.90089],[-5.18602,39.90347],[-5.18702,39.90514],[-5.18732,39.90606],[-5.18782,39.90887],[-5.18784,39.91163],[-5.18601,39.91174],[-5.18473,39.91199],[-5.18263,39.91278],[-5.18214,39.91303],[-5.18108,39.91386],[-5.18039,39.91453],[-5.17854,39.91606],[-5.177,39.91606],[-5.17456,39.91713],[-5.17464,39.91757],[-5.17451,39.91765],[-5.17352,39.91771],[-5.17178,39.91833],[-5.1716,39.91842],[-5.17128,39.91895],[-5.17023,39.91944],[-5.16047,39.92216],[-5.1572,39.92275],[-5.15617,39.92277],[-5.15513,39.92294]]]}},{"type":"Feature","properties":{"id":"4512502001"},"geometry":{"type":"MultiPolygon","coordinates":[[[[-5.23781,40.10769],[-5.2368,40.1077],[-5.23527,40.10792],[-5.2332,40.10785],[-5.23129,40.10811],[-5.23044,40.10813],[-5.22643,40.10738],[-5.22489,40.10745],[-5.22128,40.10737],[-5.21738,40.10797],[-5.21637,40.10801],[-5.21531,40.10785],[-5.21412,40.10744],[-5.21294,40.10694],[-5.21081,40.10566],[-5.21042,40.10532],[-5.21031,40.10454],[-5.2104,40.10336],[-5.21081,40.10214],[-5.2111,40.10004],[-5.21104,40.09582],[-5.21112,40.09516],[-5.21172,40.09345],[-5.21172,40.09265],[-5.2114,40.09169],[-5.21075,40.09113],[-5.20878,40.09029],[-5.20814,40.08992],[-5.20772,40.08955],[-5.20741,40.08889],[-5.20694,40.086],[-5.20674,40.08562],[-5.20457,40.08406],[-5.20352,40.08343],[-5.20212,40.08285],[-5.20107,40.08255],[-5.19979,40.08245],[-5.19831,40.08268],[-5.19551,40.08343],[-5.19433,40.08326],[-5.19227,40.08352],[-5.18922,40.08578],[-5.1883,40.08615],[-5.18762,40.08619],[-5.18693,40.08665],[-5.18579,40.08762],[-5.18508,40.08798],[-5.18449,40.08812],[-5.18274,40.08801],[-5.17368,40.08493],[-5.17303,40.08477],[-5.17237,40.08476],[-5.17162,40.08482],[-5.17041,40.08517],[-5.1688,40.08628],[-5.16693,40.08795],[-5.16291,40.07978],[-5.15717,40.07362],[-5.15214,40.07408],[-5.14825,40.07845],[-5.13616,40.08051],[-5.13214,40.07954],[-5.13129,40.07815],[-5.1342,40.07075],[-5.13734,40.06722],[-5.13986,40.06546],[-5.1478,40.05468],[-5.14827,40.04949],[-5.14705,40.04399],[-5.14545,40.04259],[-5.14034,40.03664],[-5.13615,40.03598],[-5.13167,40.03681],[-5.12645,40.04516],[-5.12112,40.04267],[-5.11973,40.04232],[-5.11797,40.0422],[-5.11571,40.04281],[-5.11488,40.04236],[-5.11358,40.0423],[-5.11079,40.04313],[-5.10824,40.04332],[-5.10572,40.04369],[-5.10594,40.04285],[-5.10494,40.04225],[-5.0945,40.04495],[-5.08429,40.04687],[-5.08456,40.0504],[-5.08349,40.0502],[-5.08237,40.05061],[-5.08205,40.05056],[-5.08149,40.05005],[-5.08077,40.04964],[-5.08042,40.04956],[-5.07809,40.04934],[-5.07695,40.04952],[-5.07595,40.04952],[-5.07411,40.04927],[-5.07339,40.0485],[-5.07292,40.04844],[-5.0728,40.0485],[-5.07222,40.04947],[-5.07205,40.04946],[-5.07019,40.04868],[-5.07006,40.04835],[-5.0703,40.04673],[-5.07078,40.04485],[-5.07136,40.04278],[-5.07225,40.04053],[-5.07277,40.03771],[-5.07333,40.03619],[-5.07389,40.03508],[-5.075,40.03336],[-5.0757,40.03152],[-5.07587,40.03058],[-5.07592,40.0291],[-5.0756,40.02454],[-5.07491,40.02268],[-5.07073,40.02384],[-5.06887,40.02399],[-5.06755,40.02437],[-5.06547,40.02526],[-5.0614,40.02597],[-5.0576,40.02694],[-5.05722,40.02722],[-5.05716,40.02744],[-5.0572,40.02966],[-5.05708,40.03025],[-5.05663,40.03091],[-5.05615,40.0313],[-5.05503,40.0319],[-5.05346,40.03248],[-5.05266,40.03264],[-5.05113,40.03274],[-5.05026,40.03261],[-5.05113,40.03104],[-5.05226,40.0301],[-5.05462,40.02845],[-5.05581,40.02727],[-5.05816,40.02577],[-5.0589,40.02504],[-5.05979,40.02376],[-5.06033,40.02267],[-5.06069,40.02166],[-5.06087,40.02026],[-5.06116,40.01956],[-5.06203,40.01834],[-5.06378,40.01668],[-5.06501,40.01503],[-5.06493,40.01269],[-5.06426,40.01096],[-5.06425,40.01031],[-5.06401,40.00906],[-5.06322,40.00761],[-5.06403,40.00395],[-5.06445,40.00297],[-5.06514,40.0019],[-5.06615,40.00079],[-5.06645,40.00014],[-5.06671,39.99835],[-5.06666,39.9976],[-5.06636,39.99692],[-5.06618,39.99614],[-5.06627,39.99552],[-5.06656,39.99491],[-5.06711,39.99455],[-5.06944,39.99366],[-5.06984,39.99274],[-5.07074,39.98981],[-5.07188,39.98725],[-5.07205,39.98666],[-5.07257,39.9858],[-5.07264,39.9854],[-5.07215,39.98313],[-5.07198,39.98049],[-5.0714,39.97901],[-5.07091,39.97809],[-5.0697,39.97696],[-5.06997,39.97631],[-5.07019,39.97513],[-5.07056,39.97467],[-5.07181,39.97398],[-5.07335,39.97296],[-5.07463,39.97234],[-5.07907,39.96974],[-5.08164,39.97043],[-5.0839,39.96915],[-5.08528,39.96856],[-5.08833,39.96693],[-5.08902,39.96668],[-5.08968,39.96847],[-5.0911,39.97033],[-5.09154,39.97123],[-5.09215,39.97334],[-5.09317,39.975],[-5.09407,39.97674],[-5.09507,39.97931],[-5.09637,39.98188],[-5.09698,39.9821],[-5.0989,39.98243],[-5.10046,39.98234],[-5.10257,39.98263],[-5.10739,39.98276],[-5.11035,39.98297],[-5.11437,39.9836],[-5.11645,39.98376],[-5.11751,39.98354],[-5.12313,39.98387],[-5.12358,39.98363],[-5.12784,39.98019],[-5.12867,39.97936],[-5.13031,39.97703],[-5.1325,39.97231],[-5.13544,39.96746],[-5.13621,39.96576],[-5.1374,39.9622],[-5.13856,39.96168],[-5.1397,39.96204],[-5.14056,39.96209],[-5.14249,39.9621],[-5.14404,39.96197],[-5.1456,39.96173],[-5.14861,39.96111],[-5.15081,39.95419],[-5.1528,39.95008],[-5.1616,39.94694],[-5.16794,39.94484],[-5.16904,39.94302],[-5.17007,39.94103],[-5.1703,39.94041],[-5.17026,39.94013],[-5.17001,39.93976],[-5.16777,39.93778],[-5.16522,39.93487],[-5.16027,39.93072],[-5.15813,39.92793],[-5.15421,39.9256],[-5.15464,39.92305],[-5.15448,39.92297],[-5.15554,39.9229],[-5.15617,39.92277],[-5.1572,39.92275],[-5.16047,39.92216],[-5.17023,39.91944],[-5.17128,39.91895],[-5.1716,39.91842],[-5.17178,39.91833],[-5.17352,39.91771],[-5.17451,39.91765],[-5.17464,39.91757],[-5.17456,39.91713],[-5.177,39.91606],[-5.17854,39.91606],[-5.18214,39.91303],[-5.18473,39.91199],[-5.18601,39.91174],[-5.18784,39.91163],[-5.18795,39.91293],[-5.18832,39.91366],[-5.18932,39.91526],[-5.19033,39.91645],[-5.19098,39.91705],[-5.1916,39.91786],[-5.19264,39.91966],[-5.19355,39.92094],[-5.19491,39.9244],[-5.19569,39.92781],[-5.19766,39.93024],[-5.19744,39.93416],[-5.19763,39.93723],[-5.19808,39.93902],[-5.1987,39.94046],[-5.19722,39.94398],[-5.19778,39.94498],[-5.19881,39.94735],[-5.20136,39.95136],[-5.20236,39.9533],[-5.20484,39.95726],[-5.20573,39.95813],[-5.20637,39.95923],[-5.2074,39.96059],[-5.20795,39.9616],[-5.208,39.96197],[-5.20885,39.9639],[-5.20912,39.96425],[-5.21245,39.96688],[-5.21411,39.96785],[-5.21428,39.96804],[-5.21435,39.96829],[-5.21411,39.97224],[-5.21445,39.97452],[-5.21478,39.97588],[-5.21487,39.9791],[-5.21507,39.98044],[-5.21536,39.98127],[-5.21535,39.98317],[-5.21518,39.98403],[-5.21563,39.98519],[-5.2162,39.98774],[-5.21731,39.99006],[-5.21801,39.99064],[-5.21842,39.99186],[-5.21886,39.99251],[-5.21984,39.99449],[-5.2216,39.99672],[-5.22248,39.99829],[-5.22425,40.00102],[-5.22464,40.00192],[-5.22622,40.00719],[-5.22684,40.00834],[-5.22746,40.00917],[-5.23165,40.01247],[-5.2321,40.01338],[-5.23367,40.01553],[-5.23428,40.01663],[-5.23512,40.01864],[-5.23606,40.02016],[-5.23727,40.02246],[-5.2398,40.02524],[-5.24068,40.02608],[-5.24358,40.02772],[-5.24461,40.02772],[-5.24548,40.02818],[-5.24809,40.03016],[-5.24878,40.0322],[-5.24921,40.03394],[-5.2479,40.0351],[-5.24745,40.03593],[-5.24727,40.03689],[-5.24728,40.03893],[-5.24706,40.04056],[-5.24674,40.0416],[-5.24604,40.04255],[-5.24505,40.04447],[-5.24465,40.04568],[-5.24454,40.04655],[-5.24492,40.04821],[-5.24496,40.05005],[-5.24485,40.05392],[-5.2447,40.05526],[-5.24595,40.05799],[-5.24657,40.0589],[-5.24682,40.06055],[-5.24734,40.06288],[-5.24756,40.06461],[-5.24809,40.06571],[-5.24879,40.07327],[-5.24933,40.07686],[-5.24934,40.07999],[-5.24906,40.08123],[-5.24683,40.08787],[-5.24519,40.09006],[-5.24508,40.09327],[-5.24429,40.09548],[-5.24443,40.09672],[-5.24466,40.09725],[-5.24583,40.09865],[-5.2468,40.10039],[-5.24731,40.10089],[-5.24883,40.1019],[-5.24953,40.10263],[-5.24953,40.10344],[-5.24873,40.10517],[-5.24998,40.10695],[-5.25002,40.10755],[-5.24935,40.10873],[-5.24564,40.10885],[-5.24212,40.1086],[-5.23853,40.10779],[-5.23781,40.10769]]],[[[-5.34303,39.98948],[-5.33959,39.98929],[-5.33818,39.98944],[-5.33673,39.98933],[-5.33578,39.98879],[-5.3336,39.98702],[-5.33387,39.9852],[-5.33564,39.97897],[-5.33595,39.9773],[-5.33627,39.97341],[-5.33625,39.97245],[-5.33671,39.96985],[-5.33719,39.96605],[-5.33577,39.96117],[-5.33502,39.958],[-5.3345,39.95667],[-5.33423,39.95548],[-5.33291,39.95228],[-5.33266,39.95103],[-5.33275,39.94828],[-5.33266,39.94679],[-5.33395,39.94369],[-5.33551,39.93847],[-5.33647,39.93595],[-5.33734,39.93042],[-5.3384,39.92809],[-5.33907,39.92632],[-5.33973,39.92301],[-5.33962,39.92162],[-5.33875,39.91736],[-5.33856,39.91558],[-5.33852,39.91375],[-5.33824,39.91263],[-5.33821,39.91163],[-5.33776,39.91032],[-5.33603,39.90688],[-5.33574,39.90537],[-5.33526,39.904],[-5.33524,39.90349],[-5.33565,39.90113],[-5.33618,39.89937],[-5.33722,39.8968],[-5.33948,39.89222],[-5.34005,39.89061],[-5.35299,39.88904],[-5.36056,39.88944],[-5.36859,39.88858],[-5.36948,39.88838],[-5.37163,39.88764],[-5.37785,39.88529],[-5.37964,39.88446],[-5.38275,39.8833],[-5.38455,39.88305],[-5.38771,39.88158],[-5.39033,39.88059],[-5.39333,39.8792],[-5.3939,39.87905],[-5.39494,39.87902],[-5.39603,39.87914],[-5.39683,39.87907],[-5.40129,39.87833],[-5.40611,39.87773],[-5.40618,39.87885],[-5.4056,39.88143],[-5.40528,39.88212],[-5.40472,39.883],[-5.40311,39.88463],[-5.40213,39.88534],[-5.40108,39.88566],[-5.4006,39.88967],[-5.39996,39.89212],[-5.39991,39.89373],[-5.39941,39.89687],[-5.39864,39.89932],[-5.39809,39.90033],[-5.39629,39.90665],[-5.39586,39.91098],[-5.39592,39.91236],[-5.39581,39.91445],[-5.39483,39.91843],[-5.39391,39.92026],[-5.39304,39.92282],[-5.39128,39.92668],[-5.38771,39.93151],[-5.38693,39.93401],[-5.38506,39.9376],[-5.38286,39.94099],[-5.38243,39.94211],[-5.38189,39.94415],[-5.38028,39.95181],[-5.37838,39.95679],[-5.37401,39.96629],[-5.37377,39.96782],[-5.37334,39.96852],[-5.37276,39.9706],[-5.37067,39.97307],[-5.37028,39.97365],[-5.3687,39.97701],[-5.36786,39.97912],[-5.3673,39.98018],[-5.36652,39.98133],[-5.36514,39.98292],[-5.36509,39.98385],[-5.36397,39.98395],[-5.3627,39.98357],[-5.36179,39.98352],[-5.36002,39.98366],[-5.35842,39.98414],[-5.3579,39.98447],[-5.35722,39.98531],[-5.35706,39.98572],[-5.35691,39.98686],[-5.35666,39.98724],[-5.35533,39.98786],[-5.35173,39.98852],[-5.35067,39.98863],[-5.34717,39.98864],[-5.34601,39.98876],[-5.34303,39.98948]]],[[[-5.33186,40.06162],[-5.33092,40.06125],[-5.33004,40.06129],[-5.3294,40.06142],[-5.3285,40.0613],[-5.32721,40.06147],[-5.32684,40.06074],[-5.32762,40.05796],[-5.32881,40.05123],[-5.32998,40.04706],[-5.33051,40.04404],[-5.33168,40.04127],[-5.33268,40.03407],[-5.33346,40.03368],[-5.33475,40.03367],[-5.33785,40.03415],[-5.34197,40.03392],[-5.34358,40.03373],[-5.34487,40.03336],[-5.34622,40.03275],[-5.3502,40.0312],[-5.35339,40.03025],[-5.35764,40.02868],[-5.36014,40.02754],[-5.36076,40.02696],[-5.36407,40.02607],[-5.3644,40.03034],[-5.36547,40.03671],[-5.36591,40.03858],[-5.36704,40.04198],[-5.36746,40.04373],[-5.36802,40.04545],[-5.36978,40.04896],[-5.37039,40.05068],[-5.37195,40.05362],[-5.37255,40.05426],[-5.37272,40.05527],[-5.37358,40.05744],[-5.37386,40.05932],[-5.37346,40.06278],[-5.37303,40.06533],[-5.3727,40.06629],[-5.37112,40.06924],[-5.36969,40.0723],[-5.36894,40.07646],[-5.36802,40.07903],[-5.36844,40.08038],[-5.3678,40.08252],[-5.36724,40.08677],[-5.36724,40.08789],[-5.3675,40.09007],[-5.36831,40.09263],[-5.36862,40.0941],[-5.36901,40.10008],[-5.36834,40.10069],[-5.36681,40.10239],[-5.36591,40.1037],[-5.36507,40.10459],[-5.36232,40.10639],[-5.36032,40.1079],[-5.35944,40.10841],[-5.35689,40.10918],[-5.3534,40.1104],[-5.35046,40.11082],[-5.34768,40.11091],[-5.34672,40.11114],[-5.34496,40.11219],[-5.3414,40.11376],[-5.33962,40.1154],[-5.33872,40.11575],[-5.33746,40.1159],[-5.33667,40.11589],[-5.33517,40.11571],[-5.33138,40.11426],[-5.3302,40.1141],[-5.3294,40.11379],[-5.32879,40.11335],[-5.32796,40.11238],[-5.32724,40.11184],[-5.32575,40.11127],[-5.32328,40.11005],[-5.3201,40.10788],[-5.31884,40.1075],[-5.31783,40.1074],[-5.31584,40.10703],[-5.31551,40.10562],[-5.31474,40.1038],[-5.31419,40.10278],[-5.31349,40.10053],[-5.31329,40.09873],[-5.3132,40.0965],[-5.31328,40.09549],[-5.31364,40.09436],[-5.3175,40.08762],[-5.3188,40.08414],[-5.31937,40.08223],[-5.32037,40.08003],[-5.3222,40.07888],[-5.32325,40.07727],[-5.32714,40.07205],[-5.33148,40.0657],[-5.33319,40.06244],[-5.33186,40.06162]]],[[[-5.24344,39.98546],[-5.24318,39.98526],[-5.24101,39.98437],[-5.23982,39.98334],[-5.2375,39.98166],[-5.23618,39.98051],[-5.23481,39.97858],[-5.23235,39.97548],[-5.23223,39.97504],[-5.23241,39.97286],[-5.23297,39.97003],[-5.23302,39.96808],[-5.23326,39.96586],[-5.23414,39.9649],[-5.23458,39.96401],[-5.23508,39.9624],[-5.23509,39.9618],[-5.23601,39.96182],[-5.23687,39.96171],[-5.24214,39.96044],[-5.24552,39.95996],[-5.24726,39.9599],[-5.25005,39.96006],[-5.25089,39.9602],[-5.25291,39.95849],[-5.25309,39.95816],[-5.25079,39.95764],[-5.25007,39.95693],[-5.24901,39.95611],[-5.24831,39.9554],[-5.24804,39.95488],[-5.24716,39.95244],[-5.24694,39.95045],[-5.2465,39.9494],[-5.24663,39.9482],[-5.24572,39.94766],[-5.24553,39.94731],[-5.24539,39.94655],[-5.24562,39.9452],[-5.24494,39.94407],[-5.24436,39.94338],[-5.24427,39.94311],[-5.24455,39.94215],[-5.24327,39.93915],[-5.2431,39.93842],[-5.24262,39.93783],[-5.24265,39.93723],[-5.24187,39.9365],[-5.24146,39.9359],[-5.2414,39.93372],[-5.24119,39.9331],[-5.24118,39.93269],[-5.24026,39.93162],[-5.24002,39.93103],[-5.23942,39.92786],[-5.23953,39.92754],[-5.24097,39.92696],[-5.24141,39.92442],[-5.24133,39.92442],[-5.2414,39.92382],[-5.24156,39.92339],[-5.24197,39.92286],[-5.24406,39.92096],[-5.24461,39.92069],[-5.2467,39.92075],[-5.25022,39.92046],[-5.25073,39.92032],[-5.25436,39.91753],[-5.256,39.9176],[-5.25715,39.91775],[-5.25942,39.91835],[-5.25983,39.9192],[-5.25799,39.92182],[-5.25789,39.9222],[-5.25806,39.92259],[-5.25846,39.9229],[-5.25923,39.92321],[-5.26359,39.92431],[-5.26469,39.92476],[-5.2656,39.92486],[-5.26789,39.92549],[-5.26975,39.92633],[-5.26872,39.9276],[-5.26818,39.9298],[-5.26813,39.93031],[-5.26837,39.93119],[-5.26849,39.93238],[-5.26933,39.93399],[-5.27099,39.93783],[-5.27241,39.94187],[-5.27353,39.94382],[-5.27377,39.94441],[-5.27404,39.94636],[-5.27472,39.94728],[-5.27479,39.94757],[-5.27487,39.94963],[-5.27533,39.95047],[-5.27632,39.95318],[-5.2766,39.95367],[-5.27703,39.95409],[-5.27743,39.95489],[-5.27869,39.956],[-5.27902,39.95664],[-5.27988,39.9578],[-5.28025,39.95957],[-5.28063,39.96057],[-5.28109,39.96122],[-5.28166,39.96312],[-5.28178,39.96476],[-5.28194,39.96526],[-5.28175,39.96872],[-5.28185,39.96934],[-5.28263,39.97039],[-5.28042,39.97027],[-5.27966,39.97172],[-5.27877,39.97303],[-5.27649,39.97534],[-5.27445,39.97656],[-5.27553,39.97634],[-5.2767,39.97634],[-5.27926,39.97664],[-5.28048,39.97685],[-5.28215,39.97778],[-5.28236,39.97855],[-5.28319,39.97952],[-5.28437,39.98223],[-5.28412,39.9834],[-5.28169,39.98372],[-5.27701,39.98349],[-5.27463,39.98125],[-5.27344,39.98067],[-5.27245,39.97965],[-5.27135,39.97874],[-5.27071,39.97785],[-5.27097,39.97752],[-5.27187,39.97713],[-5.27216,39.97688],[-5.27216,39.97587],[-5.27196,39.97543],[-5.2695,39.97473],[-5.2691,39.97493],[-5.26683,39.97675],[-5.26038,39.97779],[-5.25999,39.97908],[-5.25958,39.97763],[-5.259,39.97684],[-5.25799,39.97567],[-5.25618,39.97397],[-5.25566,39.97439],[-5.25544,39.975],[-5.25498,39.97565],[-5.253,39.97764],[-5.2518,39.97864],[-5.25104,39.97979],[-5.25091,39.98172],[-5.25052,39.98284],[-5.25016,39.98449],[-5.24848,39.98512],[-5.24711,39.98534],[-5.24588,39.98534],[-5.24399,39.98551],[-5.24344,39.98546]]],[[[-5.10065,39.956],[-5.09968,39.95544],[-5.09928,39.95579],[-5.09911,39.95574],[-5.09908,39.95522],[-5.09879,39.95498],[-5.09827,39.95475],[-5.0981,39.95429],[-5.0978,39.95416],[-5.09796,39.95355],[-5.09789,39.95323],[-5.09754,39.95293],[-5.09708,39.95283],[-5.09666,39.95295],[-5.09638,39.95251],[-5.096,39.95244],[-5.09565,39.95253],[-5.0954,39.95244],[-5.09507,39.95211],[-5.09496,39.95172],[-5.09524,39.9508],[-5.09533,39.9497],[-5.09559,39.94878],[-5.09485,39.94784],[-5.09457,39.94709],[-5.09421,39.94692],[-5.09353,39.9463],[-5.09235,39.94561],[-5.0919,39.94506],[-5.0918,39.94455],[-5.09197,39.94388],[-5.09227,39.94334],[-5.09227,39.94308],[-5.09155,39.94255],[-5.09108,39.94198],[-5.09086,39.94144],[-5.09061,39.94129],[-5.08996,39.94142],[-5.08952,39.94132],[-5.08935,39.94099],[-5.08916,39.94009],[-5.08858,39.93997],[-5.08797,39.9394],[-5.08711,39.93931],[-5.08671,39.93914],[-5.08624,39.93916],[-5.08592,39.93909],[-5.08559,39.93888],[-5.08518,39.93882],[-5.08462,39.93894],[-5.08362,39.93889],[-5.08369,39.93839],[-5.08389,39.93806],[-5.08639,39.93651],[-5.08755,39.93566],[-5.09284,39.93127],[-5.09527,39.92961],[-5.09698,39.92882],[-5.09792,39.92849],[-5.0981,39.92802],[-5.09802,39.92561],[-5.09825,39.92402],[-5.0982,39.92321],[-5.10415,39.92374],[-5.10701,39.92426],[-5.11106,39.9246],[-5.11302,39.92458],[-5.11391,39.92473],[-5.11623,39.92533],[-5.11772,39.9258],[-5.11987,39.92581],[-5.12407,39.92608],[-5.12762,39.92619],[-5.12843,39.92628],[-5.12986,39.92678],[-5.12803,39.93063],[-5.12763,39.93219],[-5.12793,39.93255],[-5.1292,39.933],[-5.12976,39.93385],[-5.12973,39.93418],[-5.12937,39.93489],[-5.1295,39.93657],[-5.12939,39.93702],[-5.12941,39.93795],[-5.1296,39.93869],[-5.12928,39.93943],[-5.1294,39.94039],[-5.12922,39.94063],[-5.12876,39.94083],[-5.12855,39.94102],[-5.12849,39.94152],[-5.12823,39.94169],[-5.12794,39.94175],[-5.12787,39.94211],[-5.12739,39.94272],[-5.12641,39.94346],[-5.12613,39.94379],[-5.12588,39.94459],[-5.12545,39.94492],[-5.12496,39.94552],[-5.12462,39.94584],[-5.12401,39.94617],[-5.12323,39.94686],[-5.12205,39.94733],[-5.1219,39.94749],[-5.12184,39.94809],[-5.12138,39.94842],[-5.12126,39.94874],[-5.121,39.94895],[-5.11881,39.9494],[-5.1193,39.94962],[-5.11948,39.94983],[-5.11939,39.94996],[-5.11841,39.95046],[-5.11706,39.95185],[-5.11657,39.9522],[-5.11614,39.95237],[-5.11566,39.95242],[-5.11577,39.95262],[-5.11566,39.95288],[-5.11533,39.95311],[-5.11425,39.95326],[-5.11318,39.95372],[-5.10827,39.95497],[-5.10617,39.95577],[-5.10416,39.95601],[-5.10065,39.956]]]]}}]}