{"type":"FeatureCollection","features":[{"type":"Feature","properties":{"id":"4513301001"},"geometry":{"type":"Polygon","coordinates":[[[-4.17328,39.86117],[-4.17701,39.85099],[-4.17776,39.8494],[-4.17906,39.84753],[-4.17888,39.84416],[-4.17778,39.84031],[-4.17806,39.83973],[-4.18013,39.83967],[-4.18188,39.84028],[-4.18436,39.83829],[-4.18539,39.83685],[-4.18655,39.83645],[-4.18716,39.83544],[-4.18762,39.83492],[-4.18836,39.83432],[-4.18861,39.8342],[-4.18957,39.83422],[-4.19077,39.83394],[-4.19121,39.83347],[-4.19201,39.83175],[-4.19272,39.83225],[-4.1945,39.83118],[-4.19411,39.83031],[-4.19662,39.82682],[-4.19708,39.82318],[-4.19777,39.81962],[-4.19846,39.81897],[-4.19852,39.81659],[-4.19881,39.81514],[-4.19885,39.81418],[-4.19852,39.81208],[-4.1977,39.80853],[-4.19664,39.80651],[-4.1962,39.80614],[-4.1937,39.80538],[-4.19284,39.80542],[-4.19254,39.80533],[-4.1908,39.80432],[-4.18981,39.80438],[-4.18762,39.8039],[-4.18235,39.80469],[-4.17777,39.8049],[-4.17031,39.80837],[-4.17023,39.80684],[-4.16952,39.80683],[-4.16822,39.80706],[-4.16602,39.8051],[-4.16515,39.80392],[-4.16411,39.80277],[-4.1622,39.80134],[-4.15878,39.79947],[-4.15447,39.7967],[-4.15314,39.79542],[-4.1624,39.79079],[-4.16653,39.78847],[-4.1694,39.78748],[-4.17099,39.78722],[-4.17172,39.78705],[-4.17217,39.78684],[-4.18439,39.77905],[-4.19693,39.77068],[-4.20993,39.7622],[-4.21282,39.75743],[-4.21375,39.75616],[-4.21399,39.75285],[-4.20943,39.74812],[-4.2084,39.74671],[-4.20941,39.74677],[-4.21185,39.74347],[-4.21261,39.74304],[-4.21289,39.74244],[-4.21588,39.74003],[-4.22577,39.73509],[-4.22637,39.7343],[-4.22754,39.7336],[-4.22966,39.73181],[-4.23235,39.72987],[-4.23121,39.72912],[-4.23164,39.72853],[-4.23526,39.726],[-4.23808,39.72473],[-4.23885,39.72473],[-4.24217,39.72291],[-4.24402,39.72317],[-4.24471,39.72364],[-4.24672,39.72432],[-4.24755,39.72481],[-4.25139,39.72767],[-4.25217,39.72838],[-4.25338,39.72914],[-4.25492,39.72979],[-4.26441,39.73323],[-4.264,39.73397],[-4.26375,39.73496],[-4.26379,39.73703],[-4.26338,39.7374],[-4.26271,39.73775],[-4.26213,39.73864],[-4.2605,39.74039],[-4.26193,39.74048],[-4.26372,39.7404],[-4.26548,39.74136],[-4.26767,39.74616],[-4.26966,39.74683],[-4.27222,39.74848],[-4.2732,39.74927],[-4.27731,39.7538],[-4.28066,39.75588],[-4.28587,39.7583],[-4.2859,39.75935],[-4.29409,39.76108],[-4.29819,39.7622],[-4.30524,39.76874],[-4.30502,39.7704],[-4.30373,39.77217],[-4.30287,39.77451],[-4.3022,39.77676],[-4.30231,39.78403],[-4.30419,39.78422],[-4.30616,39.78213],[-4.30692,39.7815],[-4.30854,39.78037],[-4.31323,39.77744],[-4.31951,39.77515],[-4.322,39.77469],[-4.32419,39.77415],[-4.32529,39.77421],[-4.32619,39.77457],[-4.32798,39.77374],[-4.32872,39.77329],[-4.32912,39.77225],[-4.33089,39.77143],[-4.33098,39.76994],[-4.33713,39.76876],[-4.3383,39.76948],[-4.33946,39.76922],[-4.3455,39.77063],[-4.34614,39.77098],[-4.34769,39.773],[-4.34865,39.77564],[-4.34897,39.77886],[-4.35218,39.78206],[-4.35264,39.78286],[-4.35315,39.78416],[-4.35331,39.78492],[-4.35551,39.78654],[-4.35565,39.78738],[-4.35695,39.78947],[-4.35793,39.7923],[-4.35923,39.79673],[-4.36428,39.805],[-4.36364,39.80897],[-4.36204,39.81362],[-4.36087,39.81351],[-4.3576,39.81373],[-4.35565,39.81291],[-4.35055,39.81223],[-4.34921,39.81237],[-4.34847,39.81257],[-4.3474,39.8131],[-4.34387,39.81584],[-4.33973,39.81932],[-4.33883,39.81974],[-4.33806,39.81997],[-4.3368,39.81988],[-4.33521,39.81864],[-4.33379,39.81732],[-4.33324,39.81668],[-4.33311,39.81264],[-4.33278,39.81205],[-4.33206,39.81141],[-4.33077,39.81069],[-4.32827,39.80947],[-4.32587,39.80857],[-4.32265,39.80641],[-4.32236,39.80588],[-4.322,39.8044],[-4.32148,39.8034],[-4.3207,39.80257],[-4.31973,39.80195],[-4.3187,39.80153],[-4.31742,39.80146],[-4.31566,39.80191],[-4.314,39.80265],[-4.3129,39.80345],[-4.3115,39.80495],[-4.3095,39.80799],[-4.30941,39.8086],[-4.30976,39.80928],[-4.31248,39.81286],[-4.31305,39.81438],[-4.31324,39.81524],[-4.31333,39.81685],[-4.31309,39.81793],[-4.31252,39.81913],[-4.31166,39.82047],[-4.31096,39.82128],[-4.3102,39.82189],[-4.30868,39.82273],[-4.3069,39.82355],[-4.3055,39.82432],[-4.30489,39.82484],[-4.30431,39.82556],[-4.30362,39.82613],[-4.30268,39.8266],[-4.3005,39.82684],[-4.29668,39.82686],[-4.29338,39.82704],[-4.28977,39.82735],[-4.2868,39.82772],[-4.28481,39.82832],[-4.28407,39.82884],[-4.28392,39.82915],[-4.28421,39.82974],[-4.28554,39.83086],[-4.28827,39.83226],[-4.28893,39.83248],[-4.29447,39.83357],[-4.29774,39.83493],[-4.29842,39.83551],[-4.2994,39.83744],[-4.30141,39.84075],[-4.30172,39.84179],[-4.30168,39.84225],[-4.3012,39.84286],[-4.30071,39.84316],[-4.3001,39.84337],[-4.29808,39.84362],[-4.29584,39.84363],[-4.2943,39.8438],[-4.29239,39.84417],[-4.29011,39.84507],[-4.28891,39.84583],[-4.28795,39.84726],[-4.28782,39.84803],[-4.28804,39.84893],[-4.28876,39.85057],[-4.29058,39.85351],[-4.29076,39.85448],[-4.29061,39.85528],[-4.28986,39.85688],[-4.28929,39.85869],[-4.28915,39.85966],[-4.28945,39.86182],[-4.29029,39.86393],[-4.29032,39.86471],[-4.29012,39.86611],[-4.28939,39.86739],[-4.28869,39.86809],[-4.28777,39.86855],[-4.28698,39.86882],[-4.28495,39.86911],[-4.28438,39.86909],[-4.28298,39.86869],[-4.28056,39.86747],[-4.27928,39.86662],[-4.27801,39.86569],[-4.27704,39.86484],[-4.27632,39.86404],[-4.27572,39.86328],[-4.27475,39.86122],[-4.27381,39.85824],[-4.27358,39.85716],[-4.27392,39.85566],[-4.27393,39.85402],[-4.2735,39.85216],[-4.27316,39.8513],[-4.2726,39.8506],[-4.27204,39.85028],[-4.27134,39.8502],[-4.26911,39.85032],[-4.26828,39.85025],[-4.26733,39.85009],[-4.26562,39.84961],[-4.26372,39.84827],[-4.26315,39.84748],[-4.26267,39.84652],[-4.26253,39.84595],[-4.26307,39.84413],[-4.26415,39.84249],[-4.26524,39.84154],[-4.26749,39.84047],[-4.268,39.84009],[-4.26899,39.83877],[-4.26916,39.83817],[-4.26916,39.83705],[-4.26872,39.83601],[-4.26827,39.83541],[-4.26768,39.83487],[-4.26647,39.83437],[-4.2654,39.83419],[-4.2615,39.83405],[-4.26081,39.83394],[-4.25922,39.83299],[-4.25852,39.83278],[-4.25773,39.83284],[-4.25709,39.83326],[-4.2569,39.83355],[-4.25692,39.83483],[-4.25775,39.83844],[-4.25792,39.83974],[-4.25776,39.84055],[-4.25715,39.84099],[-4.25674,39.84108],[-4.25594,39.84113],[-4.25437,39.84096],[-4.25348,39.84097],[-4.25269,39.84105],[-4.25209,39.84126],[-4.25103,39.84197],[-4.25066,39.8424],[-4.25017,39.84346],[-4.25017,39.84862],[-4.25032,39.85105],[-4.25,39.85342],[-4.24945,39.85553],[-4.24815,39.85789],[-4.24831,39.86235],[-4.24845,39.86263],[-4.24923,39.86336],[-4.24957,39.86412],[-4.24942,39.86515],[-4.24877,39.86605],[-4.24836,39.86638],[-4.24773,39.86662],[-4.24639,39.86686],[-4.24477,39.86674],[-4.24318,39.86622],[-4.2426,39.86578],[-4.24209,39.86525],[-4.24158,39.86446],[-4.23895,39.85864],[-4.23823,39.85787],[-4.23493,39.85531],[-4.23408,39.8548],[-4.23261,39.85411],[-4.2315,39.85371],[-4.2308,39.85361],[-4.22937,39.85363],[-4.22773,39.85388],[-4.22534,39.85376],[-4.22267,39.85341],[-4.22213,39.85345],[-4.22153,39.85363],[-4.22077,39.85436],[-4.21937,39.85674],[-4.21879,39.85754],[-4.21861,39.85844],[-4.21932,39.85949],[-4.22285,39.86115],[-4.224,39.86216],[-4.22441,39.86282],[-4.22498,39.86438],[-4.22489,39.86585],[-4.22465,39.86681],[-4.22434,39.86714],[-4.22253,39.86821],[-4.22236,39.86844],[-4.22183,39.87003],[-4.22156,39.8705],[-4.22116,39.87078],[-4.21914,39.87159],[-4.21819,39.87178],[-4.21271,39.87229],[-4.21068,39.87213],[-4.21005,39.87198],[-4.20813,39.87075],[-4.2068,39.87002],[-4.2063,39.86941],[-4.20608,39.86887],[-4.20604,39.86816],[-4.20621,39.86761],[-4.2072,39.86601],[-4.20733,39.86547],[-4.20732,39.86417],[-4.20689,39.8634],[-4.2065,39.86287],[-4.20603,39.86247],[-4.20547,39.86211],[-4.20468,39.86179],[-4.20392,39.86158],[-4.20287,39.86144],[-4.20188,39.86146],[-4.2002,39.86179],[-4.19942,39.8621],[-4.19862,39.86252],[-4.19788,39.86307],[-4.19571,39.86542],[-4.19314,39.8688],[-4.1913,39.87088],[-4.19052,39.87154],[-4.18998,39.87187],[-4.18939,39.87207],[-4.18859,39.87222],[-4.1878,39.87224],[-4.18762,39.87239],[-4.18459,39.87258],[-4.18389,39.87293],[-4.18329,39.87183],[-4.18238,39.87069],[-4.18111,39.86757],[-4.17943,39.86657],[-4.17842,39.86612],[-4.17558,39.86274],[-4.17483,39.86109],[-4.17328,39.86117]]]}},{"type":"Feature","properties":{"id":"4513302001"},"geometry":{"type":"Polygon","coordinates":[[[-4.13575,39.78209],[-4.13543,39.78112],[-4.13553,39.78082],[-4.13823,39.77847],[-4.14092,39.77635],[-4.14292,39.77494],[-4.1464,39.77076],[-4.15099,39.7668],[-4.15338,39.76458],[-4.15465,39.76361],[-4.15538,39.76325],[-4.1591,39.7609],[-4.15978,39.76057],[-4.16242,39.76013],[-4.16317,39.75975],[-4.16345,39.7594],[-4.16371,39.75821],[-4.16396,39.75806],[-4.16767,39.75793],[-4.16816,39.75759],[-4.16857,39.7571],[-4.16963,39.75686],[-4.17015,39.75624],[-4.17073,39.75594],[-4.17202,39.75575],[-4.17462,39.75582],[-4.17501,39.75592],[-4.17553,39.75637],[-4.17612,39.7572],[-4.17657,39.75821],[-4.17695,39.75966],[-4.17768,39.75956],[-4.17886,39.75915],[-4.18049,39.75894],[-4.18192,39.75851],[-4.18699,39.75746],[-4.19002,39.75773],[-4.19162,39.75839],[-4.19326,39.75929],[-4.19381,39.75941],[-4.19609,39.7594],[-4.19647,39.75955],[-4.19698,39.75996],[-4.19729,39.76085],[-4.19941,39.76096],[-4.204,39.76432],[-4.20676,39.76313],[-4.20993,39.76221],[-4.19693,39.77068],[-4.18439,39.77905],[-4.17217,39.78684],[-4.17172,39.78705],[-4.17099,39.78722],[-4.1694,39.78748],[-4.16653,39.78847],[-4.1624,39.79079],[-4.15682,39.79362],[-4.15318,39.79535],[-4.15325,39.79517],[-4.15397,39.79479],[-4.15393,39.79407],[-4.15337,39.7929],[-4.15252,39.79192],[-4.15193,39.79095],[-4.15127,39.7895],[-4.14838,39.7889],[-4.14649,39.78607],[-4.14535,39.78498],[-4.14405,39.78396],[-4.14327,39.78342],[-4.13575,39.78209]]]}}]}