{"type":"FeatureCollection","features":[{"type":"Feature","properties":{"id":"4516101001"},"geometry":{"type":"Polygon","coordinates":[[[-3.69624,40.1044],[-3.69489,40.10285],[-3.69496,40.10185],[-3.69442,40.10087],[-3.69426,40.09974],[-3.6955,40.09849],[-3.69589,40.09796],[-3.69631,40.09693],[-3.69647,40.09602],[-3.69485,40.09207],[-3.69523,40.08228],[-3.69604,40.08181],[-3.69685,40.08154],[-3.69759,40.08148],[-3.69816,40.0817],[-3.69862,40.08205],[-3.69898,40.08253],[-3.69915,40.08445],[-3.70043,40.08438],[-3.70376,40.08384],[-3.70929,40.08563],[-3.70971,40.08711],[-3.70951,40.0879],[-3.71004,40.08894],[-3.71123,40.08952],[-3.712,40.09081],[-3.71448,40.09101],[-3.71679,40.09273],[-3.71823,40.09354],[-3.71799,40.09408],[-3.71652,40.09449],[-3.71697,40.09569],[-3.71685,40.09625],[-3.71817,40.09749],[-3.72069,40.09867],[-3.72128,40.0984],[-3.72166,40.09913],[-3.72644,40.10002],[-3.72739,40.10161],[-3.72695,40.10263],[-3.72863,40.10467],[-3.72841,40.10553],[-3.70487,40.10506],[-3.70327,40.10517],[-3.70006,40.10478],[-3.69875,40.10475],[-3.69811,40.10466],[-3.69735,40.10434],[-3.69664,40.10432],[-3.69624,40.1044]]]}},{"type":"Feature","properties":{"id":"4516101002"},"geometry":{"type":"Polygon","coordinates":[[[-3.60863,40.08521],[-3.60953,40.08348],[-3.6107,40.08194],[-3.61152,40.08226],[-3.61696,40.08041],[-3.61924,40.0799],[-3.62332,40.08121],[-3.62499,40.08072],[-3.62895,40.07833],[-3.62899,40.07758],[-3.62872,40.07645],[-3.62824,40.07546],[-3.6279,40.07514],[-3.62564,40.0735],[-3.62354,40.07249],[-3.61989,40.07098],[-3.61881,40.0704],[-3.61805,40.06988],[-3.61758,40.06932],[-3.61726,40.06868],[-3.61709,40.06809],[-3.61723,40.06728],[-3.6175,40.06663],[-3.61823,40.06595],[-3.61915,40.06534],[-3.62021,40.06483],[-3.62145,40.06446],[-3.6224,40.06393],[-3.62365,40.06132],[-3.62428,40.06062],[-3.62151,40.05874],[-3.62006,40.05801],[-3.62013,40.05701],[-3.62068,40.05633],[-3.62121,40.05628],[-3.62162,40.05515],[-3.62193,40.0548],[-3.62283,40.05424],[-3.62393,40.05375],[-3.62512,40.05339],[-3.6264,40.05329],[-3.62817,40.05352],[-3.62961,40.05383],[-3.63068,40.05385],[-3.63154,40.05351],[-3.63352,40.05231],[-3.63509,40.05149],[-3.63631,40.05109],[-3.63842,40.05083],[-3.63911,40.05059],[-3.63944,40.05036],[-3.63988,40.04965],[-3.64,40.04916],[-3.64005,40.04854],[-3.63993,40.04724],[-3.63946,40.0463],[-3.63868,40.04547],[-3.63782,40.04486],[-3.63572,40.04372],[-3.63539,40.04346],[-3.63526,40.04313],[-3.63537,40.04276],[-3.63592,40.04183],[-3.63675,40.04103],[-3.63834,40.04033],[-3.63931,40.04022],[-3.64039,40.04027],[-3.64127,40.0405],[-3.64308,40.0411],[-3.64442,40.04181],[-3.64514,40.04196],[-3.64563,40.04202],[-3.64625,40.04196],[-3.64728,40.04162],[-3.64787,40.04119],[-3.64837,40.04061],[-3.64902,40.0394],[-3.64924,40.03881],[-3.6493,40.03682],[-3.64888,40.03456],[-3.64895,40.03358],[-3.64925,40.03259],[-3.64965,40.03219],[-3.65004,40.03196],[-3.65064,40.03176],[-3.65144,40.03164],[-3.65215,40.03164],[-3.65311,40.03178],[-3.65417,40.03205],[-3.65482,40.03234],[-3.65533,40.03263],[-3.65552,40.03288],[-3.65601,40.03463],[-3.65632,40.03533],[-3.65687,40.03607],[-3.6623,40.09256],[-3.66267,40.103],[-3.66275,40.10912],[-3.65643,40.10901],[-3.65644,40.10907],[-3.65156,40.1089],[-3.65133,40.10926],[-3.65098,40.1095],[-3.64877,40.11014],[-3.64662,40.10637],[-3.64576,40.10533],[-3.64466,40.1044],[-3.64378,40.10379],[-3.64099,40.10249],[-3.63923,40.10186],[-3.63589,40.10107],[-3.63514,40.10075],[-3.63397,40.09988],[-3.63351,40.09933],[-3.63298,40.09802],[-3.63297,40.09748],[-3.63316,40.09615],[-3.63378,40.0944],[-3.63396,40.09083],[-3.63316,40.09032],[-3.60863,40.08521]]]}},{"type":"Feature","properties":{"id":"4516101003"},"geometry":{"type":"Polygon","coordinates":[[[-3.69685,40.10756],[-3.69541,40.10656],[-3.69322,40.10564],[-3.69277,40.10512],[-3.69227,40.10428],[-3.6963,40.10441],[-3.69664,40.10432],[-3.69735,40.10434],[-3.69811,40.10466],[-3.69875,40.10475],[-3.70006,40.10478],[-3.70327,40.10517],[-3.70487,40.10506],[-3.72841,40.10553],[-3.73138,40.10547],[-3.73334,40.10531],[-3.73332,40.10598],[-3.7336,40.1075],[-3.73353,40.10884],[-3.73293,40.10993],[-3.73287,40.11254],[-3.73261,40.11297],[-3.73139,40.11422],[-3.73088,40.11505],[-3.72617,40.11339],[-3.71944,40.11292],[-3.71669,40.11305],[-3.71508,40.11284],[-3.71119,40.11276],[-3.70691,40.1133],[-3.7063,40.11331],[-3.70497,40.11313],[-3.7041,40.11282],[-3.70324,40.11213],[-3.70215,40.11156],[-3.70008,40.10975],[-3.69911,40.10947],[-3.6985,40.10918],[-3.69805,40.10865],[-3.69737,40.10826],[-3.69685,40.10756]]]}},{"type":"Feature","properties":{"id":"4516101004"},"geometry":{"type":"Polygon","coordinates":[[[-3.60671,40.10921],[-3.60649,40.10899],[-3.60932,40.10382],[-3.60968,40.1034],[-3.61037,40.10293],[-3.61325,40.10127],[-3.61382,40.10073],[-3.61436,40.09953],[-3.61428,40.09875],[-3.6139,40.09778],[-3.61325,40.09679],[-3.6112,40.09451],[-3.61075,40.09436],[-3.61009,40.09441],[-3.60641,40.09554],[-3.60582,40.09556],[-3.60488,40.09527],[-3.60405,40.09402],[-3.6039,40.09352],[-3.60434,40.09219],[-3.60497,40.09109],[-3.60682,40.08888],[-3.60766,40.08768],[-3.6081,40.08622],[-3.60863,40.08521],[-3.63316,40.09032],[-3.63396,40.09083],[-3.63378,40.0944],[-3.63316,40.09615],[-3.63297,40.09748],[-3.63298,40.09802],[-3.63351,40.09933],[-3.63397,40.09988],[-3.63514,40.10075],[-3.63589,40.10107],[-3.63923,40.10186],[-3.64099,40.10249],[-3.64378,40.10379],[-3.64466,40.1044],[-3.64576,40.10533],[-3.64662,40.10637],[-3.64957,40.11146],[-3.64706,40.11287],[-3.62988,40.11799],[-3.62894,40.11774],[-3.62672,40.11665],[-3.6253,40.11543],[-3.62503,40.11494],[-3.62446,40.11441],[-3.62407,40.11417],[-3.62233,40.11359],[-3.62188,40.11329],[-3.62112,40.11514],[-3.61919,40.11384],[-3.61509,40.11204],[-3.61239,40.11136],[-3.60798,40.10954],[-3.60757,40.10903],[-3.60671,40.10921]]]}},{"type":"Feature","properties":{"id":"4516101005"},"geometry":{"type":"Polygon","coordinates":[[[-3.67162,40.13659],[-3.6754,40.13184],[-3.67709,40.1284],[-3.67767,40.12642],[-3.67788,40.12394],[-3.6775,40.12165],[-3.67659,40.11964],[-3.67622,40.11909],[-3.66349,40.12487],[-3.66095,40.1161],[-3.65964,40.11439],[-3.65773,40.11467],[-3.65643,40.10901],[-3.66275,40.10912],[-3.6627,40.10503],[-3.67488,40.10519],[-3.67484,40.10926],[-3.676,40.10929],[-3.67802,40.11185],[-3.68335,40.10944],[-3.69487,40.10727],[-3.6953,40.10718],[-3.69587,40.10684],[-3.69685,40.10756],[-3.69737,40.10826],[-3.69805,40.10865],[-3.6985,40.10918],[-3.69911,40.10947],[-3.70008,40.10975],[-3.70215,40.11156],[-3.70324,40.11213],[-3.7041,40.11282],[-3.70497,40.11313],[-3.7063,40.11331],[-3.70691,40.1133],[-3.71119,40.11276],[-3.71508,40.11284],[-3.71669,40.11305],[-3.71944,40.11292],[-3.72617,40.11339],[-3.73088,40.11505],[-3.72722,40.12048],[-3.72065,40.12396],[-3.71807,40.12454],[-3.7165,40.12509],[-3.71543,40.12642],[-3.7125,40.13063],[-3.7134,40.13185],[-3.71289,40.13391],[-3.71311,40.13504],[-3.71253,40.13524],[-3.71258,40.13571],[-3.71249,40.13633],[-3.71216,40.13738],[-3.71284,40.13872],[-3.71238,40.13963],[-3.71308,40.14157],[-3.71293,40.14188],[-3.71271,40.14182],[-3.71284,40.14167],[-3.70941,40.14069],[-3.70582,40.13885],[-3.70455,40.13749],[-3.70368,40.13723],[-3.70281,40.13711],[-3.6999,40.13606],[-3.69624,40.13453],[-3.695,40.1338],[-3.69156,40.13296],[-3.68834,40.13286],[-3.68688,40.13316],[-3.68366,40.13244],[-3.68237,40.1343],[-3.68171,40.13497],[-3.67966,40.13633],[-3.67878,40.13745],[-3.67862,40.138],[-3.67808,40.13894],[-3.67571,40.13995],[-3.67046,40.1417],[-3.66942,40.14228],[-3.67014,40.1401],[-3.66942,40.14007],[-3.67162,40.13659]]]}},{"type":"Feature","properties":{"id":"4516101006"},"geometry":{"type":"Polygon","coordinates":[[[-3.62988,40.11799],[-3.64706,40.11287],[-3.64957,40.11146],[-3.64877,40.11014],[-3.65098,40.1095],[-3.65133,40.10926],[-3.65156,40.1089],[-3.65644,40.10907],[-3.65773,40.11467],[-3.65964,40.11439],[-3.66095,40.1161],[-3.66649,40.1352],[-3.66589,40.13544],[-3.66388,40.13271],[-3.66318,40.13148],[-3.66136,40.12955],[-3.66062,40.12836],[-3.6568,40.12788],[-3.65642,40.1254],[-3.6559,40.12506],[-3.65416,40.12462],[-3.6535,40.12522],[-3.65159,40.12477],[-3.6482,40.1243],[-3.64592,40.12269],[-3.6454,40.12242],[-3.64442,40.12237],[-3.64099,40.12046],[-3.63324,40.11889],[-3.62988,40.11799]]]}},{"type":"Feature","properties":{"id":"4516101007"},"geometry":{"type":"Polygon","coordinates":[[[-3.66242,40.09638],[-3.6623,40.09256],[-3.65687,40.03607],[-3.65734,40.0366],[-3.65837,40.03699],[-3.65938,40.03715],[-3.66059,40.03718],[-3.66176,40.03708],[-3.66349,40.03665],[-3.66647,40.03504],[-3.66752,40.03407],[-3.66797,40.0334],[-3.66816,40.03279],[-3.66824,40.03198],[-3.66816,40.03063],[-3.66787,40.02867],[-3.6692,40.02932],[-3.66927,40.03308],[-3.66869,40.03522],[-3.6701,40.03532],[-3.67178,40.03524],[-3.67396,40.03538],[-3.67439,40.03638],[-3.67619,40.03699],[-3.67675,40.03734],[-3.67858,40.0393],[-3.6814,40.04331],[-3.68457,40.04568],[-3.68349,40.04697],[-3.68245,40.04738],[-3.68091,40.0484],[-3.67936,40.05041],[-3.67843,40.05077],[-3.67776,40.05089],[-3.677,40.05188],[-3.67757,40.05318],[-3.6782,40.05429],[-3.6776,40.05507],[-3.67547,40.05858],[-3.67723,40.05978],[-3.67995,40.06201],[-3.68078,40.0623],[-3.68092,40.0637],[-3.68004,40.06487],[-3.6776,40.06558],[-3.67677,40.06602],[-3.67624,40.06645],[-3.67643,40.06697],[-3.67568,40.06773],[-3.6762,40.06935],[-3.67759,40.07068],[-3.68141,40.07199],[-3.68188,40.07163],[-3.68307,40.0719],[-3.68357,40.07283],[-3.6846,40.07394],[-3.68588,40.07482],[-3.68683,40.07616],[-3.68672,40.07724],[-3.68873,40.07822],[-3.68912,40.07896],[-3.68961,40.08046],[-3.69196,40.08043],[-3.6936,40.08109],[-3.69445,40.08164],[-3.69515,40.08233],[-3.69523,40.08228],[-3.69485,40.09207],[-3.69647,40.09602],[-3.69631,40.09693],[-3.69589,40.09796],[-3.6955,40.09849],[-3.69426,40.09974],[-3.69442,40.10087],[-3.69496,40.10185],[-3.69489,40.10284],[-3.69412,40.10251],[-3.69287,40.10148],[-3.6923,40.10132],[-3.69006,40.10105],[-3.66242,40.09638]]]}},{"type":"Feature","properties":{"id":"4516101008"},"geometry":{"type":"Polygon","coordinates":[[[-3.67488,40.10519],[-3.68475,40.10507],[-3.69013,40.10441],[-3.69227,40.10428],[-3.69277,40.10512],[-3.69322,40.10564],[-3.69541,40.10656],[-3.69587,40.10684],[-3.6953,40.10718],[-3.69487,40.10727],[-3.68335,40.10944],[-3.67802,40.11185],[-3.676,40.10929],[-3.67484,40.10926],[-3.67488,40.10519]]]}},{"type":"Feature","properties":{"id":"4516101009"},"geometry":{"type":"Polygon","coordinates":[[[-3.66589,40.13544],[-3.66649,40.1352],[-3.66644,40.13503],[-3.66782,40.13448],[-3.66855,40.13548],[-3.67201,40.13388],[-3.67227,40.13361],[-3.67372,40.13404],[-3.67162,40.13659],[-3.66942,40.14007],[-3.67014,40.1401],[-3.66942,40.14228],[-3.66809,40.1429],[-3.66766,40.14316],[-3.66733,40.14331],[-3.66719,40.14336],[-3.66733,40.14331],[-3.66619,40.1402],[-3.66633,40.13753],[-3.66589,40.13544]]]}},{"type":"Feature","properties":{"id":"4516101010"},"geometry":{"type":"Polygon","coordinates":[[[-3.66644,40.13503],[-3.66609,40.13384],[-3.67113,40.13158],[-3.67167,40.13025],[-3.67601,40.12834],[-3.67644,40.12916],[-3.67586,40.1304],[-3.67602,40.13063],[-3.6754,40.13184],[-3.67372,40.13404],[-3.67227,40.13361],[-3.67201,40.13388],[-3.66855,40.13548],[-3.66782,40.13448],[-3.66644,40.13503]]]}},{"type":"Feature","properties":{"id":"4516101011"},"geometry":{"type":"Polygon","coordinates":[[[-3.67779,40.12339],[-3.67633,40.1234],[-3.67632,40.12461],[-3.67263,40.12616],[-3.67339,40.12718],[-3.67029,40.12851],[-3.67163,40.13029],[-3.67113,40.13158],[-3.66609,40.13384],[-3.66349,40.12487],[-3.67622,40.11909],[-3.67659,40.11964],[-3.6775,40.12165],[-3.67779,40.12339]]]}},{"type":"Feature","properties":{"id":"4516101012"},"geometry":{"type":"Polygon","coordinates":[[[-3.67163,40.13029],[-3.67029,40.12851],[-3.67339,40.12718],[-3.67263,40.12616],[-3.67632,40.12461],[-3.67633,40.1234],[-3.67779,40.12339],[-3.67788,40.12394],[-3.67767,40.12642],[-3.67709,40.1284],[-3.67602,40.13063],[-3.67586,40.1304],[-3.67644,40.12916],[-3.67601,40.12834],[-3.67163,40.13029]]]}},{"type":"Feature","properties":{"id":"4516101013"},"geometry":{"type":"Polygon","coordinates":[[[-3.66242,40.09638],[-3.69006,40.10105],[-3.6923,40.10132],[-3.69287,40.10148],[-3.69412,40.10251],[-3.69503,40.10292],[-3.69624,40.1044],[-3.69169,40.10427],[-3.68475,40.10507],[-3.6833,40.10512],[-3.6758,40.1052],[-3.6627,40.10503],[-3.66242,40.09638]]]}}]}