{"type":"FeatureCollection","features":[{"type":"Feature","properties":{"id":"4517701001"},"geometry":{"type":"Polygon","coordinates":[[[-3.70919,39.45778],[-3.70967,39.45736],[-3.71032,39.45643],[-3.71314,39.45386],[-3.71363,39.45351],[-3.71447,39.45322],[-3.71669,39.45199],[-3.7177,39.45099],[-3.71802,39.45082],[-3.71907,39.45063],[-3.71926,39.45048],[-3.7196,39.45002],[-3.71986,39.44933],[-3.72068,39.4479],[-3.72111,39.44758],[-3.72305,39.44694],[-3.72326,39.4467],[-3.7243,39.44629],[-3.7252,39.4454],[-3.7258,39.44439],[-3.72637,39.44367],[-3.72693,39.44249],[-3.72732,39.43959],[-3.72732,39.43911],[-3.72686,39.43799],[-3.72662,39.43655],[-3.72685,39.43585],[-3.72685,39.43541],[-3.72648,39.43359],[-3.72668,39.43133],[-3.72653,39.43107],[-3.7262,39.43084],[-3.72492,39.43055],[-3.72397,39.43],[-3.72133,39.42881],[-3.72094,39.42845],[-3.72033,39.42815],[-3.71922,39.4278],[-3.71861,39.4275],[-3.71835,39.42716],[-3.718,39.42608],[-3.71704,39.42453],[-3.71676,39.42294],[-3.7156,39.42096],[-3.71552,39.42025],[-3.71664,39.41995],[-3.71605,39.4193],[-3.71678,39.41906],[-3.71711,39.41869],[-3.71798,39.41844],[-3.71648,39.41588],[-3.71683,39.41573],[-3.7162,39.41441],[-3.7165,39.41394],[-3.71631,39.41312],[-3.71616,39.4129],[-3.71619,39.41234],[-3.71608,39.41177],[-3.71555,39.41118],[-3.71541,39.41065],[-3.71541,39.41044],[-3.71596,39.40928],[-3.71641,39.40737],[-3.71752,39.40663],[-3.71791,39.40626],[-3.71729,39.40584],[-3.71718,39.40551],[-3.71724,39.40512],[-3.71761,39.40433],[-3.71763,39.40358],[-3.71753,39.40325],[-3.71675,39.40274],[-3.71574,39.40257],[-3.71542,39.40224],[-3.71524,39.40182],[-3.71497,39.39521],[-3.71256,39.389],[-3.71133,39.38669],[-3.71141,39.3865],[-3.71257,39.3854],[-3.71238,39.38418],[-3.71176,39.38283],[-3.69148,39.35165],[-3.69129,39.35146],[-3.6903,39.35115],[-3.68713,39.34884],[-3.68682,39.34847],[-3.68576,39.34628],[-3.68472,39.34483],[-3.68219,39.34241],[-3.68178,39.3421],[-3.6811,39.34188],[-3.68101,39.34177],[-3.68102,39.3416],[-3.68116,39.34146],[-3.68188,39.34127],[-3.68222,39.34079],[-3.68221,39.33967],[-3.68183,39.33878],[-3.68215,39.33833],[-3.68241,39.33764],[-3.68233,39.33674],[-3.68317,39.33636],[-3.68334,39.33611],[-3.68267,39.33457],[-3.68296,39.33405],[-3.68299,39.33361],[-3.68281,39.33342],[-3.68198,39.33299],[-3.68173,39.33271],[-3.68163,39.33236],[-3.68166,39.33202],[-3.6818,39.33167],[-3.68286,39.331],[-3.68336,39.33042],[-3.68397,39.32922],[-3.68396,39.32902],[-3.68383,39.32881],[-3.68341,39.32862],[-3.6825,39.32838],[-3.68157,39.3283],[-3.68033,39.32847],[-3.67777,39.32942],[-3.67191,39.32885],[-3.67121,39.32868],[-3.671,39.32849],[-3.6703,39.32753],[-3.67001,39.32669],[-3.67105,39.3243],[-3.67195,39.32322],[-3.67284,39.32136],[-3.67382,39.32011],[-3.67634,39.31934],[-3.68153,39.31797],[-3.68202,39.31776],[-3.68443,39.3148],[-3.68554,39.31226],[-3.6858,39.31207],[-3.68721,39.31157],[-3.6875,39.31096],[-3.68785,39.30945],[-3.68792,39.30855],[-3.68809,39.2978],[-3.68774,39.29703],[-3.68806,39.29608],[-3.68768,39.2953],[-3.68683,39.29484],[-3.68678,39.29461],[-3.68893,39.29141],[-3.68927,39.29079],[-3.68937,39.29001],[-3.68915,39.28934],[-3.68827,39.28825],[-3.68813,39.28789],[-3.68782,39.28522],[-3.68814,39.28486],[-3.69238,39.28259],[-3.69382,39.28126],[-3.69493,39.28066],[-3.69614,39.28009],[-3.70023,39.27887],[-3.70128,39.27759],[-3.70319,39.27733],[-3.70891,39.27518],[-3.71268,39.27306],[-3.71376,39.27274],[-3.71488,39.27256],[-3.72046,39.27069],[-3.72069,39.26979],[-3.72252,39.26961],[-3.72371,39.27131],[-3.72429,39.27194],[-3.72499,39.27233],[-3.72743,39.27317],[-3.72843,39.27363],[-3.72927,39.27413],[-3.73009,39.27479],[-3.73536,39.2749],[-3.73754,39.27538],[-3.73961,39.27619],[-3.74067,39.27632],[-3.74308,39.2803],[-3.74344,39.282],[-3.74677,39.28387],[-3.74944,39.2855],[-3.75302,39.28696],[-3.75692,39.29006],[-3.75816,39.28993],[-3.75957,39.29124],[-3.76032,39.29169],[-3.76245,39.29225],[-3.76443,39.29302],[-3.7657,39.29332],[-3.76909,39.29343],[-3.77879,39.29312],[-3.78319,39.29264],[-3.78429,39.29261],[-3.78862,39.29287],[-3.79121,39.29289],[-3.79292,39.29224],[-3.79477,39.29281],[-3.79554,39.29323],[-3.79723,39.29772],[-3.79898,39.30082],[-3.80099,39.30402],[-3.80296,39.30667],[-3.80443,39.30994],[-3.80653,39.31349],[-3.8077,39.31574],[-3.80845,39.31746],[-3.80964,39.31937],[-3.81081,39.32161],[-3.81227,39.3258],[-3.81279,39.32681],[-3.81353,39.33238],[-3.81342,39.33303],[-3.81166,39.33661],[-3.8101,39.34271],[-3.80915,39.34801],[-3.80869,39.3514],[-3.8087,39.35371],[-3.80793,39.35832],[-3.80682,39.36954],[-3.80608,39.37114],[-3.80561,39.37517],[-3.80531,39.37647],[-3.80419,39.37888],[-3.80315,39.38032],[-3.80216,39.38237],[-3.80109,39.38641],[-3.80099,39.38845],[-3.80066,39.3902],[-3.79948,39.39287],[-3.79841,39.39645],[-3.79825,39.39679],[-3.79735,39.39798],[-3.79412,39.40161],[-3.78665,39.40919],[-3.78644,39.41104],[-3.78572,39.4149],[-3.78531,39.41595],[-3.78446,39.41702],[-3.78309,39.41918],[-3.78146,39.4211],[-3.78025,39.42323],[-3.78031,39.42402],[-3.77789,39.42819],[-3.77393,39.43437],[-3.77366,39.43494],[-3.77336,39.43578],[-3.77307,39.43856],[-3.77209,39.44133],[-3.77139,39.44369],[-3.7708,39.44594],[-3.77057,39.44729],[-3.76929,39.45169],[-3.76796,39.45153],[-3.76523,39.45151],[-3.7632,39.45189],[-3.7587,39.45205],[-3.75774,39.45225],[-3.75594,39.45291],[-3.75535,39.45303],[-3.75111,39.45285],[-3.74931,39.45318],[-3.74585,39.45363],[-3.74275,39.45459],[-3.74205,39.45471],[-3.73743,39.45517],[-3.73589,39.45491],[-3.73492,39.4549],[-3.73293,39.45504],[-3.7299,39.45557],[-3.72595,39.45565],[-3.7239,39.45622],[-3.72055,39.45755],[-3.71986,39.45769],[-3.71858,39.45763],[-3.71601,39.459],[-3.71529,39.45968],[-3.71346,39.46025],[-3.71165,39.46126],[-3.70831,39.46231],[-3.7083,39.46174],[-3.70812,39.4614],[-3.70839,39.461],[-3.70862,39.45928],[-3.70919,39.45778]]]}},{"type":"Feature","properties":{"id":"4517702001"},"geometry":{"type":"Polygon","coordinates":[[[-3.70839,39.461],[-3.70812,39.4614],[-3.7083,39.46174],[-3.70831,39.46231],[-3.70657,39.46289],[-3.7029,39.46436],[-3.69856,39.46334],[-3.69768,39.46303],[-3.69638,39.4617],[-3.69279,39.45875],[-3.69084,39.45778],[-3.6882,39.4559],[-3.68617,39.45487],[-3.68611,39.4545],[-3.68637,39.45329],[-3.68684,39.45214],[-3.68678,39.45166],[-3.68524,39.449],[-3.68254,39.44348],[-3.68178,39.44227],[-3.67668,39.43514],[-3.66537,39.41851],[-3.66292,39.41446],[-3.66125,39.41141],[-3.66113,39.41096],[-3.66055,39.40144],[-3.66081,39.39504],[-3.66122,39.38933],[-3.66102,39.38698],[-3.65965,39.3837],[-3.65921,39.38217],[-3.65853,39.37793],[-3.65458,39.36293],[-3.65467,39.36237],[-3.65757,39.3556],[-3.65518,39.34312],[-3.65741,39.33747],[-3.6592,39.33355],[-3.65919,39.33309],[-3.65892,39.33268],[-3.65748,39.33149],[-3.65726,39.33108],[-3.65724,39.33055],[-3.65741,39.32968],[-3.65798,39.32903],[-3.65916,39.32708],[-3.66019,39.3258],[-3.66102,39.3256],[-3.66128,39.3254],[-3.6617,39.3248],[-3.66234,39.32297],[-3.66256,39.32197],[-3.6627,39.32009],[-3.66263,39.31958],[-3.66136,39.31728],[-3.66117,39.31676],[-3.66112,39.31508],[-3.66052,39.30998],[-3.65985,39.30908],[-3.65992,39.30828],[-3.65902,39.30704],[-3.65905,39.30625],[-3.65846,39.30506],[-3.65782,39.30091],[-3.65743,39.30015],[-3.65749,39.29933],[-3.66289,39.29854],[-3.66509,39.29773],[-3.66878,39.29797],[-3.66961,39.29786],[-3.67462,39.29665],[-3.67607,39.29674],[-3.67675,39.2969],[-3.68019,39.29828],[-3.68015,39.29786],[-3.67966,39.29682],[-3.6791,39.29505],[-3.67911,39.29412],[-3.67949,39.29326],[-3.67974,39.29207],[-3.68344,39.29045],[-3.68376,39.29023],[-3.68666,39.28652],[-3.68782,39.28522],[-3.68813,39.28789],[-3.68827,39.28825],[-3.68915,39.28934],[-3.68937,39.29001],[-3.68927,39.29079],[-3.68893,39.29141],[-3.68678,39.29461],[-3.68683,39.29484],[-3.68768,39.2953],[-3.68806,39.29608],[-3.68774,39.29703],[-3.68809,39.2978],[-3.68792,39.30855],[-3.68785,39.30945],[-3.6875,39.31096],[-3.68721,39.31157],[-3.6858,39.31207],[-3.68554,39.31226],[-3.68443,39.3148],[-3.68202,39.31776],[-3.68153,39.31797],[-3.67634,39.31934],[-3.67382,39.32011],[-3.67284,39.32136],[-3.67195,39.32322],[-3.67105,39.3243],[-3.67001,39.32669],[-3.6703,39.32753],[-3.671,39.32849],[-3.67121,39.32868],[-3.67191,39.32885],[-3.67777,39.32942],[-3.68033,39.32847],[-3.68157,39.3283],[-3.6825,39.32838],[-3.68341,39.32862],[-3.68383,39.32881],[-3.68396,39.32902],[-3.68397,39.32922],[-3.68336,39.33042],[-3.68286,39.331],[-3.6818,39.33167],[-3.68166,39.33202],[-3.68163,39.33236],[-3.68173,39.33271],[-3.68198,39.33299],[-3.68281,39.33342],[-3.68299,39.33361],[-3.68296,39.33405],[-3.68267,39.33457],[-3.68334,39.33611],[-3.68317,39.33636],[-3.68233,39.33674],[-3.68241,39.33764],[-3.68215,39.33833],[-3.68183,39.33878],[-3.68221,39.33967],[-3.68222,39.34079],[-3.68188,39.34127],[-3.68116,39.34146],[-3.68102,39.3416],[-3.68101,39.34177],[-3.6811,39.34188],[-3.68178,39.3421],[-3.68219,39.34241],[-3.68472,39.34483],[-3.68576,39.34628],[-3.68682,39.34847],[-3.68713,39.34884],[-3.6903,39.35115],[-3.69129,39.35146],[-3.69148,39.35165],[-3.71176,39.38283],[-3.71238,39.38418],[-3.71257,39.3854],[-3.71141,39.3865],[-3.71133,39.38669],[-3.71256,39.389],[-3.71497,39.39521],[-3.71524,39.40182],[-3.71542,39.40224],[-3.71574,39.40257],[-3.71675,39.40274],[-3.71753,39.40325],[-3.71763,39.40358],[-3.71761,39.40433],[-3.71724,39.40512],[-3.71718,39.40551],[-3.71729,39.40584],[-3.71791,39.40626],[-3.71752,39.40663],[-3.71641,39.40737],[-3.71596,39.40928],[-3.71541,39.41044],[-3.71541,39.41065],[-3.71555,39.41118],[-3.71608,39.41177],[-3.71619,39.41234],[-3.71616,39.4129],[-3.71631,39.41312],[-3.7165,39.41394],[-3.7162,39.41441],[-3.71683,39.41573],[-3.71648,39.41588],[-3.71798,39.41844],[-3.71711,39.41869],[-3.71678,39.41906],[-3.71605,39.4193],[-3.71664,39.41995],[-3.71552,39.42025],[-3.7156,39.42096],[-3.71676,39.42294],[-3.71704,39.42453],[-3.718,39.42608],[-3.71835,39.42716],[-3.71861,39.4275],[-3.71922,39.4278],[-3.72033,39.42815],[-3.72094,39.42845],[-3.72133,39.42881],[-3.72397,39.43],[-3.72492,39.43055],[-3.7262,39.43084],[-3.72653,39.43107],[-3.72668,39.43133],[-3.72648,39.43359],[-3.72685,39.43541],[-3.72685,39.43585],[-3.72662,39.43655],[-3.72686,39.43799],[-3.72732,39.43911],[-3.72732,39.43959],[-3.72693,39.44249],[-3.72637,39.44367],[-3.7258,39.44439],[-3.7252,39.4454],[-3.7243,39.44629],[-3.72326,39.4467],[-3.72305,39.44694],[-3.72111,39.44758],[-3.72068,39.4479],[-3.71986,39.44933],[-3.7196,39.45002],[-3.71926,39.45048],[-3.71907,39.45063],[-3.71802,39.45082],[-3.7177,39.45099],[-3.71642,39.45216],[-3.71447,39.45322],[-3.71363,39.45351],[-3.71314,39.45386],[-3.71187,39.45507],[-3.71146,39.45532],[-3.71032,39.45643],[-3.70967,39.45736],[-3.70919,39.45778],[-3.70862,39.45928],[-3.70839,39.461]]]}}]}