{"type":"FeatureCollection","features":[{"type":"Feature","properties":{"id":"4517301001"},"geometry":{"type":"Polygon","coordinates":[[[-4.2861,39.9836],[-4.28592,39.98285],[-4.28594,39.98186],[-4.28523,39.9803],[-4.28473,39.9796],[-4.28475,39.97949],[-4.28637,39.97976],[-4.28829,39.9788],[-4.29023,39.97726],[-4.29233,39.97592],[-4.29632,39.97295],[-4.29832,39.97363],[-4.29985,39.97396],[-4.30046,39.97401],[-4.30269,39.97397],[-4.30837,39.97347],[-4.30919,39.97307],[-4.30974,39.97476],[-4.31032,39.97569],[-4.31062,39.97576],[-4.31291,39.97962],[-4.31148,39.97987],[-4.30913,39.98012],[-4.30757,39.9804],[-4.30306,39.98151],[-4.30117,39.98172],[-4.29952,39.98202],[-4.2991,39.98204],[-4.29672,39.98177],[-4.2952,39.98201],[-4.29318,39.98217],[-4.29095,39.9819],[-4.28892,39.98202],[-4.28852,39.98214],[-4.28846,39.98304],[-4.28828,39.98363],[-4.28773,39.98353],[-4.28732,39.9836],[-4.2861,39.9836]]]}},{"type":"Feature","properties":{"id":"4517301002"},"geometry":{"type":"Polygon","coordinates":[[[-4.27713,40.00511],[-4.278,39.99451],[-4.28226,39.98358],[-4.28276,39.98269],[-4.28333,39.98263],[-4.28355,39.98282],[-4.28453,39.98327],[-4.28549,39.98354],[-4.28669,39.98361],[-4.28797,39.98353],[-4.28828,39.98363],[-4.28846,39.98304],[-4.28852,39.98214],[-4.28892,39.98202],[-4.29095,39.9819],[-4.29318,39.98217],[-4.2952,39.98201],[-4.29672,39.98177],[-4.2991,39.98204],[-4.29952,39.98202],[-4.30117,39.98172],[-4.30306,39.98151],[-4.30757,39.9804],[-4.30913,39.98012],[-4.31148,39.97987],[-4.31291,39.97962],[-4.31836,39.9884],[-4.3186,39.98903],[-4.31943,39.99052],[-4.3194,39.9911],[-4.31915,39.99263],[-4.31776,39.99364],[-4.31428,39.99553],[-4.31369,39.99597],[-4.31158,39.99819],[-4.31121,39.99863],[-4.31081,39.99946],[-4.31011,40.00025],[-4.30967,40.00058],[-4.30918,40.00084],[-4.30824,40.0006],[-4.30739,40.00063],[-4.306,40.00105],[-4.30347,40.00112],[-4.29975,40.00064],[-4.29751,39.9999],[-4.29588,39.99976],[-4.2904,39.99882],[-4.28983,40.00024],[-4.28874,40.00156],[-4.2848,40.00475],[-4.28301,40.00725],[-4.27955,40.00573],[-4.27713,40.00511]]]}},{"type":"Feature","properties":{"id":"4517301003"},"geometry":{"type":"Polygon","coordinates":[[[-4.27035,40.00091],[-4.27218,39.99887],[-4.27405,39.99628],[-4.27557,39.99351],[-4.27767,39.99168],[-4.2786,39.98959],[-4.28125,39.98287],[-4.28139,39.98272],[-4.28276,39.98269],[-4.28226,39.98358],[-4.278,39.99451],[-4.27713,40.00511],[-4.2733,40.00291],[-4.27035,40.00091]]]}},{"type":"Feature","properties":{"id":"4517301004"},"geometry":{"type":"Polygon","coordinates":[[[-4.28333,39.98263],[-4.28139,39.98272],[-4.28233,39.98113],[-4.2831,39.97869],[-4.28701,39.97943],[-4.28637,39.97976],[-4.28475,39.97949],[-4.28473,39.9796],[-4.28523,39.9803],[-4.28594,39.98186],[-4.28592,39.98285],[-4.2861,39.9836],[-4.28549,39.98354],[-4.28453,39.98327],[-4.28355,39.98282],[-4.28333,39.98263]]]}},{"type":"Feature","properties":{"id":"4517302001"},"geometry":{"type":"Polygon","coordinates":[[[-4.25246,39.97404],[-4.25088,39.97318],[-4.27735,39.97778],[-4.2826,39.98046],[-4.28233,39.98113],[-4.28139,39.98272],[-4.28056,39.98269],[-4.27832,39.98165],[-4.27905,39.98071],[-4.27531,39.98026],[-4.27457,39.97991],[-4.27372,39.97971],[-4.26425,39.97772],[-4.25246,39.97404]]]}},{"type":"Feature","properties":{"id":"4517302002"},"geometry":{"type":"Polygon","coordinates":[[[-4.25088,39.97318],[-4.25093,39.97288],[-4.24915,39.97207],[-4.24883,39.97179],[-4.24814,39.96869],[-4.24781,39.96785],[-4.24822,39.96755],[-4.24811,39.96716],[-4.24947,39.9664],[-4.25332,39.96595],[-4.25941,39.96474],[-4.2604,39.96446],[-4.26232,39.96423],[-4.26407,39.96379],[-4.2657,39.96359],[-4.26784,39.96318],[-4.27021,39.96239],[-4.27207,39.96207],[-4.27283,39.96205],[-4.27547,39.96259],[-4.27803,39.96297],[-4.27836,39.96314],[-4.28076,39.96544],[-4.28062,39.9661],[-4.28085,39.96652],[-4.28126,39.96639],[-4.28177,39.96638],[-4.28236,39.96659],[-4.28318,39.9671],[-4.28314,39.96764],[-4.28758,39.96886],[-4.28877,39.96932],[-4.29023,39.9697],[-4.29262,39.97073],[-4.29402,39.97155],[-4.29502,39.9724],[-4.29632,39.97295],[-4.29233,39.97592],[-4.29023,39.97726],[-4.28829,39.9788],[-4.28701,39.97943],[-4.2831,39.97869],[-4.2826,39.98046],[-4.27735,39.97778],[-4.25088,39.97318]]]}},{"type":"Feature","properties":{"id":"4517302003"},"geometry":{"type":"Polygon","coordinates":[[[-4.26387,39.98726],[-4.26383,39.98495],[-4.26331,39.98454],[-4.2628,39.98276],[-4.26145,39.98007],[-4.26035,39.97961],[-4.26049,39.97879],[-4.25912,39.97798],[-4.25917,39.97731],[-4.25761,39.97672],[-4.2545,39.97521],[-4.25246,39.97404],[-4.26425,39.97772],[-4.27372,39.97971],[-4.27457,39.97991],[-4.27531,39.98026],[-4.27905,39.98071],[-4.27832,39.98165],[-4.28056,39.98269],[-4.28139,39.98272],[-4.28085,39.98395],[-4.28022,39.98381],[-4.28012,39.98401],[-4.27757,39.9834],[-4.27711,39.98415],[-4.27493,39.9849],[-4.27092,39.98646],[-4.26937,39.98685],[-4.26771,39.98739],[-4.26387,39.98726]]]}},{"type":"Feature","properties":{"id":"4517302004"},"geometry":{"type":"Polygon","coordinates":[[[-4.26454,39.9974],[-4.26259,39.99643],[-4.26283,39.99613],[-4.26466,39.99459],[-4.265,39.99413],[-4.26626,39.99173],[-4.26537,39.98985],[-4.26483,39.9889],[-4.2642,39.98806],[-4.26387,39.98726],[-4.26771,39.98739],[-4.26824,39.98725],[-4.26937,39.98685],[-4.27092,39.98646],[-4.27493,39.9849],[-4.27711,39.98415],[-4.27757,39.9834],[-4.28012,39.98401],[-4.28022,39.98381],[-4.28085,39.98395],[-4.2786,39.98959],[-4.27767,39.99168],[-4.27557,39.99351],[-4.27405,39.99628],[-4.27218,39.99887],[-4.27035,40.00091],[-4.26814,39.99938],[-4.26454,39.9974]]]}}]}