{"type":"FeatureCollection","features":[{"type":"Feature","properties":{"id":"4518701001"},"geometry":{"type":"Polygon","coordinates":[[[-3.36301,39.42693],[-3.36173,39.42682],[-3.35946,39.42701],[-3.35794,39.42679],[-3.35806,39.42741],[-3.35871,39.42872],[-3.36029,39.43017],[-3.3609,39.43642],[-3.36008,39.44175],[-3.35995,39.44324],[-3.35854,39.44752],[-3.35753,39.45015],[-3.35745,39.45075],[-3.35749,39.45283],[-3.35708,39.45629],[-3.35686,39.45701],[-3.35583,39.45932],[-3.35556,39.46023],[-3.35564,39.46114],[-3.35674,39.46494],[-3.358,39.46729],[-3.35816,39.46818],[-3.35478,39.5012],[-3.34552,39.5036],[-3.33113,39.50817],[-3.33004,39.50023],[-3.33008,39.49722],[-3.32955,39.49261],[-3.32916,39.4916],[-3.32947,39.49106],[-3.32905,39.49036],[-3.32934,39.48918],[-3.32918,39.48865],[-3.3287,39.48822],[-3.32693,39.48709],[-3.32467,39.48434],[-3.32408,39.48396],[-3.32397,39.48362],[-3.32433,39.48272],[-3.32314,39.48178],[-3.3225,39.48157],[-3.32081,39.48144],[-3.32042,39.48132],[-3.3203,39.48113],[-3.32063,39.48],[-3.32134,39.47975],[-3.3214,39.47962],[-3.32105,39.47946],[-3.32062,39.47944],[-3.31904,39.4803],[-3.31849,39.4804],[-3.31811,39.48033],[-3.31781,39.47954],[-3.31746,39.47925],[-3.3166,39.47905],[-3.31548,39.47853],[-3.31498,39.47842],[-3.31398,39.4785],[-3.31346,39.47752],[-3.31301,39.47732],[-3.31266,39.47724],[-3.31109,39.47772],[-3.3087,39.47696],[-3.3059,39.4762],[-3.30265,39.47544],[-3.30126,39.47521],[-3.29929,39.47405],[-3.29756,39.47343],[-3.29689,39.47307],[-3.2964,39.4726],[-3.29591,39.4714],[-3.29536,39.47101],[-3.29471,39.47082],[-3.2942,39.47084],[-3.29386,39.46966],[-3.29433,39.4693],[-3.29445,39.46903],[-3.29464,39.46758],[-3.2962,39.46544],[-3.29698,39.46403],[-3.29711,39.46228],[-3.29701,39.46049],[-3.2973,39.46003],[-3.29807,39.45923],[-3.29927,39.45659],[-3.29958,39.45628],[-3.30195,39.45498],[-3.30225,39.45461],[-3.30307,39.45079],[-3.30343,39.45017],[-3.3047,39.44847],[-3.30631,39.44699],[-3.30858,39.4453],[-3.30957,39.44307],[-3.3107,39.44187],[-3.3116,39.44283],[-3.31279,39.44379],[-3.31416,39.44454],[-3.31512,39.44543],[-3.31568,39.4456],[-3.31655,39.44566],[-3.3182,39.44627],[-3.31869,39.44631],[-3.32005,39.44564],[-3.32367,39.44457],[-3.32488,39.44456],[-3.32684,39.44424],[-3.32854,39.44365],[-3.33201,39.44203],[-3.33306,39.44136],[-3.33577,39.44022],[-3.33707,39.43913],[-3.33778,39.43882],[-3.3408,39.43799],[-3.34342,39.43759],[-3.34467,39.43755],[-3.35532,39.42665],[-3.35818,39.42609],[-3.36072,39.426],[-3.36266,39.42618],[-3.36301,39.42693]]]}},{"type":"Feature","properties":{"id":"4518701002"},"geometry":{"type":"Polygon","coordinates":[[[-3.36301,39.42693],[-3.36266,39.42618],[-3.36072,39.426],[-3.35818,39.42609],[-3.35572,39.42651],[-3.3555,39.42375],[-3.354,39.4232],[-3.35245,39.42226],[-3.34697,39.41787],[-3.34063,39.41352],[-3.33657,39.41103],[-3.33449,39.41048],[-3.33273,39.41032],[-3.33146,39.40939],[-3.32931,39.40698],[-3.32838,39.40495],[-3.33058,39.40537],[-3.33946,39.40755],[-3.34306,39.40807],[-3.34498,39.4082],[-3.34956,39.40831],[-3.35204,39.40824],[-3.35622,39.40784],[-3.36611,39.40749],[-3.36991,39.40721],[-3.39212,39.40511],[-3.39611,39.40482],[-3.40161,39.40417],[-3.40563,39.40419],[-3.41028,39.40459],[-3.41034,39.40508],[-3.41189,39.40968],[-3.41287,39.4121],[-3.41527,39.4156],[-3.42223,39.42627],[-3.42415,39.42969],[-3.42038,39.42887],[-3.41004,39.42873],[-3.40424,39.42897],[-3.39882,39.42871],[-3.39375,39.4288],[-3.38813,39.42874],[-3.38318,39.42829],[-3.37769,39.42803],[-3.37221,39.42828],[-3.3685,39.4277],[-3.3672,39.42737],[-3.36347,39.42739],[-3.36301,39.42693]]]}},{"type":"Feature","properties":{"id":"4518701003"},"geometry":{"type":"Polygon","coordinates":[[[-3.3107,39.44187],[-3.31336,39.43976],[-3.31422,39.43862],[-3.3146,39.43781],[-3.31562,39.43542],[-3.31589,39.43453],[-3.31582,39.43372],[-3.31446,39.43129],[-3.31484,39.43058],[-3.31618,39.42923],[-3.31638,39.42886],[-3.31589,39.42831],[-3.31562,39.42765],[-3.31569,39.42564],[-3.31547,39.42472],[-3.31405,39.42168],[-3.31355,39.42094],[-3.3122,39.41986],[-3.31177,39.41923],[-3.31085,39.41643],[-3.30994,39.41421],[-3.30993,39.41378],[-3.31014,39.41311],[-3.30979,39.41279],[-3.30966,39.41234],[-3.31039,39.41179],[-3.31035,39.41149],[-3.31016,39.41122],[-3.30955,39.41084],[-3.30914,39.41028],[-3.30918,39.40987],[-3.30942,39.40928],[-3.30922,39.40806],[-3.30932,39.40689],[-3.31029,39.40681],[-3.31078,39.40656],[-3.31116,39.40612],[-3.31145,39.40493],[-3.3114,39.40432],[-3.31107,39.40336],[-3.30974,39.40139],[-3.30913,39.39915],[-3.31276,39.40023],[-3.31859,39.40175],[-3.32838,39.40495],[-3.32931,39.40698],[-3.33146,39.40939],[-3.33273,39.41032],[-3.33449,39.41048],[-3.33657,39.41103],[-3.34063,39.41352],[-3.34697,39.41787],[-3.35245,39.42226],[-3.354,39.4232],[-3.3555,39.42375],[-3.35569,39.42639],[-3.35579,39.42653],[-3.35532,39.42665],[-3.34467,39.43755],[-3.34342,39.43759],[-3.3408,39.43799],[-3.33778,39.43882],[-3.33707,39.43913],[-3.33577,39.44022],[-3.33306,39.44136],[-3.33201,39.44203],[-3.32854,39.44365],[-3.32684,39.44424],[-3.32488,39.44456],[-3.32367,39.44457],[-3.32005,39.44564],[-3.31869,39.44631],[-3.3182,39.44627],[-3.31655,39.44566],[-3.31568,39.4456],[-3.31512,39.44543],[-3.31416,39.44454],[-3.31279,39.44379],[-3.3116,39.44283],[-3.3107,39.44187]]]}},{"type":"Feature","properties":{"id":"4518702001"},"geometry":{"type":"Polygon","coordinates":[[[-3.35478,39.5012],[-3.35816,39.46818],[-3.358,39.46729],[-3.35674,39.46494],[-3.35564,39.46114],[-3.35556,39.46023],[-3.35583,39.45932],[-3.35686,39.45701],[-3.35708,39.45629],[-3.35749,39.45283],[-3.35745,39.45075],[-3.35753,39.45015],[-3.35854,39.44752],[-3.35995,39.44324],[-3.36008,39.44175],[-3.3609,39.43642],[-3.36029,39.43017],[-3.35871,39.42872],[-3.35806,39.42741],[-3.35794,39.42679],[-3.35946,39.42701],[-3.36173,39.42682],[-3.36304,39.42694],[-3.36347,39.42739],[-3.3672,39.42737],[-3.3685,39.4277],[-3.37221,39.42828],[-3.37769,39.42803],[-3.38318,39.42829],[-3.38813,39.42874],[-3.39375,39.4288],[-3.39882,39.42871],[-3.40424,39.42897],[-3.41004,39.42873],[-3.42038,39.42887],[-3.42415,39.42969],[-3.42465,39.43331],[-3.42463,39.43666],[-3.42498,39.44766],[-3.42549,39.45311],[-3.4255,39.45887],[-3.42592,39.46473],[-3.42555,39.46965],[-3.42588,39.47043],[-3.43021,39.47826],[-3.43291,39.48289],[-3.43394,39.48428],[-3.43599,39.48794],[-3.43533,39.48866],[-3.43275,39.49257],[-3.41772,39.51317],[-3.41049,39.51249],[-3.40704,39.51227],[-3.40557,39.51227],[-3.39409,39.5051],[-3.39285,39.50446],[-3.3906,39.50361],[-3.38814,39.50289],[-3.3823,39.50152],[-3.37777,39.50023],[-3.37651,39.49969],[-3.37449,39.49933],[-3.37246,39.49914],[-3.36993,39.49903],[-3.36422,39.499],[-3.35944,39.49993],[-3.35852,39.50024],[-3.35478,39.5012]]]}}]}