{"type":"FeatureCollection","features":[{"type":"Feature","properties":{"id":"4519901001"},"geometry":{"type":"Polygon","coordinates":[[[-3.91547,40.15286],[-3.91607,40.15205],[-3.91681,40.15161],[-3.91779,40.15069],[-3.91818,40.1498],[-3.91861,40.14928],[-3.91947,40.14858],[-3.92015,40.14769],[-3.92034,40.14713],[-3.9204,40.14604],[-3.92072,40.14552],[-3.92039,40.14496],[-3.9209,40.14467],[-3.92092,40.14429],[-3.92064,40.14288],[-3.92078,40.14218],[-3.92331,40.14196],[-3.9259,40.14234],[-3.92664,40.14235],[-3.92831,40.14209],[-3.92898,40.14186],[-3.93001,40.14131],[-3.93204,40.14065],[-3.93487,40.13853],[-3.9366,40.13783],[-3.93777,40.13792],[-3.93859,40.13813],[-3.93949,40.13783],[-3.94053,40.13861],[-3.94078,40.13869],[-3.9414,40.13856],[-3.94222,40.13866],[-3.94431,40.13846],[-3.94522,40.13872],[-3.94549,40.13861],[-3.94579,40.13867],[-3.94696,40.13908],[-3.94979,40.13877],[-3.95171,40.13938],[-3.95232,40.13943],[-3.953,40.13921],[-3.95329,40.13958],[-3.9542,40.13961],[-3.95434,40.1401],[-3.95475,40.14035],[-3.95612,40.1407],[-3.95667,40.14144],[-3.95721,40.14188],[-3.95933,40.14253],[-3.96052,40.14275],[-3.96195,40.14284],[-3.96261,40.14303],[-3.96262,40.14373],[-3.96283,40.14404],[-3.96351,40.14404],[-3.96573,40.1446],[-3.96647,40.14458],[-3.96695,40.14467],[-3.96717,40.14539],[-3.96831,40.14526],[-3.97079,40.14571],[-3.97094,40.14588],[-3.9709,40.14603],[-3.9711,40.14603],[-3.97157,40.14639],[-3.97141,40.14669],[-3.97149,40.147],[-3.97231,40.1477],[-3.97294,40.14784],[-3.97377,40.14772],[-3.9749,40.14832],[-3.97526,40.14861],[-3.97588,40.14867],[-3.97609,40.14858],[-3.9765,40.14941],[-3.97757,40.14942],[-3.97844,40.14965],[-3.97942,40.14956],[-3.9803,40.14966],[-3.98088,40.14955],[-3.98297,40.15056],[-3.98191,40.15118],[-3.98011,40.15243],[-3.97842,40.15415],[-3.97696,40.15501],[-3.97657,40.15559],[-3.97634,40.1562],[-3.97592,40.15669],[-3.97525,40.15821],[-3.97325,40.1594],[-3.97202,40.15989],[-3.9708,40.16076],[-3.96873,40.16317],[-3.96759,40.16416],[-3.96583,40.16611],[-3.9648,40.16687],[-3.96414,40.16722],[-3.96391,40.1669],[-3.96313,40.16488],[-3.9641,40.16423],[-3.96419,40.16388],[-3.96387,40.16255],[-3.96246,40.16207],[-3.962,40.16179],[-3.9599,40.16015],[-3.9587,40.16092],[-3.95481,40.16197],[-3.95254,40.16231],[-3.95015,40.16245],[-3.94804,40.16227],[-3.94553,40.16129],[-3.94518,40.16107],[-3.94361,40.16057],[-3.94184,40.15966],[-3.94,40.15915],[-3.93946,40.15874],[-3.93762,40.15814],[-3.93553,40.15801],[-3.93248,40.15746],[-3.93035,40.1573],[-3.92689,40.15668],[-3.92181,40.155],[-3.92109,40.15483],[-3.91945,40.15479],[-3.91827,40.15456],[-3.9178,40.15435],[-3.91638,40.15331],[-3.91547,40.15286]]]}},{"type":"Feature","properties":{"id":"4519901002"},"geometry":{"type":"Polygon","coordinates":[[[-4.0004,40.18159],[-3.99555,40.18193],[-3.98962,40.18117],[-3.98539,40.18084],[-3.98435,40.18058],[-3.98394,40.1798],[-3.9821,40.18],[-3.98022,40.18036],[-3.9783,40.18051],[-3.97738,40.18046],[-3.97538,40.18019],[-3.97399,40.17985],[-3.97171,40.17944],[-3.96743,40.17824],[-3.96721,40.17958],[-3.962,40.17912],[-3.96171,40.17954],[-3.96114,40.18007],[-3.96013,40.17959],[-3.9594,40.17895],[-3.95867,40.17774],[-3.95806,40.17728],[-3.95799,40.17667],[-3.95758,40.17552],[-3.95739,40.17424],[-3.95749,40.1731],[-3.95793,40.17197],[-3.95833,40.17148],[-3.95977,40.17006],[-3.96097,40.16941],[-3.9618,40.16821],[-3.96221,40.16791],[-3.9631,40.16757],[-3.96404,40.1674],[-3.96414,40.16722],[-3.9648,40.16687],[-3.96583,40.16611],[-3.96759,40.16416],[-3.96873,40.16317],[-3.9708,40.16076],[-3.97202,40.15989],[-3.97325,40.1594],[-3.97525,40.15821],[-3.97592,40.15669],[-3.97634,40.1562],[-3.97657,40.15559],[-3.97696,40.15501],[-3.97842,40.15415],[-3.98011,40.15243],[-3.98191,40.15118],[-3.98297,40.15056],[-3.98088,40.14955],[-3.9803,40.14966],[-3.97942,40.14956],[-3.97844,40.14965],[-3.97757,40.14942],[-3.9765,40.14941],[-3.97609,40.14858],[-3.97588,40.14867],[-3.97526,40.14861],[-3.9749,40.14832],[-3.97377,40.14772],[-3.97294,40.14784],[-3.97231,40.1477],[-3.97149,40.147],[-3.97141,40.14669],[-3.97157,40.14639],[-3.9711,40.14603],[-3.9709,40.14603],[-3.97094,40.14588],[-3.97079,40.14571],[-3.96831,40.14526],[-3.96717,40.14539],[-3.96695,40.14467],[-3.96647,40.14458],[-3.96573,40.1446],[-3.96351,40.14404],[-3.96283,40.14404],[-3.96262,40.14373],[-3.96261,40.14303],[-3.96195,40.14284],[-3.96052,40.14275],[-3.95933,40.14253],[-3.95721,40.14188],[-3.95667,40.14144],[-3.95612,40.1407],[-3.95475,40.14035],[-3.95434,40.1401],[-3.9542,40.13961],[-3.95329,40.13958],[-3.953,40.13921],[-3.95232,40.13943],[-3.95171,40.13938],[-3.94979,40.13877],[-3.94696,40.13908],[-3.94579,40.13867],[-3.94549,40.13861],[-3.94522,40.13872],[-3.94431,40.13846],[-3.94222,40.13866],[-3.9414,40.13856],[-3.94078,40.13869],[-3.94053,40.13861],[-3.93949,40.13783],[-3.93859,40.13813],[-3.93777,40.13792],[-3.9366,40.13783],[-3.93487,40.13853],[-3.93204,40.14065],[-3.93001,40.14131],[-3.92898,40.14186],[-3.92831,40.14209],[-3.92635,40.14235],[-3.92331,40.14196],[-3.92244,40.14198],[-3.92199,40.14211],[-3.9208,40.14217],[-3.91985,40.14253],[-3.91868,40.14111],[-3.91762,40.1412],[-3.91748,40.14149],[-3.91717,40.14133],[-3.9167,40.14126],[-3.91535,40.1416],[-3.9133,40.14197],[-3.91227,40.14199],[-3.9107,40.14222],[-3.91,40.14223],[-3.91039,40.14105],[-3.91082,40.1402],[-3.91104,40.13826],[-3.91133,40.1369],[-3.91265,40.13326],[-3.91301,40.13259],[-3.91457,40.1311],[-3.91446,40.13092],[-3.91392,40.13077],[-3.91385,40.13056],[-3.91417,40.12961],[-3.91364,40.12921],[-3.91392,40.12861],[-3.91508,40.12843],[-3.9193,40.12882],[-3.91867,40.12917],[-3.92002,40.13005],[-3.92172,40.13209],[-3.92618,40.1239],[-3.93017,40.12643],[-3.93141,40.12657],[-3.93181,40.12669],[-3.93216,40.12696],[-3.93248,40.12754],[-3.93314,40.12835],[-3.93391,40.12813],[-3.93617,40.127],[-3.93837,40.12673],[-3.94014,40.12813],[-3.94079,40.1277],[-3.94123,40.12713],[-3.94211,40.1258],[-3.9424,40.12501],[-3.94547,40.12672],[-3.94739,40.12751],[-3.95963,40.13064],[-3.9626,40.13184],[-3.964,40.13212],[-3.96559,40.13214],[-3.9663,40.13233],[-3.96674,40.13252],[-3.96872,40.13428],[-3.96956,40.13456],[-3.97008,40.1349],[-3.97161,40.13552],[-3.97366,40.1369],[-3.97471,40.13745],[-3.9758,40.13784],[-3.97661,40.13855],[-3.97721,40.13884],[-3.97896,40.13939],[-3.98133,40.14054],[-3.98272,40.14067],[-3.98434,40.14097],[-3.98477,40.14094],[-3.98597,40.14051],[-3.98925,40.14173],[-3.99088,40.14176],[-3.99113,40.14184],[-3.99268,40.14343],[-3.99373,40.14261],[-3.99412,40.14213],[-3.99439,40.14078],[-3.99456,40.14046],[-3.99665,40.13807],[-3.99779,40.13697],[-4.00049,40.13498],[-4.00255,40.13198],[-4.00414,40.13083],[-4.00718,40.12824],[-4.00803,40.12422],[-4.0087,40.12204],[-4.00979,40.11959],[-4.01031,40.1187],[-4.01377,40.1151],[-4.01426,40.11477],[-4.01489,40.11512],[-4.0176,40.11618],[-4.01969,40.11748],[-4.02073,40.11836],[-4.02208,40.11996],[-4.02403,40.12073],[-4.02591,40.12252],[-4.02671,40.12383],[-4.02703,40.12408],[-4.02748,40.12425],[-4.02995,40.1243],[-4.03082,40.1244],[-4.0313,40.12461],[-4.03224,40.12573],[-4.03294,40.12688],[-4.03307,40.12781],[-4.03423,40.12826],[-4.03466,40.12887],[-4.03598,40.13106],[-4.0404,40.13916],[-4.0413,40.14185],[-4.04153,40.14284],[-4.04133,40.14521],[-4.04495,40.14656],[-4.046,40.15029],[-4.05035,40.15256],[-4.05114,40.15317],[-4.05356,40.15402],[-4.05361,40.15447],[-4.05331,40.15853],[-4.05285,40.162],[-4.05191,40.16691],[-4.05163,40.17163],[-4.05064,40.17231],[-4.04745,40.17493],[-4.04649,40.17486],[-4.04481,40.17498],[-4.04147,40.17462],[-4.03906,40.17407],[-4.03683,40.17295],[-4.03655,40.17296],[-4.03549,40.17335],[-4.03332,40.17472],[-4.03022,40.17646],[-4.02885,40.1759],[-4.02607,40.17619],[-4.02459,40.1762],[-4.02322,40.17725],[-4.02258,40.17736],[-4.01906,40.17784],[-4.0161,40.1778],[-4.01341,40.17801],[-4.01143,40.17802],[-4.00211,40.18209],[-4.0004,40.18159]]]}},{"type":"Feature","properties":{"id":"4519901003"},"geometry":{"type":"Polygon","coordinates":[[[-3.92078,40.14218],[-3.92064,40.14288],[-3.92092,40.14429],[-3.9209,40.14467],[-3.92039,40.14496],[-3.92072,40.14552],[-3.9204,40.14604],[-3.92034,40.14713],[-3.92015,40.14769],[-3.91947,40.14858],[-3.91861,40.14928],[-3.91818,40.1498],[-3.91779,40.15069],[-3.91681,40.15161],[-3.91607,40.15205],[-3.91551,40.15284],[-3.90994,40.15057],[-3.90888,40.15033],[-3.91035,40.1489],[-3.91046,40.14851],[-3.9107,40.14505],[-3.91061,40.14429],[-3.9103,40.1441],[-3.90975,40.14407],[-3.90964,40.14321],[-3.90975,40.14224],[-3.9133,40.14197],[-3.91535,40.1416],[-3.9167,40.14126],[-3.91717,40.14133],[-3.91748,40.14149],[-3.91762,40.1412],[-3.91868,40.14111],[-3.91985,40.14253],[-3.92078,40.14218]]]}}]}