{"type":"FeatureCollection","features":[{"type":"Feature","properties":{"id":"4519501001"},"geometry":{"type":"Polygon","coordinates":[[[-3.29262,40.05224],[-3.28734,40.05108],[-3.28529,40.04838],[-3.28359,40.04663],[-3.2821,40.04357],[-3.28083,40.04192],[-3.27896,40.04044],[-3.27537,40.03686],[-3.27416,40.03526],[-3.27229,40.03211],[-3.27037,40.02839],[-3.26972,40.02692],[-3.26911,40.02601],[-3.26811,40.02373],[-3.26786,40.02292],[-3.26765,40.02],[-3.26575,40.01771],[-3.26515,40.01666],[-3.26471,40.01498],[-3.26395,40.01376],[-3.2634,40.01205],[-3.26286,40.01111],[-3.26208,40.0102],[-3.25918,40.00604],[-3.25883,40.00467],[-3.25844,40.00402],[-3.25794,40.00358],[-3.25694,40.00204],[-3.25638,40.00015],[-3.25566,39.99842],[-3.25535,39.99793],[-3.25488,39.99763],[-3.25329,39.99715],[-3.25134,39.99611],[-3.25119,39.99593],[-3.25049,39.99385],[-3.25047,39.9933],[-3.25103,39.99248],[-3.25294,39.99103],[-3.25306,39.99063],[-3.25295,39.98893],[-3.25259,39.98723],[-3.25255,39.98599],[-3.25223,39.98334],[-3.25223,39.98183],[-3.25184,39.98024],[-3.2512,39.97859],[-3.25166,39.97639],[-3.25147,39.97396],[-3.25157,39.9727],[-3.25141,39.97172],[-3.2516,39.97017],[-3.25198,39.96904],[-3.25261,39.96816],[-3.2532,39.96577],[-3.25555,39.9596],[-3.25643,39.95911],[-3.25752,39.95886],[-3.25773,39.9587],[-3.25813,39.95729],[-3.25833,39.95709],[-3.26062,39.95572],[-3.26218,39.95425],[-3.26287,39.95345],[-3.26323,39.95146],[-3.26359,39.95095],[-3.26709,39.94795],[-3.27039,39.94581],[-3.27385,39.94307],[-3.27474,39.94212],[-3.27565,39.94093],[-3.27701,39.93884],[-3.27792,39.93723],[-3.27867,39.93623],[-3.28005,39.93694],[-3.28046,39.93705],[-3.28224,39.93719],[-3.28547,39.93717],[-3.28829,39.93746],[-3.2902,39.93771],[-3.29128,39.93794],[-3.29414,39.93878],[-3.29887,39.93939],[-3.30158,39.94012],[-3.30637,39.94179],[-3.30748,39.94233],[-3.30903,39.9434],[-3.31138,39.94475],[-3.31264,39.94518],[-3.31518,39.94568],[-3.31651,39.94608],[-3.32101,39.94708],[-3.32585,39.94672],[-3.32731,39.94671],[-3.33211,39.94647],[-3.33487,39.94621],[-3.34128,39.94457],[-3.34326,39.94389],[-3.34667,39.94193],[-3.34846,39.9412],[-3.36388,39.96336],[-3.36554,39.96665],[-3.36744,39.9697],[-3.36847,39.98314],[-3.36846,39.98505],[-3.36875,39.98659],[-3.36862,39.98662],[-3.36872,39.98702],[-3.36882,39.98701],[-3.36906,39.98755],[-3.36937,39.98779],[-3.36969,39.98787],[-3.36959,39.98854],[-3.36998,39.98875],[-3.36921,39.99029],[-3.36901,39.99049],[-3.37002,39.99139],[-3.3705,39.99256],[-3.37113,39.99354],[-3.37145,39.99376],[-3.37232,39.99405],[-3.37293,39.9948],[-3.37398,39.99532],[-3.37466,39.99593],[-3.37528,39.99681],[-3.37642,39.99922],[-3.3765,40.00083],[-3.37674,40.00152],[-3.37695,40.00286],[-3.37617,40.00404],[-3.37584,40.00507],[-3.37638,40.00663],[-3.37647,40.00788],[-3.37513,40.01006],[-3.37053,40.01668],[-3.37017,40.01762],[-3.37006,40.01818],[-3.37023,40.01928],[-3.37104,40.02067],[-3.37185,40.02136],[-3.37436,40.02282],[-3.37553,40.02374],[-3.37763,40.0268],[-3.37809,40.02734],[-3.37909,40.02812],[-3.37983,40.02886],[-3.3803,40.02962],[-3.38094,40.03206],[-3.38133,40.03402],[-3.38144,40.03535],[-3.38134,40.03734],[-3.38109,40.0388],[-3.38057,40.04054],[-3.37829,40.04724],[-3.37803,40.04775],[-3.37667,40.04936],[-3.37645,40.04982],[-3.37592,40.05046],[-3.37528,40.05255],[-3.3751,40.05357],[-3.3743,40.05503],[-3.37451,40.05841],[-3.37473,40.05961],[-3.37586,40.06132],[-3.37767,40.06228],[-3.37913,40.06617],[-3.3786,40.07003],[-3.37859,40.07075],[-3.37778,40.07337],[-3.37771,40.07477],[-3.37529,40.07539],[-3.37302,40.07552],[-3.36611,40.0755],[-3.36433,40.07505],[-3.36189,40.07527],[-3.36049,40.07551],[-3.35817,40.07621],[-3.35552,40.07679],[-3.35446,40.07732],[-3.35143,40.0775],[-3.34994,40.07773],[-3.34899,40.07806],[-3.34617,40.08016],[-3.34503,40.08011],[-3.34375,40.0803],[-3.34045,40.08043],[-3.33442,40.08105],[-3.33224,40.08048],[-3.33002,40.07971],[-3.32775,40.07913],[-3.32567,40.07747],[-3.32345,40.07622],[-3.32245,40.07607],[-3.3191,40.07419],[-3.31564,40.07024],[-3.31179,40.06825],[-3.31079,40.06734],[-3.31078,40.0662],[-3.30807,40.06067],[-3.30617,40.05845],[-3.30249,40.05331],[-3.30038,40.0528],[-3.29899,40.05214],[-3.29751,40.0517],[-3.29605,40.05166],[-3.29376,40.05212],[-3.29262,40.05224]]]}},{"type":"Feature","properties":{"id":"4519502001"},"geometry":{"type":"Polygon","coordinates":[[[-3.37645,40.04982],[-3.37667,40.04936],[-3.37803,40.04775],[-3.37829,40.04724],[-3.38092,40.03948],[-3.38127,40.03786],[-3.38142,40.03603],[-3.38144,40.03535],[-3.38118,40.03312],[-3.3803,40.02962],[-3.37983,40.02886],[-3.37909,40.02812],[-3.37809,40.02734],[-3.37763,40.0268],[-3.37553,40.02374],[-3.37436,40.02282],[-3.37185,40.02136],[-3.37104,40.02067],[-3.37023,40.01928],[-3.37006,40.01818],[-3.37017,40.01762],[-3.37053,40.01668],[-3.37513,40.01006],[-3.37647,40.00788],[-3.37638,40.00663],[-3.37584,40.00507],[-3.37617,40.00404],[-3.37695,40.00286],[-3.37674,40.00152],[-3.3765,40.00083],[-3.37639,39.99908],[-3.37573,39.9979],[-3.37528,39.99681],[-3.37466,39.99593],[-3.37398,39.99532],[-3.37293,39.9948],[-3.37232,39.99405],[-3.37145,39.99376],[-3.37113,39.99354],[-3.3705,39.99256],[-3.37002,39.99139],[-3.36901,39.99049],[-3.36921,39.99029],[-3.36998,39.98875],[-3.36959,39.98854],[-3.36969,39.98787],[-3.36937,39.98779],[-3.36906,39.98755],[-3.36882,39.98701],[-3.36872,39.98702],[-3.36862,39.98662],[-3.36875,39.98659],[-3.36846,39.98505],[-3.36847,39.98314],[-3.36744,39.9697],[-3.36554,39.96665],[-3.36388,39.96336],[-3.34846,39.9412],[-3.35178,39.93998],[-3.35401,39.93901],[-3.35637,39.9382],[-3.35839,39.93764],[-3.36369,39.93696],[-3.37105,39.93546],[-3.37195,39.9354],[-3.37317,39.93556],[-3.37721,39.93781],[-3.37848,39.93814],[-3.37932,39.93826],[-3.38035,39.93862],[-3.38112,39.93906],[-3.38429,39.94134],[-3.38877,39.94608],[-3.39116,39.94828],[-3.39394,39.95112],[-3.39554,39.95245],[-3.39585,39.95284],[-3.3974,39.9567],[-3.3975,39.95796],[-3.39747,39.96122],[-3.39791,39.96569],[-3.39839,39.9681],[-3.39869,39.9713],[-3.39867,39.97337],[-3.39928,39.97521],[-3.39924,39.97572],[-3.39874,39.97655],[-3.39873,39.97683],[-3.39945,39.97801],[-3.39784,39.98317],[-3.39719,39.98438],[-3.39639,39.98549],[-3.39589,39.9864],[-3.39595,39.98845],[-3.39572,39.98988],[-3.39534,39.99133],[-3.39515,39.99308],[-3.39485,39.99381],[-3.39497,39.99483],[-3.39525,39.99562],[-3.39653,39.99665],[-3.39677,39.99695],[-3.39721,39.99808],[-3.39745,39.99923],[-3.39817,40.00054],[-3.3981,40.00073],[-3.39729,40.00143],[-3.39714,40.00173],[-3.39647,40.00797],[-3.39581,40.0091],[-3.39557,40.01086],[-3.39599,40.0117],[-3.39595,40.01189],[-3.39551,40.01252],[-3.39535,40.01454],[-3.39463,40.01564],[-3.39402,40.01711],[-3.39417,40.01784],[-3.39495,40.0186],[-3.39502,40.01887],[-3.39482,40.01931],[-3.39528,40.02025],[-3.39527,40.0206],[-3.39491,40.02135],[-3.39511,40.02223],[-3.39548,40.02283],[-3.39542,40.02328],[-3.39491,40.02396],[-3.39487,40.02485],[-3.39506,40.02541],[-3.39553,40.02614],[-3.39563,40.02682],[-3.39465,40.02904],[-3.39453,40.02953],[-3.39459,40.03003],[-3.39505,40.0306],[-3.39511,40.03095],[-3.39458,40.0319],[-3.39435,40.03293],[-3.39418,40.03551],[-3.39376,40.0356],[-3.39323,40.036],[-3.39244,40.03731],[-3.39166,40.03902],[-3.39144,40.0409],[-3.3915,40.04121],[-3.3917,40.04138],[-3.3935,40.04189],[-3.39398,40.04223],[-3.39415,40.04247],[-3.39439,40.04345],[-3.39413,40.0455],[-3.39365,40.0461],[-3.39233,40.04727],[-3.39166,40.04832],[-3.39136,40.04851],[-3.38849,40.04949],[-3.38651,40.04983],[-3.38589,40.05063],[-3.38591,40.05153],[-3.38535,40.05183],[-3.38368,40.0518],[-3.38188,40.05152],[-3.37916,40.05076],[-3.37783,40.05019],[-3.37645,40.04982]]]}}]}