{"type":"FeatureCollection","features":[{"type":"Feature","properties":{"id":"4519701001"},"geometry":{"type":"Polygon","coordinates":[[[-3.6917,39.89454],[-3.69205,39.89408],[-3.69264,39.89363],[-3.69357,39.89264],[-3.69438,39.89215],[-3.69576,39.89188],[-3.69802,39.89205],[-3.69897,39.89186],[-3.70011,39.891],[-3.70092,39.89066],[-3.70438,39.88946],[-3.70695,39.88871],[-3.70787,39.88829],[-3.70936,39.88747],[-3.71261,39.88518],[-3.7147,39.88464],[-3.71573,39.88428],[-3.71942,39.88342],[-3.72078,39.883],[-3.72263,39.88196],[-3.72519,39.88097],[-3.73013,39.87827],[-3.7301,39.87795],[-3.7296,39.87736],[-3.72991,39.87726],[-3.73,39.87739],[-3.73109,39.87686],[-3.73099,39.87666],[-3.73133,39.87646],[-3.7312,39.87621],[-3.73169,39.87579],[-3.73203,39.87496],[-3.73238,39.87446],[-3.73549,39.87087],[-3.73658,39.87031],[-3.73732,39.87015],[-3.73875,39.86953],[-3.74087,39.86787],[-3.74148,39.86708],[-3.74272,39.86617],[-3.74399,39.86539],[-3.74522,39.86427],[-3.74841,39.86219],[-3.74903,39.86192],[-3.75024,39.86158],[-3.75215,39.86065],[-3.75286,39.85981],[-3.75376,39.86012],[-3.75673,39.86078],[-3.75771,39.86126],[-3.76014,39.86325],[-3.76068,39.86345],[-3.76438,39.86403],[-3.76662,39.86357],[-3.76808,39.86348],[-3.77064,39.86317],[-3.77814,39.86325],[-3.78135,39.86374],[-3.78239,39.86405],[-3.78482,39.8641],[-3.78558,39.86463],[-3.78676,39.86499],[-3.78799,39.86513],[-3.79436,39.86521],[-3.79602,39.86551],[-3.79379,39.86825],[-3.79294,39.87176],[-3.79224,39.87196],[-3.77765,39.88275],[-3.76113,39.89433],[-3.76287,39.89551],[-3.7618,39.89543],[-3.75734,39.8947],[-3.75469,39.89443],[-3.75284,39.89325],[-3.75107,39.89443],[-3.75045,39.89545],[-3.74959,39.8961],[-3.74368,39.89953],[-3.73607,39.90487],[-3.73273,39.90783],[-3.73207,39.90827],[-3.73151,39.90848],[-3.73097,39.90857],[-3.72918,39.90857],[-3.72835,39.90892],[-3.7274,39.90956],[-3.72704,39.90904],[-3.7272,39.9077],[-3.72652,39.90715],[-3.72751,39.90686],[-3.72707,39.9062],[-3.72605,39.90681],[-3.72594,39.90584],[-3.72365,39.90485],[-3.72077,39.9032],[-3.72099,39.90259],[-3.7196,39.90227],[-3.71712,39.90055],[-3.71578,39.90028],[-3.71513,39.89964],[-3.71494,39.90034],[-3.71406,39.9003],[-3.71416,39.89964],[-3.71297,39.89888],[-3.71196,39.89929],[-3.71147,39.89759],[-3.71014,39.89771],[-3.70953,39.8963],[-3.70336,39.89381],[-3.70184,39.89471],[-3.70191,39.89383],[-3.70118,39.89344],[-3.69988,39.89411],[-3.69941,39.89339],[-3.69837,39.89319],[-3.69511,39.89312],[-3.69385,39.8937],[-3.69353,39.89474],[-3.69244,39.89477],[-3.6917,39.89454]]]}},{"type":"Feature","properties":{"id":"4519701002"},"geometry":{"type":"Polygon","coordinates":[[[-3.63921,39.87868],[-3.63465,39.87688],[-3.63876,39.87004],[-3.64142,39.86849],[-3.64538,39.86274],[-3.64673,39.85956],[-3.64725,39.85874],[-3.64794,39.85565],[-3.64893,39.85385],[-3.65117,39.85087],[-3.65224,39.84914],[-3.65311,39.848],[-3.65442,39.84667],[-3.65479,39.84433],[-3.65931,39.83357],[-3.65968,39.83249],[-3.65992,39.83031],[-3.66014,39.82953],[-3.66175,39.82594],[-3.66223,39.82409],[-3.6624,39.82378],[-3.66312,39.82306],[-3.66482,39.82064],[-3.66653,39.81748],[-3.66832,39.81445],[-3.66961,39.81253],[-3.6718,39.81025],[-3.67301,39.80914],[-3.67348,39.80884],[-3.67491,39.80927],[-3.6755,39.80933],[-3.67686,39.80927],[-3.6784,39.80945],[-3.68002,39.80948],[-3.68131,39.80921],[-3.68682,39.80921],[-3.68812,39.80937],[-3.68907,39.80968],[-3.69117,39.81221],[-3.69332,39.81442],[-3.69617,39.81666],[-3.69729,39.81722],[-3.69977,39.81892],[-3.701,39.81948],[-3.70184,39.82001],[-3.70685,39.82357],[-3.70934,39.82476],[-3.7122,39.82652],[-3.71392,39.82772],[-3.71523,39.82893],[-3.71579,39.82932],[-3.72145,39.8319],[-3.72363,39.83358],[-3.72784,39.83577],[-3.72871,39.83643],[-3.72883,39.83798],[-3.73015,39.8397],[-3.73185,39.84095],[-3.73267,39.84211],[-3.73457,39.84211],[-3.73661,39.8426],[-3.74005,39.84459],[-3.74521,39.84712],[-3.74603,39.84938],[-3.74786,39.85214],[-3.74806,39.85295],[-3.75088,39.85814],[-3.75163,39.859],[-3.75286,39.85981],[-3.75215,39.86065],[-3.75024,39.86158],[-3.74903,39.86192],[-3.74841,39.86219],[-3.74522,39.86427],[-3.74399,39.86539],[-3.74272,39.86617],[-3.74148,39.86708],[-3.74087,39.86787],[-3.73875,39.86953],[-3.73732,39.87015],[-3.73658,39.87031],[-3.73549,39.87087],[-3.73238,39.87446],[-3.73203,39.87496],[-3.73169,39.87579],[-3.7312,39.87621],[-3.73133,39.87646],[-3.73099,39.87666],[-3.73109,39.87686],[-3.73,39.87739],[-3.72991,39.87726],[-3.7296,39.87736],[-3.7301,39.87795],[-3.73013,39.87827],[-3.72519,39.88097],[-3.72263,39.88196],[-3.72078,39.883],[-3.71942,39.88342],[-3.71573,39.88428],[-3.7147,39.88464],[-3.71261,39.88518],[-3.70936,39.88747],[-3.70787,39.88829],[-3.70695,39.88871],[-3.70438,39.88946],[-3.70092,39.89066],[-3.70011,39.891],[-3.69897,39.89186],[-3.69802,39.89205],[-3.69576,39.89188],[-3.69438,39.89215],[-3.69357,39.89264],[-3.69264,39.89363],[-3.69205,39.89408],[-3.6917,39.89454],[-3.69054,39.89421],[-3.68614,39.89494],[-3.683,39.89396],[-3.68201,39.89391],[-3.67954,39.89355],[-3.6776,39.89381],[-3.67537,39.89275],[-3.67405,39.89239],[-3.67317,39.89228],[-3.67236,39.89236],[-3.67146,39.892],[-3.66955,39.89175],[-3.66935,39.89119],[-3.66821,39.89094],[-3.66807,39.8903],[-3.66692,39.89066],[-3.66606,39.89064],[-3.66325,39.88777],[-3.66058,39.88815],[-3.66067,39.88659],[-3.65963,39.88626],[-3.65839,39.88658],[-3.65723,39.88623],[-3.65602,39.88626],[-3.65467,39.88528],[-3.65372,39.88569],[-3.65181,39.88456],[-3.65074,39.88479],[-3.6492,39.88562],[-3.64819,39.88515],[-3.64825,39.88413],[-3.64621,39.88415],[-3.63921,39.87868]]]}}]}