{"type":"FeatureCollection","features":[{"type":"Feature","properties":{"id":"4603101001"},"geometry":{"type":"Polygon","coordinates":[[[-0.46993,39.26184],[-0.4677,39.26123],[-0.46782,39.25841],[-0.46867,39.25801],[-0.47097,39.25759],[-0.47124,39.25758],[-0.47199,39.25781],[-0.46993,39.26184]]]}},{"type":"Feature","properties":{"id":"4603101002"},"geometry":{"type":"Polygon","coordinates":[[[-0.46999,39.2617],[-0.47214,39.25752],[-0.47262,39.25763],[-0.47365,39.25849],[-0.47418,39.25855],[-0.47519,39.25941],[-0.47569,39.26004],[-0.47592,39.25985],[-0.47653,39.26044],[-0.47596,39.26103],[-0.475,39.26269],[-0.47476,39.26283],[-0.47167,39.26198],[-0.46999,39.2617]]]}},{"type":"Feature","properties":{"id":"4603102001"},"geometry":{"type":"Polygon","coordinates":[[[-0.46931,39.26287],[-0.46853,39.26258],[-0.4686,39.26217],[-0.46902,39.26224],[-0.46929,39.26167],[-0.46993,39.26184],[-0.46999,39.2617],[-0.47167,39.26198],[-0.47476,39.26283],[-0.47481,39.2631],[-0.47375,39.26556],[-0.4718,39.26412],[-0.47166,39.26386],[-0.47123,39.2635],[-0.47071,39.26321],[-0.4694,39.26278],[-0.46931,39.26287]]]}},{"type":"Feature","properties":{"id":"4603102002"},"geometry":{"type":"Polygon","coordinates":[[[-0.46559,39.2646],[-0.46401,39.26382],[-0.46198,39.26299],[-0.46245,39.2614],[-0.46318,39.26084],[-0.46331,39.26063],[-0.46432,39.25991],[-0.46458,39.25999],[-0.46782,39.25841],[-0.4677,39.26123],[-0.46929,39.26167],[-0.46902,39.26224],[-0.4686,39.26217],[-0.46853,39.26258],[-0.46931,39.26287],[-0.46832,39.2645],[-0.46705,39.26434],[-0.46683,39.26438],[-0.46665,39.26428],[-0.46559,39.2646]]]}},{"type":"Feature","properties":{"id":"4603102003"},"geometry":{"type":"Polygon","coordinates":[[[-0.46245,39.2614],[-0.46198,39.26299],[-0.46401,39.26382],[-0.46175,39.26836],[-0.46309,39.26879],[-0.46175,39.27053],[-0.46083,39.27099],[-0.45979,39.27194],[-0.46036,39.27449],[-0.45447,39.27206],[-0.45033,39.2706],[-0.44143,39.26783],[-0.4375,39.26495],[-0.41433,39.2573],[-0.41386,39.25594],[-0.41402,39.25533],[-0.41402,39.25424],[-0.41357,39.25009],[-0.41389,39.24816],[-0.41266,39.24658],[-0.41318,39.24318],[-0.41517,39.24407],[-0.4165,39.24513],[-0.41777,39.24595],[-0.41816,39.24611],[-0.42669,39.24758],[-0.43132,39.24713],[-0.43192,39.247],[-0.43759,39.24477],[-0.44409,39.24153],[-0.45277,39.2376],[-0.46062,39.2362],[-0.46751,39.23824],[-0.47242,39.23627],[-0.47387,39.23916],[-0.47415,39.23949],[-0.47554,39.24051],[-0.47644,39.24134],[-0.4774,39.2425],[-0.479,39.24508],[-0.48113,39.24644],[-0.48237,39.24791],[-0.48474,39.2501],[-0.48853,39.25325],[-0.49401,39.25699],[-0.49757,39.26199],[-0.50001,39.26383],[-0.50259,39.26559],[-0.50316,39.26624],[-0.50428,39.26785],[-0.5044,39.26878],[-0.50423,39.2695],[-0.50425,39.27032],[-0.50457,39.2711],[-0.50491,39.27144],[-0.50552,39.27183],[-0.50549,39.27297],[-0.50595,39.27322],[-0.50538,39.27506],[-0.50558,39.27582],[-0.50564,39.27672],[-0.50553,39.27781],[-0.50526,39.27891],[-0.50531,39.27944],[-0.5055,39.2799],[-0.5031,39.28076],[-0.50271,39.28108],[-0.50215,39.28179],[-0.50175,39.28207],[-0.50103,39.28232],[-0.49872,39.28284],[-0.4982,39.28284],[-0.49601,39.28248],[-0.49529,39.28245],[-0.4946,39.28265],[-0.49319,39.28341],[-0.49159,39.28384],[-0.49058,39.28454],[-0.4901,39.28469],[-0.48953,39.28478],[-0.48895,39.2847],[-0.48784,39.28431],[-0.48709,39.28427],[-0.48599,39.28441],[-0.485,39.2847],[-0.48398,39.28518],[-0.4828,39.28547],[-0.47883,39.28399],[-0.46863,39.27836],[-0.46577,39.27697],[-0.47118,39.26982],[-0.47609,39.27218],[-0.48014,39.27139],[-0.48129,39.27086],[-0.48122,39.26947],[-0.48271,39.26665],[-0.48323,39.26484],[-0.47643,39.26053],[-0.47653,39.26044],[-0.47592,39.25985],[-0.47569,39.26004],[-0.47519,39.25941],[-0.47418,39.25855],[-0.47365,39.25849],[-0.47262,39.25763],[-0.47214,39.25752],[-0.47199,39.25781],[-0.47124,39.25758],[-0.47097,39.25759],[-0.46867,39.25801],[-0.46458,39.25999],[-0.46432,39.25991],[-0.46331,39.26063],[-0.46318,39.26084],[-0.46245,39.2614]]]}},{"type":"Feature","properties":{"id":"4603102004"},"geometry":{"type":"Polygon","coordinates":[[[-0.47643,39.26053],[-0.48323,39.26484],[-0.48271,39.26665],[-0.48122,39.26947],[-0.48129,39.27086],[-0.48014,39.27139],[-0.47609,39.27218],[-0.47118,39.26982],[-0.4727,39.26786],[-0.47481,39.2631],[-0.47476,39.26283],[-0.475,39.26269],[-0.47569,39.26139],[-0.47643,39.26053]]]}},{"type":"Feature","properties":{"id":"4603103001"},"geometry":{"type":"Polygon","coordinates":[[[-0.46832,39.2645],[-0.46907,39.26314],[-0.4694,39.26278],[-0.47071,39.26321],[-0.47123,39.2635],[-0.47166,39.26386],[-0.4718,39.26412],[-0.47375,39.26558],[-0.4735,39.26611],[-0.46832,39.2645]]]}},{"type":"Feature","properties":{"id":"4603103002"},"geometry":{"type":"Polygon","coordinates":[[[-0.46233,39.27534],[-0.46521,39.27005],[-0.46506,39.27],[-0.46647,39.26743],[-0.46832,39.2645],[-0.4735,39.26611],[-0.4726,39.26802],[-0.46577,39.27697],[-0.46233,39.27534]]]}},{"type":"Feature","properties":{"id":"4603103003"},"geometry":{"type":"Polygon","coordinates":[[[-0.46401,39.26383],[-0.46559,39.2646],[-0.46665,39.26428],[-0.46683,39.26438],[-0.46705,39.26434],[-0.46832,39.2645],[-0.46647,39.26743],[-0.46506,39.27],[-0.46521,39.27005],[-0.46233,39.27534],[-0.46036,39.27449],[-0.45979,39.27194],[-0.46083,39.27099],[-0.46175,39.27053],[-0.46309,39.26879],[-0.46175,39.26836],[-0.46401,39.26383]]]}}]}