{"type":"FeatureCollection","features":[{"type":"Feature","properties":{"id":"4604801001"},"geometry":{"type":"MultiPolygon","coordinates":[[[[-0.12771,38.9627],[-0.13347,38.95974],[-0.13423,38.96012],[-0.13628,38.95913],[-0.13728,38.9595],[-0.1381,38.95998],[-0.13831,38.95995],[-0.13913,38.95959],[-0.1413,38.95819],[-0.14286,38.95892],[-0.14175,38.95983],[-0.14448,38.96066],[-0.14604,38.95998],[-0.14594,38.96083],[-0.14391,38.96193],[-0.1379,38.96571],[-0.13655,38.96611],[-0.13299,38.96818],[-0.13218,38.96718],[-0.13174,38.96688],[-0.13115,38.96613],[-0.13091,38.96599],[-0.12979,38.96485],[-0.1293,38.96451],[-0.12894,38.96397],[-0.12771,38.9627]]],[[[-0.16085,38.94287],[-0.1613,38.94283],[-0.16233,38.94291],[-0.16551,38.94271],[-0.1667,38.94235],[-0.16692,38.94448],[-0.16822,38.9457],[-0.16794,38.94646],[-0.17,38.94661],[-0.17075,38.94678],[-0.17256,38.94736],[-0.17272,38.94748],[-0.17283,38.94767],[-0.17234,38.94791],[-0.17312,38.94871],[-0.17142,38.94976],[-0.1709,38.95019],[-0.1703,38.9505],[-0.16969,38.95051],[-0.16807,38.95142],[-0.16854,38.95271],[-0.16848,38.95286],[-0.16726,38.95357],[-0.1634,38.94707],[-0.16284,38.94637],[-0.16151,38.94564],[-0.15785,38.94413],[-0.15878,38.94341],[-0.15928,38.94318],[-0.16,38.94317],[-0.16085,38.94287]]]]}},{"type":"Feature","properties":{"id":"4604801002"},"geometry":{"type":"Polygon","coordinates":[[[-0.15052,38.95557],[-0.14696,38.95367],[-0.14572,38.9531],[-0.14613,38.95197],[-0.14558,38.95177],[-0.14557,38.95159],[-0.1461,38.95081],[-0.14668,38.9506],[-0.14747,38.95047],[-0.14757,38.95037],[-0.14671,38.9484],[-0.1484,38.94763],[-0.1476,38.94638],[-0.14873,38.94593],[-0.14943,38.94643],[-0.14995,38.94639],[-0.1505,38.94618],[-0.15073,38.94617],[-0.15286,38.94717],[-0.15332,38.94725],[-0.15376,38.94718],[-0.15496,38.9469],[-0.15625,38.94647],[-0.15642,38.94625],[-0.15644,38.94551],[-0.15686,38.94469],[-0.15711,38.94447],[-0.15785,38.94413],[-0.16151,38.94564],[-0.16284,38.94637],[-0.1634,38.94707],[-0.16726,38.95357],[-0.16601,38.95364],[-0.16516,38.95388],[-0.16318,38.95351],[-0.16134,38.9535],[-0.16042,38.95319],[-0.15963,38.95307],[-0.15881,38.95306],[-0.15748,38.95459],[-0.15424,38.95349],[-0.15052,38.95557]]]}}]}