{"type":"FeatureCollection","features":[{"type":"Feature","properties":{"id":"4612201001"},"geometry":{"type":"Polygon","coordinates":[[[-0.26385,39.72754],[-0.26374,39.72623],[-0.26328,39.72401],[-0.26477,39.72457],[-0.26481,39.72411],[-0.26524,39.72298],[-0.2674,39.72389],[-0.2715,39.721],[-0.27176,39.72098],[-0.27224,39.72123],[-0.27364,39.72252],[-0.27386,39.72374],[-0.27377,39.72389],[-0.27335,39.72376],[-0.27314,39.72379],[-0.27267,39.72413],[-0.27214,39.72415],[-0.27131,39.72472],[-0.26977,39.72501],[-0.26855,39.72586],[-0.2682,39.72597],[-0.26754,39.72598],[-0.26746,39.72617],[-0.26767,39.72641],[-0.26757,39.72676],[-0.26671,39.72724],[-0.26518,39.7276],[-0.2649,39.72737],[-0.26385,39.72754]]]}},{"type":"Feature","properties":{"id":"4612201002"},"geometry":{"type":"Polygon","coordinates":[[[-0.24352,39.72911],[-0.24391,39.72811],[-0.24511,39.72648],[-0.24638,39.72666],[-0.24726,39.72703],[-0.24798,39.72721],[-0.24896,39.72767],[-0.24913,39.72763],[-0.24989,39.72677],[-0.25028,39.72686],[-0.25163,39.72561],[-0.25131,39.72536],[-0.25146,39.72456],[-0.24881,39.72353],[-0.24887,39.7228],[-0.25321,39.72482],[-0.25284,39.72583],[-0.25396,39.72625],[-0.256,39.72684],[-0.25599,39.72566],[-0.25562,39.72539],[-0.25558,39.72519],[-0.25572,39.72422],[-0.25507,39.72307],[-0.2551,39.72284],[-0.2553,39.72273],[-0.25701,39.72255],[-0.25714,39.72222],[-0.25767,39.72232],[-0.25771,39.72259],[-0.25821,39.72259],[-0.25992,39.72285],[-0.26092,39.72277],[-0.26328,39.72401],[-0.26374,39.72623],[-0.26385,39.72754],[-0.26222,39.72794],[-0.26239,39.72851],[-0.26148,39.72862],[-0.26158,39.72954],[-0.26172,39.72993],[-0.26203,39.73028],[-0.26291,39.73083],[-0.26382,39.73169],[-0.26416,39.73259],[-0.26418,39.73391],[-0.26482,39.73478],[-0.26444,39.73494],[-0.26355,39.73444],[-0.26121,39.73242],[-0.26042,39.73218],[-0.2591,39.7334],[-0.25822,39.73535],[-0.25696,39.73581],[-0.25601,39.73464],[-0.25469,39.73364],[-0.25222,39.73222],[-0.25073,39.73101],[-0.24944,39.73069],[-0.24829,39.73017],[-0.24731,39.72985],[-0.246,39.72953],[-0.24352,39.72911]]]}}]}