{"type":"FeatureCollection","features":[{"type":"Feature","properties":{"id":"4616901001"},"geometry":{"type":"Polygon","coordinates":[[[-0.40743,39.47268],[-0.41102,39.47252],[-0.41168,39.47186],[-0.41319,39.47232],[-0.41277,39.47248],[-0.41221,39.47381],[-0.40743,39.47268]]]}},{"type":"Feature","properties":{"id":"4616901002"},"geometry":{"type":"Polygon","coordinates":[[[-0.41168,39.47186],[-0.41236,39.47122],[-0.41398,39.47067],[-0.41468,39.47174],[-0.41319,39.47232],[-0.41168,39.47186]]]}},{"type":"Feature","properties":{"id":"4616901003"},"geometry":{"type":"Polygon","coordinates":[[[-0.41398,39.47067],[-0.41618,39.46965],[-0.41696,39.47087],[-0.41468,39.47174],[-0.41398,39.47067]]]}},{"type":"Feature","properties":{"id":"4616901004"},"geometry":{"type":"Polygon","coordinates":[[[-0.41015,39.47487],[-0.40946,39.47434],[-0.40876,39.47399],[-0.4071,39.47359],[-0.40701,39.4735],[-0.40696,39.47269],[-0.40743,39.47268],[-0.41312,39.47402],[-0.41405,39.47414],[-0.41485,39.47402],[-0.41682,39.47476],[-0.41626,39.47585],[-0.41433,39.47541],[-0.41389,39.47512],[-0.4133,39.47561],[-0.41318,39.47585],[-0.41015,39.47487]]]}},{"type":"Feature","properties":{"id":"4616901005"},"geometry":{"type":"Polygon","coordinates":[[[-0.41221,39.47381],[-0.41277,39.47248],[-0.41319,39.47232],[-0.41546,39.47309],[-0.41496,39.47405],[-0.41465,39.47402],[-0.41381,39.47413],[-0.41221,39.47381]]]}},{"type":"Feature","properties":{"id":"4616901006"},"geometry":{"type":"Polygon","coordinates":[[[-0.41589,39.47323],[-0.41319,39.47232],[-0.4174,39.4707],[-0.41589,39.47323]]]}},{"type":"Feature","properties":{"id":"4616901007"},"geometry":{"type":"Polygon","coordinates":[[[-0.41589,39.47323],[-0.41641,39.47236],[-0.41832,39.47299],[-0.41784,39.47387],[-0.41589,39.47323]]]}},{"type":"Feature","properties":{"id":"4616901008"},"geometry":{"type":"Polygon","coordinates":[[[-0.41641,39.47236],[-0.4174,39.4707],[-0.41792,39.4705],[-0.41807,39.47055],[-0.41738,39.47167],[-0.41836,39.47208],[-0.41842,39.472],[-0.41879,39.47213],[-0.41832,39.47299],[-0.41641,39.47236]]]}},{"type":"Feature","properties":{"id":"4616901009"},"geometry":{"type":"Polygon","coordinates":[[[-0.41682,39.47476],[-0.41496,39.47405],[-0.41546,39.47309],[-0.41893,39.47423],[-0.41835,39.4752],[-0.41682,39.47476]]]}},{"type":"Feature","properties":{"id":"4616901010"},"geometry":{"type":"Polygon","coordinates":[[[-0.41784,39.47387],[-0.41876,39.47217],[-0.41986,39.47253],[-0.41893,39.47423],[-0.41784,39.47387]]]}},{"type":"Feature","properties":{"id":"4616901011"},"geometry":{"type":"Polygon","coordinates":[[[-0.41876,39.47217],[-0.4193,39.47121],[-0.41909,39.47092],[-0.41792,39.4705],[-0.41865,39.47023],[-0.41898,39.46992],[-0.41996,39.46966],[-0.42022,39.4709],[-0.42048,39.47122],[-0.42039,39.47157],[-0.41986,39.47253],[-0.41876,39.47217]]]}},{"type":"Feature","properties":{"id":"4616901012"},"geometry":{"type":"Polygon","coordinates":[[[-0.41986,39.47253],[-0.42039,39.47157],[-0.42048,39.47122],[-0.42028,39.4709],[-0.42066,39.47089],[-0.42133,39.47059],[-0.42153,39.47087],[-0.42216,39.47088],[-0.42231,39.47007],[-0.42288,39.47011],[-0.42421,39.47196],[-0.42288,39.47251],[-0.42281,39.47263],[-0.42259,39.47249],[-0.42232,39.47306],[-0.42211,39.47325],[-0.41986,39.47253]]]}},{"type":"Feature","properties":{"id":"4616901013"},"geometry":{"type":"Polygon","coordinates":[[[-0.41383,39.48237],[-0.41028,39.48142],[-0.41124,39.48039],[-0.41214,39.47963],[-0.41446,39.47829],[-0.41496,39.47714],[-0.41669,39.47763],[-0.41635,39.47836],[-0.4165,39.47838],[-0.41633,39.47874],[-0.41667,39.47888],[-0.41383,39.48237]]]}},{"type":"Feature","properties":{"id":"4616901014"},"geometry":{"type":"Polygon","coordinates":[[[-0.41826,39.47727],[-0.41851,39.47619],[-0.42029,39.47647],[-0.42112,39.47682],[-0.42073,39.47757],[-0.42,39.4774],[-0.41826,39.47727]]]}},{"type":"Feature","properties":{"id":"4616901015"},"geometry":{"type":"Polygon","coordinates":[[[-0.42112,39.47682],[-0.42016,39.47644],[-0.41626,39.47585],[-0.41682,39.47476],[-0.41941,39.4755],[-0.42146,39.47595],[-0.42112,39.47682]]]}},{"type":"Feature","properties":{"id":"4616901016"},"geometry":{"type":"Polygon","coordinates":[[[-0.42146,39.47595],[-0.41835,39.4752],[-0.41893,39.47423],[-0.42179,39.47517],[-0.42146,39.47595]]]}},{"type":"Feature","properties":{"id":"4616901017"},"geometry":{"type":"Polygon","coordinates":[[[-0.42073,39.47757],[-0.42112,39.47682],[-0.42359,39.47782],[-0.4231,39.47855],[-0.42073,39.47757]]]}},{"type":"Feature","properties":{"id":"4616901018"},"geometry":{"type":"Polygon","coordinates":[[[-0.42003,39.47896],[-0.41635,39.47836],[-0.41657,39.47788],[-0.42029,39.47841],[-0.4221,39.4792],[-0.42177,39.47969],[-0.42003,39.47896]]]}},{"type":"Feature","properties":{"id":"4616901019"},"geometry":{"type":"Polygon","coordinates":[[[-0.41879,39.48421],[-0.4221,39.4792],[-0.42254,39.47938],[-0.42359,39.47782],[-0.42629,39.47889],[-0.42607,39.47924],[-0.42575,39.47921],[-0.42405,39.48166],[-0.42485,39.48204],[-0.42209,39.48594],[-0.41969,39.48457],[-0.41879,39.48421]]]}},{"type":"Feature","properties":{"id":"4616901020"},"geometry":{"type":"Polygon","coordinates":[[[-0.42813,39.47742],[-0.42288,39.47011],[-0.42465,39.47023],[-0.42638,39.46897],[-0.42816,39.46883],[-0.42934,39.46863],[-0.43337,39.46697],[-0.43359,39.46804],[-0.43317,39.46908],[-0.43342,39.47057],[-0.43244,39.47248],[-0.43188,39.47252],[-0.43088,39.47232],[-0.42971,39.47231],[-0.42978,39.47305],[-0.43043,39.4738],[-0.42988,39.47517],[-0.42866,39.47559],[-0.42832,39.47715],[-0.42813,39.47742]]]}},{"type":"Feature","properties":{"id":"4616901021"},"geometry":{"type":"Polygon","coordinates":[[[-0.42224,39.47532],[-0.41893,39.47423],[-0.41941,39.47335],[-0.42273,39.47441],[-0.42224,39.47532]]]}},{"type":"Feature","properties":{"id":"4616901022"},"geometry":{"type":"Polygon","coordinates":[[[-0.42228,39.47524],[-0.42273,39.47441],[-0.42167,39.47407],[-0.4222,39.47309],[-0.42232,39.47306],[-0.42259,39.47249],[-0.42281,39.47263],[-0.42288,39.47251],[-0.42421,39.47196],[-0.42714,39.47601],[-0.42593,39.47654],[-0.42571,39.47641],[-0.42345,39.47572],[-0.42304,39.47548],[-0.42228,39.47524]]]}},{"type":"Feature","properties":{"id":"4616901023"},"geometry":{"type":"Polygon","coordinates":[[[-0.41802,39.47809],[-0.41824,39.47726],[-0.42,39.4774],[-0.42073,39.47757],[-0.42029,39.47841],[-0.41802,39.47809]]]}},{"type":"Feature","properties":{"id":"4616901024"},"geometry":{"type":"Polygon","coordinates":[[[-0.41496,39.47714],[-0.41551,39.47642],[-0.41583,39.47619],[-0.41589,39.47579],[-0.4175,39.47604],[-0.41669,39.47763],[-0.41496,39.47714]]]}},{"type":"Feature","properties":{"id":"4616901025"},"geometry":{"type":"Polygon","coordinates":[[[-0.41807,39.47055],[-0.41909,39.47092],[-0.4193,39.47121],[-0.41879,39.47213],[-0.41842,39.472],[-0.41836,39.47208],[-0.41738,39.47167],[-0.41807,39.47055]]]}},{"type":"Feature","properties":{"id":"4616901026"},"geometry":{"type":"Polygon","coordinates":[[[-0.41618,39.46965],[-0.41684,39.46956],[-0.41809,39.46906],[-0.419,39.46922],[-0.41898,39.46992],[-0.41865,39.47023],[-0.41696,39.47087],[-0.41618,39.46965]]]}},{"type":"Feature","properties":{"id":"4616901027"},"geometry":{"type":"Polygon","coordinates":[[[-0.42254,39.47938],[-0.42028,39.47843],[-0.42073,39.47757],[-0.4231,39.47855],[-0.42254,39.47938]]]}},{"type":"Feature","properties":{"id":"4616901028"},"geometry":{"type":"Polygon","coordinates":[[[-0.41941,39.47335],[-0.41986,39.47253],[-0.42211,39.47325],[-0.42167,39.47407],[-0.41941,39.47335]]]}},{"type":"Feature","properties":{"id":"4616901029"},"geometry":{"type":"Polygon","coordinates":[[[-0.41015,39.47487],[-0.41318,39.47585],[-0.4133,39.47561],[-0.41389,39.47512],[-0.41433,39.47541],[-0.41589,39.4758],[-0.41583,39.47619],[-0.41551,39.47642],[-0.41497,39.47711],[-0.41446,39.47829],[-0.41325,39.47894],[-0.41234,39.47807],[-0.41233,39.47769],[-0.41186,39.47709],[-0.41139,39.47616],[-0.4102,39.47568],[-0.41025,39.47513],[-0.41015,39.47487]]]}},{"type":"Feature","properties":{"id":"4616901030"},"geometry":{"type":"Polygon","coordinates":[[[-0.41657,39.47788],[-0.4175,39.47604],[-0.41851,39.47619],[-0.41802,39.47809],[-0.41657,39.47788]]]}},{"type":"Feature","properties":{"id":"4616901031"},"geometry":{"type":"Polygon","coordinates":[[[-0.42629,39.47889],[-0.42112,39.47682],[-0.42179,39.47517],[-0.42304,39.47548],[-0.42345,39.47572],[-0.42571,39.47641],[-0.42593,39.47654],[-0.42714,39.47601],[-0.42813,39.47742],[-0.42746,39.47837],[-0.42678,39.47817],[-0.42629,39.47889]]]}},{"type":"Feature","properties":{"id":"4616901032"},"geometry":{"type":"Polygon","coordinates":[[[-0.41383,39.48237],[-0.41667,39.47888],[-0.41633,39.47874],[-0.41649,39.47839],[-0.42003,39.47896],[-0.42177,39.47969],[-0.41879,39.48421],[-0.41474,39.48262],[-0.41383,39.48237]]]}}]}