{"type":"FeatureCollection","features":[{"type":"Feature","properties":{"id":"4619501001"},"geometry":{"type":"Polygon","coordinates":[[[-0.13499,38.94385],[-0.13428,38.94307],[-0.13413,38.94314],[-0.1326,38.94281],[-0.13191,38.94279],[-0.13094,38.94135],[-0.12928,38.93987],[-0.12873,38.93842],[-0.132,38.93767],[-0.13314,38.93757],[-0.13614,38.93929],[-0.13699,38.94099],[-0.13626,38.94106],[-0.1361,38.94114],[-0.13605,38.94223],[-0.13535,38.94342],[-0.13526,38.94389],[-0.13499,38.94385]]]}},{"type":"Feature","properties":{"id":"4619501002"},"geometry":{"type":"Polygon","coordinates":[[[-0.11806,38.95358],[-0.11654,38.95218],[-0.11598,38.95149],[-0.11548,38.95113],[-0.11513,38.95057],[-0.11436,38.94984],[-0.11345,38.94922],[-0.11307,38.94867],[-0.11133,38.947],[-0.11068,38.94651],[-0.11013,38.94584],[-0.10889,38.94483],[-0.10863,38.94433],[-0.10778,38.94352],[-0.1083,38.94307],[-0.10932,38.94234],[-0.11071,38.94179],[-0.11325,38.94131],[-0.11888,38.94072],[-0.1251,38.93948],[-0.12486,38.93875],[-0.12484,38.9385],[-0.12498,38.93835],[-0.12783,38.93767],[-0.12821,38.93764],[-0.12886,38.9378],[-0.12979,38.93766],[-0.13014,38.93751],[-0.13051,38.9372],[-0.13124,38.93642],[-0.13347,38.93576],[-0.13868,38.93534],[-0.13948,38.93513],[-0.1404,38.93524],[-0.14142,38.93576],[-0.14174,38.93607],[-0.14216,38.93685],[-0.14217,38.93728],[-0.1427,38.93799],[-0.14334,38.93915],[-0.14374,38.94041],[-0.14406,38.94324],[-0.14408,38.94666],[-0.1391,38.94794],[-0.13314,38.94971],[-0.13153,38.95037],[-0.13102,38.95067],[-0.13064,38.95105],[-0.13024,38.95167],[-0.12908,38.95217],[-0.12853,38.95226],[-0.12578,38.95208],[-0.12517,38.95232],[-0.12474,38.9527],[-0.12365,38.95335],[-0.12276,38.95349],[-0.12084,38.95319],[-0.11989,38.95347],[-0.11893,38.95402],[-0.11806,38.95358]],[[-0.13614,38.93929],[-0.13314,38.93757],[-0.132,38.93767],[-0.12873,38.93842],[-0.12928,38.93987],[-0.13094,38.94135],[-0.13191,38.94279],[-0.1326,38.94281],[-0.13413,38.94314],[-0.13428,38.94307],[-0.13499,38.94385],[-0.13516,38.9439],[-0.13529,38.94385],[-0.13535,38.94342],[-0.13605,38.94223],[-0.1361,38.94114],[-0.13626,38.94106],[-0.13699,38.94099],[-0.13614,38.93929]]]}}]}