{"type":"FeatureCollection","features":[{"type":"Feature","properties":{"id":"4620701001"},"geometry":{"type":"Polygon","coordinates":[[[-0.3231,39.58742],[-0.32438,39.58342],[-0.32492,39.58258],[-0.32598,39.58278],[-0.32778,39.5813],[-0.33329,39.58296],[-0.3319,39.58525],[-0.33216,39.58583],[-0.33321,39.58707],[-0.33443,39.58884],[-0.33159,39.59043],[-0.33075,39.59113],[-0.32883,39.59004],[-0.32558,39.58925],[-0.3231,39.58742]]]}},{"type":"Feature","properties":{"id":"4620701002"},"geometry":{"type":"Polygon","coordinates":[[[-0.33075,39.59113],[-0.33159,39.59043],[-0.33448,39.58882],[-0.33597,39.58986],[-0.34135,39.59293],[-0.34016,39.59515],[-0.33792,39.59347],[-0.33434,39.59319],[-0.33075,39.59113]]]}},{"type":"Feature","properties":{"id":"4620701003"},"geometry":{"type":"Polygon","coordinates":[[[-0.33329,39.58296],[-0.33469,39.58343],[-0.33929,39.58558],[-0.33882,39.58634],[-0.33552,39.58834],[-0.33443,39.58884],[-0.33321,39.58707],[-0.33216,39.58583],[-0.3319,39.58525],[-0.33329,39.58296]]]}},{"type":"Feature","properties":{"id":"4620701004"},"geometry":{"type":"Polygon","coordinates":[[[-0.34016,39.59515],[-0.34135,39.59293],[-0.33597,39.58986],[-0.33443,39.58884],[-0.33552,39.58834],[-0.33882,39.58634],[-0.33929,39.58558],[-0.35418,39.59272],[-0.36789,39.60005],[-0.36721,39.60501],[-0.36916,39.60546],[-0.37328,39.61194],[-0.37467,39.61434],[-0.37304,39.61364],[-0.36461,39.60764],[-0.35802,39.60515],[-0.35419,39.60382],[-0.35382,39.6033],[-0.34828,39.59982],[-0.34246,39.59693],[-0.34016,39.59515]]]}}]}