{"type":"FeatureCollection","features":[{"type":"Feature","properties":{"id":"4620501001"},"geometry":{"type":"Polygon","coordinates":[[[-0.30565,39.61633],[-0.30184,39.61563],[-0.3006,39.61563],[-0.30007,39.61549],[-0.30004,39.61559],[-0.29857,39.6153],[-0.29834,39.6159],[-0.29871,39.61464],[-0.29937,39.61473],[-0.30025,39.61414],[-0.30164,39.61359],[-0.30399,39.61304],[-0.30579,39.61286],[-0.30718,39.6129],[-0.30647,39.61498],[-0.30565,39.61633]]]}},{"type":"Feature","properties":{"id":"4620501002"},"geometry":{"type":"Polygon","coordinates":[[[-0.3267,39.63658],[-0.29574,39.62871],[-0.26846,39.61351],[-0.26103,39.6148],[-0.26136,39.61429],[-0.26307,39.61393],[-0.26864,39.60621],[-0.27181,39.59857],[-0.3006,39.60107],[-0.30683,39.6021],[-0.3132,39.60445],[-0.32099,39.60987],[-0.33701,39.62015],[-0.34435,39.62625],[-0.34222,39.62787],[-0.34253,39.62803],[-0.34241,39.6283],[-0.34213,39.62827],[-0.34178,39.62894],[-0.34155,39.62888],[-0.3413,39.62955],[-0.34001,39.62913],[-0.33832,39.62767],[-0.33711,39.62717],[-0.33687,39.62806],[-0.33701,39.62813],[-0.33677,39.62846],[-0.33671,39.62896],[-0.33679,39.62904],[-0.33612,39.62961],[-0.33473,39.62899],[-0.33475,39.6289],[-0.33308,39.62854],[-0.33285,39.62923],[-0.33257,39.62951],[-0.33251,39.62983],[-0.33273,39.6309],[-0.33259,39.63112],[-0.33227,39.63141],[-0.33178,39.63131],[-0.3317,39.63148],[-0.33156,39.63146],[-0.33086,39.63171],[-0.33088,39.63204],[-0.33141,39.63241],[-0.33081,39.63285],[-0.33065,39.63271],[-0.33024,39.63309],[-0.3298,39.63391],[-0.32939,39.63439],[-0.32913,39.63447],[-0.32921,39.63462],[-0.32847,39.63582],[-0.32837,39.63575],[-0.32822,39.63595],[-0.32777,39.63679],[-0.3267,39.63658]],[[-0.30194,39.62645],[-0.30421,39.62356],[-0.30453,39.62365],[-0.30833,39.62372],[-0.30893,39.62356],[-0.30935,39.62315],[-0.31118,39.62055],[-0.31203,39.62088],[-0.31227,39.62054],[-0.31263,39.6207],[-0.31288,39.62035],[-0.31299,39.62038],[-0.31311,39.6202],[-0.3135,39.62037],[-0.31392,39.61982],[-0.31589,39.62083],[-0.31625,39.62051],[-0.31744,39.61909],[-0.31799,39.6182],[-0.31593,39.6175],[-0.31627,39.61719],[-0.31484,39.61687],[-0.314,39.61645],[-0.31628,39.61232],[-0.31581,39.61144],[-0.31546,39.61118],[-0.31356,39.61036],[-0.31298,39.61033],[-0.3113,39.61357],[-0.31027,39.61329],[-0.30945,39.61326],[-0.30864,39.61302],[-0.30738,39.61285],[-0.30645,39.61527],[-0.30541,39.61704],[-0.30356,39.61963],[-0.30471,39.6199],[-0.30202,39.62208],[-0.30135,39.62283],[-0.29969,39.62519],[-0.2999,39.62526],[-0.3008,39.62648],[-0.30104,39.62664],[-0.30154,39.62667],[-0.30194,39.62645]],[[-0.30184,39.61563],[-0.30565,39.61633],[-0.30647,39.61498],[-0.30718,39.6129],[-0.30579,39.61286],[-0.30399,39.61304],[-0.30164,39.61359],[-0.30025,39.61414],[-0.29937,39.61473],[-0.29871,39.61464],[-0.29834,39.6159],[-0.29857,39.6153],[-0.30004,39.61559],[-0.30007,39.61549],[-0.3006,39.61563],[-0.30184,39.61563]],[[-0.29879,39.61946],[-0.29868,39.6191],[-0.29946,39.6193],[-0.29961,39.61901],[-0.29984,39.61903],[-0.30009,39.61872],[-0.30361,39.61906],[-0.3045,39.61738],[-0.30328,39.61716],[-0.30283,39.61698],[-0.30169,39.61685],[-0.30161,39.61749],[-0.30132,39.61746],[-0.30117,39.61742],[-0.30119,39.61718],[-0.30058,39.61707],[-0.30062,39.61693],[-0.29907,39.61667],[-0.29841,39.61868],[-0.29768,39.61861],[-0.29783,39.61933],[-0.29879,39.61946]]]}},{"type":"Feature","properties":{"id":"4620501003"},"geometry":{"type":"Polygon","coordinates":[[[-0.29783,39.61933],[-0.29768,39.61861],[-0.29841,39.61868],[-0.29907,39.61667],[-0.30062,39.61693],[-0.30058,39.61707],[-0.30119,39.61718],[-0.30117,39.61742],[-0.30132,39.61746],[-0.30161,39.61749],[-0.30169,39.61685],[-0.30283,39.61698],[-0.30328,39.61716],[-0.3045,39.61738],[-0.30361,39.61906],[-0.30009,39.61872],[-0.29984,39.61903],[-0.29961,39.61901],[-0.29946,39.6193],[-0.29868,39.6191],[-0.29879,39.61946],[-0.29783,39.61933]]]}},{"type":"Feature","properties":{"id":"4620501004"},"geometry":{"type":"Polygon","coordinates":[[[-0.30646,39.61525],[-0.30955,39.6158],[-0.30924,39.61621],[-0.30856,39.6177],[-0.30746,39.61745],[-0.30699,39.61797],[-0.30463,39.61988],[-0.30356,39.61963],[-0.30541,39.61704],[-0.30646,39.61525]]]}},{"type":"Feature","properties":{"id":"4620501005"},"geometry":{"type":"Polygon","coordinates":[[[-0.30463,39.61988],[-0.30699,39.61797],[-0.30746,39.61745],[-0.30856,39.6177],[-0.30736,39.62021],[-0.30441,39.62359],[-0.30421,39.62356],[-0.30194,39.62645],[-0.30154,39.62667],[-0.30109,39.62666],[-0.3008,39.62648],[-0.2999,39.62526],[-0.29969,39.62519],[-0.30182,39.62229],[-0.30278,39.6214],[-0.30471,39.6199],[-0.30463,39.61988]]]}},{"type":"Feature","properties":{"id":"4620501006"},"geometry":{"type":"Polygon","coordinates":[[[-0.30441,39.62359],[-0.30755,39.6199],[-0.31098,39.62084],[-0.30935,39.62315],[-0.30877,39.62364],[-0.30833,39.62372],[-0.30453,39.62365],[-0.30441,39.62359]]]}},{"type":"Feature","properties":{"id":"4620501007"},"geometry":{"type":"Polygon","coordinates":[[[-0.31098,39.62084],[-0.30754,39.61989],[-0.30851,39.61781],[-0.31018,39.61832],[-0.31304,39.61939],[-0.31298,39.61953],[-0.31387,39.61991],[-0.3135,39.62037],[-0.31311,39.6202],[-0.31299,39.62038],[-0.31288,39.62035],[-0.31263,39.6207],[-0.31227,39.62054],[-0.31203,39.62088],[-0.31118,39.62055],[-0.31098,39.62084]]]}},{"type":"Feature","properties":{"id":"4620501008"},"geometry":{"type":"Polygon","coordinates":[[[-0.31383,39.61989],[-0.31298,39.61953],[-0.31304,39.61939],[-0.31018,39.61832],[-0.30851,39.61781],[-0.30924,39.61621],[-0.30956,39.61579],[-0.31353,39.61666],[-0.3138,39.61683],[-0.31587,39.61756],[-0.31593,39.6175],[-0.31799,39.6182],[-0.31744,39.61909],[-0.31589,39.62083],[-0.31392,39.61982],[-0.31383,39.61989]]]}},{"type":"Feature","properties":{"id":"4620501009"},"geometry":{"type":"Polygon","coordinates":[[[-0.32777,39.63679],[-0.32822,39.63595],[-0.32837,39.63575],[-0.32847,39.63582],[-0.32921,39.63462],[-0.32913,39.63447],[-0.32939,39.63439],[-0.3298,39.63391],[-0.33024,39.63309],[-0.33065,39.63271],[-0.33081,39.63285],[-0.33141,39.63241],[-0.33088,39.63204],[-0.33086,39.63171],[-0.33156,39.63146],[-0.3317,39.63148],[-0.33178,39.63131],[-0.33227,39.63141],[-0.33259,39.63112],[-0.33273,39.6309],[-0.33251,39.62983],[-0.33257,39.62951],[-0.33285,39.62923],[-0.33308,39.62854],[-0.33475,39.6289],[-0.33473,39.62899],[-0.33612,39.62961],[-0.33679,39.62904],[-0.33671,39.62896],[-0.33677,39.62846],[-0.33701,39.62813],[-0.33687,39.62806],[-0.33711,39.62717],[-0.33832,39.62767],[-0.34001,39.62913],[-0.3413,39.62955],[-0.34155,39.62888],[-0.34178,39.62894],[-0.34213,39.62827],[-0.34241,39.6283],[-0.34253,39.62803],[-0.34222,39.62787],[-0.34435,39.62625],[-0.35338,39.63376],[-0.34323,39.63986],[-0.32777,39.63679]]]}},{"type":"Feature","properties":{"id":"4620501010"},"geometry":{"type":"Polygon","coordinates":[[[-0.30646,39.61525],[-0.30738,39.61285],[-0.30864,39.61302],[-0.30945,39.61326],[-0.31027,39.61329],[-0.3113,39.61357],[-0.31054,39.61465],[-0.30955,39.6158],[-0.30646,39.61525]]]}},{"type":"Feature","properties":{"id":"4620501011"},"geometry":{"type":"Polygon","coordinates":[[[-0.30956,39.61579],[-0.31108,39.61396],[-0.31298,39.61033],[-0.31356,39.61036],[-0.31546,39.61118],[-0.31581,39.61144],[-0.31628,39.61232],[-0.314,39.61645],[-0.31484,39.61687],[-0.31627,39.61719],[-0.31587,39.61756],[-0.3138,39.61683],[-0.31353,39.61666],[-0.30956,39.61579]]]}},{"type":"Feature","properties":{"id":"4620501012"},"geometry":{"type":"Polygon","coordinates":[[[-0.25889,39.61493],[-0.25969,39.61455],[-0.26658,39.60299],[-0.26806,39.59825],[-0.27181,39.59857],[-0.26864,39.60621],[-0.26307,39.61393],[-0.26136,39.61429],[-0.26103,39.6148],[-0.2607,39.61486],[-0.25997,39.61564],[-0.25889,39.61493]]]}}]}