{"type":"FeatureCollection","features":[{"type":"Feature","properties":{"id":"4623301001"},"geometry":{"type":"Polygon","coordinates":[[[-0.37737,39.27493],[-0.38311,39.27301],[-0.38966,39.27925],[-0.38565,39.2809],[-0.38493,39.27982],[-0.37978,39.27477],[-0.37737,39.27493]]]}},{"type":"Feature","properties":{"id":"4623301002"},"geometry":{"type":"Polygon","coordinates":[[[-0.37566,39.27505],[-0.37978,39.27477],[-0.38493,39.27982],[-0.38565,39.2809],[-0.38497,39.28116],[-0.38433,39.28025],[-0.38373,39.27987],[-0.38355,39.2801],[-0.3826,39.2795],[-0.37997,39.27871],[-0.37924,39.27836],[-0.37673,39.27668],[-0.37623,39.27623],[-0.37566,39.27505]]]}},{"type":"Feature","properties":{"id":"4623301003"},"geometry":{"type":"Polygon","coordinates":[[[-0.33298,39.31567],[-0.33304,39.31435],[-0.334,39.30555],[-0.33567,39.3032],[-0.33823,39.30196],[-0.33637,39.30055],[-0.34256,39.29742],[-0.34307,39.29592],[-0.33959,39.29513],[-0.34192,39.29135],[-0.34214,39.28955],[-0.34163,39.28923],[-0.34568,39.28612],[-0.3452,39.28608],[-0.34746,39.27883],[-0.34859,39.27855],[-0.34997,39.27882],[-0.35057,39.27604],[-0.35337,39.27395],[-0.35365,39.26868],[-0.35275,39.26767],[-0.35336,39.2627],[-0.3555,39.26146],[-0.3558,39.25948],[-0.35761,39.25909],[-0.3575,39.25664],[-0.3564,39.255],[-0.3562,39.25143],[-0.35661,39.25159],[-0.35642,39.25006],[-0.35779,39.24687],[-0.36446,39.24838],[-0.36714,39.2468],[-0.36789,39.24646],[-0.3704,39.24424],[-0.37082,39.244],[-0.37622,39.24225],[-0.37899,39.24185],[-0.37986,39.24186],[-0.38264,39.24125],[-0.38376,39.24117],[-0.38469,39.24135],[-0.38559,39.24135],[-0.38528,39.242],[-0.38727,39.2423],[-0.38948,39.24245],[-0.39095,39.24277],[-0.39273,39.24289],[-0.39398,39.24311],[-0.39526,39.24312],[-0.396,39.24301],[-0.39732,39.24246],[-0.39871,39.2426],[-0.39882,39.24238],[-0.40044,39.24259],[-0.40112,39.24203],[-0.40399,39.242],[-0.40681,39.24238],[-0.4092,39.24215],[-0.41048,39.24232],[-0.41163,39.24262],[-0.41318,39.24318],[-0.41266,39.24658],[-0.41389,39.24816],[-0.41357,39.25009],[-0.41402,39.25424],[-0.41402,39.25533],[-0.41386,39.25594],[-0.41433,39.2573],[-0.41193,39.25814],[-0.40966,39.25908],[-0.40832,39.25999],[-0.40861,39.2608],[-0.40779,39.26203],[-0.40586,39.26282],[-0.40608,39.26337],[-0.40197,39.26468],[-0.40279,39.26772],[-0.40298,39.26877],[-0.40292,39.26946],[-0.4018,39.27201],[-0.39939,39.27414],[-0.39891,39.27495],[-0.39711,39.27728],[-0.39662,39.27821],[-0.39873,39.2784],[-0.39792,39.28001],[-0.39907,39.28033],[-0.39775,39.28369],[-0.40052,39.2851],[-0.40171,39.28548],[-0.40098,39.28784],[-0.40001,39.28784],[-0.39989,39.2883],[-0.39975,39.29161],[-0.40041,39.29169],[-0.40001,39.29486],[-0.40076,39.29534],[-0.40145,39.29594],[-0.40318,39.29843],[-0.40259,39.29892],[-0.4032,39.29997],[-0.40197,39.30068],[-0.40261,39.30178],[-0.40216,39.3023],[-0.40302,39.30323],[-0.40345,39.30444],[-0.40384,39.30724],[-0.40434,39.30771],[-0.40536,39.31095],[-0.40659,39.31202],[-0.4067,39.31751],[-0.4069,39.31881],[-0.40607,39.32005],[-0.40516,39.32031],[-0.40687,39.32331],[-0.40604,39.32368],[-0.40568,39.32568],[-0.40521,39.32554],[-0.39561,39.32626],[-0.39449,39.3233],[-0.39178,39.32304],[-0.39081,39.31511],[-0.38543,39.31644],[-0.38473,39.31761],[-0.38153,39.31665],[-0.37679,39.31227],[-0.38008,39.31109],[-0.37751,39.31011],[-0.37549,39.30731],[-0.36782,39.30775],[-0.36731,39.30726],[-0.36749,39.30666],[-0.36469,39.30515],[-0.36319,39.30642],[-0.36176,39.30576],[-0.36109,39.30663],[-0.35919,39.30677],[-0.35593,39.31226],[-0.35307,39.31121],[-0.35025,39.31104],[-0.34755,39.3154],[-0.33718,39.3163],[-0.33687,39.31455],[-0.33582,39.3146],[-0.33408,39.31725],[-0.33298,39.31567]],[[-0.38497,39.28116],[-0.38966,39.27925],[-0.38311,39.27301],[-0.37737,39.27493],[-0.37566,39.27505],[-0.37642,39.27644],[-0.37924,39.27836],[-0.38022,39.2788],[-0.3826,39.2795],[-0.38355,39.2801],[-0.38373,39.27987],[-0.38433,39.28025],[-0.38497,39.28116]]]}}]}