{"type":"FeatureCollection","features":[{"type":"Feature","properties":{"id":"4625101001"},"geometry":{"type":"Polygon","coordinates":[[[-0.68782,38.90171],[-0.68842,38.90038],[-0.68857,38.89919],[-0.68953,38.89767],[-0.69006,38.8966],[-0.69029,38.89584],[-0.69072,38.89567],[-0.69073,38.89557],[-0.69014,38.89379],[-0.68992,38.89379],[-0.68871,38.89306],[-0.68863,38.89225],[-0.69016,38.892],[-0.69192,38.89204],[-0.69437,38.89319],[-0.69659,38.89311],[-0.69696,38.89384],[-0.6985,38.89613],[-0.70017,38.89774],[-0.7012,38.89953],[-0.70024,38.90051],[-0.69864,38.90043],[-0.69755,38.90063],[-0.69413,38.90094],[-0.69198,38.90104],[-0.68889,38.90253],[-0.68806,38.90271],[-0.68782,38.90171]]]}},{"type":"Feature","properties":{"id":"4625101002"},"geometry":{"type":"Polygon","coordinates":[[[-0.62347,38.89012],[-0.62807,38.88682],[-0.63042,38.88531],[-0.63676,38.88045],[-0.63722,38.8802],[-0.63778,38.88008],[-0.63846,38.88012],[-0.64177,38.88051],[-0.64221,38.88043],[-0.64254,38.88016],[-0.64294,38.87947],[-0.64297,38.87882],[-0.64758,38.87933],[-0.65347,38.87397],[-0.65461,38.87304],[-0.65555,38.87204],[-0.65754,38.86869],[-0.65803,38.86753],[-0.66102,38.86171],[-0.66316,38.86121],[-0.6716,38.85857],[-0.67412,38.85659],[-0.67763,38.85565],[-0.67857,38.85479],[-0.6801,38.85444],[-0.68135,38.85319],[-0.68655,38.85105],[-0.68843,38.85],[-0.69145,38.85062],[-0.69103,38.8487],[-0.69268,38.84804],[-0.6991,38.85736],[-0.70912,38.87032],[-0.71373,38.87482],[-0.71399,38.87886],[-0.71554,38.88078],[-0.71726,38.88411],[-0.72465,38.89053],[-0.72248,38.89253],[-0.72588,38.8939],[-0.72782,38.89643],[-0.72913,38.89716],[-0.73481,38.90309],[-0.7368,38.90328],[-0.73872,38.90122],[-0.74062,38.90244],[-0.74107,38.9054],[-0.74425,38.90607],[-0.74603,38.90794],[-0.74446,38.90967],[-0.74837,38.91126],[-0.75005,38.91276],[-0.75226,38.91182],[-0.75393,38.91361],[-0.75639,38.91122],[-0.75794,38.91169],[-0.75763,38.91452],[-0.75947,38.91501],[-0.76031,38.91496],[-0.76041,38.91563],[-0.75964,38.91691],[-0.76364,38.91694],[-0.76078,38.91995],[-0.75294,38.92125],[-0.73902,38.92447],[-0.7276,38.92512],[-0.72108,38.92967],[-0.71022,38.93987],[-0.69893,38.94678],[-0.69703,38.94521],[-0.69554,38.94327],[-0.69418,38.94204],[-0.69349,38.94175],[-0.69182,38.94133],[-0.68811,38.94115],[-0.687,38.94102],[-0.68641,38.94084],[-0.6846,38.93967],[-0.68314,38.93853],[-0.68126,38.93752],[-0.67912,38.9351],[-0.67208,38.93372],[-0.67166,38.93334],[-0.66938,38.93208],[-0.66826,38.93062],[-0.668,38.93042],[-0.66671,38.92983],[-0.66511,38.92894],[-0.66221,38.92679],[-0.66041,38.92575],[-0.65865,38.92418],[-0.65338,38.91853],[-0.64738,38.91074],[-0.64254,38.90598],[-0.6282,38.89383],[-0.62347,38.89012]],[[-0.68842,38.90038],[-0.68782,38.90171],[-0.68806,38.90271],[-0.68889,38.90253],[-0.69198,38.90104],[-0.69413,38.90094],[-0.69755,38.90063],[-0.69864,38.90043],[-0.70024,38.90051],[-0.7012,38.89953],[-0.70017,38.89774],[-0.6985,38.89613],[-0.69696,38.89384],[-0.69659,38.89311],[-0.69437,38.89319],[-0.69192,38.89204],[-0.69016,38.892],[-0.68863,38.89225],[-0.68871,38.89306],[-0.68992,38.89379],[-0.69014,38.89379],[-0.69073,38.89557],[-0.69072,38.89567],[-0.69029,38.89584],[-0.69006,38.8966],[-0.68953,38.89767],[-0.68857,38.89919],[-0.68842,38.90038]]]}}]}