{"type":"FeatureCollection","features":[{"type":"Feature","properties":{"id":"4700401001"},"geometry":{"type":"Polygon","coordinates":[[[-5.18422,41.27185],[-5.18633,41.27116],[-5.19162,41.27209],[-5.1989,41.26922],[-5.20482,41.27257],[-5.21373,41.26674],[-5.2148,41.26435],[-5.21606,41.25909],[-5.21627,41.25719],[-5.21823,41.25002],[-5.21906,41.24908],[-5.22268,41.24304],[-5.22486,41.24303],[-5.22619,41.24428],[-5.23065,41.24537],[-5.2322,41.24408],[-5.2381,41.24728],[-5.23896,41.24649],[-5.24014,41.24691],[-5.24064,41.24597],[-5.24205,41.24534],[-5.24493,41.24647],[-5.2497,41.24616],[-5.24913,41.24724],[-5.25147,41.24615],[-5.25442,41.24733],[-5.25596,41.24632],[-5.25749,41.24762],[-5.25681,41.24865],[-5.25741,41.24989],[-5.2613,41.24825],[-5.26206,41.2494],[-5.26411,41.24902],[-5.26536,41.25059],[-5.26887,41.25336],[-5.27572,41.26142],[-5.2793,41.26411],[-5.28256,41.26484],[-5.28641,41.26667],[-5.28972,41.26902],[-5.29174,41.26919],[-5.29657,41.27071],[-5.29495,41.28254],[-5.29727,41.29234],[-5.30368,41.30033],[-5.30324,41.30837],[-5.30647,41.3116],[-5.30351,41.31598],[-5.30549,41.31821],[-5.30454,41.31842],[-5.29529,41.32111],[-5.29085,41.32364],[-5.28738,41.32575],[-5.28095,41.32928],[-5.27344,41.33355],[-5.27053,41.33496],[-5.26743,41.33517],[-5.26585,41.33514],[-5.26426,41.33684],[-5.26102,41.33918],[-5.26051,41.34009],[-5.25976,41.34109],[-5.2571,41.34377],[-5.2543,41.34706],[-5.25352,41.3483],[-5.25221,41.34919],[-5.2516,41.34948],[-5.24917,41.35018],[-5.24422,41.35388],[-5.23569,41.34508],[-5.23199,41.34025],[-5.22639,41.32244],[-5.22347,41.31856],[-5.22245,41.31701],[-5.22013,41.31462],[-5.22034,41.31433],[-5.22002,41.31307],[-5.21985,41.31269],[-5.21892,41.31169],[-5.22025,41.31113],[-5.21864,41.31077],[-5.2184,41.30994],[-5.21851,41.30848],[-5.21813,41.30825],[-5.2179,41.30845],[-5.217,41.30885],[-5.21685,41.30808],[-5.21619,41.30812],[-5.21581,41.30829],[-5.21524,41.30783],[-5.2145,41.30759],[-5.21466,41.30717],[-5.21216,41.3065],[-5.20936,41.30536],[-5.20739,41.30438],[-5.20508,41.30367],[-5.20494,41.30366],[-5.20485,41.30473],[-5.18741,41.27681],[-5.18422,41.27185]]]}},{"type":"Feature","properties":{"id":"4700401002"},"geometry":{"type":"Polygon","coordinates":[[[-5.15905,41.33081],[-5.15981,41.32363],[-5.15671,41.31774],[-5.15536,41.31726],[-5.15307,41.31607],[-5.15022,41.31406],[-5.14887,41.31282],[-5.14595,41.31133],[-5.14371,41.31041],[-5.14343,41.30957],[-5.14355,41.30841],[-5.14082,41.30824],[-5.14088,41.30746],[-5.1421,41.30633],[-5.14336,41.30588],[-5.14508,41.30487],[-5.14604,41.30292],[-5.14632,41.30195],[-5.1473,41.30025],[-5.14792,41.29952],[-5.14816,41.29849],[-5.14783,41.29594],[-5.14903,41.29296],[-5.14906,41.29226],[-5.14783,41.2892],[-5.14794,41.28866],[-5.14927,41.28685],[-5.14869,41.28567],[-5.14841,41.28546],[-5.14869,41.28451],[-5.14878,41.28247],[-5.15017,41.2787],[-5.15691,41.27455],[-5.17222,41.27164],[-5.17557,41.27117],[-5.17652,41.27198],[-5.18014,41.27092],[-5.1818,41.27264],[-5.18422,41.27185],[-5.18741,41.27681],[-5.20485,41.30473],[-5.20494,41.30366],[-5.20508,41.30367],[-5.20739,41.30438],[-5.20936,41.30536],[-5.21216,41.3065],[-5.21466,41.30717],[-5.2145,41.30759],[-5.21524,41.30783],[-5.21581,41.30829],[-5.21619,41.30812],[-5.21685,41.30808],[-5.217,41.30885],[-5.2179,41.30845],[-5.21813,41.30825],[-5.21851,41.30848],[-5.2184,41.30994],[-5.21864,41.31077],[-5.22025,41.31113],[-5.21892,41.31169],[-5.21985,41.31269],[-5.22002,41.31307],[-5.22034,41.31433],[-5.22013,41.31462],[-5.22245,41.31701],[-5.22347,41.31856],[-5.22639,41.32244],[-5.23199,41.34025],[-5.23569,41.34508],[-5.24422,41.35388],[-5.24342,41.35448],[-5.24276,41.35484],[-5.24205,41.35504],[-5.2422,41.35551],[-5.24212,41.35577],[-5.24148,41.3562],[-5.23934,41.35821],[-5.23889,41.35876],[-5.23816,41.35867],[-5.23642,41.35381],[-5.23572,41.35258],[-5.23339,41.34907],[-5.23242,41.34682],[-5.23079,41.34384],[-5.23068,41.34114],[-5.22848,41.34087],[-5.22834,41.34016],[-5.2257,41.34047],[-5.21835,41.34011],[-5.21822,41.33929],[-5.21389,41.33871],[-5.2131,41.33896],[-5.20701,41.33831],[-5.20524,41.33754],[-5.20252,41.33591],[-5.20058,41.33384],[-5.1999,41.33437],[-5.19805,41.33383],[-5.19761,41.33437],[-5.19614,41.33394],[-5.19523,41.33387],[-5.19145,41.33182],[-5.1901,41.33172],[-5.18768,41.33046],[-5.18653,41.32998],[-5.18539,41.33033],[-5.18466,41.32889],[-5.17642,41.32528],[-5.16893,41.3257],[-5.16258,41.32767],[-5.16083,41.32933],[-5.15905,41.33081]]]}}]}