{"type":"FeatureCollection","features":[{"type":"Feature","properties":{"id":"4709001001"},"geometry":{"type":"Polygon","coordinates":[[[-4.7289,41.46284],[-4.72419,41.46093],[-4.72028,41.45947],[-4.71747,41.45958],[-4.71672,41.45994],[-4.7163,41.45993],[-4.71523,41.45945],[-4.71183,41.4589],[-4.71081,41.4589],[-4.7095,41.45872],[-4.70871,41.45846],[-4.70713,41.45845],[-4.70575,41.45806],[-4.70482,41.4582],[-4.70366,41.45823],[-4.70153,41.45816],[-4.69932,41.45542],[-4.69804,41.45449],[-4.69683,41.45332],[-4.6951,41.45075],[-4.69427,41.44999],[-4.6935,41.44907],[-4.69193,41.44826],[-4.68944,41.44735],[-4.68764,41.44684],[-4.68656,41.44667],[-4.68515,41.4467],[-4.68013,41.44773],[-4.67757,41.44949],[-4.67634,41.45056],[-4.67359,41.4526],[-4.67133,41.4535],[-4.66807,41.45464],[-4.66063,41.4363],[-4.66017,41.43513],[-4.66017,41.43471],[-4.66143,41.43342],[-4.66187,41.43331],[-4.66211,41.43341],[-4.66252,41.43309],[-4.66337,41.43278],[-4.66408,41.43208],[-4.66445,41.43139],[-4.66492,41.431],[-4.6702,41.42781],[-4.68549,41.41286],[-4.6864,41.41166],[-4.68682,41.41085],[-4.6871,41.40982],[-4.6872,41.40871],[-4.68577,41.40778],[-4.68384,41.40836],[-4.68542,41.40789],[-4.68582,41.40731],[-4.68728,41.40688],[-4.6873,41.40667],[-4.68806,41.40617],[-4.68844,41.4064],[-4.68868,41.40641],[-4.691,41.40595],[-4.69127,41.40622],[-4.69321,41.40584],[-4.69711,41.40557],[-4.69924,41.40558],[-4.70319,41.40658],[-4.70455,41.4067],[-4.70518,41.40701],[-4.707,41.40752],[-4.70986,41.40868],[-4.71165,41.4096],[-4.71387,41.41058],[-4.71458,41.41104],[-4.71538,41.41177],[-4.71706,41.41268],[-4.71822,41.4136],[-4.7209,41.41619],[-4.72311,41.41741],[-4.72381,41.41817],[-4.72468,41.41881],[-4.7264,41.4211],[-4.72775,41.42332],[-4.7301,41.42622],[-4.73098,41.4276],[-4.73254,41.42925],[-4.73432,41.43258],[-4.73562,41.43607],[-4.7365,41.43717],[-4.73731,41.43791],[-4.7396,41.44098],[-4.74265,41.44422],[-4.74308,41.44499],[-4.7452,41.44797],[-4.74573,41.44894],[-4.74514,41.44915],[-4.74446,41.44964],[-4.74409,41.45037],[-4.74254,41.45277],[-4.74071,41.45454],[-4.73926,41.45613],[-4.73834,41.45768],[-4.73784,41.45812],[-4.7349,41.46022],[-4.73196,41.46273],[-4.73112,41.4628],[-4.73036,41.46253],[-4.7289,41.46284]]]}},{"type":"Feature","properties":{"id":"4709001002"},"geometry":{"type":"Polygon","coordinates":[[[-4.65368,41.45084],[-4.64763,41.43993],[-4.63644,41.43438],[-4.6341,41.43435],[-4.63337,41.43374],[-4.63273,41.43256],[-4.6328,41.43201],[-4.63347,41.4312],[-4.63378,41.43057],[-4.63584,41.43042],[-4.63542,41.4284],[-4.63494,41.42799],[-4.63483,41.42745],[-4.63499,41.42674],[-4.63489,41.42617],[-4.63444,41.42511],[-4.63244,41.4243],[-4.63164,41.42407],[-4.63085,41.42358],[-4.63046,41.42349],[-4.62884,41.42357],[-4.62291,41.4226],[-4.62056,41.42232],[-4.6205,41.42195],[-4.62007,41.42155],[-4.61758,41.42136],[-4.61617,41.42159],[-4.61452,41.42159],[-4.61317,41.42083],[-4.61132,41.42062],[-4.6104,41.42035],[-4.60947,41.42029],[-4.60768,41.42076],[-4.60699,41.4164],[-4.6143,41.40872],[-4.61553,41.40884],[-4.61639,41.40681],[-4.61641,41.40536],[-4.61613,41.40389],[-4.61666,41.40277],[-4.61684,41.4018],[-4.61679,41.40131],[-4.61762,41.40124],[-4.61795,41.40063],[-4.61893,41.39964],[-4.62039,41.39874],[-4.62098,41.39851],[-4.62111,41.39797],[-4.62388,41.39835],[-4.62561,41.39911],[-4.62758,41.39948],[-4.62879,41.39986],[-4.62952,41.40019],[-4.63129,41.40126],[-4.633,41.4025],[-4.634,41.40299],[-4.63597,41.40368],[-4.63679,41.40351],[-4.63688,41.40282],[-4.63809,41.40306],[-4.63837,41.40254],[-4.63954,41.40262],[-4.6403,41.40249],[-4.64151,41.40244],[-4.64233,41.40219],[-4.64284,41.40154],[-4.64381,41.40196],[-4.64494,41.40165],[-4.64576,41.40234],[-4.64667,41.40351],[-4.6476,41.40376],[-4.65086,41.40327],[-4.65115,41.40283],[-4.65199,41.40224],[-4.65213,41.40173],[-4.65559,41.4028],[-4.6592,41.40359],[-4.65977,41.40401],[-4.66088,41.40587],[-4.66101,41.40635],[-4.66627,41.40667],[-4.66664,41.40747],[-4.66997,41.40718],[-4.6705,41.40619],[-4.6719,41.40588],[-4.67201,41.40513],[-4.67293,41.4056],[-4.67276,41.40727],[-4.67336,41.4077],[-4.67406,41.40753],[-4.6735,41.40836],[-4.67539,41.40902],[-4.6765,41.40995],[-4.67778,41.40983],[-4.67826,41.40938],[-4.67927,41.4087],[-4.68081,41.40902],[-4.68384,41.40836],[-4.68577,41.40778],[-4.6872,41.40871],[-4.6871,41.40982],[-4.68682,41.41085],[-4.6864,41.41166],[-4.68549,41.41286],[-4.6702,41.42781],[-4.66492,41.431],[-4.66445,41.43139],[-4.66408,41.43208],[-4.66337,41.43278],[-4.66252,41.43309],[-4.66211,41.43341],[-4.66187,41.43331],[-4.66143,41.43342],[-4.66017,41.43471],[-4.66017,41.43513],[-4.66063,41.4363],[-4.66807,41.45464],[-4.66635,41.45511],[-4.66455,41.45594],[-4.66379,41.45591],[-4.66392,41.45501],[-4.6624,41.45477],[-4.66208,41.45444],[-4.66105,41.45413],[-4.66036,41.45412],[-4.66022,41.45365],[-4.65904,41.45274],[-4.65841,41.45254],[-4.6573,41.45255],[-4.65668,41.45231],[-4.65616,41.45227],[-4.65586,41.45174],[-4.65475,41.45115],[-4.65368,41.45084]]]}}]}