{"type":"FeatureCollection","features":[{"type":"Feature","properties":{"id":"4710101001"},"geometry":{"type":"Polygon","coordinates":[[[-5.03858,41.45858],[-5.03891,41.45699],[-5.03904,41.4546],[-5.03881,41.45074],[-5.03907,41.4487],[-5.03898,41.44704],[-5.0386,41.4456],[-5.03836,41.44357],[-5.03867,41.44196],[-5.03967,41.44043],[-5.04367,41.43802],[-5.04452,41.43702],[-5.04117,41.43408],[-5.04301,41.43194],[-5.04505,41.42995],[-5.04363,41.42811],[-5.04247,41.42612],[-5.05055,41.41724],[-5.05103,41.4063],[-5.04935,41.39524],[-5.04865,41.39392],[-5.04648,41.38913],[-5.04535,41.38527],[-5.03992,41.38148],[-5.03772,41.36911],[-5.03577,41.365],[-5.03491,41.36354],[-5.03463,41.3626],[-5.03509,41.3613],[-5.03571,41.36056],[-5.03594,41.35979],[-5.03554,41.35918],[-5.03363,41.35753],[-5.03531,41.35519],[-5.03706,41.35394],[-5.03821,41.35342],[-5.03951,41.35327],[-5.04244,41.3509],[-5.04339,41.34863],[-5.044,41.3478],[-5.04486,41.34703],[-5.04619,41.3463],[-5.04808,41.34565],[-5.04937,41.34438],[-5.05155,41.34282],[-5.05365,41.33356],[-5.05375,41.32945],[-5.05661,41.32457],[-5.06448,41.3151],[-5.06871,41.31057],[-5.07269,41.30677],[-5.07535,41.29942],[-5.08186,41.29665],[-5.0823,41.29535],[-5.08275,41.29301],[-5.08302,41.29024],[-5.08613,41.29036],[-5.09039,41.29116],[-5.09849,41.29461],[-5.11283,41.29069],[-5.11484,41.29145],[-5.08906,41.31939],[-5.08664,41.32207],[-5.08491,41.32439],[-5.08378,41.32549],[-5.08267,41.32688],[-5.08156,41.32872],[-5.08108,41.32924],[-5.08063,41.33036],[-5.08136,41.33092],[-5.08063,41.33117],[-5.08042,41.33134],[-5.07916,41.3325],[-5.07878,41.33305],[-5.07872,41.33344],[-5.07901,41.33483],[-5.07888,41.33564],[-5.07862,41.33631],[-5.07804,41.33708],[-5.07672,41.33987],[-5.07649,41.34075],[-5.07556,41.343],[-5.07451,41.34459],[-5.07212,41.34682],[-5.06966,41.34978],[-5.06944,41.35287],[-5.06881,41.35506],[-5.06886,41.35652],[-5.0679,41.35751],[-5.06744,41.35834],[-5.06593,41.35959],[-5.06476,41.3607],[-5.06392,41.36175],[-5.05934,41.3661],[-5.059,41.36654],[-5.05864,41.36745],[-5.05802,41.36791],[-5.05751,41.36853],[-5.05564,41.36952],[-5.05477,41.37068],[-5.05387,41.37255],[-5.05376,41.37353],[-5.05382,41.37413],[-5.05311,41.37548],[-5.0511,41.37798],[-5.05023,41.3797],[-5.04748,41.38225],[-5.04675,41.38329],[-5.04661,41.38369],[-5.04654,41.3846],[-5.04657,41.38608],[-5.04744,41.38989],[-5.05016,41.39429],[-5.05152,41.39912],[-5.0513,41.40231],[-5.05153,41.40371],[-5.05111,41.40673],[-5.05135,41.41066],[-5.05125,41.41239],[-5.05154,41.41364],[-5.05145,41.41565],[-5.05122,41.41659],[-5.05143,41.42074],[-5.04974,41.42613],[-5.04932,41.43179],[-5.04881,41.43461],[-5.04814,41.43731],[-5.04705,41.4432],[-5.04711,41.45061],[-5.04687,41.45656],[-5.04795,41.45852],[-5.04778,41.46127],[-5.04724,41.4648],[-5.04676,41.46453],[-5.04523,41.46288],[-5.04104,41.4593],[-5.03858,41.45858]]]}},{"type":"Feature","properties":{"id":"4710101002"},"geometry":{"type":"Polygon","coordinates":[[[-5.04724,41.4648],[-5.04778,41.46127],[-5.04795,41.45852],[-5.04687,41.45656],[-5.04711,41.45061],[-5.04705,41.4432],[-5.04814,41.43731],[-5.04881,41.43461],[-5.04932,41.43179],[-5.04974,41.42613],[-5.05143,41.42074],[-5.05122,41.41659],[-5.05145,41.41565],[-5.05154,41.41364],[-5.05125,41.41239],[-5.05135,41.41066],[-5.05111,41.40673],[-5.05153,41.40371],[-5.0513,41.40231],[-5.05152,41.39912],[-5.05016,41.39429],[-5.04744,41.38989],[-5.04657,41.38608],[-5.04654,41.3846],[-5.04661,41.38369],[-5.04675,41.38329],[-5.04748,41.38225],[-5.05023,41.3797],[-5.0511,41.37798],[-5.05311,41.37548],[-5.05382,41.37413],[-5.05376,41.37353],[-5.05387,41.37255],[-5.05477,41.37068],[-5.05564,41.36952],[-5.05751,41.36853],[-5.05802,41.36791],[-5.05864,41.36745],[-5.059,41.36654],[-5.05934,41.3661],[-5.06392,41.36175],[-5.06476,41.3607],[-5.06593,41.35959],[-5.06744,41.35834],[-5.0679,41.35751],[-5.06886,41.35652],[-5.06881,41.35506],[-5.06944,41.35287],[-5.06966,41.34978],[-5.07212,41.34682],[-5.07451,41.34459],[-5.07556,41.343],[-5.07649,41.34075],[-5.07672,41.33987],[-5.07804,41.33708],[-5.07862,41.33631],[-5.07888,41.33564],[-5.07901,41.33483],[-5.07872,41.33344],[-5.07878,41.33305],[-5.07916,41.3325],[-5.08042,41.33134],[-5.08063,41.33117],[-5.08136,41.33092],[-5.08063,41.33036],[-5.08108,41.32924],[-5.08156,41.32872],[-5.08194,41.32799],[-5.0831,41.32631],[-5.08378,41.32549],[-5.08491,41.32439],[-5.08664,41.32207],[-5.08906,41.31939],[-5.11484,41.29145],[-5.11774,41.29257],[-5.1209,41.29079],[-5.12428,41.28823],[-5.12911,41.28414],[-5.13055,41.28303],[-5.13293,41.28161],[-5.13462,41.28012],[-5.13518,41.27987],[-5.13636,41.27886],[-5.13723,41.27848],[-5.13804,41.27791],[-5.14366,41.27592],[-5.14611,41.27514],[-5.15017,41.2787],[-5.14878,41.28247],[-5.14869,41.28451],[-5.14841,41.28546],[-5.14869,41.28567],[-5.14927,41.28685],[-5.14794,41.28866],[-5.14783,41.2892],[-5.14906,41.29226],[-5.14903,41.29296],[-5.14783,41.29594],[-5.14816,41.29849],[-5.14792,41.29952],[-5.1473,41.30025],[-5.14632,41.30195],[-5.14604,41.30292],[-5.14508,41.30487],[-5.14336,41.30588],[-5.1421,41.30633],[-5.14088,41.30746],[-5.14082,41.30824],[-5.14355,41.30841],[-5.14343,41.30957],[-5.14371,41.31041],[-5.14595,41.31133],[-5.14887,41.31282],[-5.15022,41.31406],[-5.15307,41.31607],[-5.15536,41.31726],[-5.15671,41.31774],[-5.15981,41.32363],[-5.15905,41.33081],[-5.15803,41.33152],[-5.15522,41.33305],[-5.15458,41.33349],[-5.15352,41.33565],[-5.14888,41.33517],[-5.14498,41.33824],[-5.14393,41.33896],[-5.14316,41.33835],[-5.14155,41.33777],[-5.14011,41.33886],[-5.13868,41.33858],[-5.13842,41.33966],[-5.13746,41.3421],[-5.13609,41.34434],[-5.13763,41.34479],[-5.13729,41.34525],[-5.13692,41.34639],[-5.1368,41.34753],[-5.13682,41.34847],[-5.13711,41.35001],[-5.13729,41.35047],[-5.13964,41.35092],[-5.13844,41.35353],[-5.13782,41.35444],[-5.13583,41.35655],[-5.13341,41.36001],[-5.13297,41.36085],[-5.13096,41.36315],[-5.13145,41.36353],[-5.13322,41.36238],[-5.13559,41.36135],[-5.13713,41.36113],[-5.13749,41.36069],[-5.13813,41.36077],[-5.13925,41.36132],[-5.14395,41.36187],[-5.14446,41.36217],[-5.1444,41.36286],[-5.14396,41.36316],[-5.14318,41.36341],[-5.14033,41.36284],[-5.13813,41.36293],[-5.13755,41.3631],[-5.13693,41.36343],[-5.13503,41.36392],[-5.1344,41.36436],[-5.13583,41.36687],[-5.1359,41.36831],[-5.1361,41.36917],[-5.13659,41.36988],[-5.13703,41.37169],[-5.13649,41.37502],[-5.13648,41.3761],[-5.13713,41.37682],[-5.13634,41.37754],[-5.137,41.37838],[-5.13868,41.37874],[-5.13925,41.37995],[-5.1409,41.38243],[-5.14182,41.38319],[-5.14351,41.38416],[-5.14424,41.38482],[-5.14542,41.38723],[-5.14658,41.39168],[-5.14827,41.39387],[-5.15001,41.39584],[-5.15009,41.39816],[-5.15076,41.39902],[-5.15194,41.39958],[-5.15356,41.40093],[-5.15506,41.40241],[-5.15603,41.40314],[-5.15684,41.40426],[-5.15501,41.40393],[-5.15351,41.40356],[-5.14871,41.40301],[-5.14784,41.403],[-5.14691,41.40153],[-5.14472,41.39909],[-5.14409,41.39807],[-5.14262,41.39762],[-5.14263,41.39866],[-5.14199,41.40106],[-5.13781,41.40677],[-5.13736,41.4076],[-5.13562,41.41181],[-5.13411,41.41184],[-5.1318,41.41403],[-5.12932,41.41314],[-5.12304,41.41481],[-5.12431,41.41671],[-5.12195,41.41725],[-5.115,41.41461],[-5.10977,41.41543],[-5.1086,41.41404],[-5.10205,41.41462],[-5.10027,41.41608],[-5.09882,41.41696],[-5.09599,41.41994],[-5.095,41.41968],[-5.09415,41.41923],[-5.09044,41.42007],[-5.08943,41.41868],[-5.08722,41.41887],[-5.0865,41.41986],[-5.08612,41.42081],[-5.08586,41.42188],[-5.08107,41.42271],[-5.07857,41.42278],[-5.07548,41.42339],[-5.07784,41.42674],[-5.07765,41.42761],[-5.0778,41.42886],[-5.08082,41.43085],[-5.08095,41.43275],[-5.07976,41.43322],[-5.0791,41.43806],[-5.07793,41.44396],[-5.079,41.44409],[-5.07881,41.4456],[-5.07981,41.44643],[-5.08022,41.44724],[-5.0808,41.44792],[-5.08124,41.44884],[-5.0829,41.45009],[-5.08241,41.45261],[-5.08272,41.45325],[-5.08356,41.45445],[-5.08228,41.45505],[-5.08091,41.456],[-5.07999,41.45698],[-5.07683,41.45902],[-5.07546,41.45967],[-5.07411,41.46045],[-5.07254,41.46174],[-5.06925,41.4632],[-5.06746,41.46409],[-5.06518,41.46541],[-5.06433,41.46603],[-5.06352,41.4674],[-5.0605,41.4688],[-5.0583,41.46959],[-5.05572,41.46994],[-5.05244,41.46772],[-5.04978,41.46631],[-5.04724,41.4648]]]}}]}