{"type":"FeatureCollection","features":[{"type":"Feature","properties":{"id":"4713301001"},"geometry":{"type":"Polygon","coordinates":[[[-4.58689,41.64058],[-4.58736,41.64024],[-4.58708,41.63955],[-4.58703,41.63882],[-4.58722,41.63825],[-4.58805,41.63731],[-4.58794,41.63698],[-4.58845,41.63607],[-4.58901,41.63604],[-4.58967,41.63629],[-4.59031,41.63632],[-4.59074,41.63614],[-4.59106,41.63581],[-4.59176,41.63568],[-4.59207,41.6358],[-4.593,41.63579],[-4.5932,41.63519],[-4.59378,41.63499],[-4.59413,41.6351],[-4.59499,41.63412],[-4.59511,41.6336],[-4.59471,41.63337],[-4.59601,41.63316],[-4.59607,41.63197],[-4.6006,41.62843],[-4.60292,41.62716],[-4.60552,41.62646],[-4.60781,41.62612],[-4.61183,41.62581],[-4.61493,41.62531],[-4.61689,41.6251],[-4.61889,41.62497],[-4.62166,41.62578],[-4.62418,41.62511],[-4.6256,41.62402],[-4.62614,41.62208],[-4.62591,41.62096],[-4.626,41.62012],[-4.62639,41.61947],[-4.62683,41.619],[-4.62664,41.61681],[-4.62689,41.6163],[-4.62749,41.61596],[-4.62894,41.61569],[-4.63009,41.61509],[-4.63136,41.6149],[-4.63195,41.61428],[-4.63283,41.61413],[-4.63367,41.6141],[-4.63442,41.61385],[-4.63508,41.61337],[-4.63535,41.61273],[-4.63604,41.61225],[-4.63774,41.61197],[-4.63882,41.61196],[-4.63822,41.61281],[-4.63809,41.6133],[-4.63825,41.61391],[-4.6389,41.61509],[-4.638,41.61633],[-4.63688,41.61722],[-4.63645,41.61771],[-4.63607,41.61793],[-4.63558,41.61871],[-4.63494,41.61918],[-4.63391,41.62027],[-4.63264,41.62358],[-4.63221,41.6252],[-4.63201,41.62682],[-4.63233,41.62834],[-4.63246,41.62852],[-4.6324,41.62936],[-4.63271,41.63146],[-4.63268,41.63193],[-4.63257,41.63211],[-4.63218,41.63216],[-4.63199,41.63249],[-4.6303,41.63384],[-4.6302,41.63487],[-4.6297,41.63665],[-4.62972,41.63773],[-4.63089,41.63969],[-4.63095,41.64038],[-4.63072,41.64177],[-4.63083,41.64276],[-4.62897,41.64728],[-4.62755,41.64863],[-4.63258,41.64859],[-4.6337,41.64877],[-4.63624,41.64887],[-4.63655,41.6488],[-4.63678,41.64922],[-4.63889,41.65001],[-4.64073,41.65054],[-4.64254,41.65171],[-4.64365,41.65226],[-4.64247,41.65281],[-4.63833,41.65536],[-4.63872,41.65563],[-4.63935,41.65811],[-4.63948,41.65827],[-4.63947,41.65884],[-4.64146,41.66252],[-4.64202,41.66315],[-4.64287,41.6638],[-4.64359,41.66416],[-4.64685,41.66636],[-4.6482,41.66689],[-4.65045,41.66935],[-4.65434,41.67193],[-4.65554,41.67327],[-4.65491,41.67462],[-4.65421,41.67557],[-4.65259,41.67614],[-4.65,41.67647],[-4.64882,41.67685],[-4.64822,41.67788],[-4.64719,41.67803],[-4.64674,41.67861],[-4.64612,41.67909],[-4.64573,41.67963],[-4.64591,41.68015],[-4.64707,41.68161],[-4.64742,41.68277],[-4.64706,41.6831],[-4.64487,41.68404],[-4.64427,41.68451],[-4.64362,41.68479],[-4.64201,41.68451],[-4.6389,41.68635],[-4.63638,41.68657],[-4.63628,41.6853],[-4.63448,41.68506],[-4.63424,41.68592],[-4.63226,41.68595],[-4.63087,41.68815],[-4.62921,41.68576],[-4.62803,41.68433],[-4.62713,41.68294],[-4.62594,41.68243],[-4.6244,41.68158],[-4.62208,41.68065],[-4.62132,41.68026],[-4.6205,41.67957],[-4.61894,41.67885],[-4.61748,41.67591],[-4.61616,41.67606],[-4.61501,41.67516],[-4.61523,41.67058],[-4.61371,41.67001],[-4.61194,41.66973],[-4.61155,41.66951],[-4.61047,41.6693],[-4.61145,41.66842],[-4.61113,41.66687],[-4.61141,41.66579],[-4.6104,41.6659],[-4.60974,41.66441],[-4.60808,41.66459],[-4.60711,41.66233],[-4.60415,41.66319],[-4.60299,41.66252],[-4.60193,41.66209],[-4.60084,41.66149],[-4.60095,41.66012],[-4.60045,41.65927],[-4.59868,41.65775],[-4.59832,41.6573],[-4.59973,41.65093],[-4.59437,41.64738],[-4.59166,41.64575],[-4.59108,41.64415],[-4.59051,41.64339],[-4.58938,41.64268],[-4.58802,41.64127],[-4.58689,41.64058]]]}},{"type":"Feature","properties":{"id":"4713301002"},"geometry":{"type":"Polygon","coordinates":[[[-4.64146,41.66252],[-4.63947,41.65884],[-4.63948,41.65827],[-4.63935,41.65811],[-4.63872,41.65563],[-4.63833,41.65536],[-4.64247,41.65281],[-4.64365,41.65226],[-4.64254,41.65171],[-4.64073,41.65054],[-4.63889,41.65001],[-4.63678,41.64922],[-4.63655,41.6488],[-4.63624,41.64887],[-4.6337,41.64877],[-4.63258,41.64859],[-4.62755,41.64863],[-4.62897,41.64728],[-4.63083,41.64276],[-4.63072,41.64177],[-4.63095,41.64038],[-4.63089,41.63969],[-4.62972,41.63773],[-4.6297,41.63665],[-4.6302,41.63487],[-4.6303,41.63384],[-4.63199,41.63249],[-4.63218,41.63216],[-4.63257,41.63211],[-4.63268,41.63193],[-4.63271,41.63146],[-4.6324,41.62936],[-4.63246,41.62852],[-4.63233,41.62834],[-4.63201,41.62682],[-4.63202,41.62633],[-4.6323,41.62478],[-4.63286,41.62288],[-4.63391,41.62027],[-4.63494,41.61918],[-4.63558,41.61871],[-4.63607,41.61793],[-4.63645,41.61771],[-4.63688,41.61722],[-4.638,41.61633],[-4.6389,41.61509],[-4.63922,41.61567],[-4.64013,41.61686],[-4.64066,41.61816],[-4.64226,41.62249],[-4.64267,41.62448],[-4.6435,41.62586],[-4.64371,41.62745],[-4.64393,41.62764],[-4.64418,41.62747],[-4.64458,41.6274],[-4.64549,41.62761],[-4.64659,41.62741],[-4.64704,41.62777],[-4.64722,41.62854],[-4.64724,41.631],[-4.64773,41.63272],[-4.64975,41.63471],[-4.65284,41.63724],[-4.65458,41.63994],[-4.65579,41.64347],[-4.6578,41.64838],[-4.65765,41.64879],[-4.65773,41.64929],[-4.65724,41.6497],[-4.65653,41.65009],[-4.65551,41.65128],[-4.65526,41.65282],[-4.65534,41.65363],[-4.65467,41.65381],[-4.65444,41.65467],[-4.65451,41.65629],[-4.65482,41.65764],[-4.65544,41.65894],[-4.65637,41.66002],[-4.6568,41.65991],[-4.65708,41.66032],[-4.65757,41.6606],[-4.65826,41.66083],[-4.65858,41.66113],[-4.65949,41.66243],[-4.66037,41.66418],[-4.66087,41.66689],[-4.66159,41.66903],[-4.65874,41.66958],[-4.65726,41.66995],[-4.65707,41.67138],[-4.65625,41.67174],[-4.65554,41.67327],[-4.65434,41.67193],[-4.65045,41.66935],[-4.6482,41.66689],[-4.64685,41.66636],[-4.64359,41.66416],[-4.64287,41.6638],[-4.64202,41.66315],[-4.64146,41.66252]]]}}]}