{"type":"FeatureCollection","features":[{"type":"Feature","properties":{"id":"4801101001"},"geometry":{"type":"Polygon","coordinates":[[[-2.88646,43.21639],[-2.88753,43.21599],[-2.8881,43.21562],[-2.88871,43.21479],[-2.88896,43.21404],[-2.88882,43.21121],[-2.89076,43.21133],[-2.89428,43.21207],[-2.89475,43.21239],[-2.89521,43.21288],[-2.8962,43.21423],[-2.89666,43.2147],[-2.89762,43.21547],[-2.8987,43.21602],[-2.89843,43.21627],[-2.89592,43.21575],[-2.89409,43.21553],[-2.89212,43.21591],[-2.89075,43.21605],[-2.89042,43.21627],[-2.88794,43.21697],[-2.88646,43.21639]]]}},{"type":"Feature","properties":{"id":"4801101002"},"geometry":{"type":"Polygon","coordinates":[[[-2.91254,43.24478],[-2.91348,43.24461],[-2.91404,43.24438],[-2.91488,43.24384],[-2.9156,43.24313],[-2.91597,43.2431],[-2.9163,43.24278],[-2.91769,43.24224],[-2.91922,43.24129],[-2.92013,43.24106],[-2.92067,43.24195],[-2.91694,43.24382],[-2.91612,43.24446],[-2.91559,43.24511],[-2.91497,43.24546],[-2.91403,43.24572],[-2.91268,43.24583],[-2.91254,43.24478]]]}},{"type":"Feature","properties":{"id":"4801101003"},"geometry":{"type":"Polygon","coordinates":[[[-2.90684,43.23904],[-2.90378,43.23562],[-2.90232,43.23426],[-2.90144,43.23304],[-2.90123,43.232],[-2.90145,43.2316],[-2.90138,43.23079],[-2.90079,43.22922],[-2.89679,43.22402],[-2.89671,43.22362],[-2.89688,43.22314],[-2.89679,43.22245],[-2.89569,43.2218],[-2.89631,43.22103],[-2.89672,43.22082],[-2.8986,43.22038],[-2.89943,43.21948],[-2.89933,43.21828],[-2.89953,43.21783],[-2.89843,43.21627],[-2.8987,43.21602],[-2.89989,43.21642],[-2.9009,43.21664],[-2.90439,43.21722],[-2.90443,43.2175],[-2.90416,43.21872],[-2.90437,43.21928],[-2.90551,43.21931],[-2.90569,43.21925],[-2.90643,43.21894],[-2.9074,43.2182],[-2.90955,43.21947],[-2.90642,43.22612],[-2.90975,43.22872],[-2.91086,43.23058],[-2.91124,43.23086],[-2.91264,43.23144],[-2.91307,43.23183],[-2.9132,43.23215],[-2.91308,43.23247],[-2.91307,43.23313],[-2.91291,43.23346],[-2.91531,43.23459],[-2.91844,43.23773],[-2.91992,43.23933],[-2.91985,43.23947],[-2.91993,43.23966],[-2.92033,43.23988],[-2.92047,43.24017],[-2.91997,43.24074],[-2.92013,43.24106],[-2.91922,43.24129],[-2.91769,43.24224],[-2.9163,43.24278],[-2.91597,43.2431],[-2.9156,43.24313],[-2.91488,43.24384],[-2.91404,43.24438],[-2.91348,43.24461],[-2.91254,43.24478],[-2.91192,43.24328],[-2.9116,43.24025],[-2.9095,43.23965],[-2.90684,43.23904]]]}},{"type":"Feature","properties":{"id":"4801101004"},"geometry":{"type":"Polygon","coordinates":[[[-2.88562,43.21606],[-2.88683,43.2159],[-2.88729,43.21563],[-2.88741,43.2153],[-2.88718,43.21436],[-2.88582,43.21148],[-2.88519,43.20962],[-2.88512,43.20891],[-2.8862,43.20896],[-2.88772,43.20818],[-2.88866,43.20821],[-2.88896,43.21404],[-2.88887,43.21442],[-2.88847,43.21519],[-2.8881,43.21562],[-2.88753,43.21599],[-2.88646,43.21639],[-2.88562,43.21606]]]}},{"type":"Feature","properties":{"id":"4801102001"},"geometry":{"type":"Polygon","coordinates":[[[-2.88512,43.20891],[-2.88508,43.20661],[-2.88774,43.20752],[-2.88785,43.20808],[-2.8864,43.20892],[-2.88512,43.20891]]]}},{"type":"Feature","properties":{"id":"4801102002"},"geometry":{"type":"Polygon","coordinates":[[[-2.8987,43.21602],[-2.89762,43.21547],[-2.89666,43.2147],[-2.8962,43.21423],[-2.89521,43.21288],[-2.89475,43.21239],[-2.89428,43.21207],[-2.89491,43.21215],[-2.89519,43.2118],[-2.89508,43.21019],[-2.89467,43.20908],[-2.89422,43.20825],[-2.89342,43.20719],[-2.89211,43.20756],[-2.89067,43.20759],[-2.89013,43.2074],[-2.88868,43.20742],[-2.88866,43.20821],[-2.88792,43.20819],[-2.88783,43.20748],[-2.88799,43.2065],[-2.88872,43.20566],[-2.88901,43.20511],[-2.89319,43.20422],[-2.89429,43.2037],[-2.89517,43.20302],[-2.89885,43.20073],[-2.89997,43.19985],[-2.90093,43.1988],[-2.90105,43.19828],[-2.90094,43.19798],[-2.89899,43.19543],[-2.89805,43.19479],[-2.8977,43.19423],[-2.89764,43.19388],[-2.89884,43.19231],[-2.89977,43.19144],[-2.8997,43.19052],[-2.89944,43.1903],[-2.89664,43.18928],[-2.89599,43.18875],[-2.894,43.18788],[-2.89379,43.18765],[-2.89382,43.18649],[-2.89409,43.18516],[-2.89431,43.18475],[-2.89566,43.18316],[-2.89587,43.18304],[-2.89683,43.18288],[-2.89776,43.18286],[-2.89839,43.18297],[-2.89948,43.1835],[-2.89918,43.18431],[-2.89918,43.1851],[-2.89925,43.18523],[-2.8997,43.1855],[-2.89983,43.18579],[-2.90035,43.18606],[-2.90144,43.1862],[-2.90705,43.1865],[-2.90978,43.18756],[-2.9111,43.18875],[-2.91249,43.18931],[-2.91446,43.19063],[-2.91575,43.19098],[-2.92338,43.18758],[-2.9242,43.18697],[-2.926,43.18818],[-2.92631,43.18865],[-2.92678,43.18903],[-2.92775,43.18938],[-2.92424,43.19187],[-2.92178,43.19428],[-2.92047,43.19577],[-2.9212,43.19653],[-2.92239,43.19695],[-2.92472,43.19833],[-2.92497,43.19867],[-2.92516,43.19948],[-2.92641,43.19986],[-2.92876,43.20145],[-2.92943,43.20164],[-2.92954,43.20144],[-2.92997,43.20121],[-2.93101,43.20101],[-2.93171,43.20072],[-2.93354,43.20054],[-2.93561,43.20018],[-2.93694,43.19902],[-2.93432,43.19617],[-2.93457,43.19605],[-2.93544,43.19586],[-2.93591,43.19587],[-2.93757,43.19642],[-2.93957,43.19692],[-2.9403,43.19744],[-2.94232,43.19957],[-2.94368,43.20085],[-2.94456,43.20154],[-2.94595,43.20327],[-2.94723,43.20362],[-2.94871,43.20445],[-2.95144,43.20577],[-2.95157,43.20665],[-2.9535,43.20775],[-2.95365,43.20843],[-2.9539,43.20881],[-2.95486,43.20919],[-2.9559,43.20978],[-2.95613,43.21051],[-2.9565,43.21085],[-2.95693,43.21103],[-2.95717,43.21155],[-2.95718,43.21176],[-2.95658,43.21214],[-2.9567,43.21268],[-2.95519,43.21405],[-2.95499,43.21416],[-2.95423,43.21427],[-2.95317,43.21513],[-2.9518,43.21559],[-2.95134,43.21666],[-2.95061,43.21717],[-2.94981,43.2174],[-2.94756,43.2175],[-2.94665,43.21744],[-2.94488,43.21771],[-2.94307,43.21728],[-2.94195,43.21742],[-2.93965,43.21685],[-2.93754,43.21658],[-2.93114,43.21492],[-2.92978,43.2143],[-2.92917,43.21439],[-2.92886,43.21366],[-2.92652,43.21443],[-2.91538,43.21766],[-2.91334,43.21837],[-2.91104,43.21892],[-2.90959,43.21938],[-2.90955,43.21947],[-2.9074,43.2182],[-2.90643,43.21894],[-2.90569,43.21925],[-2.90551,43.21931],[-2.90437,43.21928],[-2.90416,43.21872],[-2.90443,43.2175],[-2.90439,43.21722],[-2.9009,43.21664],[-2.89989,43.21642],[-2.8987,43.21602]],[[-2.91032,43.19685],[-2.9121,43.1984],[-2.91185,43.19969],[-2.9136,43.19934],[-2.91553,43.19919],[-2.91583,43.19822],[-2.91596,43.19735],[-2.91642,43.19689],[-2.91464,43.19444],[-2.91262,43.19239],[-2.91127,43.19247],[-2.90964,43.19298],[-2.90764,43.19337],[-2.90694,43.19427],[-2.90698,43.19472],[-2.90925,43.19584],[-2.90944,43.19603],[-2.9097,43.19665],[-2.90999,43.19687],[-2.91032,43.19685]]]}},{"type":"Feature","properties":{"id":"4801102003"},"geometry":{"type":"Polygon","coordinates":[[[-2.88508,43.20661],[-2.88519,43.20618],[-2.88498,43.20483],[-2.88505,43.20295],[-2.88409,43.20097],[-2.88346,43.20019],[-2.88278,43.19819],[-2.88299,43.19599],[-2.88209,43.19547],[-2.88118,43.19383],[-2.87927,43.1924],[-2.87878,43.19169],[-2.87763,43.19116],[-2.87583,43.18975],[-2.877,43.18904],[-2.88775,43.19259],[-2.8903,43.19296],[-2.89586,43.19087],[-2.89978,43.19087],[-2.89977,43.19144],[-2.89884,43.19231],[-2.89764,43.19388],[-2.8977,43.19423],[-2.89805,43.19479],[-2.89899,43.19543],[-2.90094,43.19798],[-2.90104,43.1985],[-2.90068,43.19918],[-2.89885,43.20073],[-2.89517,43.20302],[-2.89429,43.2037],[-2.89319,43.20422],[-2.88901,43.20511],[-2.88872,43.20566],[-2.88825,43.20611],[-2.88793,43.20662],[-2.88783,43.20748],[-2.88792,43.20819],[-2.88772,43.20818],[-2.88663,43.20879],[-2.88785,43.20808],[-2.88774,43.20752],[-2.88508,43.20661]]]}},{"type":"Feature","properties":{"id":"4801102004"},"geometry":{"type":"Polygon","coordinates":[[[-2.89491,43.21215],[-2.89076,43.21133],[-2.88882,43.21121],[-2.88868,43.20742],[-2.89013,43.2074],[-2.89067,43.20759],[-2.89211,43.20756],[-2.89342,43.20719],[-2.89422,43.20825],[-2.89467,43.20908],[-2.89508,43.21019],[-2.89519,43.2118],[-2.89491,43.21215]]]}}]}