{"type":"FeatureCollection","features":[{"type":"Feature","properties":{"id":"4804401001"},"geometry":{"type":"Polygon","coordinates":[[[-3.01781,43.36331],[-3.01736,43.36297],[-3.01689,43.36241],[-3.01592,43.3618],[-3.01618,43.36104],[-3.01663,43.36035],[-3.01676,43.35905],[-3.01713,43.35865],[-3.01748,43.35747],[-3.01899,43.35764],[-3.01915,43.35813],[-3.01884,43.35887],[-3.01887,43.35936],[-3.01993,43.3598],[-3.02057,43.36055],[-3.02168,43.36112],[-3.02137,43.36194],[-3.02122,43.36273],[-3.02129,43.36294],[-3.02055,43.36389],[-3.0205,43.36373],[-3.0193,43.36329],[-3.01877,43.36325],[-3.01818,43.36337],[-3.01781,43.36331]]]}},{"type":"Feature","properties":{"id":"4804401002"},"geometry":{"type":"Polygon","coordinates":[[[-2.99979,43.36139],[-2.99933,43.35924],[-3.00112,43.35926],[-3.00133,43.35869],[-3.00174,43.3583],[-3.00361,43.3589],[-3.00406,43.35825],[-3.00255,43.35773],[-3.00348,43.35621],[-3.00352,43.35608],[-3.00337,43.35596],[-3.00372,43.35537],[-3.0043,43.35381],[-3.00453,43.35338],[-3.00476,43.35328],[-3.00877,43.35815],[-3.00825,43.35868],[-3.00764,43.35881],[-3.0075,43.35894],[-3.00715,43.35994],[-3.00689,43.36023],[-3.00592,43.36075],[-3.00384,43.3622],[-3.00281,43.36302],[-3.00206,43.36377],[-3.00161,43.36402],[-3.0008,43.36427],[-3.00032,43.36464],[-2.9999,43.36397],[-2.99859,43.36258],[-2.99979,43.36139]]]}},{"type":"Feature","properties":{"id":"4804401003"},"geometry":{"type":"Polygon","coordinates":[[[-3.02186,43.37842],[-3.02162,43.37701],[-3.0215,43.37688],[-3.02024,43.37638],[-3.01909,43.37565],[-3.01858,43.37525],[-3.01793,43.3742],[-3.018,43.37255],[-3.01821,43.37143],[-3.01812,43.37096],[-3.01764,43.37001],[-3.01795,43.36952],[-3.01844,43.36918],[-3.01865,43.36889],[-3.01875,43.36816],[-3.01865,43.36795],[-3.01798,43.36737],[-3.01829,43.36728],[-3.01852,43.367],[-3.01835,43.36677],[-3.01805,43.36671],[-3.01779,43.36568],[-3.01796,43.36436],[-3.01781,43.36331],[-3.01818,43.36337],[-3.01877,43.36325],[-3.0193,43.36329],[-3.0205,43.36373],[-3.02055,43.36389],[-3.02129,43.36294],[-3.02122,43.36273],[-3.02137,43.36194],[-3.02168,43.36112],[-3.02057,43.36055],[-3.01993,43.3598],[-3.01887,43.35936],[-3.01884,43.35887],[-3.01915,43.35813],[-3.01928,43.35838],[-3.0197,43.35869],[-3.02203,43.3598],[-3.02325,43.36056],[-3.0238,43.36116],[-3.02472,43.36184],[-3.02619,43.36253],[-3.02728,43.36329],[-3.02878,43.36416],[-3.03001,43.36508],[-3.03109,43.36563],[-3.03152,43.36602],[-3.03241,43.36629],[-3.03343,43.36692],[-3.03417,43.36833],[-3.03447,43.36851],[-3.03576,43.36982],[-3.03607,43.37],[-3.03667,43.37072],[-3.03738,43.37116],[-3.03698,43.37107],[-3.03699,43.37168],[-3.0374,43.37245],[-3.03787,43.37278],[-3.03896,43.37298],[-3.03948,43.37295],[-3.03963,43.37315],[-3.0396,43.37334],[-3.03935,43.37346],[-3.03697,43.37305],[-3.03694,43.37314],[-3.03738,43.37342],[-3.03729,43.37345],[-3.03695,43.37327],[-3.03655,43.37341],[-3.03652,43.37359],[-3.03686,43.37378],[-3.03649,43.3737],[-3.03649,43.37379],[-3.03681,43.37399],[-3.03668,43.37401],[-3.03615,43.37377],[-3.03601,43.37383],[-3.03575,43.37414],[-3.03604,43.37437],[-3.03566,43.37428],[-3.03535,43.37448],[-3.03582,43.37482],[-3.03564,43.37479],[-3.0353,43.37451],[-3.03522,43.37455],[-3.03591,43.37516],[-3.03572,43.37521],[-3.03529,43.37489],[-3.03531,43.37511],[-3.03471,43.37499],[-3.03469,43.37509],[-3.03491,43.37522],[-3.03489,43.37534],[-3.0341,43.37514],[-3.03443,43.37556],[-3.03384,43.37524],[-3.03378,43.37539],[-3.0336,43.37539],[-3.03334,43.37556],[-3.03338,43.376],[-3.03285,43.37655],[-3.03295,43.37669],[-3.03244,43.3765],[-3.03228,43.37655],[-3.03228,43.3768],[-3.03204,43.37706],[-3.03215,43.37734],[-3.03255,43.37764],[-3.03202,43.37761],[-3.03232,43.37794],[-3.03225,43.37797],[-3.03172,43.37764],[-3.03113,43.37773],[-3.03086,43.37841],[-3.03065,43.37844],[-3.03111,43.37883],[-3.03102,43.37893],[-3.03049,43.37861],[-3.02955,43.37823],[-3.02944,43.37828],[-3.02944,43.3784],[-3.02885,43.37826],[-3.02875,43.37831],[-3.02881,43.37841],[-3.02822,43.37825],[-3.027,43.37867],[-3.02658,43.37857],[-3.02576,43.37863],[-3.02351,43.37849],[-3.02237,43.37825],[-3.02186,43.37842]]]}},{"type":"Feature","properties":{"id":"4804401004"},"geometry":{"type":"Polygon","coordinates":[[[-3.0121,43.36031],[-3.01211,43.35953],[-3.01185,43.35917],[-3.00952,43.35778],[-3.01307,43.35654],[-3.01365,43.35687],[-3.01341,43.35743],[-3.01343,43.35784],[-3.0133,43.35826],[-3.01366,43.35955],[-3.01396,43.36012],[-3.01365,43.36065],[-3.01314,43.36048],[-3.0121,43.36031]]]}},{"type":"Feature","properties":{"id":"4804401005"},"geometry":{"type":"Polygon","coordinates":[[[-2.99907,43.35659],[-2.99893,43.35437],[-2.99847,43.35363],[-2.99847,43.35331],[-2.99798,43.3527],[-2.99821,43.35164],[-2.99298,43.34608],[-2.99131,43.34661],[-2.99033,43.34659],[-2.98936,43.34671],[-2.98903,43.34687],[-2.98792,43.34691],[-2.98734,43.34667],[-2.98719,43.3467],[-2.9868,43.34649],[-2.98653,43.34658],[-2.98582,43.34657],[-2.98551,43.3465],[-2.98544,43.3464],[-2.9852,43.34643],[-2.98485,43.34616],[-2.9836,43.34577],[-2.98353,43.34547],[-2.98291,43.34525],[-2.9815,43.34539],[-2.97956,43.34518],[-2.97927,43.34523],[-2.97851,43.34495],[-2.97748,43.34487],[-2.9753,43.34403],[-2.97419,43.34451],[-2.97131,43.34605],[-2.96879,43.34527],[-2.96675,43.34476],[-2.96585,43.33881],[-2.96613,43.33838],[-2.96689,43.3387],[-2.96777,43.33923],[-2.9684,43.33882],[-2.96879,43.33875],[-2.96943,43.33879],[-2.97437,43.33973],[-2.97943,43.34048],[-2.98962,43.34333],[-2.99168,43.34357],[-2.99769,43.34285],[-2.99786,43.34118],[-2.99943,43.34144],[-2.99975,43.34168],[-3.00133,43.34215],[-3.00004,43.34633],[-2.99997,43.34739],[-3.00051,43.34833],[-3.0018,43.35002],[-3.00373,43.35131],[-3.00435,43.35185],[-3.00476,43.35328],[-3.0036,43.35375],[-3.00313,43.35404],[-2.9992,43.35782],[-2.99934,43.35704],[-2.99907,43.35659]]]}},{"type":"Feature","properties":{"id":"4804401006"},"geometry":{"type":"Polygon","coordinates":[[[-3.00825,43.35868],[-3.00854,43.35844],[-3.00864,43.35822],[-3.00888,43.35809],[-3.00912,43.35817],[-3.00952,43.35778],[-3.01185,43.35917],[-3.01211,43.35953],[-3.0121,43.36031],[-3.00997,43.35969],[-3.00877,43.3589],[-3.00825,43.35868]]]}},{"type":"Feature","properties":{"id":"4804401007"},"geometry":{"type":"Polygon","coordinates":[[[-2.99933,43.35924],[-2.9993,43.35874],[-2.99953,43.35851],[-2.99923,43.35814],[-2.9992,43.35782],[-3.00313,43.35404],[-3.0036,43.35375],[-3.00453,43.35338],[-3.00372,43.35537],[-3.00337,43.35596],[-3.00352,43.35608],[-3.00348,43.35621],[-3.00255,43.35773],[-3.00406,43.35825],[-3.00361,43.3589],[-3.00174,43.3583],[-3.00133,43.35869],[-3.00112,43.35926],[-2.99933,43.35924]]]}},{"type":"Feature","properties":{"id":"4804401008"},"geometry":{"type":"Polygon","coordinates":[[[-3.01365,43.36065],[-3.01396,43.36012],[-3.01366,43.35955],[-3.0133,43.35826],[-3.01343,43.35784],[-3.01341,43.35743],[-3.01365,43.35687],[-3.01527,43.35789],[-3.01676,43.35905],[-3.01663,43.36035],[-3.01618,43.36104],[-3.01592,43.3618],[-3.01365,43.36065]]]}},{"type":"Feature","properties":{"id":"4804401009"},"geometry":{"type":"Polygon","coordinates":[[[-3.00092,43.37829],[-3.00532,43.37592],[-3.00629,43.37505],[-3.00816,43.37267],[-3.0089,43.36984],[-3.00506,43.36738],[-3.00408,43.36777],[-3.00098,43.3655],[-3.00032,43.36464],[-3.0008,43.36427],[-3.00161,43.36402],[-3.00206,43.36377],[-3.00281,43.36302],[-3.00384,43.3622],[-3.00592,43.36075],[-3.00689,43.36023],[-3.00715,43.35994],[-3.0075,43.35894],[-3.00764,43.35881],[-3.00825,43.35868],[-3.00877,43.3589],[-3.00997,43.35969],[-3.01229,43.36037],[-3.01341,43.36055],[-3.01543,43.3615],[-3.01675,43.36231],[-3.01781,43.36331],[-3.01796,43.36436],[-3.01779,43.36568],[-3.01805,43.36671],[-3.01835,43.36677],[-3.01852,43.367],[-3.01829,43.36728],[-3.01798,43.36737],[-3.01865,43.36795],[-3.01875,43.36816],[-3.01865,43.36889],[-3.01844,43.36918],[-3.01795,43.36952],[-3.01764,43.37001],[-3.01812,43.37096],[-3.01821,43.37143],[-3.018,43.37255],[-3.01793,43.3742],[-3.01858,43.37525],[-3.01909,43.37565],[-3.02024,43.37638],[-3.0215,43.37688],[-3.02162,43.37701],[-3.02186,43.37842],[-3.02176,43.37851],[-3.0214,43.37856],[-3.02107,43.37881],[-3.02102,43.37902],[-3.02016,43.37908],[-3.01805,43.37981],[-3.01564,43.38092],[-3.01477,43.3816],[-3.01443,43.38202],[-3.01444,43.3821],[-3.01492,43.38239],[-3.01444,43.38238],[-3.01455,43.38256],[-3.01377,43.38259],[-3.01392,43.3828],[-3.01342,43.38263],[-3.01295,43.38266],[-3.01182,43.38231],[-3.01141,43.38233],[-3.01085,43.38212],[-3.0086,43.38184],[-3.00681,43.38256],[-3.00557,43.38319],[-3.00092,43.37829]]]}},{"type":"Feature","properties":{"id":"4804402001"},"geometry":{"type":"Polygon","coordinates":[[[-3.01527,43.35789],[-3.01307,43.35654],[-3.01371,43.35634],[-3.01406,43.35611],[-3.01561,43.35359],[-3.01701,43.35453],[-3.01759,43.35475],[-3.01806,43.35453],[-3.0183,43.35422],[-3.01963,43.35309],[-3.02084,43.35344],[-3.02045,43.35369],[-3.01995,43.35421],[-3.02001,43.35435],[-3.0199,43.35476],[-3.01946,43.35565],[-3.01897,43.35711],[-3.01899,43.35764],[-3.01748,43.35747],[-3.01713,43.35865],[-3.01676,43.35905],[-3.01527,43.35789]]]}},{"type":"Feature","properties":{"id":"4804402002"},"geometry":{"type":"Polygon","coordinates":[[[-3.01561,43.35359],[-3.0142,43.35288],[-3.01435,43.35245],[-3.01514,43.35231],[-3.01574,43.35237],[-3.01657,43.35262],[-3.0204,43.35265],[-3.02071,43.35319],[-3.02127,43.35354],[-3.01963,43.35309],[-3.0183,43.35422],[-3.01806,43.35453],[-3.01759,43.35475],[-3.01701,43.35453],[-3.01561,43.35359]]]}},{"type":"Feature","properties":{"id":"4804402003"},"geometry":{"type":"Polygon","coordinates":[[[-3.01097,43.35286],[-3.01013,43.35263],[-3.01001,43.35214],[-3.01011,43.35204],[-3.01163,43.35102],[-3.01177,43.35075],[-3.01206,43.35103],[-3.01237,43.35068],[-3.01271,43.35046],[-3.01356,43.35022],[-3.01442,43.34965],[-3.01451,43.3497],[-3.01488,43.34938],[-3.01511,43.34947],[-3.01477,43.3498],[-3.01495,43.34992],[-3.01484,43.35021],[-3.01499,43.35095],[-3.01451,43.35155],[-3.0142,43.35288],[-3.01393,43.35292],[-3.0137,43.3524],[-3.0122,43.35147],[-3.01119,43.35227],[-3.01142,43.35253],[-3.01097,43.35286]]]}},{"type":"Feature","properties":{"id":"4804402004"},"geometry":{"type":"Polygon","coordinates":[[[-3.01177,43.35075],[-3.0119,43.35001],[-3.01202,43.34988],[-3.01197,43.34938],[-3.01128,43.34884],[-3.01122,43.34847],[-3.01161,43.34875],[-3.01229,43.34879],[-3.01313,43.34859],[-3.01361,43.34825],[-3.01425,43.3485],[-3.0148,43.34896],[-3.0149,43.3489],[-3.01488,43.349],[-3.015,43.34908],[-3.01532,43.34887],[-3.01493,43.34876],[-3.01503,43.34843],[-3.01511,43.34865],[-3.01568,43.34895],[-3.01511,43.34947],[-3.01488,43.34938],[-3.01451,43.3497],[-3.01442,43.34965],[-3.01356,43.35022],[-3.01249,43.35057],[-3.01206,43.35103],[-3.01177,43.35075]]]}},{"type":"Feature","properties":{"id":"4804402005"},"geometry":{"type":"Polygon","coordinates":[[[-3.01197,43.34938],[-3.01202,43.34988],[-3.01163,43.35102],[-3.01011,43.35204],[-3.00969,43.35033],[-3.01008,43.34983],[-3.01094,43.35022],[-3.01147,43.34965],[-3.01197,43.34938]]]}},{"type":"Feature","properties":{"id":"4804402006"},"geometry":{"type":"Polygon","coordinates":[[[-3.00827,43.35437],[-3.00825,43.35359],[-3.00803,43.35303],[-3.00702,43.3523],[-3.00831,43.35173],[-3.00865,43.35173],[-3.00916,43.35192],[-3.00969,43.35232],[-3.01001,43.35214],[-3.01014,43.35305],[-3.01005,43.35411],[-3.00954,43.35408],[-3.0093,43.35437],[-3.00827,43.35437]]]}},{"type":"Feature","properties":{"id":"4804402007"},"geometry":{"type":"Polygon","coordinates":[[[-3.00658,43.34964],[-3.00312,43.34805],[-3.00419,43.34694],[-3.00834,43.34872],[-3.00885,43.34918],[-3.00922,43.35007],[-3.0088,43.35013],[-3.00836,43.34958],[-3.0071,43.35012],[-3.00658,43.34964]]]}},{"type":"Feature","properties":{"id":"4804402008"},"geometry":{"type":"Polygon","coordinates":[[[-3.01161,43.34875],[-3.01087,43.34814],[-3.01029,43.34807],[-3.00941,43.34752],[-3.00749,43.34674],[-3.00796,43.34575],[-3.0085,43.34508],[-3.01037,43.3446],[-3.01069,43.34531],[-3.01119,43.34477],[-3.01266,43.34477],[-3.01239,43.3477],[-3.01281,43.34805],[-3.01361,43.34825],[-3.01313,43.34859],[-3.01229,43.34879],[-3.01161,43.34875]]]}},{"type":"Feature","properties":{"id":"4804402009"},"geometry":{"type":"Polygon","coordinates":[[[-3.00867,43.34507],[-3.00745,43.34413],[-3.00647,43.34402],[-3.0046,43.34329],[-3.00495,43.34285],[-3.00546,43.34181],[-3.00578,43.34153],[-3.00602,43.34101],[-3.00701,43.34041],[-3.00736,43.34074],[-3.0085,43.34128],[-3.01011,43.34228],[-3.01093,43.34253],[-3.01137,43.34277],[-3.01143,43.34322],[-3.01094,43.34405],[-3.0109,43.34509],[-3.01069,43.34531],[-3.01037,43.3446],[-3.00867,43.34507]]]}},{"type":"Feature","properties":{"id":"4804402010"},"geometry":{"type":"Polygon","coordinates":[[[-3.00183,43.34055],[-3.00257,43.33826],[-3.0039,43.33852],[-3.00442,43.3376],[-3.00787,43.33884],[-3.00854,43.339],[-3.00809,43.33953],[-3.00711,43.34035],[-3.00602,43.34101],[-3.00578,43.34153],[-3.00403,43.34106],[-3.00321,43.34068],[-3.00244,43.34067],[-3.00183,43.34055]]]}},{"type":"Feature","properties":{"id":"4804402011"},"geometry":{"type":"Polygon","coordinates":[[[-3.00585,43.34766],[-3.00684,43.34651],[-3.00831,43.34705],[-3.00811,43.34729],[-3.00808,43.34762],[-3.00726,43.34769],[-3.00921,43.34865],[-3.00914,43.34884],[-3.00936,43.34959],[-3.00922,43.35007],[-3.00885,43.34918],[-3.00862,43.34892],[-3.008,43.34856],[-3.00585,43.34766]]]}},{"type":"Feature","properties":{"id":"4804402012"},"geometry":{"type":"Polygon","coordinates":[[[-3.00281,43.35072],[-3.00817,43.35156],[-3.00831,43.35173],[-3.00476,43.35328],[-3.00435,43.35185],[-3.00373,43.35131],[-3.00281,43.35072]]]}},{"type":"Feature","properties":{"id":"4804402013"},"geometry":{"type":"Polygon","coordinates":[[[-3.0093,43.35437],[-3.00954,43.35408],[-3.01005,43.35411],[-3.01033,43.35517],[-3.01166,43.35702],[-3.00952,43.35778],[-3.00942,43.35771],[-3.00943,43.35746],[-3.00911,43.35666],[-3.00931,43.35564],[-3.0093,43.35437]]]}},{"type":"Feature","properties":{"id":"4804402014"},"geometry":{"type":"Polygon","coordinates":[[[-3.00831,43.35173],[-3.00817,43.35156],[-3.00414,43.35093],[-3.00472,43.35058],[-3.00605,43.34936],[-3.00658,43.34964],[-3.0071,43.35012],[-3.00836,43.34958],[-3.0088,43.35013],[-3.00922,43.35007],[-3.01001,43.35214],[-3.00969,43.35232],[-3.00959,43.35217],[-3.00894,43.3518],[-3.00831,43.35173]]]}},{"type":"Feature","properties":{"id":"4804402015"},"geometry":{"type":"Polygon","coordinates":[[[-2.99786,43.34118],[-2.99806,43.33827],[-3.00194,43.33342],[-3.00223,43.33311],[-3.00262,43.33321],[-3.00287,43.33344],[-3.0053,43.33473],[-3.00365,43.33631],[-3.00291,43.33721],[-3.00183,43.34055],[-3.00079,43.34046],[-2.9997,43.3405],[-2.99991,43.34173],[-2.99943,43.34144],[-2.99786,43.34118]]]}},{"type":"Feature","properties":{"id":"4804402016"},"geometry":{"type":"Polygon","coordinates":[[[-3.01013,43.35263],[-3.01156,43.35308],[-3.01302,43.35376],[-3.01266,43.35438],[-3.01274,43.35488],[-3.01235,43.3553],[-3.01229,43.35603],[-3.01142,43.35527],[-3.01113,43.35482],[-3.01039,43.35285],[-3.01013,43.35263]]]}},{"type":"Feature","properties":{"id":"4804402017"},"geometry":{"type":"Polygon","coordinates":[[[-3.00594,43.35277],[-3.00702,43.3523],[-3.0078,43.35281],[-3.00818,43.35329],[-3.00827,43.35437],[-3.00735,43.35482],[-3.00713,43.35449],[-3.00704,43.35374],[-3.00688,43.35341],[-3.00594,43.35277]]]}},{"type":"Feature","properties":{"id":"4804402018"},"geometry":{"type":"Polygon","coordinates":[[[-3.00281,43.35072],[-3.0018,43.35002],[-3.00113,43.34916],[-3.00207,43.34913],[-3.00312,43.34805],[-3.00486,43.34883],[-3.00344,43.35052],[-3.00312,43.35077],[-3.00281,43.35072]]]}},{"type":"Feature","properties":{"id":"4804402019"},"geometry":{"type":"Polygon","coordinates":[[[-3.00585,43.34766],[-3.00334,43.34656],[-3.00288,43.34618],[-3.0025,43.34541],[-3.00251,43.34495],[-3.00301,43.34262],[-3.00596,43.34385],[-3.00647,43.34402],[-3.00745,43.34413],[-3.00867,43.34507],[-3.0085,43.34508],[-3.00796,43.34575],[-3.00749,43.34674],[-3.00684,43.34651],[-3.00585,43.34766]]]}},{"type":"Feature","properties":{"id":"4804402020"},"geometry":{"type":"Polygon","coordinates":[[[-3.00877,43.35815],[-3.00638,43.35523],[-3.00827,43.35437],[-3.0093,43.35437],[-3.00931,43.35564],[-3.00911,43.35666],[-3.00943,43.35746],[-3.00942,43.35771],[-3.00952,43.35778],[-3.00912,43.35817],[-3.00888,43.35809],[-3.00877,43.35815]]]}},{"type":"Feature","properties":{"id":"4804402021"},"geometry":{"type":"Polygon","coordinates":[[[-3.01229,43.35603],[-3.01235,43.3553],[-3.01274,43.35488],[-3.01266,43.35438],[-3.01302,43.35376],[-3.01393,43.35292],[-3.0142,43.35288],[-3.01445,43.35296],[-3.01561,43.35359],[-3.01406,43.35611],[-3.01371,43.35634],[-3.01307,43.35654],[-3.01229,43.35603]]]}},{"type":"Feature","properties":{"id":"4804402022"},"geometry":{"type":"Polygon","coordinates":[[[-3.00922,43.35007],[-3.00936,43.34959],[-3.00914,43.34884],[-3.00969,43.34769],[-3.01029,43.34807],[-3.01049,43.34806],[-3.011,43.34823],[-3.01122,43.34847],[-3.01128,43.34884],[-3.01197,43.34938],[-3.01147,43.34965],[-3.01094,43.35022],[-3.01008,43.34983],[-3.00969,43.35033],[-3.01011,43.35204],[-3.01001,43.35214],[-3.00922,43.35007]]]}},{"type":"Feature","properties":{"id":"4804402023"},"geometry":{"type":"Polygon","coordinates":[[[-3.00257,43.33826],[-3.00306,43.33696],[-3.0053,43.33473],[-3.00797,43.33623],[-3.00969,43.33665],[-3.00854,43.339],[-3.00787,43.33884],[-3.00442,43.3376],[-3.0039,43.33852],[-3.00257,43.33826]]]}},{"type":"Feature","properties":{"id":"4804402024"},"geometry":{"type":"Polygon","coordinates":[[[-3.00831,43.34705],[-3.00969,43.34769],[-3.00921,43.34865],[-3.00726,43.34769],[-3.00808,43.34762],[-3.00811,43.34729],[-3.00831,43.34705]]]}},{"type":"Feature","properties":{"id":"4804402025"},"geometry":{"type":"Polygon","coordinates":[[[-3.00476,43.35328],[-3.00594,43.35277],[-3.00688,43.35341],[-3.00704,43.35374],[-3.00713,43.35449],[-3.00735,43.35482],[-3.00638,43.35523],[-3.00476,43.35328]]]}},{"type":"Feature","properties":{"id":"4804402026"},"geometry":{"type":"Polygon","coordinates":[[[-3.01435,43.35245],[-3.01451,43.35155],[-3.01499,43.35095],[-3.01484,43.35021],[-3.01495,43.34992],[-3.01477,43.3498],[-3.01568,43.34895],[-3.01784,43.3504],[-3.01833,43.35085],[-3.01938,43.35116],[-3.01921,43.35121],[-3.01921,43.35129],[-3.01979,43.35152],[-3.01934,43.35161],[-3.01933,43.35203],[-3.0195,43.35217],[-3.01995,43.35222],[-3.0204,43.35265],[-3.01657,43.35262],[-3.01574,43.35237],[-3.01514,43.35231],[-3.01435,43.35245]]]}},{"type":"Feature","properties":{"id":"4804402027"},"geometry":{"type":"Polygon","coordinates":[[[-3.01005,43.35411],[-3.01013,43.35263],[-3.01039,43.35285],[-3.01093,43.35443],[-3.01142,43.35527],[-3.01229,43.35603],[-3.01307,43.35654],[-3.01166,43.35702],[-3.01033,43.35517],[-3.01005,43.35411]]]}},{"type":"Feature","properties":{"id":"4804402028"},"geometry":{"type":"Polygon","coordinates":[[[-3.01097,43.35286],[-3.01142,43.35253],[-3.01119,43.35227],[-3.0122,43.35147],[-3.0137,43.3524],[-3.01393,43.35292],[-3.01302,43.35376],[-3.01097,43.35286]]]}},{"type":"Feature","properties":{"id":"4804402029"},"geometry":{"type":"Polygon","coordinates":[[[-3.00312,43.35077],[-3.00344,43.35052],[-3.00486,43.34883],[-3.00605,43.34936],[-3.00472,43.35058],[-3.00414,43.35093],[-3.00312,43.35077]]]}},{"type":"Feature","properties":{"id":"4804402030"},"geometry":{"type":"Polygon","coordinates":[[[-3.00133,43.34215],[-3.00214,43.34208],[-3.00308,43.3423],[-3.00251,43.34495],[-3.0025,43.34541],[-3.00288,43.34618],[-3.00334,43.34656],[-3.00419,43.34694],[-3.00207,43.34913],[-3.00113,43.34916],[-2.99997,43.34739],[-2.99996,43.34692],[-3.00004,43.34633],[-3.00133,43.34215]]]}},{"type":"Feature","properties":{"id":"4804402031"},"geometry":{"type":"Polygon","coordinates":[[[-3.00701,43.34041],[-3.00809,43.33953],[-3.00854,43.339],[-3.00969,43.33665],[-3.0102,43.33671],[-3.01007,43.33752],[-3.01329,43.33963],[-3.01348,43.3394],[-3.01367,43.33959],[-3.01378,43.33952],[-3.0143,43.33992],[-3.01418,43.34004],[-3.01474,43.34039],[-3.01524,43.34043],[-3.01522,43.34055],[-3.0156,43.34059],[-3.01569,43.34045],[-3.01404,43.33943],[-3.01407,43.33935],[-3.01512,43.33997],[-3.01522,43.33979],[-3.01533,43.33987],[-3.01519,43.34002],[-3.01621,43.34067],[-3.02531,43.34163],[-3.0253,43.34155],[-3.02537,43.34164],[-3.02775,43.34187],[-3.02781,43.34196],[-3.01464,43.34059],[-3.01399,43.34189],[-3.01335,43.34358],[-3.01297,43.34408],[-3.01266,43.34477],[-3.01119,43.34477],[-3.0109,43.34509],[-3.01094,43.34405],[-3.01143,43.34322],[-3.01137,43.34277],[-3.01093,43.34253],[-3.01011,43.34228],[-3.0085,43.34128],[-3.00736,43.34074],[-3.00701,43.34041]]]}},{"type":"Feature","properties":{"id":"4804402032"},"geometry":{"type":"Polygon","coordinates":[[[-3.00301,43.34262],[-3.00308,43.3423],[-3.00294,43.34224],[-3.00214,43.34208],[-3.00133,43.34215],[-2.99991,43.34173],[-2.9997,43.3405],[-3.00079,43.34046],[-3.00244,43.34067],[-3.00321,43.34068],[-3.00403,43.34106],[-3.00578,43.34153],[-3.00546,43.34181],[-3.00495,43.34285],[-3.0046,43.34329],[-3.00301,43.34262]]]}},{"type":"Feature","properties":{"id":"4804403001"},"geometry":{"type":"Polygon","coordinates":[[[-3.0102,43.33671],[-3.00797,43.33623],[-3.00642,43.33536],[-3.00664,43.3344],[-3.00766,43.33249],[-3.00878,43.33276],[-3.0087,43.33327],[-3.00907,43.33344],[-3.00942,43.33337],[-3.00982,43.33304],[-3.01117,43.33335],[-3.01155,43.33251],[-3.01241,43.33275],[-3.01036,43.33593],[-3.0102,43.33671]]]}},{"type":"Feature","properties":{"id":"4804403002"},"geometry":{"type":"Polygon","coordinates":[[[-3.01553,43.32984],[-3.01393,43.32907],[-3.01415,43.32882],[-3.01195,43.32791],[-3.01183,43.32789],[-3.01161,43.32802],[-3.01077,43.32739],[-3.01204,43.32653],[-3.01361,43.32777],[-3.01465,43.32821],[-3.01539,43.3273],[-3.01596,43.32774],[-3.01611,43.32796],[-3.01579,43.32824],[-3.01615,43.32843],[-3.01569,43.32899],[-3.01526,43.32887],[-3.01489,43.32934],[-3.01597,43.32976],[-3.01515,43.3307],[-3.01493,43.33064],[-3.01553,43.32984]]]}},{"type":"Feature","properties":{"id":"4804403003"},"geometry":{"type":"Polygon","coordinates":[[[-3.01611,43.32796],[-3.01596,43.32774],[-3.01423,43.32641],[-3.01747,43.32469],[-3.01892,43.3262],[-3.01899,43.32666],[-3.02082,43.32879],[-3.02075,43.32888],[-3.02065,43.3287],[-3.02036,43.32869],[-3.01868,43.32677],[-3.01821,43.32655],[-3.01801,43.32634],[-3.01743,43.32666],[-3.01622,43.32771],[-3.01837,43.32871],[-3.01712,43.33037],[-3.01687,43.33032],[-3.01815,43.32877],[-3.01776,43.3286],[-3.0167,43.32992],[-3.0165,43.32984],[-3.0176,43.3285],[-3.01611,43.32796]]]}},{"type":"Feature","properties":{"id":"4804403004"},"geometry":{"type":"Polygon","coordinates":[[[-3.01323,43.32475],[-3.01261,43.32436],[-3.01582,43.32187],[-3.01737,43.32349],[-3.01449,43.32496],[-3.01334,43.32564],[-3.01323,43.32475]]]}},{"type":"Feature","properties":{"id":"4804403005"},"geometry":{"type":"Polygon","coordinates":[[[-3.01113,43.3236],[-3.01105,43.32329],[-3.00967,43.32235],[-3.01109,43.31992],[-3.01231,43.3203],[-3.01182,43.32119],[-3.01241,43.32159],[-3.01176,43.32212],[-3.01377,43.32345],[-3.01261,43.32436],[-3.01149,43.32361],[-3.01113,43.3236]]]}},{"type":"Feature","properties":{"id":"4804403006"},"geometry":{"type":"Polygon","coordinates":[[[-3.00841,43.32573],[-3.01113,43.3236],[-3.01149,43.32361],[-3.01261,43.32436],[-3.01015,43.32629],[-3.01075,43.3267],[-3.01031,43.32686],[-3.01013,43.32691],[-3.00841,43.32573]]]}},{"type":"Feature","properties":{"id":"4804403007"},"geometry":{"type":"Polygon","coordinates":[[[-3.00874,43.32752],[-3.00963,43.3269],[-3.00721,43.32508],[-3.00729,43.32498],[-3.01017,43.32694],[-3.01034,43.32723],[-3.01043,43.32779],[-3.00995,43.32847],[-3.00874,43.32752]]]}},{"type":"Feature","properties":{"id":"4804403008"},"geometry":{"type":"Polygon","coordinates":[[[-3.00927,43.32961],[-3.0063,43.32734],[-3.0065,43.32679],[-3.00683,43.32686],[-3.00735,43.3265],[-3.00995,43.32847],[-3.00927,43.32961]]]}},{"type":"Feature","properties":{"id":"4804403009"},"geometry":{"type":"Polygon","coordinates":[[[-3.01334,43.32564],[-3.01449,43.32496],[-3.01737,43.32349],[-3.01818,43.32435],[-3.01423,43.32641],[-3.01334,43.32564]]]}},{"type":"Feature","properties":{"id":"4804403010"},"geometry":{"type":"Polygon","coordinates":[[[-3.00284,43.33246],[-3.00483,43.32966],[-3.00515,43.32972],[-3.00737,43.33139],[-3.00514,43.33363],[-3.00284,43.33246]]]}},{"type":"Feature","properties":{"id":"4804403011"},"geometry":{"type":"Polygon","coordinates":[[[-3.01013,43.32691],[-3.01075,43.3267],[-3.01323,43.32475],[-3.01334,43.32564],[-3.01302,43.32588],[-3.01042,43.32758],[-3.01013,43.32691]]]}},{"type":"Feature","properties":{"id":"4804403012"},"geometry":{"type":"Polygon","coordinates":[[[-3.0065,43.32679],[-3.00708,43.32523],[-3.00721,43.32508],[-3.00824,43.32588],[-3.00683,43.32686],[-3.0065,43.32679]]]}},{"type":"Feature","properties":{"id":"4804403013"},"geometry":{"type":"Polygon","coordinates":[[[-3.00894,43.3302],[-3.00978,43.32868],[-3.01037,43.32792],[-3.01042,43.32758],[-3.01077,43.32739],[-3.01161,43.32802],[-3.01183,43.32789],[-3.01195,43.32791],[-3.01415,43.32882],[-3.012,43.33155],[-3.00894,43.3302]]]}},{"type":"Feature","properties":{"id":"4804403014"},"geometry":{"type":"Polygon","coordinates":[[[-3.01204,43.32653],[-3.01334,43.32564],[-3.01539,43.3273],[-3.01465,43.32821],[-3.01361,43.32777],[-3.01204,43.32653]]]}},{"type":"Feature","properties":{"id":"4804403015"},"geometry":{"type":"Polygon","coordinates":[[[-3.00753,43.3247],[-3.00905,43.32297],[-3.00967,43.32235],[-3.01061,43.32301],[-3.00801,43.32501],[-3.00753,43.3247]]]}},{"type":"Feature","properties":{"id":"4804403016"},"geometry":{"type":"Polygon","coordinates":[[[-3.00766,43.33151],[-3.00791,43.33121],[-3.00766,43.32937],[-3.00837,43.32889],[-3.00927,43.32961],[-3.00814,43.33165],[-3.00766,43.33151]]]}},{"type":"Feature","properties":{"id":"4804403017"},"geometry":{"type":"Polygon","coordinates":[[[-3.00737,43.33139],[-3.00515,43.32972],[-3.00483,43.32966],[-3.00506,43.32931],[-3.00624,43.3293],[-3.00693,43.32881],[-3.00766,43.32937],[-3.00791,43.33121],[-3.00766,43.33151],[-3.00737,43.33139]]]}},{"type":"Feature","properties":{"id":"4804403019"},"geometry":{"type":"Polygon","coordinates":[[[-3.00735,43.3265],[-3.00824,43.32588],[-3.00963,43.3269],[-3.00874,43.32752],[-3.00735,43.3265]]]}},{"type":"Feature","properties":{"id":"4804403020"},"geometry":{"type":"Polygon","coordinates":[[[-3.00766,43.32937],[-3.0059,43.32807],[-3.0063,43.32734],[-3.00837,43.32889],[-3.00766,43.32937]]]}},{"type":"Feature","properties":{"id":"4804403021"},"geometry":{"type":"Polygon","coordinates":[[[-3.0059,43.32807],[-3.00693,43.32881],[-3.00624,43.3293],[-3.00506,43.32931],[-3.0059,43.32807]]]}},{"type":"Feature","properties":{"id":"4804403022"},"geometry":{"type":"Polygon","coordinates":[[[-3.01231,43.3203],[-3.01513,43.32121],[-3.01582,43.32187],[-3.01377,43.32345],[-3.01176,43.32212],[-3.01241,43.32159],[-3.01182,43.32119],[-3.01231,43.3203]]]}},{"type":"Feature","properties":{"id":"4804403023"},"geometry":{"type":"Polygon","coordinates":[[[-3.00642,43.33536],[-3.00287,43.33344],[-3.00262,43.33321],[-3.00223,43.33311],[-3.00284,43.33246],[-3.00514,43.33363],[-3.00737,43.33139],[-3.00814,43.33165],[-3.00682,43.33399],[-3.0065,43.3348],[-3.00642,43.33536]]]}},{"type":"Feature","properties":{"id":"4804403024"},"geometry":{"type":"Polygon","coordinates":[[[-3.01261,43.32436],[-3.01323,43.32475],[-3.01075,43.3267],[-3.01015,43.32629],[-3.01261,43.32436]]]}},{"type":"Feature","properties":{"id":"4804403025"},"geometry":{"type":"Polygon","coordinates":[[[-3.00766,43.33249],[-3.00894,43.3302],[-3.012,43.33155],[-3.01393,43.32907],[-3.01465,43.32941],[-3.01435,43.32972],[-3.01445,43.32975],[-3.01427,43.33005],[-3.01419,43.33003],[-3.01241,43.33275],[-3.01155,43.33251],[-3.01117,43.33335],[-3.00982,43.33304],[-3.00942,43.33337],[-3.00907,43.33344],[-3.0087,43.33327],[-3.00878,43.33276],[-3.00766,43.33249]]]}},{"type":"Feature","properties":{"id":"4804403026"},"geometry":{"type":"Polygon","coordinates":[[[-3.00729,43.32498],[-3.00753,43.3247],[-3.00801,43.32501],[-3.01061,43.32301],[-3.01105,43.32329],[-3.01113,43.3236],[-3.00841,43.32573],[-3.00729,43.32498]]]}}]}