{"type":"FeatureCollection","features":[{"type":"Feature","properties":{"id":"4806501001"},"geometry":{"type":"MultiPolygon","coordinates":[[[[-2.90705,43.1865],[-2.90035,43.18606],[-2.89983,43.18579],[-2.8997,43.1855],[-2.89925,43.18523],[-2.89918,43.1851],[-2.89921,43.18422],[-2.89933,43.18411],[-2.90099,43.18378],[-2.90193,43.18342],[-2.90283,43.18271],[-2.90326,43.18181],[-2.90432,43.18198],[-2.90435,43.18061],[-2.90454,43.18002],[-2.90574,43.17797],[-2.90618,43.17759],[-2.90664,43.17741],[-2.90657,43.17755],[-2.90701,43.17748],[-2.908,43.17756],[-2.90894,43.17771],[-2.90966,43.17796],[-2.91023,43.17833],[-2.91115,43.17977],[-2.91154,43.18007],[-2.91206,43.18015],[-2.91302,43.18011],[-2.9137,43.17988],[-2.91444,43.18076],[-2.91511,43.1812],[-2.91531,43.1816],[-2.9158,43.18205],[-2.91636,43.18285],[-2.9169,43.18314],[-2.91835,43.18304],[-2.91901,43.18323],[-2.92188,43.18567],[-2.92413,43.18702],[-2.92338,43.18758],[-2.91575,43.19098],[-2.91446,43.19063],[-2.91249,43.18931],[-2.9111,43.18875],[-2.90978,43.18756],[-2.90705,43.1865]]],[[[-2.88901,43.19161],[-2.8817,43.18823],[-2.88426,43.18538],[-2.88983,43.18286],[-2.891,43.18182],[-2.89287,43.17896],[-2.89663,43.176],[-2.89756,43.17613],[-2.8983,43.17579],[-2.89957,43.17577],[-2.90161,43.17602],[-2.90173,43.17638],[-2.90161,43.17746],[-2.90103,43.17949],[-2.90194,43.17949],[-2.90236,43.17899],[-2.90249,43.17911],[-2.90241,43.18139],[-2.90149,43.18127],[-2.90125,43.18213],[-2.90079,43.18238],[-2.90095,43.18264],[-2.90093,43.18311],[-2.90069,43.18333],[-2.90016,43.18358],[-2.89982,43.18361],[-2.89862,43.18304],[-2.89776,43.18286],[-2.89683,43.18288],[-2.89587,43.18304],[-2.89566,43.18316],[-2.89431,43.18475],[-2.89409,43.18516],[-2.89382,43.18649],[-2.89377,43.18756],[-2.894,43.18788],[-2.89599,43.18875],[-2.89647,43.18918],[-2.89702,43.18946],[-2.89944,43.1903],[-2.8997,43.19052],[-2.89978,43.19087],[-2.89586,43.19087],[-2.8903,43.19296],[-2.88979,43.19259],[-2.88901,43.19161]]],[[[-2.90715,43.17665],[-2.90649,43.17661],[-2.90569,43.17595],[-2.90545,43.17553],[-2.90533,43.17525],[-2.90541,43.17444],[-2.90534,43.17327],[-2.90516,43.17288],[-2.90435,43.1726],[-2.90309,43.17262],[-2.90298,43.17276],[-2.90234,43.17182],[-2.90361,43.17172],[-2.90449,43.17054],[-2.90326,43.1705],[-2.90173,43.17028],[-2.9015,43.16993],[-2.90073,43.17023],[-2.89907,43.17122],[-2.8987,43.17128],[-2.89861,43.1709],[-2.89808,43.17053],[-2.89672,43.17063],[-2.89602,43.17036],[-2.89584,43.17005],[-2.89563,43.16907],[-2.89538,43.16864],[-2.89606,43.16831],[-2.89662,43.16784],[-2.89696,43.16728],[-2.89711,43.16672],[-2.89877,43.16541],[-2.89909,43.16504],[-2.89888,43.16404],[-2.89948,43.16285],[-2.90145,43.162],[-2.89991,43.16186],[-2.90268,43.15952],[-2.90781,43.15752],[-2.90813,43.15749],[-2.90815,43.15777],[-2.91021,43.15944],[-2.90954,43.15999],[-2.90915,43.16053],[-2.90764,43.16177],[-2.90667,43.1629],[-2.90531,43.1648],[-2.90458,43.16638],[-2.90448,43.16736],[-2.90454,43.1675],[-2.90562,43.16836],[-2.90596,43.16965],[-2.90701,43.17142],[-2.90937,43.17253],[-2.91082,43.17526],[-2.90906,43.17553],[-2.90754,43.17601],[-2.90715,43.17665]]],[[[-2.91032,43.19685],[-2.90999,43.19687],[-2.9097,43.19665],[-2.90944,43.19603],[-2.90925,43.19584],[-2.90698,43.19472],[-2.90694,43.19427],[-2.90764,43.19337],[-2.90964,43.19298],[-2.91127,43.19247],[-2.91262,43.19239],[-2.91464,43.19444],[-2.91642,43.19689],[-2.91596,43.19735],[-2.91583,43.19822],[-2.91553,43.19919],[-2.9136,43.19934],[-2.91185,43.19969],[-2.9121,43.1984],[-2.91032,43.19685]]]]}},{"type":"Feature","properties":{"id":"4806501002"},"geometry":{"type":"Polygon","coordinates":[[[-2.89948,43.1835],[-2.89982,43.18361],[-2.90016,43.18358],[-2.90069,43.18333],[-2.90093,43.18311],[-2.90095,43.18264],[-2.90079,43.18238],[-2.90125,43.18213],[-2.90149,43.18127],[-2.90241,43.18139],[-2.90128,43.18334],[-2.90081,43.18382],[-2.89933,43.18411],[-2.89921,43.18422],[-2.89948,43.1835]]]}},{"type":"Feature","properties":{"id":"4806501003"},"geometry":{"type":"Polygon","coordinates":[[[-2.90241,43.18139],[-2.90249,43.17911],[-2.90236,43.17899],[-2.90308,43.17853],[-2.90284,43.17956],[-2.90328,43.18122],[-2.9032,43.18208],[-2.90283,43.18271],[-2.90223,43.18324],[-2.90154,43.1836],[-2.90081,43.18382],[-2.90128,43.18334],[-2.90241,43.18139]]]}},{"type":"Feature","properties":{"id":"4806501004"},"geometry":{"type":"Polygon","coordinates":[[[-2.90326,43.18181],[-2.90328,43.18122],[-2.90284,43.17956],[-2.90308,43.17853],[-2.90249,43.17888],[-2.90194,43.17949],[-2.90103,43.17949],[-2.90161,43.17746],[-2.90173,43.17638],[-2.90161,43.17602],[-2.90164,43.17558],[-2.90188,43.17414],[-2.90205,43.17381],[-2.90309,43.17262],[-2.90435,43.1726],[-2.90516,43.17288],[-2.90529,43.17308],[-2.90541,43.17444],[-2.90533,43.17525],[-2.90569,43.17595],[-2.90649,43.17661],[-2.90715,43.17665],[-2.90687,43.17714],[-2.90706,43.17725],[-2.90618,43.17759],[-2.90574,43.17797],[-2.90454,43.18002],[-2.90435,43.18061],[-2.90435,43.18194],[-2.90326,43.18181]]]}}]}