{"type":"FeatureCollection","features":[{"type":"Feature","properties":{"id":"4807301001"},"geometry":{"type":"Polygon","coordinates":[[[-2.42106,43.32048],[-2.42246,43.32067],[-2.42365,43.32059],[-2.42595,43.32007],[-2.42632,43.32005],[-2.42702,43.32014],[-2.42788,43.32073],[-2.42782,43.32092],[-2.42761,43.32101],[-2.42691,43.3206],[-2.42557,43.32174],[-2.42286,43.32173],[-2.42287,43.32189],[-2.42306,43.32206],[-2.42292,43.32212],[-2.4227,43.32191],[-2.42253,43.32195],[-2.4223,43.32175],[-2.42211,43.32181],[-2.42188,43.32145],[-2.42158,43.32171],[-2.4211,43.32143],[-2.42077,43.32087],[-2.42106,43.32048]]]}},{"type":"Feature","properties":{"id":"4807301002"},"geometry":{"type":"Polygon","coordinates":[[[-2.44677,43.32342],[-2.44647,43.3257],[-2.44259,43.32559],[-2.44162,43.32548],[-2.44123,43.32553],[-2.44039,43.32584],[-2.43962,43.32574],[-2.43929,43.32594],[-2.43678,43.32665],[-2.43631,43.32672],[-2.43577,43.32661],[-2.43604,43.32689],[-2.43713,43.32736],[-2.43751,43.32765],[-2.43838,43.32859],[-2.43874,43.32884],[-2.43859,43.33022],[-2.43826,43.33102],[-2.43854,43.33226],[-2.43842,43.3327],[-2.43845,43.33313],[-2.4383,43.33349],[-2.43849,43.33392],[-2.43803,43.33413],[-2.43771,43.334],[-2.43678,43.33387],[-2.43599,43.33409],[-2.43574,43.33404],[-2.43588,43.33423],[-2.43575,43.33431],[-2.43535,43.33421],[-2.43515,43.33401],[-2.43483,43.33418],[-2.43463,43.33371],[-2.43434,43.33386],[-2.43419,43.33364],[-2.43352,43.33356],[-2.43313,43.33328],[-2.433,43.33331],[-2.43311,43.3336],[-2.43285,43.33354],[-2.43254,43.3338],[-2.43241,43.33378],[-2.43211,43.33316],[-2.43188,43.33304],[-2.43173,43.33303],[-2.43144,43.33322],[-2.43129,43.33294],[-2.43104,43.33297],[-2.43067,43.33273],[-2.42994,43.3325],[-2.42952,43.33264],[-2.42826,43.33201],[-2.42802,43.33199],[-2.42765,43.33164],[-2.42733,43.33174],[-2.42713,43.33167],[-2.42621,43.331],[-2.42537,43.33057],[-2.42526,43.33059],[-2.42583,43.33108],[-2.42513,43.33075],[-2.42498,43.33085],[-2.42487,43.33059],[-2.4246,43.33072],[-2.42448,43.33064],[-2.42431,43.33072],[-2.42293,43.33007],[-2.42273,43.32995],[-2.42293,43.32982],[-2.42337,43.32987],[-2.42269,43.32944],[-2.42282,43.32923],[-2.42269,43.32906],[-2.42225,43.32898],[-2.42263,43.32923],[-2.42249,43.32929],[-2.42164,43.32922],[-2.42089,43.32894],[-2.42104,43.32869],[-2.42078,43.32855],[-2.42074,43.32816],[-2.42054,43.32795],[-2.42221,43.32716],[-2.42298,43.32598],[-2.42347,43.32549],[-2.42355,43.32374],[-2.42278,43.32249],[-2.42176,43.32181],[-2.42128,43.3221],[-2.42003,43.32129],[-2.41979,43.32084],[-2.41954,43.32085],[-2.4196,43.32054],[-2.42006,43.32018],[-2.42041,43.32011],[-2.42087,43.3202],[-2.42106,43.32048],[-2.42077,43.32087],[-2.4211,43.32143],[-2.42158,43.32171],[-2.42188,43.32145],[-2.42211,43.32181],[-2.4223,43.32175],[-2.42253,43.32195],[-2.4227,43.32191],[-2.42292,43.32212],[-2.42306,43.32206],[-2.42287,43.32189],[-2.42286,43.32173],[-2.42557,43.32174],[-2.42691,43.3206],[-2.42761,43.32101],[-2.42782,43.32092],[-2.42788,43.32073],[-2.42839,43.32114],[-2.42998,43.32167],[-2.43024,43.3218],[-2.43033,43.32197],[-2.43106,43.32213],[-2.43228,43.32211],[-2.4334,43.32198],[-2.43742,43.32104],[-2.43786,43.32109],[-2.43781,43.32229],[-2.44056,43.32229],[-2.44114,43.32187],[-2.44291,43.32255],[-2.44526,43.32316],[-2.44677,43.32342]]]}},{"type":"Feature","properties":{"id":"4807301003"},"geometry":{"type":"Polygon","coordinates":[[[-2.42128,43.3221],[-2.42176,43.32181],[-2.42278,43.32249],[-2.42304,43.32281],[-2.42355,43.32374],[-2.42353,43.32529],[-2.42221,43.32716],[-2.42054,43.32795],[-2.42033,43.32793],[-2.42013,43.32802],[-2.41966,43.32779],[-2.42005,43.32736],[-2.42004,43.32723],[-2.41905,43.32675],[-2.41912,43.32672],[-2.4188,43.32657],[-2.4187,43.32641],[-2.41819,43.32619],[-2.41807,43.32605],[-2.41787,43.32596],[-2.4176,43.32597],[-2.41737,43.32577],[-2.41785,43.32591],[-2.41803,43.32587],[-2.41748,43.32544],[-2.41565,43.32591],[-2.41552,43.32586],[-2.41548,43.3257],[-2.41673,43.32521],[-2.41721,43.32516],[-2.41855,43.32558],[-2.41976,43.3256],[-2.42066,43.32535],[-2.42152,43.32478],[-2.42155,43.32488],[-2.42127,43.32511],[-2.42074,43.32542],[-2.42,43.32566],[-2.41991,43.32586],[-2.41903,43.32577],[-2.41898,43.32587],[-2.41916,43.32592],[-2.41896,43.32594],[-2.41889,43.32611],[-2.41931,43.3262],[-2.41925,43.32634],[-2.42032,43.32697],[-2.42091,43.32698],[-2.42251,43.32539],[-2.42275,43.32393],[-2.422,43.32388],[-2.42183,43.32445],[-2.42166,43.32442],[-2.42193,43.32315],[-2.42202,43.32316],[-2.42179,43.32266],[-2.42128,43.3221]]]}},{"type":"Feature","properties":{"id":"4807302001"},"geometry":{"type":"Polygon","coordinates":[[[-2.42106,43.32048],[-2.42087,43.3202],[-2.42041,43.32011],[-2.42006,43.32018],[-2.4196,43.32054],[-2.41909,43.32005],[-2.4196,43.31942],[-2.42005,43.31925],[-2.42122,43.31908],[-2.42214,43.31911],[-2.42237,43.31919],[-2.42274,43.31953],[-2.42521,43.31848],[-2.42462,43.31898],[-2.42295,43.31992],[-2.42315,43.32041],[-2.42347,43.3204],[-2.42346,43.32059],[-2.42246,43.32067],[-2.42106,43.32048]]]}},{"type":"Feature","properties":{"id":"4807302002"},"geometry":{"type":"Polygon","coordinates":[[[-2.42839,43.32114],[-2.42702,43.32014],[-2.42632,43.32005],[-2.42346,43.32059],[-2.42347,43.3204],[-2.42315,43.32041],[-2.42295,43.31992],[-2.42462,43.31898],[-2.42521,43.31848],[-2.42588,43.31828],[-2.42689,43.31821],[-2.42824,43.31838],[-2.42895,43.31865],[-2.42971,43.31947],[-2.43024,43.32084],[-2.43029,43.32127],[-2.4306,43.32156],[-2.43027,43.32186],[-2.42998,43.32167],[-2.42839,43.32114]]]}},{"type":"Feature","properties":{"id":"4807302003"},"geometry":{"type":"Polygon","coordinates":[[[-2.44291,43.32255],[-2.44114,43.32187],[-2.44056,43.32229],[-2.43781,43.32229],[-2.43786,43.32109],[-2.43742,43.32104],[-2.4334,43.32198],[-2.43228,43.32211],[-2.43106,43.32213],[-2.43033,43.32197],[-2.43027,43.32186],[-2.4306,43.32156],[-2.43029,43.32127],[-2.43024,43.32084],[-2.43093,43.32046],[-2.43297,43.31904],[-2.43429,43.31868],[-2.43479,43.31835],[-2.43505,43.31834],[-2.43647,43.31857],[-2.43827,43.31913],[-2.43944,43.31971],[-2.44142,43.32098],[-2.44202,43.32114],[-2.4429,43.32109],[-2.44356,43.32078],[-2.44404,43.31957],[-2.44462,43.31897],[-2.4461,43.31818],[-2.44746,43.31792],[-2.44677,43.32342],[-2.44526,43.32316],[-2.44291,43.32255]]]}},{"type":"Feature","properties":{"id":"4807303001"},"geometry":{"type":"Polygon","coordinates":[[[-2.43623,43.31114],[-2.43075,43.31144],[-2.43103,43.31276],[-2.43083,43.31422],[-2.43077,43.31572],[-2.43103,43.31703],[-2.4309,43.31711],[-2.4306,43.31794],[-2.43053,43.31846],[-2.43034,43.31882],[-2.43034,43.31923],[-2.43134,43.31918],[-2.43366,43.31845],[-2.43448,43.31833],[-2.43501,43.31834],[-2.43479,43.31835],[-2.43429,43.31868],[-2.43297,43.31904],[-2.43093,43.32046],[-2.43024,43.32084],[-2.42971,43.31947],[-2.42923,43.31887],[-2.42895,43.31865],[-2.42824,43.31838],[-2.42689,43.31821],[-2.42588,43.31828],[-2.42427,43.31883],[-2.42274,43.31953],[-2.42237,43.31919],[-2.42214,43.31911],[-2.42122,43.31908],[-2.4198,43.31933],[-2.41951,43.31951],[-2.41909,43.32005],[-2.4196,43.32054],[-2.41954,43.32085],[-2.41979,43.32084],[-2.42003,43.32129],[-2.42042,43.32156],[-2.42,43.32186],[-2.4201,43.322],[-2.42036,43.32194],[-2.42075,43.32218],[-2.42036,43.32197],[-2.42014,43.32209],[-2.41975,43.32336],[-2.41938,43.32405],[-2.41826,43.32484],[-2.41824,43.32475],[-2.41927,43.32407],[-2.41805,43.32242],[-2.41586,43.32202],[-2.41543,43.32183],[-2.41527,43.32165],[-2.41469,43.32144],[-2.41321,43.32116],[-2.41265,43.3212],[-2.41225,43.32106],[-2.41181,43.32068],[-2.41167,43.32018],[-2.412,43.32014],[-2.41279,43.32037],[-2.41293,43.32044],[-2.413,43.32065],[-2.41378,43.32075],[-2.41542,43.32116],[-2.41606,43.32159],[-2.41669,43.32179],[-2.41712,43.32191],[-2.4181,43.32193],[-2.41942,43.32218],[-2.41955,43.32214],[-2.41955,43.32199],[-2.41892,43.32164],[-2.41726,43.32101],[-2.43153,43.30884],[-2.43282,43.30807],[-2.43407,43.30832],[-2.43523,43.30812],[-2.43676,43.30719],[-2.43742,43.30418],[-2.43828,43.30313],[-2.43978,43.30204],[-2.4402,43.3016],[-2.44196,43.30238],[-2.44231,43.30245],[-2.44412,43.30333],[-2.44294,43.30654],[-2.44938,43.30562],[-2.44825,43.30777],[-2.44737,43.31084],[-2.44867,43.3124],[-2.44775,43.31226],[-2.44669,43.31169],[-2.44565,43.31232],[-2.44617,43.31245],[-2.44584,43.31434],[-2.44478,43.31465],[-2.44245,43.31425],[-2.43642,43.31283],[-2.43623,43.31114]]]}}]}