{"type":"FeatureCollection","features":[{"type":"Feature","properties":{"id":"4807701001"},"geometry":{"type":"Polygon","coordinates":[[[-2.93197,43.37443],[-2.93171,43.37402],[-2.93528,43.37241],[-2.93658,43.37129],[-2.93828,43.37138],[-2.93882,43.3708],[-2.94033,43.37108],[-2.94052,43.37126],[-2.94157,43.37301],[-2.94148,43.37381],[-2.94104,43.37465],[-2.9402,43.37561],[-2.94012,43.37604],[-2.94045,43.37655],[-2.94139,43.3773],[-2.94173,43.37738],[-2.94207,43.37733],[-2.94259,43.37771],[-2.94423,43.37809],[-2.94448,43.3786],[-2.9445,43.37889],[-2.94562,43.37969],[-2.94576,43.38004],[-2.94678,43.38052],[-2.94668,43.38094],[-2.94675,43.38105],[-2.94635,43.38145],[-2.94611,43.38203],[-2.94629,43.38231],[-2.94719,43.38312],[-2.94737,43.38401],[-2.94727,43.38454],[-2.94668,43.38523],[-2.94629,43.38612],[-2.94576,43.38786],[-2.9452,43.38812],[-2.9449,43.38849],[-2.94482,43.38877],[-2.94409,43.38917],[-2.94296,43.39069],[-2.94331,43.39108],[-2.94309,43.39153],[-2.94237,43.39218],[-2.94092,43.39274],[-2.94152,43.3938],[-2.94177,43.3948],[-2.94159,43.39577],[-2.94183,43.3965],[-2.94722,43.39786],[-2.94804,43.39768],[-2.94889,43.3978],[-2.95008,43.39775],[-2.94992,43.39791],[-2.94988,43.39814],[-2.95008,43.39898],[-2.95028,43.39924],[-2.95089,43.3996],[-2.95214,43.39988],[-2.95014,43.40346],[-2.94649,43.40269],[-2.94325,43.40112],[-2.9376,43.39464],[-2.93667,43.39348],[-2.93669,43.39324],[-2.93496,43.39295],[-2.93353,43.3912],[-2.93213,43.39011],[-2.93021,43.3893],[-2.92976,43.38928],[-2.92918,43.38951],[-2.92787,43.39041],[-2.92614,43.3924],[-2.92546,43.39379],[-2.92543,43.39442],[-2.9256,43.39489],[-2.92546,43.39525],[-2.92319,43.39742],[-2.92232,43.39802],[-2.92164,43.39834],[-2.92385,43.40242],[-2.92475,43.40352],[-2.92612,43.40461],[-2.92712,43.40468],[-2.92812,43.40537],[-2.92922,43.40576],[-2.93002,43.4063],[-2.9304,43.40641],[-2.93068,43.40674],[-2.93149,43.40681],[-2.93188,43.40697],[-2.93218,43.40736],[-2.93227,43.40784],[-2.93149,43.40799],[-2.93066,43.40857],[-2.9303,43.4086],[-2.92986,43.40842],[-2.92962,43.40848],[-2.92872,43.41051],[-2.92664,43.40953],[-2.92546,43.41007],[-2.9246,43.40998],[-2.92438,43.4105],[-2.92361,43.41126],[-2.92296,43.41166],[-2.92025,43.41293],[-2.92191,43.41491],[-2.92108,43.41576],[-2.91879,43.41609],[-2.91779,43.41466],[-2.91752,43.41441],[-2.91747,43.41362],[-2.91684,43.41279],[-2.91668,43.41241],[-2.91696,43.41161],[-2.91759,43.41072],[-2.91787,43.4093],[-2.9171,43.40782],[-2.91685,43.40639],[-2.9171,43.40433],[-2.91579,43.40379],[-2.9151,43.40339],[-2.91538,43.40285],[-2.91634,43.40245],[-2.9178,43.40204],[-2.9171,43.40107],[-2.91537,43.39483],[-2.91789,43.39586],[-2.91813,43.39578],[-2.91774,43.39482],[-2.91766,43.3943],[-2.91826,43.3927],[-2.91852,43.39155],[-2.91877,43.39106],[-2.92083,43.38895],[-2.92137,43.38823],[-2.92167,43.38755],[-2.9222,43.38539],[-2.92259,43.38446],[-2.92304,43.3841],[-2.92499,43.38339],[-2.92524,43.38305],[-2.92533,43.38271],[-2.92514,43.38205],[-2.92821,43.37987],[-2.92908,43.38036],[-2.93065,43.37818],[-2.93197,43.37443]]]}},{"type":"Feature","properties":{"id":"4807701002"},"geometry":{"type":"Polygon","coordinates":[[[-2.94518,43.41265],[-2.94424,43.41225],[-2.944,43.4111],[-2.94367,43.41023],[-2.9437,43.40913],[-2.94451,43.40806],[-2.94499,43.40759],[-2.94348,43.40721],[-2.94414,43.40592],[-2.94485,43.40582],[-2.9452,43.40568],[-2.94433,43.40456],[-2.94407,43.40448],[-2.94322,43.40447],[-2.94273,43.40384],[-2.94196,43.40349],[-2.9439,43.40199],[-2.94325,43.40112],[-2.94649,43.40269],[-2.95014,43.40346],[-2.94988,43.40397],[-2.95088,43.40423],[-2.95117,43.40446],[-2.95135,43.40484],[-2.95129,43.40528],[-2.95093,43.40565],[-2.94701,43.40743],[-2.94609,43.40659],[-2.94535,43.40734],[-2.9455,43.40748],[-2.94542,43.40752],[-2.94591,43.40794],[-2.94634,43.40774],[-2.9459,43.408],[-2.94599,43.40814],[-2.94585,43.40813],[-2.94568,43.40849],[-2.94573,43.40888],[-2.94607,43.4095],[-2.94873,43.41085],[-2.9493,43.41153],[-2.94873,43.41091],[-2.94719,43.41113],[-2.94572,43.41182],[-2.94501,43.41249],[-2.9454,43.41265],[-2.94518,43.41265]]]}}]}