{"type":"FeatureCollection","features":[{"type":"Feature","properties":{"id":"4807501001"},"geometry":{"type":"Polygon","coordinates":[[[-2.92694,43.0675],[-2.92732,43.06771],[-2.92937,43.07178],[-2.93535,43.07477],[-2.93959,43.07598],[-2.94124,43.0761],[-2.94104,43.07865],[-2.94109,43.07911],[-2.94125,43.07931],[-2.94481,43.08204],[-2.9459,43.0826],[-2.94676,43.08287],[-2.94758,43.08301],[-2.95038,43.08304],[-2.95865,43.09042],[-2.96302,43.09418],[-2.96552,43.09406],[-2.96596,43.09413],[-2.96647,43.09443],[-2.9674,43.09457],[-2.9687,43.09455],[-2.97082,43.09481],[-2.97168,43.09512],[-2.97284,43.09512],[-2.97385,43.09685],[-2.9745,43.0986],[-2.97499,43.09904],[-2.97388,43.09915],[-2.97281,43.09951],[-2.97108,43.10095],[-2.96844,43.10195],[-2.96743,43.10269],[-2.96672,43.1028],[-2.96634,43.10296],[-2.96606,43.1032],[-2.96526,43.10356],[-2.96484,43.10402],[-2.96395,43.10453],[-2.9647,43.105],[-2.96335,43.10619],[-2.96038,43.11019],[-2.95988,43.11132],[-2.95872,43.11276],[-2.95762,43.11494],[-2.95561,43.1147],[-2.95183,43.12038],[-2.94919,43.12295],[-2.94854,43.12404],[-2.94792,43.12481],[-2.94433,43.127],[-2.94364,43.12759],[-2.94318,43.12839],[-2.94249,43.12889],[-2.94218,43.12928],[-2.94197,43.12988],[-2.94191,43.13083],[-2.9421,43.13125],[-2.94142,43.13189],[-2.94102,43.13254],[-2.93954,43.13382],[-2.93784,43.13465],[-2.93754,43.13491],[-2.93543,43.13606],[-2.93541,43.13658],[-2.93578,43.13666],[-2.93599,43.13705],[-2.93617,43.13716],[-2.93511,43.13725],[-2.93369,43.1373],[-2.93234,43.13697],[-2.93197,43.1368],[-2.93193,43.13632],[-2.9322,43.13549],[-2.93194,43.13429],[-2.93174,43.13406],[-2.93114,43.13363],[-2.92996,43.13325],[-2.92771,43.13212],[-2.92724,43.13171],[-2.92443,43.13055],[-2.92395,43.13027],[-2.92256,43.12885],[-2.92244,43.1285],[-2.92202,43.12809],[-2.92189,43.12767],[-2.91834,43.12653],[-2.91705,43.1264],[-2.91502,43.12585],[-2.91304,43.12576],[-2.91248,43.12568],[-2.91225,43.12555],[-2.91195,43.12514],[-2.91151,43.12493],[-2.91134,43.12473],[-2.91062,43.12204],[-2.91059,43.12122],[-2.91014,43.11965],[-2.90973,43.11899],[-2.90972,43.11836],[-2.9106,43.11501],[-2.91019,43.11373],[-2.9088,43.11053],[-2.91069,43.10873],[-2.91396,43.10445],[-2.91455,43.10272],[-2.9146,43.10226],[-2.91513,43.10153],[-2.91529,43.10107],[-2.91528,43.10041],[-2.9155,43.09969],[-2.91751,43.09694],[-2.91753,43.09651],[-2.91728,43.09603],[-2.91743,43.09546],[-2.91638,43.09355],[-2.91588,43.09303],[-2.91578,43.09238],[-2.91639,43.09198],[-2.91712,43.09188],[-2.91734,43.09175],[-2.9176,43.09145],[-2.91821,43.09028],[-2.91796,43.08946],[-2.91675,43.08775],[-2.91639,43.08675],[-2.91627,43.08572],[-2.91598,43.08525],[-2.91562,43.08493],[-2.91545,43.0846],[-2.91543,43.0842],[-2.9155,43.08383],[-2.9161,43.0833],[-2.91698,43.08219],[-2.91738,43.08127],[-2.91743,43.08023],[-2.91703,43.0789],[-2.91755,43.078],[-2.91823,43.07758],[-2.91893,43.07736],[-2.91936,43.07726],[-2.92165,43.07724],[-2.92207,43.07744],[-2.9224,43.07737],[-2.92253,43.07724],[-2.92256,43.07685],[-2.92224,43.07584],[-2.92217,43.07509],[-2.92176,43.07455],[-2.92121,43.07421],[-2.92093,43.07374],[-2.92088,43.07271],[-2.92075,43.0724],[-2.92083,43.07222],[-2.92267,43.07178],[-2.92319,43.07149],[-2.92342,43.07121],[-2.9234,43.07098],[-2.92302,43.07029],[-2.92294,43.06986],[-2.92318,43.06957],[-2.92373,43.06926],[-2.92432,43.06914],[-2.92508,43.06884],[-2.92615,43.06782],[-2.92694,43.0675]]]}},{"type":"Feature","properties":{"id":"4807501002"},"geometry":{"type":"Polygon","coordinates":[[[-2.92694,43.0675],[-2.92615,43.06782],[-2.92508,43.06884],[-2.92432,43.06914],[-2.92373,43.06926],[-2.92318,43.06957],[-2.92294,43.06986],[-2.92302,43.07029],[-2.9234,43.07098],[-2.92342,43.07121],[-2.92319,43.07149],[-2.92267,43.07178],[-2.92083,43.07222],[-2.92075,43.0724],[-2.92088,43.07271],[-2.92093,43.07374],[-2.92121,43.07421],[-2.92176,43.07455],[-2.92217,43.07509],[-2.92224,43.07584],[-2.92256,43.07685],[-2.92253,43.07724],[-2.9224,43.07737],[-2.92207,43.07744],[-2.92165,43.07724],[-2.91936,43.07726],[-2.91893,43.07736],[-2.91823,43.07758],[-2.91755,43.078],[-2.91703,43.0789],[-2.91743,43.08023],[-2.91738,43.08127],[-2.91698,43.08219],[-2.9161,43.0833],[-2.9155,43.08383],[-2.91543,43.0842],[-2.91545,43.0846],[-2.91562,43.08493],[-2.91598,43.08525],[-2.91627,43.08572],[-2.91639,43.08675],[-2.91675,43.08775],[-2.91796,43.08946],[-2.91821,43.09028],[-2.9176,43.09145],[-2.91734,43.09175],[-2.91712,43.09188],[-2.91639,43.09198],[-2.91578,43.09238],[-2.91588,43.09303],[-2.91638,43.09355],[-2.91743,43.09546],[-2.91728,43.09603],[-2.91753,43.09651],[-2.91751,43.09694],[-2.9155,43.09969],[-2.91528,43.10041],[-2.91529,43.10107],[-2.91513,43.10153],[-2.9146,43.10226],[-2.91455,43.10272],[-2.91396,43.10445],[-2.91069,43.10873],[-2.9088,43.11053],[-2.91019,43.11373],[-2.9106,43.11501],[-2.90972,43.11836],[-2.90973,43.11899],[-2.91014,43.11965],[-2.91059,43.12122],[-2.91062,43.12204],[-2.91134,43.12473],[-2.91151,43.12493],[-2.91195,43.12514],[-2.91225,43.12555],[-2.91248,43.12568],[-2.91304,43.12576],[-2.91502,43.12585],[-2.91705,43.1264],[-2.91834,43.12653],[-2.92189,43.12767],[-2.92202,43.12809],[-2.92244,43.1285],[-2.92256,43.12885],[-2.92395,43.13027],[-2.92443,43.13055],[-2.92724,43.13171],[-2.92771,43.13212],[-2.92996,43.13325],[-2.93114,43.13363],[-2.93174,43.13406],[-2.93194,43.13429],[-2.9322,43.13549],[-2.93193,43.13632],[-2.93197,43.1368],[-2.93234,43.13697],[-2.93369,43.1373],[-2.93617,43.13716],[-2.9368,43.13764],[-2.93789,43.13821],[-2.9385,43.13864],[-2.9393,43.14005],[-2.93922,43.14028],[-2.93809,43.14129],[-2.93747,43.14224],[-2.93734,43.14263],[-2.93739,43.14291],[-2.9378,43.1436],[-2.93533,43.14333],[-2.93384,43.14302],[-2.9283,43.14254],[-2.92539,43.14268],[-2.92413,43.14282],[-2.92251,43.14315],[-2.92134,43.14314],[-2.92073,43.14306],[-2.91803,43.14218],[-2.91718,43.14205],[-2.91409,43.14205],[-2.91222,43.14187],[-2.90804,43.14116],[-2.90778,43.14103],[-2.9077,43.14016],[-2.9075,43.13961],[-2.90744,43.13853],[-2.90701,43.13728],[-2.9066,43.13713],[-2.90405,43.13668],[-2.9024,43.1365],[-2.90003,43.13584],[-2.89789,43.13513],[-2.89652,43.13487],[-2.89587,43.13489],[-2.89451,43.13389],[-2.88977,43.13206],[-2.88935,43.13198],[-2.88734,43.13211],[-2.88316,43.13138],[-2.87946,43.13021],[-2.87837,43.12955],[-2.87633,43.12882],[-2.87424,43.12838],[-2.87356,43.12815],[-2.87303,43.12777],[-2.87061,43.12643],[-2.87028,43.12554],[-2.86954,43.12468],[-2.86717,43.12276],[-2.86601,43.12204],[-2.86496,43.12182],[-2.86266,43.12175],[-2.86162,43.12123],[-2.85953,43.12079],[-2.858,43.12023],[-2.85506,43.11984],[-2.85303,43.1194],[-2.85174,43.11901],[-2.85037,43.11811],[-2.84923,43.1176],[-2.84736,43.11719],[-2.84688,43.11664],[-2.84483,43.11531],[-2.8426,43.11412],[-2.84102,43.11279],[-2.84034,43.11201],[-2.83766,43.11005],[-2.83577,43.10957],[-2.83322,43.11044],[-2.83285,43.11044],[-2.83208,43.11028],[-2.83049,43.10975],[-2.82899,43.10948],[-2.82698,43.11056],[-2.82682,43.11007],[-2.82653,43.10966],[-2.82485,43.10877],[-2.82074,43.10698],[-2.81889,43.10658],[-2.81696,43.10604],[-2.81615,43.10569],[-2.81453,43.10467],[-2.81155,43.10215],[-2.80953,43.09878],[-2.80665,43.09482],[-2.80664,43.09248],[-2.80572,43.08919],[-2.80353,43.08488],[-2.80268,43.08223],[-2.80197,43.08048],[-2.80215,43.07917],[-2.80211,43.07816],[-2.8018,43.07639],[-2.80139,43.07519],[-2.80103,43.0745],[-2.80109,43.07339],[-2.80082,43.07317],[-2.79928,43.07246],[-2.79887,43.07218],[-2.7974,43.07058],[-2.79678,43.06925],[-2.7964,43.06885],[-2.79605,43.06781],[-2.79498,43.0674],[-2.79635,43.06613],[-2.79749,43.06468],[-2.79772,43.06402],[-2.7982,43.06329],[-2.79873,43.06151],[-2.79883,43.06064],[-2.80051,43.06034],[-2.80115,43.06011],[-2.80171,43.05959],[-2.80214,43.0587],[-2.80305,43.05807],[-2.80366,43.05786],[-2.80371,43.05757],[-2.80341,43.05721],[-2.80239,43.05644],[-2.80109,43.05587],[-2.80019,43.05484],[-2.7999,43.05399],[-2.79931,43.05347],[-2.79855,43.05304],[-2.79777,43.05277],[-2.79742,43.0525],[-2.79656,43.05154],[-2.79588,43.0504],[-2.79561,43.04969],[-2.79552,43.04908],[-2.7949,43.04813],[-2.79421,43.04609],[-2.79278,43.04392],[-2.79124,43.04107],[-2.79053,43.03946],[-2.79075,43.03735],[-2.79059,43.03431],[-2.80109,43.03366],[-2.80699,43.03604],[-2.82209,43.0351],[-2.83654,43.04173],[-2.8374,43.04205],[-2.84536,43.0438],[-2.8479,43.04455],[-2.85544,43.04853],[-2.86112,43.05077],[-2.86333,43.05153],[-2.86413,43.05172],[-2.86552,43.05175],[-2.86925,43.05128],[-2.87073,43.05092],[-2.87152,43.05083],[-2.87218,43.05041],[-2.87371,43.04997],[-2.87419,43.04992],[-2.87576,43.05013],[-2.87633,43.05059],[-2.87706,43.05077],[-2.87804,43.05069],[-2.88016,43.05086],[-2.88226,43.0506],[-2.88476,43.05],[-2.88798,43.04884],[-2.88936,43.04818],[-2.89009,43.0464],[-2.89021,43.04566],[-2.89351,43.0464],[-2.89403,43.04657],[-2.89468,43.04792],[-2.89562,43.04897],[-2.89717,43.0498],[-2.89885,43.05048],[-2.89933,43.05084],[-2.89973,43.05132],[-2.90127,43.05187],[-2.90203,43.05202],[-2.90277,43.05235],[-2.90348,43.05303],[-2.90429,43.05342],[-2.90456,43.05396],[-2.90512,43.05446],[-2.90611,43.05489],[-2.90652,43.05522],[-2.90961,43.05537],[-2.90997,43.05604],[-2.91173,43.05691],[-2.91229,43.05754],[-2.91261,43.05771],[-2.91334,43.0579],[-2.91524,43.05792],[-2.91708,43.05894],[-2.9173,43.05942],[-2.91832,43.05962],[-2.91907,43.05997],[-2.91921,43.06006],[-2.91939,43.06052],[-2.9193,43.06136],[-2.91938,43.06184],[-2.91963,43.06222],[-2.92069,43.0629],[-2.92134,43.06365],[-2.92169,43.0646],[-2.92694,43.0675]]]}}]}