{"type":"FeatureCollection","features":[{"type":"Feature","properties":{"id":"4808901001"},"geometry":{"type":"Polygon","coordinates":[[[-2.95066,43.3733],[-2.95076,43.37261],[-2.95114,43.3722],[-2.95178,43.37182],[-2.95203,43.37153],[-2.95284,43.36998],[-2.95331,43.36941],[-2.95418,43.36983],[-2.959,43.37168],[-2.96281,43.37332],[-2.96502,43.37406],[-2.96922,43.37503],[-2.96863,43.37702],[-2.96678,43.3799],[-2.96634,43.38011],[-2.96575,43.3801],[-2.96526,43.38022],[-2.96488,43.38085],[-2.96512,43.38139],[-2.96447,43.38141],[-2.96389,43.38131],[-2.9593,43.37993],[-2.95479,43.37675],[-2.95354,43.37522],[-2.95305,43.37479],[-2.95102,43.37345],[-2.95066,43.3733]]]}},{"type":"Feature","properties":{"id":"4808901002"},"geometry":{"type":"Polygon","coordinates":[[[-2.93174,43.37407],[-2.92932,43.37377],[-2.92757,43.3726],[-2.92819,43.37203],[-2.92756,43.37135],[-2.92653,43.37063],[-2.92514,43.37023],[-2.92469,43.37021],[-2.92378,43.37034],[-2.92205,43.3697],[-2.92077,43.36963],[-2.91929,43.36913],[-2.91959,43.36828],[-2.91874,43.36722],[-2.91867,43.36692],[-2.91923,43.36589],[-2.9197,43.36529],[-2.91962,43.365],[-2.92004,43.36452],[-2.92124,43.36486],[-2.92221,43.36382],[-2.92396,43.36412],[-2.92514,43.3632],[-2.92676,43.36233],[-2.92716,43.36272],[-2.92742,43.36257],[-2.92814,43.36161],[-2.92847,43.36145],[-2.929,43.36088],[-2.92943,43.36071],[-2.92951,43.36044],[-2.92938,43.36023],[-2.92942,43.36005],[-2.93052,43.3595],[-2.92767,43.35803],[-2.93118,43.3572],[-2.93355,43.3569],[-2.93502,43.35647],[-2.93662,43.35631],[-2.93729,43.35611],[-2.93785,43.35572],[-2.93846,43.35464],[-2.93899,43.35254],[-2.93573,43.35088],[-2.93897,43.34608],[-2.94094,43.34714],[-2.94222,43.34733],[-2.94675,43.34921],[-2.94885,43.35031],[-2.94992,43.35114],[-2.95038,43.35127],[-2.9521,43.35212],[-2.95305,43.35274],[-2.95441,43.35313],[-2.95518,43.35403],[-2.9576,43.35592],[-2.95793,43.35692],[-2.96004,43.35926],[-2.9583,43.36071],[-2.95479,43.36295],[-2.95201,43.36449],[-2.9493,43.36734],[-2.95331,43.36941],[-2.95284,43.36998],[-2.95203,43.37153],[-2.95178,43.37182],[-2.95114,43.3722],[-2.95076,43.37261],[-2.95072,43.37312],[-2.95057,43.37351],[-2.94956,43.37422],[-2.94935,43.37451],[-2.94879,43.37457],[-2.9473,43.37639],[-2.94728,43.37653],[-2.94693,43.37678],[-2.94597,43.37706],[-2.94436,43.37832],[-2.94423,43.37809],[-2.94259,43.37771],[-2.94207,43.37733],[-2.94173,43.37738],[-2.94139,43.3773],[-2.94045,43.37655],[-2.94012,43.37604],[-2.9402,43.37561],[-2.94104,43.37465],[-2.94148,43.37381],[-2.94157,43.37301],[-2.94154,43.37285],[-2.94113,43.37239],[-2.9411,43.37211],[-2.94033,43.37108],[-2.93882,43.3708],[-2.93828,43.37138],[-2.93658,43.37129],[-2.93528,43.37241],[-2.93171,43.37402],[-2.93174,43.37407]]]}},{"type":"Feature","properties":{"id":"4808901003"},"geometry":{"type":"Polygon","coordinates":[[[-2.95066,43.3733],[-2.95102,43.37345],[-2.95305,43.37479],[-2.95354,43.37522],[-2.95479,43.37675],[-2.9593,43.37993],[-2.96389,43.38131],[-2.96447,43.38141],[-2.96512,43.38139],[-2.96498,43.3818],[-2.96506,43.38213],[-2.96489,43.38286],[-2.96499,43.38317],[-2.95994,43.38274],[-2.95861,43.38342],[-2.95806,43.38304],[-2.95694,43.38418],[-2.94694,43.38488],[-2.94727,43.38454],[-2.94737,43.38401],[-2.94729,43.38337],[-2.94719,43.38312],[-2.94629,43.38231],[-2.94611,43.38203],[-2.94635,43.38145],[-2.94675,43.38105],[-2.94668,43.38094],[-2.94682,43.38061],[-2.94669,43.38042],[-2.94576,43.38004],[-2.94562,43.37969],[-2.9445,43.37889],[-2.94436,43.37832],[-2.94597,43.37706],[-2.94693,43.37678],[-2.94728,43.37653],[-2.9473,43.37639],[-2.94879,43.37457],[-2.94935,43.37451],[-2.94956,43.37422],[-2.95057,43.37351],[-2.95066,43.3733]]]}}]}