{"type":"FeatureCollection","features":[{"type":"Feature","properties":{"id":"4890101001"},"geometry":{"type":"Polygon","coordinates":[[[-2.88361,43.29548],[-2.8836,43.29438],[-2.88636,43.2944],[-2.88648,43.29308],[-2.88571,43.29303],[-2.88563,43.29337],[-2.88534,43.29335],[-2.88532,43.29264],[-2.88562,43.29215],[-2.88613,43.29214],[-2.88684,43.29088],[-2.87944,43.28882],[-2.87903,43.28882],[-2.87948,43.28827],[-2.8799,43.28797],[-2.88046,43.28715],[-2.88094,43.2868],[-2.88129,43.28707],[-2.88145,43.28706],[-2.88169,43.28678],[-2.88213,43.28699],[-2.8827,43.28631],[-2.88296,43.28622],[-2.88334,43.28636],[-2.88352,43.2866],[-2.88353,43.28686],[-2.8842,43.28739],[-2.88514,43.28596],[-2.88579,43.28616],[-2.88634,43.28609],[-2.88687,43.28629],[-2.88719,43.28662],[-2.88738,43.28712],[-2.88781,43.28759],[-2.88893,43.2875],[-2.88949,43.28587],[-2.88858,43.28558],[-2.88856,43.28538],[-2.89108,43.2853],[-2.8908,43.28459],[-2.89199,43.28489],[-2.89251,43.28431],[-2.89439,43.28474],[-2.89431,43.2851],[-2.89451,43.28552],[-2.89399,43.28651],[-2.89368,43.28682],[-2.89194,43.28614],[-2.89186,43.28651],[-2.89139,43.28744],[-2.89023,43.288],[-2.88999,43.28861],[-2.88965,43.2891],[-2.88813,43.29298],[-2.88745,43.29278],[-2.88743,43.29482],[-2.88699,43.29598],[-2.88486,43.29513],[-2.88361,43.29548]]]}},{"type":"Feature","properties":{"id":"4890101002"},"geometry":{"type":"MultiPolygon","coordinates":[[[[-2.88559,43.29925],[-2.88743,43.29482],[-2.88811,43.29505],[-2.8882,43.2952],[-2.88899,43.29529],[-2.8909,43.29619],[-2.89282,43.29257],[-2.89248,43.29224],[-2.89298,43.29161],[-2.89318,43.29171],[-2.89379,43.29227],[-2.89352,43.2928],[-2.89352,43.29315],[-2.89373,43.29316],[-2.89338,43.29416],[-2.89373,43.29685],[-2.89451,43.29679],[-2.89476,43.29725],[-2.89456,43.2974],[-2.89447,43.29776],[-2.89463,43.29794],[-2.89469,43.29846],[-2.89595,43.29825],[-2.89666,43.2983],[-2.89666,43.29871],[-2.89729,43.29885],[-2.89722,43.29944],[-2.89754,43.29952],[-2.89742,43.29979],[-2.89564,43.29931],[-2.89477,43.29927],[-2.89469,43.29985],[-2.89561,43.30082],[-2.89574,43.30149],[-2.89594,43.30165],[-2.89555,43.30254],[-2.89595,43.30282],[-2.89599,43.30305],[-2.89527,43.304],[-2.89512,43.3044],[-2.89465,43.30465],[-2.89445,43.30453],[-2.89399,43.30447],[-2.89401,43.30517],[-2.89334,43.30455],[-2.89167,43.30413],[-2.89107,43.3036],[-2.89063,43.30157],[-2.89041,43.30104],[-2.88997,43.30065],[-2.88881,43.29999],[-2.88559,43.29925]]],[[[-2.88806,43.29319],[-2.88965,43.2891],[-2.88999,43.28861],[-2.89023,43.288],[-2.89139,43.28744],[-2.89186,43.28651],[-2.89148,43.28791],[-2.8932,43.2879],[-2.89271,43.28869],[-2.89318,43.28895],[-2.8914,43.29065],[-2.8898,43.29042],[-2.88918,43.29172],[-2.88916,43.29182],[-2.88934,43.29187],[-2.88862,43.29331],[-2.88806,43.29319]]]]}},{"type":"Feature","properties":{"id":"4890101003"},"geometry":{"type":"Polygon","coordinates":[[[-2.87903,43.28882],[-2.87944,43.28882],[-2.88684,43.29088],[-2.88613,43.29214],[-2.88562,43.29215],[-2.88532,43.29264],[-2.88534,43.29335],[-2.88563,43.29337],[-2.88571,43.29303],[-2.88648,43.29308],[-2.88636,43.2944],[-2.8836,43.29438],[-2.88359,43.29589],[-2.88259,43.29588],[-2.88194,43.29613],[-2.88219,43.29758],[-2.88257,43.2987],[-2.88028,43.29888],[-2.87974,43.29899],[-2.87856,43.29976],[-2.87819,43.30018],[-2.878,43.30025],[-2.87158,43.30089],[-2.868,43.30074],[-2.86464,43.30207],[-2.8649,43.30085],[-2.86517,43.30028],[-2.86737,43.29921],[-2.86775,43.2977],[-2.86632,43.29666],[-2.86531,43.29662],[-2.86325,43.29636],[-2.86353,43.2951],[-2.86354,43.29427],[-2.8642,43.29441],[-2.86439,43.29537],[-2.86454,43.29565],[-2.86526,43.29548],[-2.86653,43.29536],[-2.86666,43.29486],[-2.86687,43.29462],[-2.86831,43.29383],[-2.86888,43.29362],[-2.86966,43.29172],[-2.86875,43.29164],[-2.86778,43.29343],[-2.8663,43.29302],[-2.86556,43.29252],[-2.86548,43.2927],[-2.86542,43.29236],[-2.86493,43.29227],[-2.86503,43.2921],[-2.8649,43.29115],[-2.86465,43.29093],[-2.86457,43.29069],[-2.86526,43.2907],[-2.86557,43.29111],[-2.86601,43.29101],[-2.8676,43.29022],[-2.86743,43.28996],[-2.86811,43.28955],[-2.86875,43.28888],[-2.86916,43.28929],[-2.86956,43.28946],[-2.86969,43.28971],[-2.86912,43.29014],[-2.86933,43.29036],[-2.8695,43.29044],[-2.87131,43.29053],[-2.87261,43.28986],[-2.87277,43.28958],[-2.87244,43.28929],[-2.87277,43.28867],[-2.87311,43.28851],[-2.87381,43.28879],[-2.8738,43.28999],[-2.87394,43.29025],[-2.87427,43.29047],[-2.87488,43.29069],[-2.87582,43.29084],[-2.87903,43.28882]]]}},{"type":"Feature","properties":{"id":"4890101004"},"geometry":{"type":"MultiPolygon","coordinates":[[[[-2.89295,43.28359],[-2.88559,43.28167],[-2.88546,43.28185],[-2.88506,43.28174],[-2.88559,43.28081],[-2.88551,43.28039],[-2.88629,43.27988],[-2.88666,43.27948],[-2.88674,43.27924],[-2.88668,43.27882],[-2.88627,43.27796],[-2.88702,43.27749],[-2.88758,43.27668],[-2.88853,43.27602],[-2.88865,43.27586],[-2.88864,43.27563],[-2.89207,43.27125],[-2.89259,43.27031],[-2.89282,43.26963],[-2.89336,43.2698],[-2.89845,43.2704],[-2.90193,43.2709],[-2.90207,43.27098],[-2.9013,43.27372],[-2.9008,43.27484],[-2.89991,43.27618],[-2.89879,43.27724],[-2.89871,43.2775],[-2.89685,43.27627],[-2.89588,43.27761],[-2.89569,43.2785],[-2.895,43.27966],[-2.8944,43.28015],[-2.89477,43.28071],[-2.89451,43.28105],[-2.89445,43.28131],[-2.89396,43.28188],[-2.89379,43.28272],[-2.89295,43.28359]]],[[[-2.88558,43.29928],[-2.88257,43.2987],[-2.88219,43.29758],[-2.88197,43.29649],[-2.88194,43.29613],[-2.88259,43.29588],[-2.88359,43.29589],[-2.8836,43.29548],[-2.88486,43.29513],[-2.88699,43.29598],[-2.88558,43.29928]]]]}},{"type":"Feature","properties":{"id":"4890101005"},"geometry":{"type":"Polygon","coordinates":[[[-2.88559,43.29925],[-2.88881,43.29999],[-2.88997,43.30065],[-2.89041,43.30104],[-2.89063,43.30157],[-2.89107,43.3036],[-2.89136,43.30393],[-2.89167,43.30413],[-2.89334,43.30455],[-2.89424,43.30546],[-2.89327,43.30662],[-2.89287,43.30771],[-2.89246,43.3077],[-2.89268,43.30902],[-2.89187,43.30868],[-2.89187,43.31008],[-2.89285,43.3101],[-2.89278,43.31061],[-2.89338,43.31093],[-2.89264,43.31168],[-2.89374,43.31262],[-2.89441,43.31333],[-2.89499,43.31373],[-2.89538,43.31386],[-2.89598,43.31432],[-2.89674,43.31463],[-2.89764,43.31538],[-2.89782,43.31617],[-2.89775,43.3169],[-2.89641,43.32018],[-2.89724,43.32129],[-2.89828,43.32165],[-2.89775,43.3228],[-2.89729,43.32297],[-2.89608,43.32374],[-2.89531,43.32386],[-2.8951,43.32556],[-2.89466,43.32628],[-2.89293,43.32627],[-2.89207,43.32637],[-2.8912,43.3263],[-2.89021,43.32641],[-2.8891,43.32676],[-2.8881,43.32725],[-2.88765,43.3277],[-2.88732,43.3282],[-2.88548,43.32697],[-2.884,43.32682],[-2.88233,43.32615],[-2.88207,43.32574],[-2.88102,43.32492],[-2.88032,43.32402],[-2.87977,43.3237],[-2.87917,43.32297],[-2.87653,43.32128],[-2.87526,43.32088],[-2.8754,43.32058],[-2.87616,43.3201],[-2.87646,43.31957],[-2.87649,43.31704],[-2.87687,43.31593],[-2.87717,43.31544],[-2.87833,43.31455],[-2.87841,43.31429],[-2.87828,43.31391],[-2.87825,43.31287],[-2.87809,43.31245],[-2.87759,43.31246],[-2.87647,43.31326],[-2.87596,43.31389],[-2.87571,43.31446],[-2.87512,43.31483],[-2.87475,43.31523],[-2.87433,43.31611],[-2.87396,43.31743],[-2.87224,43.31987],[-2.87132,43.31967],[-2.86773,43.31918],[-2.86774,43.319],[-2.86977,43.31602],[-2.86968,43.3157],[-2.87084,43.31434],[-2.87038,43.31354],[-2.87106,43.31271],[-2.86952,43.31253],[-2.86584,43.31241],[-2.8659,43.3121],[-2.8663,43.31145],[-2.86828,43.31126],[-2.86781,43.31027],[-2.86956,43.31061],[-2.86906,43.30995],[-2.86808,43.30922],[-2.86638,43.3075],[-2.86526,43.308],[-2.86495,43.30737],[-2.86421,43.30686],[-2.86412,43.30636],[-2.86432,43.30582],[-2.86514,43.30451],[-2.86537,43.30318],[-2.86534,43.3027],[-2.86522,43.30256],[-2.86473,43.30234],[-2.86464,43.30207],[-2.86783,43.30077],[-2.87158,43.30089],[-2.878,43.30025],[-2.87819,43.30018],[-2.87856,43.29976],[-2.87974,43.29899],[-2.88028,43.29888],[-2.8826,43.2987],[-2.88559,43.29925]]]}}]}