{"type":"FeatureCollection","features":[{"type":"Feature","properties":{"id":"5006601001"},"geometry":{"type":"Polygon","coordinates":[[[-0.94526,41.51722],[-0.94698,41.51923],[-0.95018,41.52381],[-0.95217,41.52608],[-0.95324,41.52704],[-0.95506,41.5282],[-0.95676,41.52949],[-0.95738,41.52985],[-0.9582,41.53055],[-0.95799,41.53119],[-0.95855,41.53279],[-0.95939,41.53457],[-0.95889,41.53511],[-0.95958,41.53655],[-0.95981,41.53679],[-0.96047,41.53699],[-0.96223,41.537],[-0.9627,41.53713],[-0.96464,41.53856],[-0.96552,41.53824],[-0.96681,41.53804],[-0.96738,41.53807],[-0.96834,41.5383],[-0.96996,41.53843],[-0.97121,41.5387],[-0.97185,41.53927],[-0.97423,41.54051],[-0.97589,41.54195],[-0.97757,41.5428],[-0.98219,41.54666],[-0.98245,41.54697],[-0.98247,41.54715],[-0.98217,41.54784],[-0.98143,41.54816],[-0.97759,41.55039],[-0.97693,41.55088],[-0.97654,41.55134],[-0.97305,41.55732],[-0.97241,41.55817],[-0.96797,41.56267],[-0.96522,41.56042],[-0.96413,41.55915],[-0.96375,41.55829],[-0.96303,41.55749],[-0.96197,41.55691],[-0.96156,41.55642],[-0.96087,41.55595],[-0.9601,41.55564],[-0.9592,41.55509],[-0.95886,41.55468],[-0.95869,41.55476],[-0.95827,41.55603],[-0.95822,41.5563],[-0.95836,41.55635],[-0.95814,41.55715],[-0.95726,41.55838],[-0.95595,41.55962],[-0.95491,41.56],[-0.95434,41.56045],[-0.95391,41.56099],[-0.95283,41.56199],[-0.95147,41.56368],[-0.95072,41.56413],[-0.94936,41.56527],[-0.9488,41.56649],[-0.94844,41.56684],[-0.94777,41.56678],[-0.94716,41.5665],[-0.94613,41.56562],[-0.94564,41.56543],[-0.94551,41.565],[-0.94736,41.56361],[-0.94747,41.56305],[-0.9472,41.56264],[-0.94761,41.56224],[-0.94738,41.56179],[-0.94669,41.56167],[-0.94652,41.56122],[-0.94624,41.56097],[-0.94593,41.56045],[-0.94586,41.56003],[-0.94647,41.55978],[-0.94727,41.55965],[-0.94804,41.55917],[-0.94779,41.55884],[-0.94768,41.55809],[-0.9478,41.5574],[-0.94765,41.55661],[-0.94781,41.55643],[-0.94758,41.55623],[-0.947,41.55615],[-0.94691,41.556],[-0.9463,41.55584],[-0.94592,41.55563],[-0.94583,41.55527],[-0.94708,41.55266],[-0.94691,41.55216],[-0.94638,41.55135],[-0.94589,41.55088],[-0.94406,41.54973],[-0.94388,41.54884],[-0.94124,41.54681],[-0.94019,41.545],[-0.93905,41.54432],[-0.93878,41.54377],[-0.93726,41.54334],[-0.93755,41.54033],[-0.9356,41.5386],[-0.934,41.53695],[-0.93386,41.53653],[-0.93555,41.53676],[-0.93779,41.53682],[-0.93819,41.53675],[-0.93841,41.53648],[-0.9385,41.53523],[-0.9387,41.53498],[-0.94426,41.53129],[-0.94412,41.52999],[-0.94366,41.52859],[-0.94394,41.52655],[-0.94333,41.52464],[-0.94232,41.52247],[-0.94385,41.51974],[-0.94496,41.51747],[-0.94526,41.51722]]]}},{"type":"Feature","properties":{"id":"5006601002"},"geometry":{"type":"Polygon","coordinates":[[[-0.94986,41.57702],[-0.94671,41.57543],[-0.9422,41.57338],[-0.94212,41.57332],[-0.94222,41.57305],[-0.94473,41.56973],[-0.94599,41.56902],[-0.94741,41.56766],[-0.9486,41.56673],[-0.94936,41.56527],[-0.95072,41.56413],[-0.95147,41.56368],[-0.95283,41.56199],[-0.95391,41.56099],[-0.95434,41.56045],[-0.95491,41.56],[-0.95595,41.55962],[-0.95726,41.55838],[-0.95814,41.55715],[-0.95836,41.55635],[-0.95822,41.5563],[-0.95827,41.55603],[-0.95869,41.55476],[-0.95892,41.55469],[-0.9592,41.55509],[-0.9601,41.55564],[-0.96087,41.55595],[-0.96156,41.55642],[-0.96197,41.55691],[-0.96303,41.55749],[-0.96375,41.55829],[-0.96413,41.55915],[-0.96522,41.56042],[-0.96797,41.56267],[-0.96656,41.56402],[-0.96446,41.56642],[-0.96293,41.56852],[-0.96201,41.57034],[-0.96009,41.57481],[-0.95775,41.57791],[-0.95551,41.57811],[-0.95485,41.57793],[-0.95178,41.57763],[-0.95339,41.57596],[-0.95161,41.5753],[-0.94986,41.57702]]]}}]}