{"type":"FeatureCollection","features":[{"type":"Feature","properties":{"id":"5016001001"},"geometry":{"type":"Polygon","coordinates":[[[-1.42181,41.91282],[-1.41804,41.91364],[-1.41718,41.91453],[-1.4167,41.91601],[-1.41654,41.91622],[-1.41567,41.91676],[-1.41419,41.91424],[-1.41193,41.91244],[-1.41116,41.91062],[-1.41179,41.91001],[-1.41107,41.90834],[-1.41166,41.90737],[-1.41119,41.90695],[-1.40472,41.90578],[-1.40134,41.906],[-1.39901,41.90353],[-1.39711,41.90428],[-1.39214,41.90171],[-1.39107,41.90022],[-1.38463,41.89593],[-1.37753,41.89336],[-1.3648,41.88393],[-1.35996,41.87819],[-1.35888,41.87346],[-1.37019,41.86788],[-1.37044,41.86663],[-1.37124,41.86663],[-1.37277,41.86502],[-1.37345,41.86245],[-1.37289,41.86158],[-1.37446,41.86057],[-1.37443,41.85988],[-1.37636,41.85785],[-1.37613,41.85748],[-1.37681,41.85755],[-1.3771,41.85725],[-1.37805,41.85848],[-1.37891,41.85874],[-1.37986,41.85983],[-1.38133,41.86122],[-1.38317,41.86318],[-1.3837,41.86358],[-1.38658,41.86681],[-1.38776,41.86777],[-1.3885,41.86892],[-1.38926,41.86952],[-1.39089,41.87121],[-1.39202,41.87273],[-1.39355,41.8742],[-1.39441,41.87556],[-1.39578,41.87731],[-1.39578,41.87767],[-1.39624,41.87855],[-1.39621,41.87896],[-1.3967,41.87959],[-1.397,41.88067],[-1.39738,41.88145],[-1.39916,41.88334],[-1.40039,41.88489],[-1.40064,41.88536],[-1.40172,41.88656],[-1.40297,41.88819],[-1.40303,41.88855],[-1.40476,41.89043],[-1.4053,41.89137],[-1.40597,41.89207],[-1.40759,41.89419],[-1.40831,41.89452],[-1.40893,41.89505],[-1.41023,41.8965],[-1.41075,41.89666],[-1.41738,41.90041],[-1.42075,41.90187],[-1.42092,41.90169],[-1.42216,41.89862],[-1.42228,41.89776],[-1.42221,41.89756],[-1.42633,41.89447],[-1.42838,41.89319],[-1.42891,41.89276],[-1.42953,41.89204],[-1.43063,41.89125],[-1.43193,41.89066],[-1.43227,41.89013],[-1.43531,41.88802],[-1.4386,41.886],[-1.43914,41.88542],[-1.44268,41.88729],[-1.44228,41.88953],[-1.45429,41.89939],[-1.45405,41.9016],[-1.47431,41.90349],[-1.50086,41.90317],[-1.50308,41.90284],[-1.50632,41.90366],[-1.50897,41.90525],[-1.52032,41.90937],[-1.52086,41.9094],[-1.52336,41.9099],[-1.52084,41.91134],[-1.5167,41.91231],[-1.51382,41.91401],[-1.51001,41.9154],[-1.50966,41.91518],[-1.50844,41.91472],[-1.50699,41.91515],[-1.50671,41.91515],[-1.50605,41.91544],[-1.50499,41.91656],[-1.50445,41.91729],[-1.50401,41.91858],[-1.50352,41.9189],[-1.5027,41.91987],[-1.50219,41.92188],[-1.50214,41.92285],[-1.50172,41.92393],[-1.50128,41.92406],[-1.49634,41.92429],[-1.48779,41.92359],[-1.48508,41.92407],[-1.47945,41.92466],[-1.47813,41.92476],[-1.47491,41.92467],[-1.4742,41.92455],[-1.47046,41.92323],[-1.46872,41.92291],[-1.46607,41.92193],[-1.45764,41.91675],[-1.4569,41.91673],[-1.45586,41.91628],[-1.45325,41.91541],[-1.4525,41.91536],[-1.4512,41.91577],[-1.45046,41.91574],[-1.44944,41.91554],[-1.44813,41.9154],[-1.44566,41.91556],[-1.44456,41.91535],[-1.44395,41.91534],[-1.44267,41.91554],[-1.44146,41.9161],[-1.44088,41.91615],[-1.43869,41.9157],[-1.43699,41.91432],[-1.43408,41.91425],[-1.43203,41.91328],[-1.43177,41.91292],[-1.42884,41.91276],[-1.4277,41.91256],[-1.42715,41.91259],[-1.42656,41.91282],[-1.42541,41.91225],[-1.4241,41.91203],[-1.42313,41.9116],[-1.42181,41.91282]]]}},{"type":"Feature","properties":{"id":"5016002001"},"geometry":{"type":"Polygon","coordinates":[[[-1.3771,41.85725],[-1.37762,41.85672],[-1.40109,41.86515],[-1.40478,41.86696],[-1.40882,41.86729],[-1.40978,41.86761],[-1.40879,41.86809],[-1.40793,41.8718],[-1.41572,41.87714],[-1.43056,41.88131],[-1.43174,41.88249],[-1.43531,41.8834],[-1.43914,41.88542],[-1.4386,41.886],[-1.43531,41.88802],[-1.43227,41.89013],[-1.43193,41.89066],[-1.43063,41.89125],[-1.42953,41.89204],[-1.42891,41.89276],[-1.42838,41.89319],[-1.42633,41.89447],[-1.42221,41.89756],[-1.42228,41.89776],[-1.42216,41.89862],[-1.42092,41.90169],[-1.42075,41.90187],[-1.41738,41.90041],[-1.41075,41.89666],[-1.41023,41.8965],[-1.40893,41.89505],[-1.40831,41.89452],[-1.40759,41.89419],[-1.40597,41.89207],[-1.4053,41.89137],[-1.40476,41.89043],[-1.40303,41.88855],[-1.40297,41.88819],[-1.40172,41.88656],[-1.40064,41.88536],[-1.40039,41.88489],[-1.39916,41.88334],[-1.39738,41.88145],[-1.397,41.88067],[-1.3967,41.87959],[-1.39621,41.87896],[-1.39624,41.87855],[-1.39578,41.87767],[-1.39578,41.87731],[-1.39441,41.87556],[-1.39355,41.8742],[-1.39202,41.87273],[-1.39089,41.87121],[-1.38926,41.86952],[-1.3885,41.86892],[-1.38776,41.86777],[-1.38658,41.86681],[-1.3837,41.86358],[-1.38317,41.86318],[-1.38133,41.86122],[-1.37986,41.85983],[-1.37891,41.85874],[-1.37805,41.85848],[-1.3771,41.85725]]]}}]}