{"type":"FeatureCollection","features":[{"type":"Feature","properties":{"id":"5020401001"},"geometry":{"type":"Polygon","coordinates":[[[-1.20969,41.81601],[-1.21158,41.81362],[-1.21143,41.81349],[-1.20914,41.81293],[-1.20893,41.81274],[-1.2087,41.81223],[-1.20873,41.81201],[-1.20897,41.81171],[-1.20822,41.8113],[-1.20769,41.81186],[-1.2067,41.81238],[-1.20594,41.8124],[-1.20747,41.81058],[-1.20653,41.80983],[-1.20557,41.80885],[-1.20325,41.80711],[-1.2022,41.80731],[-1.19878,41.80586],[-1.19869,41.80557],[-1.19905,41.80447],[-1.19921,41.80277],[-1.19894,41.8025],[-1.19821,41.80237],[-1.19808,41.80228],[-1.19798,41.80131],[-1.19578,41.79886],[-1.19536,41.7988],[-1.19483,41.79915],[-1.1945,41.7992],[-1.1936,41.79912],[-1.1911,41.79838],[-1.19004,41.79818],[-1.19056,41.7974],[-1.19202,41.79642],[-1.19217,41.79573],[-1.19286,41.79565],[-1.19322,41.79547],[-1.1936,41.79407],[-1.1942,41.79345],[-1.1944,41.79306],[-1.19454,41.79216],[-1.19614,41.7879],[-1.19639,41.78676],[-1.19655,41.78641],[-1.19707,41.78577],[-1.19719,41.78496],[-1.19829,41.78396],[-1.19875,41.78367],[-1.19897,41.78298],[-1.19936,41.78262],[-1.19941,41.78245],[-1.19882,41.78213],[-1.19875,41.78196],[-1.19961,41.78118],[-1.20034,41.7807],[-1.20184,41.77925],[-1.20249,41.77785],[-1.2091,41.78214],[-1.21099,41.78359],[-1.21133,41.78373],[-1.21196,41.78382],[-1.21517,41.78395],[-1.21591,41.78541],[-1.21567,41.78691],[-1.21656,41.78667],[-1.2172,41.78806],[-1.21653,41.78823],[-1.2173,41.78978],[-1.21696,41.79055],[-1.21752,41.79072],[-1.21751,41.79108],[-1.21836,41.79108],[-1.21844,41.79072],[-1.21938,41.79],[-1.21972,41.78983],[-1.22091,41.78951],[-1.22215,41.78893],[-1.22312,41.78904],[-1.22363,41.78929],[-1.22432,41.78939],[-1.22471,41.78935],[-1.22541,41.78909],[-1.22655,41.78913],[-1.22661,41.78895],[-1.22665,41.78911],[-1.22846,41.78908],[-1.22919,41.78929],[-1.22981,41.78961],[-1.23029,41.7894],[-1.23102,41.78933],[-1.23091,41.78888],[-1.23115,41.78815],[-1.23199,41.78819],[-1.23258,41.78843],[-1.23322,41.78897],[-1.23362,41.7895],[-1.23335,41.79078],[-1.23342,41.79124],[-1.23365,41.7917],[-1.23434,41.79246],[-1.23489,41.79282],[-1.23648,41.79481],[-1.23781,41.79613],[-1.23795,41.79659],[-1.23772,41.79775],[-1.23782,41.79805],[-1.2385,41.79856],[-1.24138,41.79999],[-1.24185,41.80038],[-1.2423,41.80095],[-1.24243,41.80203],[-1.24219,41.80575],[-1.24343,41.80824],[-1.24492,41.81027],[-1.24272,41.81078],[-1.2388,41.81215],[-1.23848,41.81214],[-1.23852,41.81184],[-1.2381,41.81096],[-1.23793,41.81141],[-1.2379,41.81232],[-1.23759,41.81277],[-1.23604,41.81363],[-1.23493,41.81389],[-1.23333,41.81472],[-1.2324,41.81487],[-1.23161,41.81514],[-1.2311,41.81546],[-1.22937,41.8162],[-1.2285,41.8163],[-1.22816,41.81642],[-1.22735,41.81704],[-1.2259,41.81702],[-1.22495,41.81718],[-1.22249,41.81772],[-1.22028,41.81843],[-1.21907,41.81865],[-1.21745,41.81866],[-1.21654,41.8185],[-1.21483,41.81792],[-1.21189,41.81665],[-1.20969,41.81601]]]}},{"type":"Feature","properties":{"id":"5020401002"},"geometry":{"type":"Polygon","coordinates":[[[-1.20203,41.7789],[-1.20222,41.77802],[-1.20258,41.77765],[-1.20216,41.77703],[-1.20252,41.77662],[-1.20252,41.77644],[-1.20154,41.7751],[-1.20119,41.7732],[-1.20144,41.77241],[-1.2028,41.77089],[-1.20301,41.76969],[-1.20361,41.76839],[-1.20391,41.76786],[-1.20575,41.76751],[-1.20609,41.76653],[-1.20674,41.76562],[-1.20656,41.76524],[-1.20702,41.76504],[-1.20787,41.76448],[-1.20944,41.76432],[-1.21098,41.76298],[-1.20965,41.76131],[-1.20928,41.76107],[-1.20885,41.76101],[-1.20803,41.76112],[-1.20739,41.76099],[-1.20707,41.76081],[-1.20664,41.76013],[-1.20555,41.75957],[-1.20625,41.75853],[-1.20606,41.7577],[-1.20629,41.75752],[-1.20716,41.75733],[-1.2074,41.75715],[-1.20752,41.75673],[-1.20711,41.75643],[-1.20654,41.7564],[-1.2058,41.75657],[-1.20468,41.75667],[-1.20439,41.75661],[-1.20404,41.75637],[-1.20261,41.75487],[-1.20251,41.75464],[-1.20254,41.75419],[-1.20138,41.75288],[-1.20025,41.75124],[-1.19894,41.75006],[-1.19749,41.74929],[-1.19694,41.74865],[-1.19688,41.74832],[-1.19703,41.7481],[-1.19794,41.74736],[-1.19796,41.74726],[-1.19766,41.74718],[-1.19714,41.7472],[-1.1968,41.74732],[-1.19649,41.74756],[-1.19629,41.74825],[-1.1959,41.74858],[-1.1956,41.74869],[-1.19228,41.7488],[-1.19121,41.74898],[-1.18996,41.74934],[-1.18981,41.74947],[-1.18981,41.74969],[-1.19007,41.75048],[-1.18872,41.75095],[-1.18528,41.75137],[-1.18516,41.75105],[-1.18214,41.75109],[-1.17981,41.74919],[-1.17875,41.74637],[-1.17827,41.74578],[-1.17754,41.74385],[-1.17745,41.74381],[-1.17672,41.74406],[-1.17652,41.74347],[-1.17712,41.74312],[-1.17742,41.74242],[-1.17865,41.74159],[-1.17927,41.74084],[-1.17998,41.74036],[-1.18071,41.73965],[-1.18107,41.73949],[-1.18089,41.73894],[-1.18126,41.73846],[-1.18207,41.7383],[-1.18217,41.73811],[-1.18221,41.7372],[-1.1826,41.73665],[-1.18317,41.73621],[-1.18326,41.73602],[-1.18402,41.73573],[-1.18462,41.73501],[-1.18749,41.7328],[-1.18811,41.7326],[-1.18902,41.73176],[-1.19084,41.73054],[-1.19172,41.72981],[-1.19203,41.72963],[-1.19232,41.72965],[-1.1929,41.72992],[-1.1938,41.72964],[-1.19398,41.72937],[-1.19401,41.72901],[-1.19371,41.72742],[-1.19481,41.72618],[-1.19673,41.7244],[-1.19743,41.72425],[-1.19766,41.7241],[-1.19803,41.72358],[-1.19824,41.7235],[-1.19889,41.72362],[-1.19916,41.72348],[-1.19913,41.72335],[-1.19834,41.72305],[-1.19838,41.7226],[-1.19901,41.72245],[-1.19918,41.72231],[-1.19917,41.7219],[-1.19871,41.72164],[-1.19869,41.72137],[-1.19882,41.72111],[-1.19911,41.72096],[-1.19947,41.72096],[-1.20027,41.72125],[-1.20039,41.72117],[-1.20001,41.72055],[-1.20014,41.72045],[-1.20086,41.72029],[-1.2007,41.72],[-1.20078,41.71985],[-1.20101,41.7198],[-1.20111,41.7192],[-1.20128,41.71894],[-1.20208,41.71877],[-1.20299,41.71795],[-1.20472,41.71607],[-1.20486,41.71579],[-1.2054,41.71534],[-1.20551,41.71509],[-1.20603,41.71484],[-1.20637,41.71418],[-1.20659,41.7141],[-1.20771,41.71449],[-1.20784,41.71432],[-1.20782,41.71399],[-1.20752,41.71351],[-1.20754,41.71318],[-1.2084,41.71214],[-1.21001,41.71077],[-1.21002,41.71049],[-1.20969,41.71001],[-1.20979,41.7097],[-1.21056,41.70884],[-1.21354,41.70763],[-1.21272,41.70799],[-1.21345,41.70838],[-1.21541,41.70897],[-1.22001,41.71018],[-1.22266,41.71066],[-1.23828,41.71397],[-1.24851,41.71567],[-1.24955,41.71595],[-1.25158,41.71679],[-1.25297,41.71748],[-1.25577,41.7193],[-1.25877,41.72108],[-1.26166,41.72132],[-1.26486,41.7214],[-1.26877,41.72122],[-1.27648,41.71654],[-1.28143,41.71449],[-1.28222,41.71451],[-1.28368,41.71393],[-1.28555,41.71289],[-1.28608,41.71228],[-1.29022,41.70879],[-1.29131,41.70821],[-1.29455,41.70706],[-1.29628,41.70759],[-1.29833,41.70838],[-1.29876,41.7086],[-1.30148,41.711],[-1.30328,41.71244],[-1.30825,41.71615],[-1.31051,41.71769],[-1.31121,41.72106],[-1.31288,41.72112],[-1.31997,41.72494],[-1.32216,41.72661],[-1.32378,41.72837],[-1.32586,41.73205],[-1.32784,41.73589],[-1.32864,41.73701],[-1.33046,41.73687],[-1.3317,41.73613],[-1.33231,41.73588],[-1.33434,41.73552],[-1.33518,41.73551],[-1.33521,41.73632],[-1.33495,41.7386],[-1.33493,41.7407],[-1.33518,41.74207],[-1.3382,41.74752],[-1.33885,41.74946],[-1.33886,41.75244],[-1.33898,41.75385],[-1.3391,41.75432],[-1.34047,41.75616],[-1.34057,41.7565],[-1.34041,41.75884],[-1.34055,41.75964],[-1.34249,41.7665],[-1.34327,41.76703],[-1.34424,41.76722],[-1.3479,41.76716],[-1.34782,41.76775],[-1.34641,41.77177],[-1.34661,41.77232],[-1.34663,41.77339],[-1.34647,41.77397],[-1.34393,41.77446],[-1.34103,41.77525],[-1.34016,41.77567],[-1.33961,41.77614],[-1.33853,41.77765],[-1.33691,41.78057],[-1.33663,41.7816],[-1.33361,41.78618],[-1.33132,41.78882],[-1.32915,41.79197],[-1.32825,41.79302],[-1.32517,41.7961],[-1.32432,41.79717],[-1.3212,41.80265],[-1.31922,41.80335],[-1.31815,41.80358],[-1.31737,41.8043],[-1.31643,41.80341],[-1.31414,41.80153],[-1.30518,41.79629],[-1.30343,41.79575],[-1.29762,41.79443],[-1.29537,41.79366],[-1.29419,41.79338],[-1.29217,41.79272],[-1.2867,41.79081],[-1.28263,41.79102],[-1.28093,41.7922],[-1.27981,41.79316],[-1.27813,41.79323],[-1.27694,41.79518],[-1.27459,41.79581],[-1.27361,41.79634],[-1.27272,41.79715],[-1.27216,41.79751],[-1.27028,41.79843],[-1.27001,41.79865],[-1.26876,41.80081],[-1.2675,41.8025],[-1.26667,41.80323],[-1.26503,41.80422],[-1.26376,41.8047],[-1.25999,41.80548],[-1.25898,41.80577],[-1.25587,41.80732],[-1.25569,41.80733],[-1.25523,41.8071],[-1.25494,41.80769],[-1.25417,41.80747],[-1.25381,41.80752],[-1.25344,41.80774],[-1.25232,41.80815],[-1.25003,41.80933],[-1.24889,41.80969],[-1.24795,41.80975],[-1.24338,41.8106],[-1.24492,41.81027],[-1.24343,41.80824],[-1.24219,41.80575],[-1.24243,41.80203],[-1.2423,41.80095],[-1.24185,41.80038],[-1.24138,41.79999],[-1.2385,41.79856],[-1.23782,41.79805],[-1.23772,41.79775],[-1.23795,41.79659],[-1.23781,41.79613],[-1.23648,41.79481],[-1.23489,41.79282],[-1.23434,41.79246],[-1.23365,41.7917],[-1.23342,41.79124],[-1.23335,41.79078],[-1.23362,41.7895],[-1.23322,41.78897],[-1.23258,41.78843],[-1.23199,41.78819],[-1.23115,41.78815],[-1.23091,41.78888],[-1.23102,41.78933],[-1.23029,41.7894],[-1.22981,41.78961],[-1.22919,41.78929],[-1.22846,41.78908],[-1.22665,41.78911],[-1.22661,41.78895],[-1.22655,41.78913],[-1.22541,41.78909],[-1.22471,41.78935],[-1.22432,41.78939],[-1.22363,41.78929],[-1.22312,41.78904],[-1.22215,41.78893],[-1.22091,41.78951],[-1.21972,41.78983],[-1.21938,41.79],[-1.21844,41.79072],[-1.21836,41.79108],[-1.21751,41.79108],[-1.21752,41.79072],[-1.21696,41.79055],[-1.2173,41.78978],[-1.21653,41.78823],[-1.2172,41.78806],[-1.21656,41.78667],[-1.21567,41.78691],[-1.21591,41.78541],[-1.21517,41.78395],[-1.21369,41.78392],[-1.21133,41.78373],[-1.21066,41.78337],[-1.2091,41.78214],[-1.20249,41.77785],[-1.20203,41.7789]]]}}]}