{"type":"FeatureCollection","features":[{"type":"Feature","properties":{"id":"5021901001"},"geometry":{"type":"Polygon","coordinates":[[[-0.74673,41.63631],[-0.74755,41.6368],[-0.74979,41.6352],[-0.74956,41.63457],[-0.74974,41.63435],[-0.75101,41.63338],[-0.75151,41.63322],[-0.7513,41.63304],[-0.74987,41.63249],[-0.75078,41.63139],[-0.755,41.6331],[-0.75794,41.63451],[-0.76045,41.63589],[-0.7624,41.63736],[-0.76529,41.63931],[-0.76859,41.64084],[-0.77112,41.64214],[-0.77274,41.64262],[-0.77089,41.64402],[-0.76673,41.64688],[-0.76672,41.64759],[-0.76594,41.64789],[-0.76529,41.64801],[-0.764,41.64795],[-0.76178,41.64805],[-0.76009,41.64783],[-0.75851,41.64727],[-0.75775,41.64689],[-0.75715,41.64645],[-0.75659,41.64624],[-0.75598,41.64641],[-0.75506,41.64693],[-0.75334,41.64698],[-0.75302,41.64755],[-0.75252,41.64804],[-0.75217,41.64822],[-0.75152,41.64826],[-0.7497,41.64799],[-0.74868,41.64806],[-0.74815,41.64859],[-0.74741,41.64905],[-0.74705,41.64963],[-0.74691,41.65016],[-0.74768,41.65106],[-0.74536,41.65237],[-0.74396,41.65344],[-0.74157,41.65481],[-0.7412,41.65544],[-0.7408,41.65588],[-0.7396,41.65639],[-0.73748,41.65675],[-0.73666,41.65697],[-0.73565,41.65923],[-0.73536,41.65962],[-0.73398,41.6607],[-0.73303,41.66069],[-0.7304,41.66036],[-0.72959,41.66086],[-0.72787,41.66137],[-0.72715,41.66207],[-0.72736,41.66277],[-0.72693,41.66375],[-0.72634,41.6646],[-0.72496,41.66487],[-0.72406,41.66517],[-0.72312,41.66531],[-0.72169,41.66522],[-0.71961,41.66635],[-0.71858,41.66602],[-0.71945,41.66331],[-0.7189,41.66138],[-0.72053,41.65955],[-0.72093,41.65932],[-0.72154,41.65924],[-0.72234,41.65926],[-0.72371,41.65905],[-0.72467,41.65906],[-0.72548,41.65896],[-0.72696,41.65779],[-0.72778,41.65729],[-0.72909,41.65654],[-0.73006,41.65632],[-0.73071,41.65591],[-0.73208,41.65455],[-0.73339,41.6538],[-0.73506,41.65317],[-0.73551,41.65267],[-0.73534,41.65206],[-0.73564,41.65147],[-0.73589,41.65105],[-0.73643,41.65061],[-0.73702,41.6496],[-0.7373,41.64868],[-0.73758,41.6485],[-0.7376,41.64571],[-0.7379,41.64526],[-0.73905,41.64444],[-0.73976,41.64476],[-0.74,41.6447],[-0.74037,41.64441],[-0.74039,41.6439],[-0.74061,41.64345],[-0.74098,41.6431],[-0.74119,41.64271],[-0.74129,41.64223],[-0.74264,41.64127],[-0.74303,41.64067],[-0.7434,41.64032],[-0.7435,41.63981],[-0.74383,41.63937],[-0.74511,41.63834],[-0.74586,41.63739],[-0.74623,41.63719],[-0.74665,41.6366],[-0.74673,41.63631]]]}},{"type":"Feature","properties":{"id":"5021901002"},"geometry":{"type":"Polygon","coordinates":[[[-0.77274,41.64262],[-0.77112,41.64214],[-0.76859,41.64084],[-0.76529,41.63931],[-0.7624,41.63736],[-0.76045,41.63589],[-0.75618,41.63363],[-0.75012,41.63113],[-0.74844,41.6307],[-0.74826,41.62967],[-0.74715,41.62791],[-0.74553,41.62652],[-0.74451,41.62584],[-0.74388,41.62566],[-0.74151,41.62427],[-0.74034,41.62407],[-0.73947,41.62382],[-0.73879,41.62342],[-0.73863,41.62318],[-0.73998,41.62214],[-0.73962,41.62173],[-0.73895,41.6214],[-0.73698,41.61988],[-0.73646,41.61919],[-0.73998,41.61666],[-0.74086,41.61592],[-0.73803,41.61365],[-0.74067,41.61214],[-0.74126,41.6119],[-0.74086,41.61161],[-0.7419,41.61108],[-0.74148,41.61078],[-0.74117,41.60972],[-0.75022,41.6087],[-0.75245,41.60851],[-0.75382,41.60849],[-0.75919,41.60759],[-0.76221,41.60741],[-0.76331,41.60854],[-0.76395,41.60796],[-0.7656,41.60814],[-0.76664,41.6092],[-0.76927,41.61212],[-0.76965,41.61278],[-0.76968,41.6136],[-0.76844,41.61655],[-0.7676,41.61903],[-0.76678,41.61963],[-0.7685,41.62108],[-0.7691,41.6217],[-0.77122,41.62544],[-0.76994,41.62585],[-0.76985,41.62635],[-0.76862,41.62665],[-0.77258,41.62804],[-0.77486,41.6286],[-0.77473,41.63018],[-0.77423,41.63163],[-0.77345,41.63284],[-0.77357,41.63297],[-0.77572,41.63358],[-0.77626,41.63413],[-0.77646,41.63417],[-0.77702,41.63399],[-0.77738,41.63403],[-0.77887,41.63466],[-0.78058,41.63489],[-0.78046,41.63502],[-0.78011,41.63496],[-0.77989,41.63546],[-0.77966,41.63556],[-0.77872,41.63558],[-0.77663,41.63818],[-0.77394,41.64178],[-0.77319,41.64264],[-0.77274,41.64262]]]}},{"type":"Feature","properties":{"id":"5021901003"},"geometry":{"type":"Polygon","coordinates":[[[-0.71635,41.65977],[-0.71266,41.65668],[-0.71252,41.65634],[-0.71252,41.65586],[-0.71275,41.65541],[-0.7135,41.65466],[-0.71455,41.65477],[-0.71477,41.65408],[-0.71583,41.65228],[-0.71765,41.65202],[-0.71799,41.65122],[-0.71867,41.65076],[-0.71797,41.64964],[-0.71933,41.64884],[-0.71949,41.64829],[-0.72015,41.64716],[-0.72108,41.64678],[-0.722,41.64682],[-0.72329,41.64584],[-0.72385,41.64648],[-0.72459,41.64633],[-0.72629,41.64407],[-0.72906,41.64432],[-0.72915,41.64305],[-0.72958,41.6425],[-0.73003,41.64212],[-0.7309,41.64203],[-0.73137,41.64089],[-0.73142,41.64046],[-0.73038,41.63945],[-0.73043,41.639],[-0.72997,41.63844],[-0.72986,41.63808],[-0.73005,41.63731],[-0.72971,41.63664],[-0.73092,41.63594],[-0.73029,41.63506],[-0.73035,41.63453],[-0.73057,41.63406],[-0.73154,41.63294],[-0.73234,41.63322],[-0.73321,41.63314],[-0.73329,41.63226],[-0.73309,41.6312],[-0.7322,41.63062],[-0.73186,41.63025],[-0.73178,41.63005],[-0.732,41.62945],[-0.73299,41.62779],[-0.73297,41.62729],[-0.73501,41.62662],[-0.73616,41.62565],[-0.73638,41.62466],[-0.73863,41.62318],[-0.73899,41.62359],[-0.73947,41.62382],[-0.74034,41.62407],[-0.74151,41.62427],[-0.74388,41.62566],[-0.74451,41.62584],[-0.74553,41.62652],[-0.74715,41.62791],[-0.74826,41.62967],[-0.74844,41.6307],[-0.7496,41.63094],[-0.75078,41.63139],[-0.74987,41.63249],[-0.7513,41.63304],[-0.75151,41.63322],[-0.75101,41.63338],[-0.74974,41.63435],[-0.74956,41.63457],[-0.74979,41.6352],[-0.74755,41.6368],[-0.74673,41.63631],[-0.74665,41.6366],[-0.74623,41.63719],[-0.74586,41.63739],[-0.74511,41.63834],[-0.74383,41.63937],[-0.7435,41.63981],[-0.7434,41.64032],[-0.74303,41.64067],[-0.74264,41.64127],[-0.74129,41.64223],[-0.74119,41.64271],[-0.74098,41.6431],[-0.74061,41.64345],[-0.74039,41.6439],[-0.74037,41.64441],[-0.74,41.6447],[-0.73976,41.64476],[-0.73905,41.64444],[-0.7379,41.64526],[-0.7376,41.64571],[-0.73758,41.6485],[-0.7373,41.64868],[-0.73702,41.6496],[-0.73643,41.65061],[-0.73589,41.65105],[-0.73564,41.65147],[-0.73534,41.65206],[-0.73551,41.65267],[-0.73506,41.65317],[-0.73339,41.6538],[-0.73208,41.65455],[-0.73071,41.65591],[-0.73006,41.65632],[-0.72909,41.65654],[-0.72778,41.65729],[-0.72696,41.65779],[-0.72548,41.65896],[-0.72467,41.65906],[-0.72371,41.65905],[-0.72234,41.65926],[-0.72093,41.65932],[-0.72053,41.65955],[-0.72011,41.65997],[-0.71986,41.66038],[-0.7194,41.66073],[-0.7189,41.66138],[-0.71635,41.65977]]]}}]}