{"type":"FeatureCollection","features":[{"type":"Feature","id":"28001","properties":{"cod_mun":"28001","nombre":"Acebeda, La","cod_prov":"28","cod_ccaa":"13"},"geometry":{"type":"Polygon","coordinates":[[[-3.67684,41.0862],[-3.62736,41.06843],[-3.61611,41.07005],[-3.60936,41.07651],[-3.60037,41.0959],[-3.63186,41.12013],[-3.64535,41.12175],[-3.6521,41.10721],[-3.67684,41.0862]]]}},{"type":"Feature","id":"28002","properties":{"cod_mun":"28002","nombre":"Ajalvir","cod_prov":"28","cod_ccaa":"13"},"geometry":{"type":"Polygon","coordinates":[[[-3.51265,40.53851],[-3.47892,40.49488],[-3.46767,40.49327],[-3.43618,40.50943],[-3.46092,40.51104],[-3.46092,40.5272],[-3.47892,40.54497],[-3.48117,40.56274],[-3.50141,40.55305],[-3.51265,40.53851]]]}},{"type":"Feature","id":"28003","properties":{"cod_mun":"28003","nombre":"Alameda del Valle","cod_prov":"28","cod_ccaa":"13"},"geometry":{"type":"Polygon","coordinates":[[[-3.8995,40.95857],[-3.88151,40.93595],[-3.84327,40.9101],[-3.83878,40.87779],[-3.81853,40.86002],[-3.80954,40.88748],[-3.85452,40.94888],[-3.88151,40.97311],[-3.89051,40.96826],[-3.8995,40.95857]]]}},{"type":"Feature","id":"28004","properties":{"cod_mun":"28004","nombre":"Álamo, El","cod_prov":"28","cod_ccaa":"13"},"geometry":{"type":"Polygon","coordinates":[[[-4.0232,40.24931],[-4.02545,40.23638],[-3.99172,40.20892],[-3.95348,40.21215],[-3.94673,40.22507],[-3.96922,40.23638],[-3.97597,40.25254],[-4.00296,40.25577],[-4.0232,40.24931]]]}},{"type":"Feature","id":"28005","properties":{"cod_mun":"28005","nombre":"Alcalá de Henares","cod_prov":"28","cod_ccaa":"13"},"geometry":{"type":"Polygon","coordinates":[[[-3.44743,40.44642],[-3.42719,40.45288],[-3.40919,40.45288],[-3.3912,40.45934],[-3.35746,40.44803],[-3.32148,40.47227],[-3.28774,40.48681],[-3.29899,40.49488],[-3.30798,40.50296],[-3.28549,40.5175],[-3.28999,40.53204],[-3.32373,40.52073],[-3.35072,40.53204],[-3.39345,40.52397],[-3.41144,40.53043],[-3.41594,40.54497],[-3.43393,40.54335],[-3.42944,40.51104],[-3.42494,40.47227],[-3.44743,40.44642]]]}},{"type":"Feature","id":"28006","properties":{"cod_mun":"28006","nombre":"Alcobendas","cod_prov":"28","cod_ccaa":"13"},"geometry":{"type":"Polygon","coordinates":[[[-3.67459,40.58859],[-3.69933,40.5789],[-3.69033,40.5692],[-3.65885,40.51104],[-3.61611,40.51104],[-3.59362,40.50135],[-3.57113,40.51266],[-3.55314,40.51104],[-3.55314,40.53204],[-3.62511,40.54012],[-3.65435,40.55466],[-3.67459,40.58859]]]}},{"type":"Feature","id":"28007","properties":{"cod_mun":"28007","nombre":"Alcorcón","cod_prov":"28","cod_ccaa":"13"},"geometry":{"type":"Polygon","coordinates":[[[-3.87026,40.35271],[-3.84327,40.32363],[-3.81853,40.32847],[-3.78705,40.35917],[-3.80954,40.36402],[-3.83428,40.39633],[-3.83878,40.40279],[-3.86801,40.37694],[-3.87926,40.37048],[-3.87026,40.35271]]]}},{"type":"Feature","id":"28008","properties":{"cod_mun":"28008","nombre":"Aldea del Fresno","cod_prov":"28","cod_ccaa":"13"},"geometry":{"type":"Polygon","coordinates":[[[-4.29535,40.32201],[-4.25486,40.28808],[-4.23237,40.27677],[-4.22562,40.27031],[-4.20313,40.2687],[-4.20313,40.28808],[-4.19189,40.29778],[-4.17165,40.28808],[-4.1694,40.31878],[-4.18739,40.33817],[-4.20763,40.34948],[-4.23237,40.33332],[-4.23687,40.32686],[-4.26836,40.33171],[-4.29535,40.32201]]]}},{"type":"Feature","id":"28009","properties":{"cod_mun":"28009","nombre":"Algete","cod_prov":"28","cod_ccaa":"13"},"geometry":{"type":"Polygon","coordinates":[[[-3.59362,40.65483],[-3.59137,40.64837],[-3.58462,40.62737],[-3.57788,40.60798],[-3.55764,40.58536],[-3.53964,40.58213],[-3.49016,40.58536],[-3.46542,40.59505],[-3.45418,40.60798],[-3.47667,40.60475],[-3.49016,40.62575],[-3.5284,40.61283],[-3.55988,40.61283],[-3.55988,40.64998],[-3.58462,40.64514],[-3.59362,40.65483]]]}},{"type":"Feature","id":"28010","properties":{"cod_mun":"28010","nombre":"Alpedrete","cod_prov":"28","cod_ccaa":"13"},"geometry":{"type":"Polygon","coordinates":[[[-4.04569,40.66291],[-4.02545,40.63221],[-3.99621,40.68068],[-4.01421,40.6823],[-4.04569,40.66291]]]}},{"type":"Feature","id":"28011","properties":{"cod_mun":"28011","nombre":"Ambite","cod_prov":"28","cod_ccaa":"13"},"geometry":{"type":"Polygon","coordinates":[[[-3.21577,40.31232],[-3.18203,40.30424],[-3.17978,40.31393],[-3.15054,40.33494],[-3.1438,40.35756],[-3.15054,40.37371],[-3.17753,40.37371],[-3.17753,40.36079],[-3.20452,40.34463],[-3.20452,40.3204],[-3.21577,40.31232]]]}},{"type":"Feature","id":"28012","properties":{"cod_mun":"28012","nombre":"Anchuelo","cod_prov":"28","cod_ccaa":"13"},"geometry":{"type":"Polygon","coordinates":[[[-3.32148,40.47227],[-3.2675,40.43995],[-3.23601,40.4448],[-3.2585,40.48358],[-3.29899,40.49488],[-3.28774,40.48681],[-3.32148,40.47227]]]}},{"type":"Feature","id":"28013","properties":{"cod_mun":"28013","nombre":"Aranjuez","cod_prov":"28","cod_ccaa":"13"},"geometry":{"type":"Polygon","coordinates":[[[-3.87476,39.91003],[-3.83428,39.90033],[-3.81403,39.88579],[-3.80504,39.88418],[-3.77805,39.91164],[-3.76006,39.91972],[-3.74431,39.94072],[-3.71058,39.95526],[-3.69708,39.94719],[-3.66559,39.96334],[-3.62961,39.96819],[-3.6386,39.98758],[-3.61611,39.99404],[-3.59362,40.00212],[-3.58912,40.01343],[-3.55089,40.01827],[-3.5194,40.02151],[-3.51715,40.03605],[-3.5149,40.04412],[-3.53289,40.0522],[-3.53514,40.06836],[-3.58687,40.05867],[-3.59362,40.06674],[-3.58013,40.09906],[-3.55764,40.12491],[-3.58462,40.12814],[-3.60712,40.10875],[-3.60936,40.08128],[-3.62286,40.05382],[-3.6386,40.05059],[-3.6521,40.0312],[-3.66784,40.02797],[-3.67909,40.01666],[-3.69933,40.01989],[-3.71507,40.00373],[-3.74656,39.9795],[-3.73532,39.96173],[-3.75781,39.96819],[-3.78705,39.95365],[-3.78705,39.94396],[-3.80954,39.95365],[-3.82303,39.94719],[-3.86576,39.93103],[-3.87476,39.91003]]]}},{"type":"Feature","id":"28019","properties":{"cod_mun":"28019","nombre":"Belmonte de Tajo","cod_prov":"28","cod_ccaa":"13"},"geometry":{"type":"Polygon","coordinates":[[[-3.37771,40.13298],[-3.34397,40.11037],[-3.34847,40.09744],[-3.30798,40.13137],[-3.29674,40.13137],[-3.32148,40.17822],[-3.33947,40.15076],[-3.37771,40.13298]]]}},{"type":"Feature","id":"28020","properties":{"cod_mun":"28020","nombre":"Berzosa del Lozoya","cod_prov":"28","cod_ccaa":"13"},"geometry":{"type":"Polygon","coordinates":[[[-3.56213,40.95695],[-3.54414,40.95534],[-3.5104,40.96503],[-3.49241,40.97796],[-3.49691,40.99411],[-3.55089,40.97796],[-3.56213,40.95695]]]}},{"type":"Feature","id":"28021","properties":{"cod_mun":"28021","nombre":"Berrueco, El","cod_prov":"28","cod_ccaa":"13"},"geometry":{"type":"Polygon","coordinates":[[[-3.60037,40.8891],[-3.57113,40.85032],[-3.53739,40.86325],[-3.5239,40.87617],[-3.51265,40.89556],[-3.51715,40.90525],[-3.54414,40.90525],[-3.56888,40.90364],[-3.60262,40.89394],[-3.60037,40.8891]]]}},{"type":"Feature","id":"28029","properties":{"cod_mun":"28029","nombre":"Cabanillas de la Sierra","cod_prov":"28","cod_ccaa":"13"},"geometry":{"type":"Polygon","coordinates":[[[-3.65885,40.80508],[-3.64985,40.80185],[-3.63411,40.80993],[-3.61386,40.80993],[-3.61611,40.84063],[-3.6431,40.85194],[-3.6521,40.83417],[-3.65885,40.80508]]]}},{"type":"Feature","id":"28030","properties":{"cod_mun":"28030","nombre":"Cabrera, La","cod_prov":"28","cod_ccaa":"13"},"geometry":{"type":"Polygon","coordinates":[[[-3.64985,40.8794],[-3.6431,40.85194],[-3.61611,40.84063],[-3.60487,40.84224],[-3.57113,40.85032],[-3.60037,40.8891],[-3.64985,40.8794]]]}},{"type":"Feature","id":"28031","properties":{"cod_mun":"28031","nombre":"Cadalso de los Vidrios","cod_prov":"28","cod_ccaa":"13"},"geometry":{"type":"Polygon","coordinates":[[[-4.49327,40.27839],[-4.47753,40.28324],[-4.44829,40.27193],[-4.43479,40.259],[-4.38306,40.2897],[-4.38081,40.31878],[-4.41905,40.33171],[-4.45279,40.33332],[-4.45503,40.31878],[-4.47303,40.3204],[-4.46628,40.30909],[-4.50676,40.28324],[-4.49327,40.27839]]]}},{"type":"Feature","id":"28036","properties":{"cod_mun":"28036","nombre":"Casarrubuelos","cod_prov":"28","cod_ccaa":"13"},"geometry":{"type":"Polygon","coordinates":[[[-3.85452,40.17984],[-3.84102,40.16207],[-3.80729,40.17661],[-3.85452,40.17984]]]}},{"type":"Feature","id":"28037","properties":{"cod_mun":"28037","nombre":"Cenicientos","cod_prov":"28","cod_ccaa":"13"},"geometry":{"type":"Polygon","coordinates":[[[-4.57874,40.217],[-4.57424,40.2073],[-4.5495,40.20084],[-4.52251,40.20246],[-4.51801,40.21538],[-4.49777,40.22184],[-4.47303,40.23154],[-4.43704,40.23638],[-4.43479,40.259],[-4.44829,40.27193],[-4.47753,40.28324],[-4.49327,40.27839],[-4.51801,40.27031],[-4.55625,40.26547],[-4.56974,40.25739],[-4.55849,40.23477],[-4.56524,40.21861],[-4.57874,40.217]]]}},{"type":"Feature","id":"28155","properties":{"cod_mun":"28155","nombre":"Valdaracete","cod_prov":"28","cod_ccaa":"13"},"geometry":{"type":"Polygon","coordinates":[[[-3.26975,40.21538],[-3.26975,40.20084],[-3.24726,40.18307],[-3.22252,40.18468],[-3.21802,40.16368],[-3.19778,40.1556],[-3.15954,40.1556],[-3.15054,40.16207],[-3.15279,40.19438],[-3.16179,40.21053],[-3.15054,40.22346],[-3.17304,40.23477],[-3.19553,40.24769],[-3.21802,40.238],[-3.23601,40.21377],[-3.26975,40.21538]]]}},{"type":"Feature","id":"28048","properties":{"cod_mun":"28048","nombre":"Corpa","cod_prov":"28","cod_ccaa":"13"},"geometry":{"type":"Polygon","coordinates":[[[-3.28774,40.41895],[-3.27874,40.39472],[-3.25625,40.3931],[-3.22027,40.40279],[-3.21127,40.43511],[-3.23601,40.4448],[-3.2675,40.43995],[-3.28774,40.41895]]]}},{"type":"Feature","id":"28014","properties":{"cod_mun":"28014","nombre":"Arganda del Rey","cod_prov":"28","cod_ccaa":"13"},"geometry":{"type":"Polygon","coordinates":[[[-3.5194,40.29455],[-3.48341,40.25739],[-3.42269,40.25416],[-3.3957,40.24769],[-3.36871,40.26547],[-3.38445,40.28162],[-3.37995,40.29778],[-3.42944,40.31717],[-3.42719,40.34948],[-3.45418,40.34302],[-3.47217,40.33817],[-3.46992,40.31878],[-3.5104,40.31878],[-3.50591,40.30747],[-3.5194,40.29455]]]}},{"type":"Feature","id":"28015","properties":{"cod_mun":"28015","nombre":"Arroyomolinos","cod_prov":"28","cod_ccaa":"13"},"geometry":{"type":"Polygon","coordinates":[[[-3.94448,40.26223],[-3.904,40.26062],[-3.87701,40.28808],[-3.90175,40.30424],[-3.94223,40.29778],[-3.94223,40.29293],[-3.94223,40.29132],[-3.94448,40.26223]]]}},{"type":"Feature","id":"28016","properties":{"cod_mun":"28016","nombre":"Atazar, El","cod_prov":"28","cod_ccaa":"13"},"geometry":{"type":"Polygon","coordinates":[[[-3.50366,40.92464],[-3.49691,40.9101],[-3.45193,40.91333],[-3.42269,40.96665],[-3.48341,40.96342],[-3.50366,40.92464]]]}},{"type":"Feature","id":"28017","properties":{"cod_mun":"28017","nombre":"Batres","cod_prov":"28","cod_ccaa":"13"},"geometry":{"type":"Polygon","coordinates":[[[-3.95573,40.19922],[-3.95123,40.19599],[-3.93774,40.20246],[-3.92649,40.20084],[-3.89725,40.19599],[-3.895,40.21053],[-3.904,40.23477],[-3.93774,40.24931],[-3.95123,40.25092],[-3.94673,40.22507],[-3.95348,40.21215],[-3.95573,40.19922]]]}},{"type":"Feature","id":"28158","properties":{"cod_mun":"28158","nombre":"Valdemanco","cod_prov":"28","cod_ccaa":"13"},"geometry":{"type":"Polygon","coordinates":[[[-3.69483,40.88102],[-3.68359,40.86971],[-3.67009,40.83417],[-3.6521,40.83417],[-3.6431,40.85194],[-3.64985,40.8794],[-3.67459,40.89233],[-3.69483,40.88102]]]}},{"type":"Feature","id":"28159","properties":{"cod_mun":"28159","nombre":"Valdemaqueda","cod_prov":"28","cod_ccaa":"13"},"geometry":{"type":"Polygon","coordinates":[[[-4.33808,40.43187],[-4.2931,40.44642],[-4.2841,40.50296],[-4.26386,40.51266],[-4.26161,40.53043],[-4.25711,40.54658],[-4.27061,40.56113],[-4.2886,40.56436],[-4.32459,40.54658],[-4.32234,40.5175],[-4.32683,40.50943],[-4.31784,40.45773],[-4.32459,40.45934],[-4.33808,40.43187]]]}},{"type":"Feature","id":"28160","properties":{"cod_mun":"28160","nombre":"Valdemorillo","cod_prov":"28","cod_ccaa":"13"},"geometry":{"type":"Polygon","coordinates":[[[-4.12891,40.52235],[-4.11767,40.49004],[-4.07943,40.44157],[-4.0412,40.44803],[-4.01421,40.47065],[-3.99396,40.47227],[-4.00071,40.48519],[-4.01871,40.4965],[-4.0277,40.5272],[-4.05244,40.53689],[-4.04794,40.57082],[-4.07943,40.56759],[-4.11767,40.54335],[-4.12891,40.52235]]]}},{"type":"Feature","id":"28161","properties":{"cod_mun":"28161","nombre":"Valdemoro","cod_prov":"28","cod_ccaa":"13"},"geometry":{"type":"Polygon","coordinates":[[[-3.71732,40.14591],[-3.71282,40.14106],[-3.68359,40.13298],[-3.66784,40.14268],[-3.6386,40.1653],[-3.63635,40.17822],[-3.60262,40.16207],[-3.59137,40.19599],[-3.6431,40.22992],[-3.67684,40.22023],[-3.69933,40.19922],[-3.70833,40.17822],[-3.69933,40.16045],[-3.71732,40.14591]]]}},{"type":"Feature","id":"28162","properties":{"cod_mun":"28162","nombre":"Valdeolmos-Alalpardo","cod_prov":"28","cod_ccaa":"13"},"geometry":{"type":"Polygon","coordinates":[[[-3.49016,40.62575],[-3.47667,40.60475],[-3.45418,40.60798],[-3.44293,40.61767],[-3.42044,40.64514],[-3.43393,40.64514],[-3.46542,40.66614],[-3.48341,40.67099],[-3.48341,40.66776],[-3.49016,40.62575]]]}},{"type":"Feature","id":"28018","properties":{"cod_mun":"28018","nombre":"Becerril de la Sierra","cod_prov":"28","cod_ccaa":"13"},"geometry":{"type":"MultiPolygon","coordinates":[[[[-3.87476,40.65806],[-3.87926,40.6516],[-3.86576,40.64514],[-3.85452,40.66291],[-3.84102,40.66614],[-3.83203,40.67745],[-3.82978,40.68068],[-3.83878,40.68714],[-3.87476,40.68068],[-3.87476,40.65806]]],[[[-3.91525,40.67583],[-3.91974,40.6726],[-3.90625,40.6726],[-3.9085,40.67745],[-3.91525,40.67583]]],[[[-3.90625,40.6823],[-3.91525,40.67583],[-3.904,40.68068],[-3.90625,40.6823]]],[[[-3.96922,40.76631],[-3.98272,40.755],[-3.98722,40.73238],[-4.00521,40.70976],[-3.99846,40.69038],[-3.98047,40.70653],[-3.96023,40.70653],[-3.94898,40.71623],[-3.95123,40.72269],[-3.96023,40.734],[-3.96023,40.75985],[-3.96922,40.76631]]]]}},{"type":"Feature","id":"28165","properties":{"cod_mun":"28165","nombre":"Valdilecha","cod_prov":"28","cod_ccaa":"13"},"geometry":{"type":"Polygon","coordinates":[[[-3.34847,40.27354],[-3.33497,40.26385],[-3.28549,40.26223],[-3.2675,40.29455],[-3.25175,40.30424],[-3.28774,40.33332],[-3.31248,40.32847],[-3.33272,40.31555],[-3.34847,40.27354]]]}},{"type":"Feature","id":"28022","properties":{"cod_mun":"28022","nombre":"Boadilla del Monte","cod_prov":"28","cod_ccaa":"13"},"geometry":{"type":"Polygon","coordinates":[[[-3.94898,40.4141],[-3.93774,40.41572],[-3.89051,40.39795],[-3.86801,40.37694],[-3.83878,40.40279],[-3.86352,40.4448],[-3.8995,40.45611],[-3.92424,40.44157],[-3.94448,40.45449],[-3.94898,40.4141]]]}},{"type":"Feature","id":"28023","properties":{"cod_mun":"28023","nombre":"Boalo, El","cod_prov":"28","cod_ccaa":"13"},"geometry":{"type":"MultiPolygon","coordinates":[[[[-3.91974,40.6726],[-3.92874,40.65645],[-3.91974,40.64837],[-3.90625,40.65322],[-3.8995,40.66937],[-3.87476,40.65806],[-3.87476,40.68068],[-3.904,40.68068],[-3.91525,40.67583],[-3.9085,40.67745],[-3.90625,40.6726],[-3.91974,40.6726]]],[[[-3.913,40.68714],[-3.89275,40.70492],[-3.90625,40.73884],[-3.95123,40.76308],[-3.96922,40.76631],[-3.96023,40.75985],[-3.96023,40.734],[-3.95123,40.72269],[-3.93324,40.72592],[-3.93999,40.71299],[-3.94898,40.69038],[-3.92424,40.67745],[-3.913,40.68714]]]]}},{"type":"Feature","id":"28024","properties":{"cod_mun":"28024","nombre":"Braojos","cod_prov":"28","cod_ccaa":"13"},"geometry":{"type":"Polygon","coordinates":[[[-3.70608,41.07651],[-3.67234,41.04258],[-3.63635,41.02966],[-3.62286,41.05066],[-3.62736,41.06843],[-3.67684,41.0862],[-3.68808,41.08459],[-3.70608,41.07651]]]}},{"type":"Feature","id":"28050","properties":{"cod_mun":"28050","nombre":"Cubas de la Sagra","cod_prov":"28","cod_ccaa":"13"},"geometry":{"type":"Polygon","coordinates":[[[-3.87701,40.19115],[-3.85452,40.17984],[-3.80729,40.17661],[-3.82078,40.20569],[-3.86801,40.20084],[-3.87701,40.19115]]]}},{"type":"Feature","id":"28051","properties":{"cod_mun":"28051","nombre":"Chapinería","cod_prov":"28","cod_ccaa":"13"},"geometry":{"type":"Polygon","coordinates":[[[-4.23462,40.3931],[-4.22787,40.38825],[-4.23687,40.36402],[-4.23237,40.33332],[-4.20763,40.34948],[-4.18739,40.33817],[-4.18289,40.34786],[-4.19863,40.36725],[-4.18739,40.38017],[-4.19414,40.39148],[-4.17839,40.39956],[-4.21663,40.40441],[-4.23462,40.3931]]]}},{"type":"Feature","id":"28052","properties":{"cod_mun":"28052","nombre":"Chinchón","cod_prov":"28","cod_ccaa":"13"},"geometry":{"type":"Polygon","coordinates":[[[-3.58013,40.09906],[-3.54864,40.10229],[-3.52165,40.13622],[-3.48341,40.13783],[-3.45193,40.11844],[-3.41369,40.12006],[-3.38445,40.1346],[-3.40919,40.1863],[-3.42269,40.19761],[-3.45418,40.20246],[-3.46317,40.21377],[-3.49916,40.217],[-3.5239,40.19761],[-3.55988,40.18953],[-3.54189,40.18145],[-3.56213,40.17176],[-3.54639,40.16853],[-3.53514,40.14914],[-3.55089,40.14268],[-3.55764,40.12491],[-3.58013,40.09906]]]}},{"type":"Feature","id":"28025","properties":{"cod_mun":"28025","nombre":"Brea de Tajo","cod_prov":"28","cod_ccaa":"13"},"geometry":{"type":"Polygon","coordinates":[[[-3.17304,40.23477],[-3.15054,40.22346],[-3.10781,40.20246],[-3.08757,40.20084],[-3.07857,40.20892],[-3.08757,40.24608],[-3.11006,40.28485],[-3.11231,40.28485],[-3.15279,40.26385],[-3.17304,40.23477]]]}},{"type":"Feature","id":"28026","properties":{"cod_mun":"28026","nombre":"Brunete","cod_prov":"28","cod_ccaa":"13"},"geometry":{"type":"Polygon","coordinates":[[[-4.04569,40.38825],[-4.03445,40.37856],[-4.00521,40.35917],[-3.98047,40.37048],[-3.94898,40.36887],[-3.94673,40.40764],[-3.96922,40.41733],[-3.98047,40.43672],[-4.01421,40.43511],[-4.02545,40.42864],[-4.04569,40.38825]]]}},{"type":"Feature","id":"28027","properties":{"cod_mun":"28027","nombre":"Buitrago del Lozoya","cod_prov":"28","cod_ccaa":"13"},"geometry":{"type":"Polygon","coordinates":[[[-3.66559,40.99573],[-3.6566,40.97634],[-3.64535,40.95372],[-3.62961,40.9618],[-3.58013,40.99088],[-3.61836,41.0135],[-3.63411,41.02158],[-3.63635,41.00219],[-3.65435,41.00704],[-3.66559,40.99573]]]}},{"type":"Feature","id":"28028","properties":{"cod_mun":"28028","nombre":"Bustarviejo","cod_prov":"28","cod_ccaa":"13"},"geometry":{"type":"Polygon","coordinates":[[[-3.78929,40.84709],[-3.77355,40.82609],[-3.72182,40.79701],[-3.70158,40.80024],[-3.70158,40.82447],[-3.67009,40.83417],[-3.68359,40.86971],[-3.69483,40.88102],[-3.72182,40.87133],[-3.73981,40.87456],[-3.77355,40.86648],[-3.78929,40.84709]]]}},{"type":"Feature","id":"28053","properties":{"cod_mun":"28053","nombre":"Daganzo de Arriba","cod_prov":"28","cod_ccaa":"13"},"geometry":{"type":"Polygon","coordinates":[[[-3.48117,40.56274],[-3.47892,40.54497],[-3.46092,40.5272],[-3.46092,40.51104],[-3.43618,40.50943],[-3.42944,40.51104],[-3.43393,40.54335],[-3.41594,40.54497],[-3.4002,40.55789],[-3.3957,40.57405],[-3.44293,40.59505],[-3.44293,40.61767],[-3.45418,40.60798],[-3.46542,40.59505],[-3.48117,40.56274]]]}},{"type":"Feature","id":"28054","properties":{"cod_mun":"28054","nombre":"Escorial, El","cod_prov":"28","cod_ccaa":"13"},"geometry":{"type":"Polygon","coordinates":[[[-4.1604,40.56274],[-4.14915,40.55466],[-4.15365,40.53204],[-4.13341,40.51912],[-4.12891,40.52235],[-4.11767,40.54335],[-4.07943,40.56759],[-4.04794,40.57082],[-4.04345,40.58374],[-4.03445,40.59828],[-4.0412,40.61283],[-4.0322,40.6306],[-4.05694,40.63706],[-4.09293,40.6306],[-4.13116,40.59828],[-4.14016,40.57567],[-4.1604,40.56274]]]}},{"type":"Feature","id":"28055","properties":{"cod_mun":"28055","nombre":"Estremera","cod_prov":"28","cod_ccaa":"13"},"geometry":{"type":"Polygon","coordinates":[[[-3.15054,40.22346],[-3.16179,40.21053],[-3.15279,40.19438],[-3.15054,40.16207],[-3.12355,40.10875],[-3.10781,40.09582],[-3.11906,40.0619],[-3.09432,40.06836],[-3.05383,40.09906],[-3.07857,40.13622],[-3.09657,40.14268],[-3.08982,40.16368],[-3.06733,40.15722],[-3.07857,40.16691],[-3.08757,40.20084],[-3.10781,40.20246],[-3.15054,40.22346]]]}},{"type":"Feature","id":"28056","properties":{"cod_mun":"28056","nombre":"Fresnedillas de la Oliva","cod_prov":"28","cod_ccaa":"13"},"geometry":{"type":"Polygon","coordinates":[[[-4.21438,40.44803],[-4.20088,40.45449],[-4.1694,40.43672],[-4.17389,40.46096],[-4.16265,40.46742],[-4.14016,40.50619],[-4.17839,40.50781],[-4.20763,40.49812],[-4.21888,40.45773],[-4.21438,40.44803]]]}},{"type":"Feature","id":"28032","properties":{"cod_mun":"28032","nombre":"Camarma de Esteruelas","cod_prov":"28","cod_ccaa":"13"},"geometry":{"type":"Polygon","coordinates":[[[-3.41594,40.54497],[-3.41144,40.53043],[-3.39345,40.52397],[-3.35072,40.53204],[-3.36421,40.56113],[-3.34172,40.5789],[-3.33947,40.59667],[-3.3822,40.60798],[-3.3822,40.58536],[-3.3957,40.57405],[-3.4002,40.55789],[-3.41594,40.54497]]]}},{"type":"Feature","id":"28057","properties":{"cod_mun":"28057","nombre":"Fresno de Torote","cod_prov":"28","cod_ccaa":"13"},"geometry":{"type":"Polygon","coordinates":[[[-3.44293,40.61767],[-3.44293,40.59505],[-3.3957,40.57405],[-3.3822,40.58536],[-3.3822,40.60798],[-3.37096,40.62575],[-3.3822,40.6306],[-3.42044,40.64514],[-3.44293,40.61767]]]}},{"type":"Feature","id":"28058","properties":{"cod_mun":"28058","nombre":"Fuenlabrada","cod_prov":"28","cod_ccaa":"13"},"geometry":{"type":"Polygon","coordinates":[[[-3.84327,40.32363],[-3.84102,40.28647],[-3.83878,40.27677],[-3.81179,40.27677],[-3.80054,40.25092],[-3.74206,40.25416],[-3.73981,40.27031],[-3.75556,40.27677],[-3.76231,40.29455],[-3.81179,40.30424],[-3.81853,40.32847],[-3.84327,40.32363]]]}},{"type":"Feature","id":"28033","properties":{"cod_mun":"28033","nombre":"Campo Real","cod_prov":"28","cod_ccaa":"13"},"geometry":{"type":"Polygon","coordinates":[[[-3.42719,40.34948],[-3.42944,40.31717],[-3.37995,40.29778],[-3.38445,40.28162],[-3.36871,40.26547],[-3.34847,40.27354],[-3.33272,40.31555],[-3.31248,40.32847],[-3.35521,40.3624],[-3.37546,40.36402],[-3.42719,40.34948]]]}},{"type":"Feature","id":"28034","properties":{"cod_mun":"28034","nombre":"Canencia","cod_prov":"28","cod_ccaa":"13"},"geometry":{"type":"Polygon","coordinates":[[[-3.81853,40.86002],[-3.79829,40.84871],[-3.78929,40.84709],[-3.77355,40.86648],[-3.73981,40.87456],[-3.72182,40.87133],[-3.69483,40.88102],[-3.71507,40.89556],[-3.72632,40.93434],[-3.73756,40.94241],[-3.78705,40.91333],[-3.80954,40.88748],[-3.81853,40.86002]]]}},{"type":"Feature","id":"28035","properties":{"cod_mun":"28035","nombre":"Carabaña","cod_prov":"28","cod_ccaa":"13"},"geometry":{"type":"Polygon","coordinates":[[[-3.28549,40.26223],[-3.26975,40.21538],[-3.23601,40.21377],[-3.21802,40.238],[-3.19553,40.24769],[-3.19778,40.25739],[-3.25175,40.30424],[-3.2675,40.29455],[-3.28549,40.26223]]]}},{"type":"Feature","id":"28102","properties":{"cod_mun":"28102","nombre":"Orusco de Tajuña","cod_prov":"28","cod_ccaa":"13"},"geometry":{"type":"Polygon","coordinates":[[[-3.25175,40.30424],[-3.19778,40.25739],[-3.18428,40.27031],[-3.17978,40.30101],[-3.18203,40.30424],[-3.21577,40.31232],[-3.25175,40.30424]]]}},{"type":"Feature","id":"28038","properties":{"cod_mun":"28038","nombre":"Cercedilla","cod_prov":"28","cod_ccaa":"13"},"geometry":{"type":"Polygon","coordinates":[[[-4.09742,40.74854],[-4.05919,40.71461],[-4.05019,40.71461],[-4.0412,40.71946],[-4.03445,40.74854],[-4.02995,40.76146],[-4.02095,40.78085],[-4.07043,40.79378],[-4.09742,40.76469],[-4.09742,40.74854]]]}},{"type":"Feature","id":"28039","properties":{"cod_mun":"28039","nombre":"Cervera de Buitrago","cod_prov":"28","cod_ccaa":"13"},"geometry":{"type":"Polygon","coordinates":[[[-3.54864,40.92141],[-3.54414,40.90525],[-3.51715,40.90525],[-3.49691,40.9101],[-3.50366,40.92464],[-3.53514,40.93434],[-3.54864,40.92141]]]}},{"type":"Feature","id":"28040","properties":{"cod_mun":"28040","nombre":"Ciempozuelos","cod_prov":"28","cod_ccaa":"13"},"geometry":{"type":"Polygon","coordinates":[[[-3.66784,40.14268],[-3.6566,40.12491],[-3.60712,40.10875],[-3.58462,40.12814],[-3.56663,40.14914],[-3.56213,40.17176],[-3.54189,40.18145],[-3.55988,40.18953],[-3.59137,40.19599],[-3.60262,40.16207],[-3.63635,40.17822],[-3.6386,40.1653],[-3.66784,40.14268]]]}},{"type":"Feature","id":"28041","properties":{"cod_mun":"28041","nombre":"Cobeña","cod_prov":"28","cod_ccaa":"13"},"geometry":{"type":"Polygon","coordinates":[[[-3.54414,40.5692],[-3.55089,40.56436],[-3.51265,40.53851],[-3.50141,40.55305],[-3.48117,40.56274],[-3.46542,40.59505],[-3.49016,40.58536],[-3.53964,40.58213],[-3.54414,40.5692]]]}},{"type":"Feature","id":"28042","properties":{"cod_mun":"28042","nombre":"Colmenar del Arroyo","cod_prov":"28","cod_ccaa":"13"},"geometry":{"type":"Polygon","coordinates":[[[-4.25261,40.40602],[-4.23462,40.3931],[-4.21663,40.40441],[-4.17839,40.39956],[-4.19414,40.39148],[-4.18739,40.38017],[-4.19863,40.36725],[-4.18289,40.34786],[-4.1514,40.35594],[-4.1469,40.36402],[-4.1649,40.39472],[-4.1559,40.40926],[-4.1694,40.43672],[-4.20088,40.45449],[-4.21438,40.44803],[-4.23687,40.43187],[-4.25261,40.40602]]]}},{"type":"Feature","id":"28043","properties":{"cod_mun":"28043","nombre":"Colmenar de Oreja","cod_prov":"28","cod_ccaa":"13"},"geometry":{"type":"Polygon","coordinates":[[[-3.58013,40.09906],[-3.59362,40.06674],[-3.58687,40.05867],[-3.53514,40.06836],[-3.53289,40.0522],[-3.5149,40.04412],[-3.51265,40.04412],[-3.47217,40.04251],[-3.44968,40.04897],[-3.44743,40.03928],[-3.42494,40.04736],[-3.3957,40.03605],[-3.37771,40.05059],[-3.37771,40.07482],[-3.34397,40.07967],[-3.34847,40.09744],[-3.34397,40.11037],[-3.37771,40.13298],[-3.38445,40.1346],[-3.41369,40.12006],[-3.45193,40.11844],[-3.47892,40.08936],[-3.50366,40.08452],[-3.54864,40.10229],[-3.58013,40.09906]]]}},{"type":"Feature","id":"28044","properties":{"cod_mun":"28044","nombre":"Colmenarejo","cod_prov":"28","cod_ccaa":"13"},"geometry":{"type":"Polygon","coordinates":[[[-4.04794,40.57082],[-4.05244,40.53689],[-4.0277,40.5272],[-4.01871,40.4965],[-4.00071,40.48519],[-3.98497,40.51589],[-4.00521,40.56113],[-4.0322,40.58374],[-4.04345,40.58374],[-4.04794,40.57082]]]}},{"type":"Feature","id":"28045","properties":{"cod_mun":"28045","nombre":"Colmenar Viejo","cod_prov":"28","cod_ccaa":"13"},"geometry":{"type":"MultiPolygon","coordinates":[[[[-3.58462,40.62737],[-3.59137,40.64837],[-3.61161,40.64998],[-3.6386,40.63868],[-3.62511,40.61606],[-3.61161,40.62898],[-3.58462,40.62737]]],[[[-3.71732,40.64514],[-3.66784,40.62898],[-3.6566,40.64352],[-3.6386,40.63868],[-3.6521,40.64837],[-3.64085,40.67099],[-3.64085,40.68876],[-3.68134,40.70815],[-3.67684,40.72269],[-3.67684,40.72915],[-3.71058,40.72915],[-3.73307,40.73077],[-3.78255,40.70492],[-3.80054,40.71138],[-3.81853,40.70007],[-3.82978,40.68068],[-3.83203,40.67745],[-3.84102,40.66614],[-3.85452,40.66291],[-3.86576,40.64514],[-3.84552,40.61283],[-3.84327,40.59182],[-3.80504,40.5999],[-3.80954,40.60959],[-3.78929,40.61929],[-3.73981,40.61121],[-3.74206,40.62898],[-3.71732,40.64514]]]]}},{"type":"Feature","id":"28104","properties":{"cod_mun":"28104","nombre":"Paracuellos de Jarama","cod_prov":"28","cod_ccaa":"13"},"geometry":{"type":"Polygon","coordinates":[[[-3.55314,40.51104],[-3.53065,40.47065],[-3.49916,40.47227],[-3.47667,40.48842],[-3.47892,40.49488],[-3.51265,40.53851],[-3.55089,40.56436],[-3.54414,40.5692],[-3.55539,40.57567],[-3.56663,40.55628],[-3.55314,40.53204],[-3.55314,40.51104]]]}},{"type":"Feature","id":"28106","properties":{"cod_mun":"28106","nombre":"Parla","cod_prov":"28","cod_ccaa":"13"},"geometry":{"type":"Polygon","coordinates":[[[-3.80729,40.22992],[-3.80279,40.22023],[-3.7803,40.20892],[-3.74431,40.20084],[-3.73307,40.21053],[-3.74206,40.25416],[-3.80054,40.25092],[-3.80729,40.22992]]]}},{"type":"Feature","id":"28107","properties":{"cod_mun":"28107","nombre":"Patones","cod_prov":"28","cod_ccaa":"13"},"geometry":{"type":"Polygon","coordinates":[[[-3.5239,40.87617],[-3.50815,40.84548],[-3.46992,40.85194],[-3.47217,40.86486],[-3.44068,40.88102],[-3.45867,40.89718],[-3.45193,40.91333],[-3.49691,40.9101],[-3.51715,40.90525],[-3.51265,40.89556],[-3.5239,40.87617]]]}},{"type":"Feature","id":"28108","properties":{"cod_mun":"28108","nombre":"Pedrezuela","cod_prov":"28","cod_ccaa":"13"},"geometry":{"type":"Polygon","coordinates":[[[-3.67684,40.72269],[-3.65885,40.72592],[-3.60712,40.71461],[-3.59137,40.73077],[-3.59362,40.75015],[-3.60936,40.77923],[-3.67684,40.72915],[-3.67684,40.72269]]]}},{"type":"Feature","id":"28109","properties":{"cod_mun":"28109","nombre":"Pelayos de la Presa","cod_prov":"28","cod_ccaa":"13"},"geometry":{"type":"Polygon","coordinates":[[[-4.30434,40.36725],[-4.33583,40.37533],[-4.34483,40.35432],[-4.32234,40.34463],[-4.30434,40.36725]]]}},{"type":"Feature","id":"28046","properties":{"cod_mun":"28046","nombre":"Collado Mediano","cod_prov":"28","cod_ccaa":"13"},"geometry":{"type":"Polygon","coordinates":[[[-4.06144,40.70007],[-4.04569,40.66291],[-4.01421,40.6823],[-3.99621,40.68068],[-3.99846,40.69038],[-4.00521,40.70976],[-4.0412,40.71946],[-4.05019,40.71461],[-4.06144,40.70007]]]}},{"type":"Feature","id":"28047","properties":{"cod_mun":"28047","nombre":"Collado Villalba","cod_prov":"28","cod_ccaa":"13"},"geometry":{"type":"Polygon","coordinates":[[[-4.02995,40.6306],[-4.00521,40.61606],[-3.98047,40.6209],[-3.95798,40.63221],[-3.94898,40.65645],[-3.99396,40.66776],[-3.99621,40.68068],[-4.02545,40.63221],[-4.02995,40.6306]]]}},{"type":"Feature","id":"28049","properties":{"cod_mun":"28049","nombre":"Coslada","cod_prov":"28","cod_ccaa":"13"},"geometry":{"type":"Polygon","coordinates":[[[-3.53065,40.42057],[-3.53065,40.44642],[-3.58013,40.43349],[-3.58013,40.41733],[-3.53964,40.41087],[-3.53065,40.42057]]]}},{"type":"Feature","id":"28059","properties":{"cod_mun":"28059","nombre":"Fuente el Saz de Jarama","cod_prov":"28","cod_ccaa":"13"},"geometry":{"type":"Polygon","coordinates":[[[-3.55988,40.64998],[-3.55988,40.61283],[-3.5284,40.61283],[-3.49016,40.62575],[-3.48341,40.66776],[-3.52615,40.67099],[-3.55764,40.66129],[-3.55988,40.64998]]]}},{"type":"Feature","id":"28060","properties":{"cod_mun":"28060","nombre":"Fuentidueña de Tajo","cod_prov":"28","cod_ccaa":"13"},"geometry":{"type":"Polygon","coordinates":[[[-3.20002,40.08613],[-3.18878,40.0829],[-3.16629,40.09098],[-3.16179,40.06513],[-3.11906,40.0619],[-3.10781,40.09582],[-3.12355,40.10875],[-3.15054,40.16207],[-3.15954,40.1556],[-3.19778,40.1556],[-3.20452,40.11521],[-3.20002,40.08613]]]}},{"type":"Feature","id":"28061","properties":{"cod_mun":"28061","nombre":"Galapagar","cod_prov":"28","cod_ccaa":"13"},"geometry":{"type":"Polygon","coordinates":[[[-4.04345,40.58374],[-4.0322,40.58374],[-4.00521,40.56113],[-3.98497,40.51589],[-3.96698,40.51912],[-3.93999,40.50781],[-3.94448,40.55143],[-3.96023,40.57728],[-3.95348,40.59667],[-3.95798,40.63221],[-3.98047,40.6209],[-4.00521,40.61606],[-4.02995,40.6306],[-4.0322,40.6306],[-4.0412,40.61283],[-4.03445,40.59828],[-4.04345,40.58374]]]}},{"type":"Feature","id":"28062","properties":{"cod_mun":"28062","nombre":"Garganta de los Montes","cod_prov":"28","cod_ccaa":"13"},"geometry":{"type":"Polygon","coordinates":[[[-3.72632,40.93434],[-3.71507,40.89556],[-3.69483,40.88102],[-3.67459,40.89233],[-3.64535,40.95372],[-3.6566,40.97634],[-3.66559,40.97796],[-3.68584,40.95534],[-3.72632,40.93434]]]}},{"type":"Feature","id":"28063","properties":{"cod_mun":"28063","nombre":"Gargantilla del Lozoya y Pinilla de Buitrago","cod_prov":"28","cod_ccaa":"13"},"geometry":{"type":"Polygon","coordinates":[[[-3.73756,40.97473],[-3.73756,40.94241],[-3.72632,40.93434],[-3.68584,40.95534],[-3.66559,40.97796],[-3.6566,40.97634],[-3.66559,40.99573],[-3.67909,40.9925],[-3.73756,40.97473]]]}},{"type":"Feature","id":"28064","properties":{"cod_mun":"28064","nombre":"Gascones","cod_prov":"28","cod_ccaa":"13"},"geometry":{"type":"Polygon","coordinates":[[[-3.72182,41.0652],[-3.66559,41.01027],[-3.65435,41.00704],[-3.63635,41.00219],[-3.63411,41.02158],[-3.63635,41.02966],[-3.67234,41.04258],[-3.70608,41.07651],[-3.71507,41.07166],[-3.72182,41.0652]]]}},{"type":"Feature","id":"28065","properties":{"cod_mun":"28065","nombre":"Getafe","cod_prov":"28","cod_ccaa":"13"},"geometry":{"type":"Polygon","coordinates":[[[-3.76231,40.29455],[-3.75556,40.27677],[-3.73981,40.27031],[-3.71058,40.26708],[-3.67459,40.27677],[-3.64985,40.29293],[-3.6386,40.29132],[-3.62286,40.26708],[-3.59587,40.27354],[-3.59587,40.28485],[-3.57113,40.28647],[-3.57563,40.31555],[-3.59812,40.31232],[-3.62961,40.3204],[-3.64985,40.33332],[-3.69258,40.3204],[-3.72407,40.33494],[-3.74206,40.32524],[-3.76231,40.29455]]]}},{"type":"Feature","id":"28066","properties":{"cod_mun":"28066","nombre":"Griñón","cod_prov":"28","cod_ccaa":"13"},"geometry":{"type":"Polygon","coordinates":[[[-3.88376,40.23154],[-3.86801,40.20084],[-3.82078,40.20569],[-3.80279,40.22023],[-3.80729,40.22992],[-3.84102,40.22992],[-3.85227,40.23638],[-3.86801,40.22507],[-3.88376,40.23154]]]}},{"type":"Feature","id":"28067","properties":{"cod_mun":"28067","nombre":"Guadalix de la Sierra","cod_prov":"28","cod_ccaa":"13"},"geometry":{"type":"Polygon","coordinates":[[[-3.72182,40.79701],[-3.74431,40.76631],[-3.71058,40.72915],[-3.67684,40.72915],[-3.60936,40.77923],[-3.60936,40.7857],[-3.62511,40.78247],[-3.64985,40.80185],[-3.65885,40.80508],[-3.70158,40.80024],[-3.72182,40.79701]]]}},{"type":"Feature","id":"28068","properties":{"cod_mun":"28068","nombre":"Guadarrama","cod_prov":"28","cod_ccaa":"13"},"geometry":{"type":"Polygon","coordinates":[[[-4.16715,40.64837],[-4.13116,40.65483],[-4.09518,40.64998],[-4.05919,40.65322],[-4.0367,40.64352],[-4.0322,40.6306],[-4.02995,40.6306],[-4.02545,40.63221],[-4.04569,40.66291],[-4.06144,40.70007],[-4.10867,40.70492],[-4.12666,40.7243],[-4.14466,40.69522],[-4.1604,40.69038],[-4.17165,40.68068],[-4.16715,40.64837]]]}},{"type":"Feature","id":"28069","properties":{"cod_mun":"28069","nombre":"Hiruela, La","cod_prov":"28","cod_ccaa":"13"},"geometry":{"type":"Polygon","coordinates":[[[-3.48566,41.06359],[-3.46767,41.04743],[-3.43843,41.04258],[-3.42719,41.0652],[-3.42719,41.08297],[-3.44743,41.08136],[-3.47442,41.0959],[-3.48566,41.06359]]]}},{"type":"Feature","id":"28070","properties":{"cod_mun":"28070","nombre":"Horcajo de la Sierra-Aoslos","cod_prov":"28","cod_ccaa":"13"},"geometry":{"type":"Polygon","coordinates":[[[-3.60936,41.07651],[-3.60712,41.05712],[-3.58687,41.0442],[-3.58687,41.05712],[-3.56213,41.05874],[-3.55539,41.09105],[-3.56438,41.11367],[-3.56663,41.11367],[-3.60037,41.0959],[-3.60936,41.07651]]]}},{"type":"Feature","id":"28071","properties":{"cod_mun":"28071","nombre":"Horcajuelo de la Sierra","cod_prov":"28","cod_ccaa":"13"},"geometry":{"type":"Polygon","coordinates":[[[-3.56438,41.11367],[-3.55539,41.09105],[-3.56213,41.05874],[-3.55988,41.04904],[-3.54189,41.05066],[-3.5239,41.0862],[-3.52615,41.12821],[-3.54639,41.13467],[-3.56438,41.11367]]]}},{"type":"Feature","id":"28166","properties":{"cod_mun":"28166","nombre":"Valverde de Alcalá","cod_prov":"28","cod_ccaa":"13"},"geometry":{"type":"Polygon","coordinates":[[[-3.33047,40.4238],[-3.31248,40.40118],[-3.30573,40.38664],[-3.27425,40.38017],[-3.27874,40.39472],[-3.28774,40.41895],[-3.29674,40.42541],[-3.33047,40.4238]]]}},{"type":"Feature","id":"28072","properties":{"cod_mun":"28072","nombre":"Hoyo de Manzanares","cod_prov":"28","cod_ccaa":"13"},"geometry":{"type":"Polygon","coordinates":[[[-3.95348,40.59667],[-3.88376,40.58536],[-3.84327,40.59182],[-3.84552,40.61283],[-3.86576,40.64514],[-3.87926,40.6516],[-3.91974,40.63868],[-3.93999,40.6209],[-3.95348,40.59667]]]}},{"type":"Feature","id":"28169","properties":{"cod_mun":"28169","nombre":"Venturada","cod_prov":"28","cod_ccaa":"13"},"geometry":{"type":"Polygon","coordinates":[[[-3.64985,40.80185],[-3.62511,40.78247],[-3.60936,40.7857],[-3.59587,40.79054],[-3.59362,40.80185],[-3.61386,40.80993],[-3.63411,40.80993],[-3.64985,40.80185]]]}},{"type":"Feature","id":"28073","properties":{"cod_mun":"28073","nombre":"Humanes de Madrid","cod_prov":"28","cod_ccaa":"13"},"geometry":{"type":"Polygon","coordinates":[[[-3.85227,40.23638],[-3.84102,40.22992],[-3.80729,40.22992],[-3.80054,40.25092],[-3.81179,40.27677],[-3.83878,40.27677],[-3.85452,40.24769],[-3.85227,40.23638]]]}},{"type":"Feature","id":"28074","properties":{"cod_mun":"28074","nombre":"Leganés","cod_prov":"28","cod_ccaa":"13"},"geometry":{"type":"Polygon","coordinates":[[[-3.81853,40.32847],[-3.81179,40.30424],[-3.76231,40.29455],[-3.74206,40.32524],[-3.72407,40.33494],[-3.72182,40.36563],[-3.75781,40.35756],[-3.78705,40.35917],[-3.81853,40.32847]]]}},{"type":"Feature","id":"28075","properties":{"cod_mun":"28075","nombre":"Loeches","cod_prov":"28","cod_ccaa":"13"},"geometry":{"type":"Polygon","coordinates":[[[-3.46542,40.38825],[-3.45193,40.35756],[-3.45418,40.34302],[-3.42719,40.34948],[-3.37546,40.36402],[-3.35521,40.3624],[-3.35297,40.36725],[-3.37096,40.37533],[-3.41144,40.42541],[-3.42944,40.42703],[-3.44068,40.41249],[-3.46542,40.38825]]]}},{"type":"Feature","id":"28076","properties":{"cod_mun":"28076","nombre":"Lozoya","cod_prov":"28","cod_ccaa":"13"},"geometry":{"type":"Polygon","coordinates":[[[-3.84552,40.9828],[-3.82978,40.95049],[-3.78705,40.91333],[-3.73756,40.94241],[-3.73756,40.97473],[-3.7713,41.01189],[-3.7803,41.00058],[-3.80954,40.98765],[-3.82978,40.98604],[-3.84552,40.9828]]]}},{"type":"Feature","id":"28078","properties":{"cod_mun":"28078","nombre":"Madarcos","cod_prov":"28","cod_ccaa":"13"},"geometry":{"type":"Polygon","coordinates":[[[-3.58687,41.0442],[-3.57563,41.02481],[-3.55764,41.02966],[-3.55988,41.04904],[-3.56213,41.05874],[-3.58687,41.05712],[-3.58687,41.0442]]]}},{"type":"Feature","id":"28079","properties":{"cod_mun":"28079","nombre":"Madrid","cod_prov":"28","cod_ccaa":"13"},"geometry":{"type":"Polygon","coordinates":[[[-3.88601,40.57405],[-3.85452,40.52397],[-3.85227,40.50943],[-3.83653,40.50619],[-3.83653,40.4755],[-3.83428,40.46419],[-3.80504,40.46257],[-3.78929,40.44157],[-3.7713,40.4448],[-3.7803,40.41733],[-3.78255,40.39472],[-3.83428,40.39633],[-3.80954,40.36402],[-3.78705,40.35917],[-3.75781,40.35756],[-3.72182,40.36563],[-3.72407,40.33494],[-3.69258,40.3204],[-3.64985,40.33332],[-3.62961,40.3204],[-3.59812,40.31232],[-3.57563,40.31555],[-3.58238,40.32686],[-3.55314,40.35594],[-3.54189,40.3931],[-3.5194,40.39148],[-3.5194,40.40926],[-3.53065,40.42057],[-3.53964,40.41087],[-3.58013,40.41733],[-3.58013,40.43349],[-3.53065,40.44642],[-3.53065,40.47065],[-3.55314,40.51104],[-3.57113,40.51266],[-3.59362,40.50135],[-3.61611,40.51104],[-3.65885,40.51104],[-3.69033,40.5692],[-3.69933,40.5789],[-3.67459,40.58859],[-3.6566,40.58859],[-3.64985,40.57728],[-3.62511,40.57405],[-3.60262,40.59182],[-3.62511,40.61606],[-3.6386,40.63868],[-3.6566,40.64352],[-3.66784,40.62898],[-3.66784,40.61929],[-3.68808,40.60636],[-3.69708,40.59021],[-3.71957,40.58213],[-3.77805,40.60152],[-3.80279,40.59828],[-3.80954,40.60959],[-3.80504,40.5999],[-3.84327,40.59182],[-3.88376,40.58536],[-3.88601,40.57405]]]}},{"type":"Feature","id":"28080","properties":{"cod_mun":"28080","nombre":"Majadahonda","cod_prov":"28","cod_ccaa":"13"},"geometry":{"type":"Polygon","coordinates":[[[-3.94448,40.45449],[-3.92424,40.44157],[-3.8995,40.45611],[-3.86352,40.4448],[-3.84777,40.4448],[-3.83428,40.46419],[-3.83653,40.4755],[-3.87701,40.48358],[-3.91075,40.50135],[-3.93324,40.49973],[-3.93774,40.48519],[-3.94448,40.45449]]]}},{"type":"Feature","id":"28082","properties":{"cod_mun":"28082","nombre":"Manzanares el Real","cod_prov":"28","cod_ccaa":"13"},"geometry":{"type":"MultiPolygon","coordinates":[[[[-3.93999,40.71299],[-3.93324,40.72592],[-3.95123,40.72269],[-3.94898,40.71623],[-3.93999,40.71299]]],[[[-3.97822,40.78731],[-3.98047,40.78408],[-3.96922,40.76631],[-3.95123,40.76308],[-3.90625,40.73884],[-3.89275,40.70492],[-3.913,40.68714],[-3.9085,40.68391],[-3.90625,40.6823],[-3.904,40.68068],[-3.87476,40.68068],[-3.83878,40.68714],[-3.82978,40.68068],[-3.81853,40.70007],[-3.80054,40.71138],[-3.81853,40.73884],[-3.82978,40.79378],[-3.83878,40.81155],[-3.86127,40.81478],[-3.97822,40.78731]]]]}},{"type":"Feature","id":"28083","properties":{"cod_mun":"28083","nombre":"Meco","cod_prov":"28","cod_ccaa":"13"},"geometry":{"type":"Polygon","coordinates":[[[-3.35072,40.53204],[-3.32373,40.52073],[-3.28999,40.53204],[-3.28324,40.55143],[-3.28774,40.57243],[-3.31698,40.58374],[-3.33047,40.60152],[-3.33947,40.59667],[-3.34172,40.5789],[-3.36421,40.56113],[-3.35072,40.53204]]]}},{"type":"Feature","id":"28084","properties":{"cod_mun":"28084","nombre":"Mejorada del Campo","cod_prov":"28","cod_ccaa":"13"},"geometry":{"type":"Polygon","coordinates":[[[-3.50366,40.40764],[-3.50141,40.37856],[-3.46542,40.38825],[-3.44068,40.41249],[-3.44968,40.42218],[-3.50366,40.40764]]]}},{"type":"Feature","id":"28085","properties":{"cod_mun":"28085","nombre":"Miraflores de la Sierra","cod_prov":"28","cod_ccaa":"13"},"geometry":{"type":"Polygon","coordinates":[[[-3.82978,40.81316],[-3.80729,40.776],[-3.76006,40.76146],[-3.73981,40.74692],[-3.73307,40.73077],[-3.71058,40.72915],[-3.74431,40.76631],[-3.72182,40.79701],[-3.77355,40.82609],[-3.78929,40.84709],[-3.79829,40.84871],[-3.82978,40.83093],[-3.82978,40.81316]]]}},{"type":"Feature","id":"28086","properties":{"cod_mun":"28086","nombre":"Molar, El","cod_prov":"28","cod_ccaa":"13"},"geometry":{"type":"Polygon","coordinates":[[[-3.60712,40.71461],[-3.60487,40.68068],[-3.59362,40.65483],[-3.58462,40.64514],[-3.55988,40.64998],[-3.55764,40.66129],[-3.55089,40.69038],[-3.53289,40.70492],[-3.52615,40.73238],[-3.54414,40.73561],[-3.57338,40.74854],[-3.59362,40.75015],[-3.59137,40.73077],[-3.60712,40.71461]]]}},{"type":"Feature","id":"28087","properties":{"cod_mun":"28087","nombre":"Molinos, Los","cod_prov":"28","cod_ccaa":"13"},"geometry":{"type":"Polygon","coordinates":[[[-4.12666,40.7243],[-4.10867,40.70492],[-4.06144,40.70007],[-4.05019,40.71461],[-4.05919,40.71461],[-4.09742,40.74854],[-4.11092,40.74369],[-4.12666,40.7243]]]}},{"type":"Feature","id":"28088","properties":{"cod_mun":"28088","nombre":"Montejo de la Sierra","cod_prov":"28","cod_ccaa":"13"},"geometry":{"type":"Polygon","coordinates":[[[-3.54639,41.13467],[-3.52615,41.12821],[-3.5239,41.0862],[-3.54189,41.05066],[-3.5239,41.04904],[-3.48566,41.06359],[-3.47442,41.0959],[-3.48791,41.10398],[-3.5104,41.1379],[-3.54189,41.14921],[-3.54639,41.13467]]]}},{"type":"Feature","id":"28089","properties":{"cod_mun":"28089","nombre":"Moraleja de Enmedio","cod_prov":"28","cod_ccaa":"13"},"geometry":{"type":"Polygon","coordinates":[[[-3.94448,40.26223],[-3.93774,40.24931],[-3.904,40.23477],[-3.88376,40.23154],[-3.86801,40.22507],[-3.85227,40.23638],[-3.85452,40.24769],[-3.83878,40.27677],[-3.84102,40.28647],[-3.87701,40.28808],[-3.904,40.26062],[-3.94448,40.26223]]]}},{"type":"Feature","id":"28090","properties":{"cod_mun":"28090","nombre":"Moralzarzal","cod_prov":"28","cod_ccaa":"13"},"geometry":{"type":"Polygon","coordinates":[[[-3.94898,40.71623],[-3.96023,40.70653],[-3.98047,40.70653],[-3.99846,40.69038],[-3.99621,40.68068],[-3.99396,40.66776],[-3.94898,40.65645],[-3.95798,40.63221],[-3.95348,40.59667],[-3.93999,40.6209],[-3.91974,40.63868],[-3.87926,40.6516],[-3.87476,40.65806],[-3.8995,40.66937],[-3.90625,40.65322],[-3.91974,40.64837],[-3.92874,40.65645],[-3.91974,40.6726],[-3.91525,40.67583],[-3.90625,40.6823],[-3.9085,40.68391],[-3.92424,40.67745],[-3.94898,40.69038],[-3.93999,40.71299],[-3.94898,40.71623]]]}},{"type":"Feature","id":"28091","properties":{"cod_mun":"28091","nombre":"Morata de Tajuña","cod_prov":"28","cod_ccaa":"13"},"geometry":{"type":"Polygon","coordinates":[[[-3.49916,40.217],[-3.46317,40.21377],[-3.45418,40.20246],[-3.42269,40.19761],[-3.39345,40.21861],[-3.4002,40.23962],[-3.42269,40.25416],[-3.48341,40.25739],[-3.50591,40.23962],[-3.49916,40.217]]]}},{"type":"Feature","id":"28092","properties":{"cod_mun":"28092","nombre":"Móstoles","cod_prov":"28","cod_ccaa":"13"},"geometry":{"type":"Polygon","coordinates":[[[-3.94223,40.29939],[-3.94223,40.29778],[-3.90175,40.30424],[-3.87701,40.28808],[-3.84102,40.28647],[-3.84327,40.32363],[-3.87026,40.35271],[-3.88151,40.35432],[-3.93549,40.33817],[-3.94448,40.32363],[-3.94223,40.29939]]]}},{"type":"Feature","id":"28115","properties":{"cod_mun":"28115","nombre":"Pozuelo de Alarcón","cod_prov":"28","cod_ccaa":"13"},"geometry":{"type":"Polygon","coordinates":[[[-3.86352,40.4448],[-3.83878,40.40279],[-3.83428,40.39633],[-3.78255,40.39472],[-3.7803,40.41733],[-3.7713,40.4448],[-3.78929,40.44157],[-3.80504,40.46257],[-3.83428,40.46419],[-3.84777,40.4448],[-3.86352,40.4448]]]}},{"type":"Feature","id":"28093","properties":{"cod_mun":"28093","nombre":"Navacerrada","cod_prov":"28","cod_ccaa":"13"},"geometry":{"type":"MultiPolygon","coordinates":[[[[-4.03445,40.74854],[-4.0412,40.71946],[-4.00521,40.70976],[-3.98722,40.73238],[-3.98272,40.755],[-3.96922,40.76631],[-3.98047,40.78408],[-4.00296,40.78893],[-3.99621,40.77923],[-4.00746,40.75823],[-4.03445,40.74854]]],[[[-4.02095,40.78085],[-4.02995,40.76146],[-4.02095,40.76146],[-4.00746,40.78731],[-4.02095,40.78085]]]]}},{"type":"Feature","id":"28116","properties":{"cod_mun":"28116","nombre":"Pozuelo del Rey","cod_prov":"28","cod_ccaa":"13"},"geometry":{"type":"Polygon","coordinates":[[[-3.35521,40.3624],[-3.31248,40.32847],[-3.28774,40.33332],[-3.27874,40.34625],[-3.26975,40.36079],[-3.27425,40.38017],[-3.30573,40.38664],[-3.31248,40.40118],[-3.31923,40.38341],[-3.35297,40.36725],[-3.35521,40.3624]]]}},{"type":"Feature","id":"28117","properties":{"cod_mun":"28117","nombre":"Prádena del Rincón","cod_prov":"28","cod_ccaa":"13"},"geometry":{"type":"Polygon","coordinates":[[[-3.55988,41.04904],[-3.55764,41.02966],[-3.51265,41.02158],[-3.49241,41.01189],[-3.47892,41.04258],[-3.46767,41.04743],[-3.48566,41.06359],[-3.5239,41.04904],[-3.54189,41.05066],[-3.55988,41.04904]]]}},{"type":"Feature","id":"28118","properties":{"cod_mun":"28118","nombre":"Puebla de la Sierra","cod_prov":"28","cod_ccaa":"13"},"geometry":{"type":"Polygon","coordinates":[[[-3.49691,40.99411],[-3.49241,40.97796],[-3.48341,40.96342],[-3.42269,40.96665],[-3.41819,40.97473],[-3.41819,40.98765],[-3.39345,41.00058],[-3.40694,41.01512],[-3.43843,41.04258],[-3.46767,41.04743],[-3.47892,41.04258],[-3.49241,41.01189],[-3.49691,40.99411]]]}},{"type":"Feature","id":"28119","properties":{"cod_mun":"28119","nombre":"Quijorna","cod_prov":"28","cod_ccaa":"13"},"geometry":{"type":"Polygon","coordinates":[[[-4.11317,40.40279],[-4.07493,40.39795],[-4.04569,40.38825],[-4.02545,40.42864],[-4.0412,40.44803],[-4.07943,40.44157],[-4.07043,40.4238],[-4.09742,40.41572],[-4.11317,40.40279]]]}},{"type":"Feature","id":"28094","properties":{"cod_mun":"28094","nombre":"Navalafuente","cod_prov":"28","cod_ccaa":"13"},"geometry":{"type":"Polygon","coordinates":[[[-3.70158,40.80024],[-3.65885,40.80508],[-3.6521,40.83417],[-3.67009,40.83417],[-3.70158,40.82447],[-3.70158,40.80024]]]}},{"type":"Feature","id":"28095","properties":{"cod_mun":"28095","nombre":"Navalagamella","cod_prov":"28","cod_ccaa":"13"},"geometry":{"type":"Polygon","coordinates":[[[-4.1694,40.43672],[-4.1559,40.40926],[-4.1649,40.39472],[-4.1469,40.36402],[-4.13566,40.37048],[-4.11092,40.38987],[-4.11317,40.40279],[-4.09742,40.41572],[-4.07043,40.4238],[-4.07943,40.44157],[-4.11767,40.49004],[-4.12891,40.52235],[-4.13341,40.51912],[-4.14016,40.50619],[-4.16265,40.46742],[-4.17389,40.46096],[-4.1694,40.43672]]]}},{"type":"Feature","id":"28096","properties":{"cod_mun":"28096","nombre":"Navalcarnero","cod_prov":"28","cod_ccaa":"13"},"geometry":{"type":"Polygon","coordinates":[[[-4.07943,40.26708],[-4.05244,40.25092],[-4.0232,40.24931],[-4.00296,40.25577],[-3.97597,40.25254],[-3.96922,40.23638],[-3.94673,40.22507],[-3.95123,40.25092],[-3.93774,40.24931],[-3.94448,40.26223],[-3.94223,40.29132],[-3.94223,40.29293],[-3.94223,40.29778],[-3.94223,40.29939],[-4.00746,40.33978],[-4.02545,40.33332],[-4.07043,40.33494],[-4.08618,40.29939],[-4.07943,40.26708]]]}},{"type":"Feature","id":"28120","properties":{"cod_mun":"28120","nombre":"Rascafría","cod_prov":"28","cod_ccaa":"13"},"geometry":{"type":"Polygon","coordinates":[[[-3.97822,40.78731],[-3.86127,40.81478],[-3.83878,40.81155],[-3.82978,40.81316],[-3.82978,40.83093],[-3.79829,40.84871],[-3.81853,40.86002],[-3.83878,40.87779],[-3.84327,40.9101],[-3.88151,40.93595],[-3.8995,40.95857],[-3.904,40.95695],[-3.91974,40.93757],[-3.93774,40.92787],[-3.94448,40.90364],[-3.94673,40.86325],[-3.96473,40.83417],[-3.96248,40.82286],[-3.98047,40.79862],[-3.97822,40.78731]]]}},{"type":"Feature","id":"28097","properties":{"cod_mun":"28097","nombre":"Navarredonda y San Mamés","cod_prov":"28","cod_ccaa":"13"},"geometry":{"type":"Polygon","coordinates":[[[-3.7713,41.01189],[-3.73756,40.97473],[-3.67909,40.9925],[-3.71282,41.02643],[-3.74881,41.03612],[-3.75556,41.02804],[-3.7668,41.01996],[-3.7713,41.01189]]]}},{"type":"Feature","id":"28099","properties":{"cod_mun":"28099","nombre":"Navas del Rey","cod_prov":"28","cod_ccaa":"13"},"geometry":{"type":"Polygon","coordinates":[[[-4.32459,40.41895],[-4.32009,40.41087],[-4.30434,40.40118],[-4.30434,40.36725],[-4.23687,40.32686],[-4.23237,40.33332],[-4.23687,40.36402],[-4.22787,40.38825],[-4.23462,40.3931],[-4.25261,40.40602],[-4.27286,40.42864],[-4.32459,40.41895]]]}},{"type":"Feature","id":"28100","properties":{"cod_mun":"28100","nombre":"Nuevo Baztán","cod_prov":"28","cod_ccaa":"13"},"geometry":{"type":"Polygon","coordinates":[[[-3.27874,40.39472],[-3.27425,40.38017],[-3.26975,40.36079],[-3.27874,40.34625],[-3.23376,40.35756],[-3.22701,40.38502],[-3.22027,40.40279],[-3.25625,40.3931],[-3.27874,40.39472]]]}},{"type":"Feature","id":"28101","properties":{"cod_mun":"28101","nombre":"Olmeda de las Fuentes","cod_prov":"28","cod_ccaa":"13"},"geometry":{"type":"Polygon","coordinates":[[[-3.23376,40.35756],[-3.20452,40.34463],[-3.17753,40.36079],[-3.17753,40.37371],[-3.20227,40.39148],[-3.22701,40.38502],[-3.23376,40.35756]]]}},{"type":"Feature","id":"28110","properties":{"cod_mun":"28110","nombre":"Perales de Tajuña","cod_prov":"28","cod_ccaa":"13"},"geometry":{"type":"Polygon","coordinates":[[[-3.42269,40.25416],[-3.4002,40.23962],[-3.39345,40.21861],[-3.37096,40.19922],[-3.35072,40.19761],[-3.32148,40.17822],[-3.29899,40.19115],[-3.31023,40.21861],[-3.33497,40.238],[-3.33497,40.26385],[-3.34847,40.27354],[-3.36871,40.26547],[-3.3957,40.24769],[-3.42269,40.25416]]]}},{"type":"Feature","id":"28111","properties":{"cod_mun":"28111","nombre":"Pezuela de las Torres","cod_prov":"28","cod_ccaa":"13"},"geometry":{"type":"Polygon","coordinates":[[[-3.22701,40.38502],[-3.20227,40.39148],[-3.17753,40.37371],[-3.15054,40.37371],[-3.1303,40.40441],[-3.14155,40.41249],[-3.15504,40.43995],[-3.19778,40.44157],[-3.21127,40.43511],[-3.22027,40.40279],[-3.22701,40.38502]]]}},{"type":"Feature","id":"28112","properties":{"cod_mun":"28112","nombre":"Pinilla del Valle","cod_prov":"28","cod_ccaa":"13"},"geometry":{"type":"Polygon","coordinates":[[[-3.88151,40.97311],[-3.85452,40.94888],[-3.80954,40.88748],[-3.78705,40.91333],[-3.82978,40.95049],[-3.84552,40.9828],[-3.87026,40.97149],[-3.87926,40.97473],[-3.88151,40.97311]]]}},{"type":"Feature","id":"28113","properties":{"cod_mun":"28113","nombre":"Pinto","cod_prov":"28","cod_ccaa":"13"},"geometry":{"type":"Polygon","coordinates":[[[-3.74206,40.25416],[-3.73307,40.21053],[-3.69933,40.19922],[-3.67684,40.22023],[-3.6431,40.22992],[-3.63186,40.259],[-3.62286,40.26708],[-3.6386,40.29132],[-3.64985,40.29293],[-3.67459,40.27677],[-3.71058,40.26708],[-3.73981,40.27031],[-3.74206,40.25416]]]}},{"type":"Feature","id":"28114","properties":{"cod_mun":"28114","nombre":"Piñuécar-Gandullas","cod_prov":"28","cod_ccaa":"13"},"geometry":{"type":"Polygon","coordinates":[[[-3.61836,41.0135],[-3.58013,40.99088],[-3.57563,41.02481],[-3.58687,41.0442],[-3.60712,41.05712],[-3.60936,41.07651],[-3.61611,41.07005],[-3.62286,41.05066],[-3.61161,41.02481],[-3.61836,41.0135]]]}},{"type":"Feature","id":"28121","properties":{"cod_mun":"28121","nombre":"Redueña","cod_prov":"28","cod_ccaa":"13"},"geometry":{"type":"Polygon","coordinates":[[[-3.61611,40.84063],[-3.61386,40.80993],[-3.59362,40.80185],[-3.59587,40.79054],[-3.57338,40.79054],[-3.57338,40.82124],[-3.60487,40.84224],[-3.61611,40.84063]]]}},{"type":"Feature","id":"28122","properties":{"cod_mun":"28122","nombre":"Ribatejada","cod_prov":"28","cod_ccaa":"13"},"geometry":{"type":"Polygon","coordinates":[[[-3.48341,40.67099],[-3.46542,40.66614],[-3.43393,40.64514],[-3.42044,40.64514],[-3.3822,40.6306],[-3.37995,40.63221],[-3.36646,40.6516],[-3.37546,40.68068],[-3.3822,40.68391],[-3.4002,40.69199],[-3.40469,40.66937],[-3.42494,40.6823],[-3.42719,40.6726],[-3.46767,40.69038],[-3.46767,40.66937],[-3.48341,40.67099]]]}},{"type":"Feature","id":"28123","properties":{"cod_mun":"28123","nombre":"Rivas-Vaciamadrid","cod_prov":"28","cod_ccaa":"13"},"geometry":{"type":"Polygon","coordinates":[[[-3.57563,40.31555],[-3.57113,40.28647],[-3.55089,40.29778],[-3.5194,40.29455],[-3.50591,40.30747],[-3.5104,40.31878],[-3.46992,40.31878],[-3.47217,40.33817],[-3.48566,40.3624],[-3.50815,40.36079],[-3.50141,40.37856],[-3.50366,40.40764],[-3.5194,40.40926],[-3.5194,40.39148],[-3.54189,40.3931],[-3.55314,40.35594],[-3.58238,40.32686],[-3.57563,40.31555]]]}},{"type":"Feature","id":"28124","properties":{"cod_mun":"28124","nombre":"Robledillo de la Jara","cod_prov":"28","cod_ccaa":"13"},"geometry":{"type":"Polygon","coordinates":[[[-3.56213,40.95695],[-3.54864,40.92141],[-3.53514,40.93434],[-3.50366,40.92464],[-3.48341,40.96342],[-3.49241,40.97796],[-3.5104,40.96503],[-3.54414,40.95534],[-3.56213,40.95695]]]}},{"type":"Feature","id":"28125","properties":{"cod_mun":"28125","nombre":"Robledo de Chavela","cod_prov":"28","cod_ccaa":"13"},"geometry":{"type":"Polygon","coordinates":[[[-4.33808,40.43187],[-4.32459,40.41895],[-4.27286,40.42864],[-4.25261,40.40602],[-4.23687,40.43187],[-4.21438,40.44803],[-4.21888,40.45773],[-4.20763,40.49812],[-4.17839,40.50781],[-4.14016,40.50619],[-4.13341,40.51912],[-4.15365,40.53204],[-4.17614,40.53043],[-4.21213,40.51912],[-4.19639,40.55951],[-4.21438,40.55466],[-4.23237,40.53204],[-4.26161,40.53043],[-4.26386,40.51266],[-4.2841,40.50296],[-4.2931,40.44642],[-4.33808,40.43187]]]}},{"type":"Feature","id":"28126","properties":{"cod_mun":"28126","nombre":"Robregordo","cod_prov":"28","cod_ccaa":"13"},"geometry":{"type":"Polygon","coordinates":[[[-3.64535,41.12175],[-3.63186,41.12013],[-3.60037,41.0959],[-3.56663,41.11367],[-3.58912,41.12013],[-3.59587,41.15244],[-3.61386,41.14921],[-3.62061,41.14275],[-3.63411,41.12498],[-3.64535,41.12175]]]}},{"type":"Feature","id":"28127","properties":{"cod_mun":"28127","nombre":"Rozas de Madrid, Las","cod_prov":"28","cod_ccaa":"13"},"geometry":{"type":"Polygon","coordinates":[[[-3.94448,40.55143],[-3.93999,40.50781],[-3.93324,40.49973],[-3.91075,40.50135],[-3.87701,40.48358],[-3.83653,40.4755],[-3.83653,40.50619],[-3.85227,40.50943],[-3.85452,40.52397],[-3.88601,40.57405],[-3.91974,40.55789],[-3.94448,40.55143]]]}},{"type":"Feature","id":"28128","properties":{"cod_mun":"28128","nombre":"Rozas de Puerto Real","cod_prov":"28","cod_ccaa":"13"},"geometry":{"type":"Polygon","coordinates":[[[-4.55625,40.26547],[-4.51801,40.27031],[-4.49327,40.27839],[-4.50676,40.28324],[-4.46628,40.30909],[-4.47303,40.3204],[-4.50452,40.31555],[-4.52701,40.34463],[-4.54725,40.3414],[-4.545,40.33009],[-4.52926,40.29293],[-4.55625,40.27677],[-4.55625,40.26547]]]}},{"type":"Feature","id":"28129","properties":{"cod_mun":"28129","nombre":"San Agustín del Guadalix","cod_prov":"28","cod_ccaa":"13"},"geometry":{"type":"Polygon","coordinates":[[[-3.67684,40.72269],[-3.68134,40.70815],[-3.64085,40.68876],[-3.64085,40.67099],[-3.6521,40.64837],[-3.6386,40.63868],[-3.61161,40.64998],[-3.59137,40.64837],[-3.59362,40.65483],[-3.60487,40.68068],[-3.60712,40.71461],[-3.65885,40.72592],[-3.67684,40.72269]]]}},{"type":"Feature","id":"28130","properties":{"cod_mun":"28130","nombre":"San Fernando de Henares","cod_prov":"28","cod_ccaa":"13"},"geometry":{"type":"Polygon","coordinates":[[[-3.53065,40.42057],[-3.5194,40.40926],[-3.50366,40.40764],[-3.44968,40.42218],[-3.44068,40.41249],[-3.42944,40.42703],[-3.41144,40.42541],[-3.42719,40.45288],[-3.44743,40.44642],[-3.48341,40.43187],[-3.49916,40.47227],[-3.53065,40.47065],[-3.53065,40.44642],[-3.53065,40.42057]]]}},{"type":"Feature","id":"28131","properties":{"cod_mun":"28131","nombre":"San Lorenzo de El Escorial","cod_prov":"28","cod_ccaa":"13"},"geometry":{"type":"Polygon","coordinates":[[[-4.16715,40.64837],[-4.17389,40.6306],[-4.1604,40.62413],[-4.16265,40.61444],[-4.19414,40.58374],[-4.19863,40.56759],[-4.16715,40.57082],[-4.1604,40.56274],[-4.14016,40.57567],[-4.13116,40.59828],[-4.09293,40.6306],[-4.05694,40.63706],[-4.0322,40.6306],[-4.0367,40.64352],[-4.05919,40.65322],[-4.09518,40.64998],[-4.13116,40.65483],[-4.16715,40.64837]]]}},{"type":"Feature","id":"28132","properties":{"cod_mun":"28132","nombre":"San Martín de la Vega","cod_prov":"28","cod_ccaa":"13"},"geometry":{"type":"Polygon","coordinates":[[[-3.6431,40.22992],[-3.59137,40.19599],[-3.55988,40.18953],[-3.5239,40.19761],[-3.49916,40.217],[-3.50591,40.23962],[-3.48341,40.25739],[-3.5194,40.29455],[-3.55089,40.29778],[-3.57113,40.28647],[-3.59587,40.28485],[-3.59587,40.27354],[-3.62286,40.26708],[-3.63186,40.259],[-3.6431,40.22992]]]}},{"type":"Feature","id":"28133","properties":{"cod_mun":"28133","nombre":"San Martín de Valdeiglesias","cod_prov":"28","cod_ccaa":"13"},"geometry":{"type":"Polygon","coordinates":[[[-4.30434,40.36725],[-4.30434,40.40118],[-4.32009,40.41087],[-4.39881,40.41087],[-4.4213,40.40602],[-4.44154,40.38825],[-4.43929,40.35109],[-4.46178,40.33978],[-4.45279,40.33332],[-4.41905,40.33171],[-4.38081,40.31878],[-4.35607,40.30909],[-4.32459,40.32524],[-4.29535,40.32201],[-4.26836,40.33171],[-4.23687,40.32686],[-4.30434,40.36725]],[[-4.30434,40.36725],[-4.32234,40.34463],[-4.34483,40.35432],[-4.33583,40.37533],[-4.30434,40.36725]]]}},{"type":"Feature","id":"28134","properties":{"cod_mun":"28134","nombre":"San Sebastián de los Reyes","cod_prov":"28","cod_ccaa":"13"},"geometry":{"type":"Polygon","coordinates":[[[-3.67459,40.58859],[-3.65435,40.55466],[-3.62511,40.54012],[-3.55314,40.53204],[-3.56663,40.55628],[-3.55539,40.57567],[-3.54414,40.5692],[-3.53964,40.58213],[-3.55764,40.58536],[-3.57788,40.60798],[-3.58462,40.62737],[-3.61161,40.62898],[-3.62511,40.61606],[-3.60262,40.59182],[-3.62511,40.57405],[-3.64985,40.57728],[-3.6566,40.58859],[-3.67459,40.58859]]]}},{"type":"Feature","id":"28135","properties":{"cod_mun":"28135","nombre":"Santa María de la Alameda","cod_prov":"28","cod_ccaa":"13"},"geometry":{"type":"MultiPolygon","coordinates":[[[[-4.1604,40.62413],[-4.21438,40.60636],[-4.26161,40.60475],[-4.27061,40.62898],[-4.29085,40.62737],[-4.2886,40.60636],[-4.2796,40.60475],[-4.2886,40.56436],[-4.27061,40.56113],[-4.25711,40.54658],[-4.26161,40.53043],[-4.23237,40.53204],[-4.21438,40.55466],[-4.19639,40.55951],[-4.16715,40.57082],[-4.19863,40.56759],[-4.19414,40.58374],[-4.16265,40.61444],[-4.1604,40.62413]]],[[[-4.2751,40.67745],[-4.2841,40.68068],[-4.31559,40.66614],[-4.32009,40.64837],[-4.2886,40.65322],[-4.25711,40.6516],[-4.25486,40.66129],[-4.2751,40.67745]]]]}},{"type":"Feature","id":"28136","properties":{"cod_mun":"28136","nombre":"Santorcaz","cod_prov":"28","cod_ccaa":"13"},"geometry":{"type":"Polygon","coordinates":[[[-3.2585,40.48358],[-3.23601,40.4448],[-3.21127,40.43511],[-3.19778,40.44157],[-3.19553,40.47873],[-3.20227,40.49812],[-3.22477,40.50458],[-3.2585,40.48358]]]}},{"type":"Feature","id":"28137","properties":{"cod_mun":"28137","nombre":"Santos de la Humosa, Los","cod_prov":"28","cod_ccaa":"13"},"geometry":{"type":"Polygon","coordinates":[[[-3.29899,40.49488],[-3.2585,40.48358],[-3.22477,40.50458],[-3.20227,40.49812],[-3.20002,40.51427],[-3.22252,40.52558],[-3.23151,40.54012],[-3.25175,40.54174],[-3.28999,40.53204],[-3.28549,40.5175],[-3.30798,40.50296],[-3.29899,40.49488]]]}},{"type":"Feature","id":"28138","properties":{"cod_mun":"28138","nombre":"Serna del Monte, La","cod_prov":"28","cod_ccaa":"13"},"geometry":{"type":"MultiPolygon","coordinates":[[[[-3.63411,41.02158],[-3.61836,41.0135],[-3.61161,41.02481],[-3.62286,41.05066],[-3.63635,41.02966],[-3.63411,41.02158]]],[[[-3.62286,41.05066],[-3.61611,41.07005],[-3.62736,41.06843],[-3.62286,41.05066]]]]}},{"type":"Feature","id":"28140","properties":{"cod_mun":"28140","nombre":"Serranillos del Valle","cod_prov":"28","cod_ccaa":"13"},"geometry":{"type":"Polygon","coordinates":[[[-3.904,40.23477],[-3.895,40.21053],[-3.89725,40.19599],[-3.92649,40.20084],[-3.91525,40.19115],[-3.88376,40.18953],[-3.87701,40.19115],[-3.86801,40.20084],[-3.88376,40.23154],[-3.904,40.23477]]]}},{"type":"Feature","id":"28146","properties":{"cod_mun":"28146","nombre":"Tielmes","cod_prov":"28","cod_ccaa":"13"},"geometry":{"type":"Polygon","coordinates":[[[-3.33497,40.26385],[-3.33497,40.238],[-3.31023,40.21861],[-3.29899,40.19115],[-3.26975,40.21538],[-3.28549,40.26223],[-3.33497,40.26385]]]}},{"type":"Feature","id":"28147","properties":{"cod_mun":"28147","nombre":"Titulcia","cod_prov":"28","cod_ccaa":"13"},"geometry":{"type":"Polygon","coordinates":[[[-3.58462,40.12814],[-3.55764,40.12491],[-3.55089,40.14268],[-3.53514,40.14914],[-3.54639,40.16853],[-3.56213,40.17176],[-3.56663,40.14914],[-3.58462,40.12814]]]}},{"type":"Feature","id":"28141","properties":{"cod_mun":"28141","nombre":"Sevilla la Nueva","cod_prov":"28","cod_ccaa":"13"},"geometry":{"type":"Polygon","coordinates":[[[-4.07493,40.34302],[-4.07043,40.33494],[-4.02545,40.33332],[-4.00746,40.33978],[-4.00521,40.35917],[-4.03445,40.37856],[-4.05919,40.37533],[-4.07718,40.35756],[-4.07493,40.34302]]]}},{"type":"Feature","id":"28143","properties":{"cod_mun":"28143","nombre":"Somosierra","cod_prov":"28","cod_ccaa":"13"},"geometry":{"type":"Polygon","coordinates":[[[-3.61386,41.14921],[-3.59587,41.15244],[-3.58912,41.12013],[-3.56663,41.11367],[-3.56438,41.11367],[-3.54639,41.13467],[-3.54189,41.14921],[-3.53964,41.16537],[-3.58238,41.16214],[-3.61386,41.14921]]]}},{"type":"Feature","id":"28144","properties":{"cod_mun":"28144","nombre":"Soto del Real","cod_prov":"28","cod_ccaa":"13"},"geometry":{"type":"Polygon","coordinates":[[[-3.83878,40.81155],[-3.82978,40.79378],[-3.81853,40.73884],[-3.80054,40.71138],[-3.78255,40.70492],[-3.73307,40.73077],[-3.73981,40.74692],[-3.76006,40.76146],[-3.80729,40.776],[-3.82978,40.81316],[-3.83878,40.81155]]]}},{"type":"Feature","id":"28145","properties":{"cod_mun":"28145","nombre":"Talamanca de Jarama","cod_prov":"28","cod_ccaa":"13"},"geometry":{"type":"Polygon","coordinates":[[[-3.54414,40.73561],[-3.52615,40.73238],[-3.49691,40.71461],[-3.46992,40.70653],[-3.46767,40.69038],[-3.43618,40.72269],[-3.43843,40.73561],[-3.44968,40.73238],[-3.45193,40.73884],[-3.48117,40.74692],[-3.49016,40.76793],[-3.50591,40.77923],[-3.49916,40.78893],[-3.51265,40.78893],[-3.50815,40.78247],[-3.54414,40.73561]]]}},{"type":"Feature","id":"28148","properties":{"cod_mun":"28148","nombre":"Torrejón de Ardoz","cod_prov":"28","cod_ccaa":"13"},"geometry":{"type":"Polygon","coordinates":[[[-3.49916,40.47227],[-3.48341,40.43187],[-3.44743,40.44642],[-3.42494,40.47227],[-3.42944,40.51104],[-3.43618,40.50943],[-3.46767,40.49327],[-3.47892,40.49488],[-3.47667,40.48842],[-3.49916,40.47227]]]}},{"type":"Feature","id":"28149","properties":{"cod_mun":"28149","nombre":"Torrejón de la Calzada","cod_prov":"28","cod_ccaa":"13"},"geometry":{"type":"Polygon","coordinates":[[[-3.82078,40.20569],[-3.80729,40.17661],[-3.80054,40.17499],[-3.7803,40.20892],[-3.80279,40.22023],[-3.82078,40.20569]]]}},{"type":"Feature","id":"28150","properties":{"cod_mun":"28150","nombre":"Torrejón de Velasco","cod_prov":"28","cod_ccaa":"13"},"geometry":{"type":"Polygon","coordinates":[[[-3.80054,40.17499],[-3.7713,40.13945],[-3.74206,40.1346],[-3.71732,40.14591],[-3.69933,40.16045],[-3.70833,40.17822],[-3.69933,40.19922],[-3.73307,40.21053],[-3.74431,40.20084],[-3.7803,40.20892],[-3.80054,40.17499]]]}},{"type":"Feature","id":"28151","properties":{"cod_mun":"28151","nombre":"Torrelaguna","cod_prov":"28","cod_ccaa":"13"},"geometry":{"type":"Polygon","coordinates":[[[-3.60487,40.84224],[-3.57338,40.82124],[-3.57338,40.79054],[-3.51265,40.78893],[-3.50141,40.79701],[-3.5149,40.80347],[-3.50591,40.81801],[-3.5104,40.8374],[-3.53739,40.86325],[-3.57113,40.85032],[-3.60487,40.84224]]]}},{"type":"Feature","id":"28152","properties":{"cod_mun":"28152","nombre":"Torrelodones","cod_prov":"28","cod_ccaa":"13"},"geometry":{"type":"Polygon","coordinates":[[[-3.95348,40.59667],[-3.96023,40.57728],[-3.94448,40.55143],[-3.91974,40.55789],[-3.88601,40.57405],[-3.88376,40.58536],[-3.95348,40.59667]]]}},{"type":"Feature","id":"28153","properties":{"cod_mun":"28153","nombre":"Torremocha de Jarama","cod_prov":"28","cod_ccaa":"13"},"geometry":{"type":"Polygon","coordinates":[[[-3.53739,40.86325],[-3.5104,40.8374],[-3.50591,40.81801],[-3.5149,40.80347],[-3.50141,40.79701],[-3.47667,40.82609],[-3.46992,40.85194],[-3.50815,40.84548],[-3.5239,40.87617],[-3.53739,40.86325]]]}},{"type":"Feature","id":"28154","properties":{"cod_mun":"28154","nombre":"Torres de la Alameda","cod_prov":"28","cod_ccaa":"13"},"geometry":{"type":"Polygon","coordinates":[[[-3.42719,40.45288],[-3.41144,40.42541],[-3.37096,40.37533],[-3.35297,40.36725],[-3.31923,40.38341],[-3.31248,40.40118],[-3.33047,40.4238],[-3.35072,40.42541],[-3.40919,40.45288],[-3.42719,40.45288]]]}},{"type":"Feature","id":"28156","properties":{"cod_mun":"28156","nombre":"Valdeavero","cod_prov":"28","cod_ccaa":"13"},"geometry":{"type":"Polygon","coordinates":[[[-3.3822,40.60798],[-3.33947,40.59667],[-3.33047,40.60152],[-3.32148,40.61121],[-3.33722,40.62575],[-3.32373,40.62898],[-3.31698,40.65483],[-3.32822,40.64029],[-3.36646,40.6516],[-3.37995,40.63221],[-3.37096,40.62575],[-3.3822,40.60798]]]}},{"type":"Feature","id":"28157","properties":{"cod_mun":"28157","nombre":"Valdelaguna","cod_prov":"28","cod_ccaa":"13"},"geometry":{"type":"Polygon","coordinates":[[[-3.42269,40.19761],[-3.40919,40.1863],[-3.38445,40.1346],[-3.37771,40.13298],[-3.33947,40.15076],[-3.32148,40.17822],[-3.35072,40.19761],[-3.37096,40.19922],[-3.39345,40.21861],[-3.42269,40.19761]]]}},{"type":"Feature","id":"28163","properties":{"cod_mun":"28163","nombre":"Valdepiélagos","cod_prov":"28","cod_ccaa":"13"},"geometry":{"type":"Polygon","coordinates":[[[-3.44743,40.76469],[-3.46767,40.78408],[-3.49916,40.78893],[-3.50591,40.77923],[-3.49016,40.76793],[-3.48117,40.74692],[-3.45193,40.73884],[-3.44743,40.76469]]]}},{"type":"Feature","id":"28164","properties":{"cod_mun":"28164","nombre":"Valdetorres de Jarama","cod_prov":"28","cod_ccaa":"13"},"geometry":{"type":"Polygon","coordinates":[[[-3.55764,40.66129],[-3.52615,40.67099],[-3.48341,40.66776],[-3.48341,40.67099],[-3.46767,40.66937],[-3.46767,40.69038],[-3.46992,40.70653],[-3.49691,40.71461],[-3.52615,40.73238],[-3.53289,40.70492],[-3.55089,40.69038],[-3.55764,40.66129]]]}},{"type":"Feature","id":"28167","properties":{"cod_mun":"28167","nombre":"Velilla de San Antonio","cod_prov":"28","cod_ccaa":"13"},"geometry":{"type":"Polygon","coordinates":[[[-3.50141,40.37856],[-3.50815,40.36079],[-3.48566,40.3624],[-3.47217,40.33817],[-3.45418,40.34302],[-3.45193,40.35756],[-3.46542,40.38825],[-3.50141,40.37856]]]}},{"type":"Feature","id":"28168","properties":{"cod_mun":"28168","nombre":"Vellón, El","cod_prov":"28","cod_ccaa":"13"},"geometry":{"type":"Polygon","coordinates":[[[-3.60936,40.7857],[-3.60936,40.77923],[-3.59362,40.75015],[-3.57338,40.74854],[-3.54414,40.73561],[-3.50815,40.78247],[-3.51265,40.78893],[-3.57338,40.79054],[-3.59587,40.79054],[-3.60936,40.7857]]]}},{"type":"Feature","id":"28170","properties":{"cod_mun":"28170","nombre":"Villaconejos","cod_prov":"28","cod_ccaa":"13"},"geometry":{"type":"Polygon","coordinates":[[[-3.54864,40.10229],[-3.50366,40.08452],[-3.47892,40.08936],[-3.45193,40.11844],[-3.48341,40.13783],[-3.52165,40.13622],[-3.54864,40.10229]]]}},{"type":"Feature","id":"28171","properties":{"cod_mun":"28171","nombre":"Villa del Prado","cod_prov":"28","cod_ccaa":"13"},"geometry":{"type":"Polygon","coordinates":[[[-4.35607,40.30909],[-4.35607,40.27031],[-4.34483,40.25254],[-4.34933,40.23638],[-4.32234,40.22669],[-4.31109,40.23477],[-4.29535,40.21861],[-4.27061,40.23638],[-4.24587,40.27354],[-4.23237,40.27677],[-4.25486,40.28808],[-4.29535,40.32201],[-4.32459,40.32524],[-4.35607,40.30909]]]}},{"type":"Feature","id":"28172","properties":{"cod_mun":"28172","nombre":"Villalbilla","cod_prov":"28","cod_ccaa":"13"},"geometry":{"type":"Polygon","coordinates":[[[-3.40919,40.45288],[-3.35072,40.42541],[-3.33047,40.4238],[-3.29674,40.42541],[-3.28774,40.41895],[-3.2675,40.43995],[-3.32148,40.47227],[-3.35746,40.44803],[-3.3912,40.45934],[-3.40919,40.45288]]]}},{"type":"Feature","id":"28173","properties":{"cod_mun":"28173","nombre":"Villamanrique de Tajo","cod_prov":"28","cod_ccaa":"13"},"geometry":{"type":"Polygon","coordinates":[[[-3.28549,40.0522],[-3.24276,40.05382],[-3.20227,40.06674],[-3.18878,40.0829],[-3.20002,40.08613],[-3.22027,40.06997],[-3.22926,40.08613],[-3.2585,40.11198],[-3.27425,40.10229],[-3.28549,40.0522]]]}},{"type":"Feature","id":"28174","properties":{"cod_mun":"28174","nombre":"Villamanta","cod_prov":"28","cod_ccaa":"13"},"geometry":{"type":"Polygon","coordinates":[[[-4.17165,40.28808],[-4.16715,40.27354],[-4.14466,40.26385],[-4.14466,40.24446],[-4.13116,40.24931],[-4.10417,40.24123],[-4.07943,40.26708],[-4.08618,40.29939],[-4.07043,40.33494],[-4.07493,40.34302],[-4.10192,40.33655],[-4.12441,40.32201],[-4.1649,40.32847],[-4.1694,40.31878],[-4.17165,40.28808]]]}},{"type":"Feature","id":"28175","properties":{"cod_mun":"28175","nombre":"Villamantilla","cod_prov":"28","cod_ccaa":"13"},"geometry":{"type":"Polygon","coordinates":[[[-4.18739,40.33817],[-4.1694,40.31878],[-4.1649,40.32847],[-4.12441,40.32201],[-4.10192,40.33655],[-4.11992,40.36402],[-4.13566,40.37048],[-4.1469,40.36402],[-4.1514,40.35594],[-4.18289,40.34786],[-4.18739,40.33817]]]}},{"type":"Feature","id":"28176","properties":{"cod_mun":"28176","nombre":"Villanueva de la Cañada","cod_prov":"28","cod_ccaa":"13"},"geometry":{"type":"Polygon","coordinates":[[[-4.0412,40.44803],[-4.02545,40.42864],[-4.01421,40.43511],[-3.98047,40.43672],[-3.96922,40.41733],[-3.94673,40.40764],[-3.94898,40.4141],[-3.94448,40.45449],[-3.93774,40.48519],[-3.97372,40.45773],[-3.99396,40.47227],[-4.01421,40.47065],[-4.0412,40.44803]]]}},{"type":"Feature","id":"28177","properties":{"cod_mun":"28177","nombre":"Villanueva del Pardillo","cod_prov":"28","cod_ccaa":"13"},"geometry":{"type":"Polygon","coordinates":[[[-4.00071,40.48519],[-3.99396,40.47227],[-3.97372,40.45773],[-3.93774,40.48519],[-3.93324,40.49973],[-3.93999,40.50781],[-3.96698,40.51912],[-3.98497,40.51589],[-4.00071,40.48519]]]}},{"type":"Feature","id":"28178","properties":{"cod_mun":"28178","nombre":"Villanueva de Perales","cod_prov":"28","cod_ccaa":"13"},"geometry":{"type":"Polygon","coordinates":[[[-4.13566,40.37048],[-4.11992,40.36402],[-4.10192,40.33655],[-4.07493,40.34302],[-4.07718,40.35756],[-4.05919,40.37533],[-4.03445,40.37856],[-4.04569,40.38825],[-4.07493,40.39795],[-4.11317,40.40279],[-4.11092,40.38987],[-4.13566,40.37048]]]}},{"type":"Feature","id":"28179","properties":{"cod_mun":"28179","nombre":"Villar del Olmo","cod_prov":"28","cod_ccaa":"13"},"geometry":{"type":"Polygon","coordinates":[[[-3.28774,40.33332],[-3.25175,40.30424],[-3.21577,40.31232],[-3.20452,40.3204],[-3.20452,40.34463],[-3.23376,40.35756],[-3.27874,40.34625],[-3.28774,40.33332]]]}},{"type":"Feature","id":"28180","properties":{"cod_mun":"28180","nombre":"Villarejo de Salvanés","cod_prov":"28","cod_ccaa":"13"},"geometry":{"type":"Polygon","coordinates":[[[-3.34847,40.09744],[-3.34397,40.07967],[-3.32822,40.07967],[-3.30348,40.05382],[-3.29224,40.0522],[-3.28549,40.0522],[-3.27425,40.10229],[-3.2585,40.11198],[-3.22926,40.08613],[-3.22027,40.06997],[-3.20002,40.08613],[-3.20452,40.11521],[-3.19778,40.1556],[-3.21802,40.16368],[-3.22252,40.18468],[-3.24726,40.18307],[-3.26975,40.20084],[-3.26975,40.21538],[-3.29899,40.19115],[-3.32148,40.17822],[-3.29674,40.13137],[-3.30798,40.13137],[-3.34847,40.09744]]]}},{"type":"Feature","id":"28181","properties":{"cod_mun":"28181","nombre":"Villaviciosa de Odón","cod_prov":"28","cod_ccaa":"13"},"geometry":{"type":"Polygon","coordinates":[[[-4.00746,40.33978],[-3.94223,40.29939],[-3.94448,40.32363],[-3.93549,40.33817],[-3.88151,40.35432],[-3.87026,40.35271],[-3.87926,40.37048],[-3.86801,40.37694],[-3.89051,40.39795],[-3.93774,40.41572],[-3.94898,40.4141],[-3.94673,40.40764],[-3.94898,40.36887],[-3.98047,40.37048],[-4.00521,40.35917],[-4.00746,40.33978]]]}},{"type":"Feature","id":"28182","properties":{"cod_mun":"28182","nombre":"Villavieja del Lozoya","cod_prov":"28","cod_ccaa":"13"},"geometry":{"type":"Polygon","coordinates":[[[-3.75556,41.02804],[-3.74881,41.03612],[-3.71282,41.02643],[-3.67909,40.9925],[-3.66559,40.99573],[-3.65435,41.00704],[-3.66559,41.01027],[-3.72182,41.0652],[-3.73981,41.05389],[-3.75556,41.02804]]]}},{"type":"Feature","id":"28183","properties":{"cod_mun":"28183","nombre":"Zarzalejo","cod_prov":"28","cod_ccaa":"13"},"geometry":{"type":"Polygon","coordinates":[[[-4.19639,40.55951],[-4.21213,40.51912],[-4.17614,40.53043],[-4.15365,40.53204],[-4.14915,40.55466],[-4.1604,40.56274],[-4.16715,40.57082],[-4.19639,40.55951]]]}},{"type":"Feature","id":"28901","properties":{"cod_mun":"28901","nombre":"Lozoyuela-Navas-Sieteiglesias","cod_prov":"28","cod_ccaa":"13"},"geometry":{"type":"Polygon","coordinates":[[[-3.67459,40.89233],[-3.64985,40.8794],[-3.60037,40.8891],[-3.60262,40.89394],[-3.56888,40.90364],[-3.57563,40.91818],[-3.56888,40.93272],[-3.58462,40.94888],[-3.61386,40.9408],[-3.62961,40.9618],[-3.64535,40.95372],[-3.67459,40.89233]]]}},{"type":"Feature","id":"28902","properties":{"cod_mun":"28902","nombre":"Puentes Viejas","cod_prov":"28","cod_ccaa":"13"},"geometry":{"type":"Polygon","coordinates":[[[-3.62961,40.9618],[-3.61386,40.9408],[-3.58462,40.94888],[-3.56888,40.93272],[-3.57563,40.91818],[-3.56888,40.90364],[-3.54414,40.90525],[-3.54864,40.92141],[-3.56213,40.95695],[-3.55089,40.97796],[-3.49691,40.99411],[-3.49241,41.01189],[-3.51265,41.02158],[-3.55764,41.02966],[-3.57563,41.02481],[-3.58013,40.99088],[-3.62961,40.9618]]]}},{"type":"Feature","id":"28903","properties":{"cod_mun":"28903","nombre":"Tres Cantos","cod_prov":"28","cod_ccaa":"13"},"geometry":{"type":"Polygon","coordinates":[[[-3.80954,40.60959],[-3.80279,40.59828],[-3.77805,40.60152],[-3.71957,40.58213],[-3.69708,40.59021],[-3.68808,40.60636],[-3.66784,40.61929],[-3.66784,40.62898],[-3.71732,40.64514],[-3.74206,40.62898],[-3.73981,40.61121],[-3.78929,40.61929],[-3.80954,40.60959]]]}}]}