{"type":"FeatureCollection","features":[{"type":"Feature","properties":{"id":"0304701001"},"geometry":{"type":"Polygon","coordinates":[[[0.0454,38.64529],[0.04598,38.64443],[0.04486,38.64382],[0.04385,38.64369],[0.04339,38.64324],[0.04317,38.64235],[0.04237,38.64244],[0.04239,38.6423],[0.04225,38.64217],[0.04203,38.64227],[0.04211,38.64238],[0.04177,38.64271],[0.04157,38.6431],[0.04075,38.64304],[0.03959,38.64334],[0.03946,38.64276],[0.03869,38.64292],[0.03809,38.64336],[0.03802,38.64361],[0.03721,38.6435],[0.03709,38.64382],[0.0369,38.64379],[0.03682,38.64409],[0.03756,38.64431],[0.03787,38.64403],[0.04117,38.64464],[0.04233,38.64454],[0.04478,38.64556],[0.0454,38.64529]]]}},{"type":"Feature","properties":{"id":"0304701002"},"geometry":{"type":"Polygon","coordinates":[[[0.04614,38.64481],[0.04593,38.64453],[0.0454,38.64529],[0.04478,38.64556],[0.04233,38.64454],[0.04117,38.64464],[0.03787,38.64403],[0.0374,38.64455],[0.03732,38.64516],[0.03899,38.64515],[0.04029,38.6457],[0.04149,38.64585],[0.04357,38.64634],[0.04566,38.64647],[0.0462,38.64596],[0.04561,38.64597],[0.0461,38.6452],[0.04614,38.64481]]]}},{"type":"Feature","properties":{"id":"0304701003"},"geometry":{"type":"Polygon","coordinates":[[[0.04971,38.64766],[0.04908,38.64692],[0.04811,38.64604],[0.0478,38.64559],[0.04744,38.64458],[0.04701,38.64388],[0.04648,38.64414],[0.04653,38.64422],[0.04604,38.64462],[0.04614,38.64481],[0.0461,38.6452],[0.04561,38.64597],[0.0462,38.64596],[0.04566,38.64647],[0.04539,38.64645],[0.04619,38.64714],[0.04665,38.64787],[0.047,38.64814],[0.04679,38.64877],[0.04678,38.64949],[0.04793,38.64986],[0.04883,38.64868],[0.04916,38.64798],[0.0493,38.64781],[0.04971,38.64766]]]}},{"type":"Feature","properties":{"id":"0304701004"},"geometry":{"type":"Polygon","coordinates":[[[0.0531,38.64551],[0.0536,38.6446],[0.05299,38.64382],[0.05162,38.64242],[0.05125,38.64191],[0.04701,38.64388],[0.04744,38.64458],[0.0478,38.64559],[0.04811,38.64604],[0.04908,38.64692],[0.04971,38.64766],[0.05023,38.64736],[0.0514,38.64707],[0.05176,38.64689],[0.05206,38.64639],[0.0531,38.64551]]]}},{"type":"Feature","properties":{"id":"0304701005"},"geometry":{"type":"Polygon","coordinates":[[[0.04648,38.64414],[0.05082,38.64216],[0.05158,38.64172],[0.04993,38.6417],[0.04834,38.64141],[0.04697,38.64133],[0.04691,38.64196],[0.04663,38.64194],[0.04633,38.64235],[0.04596,38.64252],[0.04515,38.64251],[0.0448,38.64199],[0.04317,38.64235],[0.04339,38.64324],[0.04385,38.64369],[0.04486,38.64382],[0.04598,38.64443],[0.04593,38.64453],[0.04604,38.64462],[0.04653,38.64422],[0.04648,38.64414]]]}},{"type":"Feature","properties":{"id":"0304702001"},"geometry":{"type":"Polygon","coordinates":[[[0.03459,38.66356],[0.03522,38.66237],[0.03528,38.66204],[0.03487,38.66141],[0.03722,38.65547],[0.03785,38.65076],[0.03769,38.64947],[0.03732,38.64862],[0.03673,38.64791],[0.03437,38.64563],[0.03551,38.6456],[0.03611,38.64536],[0.037,38.64524],[0.03732,38.6451],[0.03737,38.64466],[0.03756,38.64431],[0.03682,38.64409],[0.0369,38.64379],[0.03709,38.64382],[0.03721,38.6435],[0.03802,38.64361],[0.03809,38.64336],[0.03869,38.64292],[0.03946,38.64276],[0.03959,38.64334],[0.04075,38.64304],[0.04157,38.6431],[0.04177,38.64271],[0.04211,38.64238],[0.04203,38.64227],[0.04225,38.64217],[0.04239,38.6423],[0.04237,38.64244],[0.04304,38.6424],[0.0448,38.64199],[0.04515,38.64251],[0.04596,38.64252],[0.04633,38.64235],[0.04663,38.64194],[0.04691,38.64196],[0.04697,38.64133],[0.04593,38.64109],[0.04462,38.64057],[0.04364,38.63997],[0.04265,38.63912],[0.04105,38.63877],[0.04015,38.63841],[0.03972,38.63795],[0.03951,38.63724],[0.03929,38.63707],[0.03637,38.6365],[0.03546,38.6362],[0.03489,38.63582],[0.0346,38.63532],[0.03414,38.63512],[0.03388,38.63488],[0.03396,38.63424],[0.03429,38.63404],[0.03432,38.63379],[0.03157,38.63238],[0.03111,38.63192],[0.03054,38.63155],[0.03035,38.63114],[0.03039,38.6302],[0.03095,38.62994],[0.03097,38.62932],[0.0313,38.62894],[0.03119,38.62874],[0.03095,38.62863],[0.03069,38.62871],[0.03033,38.62854],[0.02984,38.62873],[0.0296,38.62861],[0.02952,38.62847],[0.02971,38.62823],[0.03041,38.6279],[0.03089,38.62703],[0.03106,38.62687],[0.03109,38.62636],[0.03099,38.62615],[0.03057,38.6259],[0.03011,38.62592],[0.02927,38.62574],[0.02892,38.6258],[0.02823,38.62624],[0.02743,38.62653],[0.0256,38.62755],[0.02474,38.62766],[0.0244,38.62792],[0.02209,38.62845],[0.02038,38.62931],[0.01808,38.62989],[0.01687,38.6299],[0.01632,38.63],[0.01454,38.63125],[0.01401,38.63142],[0.01341,38.63142],[0.01091,38.63264],[0.01097,38.63324],[0.00993,38.6336],[0.00888,38.63324],[0.00779,38.63392],[0.00735,38.63396],[0.00704,38.63411],[0.00652,38.63445],[0.00645,38.63517],[0.00619,38.63582],[0.00624,38.63605],[0.00704,38.63613],[0.00726,38.63762],[-0.00668,38.6434],[-0.00656,38.6435],[-0.00635,38.6434],[0.00044,38.64931],[0.00991,38.65228],[0.01217,38.65292],[0.01369,38.65324],[0.01445,38.65353],[0.0182,38.65554],[0.02013,38.65711],[0.02229,38.65859],[0.02501,38.65995],[0.0265,38.66052],[0.02781,38.66116],[0.02882,38.66175],[0.02933,38.66227],[0.03068,38.66309],[0.03195,38.66365],[0.03314,38.66396],[0.03371,38.66403],[0.0342,38.66385],[0.03459,38.66356]]]}},{"type":"Feature","properties":{"id":"0304702002"},"geometry":{"type":"Polygon","coordinates":[[[0.05357,38.64467],[0.05396,38.64478],[0.05432,38.64589],[0.06283,38.64531],[0.06352,38.64552],[0.06445,38.64622],[0.06548,38.64762],[0.06717,38.64893],[0.06771,38.64975],[0.07178,38.65173],[0.07213,38.65181],[0.07309,38.65163],[0.07378,38.65183],[0.07772,38.6522],[0.07775,38.65189],[0.07798,38.65154],[0.0791,38.65126],[0.07914,38.65096],[0.07879,38.65051],[0.07861,38.65004],[0.07825,38.64968],[0.07659,38.64877],[0.07575,38.64812],[0.07513,38.64733],[0.07458,38.64627],[0.07395,38.64411],[0.07345,38.64214],[0.07352,38.6416],[0.07387,38.64089],[0.07419,38.6409],[0.07496,38.6412],[0.07542,38.64122],[0.07562,38.64103],[0.07553,38.64062],[0.07514,38.64004],[0.07502,38.63967],[0.07518,38.63928],[0.0755,38.63907],[0.0757,38.6388],[0.07565,38.63848],[0.07539,38.63816],[0.07544,38.63791],[0.07613,38.63706],[0.07671,38.63609],[0.07726,38.63578],[0.07887,38.6356],[0.07955,38.63538],[0.08028,38.63495],[0.08118,38.63411],[0.08202,38.63307],[0.08257,38.63269],[0.08287,38.63234],[0.08308,38.6318],[0.08293,38.63149],[0.0825,38.63116],[0.08195,38.63108],[0.0808,38.63137],[0.07851,38.63173],[0.07668,38.63249],[0.07521,38.63286],[0.07481,38.63279],[0.07432,38.63223],[0.07396,38.63207],[0.07338,38.63214],[0.07238,38.63298],[0.07161,38.63326],[0.07139,38.6336],[0.07111,38.63502],[0.07132,38.63551],[0.07124,38.63573],[0.07017,38.63563],[0.06996,38.63572],[0.06996,38.63594],[0.07119,38.63652],[0.07151,38.63679],[0.07158,38.63743],[0.07157,38.63801],[0.07123,38.63867],[0.07072,38.63919],[0.07037,38.63941],[0.06947,38.63907],[0.06906,38.6392],[0.06847,38.63972],[0.06811,38.63981],[0.06786,38.6397],[0.06758,38.63977],[0.06747,38.64005],[0.06727,38.64019],[0.0669,38.64011],[0.06661,38.63995],[0.06636,38.63998],[0.06599,38.64035],[0.06539,38.64042],[0.06369,38.64035],[0.06317,38.64042],[0.0629,38.64058],[0.06285,38.64088],[0.06247,38.64098],[0.06046,38.64079],[0.05994,38.64094],[0.05973,38.64119],[0.05941,38.64136],[0.05891,38.64137],[0.05852,38.64175],[0.05818,38.64185],[0.05638,38.64176],[0.05512,38.64196],[0.05158,38.64172],[0.05125,38.64191],[0.05162,38.64242],[0.05299,38.64382],[0.0536,38.6446],[0.05357,38.64467]]]}},{"type":"Feature","properties":{"id":"0304702003"},"geometry":{"type":"Polygon","coordinates":[[[0.03732,38.6451],[0.037,38.64524],[0.03611,38.64536],[0.03551,38.6456],[0.03437,38.64563],[0.03673,38.64791],[0.03732,38.64862],[0.03769,38.64947],[0.03785,38.65076],[0.03722,38.65547],[0.03487,38.66141],[0.03528,38.66204],[0.03522,38.66237],[0.03459,38.66356],[0.03534,38.66268],[0.03678,38.66318],[0.0373,38.66327],[0.03829,38.66305],[0.0406,38.66395],[0.04395,38.6672],[0.03851,38.67363],[0.03829,38.6769],[0.03832,38.67709],[0.03895,38.67791],[0.03905,38.67785],[0.03933,38.67807],[0.04134,38.6771],[0.04438,38.67429],[0.04603,38.675],[0.04628,38.67496],[0.04877,38.67278],[0.04983,38.67272],[0.04943,38.67396],[0.04948,38.67463],[0.04988,38.6763],[0.04983,38.67663],[0.04956,38.67694],[0.05068,38.67881],[0.05312,38.67914],[0.05522,38.67904],[0.06026,38.68061],[0.06458,38.68004],[0.06844,38.68066],[0.06934,38.6782],[0.06936,38.67747],[0.07141,38.67572],[0.07122,38.67517],[0.07122,38.67422],[0.07084,38.67394],[0.07083,38.67361],[0.07058,38.6731],[0.06956,38.67152],[0.06876,38.66999],[0.0667,38.66703],[0.06568,38.666],[0.06475,38.66367],[0.06358,38.66251],[0.06336,38.66215],[0.06243,38.66147],[0.06178,38.66077],[0.0607,38.66025],[0.05977,38.65997],[0.05847,38.65867],[0.05829,38.65832],[0.05861,38.65675],[0.05846,38.65644],[0.05747,38.65555],[0.05699,38.65434],[0.05641,38.65438],[0.05589,38.65431],[0.05586,38.65369],[0.05481,38.65231],[0.05418,38.6518],[0.05273,38.65134],[0.05224,38.65105],[0.05164,38.65002],[0.05028,38.64824],[0.04971,38.64766],[0.0493,38.64781],[0.04916,38.64798],[0.04883,38.64868],[0.04793,38.64986],[0.04678,38.64949],[0.04679,38.64877],[0.047,38.64814],[0.04665,38.64787],[0.04619,38.64714],[0.04539,38.64645],[0.04357,38.64634],[0.04149,38.64585],[0.04029,38.6457],[0.03899,38.64515],[0.03732,38.64516],[0.03732,38.6451]]]}},{"type":"Feature","properties":{"id":"0304702004"},"geometry":{"type":"Polygon","coordinates":[[[0.07772,38.6522],[0.07378,38.65183],[0.07309,38.65163],[0.07213,38.65181],[0.07178,38.65173],[0.06771,38.64975],[0.06717,38.64893],[0.06548,38.64762],[0.06445,38.64622],[0.06352,38.64552],[0.06283,38.64531],[0.05432,38.64589],[0.05396,38.64478],[0.05357,38.64467],[0.0531,38.64551],[0.05206,38.64639],[0.05176,38.64689],[0.0514,38.64707],[0.05023,38.64736],[0.04971,38.64766],[0.05028,38.64824],[0.05164,38.65002],[0.05224,38.65105],[0.05273,38.65134],[0.05418,38.6518],[0.05481,38.65231],[0.05586,38.65369],[0.05589,38.65431],[0.05641,38.65438],[0.05699,38.65434],[0.05747,38.65555],[0.05846,38.65644],[0.05861,38.65675],[0.05829,38.65832],[0.05847,38.65867],[0.05912,38.65941],[0.05977,38.65997],[0.0607,38.66025],[0.06178,38.66077],[0.06243,38.66147],[0.06336,38.66215],[0.06358,38.66251],[0.06475,38.66367],[0.06568,38.666],[0.0667,38.66703],[0.06876,38.66999],[0.06956,38.67152],[0.07058,38.6731],[0.07083,38.67361],[0.07084,38.67394],[0.07122,38.67422],[0.07122,38.67517],[0.07141,38.67572],[0.0722,38.67508],[0.07494,38.67079],[0.07524,38.66885],[0.07474,38.66805],[0.07502,38.66782],[0.07476,38.6677],[0.07483,38.66763],[0.07462,38.66748],[0.07493,38.6671],[0.07474,38.66706],[0.07477,38.66649],[0.07656,38.66516],[0.07839,38.66421],[0.07932,38.66329],[0.08019,38.66283],[0.08159,38.66172],[0.08237,38.6617],[0.08319,38.66186],[0.08345,38.66195],[0.08379,38.66224],[0.08417,38.6623],[0.08426,38.66124],[0.08487,38.65953],[0.08391,38.65897],[0.08294,38.65858],[0.08267,38.65789],[0.08192,38.65741],[0.08193,38.65721],[0.08224,38.6568],[0.08178,38.65644],[0.08118,38.65615],[0.0808,38.65578],[0.08052,38.65519],[0.07996,38.65443],[0.07918,38.65371],[0.078,38.65288],[0.0777,38.65241],[0.07772,38.6522]]]}}]}