{"type":"FeatureCollection","features":[{"type":"Feature","properties":{"id":"0812101001"},"geometry":{"type":"Polygon","coordinates":[[[2.44435,41.53743],[2.44764,41.53359],[2.44636,41.53262],[2.43944,41.53811],[2.44138,41.5386],[2.44354,41.53653],[2.44435,41.53743]]]}},{"type":"Feature","properties":{"id":"0812101002"},"geometry":{"type":"Polygon","coordinates":[[[2.45036,41.53535],[2.44764,41.53359],[2.44435,41.53743],[2.44497,41.53806],[2.44494,41.53819],[2.44582,41.53771],[2.44764,41.53845],[2.45036,41.53535]]]}},{"type":"Feature","properties":{"id":"0812101003"},"geometry":{"type":"Polygon","coordinates":[[[2.44627,41.54288],[2.44607,41.54137],[2.44673,41.53977],[2.44718,41.53898],[2.44764,41.53845],[2.44582,41.53771],[2.44494,41.53819],[2.44485,41.53919],[2.44455,41.54003],[2.44368,41.54192],[2.44205,41.54473],[2.44298,41.54498],[2.44269,41.54472],[2.44409,41.54398],[2.44472,41.54378],[2.44543,41.54235],[2.44609,41.54304],[2.44627,41.54288]]]}},{"type":"Feature","properties":{"id":"0812101004"},"geometry":{"type":"Polygon","coordinates":[[[2.44477,41.53948],[2.44497,41.53806],[2.44354,41.53653],[2.44138,41.5386],[2.44202,41.53889],[2.44013,41.54059],[2.44402,41.54117],[2.44477,41.53948]]]}},{"type":"Feature","properties":{"id":"0812101005"},"geometry":{"type":"Polygon","coordinates":[[[2.44402,41.54117],[2.44082,41.5407],[2.44067,41.54131],[2.44117,41.54139],[2.44032,41.54407],[2.44205,41.54473],[2.44368,41.54192],[2.44402,41.54117]]]}},{"type":"Feature","properties":{"id":"0812101006"},"geometry":{"type":"Polygon","coordinates":[[[2.43793,41.54228],[2.43812,41.54154],[2.44098,41.54199],[2.44117,41.54139],[2.44067,41.54131],[2.44082,41.5407],[2.44013,41.54059],[2.43564,41.54046],[2.43793,41.54228]]]}},{"type":"Feature","properties":{"id":"0812101007"},"geometry":{"type":"Polygon","coordinates":[[[2.44138,41.5386],[2.43859,41.53794],[2.43619,41.54047],[2.44013,41.54059],[2.44202,41.53889],[2.44138,41.5386]]]}},{"type":"Feature","properties":{"id":"0812101009"},"geometry":{"type":"Polygon","coordinates":[[[2.44098,41.54199],[2.43812,41.54154],[2.43793,41.54228],[2.44032,41.54407],[2.44098,41.54199]]]}},{"type":"Feature","properties":{"id":"0812102001"},"geometry":{"type":"Polygon","coordinates":[[[2.45471,41.53693],[2.45301,41.53706],[2.45036,41.53535],[2.44764,41.53845],[2.45035,41.53956],[2.45147,41.54011],[2.45192,41.54051],[2.45255,41.54068],[2.45312,41.53952],[2.45471,41.53693]]]}},{"type":"Feature","properties":{"id":"0812102002"},"geometry":{"type":"Polygon","coordinates":[[[2.45691,41.53915],[2.45487,41.53692],[2.45471,41.53693],[2.45312,41.53952],[2.45255,41.54068],[2.45597,41.54142],[2.45691,41.53915]]]}},{"type":"Feature","properties":{"id":"0812102003"},"geometry":{"type":"Polygon","coordinates":[[[2.45597,41.54142],[2.45367,41.54097],[2.45209,41.54462],[2.45389,41.54546],[2.45435,41.54545],[2.45597,41.54142]]]}},{"type":"Feature","properties":{"id":"0812102004"},"geometry":{"type":"Polygon","coordinates":[[[2.45435,41.54545],[2.45383,41.54547],[2.44924,41.54573],[2.45088,41.54713],[2.4538,41.54675],[2.45435,41.54545]]]}},{"type":"Feature","properties":{"id":"0812102005"},"geometry":{"type":"Polygon","coordinates":[[[2.47445,41.56925],[2.4779,41.56615],[2.47962,41.56333],[2.48127,41.56143],[2.48484,41.55676],[2.48771,41.55112],[2.48251,41.54972],[2.47962,41.5488],[2.47652,41.5481],[2.46925,41.54602],[2.46126,41.54236],[2.45768,41.53999],[2.45691,41.53915],[2.4538,41.54675],[2.45088,41.54713],[2.4528,41.54877],[2.45494,41.55029],[2.45603,41.55126],[2.45737,41.55308],[2.45732,41.55418],[2.45536,41.55614],[2.45525,41.55652],[2.45515,41.55748],[2.4554,41.55791],[2.45618,41.56017],[2.45631,41.56036],[2.4569,41.56054],[2.45816,41.56047],[2.4589,41.5608],[2.46024,41.5611],[2.46067,41.56145],[2.46124,41.56287],[2.46194,41.56282],[2.46338,41.56296],[2.46363,41.56323],[2.46367,41.56401],[2.46348,41.56447],[2.4636,41.56469],[2.46419,41.56504],[2.46602,41.56517],[2.46693,41.56543],[2.46731,41.56628],[2.46753,41.56644],[2.46837,41.56679],[2.47005,41.56717],[2.47236,41.56932],[2.47256,41.56936],[2.47384,41.56913],[2.47445,41.56925]]]}},{"type":"Feature","properties":{"id":"0812102007"},"geometry":{"type":"Polygon","coordinates":[[[2.4472,41.54582],[2.45333,41.5455],[2.45389,41.54546],[2.45093,41.5441],[2.44762,41.54331],[2.4472,41.54425],[2.4472,41.54582]]]}},{"type":"Feature","properties":{"id":"0812102008"},"geometry":{"type":"Polygon","coordinates":[[[2.44627,41.54288],[2.44609,41.54304],[2.44543,41.54235],[2.44472,41.54378],[2.44409,41.54398],[2.44269,41.54472],[2.44298,41.54498],[2.44527,41.54561],[2.44716,41.54433],[2.44627,41.54288]]]}},{"type":"Feature","properties":{"id":"0812102009"},"geometry":{"type":"Polygon","coordinates":[[[2.45051,41.54153],[2.44799,41.54066],[2.44712,41.5405],[2.4464,41.54059],[2.44604,41.54148],[2.44611,41.54195],[2.4463,41.54195],[2.44761,41.54332],[2.44903,41.54365],[2.45051,41.54153]]]}},{"type":"Feature","properties":{"id":"0812102010"},"geometry":{"type":"Polygon","coordinates":[[[2.45192,41.54051],[2.45129,41.54001],[2.44764,41.53845],[2.44711,41.5391],[2.4464,41.54055],[2.44664,41.54059],[2.44712,41.5405],[2.4476,41.54056],[2.45051,41.54153],[2.45132,41.54042],[2.45192,41.54051]]]}},{"type":"Feature","properties":{"id":"0812102011"},"geometry":{"type":"Polygon","coordinates":[[[2.45367,41.54097],[2.45132,41.54042],[2.44903,41.54365],[2.45093,41.5441],[2.45209,41.54462],[2.45367,41.54097]]]}},{"type":"Feature","properties":{"id":"0812102012"},"geometry":{"type":"Polygon","coordinates":[[[2.44761,41.54332],[2.4463,41.54195],[2.44611,41.54195],[2.44627,41.54288],[2.44716,41.54433],[2.44527,41.54561],[2.4472,41.54582],[2.4472,41.54425],[2.44761,41.54332]]]}},{"type":"Feature","properties":{"id":"0812103001"},"geometry":{"type":"Polygon","coordinates":[[[2.44972,41.549],[2.4502,41.54722],[2.45088,41.54713],[2.44924,41.54573],[2.4472,41.54582],[2.44806,41.54874],[2.44883,41.5487],[2.44972,41.549]]]}},{"type":"Feature","properties":{"id":"0812103002"},"geometry":{"type":"Polygon","coordinates":[[[2.45209,41.54819],[2.45088,41.54713],[2.4502,41.54722],[2.44991,41.54843],[2.45154,41.54872],[2.45209,41.54819]]]}},{"type":"Feature","properties":{"id":"0812103003"},"geometry":{"type":"Polygon","coordinates":[[[2.4528,41.54877],[2.45209,41.54819],[2.45154,41.54872],[2.44991,41.54843],[2.44972,41.549],[2.45175,41.54969],[2.4528,41.54877]]]}},{"type":"Feature","properties":{"id":"0812103004"},"geometry":{"type":"Polygon","coordinates":[[[2.45175,41.54969],[2.44972,41.549],[2.44874,41.55129],[2.44954,41.55156],[2.45175,41.54969]]]}},{"type":"Feature","properties":{"id":"0812103005"},"geometry":{"type":"Polygon","coordinates":[[[2.44954,41.55156],[2.44874,41.55129],[2.44972,41.549],[2.44883,41.5487],[2.44806,41.54874],[2.44822,41.54965],[2.44798,41.5508],[2.44835,41.552],[2.4486,41.552],[2.44881,41.55215],[2.44954,41.55156]]]}},{"type":"Feature","properties":{"id":"0812103006"},"geometry":{"type":"Polygon","coordinates":[[[2.45533,41.55624],[2.45732,41.55418],[2.45737,41.55308],[2.45603,41.55126],[2.45494,41.55029],[2.45283,41.54874],[2.44881,41.55215],[2.44848,41.55198],[2.44808,41.55213],[2.44729,41.55157],[2.44641,41.55119],[2.44516,41.55111],[2.44453,41.55123],[2.44466,41.5517],[2.44452,41.5519],[2.44419,41.55205],[2.44343,41.55205],[2.44305,41.55223],[2.44273,41.55247],[2.44255,41.55286],[2.44275,41.55356],[2.44306,41.55393],[2.4442,41.55468],[2.4431,41.55476],[2.44398,41.55553],[2.44605,41.55538],[2.4486,41.55536],[2.45056,41.55545],[2.45322,41.55577],[2.45533,41.55624]]]}},{"type":"Feature","properties":{"id":"0812103007"},"geometry":{"type":"Polygon","coordinates":[[[2.44451,41.55123],[2.44304,41.54905],[2.44171,41.54776],[2.44089,41.54863],[2.4421,41.54892],[2.44191,41.55066],[2.44307,41.55059],[2.44383,41.55112],[2.44451,41.55123]]]}},{"type":"Feature","properties":{"id":"0812103008"},"geometry":{"type":"Polygon","coordinates":[[[2.44054,41.55089],[2.44191,41.55066],[2.4421,41.54892],[2.44089,41.54863],[2.44043,41.54905],[2.43907,41.54995],[2.43921,41.55042],[2.43965,41.5507],[2.44054,41.55089]]]}},{"type":"Feature","properties":{"id":"0812103009"},"geometry":{"type":"Polygon","coordinates":[[[2.44835,41.552],[2.44798,41.5508],[2.44822,41.54968],[2.44814,41.54913],[2.44778,41.54909],[2.44604,41.54811],[2.44519,41.54807],[2.44513,41.54817],[2.44419,41.54762],[2.4431,41.54748],[2.4422,41.54663],[2.44162,41.54763],[2.44304,41.54905],[2.44451,41.55123],[2.44516,41.55111],[2.44626,41.55115],[2.44687,41.55134],[2.44808,41.55213],[2.44835,41.552]]]}},{"type":"Feature","properties":{"id":"0812103010"},"geometry":{"type":"Polygon","coordinates":[[[2.44497,41.54555],[2.44247,41.54487],[2.4422,41.54663],[2.44299,41.54742],[2.44333,41.54755],[2.44418,41.54762],[2.44516,41.54759],[2.44497,41.54555]]]}},{"type":"Feature","properties":{"id":"0812103011"},"geometry":{"type":"Polygon","coordinates":[[[2.44814,41.54913],[2.4472,41.54582],[2.44497,41.54555],[2.44516,41.54759],[2.44419,41.54762],[2.44513,41.54817],[2.44519,41.54807],[2.44611,41.54814],[2.44778,41.54909],[2.44814,41.54913]]]}},{"type":"Feature","properties":{"id":"0812103012"},"geometry":{"type":"Polygon","coordinates":[[[2.45673,41.57999],[2.45845,41.57909],[2.46028,41.57348],[2.47056,41.57274],[2.47445,41.56925],[2.47384,41.56913],[2.47256,41.56936],[2.47236,41.56932],[2.47005,41.56717],[2.46837,41.56679],[2.46753,41.56644],[2.46731,41.56628],[2.46693,41.56543],[2.46602,41.56517],[2.46477,41.56503],[2.4643,41.56506],[2.46398,41.56495],[2.46349,41.56458],[2.46367,41.56401],[2.46363,41.56323],[2.46338,41.56296],[2.46194,41.56282],[2.46124,41.56287],[2.46067,41.56145],[2.46024,41.5611],[2.4589,41.5608],[2.45816,41.56047],[2.45734,41.56056],[2.4569,41.56054],[2.45631,41.56036],[2.4554,41.55791],[2.45515,41.55748],[2.45533,41.55624],[2.45322,41.55577],[2.45056,41.55545],[2.4486,41.55536],[2.44605,41.55538],[2.44201,41.55567],[2.44081,41.55563],[2.43974,41.55548],[2.43754,41.55488],[2.43588,41.55413],[2.43383,41.55301],[2.43106,41.55653],[2.43108,41.55682],[2.43035,41.55797],[2.42984,41.5605],[2.42996,41.56171],[2.4296,41.56208],[2.42845,41.55975],[2.42832,41.55914],[2.42842,41.55862],[2.4279,41.55879],[2.42623,41.5597],[2.42581,41.55984],[2.42563,41.55978],[2.42537,41.55905],[2.4252,41.559],[2.42491,41.55909],[2.42374,41.56378],[2.42486,41.56441],[2.42495,41.56511],[2.42524,41.56536],[2.42546,41.56527],[2.42706,41.56789],[2.42548,41.57005],[2.42538,41.57272],[2.42317,41.5743],[2.42108,41.57348],[2.41994,41.57424],[2.41666,41.57686],[2.42063,41.57665],[2.43135,41.57904],[2.4367,41.57772],[2.44872,41.5805],[2.45673,41.57999]]]}},{"type":"Feature","properties":{"id":"0812103013"},"geometry":{"type":"Polygon","coordinates":[[[2.44202,41.55346],[2.44129,41.55378],[2.43947,41.55238],[2.44007,41.552],[2.44108,41.55158],[2.44126,41.5508],[2.44054,41.55089],[2.43995,41.5508],[2.43965,41.5507],[2.43919,41.55037],[2.43383,41.55301],[2.43588,41.55413],[2.43754,41.55488],[2.43837,41.55517],[2.43974,41.55548],[2.44081,41.55563],[2.44201,41.55567],[2.44398,41.55553],[2.44333,41.55503],[2.44202,41.55346]]]}},{"type":"Feature","properties":{"id":"0812103014"},"geometry":{"type":"Polygon","coordinates":[[[2.44275,41.55356],[2.44255,41.55286],[2.44273,41.55247],[2.44343,41.55205],[2.44425,41.55203],[2.44452,41.5519],[2.44466,41.5517],[2.44453,41.55123],[2.44383,41.55112],[2.44307,41.55059],[2.44199,41.55065],[2.44126,41.5508],[2.44108,41.55158],[2.44007,41.552],[2.43947,41.55238],[2.44129,41.55378],[2.44202,41.55346],[2.4431,41.55476],[2.4442,41.55468],[2.44346,41.55425],[2.44275,41.55356]]]}},{"type":"Feature","properties":{"id":"0812104001"},"geometry":{"type":"Polygon","coordinates":[[[2.44043,41.54905],[2.44158,41.54784],[2.44176,41.54775],[2.44162,41.54763],[2.44223,41.54655],[2.44247,41.54487],[2.4411,41.54442],[2.44,41.54563],[2.43954,41.54565],[2.4379,41.54657],[2.43943,41.54744],[2.43798,41.54875],[2.43869,41.54993],[2.43908,41.54995],[2.44043,41.54905]]]}},{"type":"Feature","properties":{"id":"0812104002"},"geometry":{"type":"Polygon","coordinates":[[[2.43383,41.55301],[2.43919,41.55037],[2.43907,41.54995],[2.43868,41.54991],[2.43806,41.54878],[2.4379,41.54872],[2.43718,41.54905],[2.43666,41.54894],[2.43572,41.54849],[2.43464,41.54852],[2.43444,41.54884],[2.4337,41.54945],[2.43234,41.55005],[2.43229,41.55114],[2.4324,41.55117],[2.43215,41.55136],[2.43212,41.55231],[2.43186,41.55281],[2.43049,41.55412],[2.42938,41.55578],[2.42841,41.55863],[2.42832,41.55937],[2.42845,41.55975],[2.4296,41.56208],[2.42996,41.56171],[2.42984,41.5605],[2.43035,41.55797],[2.43108,41.55682],[2.43106,41.55653],[2.43383,41.55301]]]}},{"type":"Feature","properties":{"id":"0812104003"},"geometry":{"type":"Polygon","coordinates":[[[2.43425,41.54899],[2.43464,41.54852],[2.43458,41.54839],[2.43565,41.54692],[2.43493,41.54669],[2.43496,41.54653],[2.43317,41.54619],[2.43273,41.54891],[2.43375,41.54864],[2.43425,41.54899]]]}},{"type":"Feature","properties":{"id":"0812104004"},"geometry":{"type":"Polygon","coordinates":[[[2.42841,41.55863],[2.42938,41.55578],[2.43049,41.55412],[2.43186,41.55281],[2.43212,41.55231],[2.43215,41.55136],[2.4324,41.55117],[2.43229,41.55114],[2.43234,41.55005],[2.43364,41.54948],[2.43425,41.54899],[2.43375,41.54864],[2.43273,41.54891],[2.43317,41.54619],[2.43496,41.54653],[2.4341,41.54517],[2.43387,41.54498],[2.43362,41.54491],[2.43329,41.54495],[2.4326,41.54535],[2.43206,41.54515],[2.43175,41.54525],[2.43154,41.5456],[2.4316,41.54577],[2.42979,41.54658],[2.42936,41.54723],[2.42893,41.54762],[2.4302,41.54813],[2.43019,41.54874],[2.42639,41.5509],[2.42649,41.55274],[2.42491,41.55909],[2.4252,41.559],[2.42537,41.55905],[2.42563,41.55978],[2.42581,41.55984],[2.42623,41.5597],[2.4279,41.55879],[2.42841,41.55863]]]}},{"type":"Feature","properties":{"id":"0812104005"},"geometry":{"type":"Polygon","coordinates":[[[2.42943,41.54711],[2.42979,41.54658],[2.4316,41.54577],[2.43154,41.5456],[2.43175,41.54525],[2.43153,41.54464],[2.43142,41.54351],[2.43118,41.5431],[2.43076,41.54294],[2.43047,41.54301],[2.42957,41.5435],[2.42929,41.54339],[2.42805,41.5439],[2.4267,41.54459],[2.42776,41.54551],[2.42705,41.5465],[2.42673,41.54751],[2.42704,41.54757],[2.42718,41.54782],[2.42839,41.54739],[2.42892,41.547],[2.42943,41.54711]]]}},{"type":"Feature","properties":{"id":"0812104006"},"geometry":{"type":"Polygon","coordinates":[[[2.4411,41.54442],[2.44104,41.54432],[2.44043,41.54414],[2.44016,41.54396],[2.43568,41.54049],[2.43486,41.54164],[2.4344,41.54204],[2.43391,41.54266],[2.433,41.5434],[2.43237,41.54442],[2.43206,41.54515],[2.4326,41.54535],[2.43329,41.54495],[2.43349,41.54493],[2.43351,41.54476],[2.4355,41.54333],[2.43888,41.54606],[2.43957,41.54564],[2.44,41.54563],[2.4411,41.54442]]]}},{"type":"Feature","properties":{"id":"0812104007"},"geometry":{"type":"Polygon","coordinates":[[[2.43021,41.54814],[2.42893,41.54762],[2.42943,41.54711],[2.42892,41.547],[2.42839,41.54739],[2.42718,41.54782],[2.42704,41.54757],[2.42673,41.54751],[2.42609,41.5489],[2.42628,41.54904],[2.42639,41.5509],[2.43019,41.54874],[2.43021,41.54814]]]}},{"type":"Feature","properties":{"id":"0812104008"},"geometry":{"type":"Polygon","coordinates":[[[2.43695,41.54455],[2.4355,41.54333],[2.43395,41.54441],[2.43459,41.5449],[2.43533,41.54567],[2.43695,41.54455]]]}},{"type":"Feature","properties":{"id":"0812104009"},"geometry":{"type":"Polygon","coordinates":[[[2.43798,41.54875],[2.43943,41.54744],[2.4379,41.54657],[2.43888,41.54606],[2.43695,41.54455],[2.43533,41.54567],[2.43459,41.5449],[2.43395,41.54441],[2.43351,41.54476],[2.43349,41.54493],[2.43387,41.54498],[2.4341,41.54517],[2.43496,41.54653],[2.43493,41.54669],[2.43565,41.54692],[2.43458,41.54839],[2.43464,41.54852],[2.43572,41.54849],[2.43666,41.54894],[2.43718,41.54905],[2.4379,41.54872],[2.43798,41.54875]]]}},{"type":"Feature","properties":{"id":"0812105001"},"geometry":{"type":"Polygon","coordinates":[[[2.42802,41.54149],[2.42881,41.54139],[2.42899,41.54202],[2.42927,41.54197],[2.42904,41.54218],[2.42936,41.54336],[2.42929,41.54339],[2.42943,41.54348],[2.42957,41.5435],[2.43047,41.54301],[2.43076,41.54294],[2.43103,41.543],[2.43134,41.54326],[2.43153,41.54464],[2.43175,41.54525],[2.43206,41.54515],[2.43237,41.54442],[2.433,41.5434],[2.43391,41.54266],[2.4344,41.54204],[2.43486,41.54164],[2.43568,41.54049],[2.43466,41.54042],[2.43154,41.54049],[2.42947,41.54014],[2.42787,41.54018],[2.42802,41.54149]]]}},{"type":"Feature","properties":{"id":"0812105002"},"geometry":{"type":"Polygon","coordinates":[[[2.42805,41.5439],[2.42936,41.54336],[2.42904,41.54218],[2.42927,41.54197],[2.42726,41.54233],[2.42756,41.54271],[2.42663,41.54303],[2.42705,41.54351],[2.42664,41.54379],[2.42627,41.54421],[2.4267,41.54459],[2.42805,41.5439]]]}},{"type":"Feature","properties":{"id":"0812105003"},"geometry":{"type":"Polygon","coordinates":[[[2.4267,41.54459],[2.42627,41.54421],[2.42664,41.54379],[2.42705,41.54351],[2.42647,41.54274],[2.42564,41.54199],[2.42519,41.54229],[2.42507,41.54254],[2.42511,41.54343],[2.425,41.54343],[2.42398,41.54463],[2.42453,41.54492],[2.42495,41.54495],[2.42577,41.54493],[2.4267,41.54459]]]}},{"type":"Feature","properties":{"id":"0812105004"},"geometry":{"type":"Polygon","coordinates":[[[2.42672,41.54753],[2.42615,41.54749],[2.42548,41.54722],[2.42482,41.54664],[2.42458,41.54607],[2.42424,41.54614],[2.42383,41.54604],[2.42364,41.54592],[2.42357,41.54573],[2.42392,41.54501],[2.42356,41.54465],[2.4236,41.54446],[2.42398,41.54463],[2.425,41.54343],[2.42511,41.54343],[2.42507,41.54254],[2.42519,41.54229],[2.42451,41.54175],[2.42388,41.54216],[2.42396,41.54224],[2.42352,41.54267],[2.42247,41.54319],[2.42278,41.54394],[2.42153,41.54325],[2.42093,41.54277],[2.42055,41.54204],[2.42069,41.54132],[2.41826,41.54341],[2.41884,41.54544],[2.42352,41.54717],[2.42609,41.5489],[2.42672,41.54753]]]}},{"type":"Feature","properties":{"id":"0812105005"},"geometry":{"type":"Polygon","coordinates":[[[2.42388,41.54216],[2.42274,41.54193],[2.42164,41.5421],[2.42138,41.54225],[2.42127,41.54245],[2.42131,41.54309],[2.42278,41.54394],[2.42247,41.54319],[2.42352,41.54267],[2.42396,41.54224],[2.42388,41.54216]]]}},{"type":"Feature","properties":{"id":"0812105006"},"geometry":{"type":"Polygon","coordinates":[[[2.42274,41.54193],[2.42273,41.54125],[2.42257,41.54068],[2.42133,41.541],[2.42069,41.54132],[2.42055,41.54204],[2.42064,41.54235],[2.42104,41.5429],[2.42131,41.54309],[2.42125,41.54257],[2.42143,41.5422],[2.42203,41.54199],[2.42274,41.54193]]]}},{"type":"Feature","properties":{"id":"0812105007"},"geometry":{"type":"Polygon","coordinates":[[[2.42069,41.54132],[2.42133,41.541],[2.4234,41.54049],[2.42261,41.53866],[2.42116,41.53899],[2.42101,41.53805],[2.42108,41.53746],[2.42137,41.53668],[2.42218,41.53558],[2.42346,41.5348],[2.4246,41.53433],[2.42477,41.53433],[2.42273,41.53347],[2.4215,41.53266],[2.41558,41.54329],[2.41819,41.54316],[2.41826,41.54341],[2.42069,41.54132]]]}},{"type":"Feature","properties":{"id":"0812105008"},"geometry":{"type":"Polygon","coordinates":[[[2.42388,41.53825],[2.42287,41.5377],[2.42109,41.53741],[2.42101,41.53805],[2.42116,41.53899],[2.42261,41.53866],[2.42292,41.53937],[2.42388,41.53825]]]}},{"type":"Feature","properties":{"id":"0812105009"},"geometry":{"type":"Polygon","coordinates":[[[2.42392,41.53657],[2.42196,41.53578],[2.42128,41.53684],[2.42109,41.53741],[2.42287,41.5377],[2.42392,41.53657]]]}},{"type":"Feature","properties":{"id":"0812105010"},"geometry":{"type":"Polygon","coordinates":[[[2.42865,41.53731],[2.42774,41.53777],[2.42669,41.53855],[2.4251,41.53705],[2.42392,41.53657],[2.42286,41.53771],[2.42601,41.53936],[2.42565,41.5403],[2.42931,41.54013],[2.43139,41.54047],[2.42962,41.53902],[2.42902,41.53817],[2.42865,41.53731]]]}},{"type":"Feature","properties":{"id":"0812105011"},"geometry":{"type":"Polygon","coordinates":[[[2.42769,41.5378],[2.42669,41.53698],[2.4255,41.53639],[2.4237,41.53569],[2.42303,41.53503],[2.42196,41.53578],[2.4251,41.53705],[2.42669,41.53855],[2.42769,41.5378]]]}},{"type":"Feature","properties":{"id":"0812105012"},"geometry":{"type":"Polygon","coordinates":[[[2.42373,41.53469],[2.42303,41.53503],[2.4237,41.53569],[2.4255,41.53639],[2.42669,41.53698],[2.42718,41.53649],[2.42408,41.53533],[2.42373,41.53469]]]}},{"type":"Feature","properties":{"id":"0812105013"},"geometry":{"type":"Polygon","coordinates":[[[2.42865,41.53731],[2.42875,41.53618],[2.42772,41.5361],[2.42732,41.53595],[2.42623,41.53499],[2.4248,41.53433],[2.4246,41.53433],[2.42373,41.53469],[2.42408,41.53533],[2.42718,41.53649],[2.42669,41.53698],[2.42769,41.5378],[2.42865,41.53731]]]}},{"type":"Feature","properties":{"id":"0812105015"},"geometry":{"type":"Polygon","coordinates":[[[2.42756,41.54271],[2.42656,41.54146],[2.4268,41.54087],[2.42544,41.54054],[2.42533,41.5408],[2.42552,41.54197],[2.42564,41.54199],[2.42647,41.54274],[2.42663,41.54303],[2.42756,41.54271]]]}},{"type":"Feature","properties":{"id":"0812105016"},"geometry":{"type":"Polygon","coordinates":[[[2.42559,41.54202],[2.42533,41.5408],[2.4256,41.5403],[2.42391,41.5404],[2.42257,41.54068],[2.42273,41.54125],[2.42273,41.54195],[2.42388,41.54216],[2.42451,41.54175],[2.42519,41.54229],[2.42559,41.54202]]]}},{"type":"Feature","properties":{"id":"0812105017"},"geometry":{"type":"Polygon","coordinates":[[[2.42358,41.54046],[2.42442,41.53968],[2.42502,41.53885],[2.42388,41.53825],[2.42292,41.53937],[2.4234,41.54049],[2.42358,41.54046]]]}},{"type":"Feature","properties":{"id":"0812105019"},"geometry":{"type":"Polygon","coordinates":[[[2.4256,41.5403],[2.42601,41.53936],[2.42502,41.53885],[2.42442,41.53968],[2.42358,41.54046],[2.4256,41.5403]]]}},{"type":"Feature","properties":{"id":"0812105020"},"geometry":{"type":"Polygon","coordinates":[[[2.42899,41.54202],[2.42881,41.54139],[2.42802,41.54149],[2.42787,41.54018],[2.4256,41.5403],[2.42544,41.54054],[2.4268,41.54087],[2.42656,41.54146],[2.42726,41.54233],[2.42899,41.54202]]]}},{"type":"Feature","properties":{"id":"0812105021"},"geometry":{"type":"Polygon","coordinates":[[[2.42673,41.54751],[2.42705,41.5465],[2.42776,41.54551],[2.4267,41.54459],[2.42577,41.54493],[2.42495,41.54495],[2.42446,41.54489],[2.4236,41.54446],[2.42356,41.54465],[2.42392,41.54501],[2.42357,41.54559],[2.42364,41.54592],[2.42412,41.54613],[2.42458,41.54607],[2.42498,41.54682],[2.42564,41.5473],[2.42615,41.54749],[2.42673,41.54751]]]}},{"type":"Feature","properties":{"id":"0812106001"},"geometry":{"type":"Polygon","coordinates":[[[2.44636,41.53262],[2.44296,41.52963],[2.44262,41.52944],[2.44004,41.53142],[2.44198,41.5329],[2.44347,41.53388],[2.44202,41.53544],[2.44242,41.53574],[2.44636,41.53262]]]}},{"type":"Feature","properties":{"id":"0812106002"},"geometry":{"type":"Polygon","coordinates":[[[2.44004,41.53142],[2.43848,41.53262],[2.44202,41.53544],[2.44347,41.53388],[2.44198,41.5329],[2.44004,41.53142]]]}},{"type":"Feature","properties":{"id":"0812106003"},"geometry":{"type":"Polygon","coordinates":[[[2.44242,41.53574],[2.44139,41.53501],[2.43852,41.53265],[2.43691,41.53394],[2.44086,41.537],[2.44242,41.53574]]]}},{"type":"Feature","properties":{"id":"0812106004"},"geometry":{"type":"Polygon","coordinates":[[[2.43944,41.53811],[2.44086,41.537],[2.43883,41.53544],[2.43661,41.5372],[2.43621,41.5374],[2.43593,41.53744],[2.43469,41.5372],[2.43426,41.53866],[2.43731,41.5393],[2.43859,41.53794],[2.43944,41.53811]]]}},{"type":"Feature","properties":{"id":"0812106005"},"geometry":{"type":"Polygon","coordinates":[[[2.43393,41.53953],[2.43156,41.53723],[2.43114,41.53669],[2.43119,41.5365],[2.43096,41.53647],[2.43089,41.53661],[2.43024,41.53703],[2.43128,41.53814],[2.43369,41.54012],[2.43393,41.53953]]]}},{"type":"Feature","properties":{"id":"0812106006"},"geometry":{"type":"Polygon","coordinates":[[[2.43731,41.5393],[2.43426,41.53866],[2.43354,41.54045],[2.43619,41.54047],[2.43731,41.5393]]]}},{"type":"Feature","properties":{"id":"0812106007"},"geometry":{"type":"Polygon","coordinates":[[[2.43393,41.53953],[2.43469,41.5372],[2.43122,41.53656],[2.43114,41.53669],[2.43156,41.53723],[2.43393,41.53953]]]}},{"type":"Feature","properties":{"id":"0812106008"},"geometry":{"type":"Polygon","coordinates":[[[2.42865,41.53731],[2.42902,41.53817],[2.42962,41.53902],[2.43139,41.54047],[2.43296,41.54047],[2.43248,41.54006],[2.43253,41.53988],[2.43223,41.53985],[2.4308,41.53864],[2.42978,41.53718],[2.42865,41.53731]]]}},{"type":"Feature","properties":{"id":"0812106009"},"geometry":{"type":"Polygon","coordinates":[[[2.43115,41.53648],[2.43143,41.53564],[2.43304,41.53221],[2.43457,41.53254],[2.43533,41.53286],[2.43696,41.53132],[2.43848,41.53262],[2.44262,41.52944],[2.42458,41.51918],[2.4231,41.52207],[2.42207,41.52644],[2.42165,41.53238],[2.4215,41.53266],[2.42273,41.53347],[2.42617,41.53496],[2.42719,41.53587],[2.42762,41.53607],[2.42919,41.53621],[2.4309,41.53652],[2.43115,41.53648]]]}},{"type":"Feature","properties":{"id":"0812106010"},"geometry":{"type":"Polygon","coordinates":[[[2.43544,41.53515],[2.43852,41.53265],[2.43696,41.53132],[2.43533,41.53286],[2.43457,41.53254],[2.43304,41.53221],[2.43238,41.53369],[2.43378,41.53408],[2.43544,41.53515]]]}},{"type":"Feature","properties":{"id":"0812106011"},"geometry":{"type":"Polygon","coordinates":[[[2.43883,41.53544],[2.43691,41.53394],[2.43554,41.53506],[2.43757,41.53643],[2.43883,41.53544]]]}},{"type":"Feature","properties":{"id":"0812106012"},"geometry":{"type":"Polygon","coordinates":[[[2.43544,41.53515],[2.43389,41.53413],[2.43238,41.53369],[2.43143,41.53564],[2.43115,41.53648],[2.43122,41.53656],[2.43322,41.53691],[2.43544,41.53515]]]}},{"type":"Feature","properties":{"id":"0812106013"},"geometry":{"type":"Polygon","coordinates":[[[2.43369,41.54012],[2.43196,41.53876],[2.43024,41.53703],[2.4309,41.53652],[2.42875,41.53618],[2.42865,41.53731],[2.42978,41.53718],[2.4308,41.53864],[2.43223,41.53985],[2.43253,41.53988],[2.43248,41.54006],[2.43296,41.54047],[2.43354,41.54045],[2.43369,41.54012]]]}},{"type":"Feature","properties":{"id":"0812106014"},"geometry":{"type":"Polygon","coordinates":[[[2.43757,41.53643],[2.43554,41.53506],[2.43322,41.53691],[2.43593,41.53744],[2.43621,41.5374],[2.43661,41.5372],[2.43757,41.53643]]]}}]}