{"type":"FeatureCollection","features":[{"type":"Feature","properties":{"id":"0830701001"},"geometry":{"type":"Polygon","coordinates":[[[1.7193,41.22205],[1.72087,41.22032],[1.72134,41.21955],[1.71913,41.21979],[1.71622,41.21894],[1.71519,41.22066],[1.7193,41.22205]]]}},{"type":"Feature","properties":{"id":"0830701002"},"geometry":{"type":"Polygon","coordinates":[[[1.72332,41.22001],[1.7219,41.21959],[1.72134,41.21955],[1.72087,41.22032],[1.71988,41.2214],[1.72179,41.22208],[1.72332,41.22001]]]}},{"type":"Feature","properties":{"id":"0830701003"},"geometry":{"type":"Polygon","coordinates":[[[1.72447,41.22299],[1.71988,41.2214],[1.71877,41.22264],[1.72378,41.22425],[1.72447,41.22299]]]}},{"type":"Feature","properties":{"id":"0830701004"},"geometry":{"type":"Polygon","coordinates":[[[1.72778,41.22133],[1.72661,41.22098],[1.72647,41.22104],[1.72644,41.22093],[1.72576,41.22072],[1.72378,41.22425],[1.72597,41.22494],[1.72778,41.22133]]]}},{"type":"Feature","properties":{"id":"0830701005"},"geometry":{"type":"Polygon","coordinates":[[[1.72885,41.22164],[1.72778,41.22133],[1.72597,41.22494],[1.72741,41.22533],[1.72814,41.22473],[1.72844,41.22408],[1.72848,41.22259],[1.72885,41.22164]]]}},{"type":"Feature","properties":{"id":"0830701006"},"geometry":{"type":"Polygon","coordinates":[[[1.72969,41.22663],[1.72991,41.22644],[1.72914,41.22565],[1.73094,41.22227],[1.72885,41.22164],[1.72848,41.22259],[1.72836,41.22441],[1.72814,41.22473],[1.72741,41.22533],[1.72969,41.22663]]]}},{"type":"Feature","properties":{"id":"0830701007"},"geometry":{"type":"Polygon","coordinates":[[[1.73574,41.22761],[1.73172,41.22411],[1.73142,41.22447],[1.72999,41.22403],[1.72914,41.22565],[1.72991,41.22644],[1.72978,41.22661],[1.73097,41.22667],[1.73226,41.22695],[1.7351,41.22822],[1.73574,41.22761]]]}},{"type":"Feature","properties":{"id":"0830701008"},"geometry":{"type":"Polygon","coordinates":[[[1.74277,41.23052],[1.74149,41.22954],[1.7416,41.22764],[1.74207,41.22729],[1.74092,41.22636],[1.73895,41.22552],[1.73844,41.22501],[1.73815,41.22441],[1.73754,41.22442],[1.73734,41.22412],[1.73289,41.22285],[1.73233,41.22276],[1.73094,41.22227],[1.72999,41.22403],[1.73142,41.22447],[1.73172,41.22411],[1.73918,41.23052],[1.7422,41.23203],[1.74277,41.23052]]]}},{"type":"Feature","properties":{"id":"0830701009"},"geometry":{"type":"Polygon","coordinates":[[[1.70918,41.21862],[1.71225,41.21968],[1.71315,41.21806],[1.71242,41.21778],[1.71069,41.21687],[1.7105,41.21655],[1.70969,41.21605],[1.7084,41.21544],[1.70826,41.21508],[1.70813,41.21351],[1.70772,41.21207],[1.70726,41.21192],[1.70612,41.21184],[1.7046,41.21151],[1.70386,41.21155],[1.70156,41.21131],[1.69697,41.21038],[1.69603,41.2104],[1.69407,41.21032],[1.69336,41.2102],[1.69131,41.21017],[1.68547,41.20923],[1.68486,41.20923],[1.68177,41.20966],[1.6806,41.20946],[1.6804,41.21005],[1.68716,41.2107],[1.69173,41.2118],[1.6959,41.21323],[1.69749,41.21491],[1.69943,41.21633],[1.69979,41.2167],[1.70096,41.21749],[1.70179,41.2188],[1.70233,41.21924],[1.70267,41.21939],[1.70277,41.21933],[1.70295,41.21946],[1.70346,41.21992],[1.70363,41.22027],[1.70424,41.22057],[1.70508,41.21965],[1.70578,41.21937],[1.7066,41.21846],[1.70738,41.21791],[1.70774,41.21753],[1.70918,41.21862]]]}},{"type":"Feature","properties":{"id":"0830701010"},"geometry":{"type":"Polygon","coordinates":[[[1.72576,41.22072],[1.72332,41.22001],[1.72179,41.22208],[1.72447,41.22299],[1.72576,41.22072]]]}},{"type":"Feature","properties":{"id":"0830701011"},"geometry":{"type":"Polygon","coordinates":[[[1.71622,41.21894],[1.71315,41.21806],[1.71225,41.21968],[1.71519,41.22066],[1.71622,41.21894]]]}},{"type":"Feature","properties":{"id":"0830702001"},"geometry":{"type":"Polygon","coordinates":[[[1.72682,41.21236],[1.72299,41.21273],[1.71696,41.21211],[1.71313,41.21021],[1.71281,41.2106],[1.71078,41.20948],[1.70752,41.20737],[1.70312,41.20773],[1.70281,41.20799],[1.69773,41.20786],[1.68801,41.20428],[1.68383,41.20235],[1.68378,41.20176],[1.68368,41.20176],[1.68317,41.20246],[1.68305,41.2028],[1.6824,41.20368],[1.68161,41.20537],[1.69168,41.20753],[1.69453,41.208],[1.69622,41.20818],[1.7059,41.20816],[1.70742,41.20845],[1.70852,41.20882],[1.72049,41.21648],[1.72271,41.21763],[1.72326,41.21699],[1.72381,41.21676],[1.72443,41.21629],[1.72682,41.21236]]]}},{"type":"Feature","properties":{"id":"0830702002"},"geometry":{"type":"Polygon","coordinates":[[[1.72648,41.22104],[1.72756,41.2191],[1.72396,41.21813],[1.7227,41.21763],[1.72134,41.21955],[1.7219,41.21959],[1.72644,41.22093],[1.72648,41.22104]]]}},{"type":"Feature","properties":{"id":"0830702003"},"geometry":{"type":"Polygon","coordinates":[[[1.75098,41.21955],[1.74976,41.21916],[1.74785,41.21889],[1.74463,41.21863],[1.74198,41.2186],[1.7399,41.21892],[1.73684,41.2196],[1.73642,41.21862],[1.73573,41.21762],[1.73163,41.21853],[1.73081,41.21926],[1.73015,41.21907],[1.72983,41.21967],[1.72756,41.2191],[1.72648,41.22104],[1.72661,41.22098],[1.73192,41.22256],[1.73233,41.22276],[1.73289,41.22285],[1.73702,41.22402],[1.73734,41.22412],[1.73754,41.22442],[1.73815,41.22441],[1.73844,41.22501],[1.73895,41.22552],[1.74092,41.22636],[1.74207,41.22729],[1.74483,41.22523],[1.74544,41.22428],[1.75098,41.21955]]]}},{"type":"Feature","properties":{"id":"0830702004"},"geometry":{"type":"Polygon","coordinates":[[[1.72983,41.21967],[1.73165,41.21697],[1.73267,41.2174],[1.73466,41.21555],[1.734,41.21545],[1.73474,41.21348],[1.73365,41.21542],[1.73148,41.21507],[1.73096,41.21555],[1.73054,41.21545],[1.73024,41.21574],[1.72941,41.21582],[1.72758,41.2191],[1.72983,41.21967]]]}},{"type":"Feature","properties":{"id":"0830702006"},"geometry":{"type":"Polygon","coordinates":[[[1.72134,41.21955],[1.7227,41.21763],[1.72049,41.21648],[1.70852,41.20882],[1.70742,41.20845],[1.7059,41.20816],[1.69622,41.20818],[1.69453,41.208],[1.69168,41.20753],[1.68207,41.20544],[1.68158,41.20542],[1.68103,41.20714],[1.68063,41.20732],[1.68049,41.20781],[1.68035,41.20865],[1.68048,41.20982],[1.6806,41.20946],[1.68177,41.20966],[1.68486,41.20923],[1.68547,41.20923],[1.69131,41.21017],[1.69336,41.2102],[1.69407,41.21032],[1.69603,41.2104],[1.69697,41.21038],[1.70156,41.21131],[1.70386,41.21155],[1.7046,41.21151],[1.70612,41.21184],[1.70726,41.21192],[1.70772,41.21207],[1.70813,41.21351],[1.70826,41.21508],[1.7084,41.21544],[1.70969,41.21605],[1.7105,41.21655],[1.71069,41.21687],[1.71188,41.21752],[1.71319,41.21808],[1.71913,41.21979],[1.72134,41.21955]]]}},{"type":"Feature","properties":{"id":"0830702007"},"geometry":{"type":"Polygon","coordinates":[[[1.73015,41.21907],[1.73081,41.21926],[1.73163,41.21853],[1.73573,41.21762],[1.73642,41.21862],[1.73684,41.2196],[1.7399,41.21892],[1.74198,41.2186],[1.74463,41.21863],[1.74785,41.21889],[1.74976,41.21916],[1.75098,41.21955],[1.75207,41.21861],[1.75104,41.21791],[1.74937,41.21773],[1.7487,41.21847],[1.74716,41.2185],[1.74391,41.21822],[1.74157,41.21741],[1.73724,41.21427],[1.73846,41.2107],[1.73499,41.20987],[1.73349,41.20746],[1.73006,41.20575],[1.7295,41.20591],[1.73399,41.20852],[1.73436,41.21106],[1.73499,41.21064],[1.73767,41.21119],[1.73705,41.2128],[1.73453,41.21258],[1.73701,41.21344],[1.73685,41.21384],[1.73611,41.21363],[1.7368,41.21403],[1.7364,41.21497],[1.73571,41.21485],[1.73588,41.21437],[1.73555,41.21495],[1.73637,41.21512],[1.73611,41.21578],[1.73466,41.21555],[1.73267,41.2174],[1.73165,41.21697],[1.73015,41.21907]]]}},{"type":"Feature","properties":{"id":"0830702008"},"geometry":{"type":"Polygon","coordinates":[[[1.72682,41.21236],[1.72443,41.21629],[1.72381,41.21676],[1.72326,41.21699],[1.72271,41.21763],[1.72396,41.21813],[1.72758,41.2191],[1.72941,41.21582],[1.73024,41.21574],[1.73054,41.21545],[1.72939,41.21518],[1.729,41.21427],[1.72991,41.21409],[1.72841,41.21355],[1.72976,41.21001],[1.73154,41.21022],[1.72941,41.20956],[1.72841,41.21221],[1.72682,41.21236]]]}},{"type":"Feature","properties":{"id":"0830703001"},"geometry":{"type":"Polygon","coordinates":[[[1.72741,41.22533],[1.72597,41.22494],[1.72493,41.2272],[1.72635,41.22712],[1.72728,41.22723],[1.72713,41.22693],[1.72711,41.22616],[1.72741,41.22533]]]}},{"type":"Feature","properties":{"id":"0830703002"},"geometry":{"type":"Polygon","coordinates":[[[1.7422,41.23203],[1.73918,41.23052],[1.73574,41.22761],[1.7351,41.22822],[1.73226,41.22695],[1.73097,41.22667],[1.72969,41.22663],[1.72741,41.22533],[1.72711,41.22616],[1.72719,41.22708],[1.72728,41.22723],[1.72779,41.22753],[1.72839,41.22907],[1.72918,41.2295],[1.72949,41.22991],[1.72967,41.23096],[1.72924,41.23283],[1.72975,41.23362],[1.72971,41.23387],[1.72994,41.23469],[1.73073,41.23539],[1.73138,41.23619],[1.73239,41.23665],[1.73336,41.23661],[1.73576,41.2369],[1.73607,41.23715],[1.73669,41.23816],[1.73834,41.23888],[1.73894,41.23941],[1.73979,41.23792],[1.74,41.23593],[1.74155,41.23376],[1.7422,41.23203]]]}},{"type":"Feature","properties":{"id":"0830703003"},"geometry":{"type":"Polygon","coordinates":[[[1.72839,41.22907],[1.72779,41.22753],[1.72728,41.22723],[1.72635,41.22712],[1.72485,41.22719],[1.72479,41.22771],[1.72495,41.22846],[1.72481,41.22848],[1.7252,41.22918],[1.72578,41.2293],[1.72686,41.22905],[1.72708,41.22952],[1.7281,41.2299],[1.72839,41.22907]]]}},{"type":"Feature","properties":{"id":"0830703004"},"geometry":{"type":"Polygon","coordinates":[[[1.71008,41.26804],[1.714,41.269],[1.71607,41.26893],[1.71737,41.26867],[1.71827,41.26862],[1.71855,41.26854],[1.71847,41.26842],[1.71899,41.26829],[1.71838,41.26732],[1.71817,41.26644],[1.71821,41.26606],[1.71842,41.26572],[1.71907,41.26519],[1.71926,41.2648],[1.71928,41.26395],[1.71904,41.26315],[1.71741,41.26255],[1.71739,41.26207],[1.71808,41.26018],[1.71719,41.25843],[1.71703,41.25792],[1.71707,41.25752],[1.71769,41.25594],[1.71781,41.25529],[1.71811,41.25477],[1.71827,41.2542],[1.71866,41.25367],[1.71877,41.25306],[1.719,41.25277],[1.71922,41.25204],[1.72018,41.25057],[1.72107,41.24858],[1.72098,41.24675],[1.72172,41.24571],[1.72267,41.24402],[1.72488,41.24234],[1.72482,41.24228],[1.72523,41.24158],[1.7252,41.24064],[1.72535,41.24008],[1.72628,41.2382],[1.72613,41.23697],[1.72629,41.2365],[1.72649,41.23501],[1.72696,41.23355],[1.72758,41.23242],[1.72807,41.22989],[1.72708,41.22952],[1.72686,41.22905],[1.72578,41.2293],[1.7252,41.22918],[1.72481,41.22848],[1.72419,41.22877],[1.7235,41.22924],[1.7213,41.23005],[1.72028,41.23113],[1.71966,41.23212],[1.71863,41.23272],[1.7185,41.23297],[1.71804,41.2333],[1.71701,41.23436],[1.71594,41.23426],[1.71508,41.23472],[1.71343,41.23623],[1.71329,41.23688],[1.71356,41.23725],[1.71348,41.23741],[1.71329,41.23752],[1.71203,41.23768],[1.71166,41.23754],[1.71153,41.23757],[1.71129,41.23782],[1.71093,41.23915],[1.71076,41.23935],[1.71005,41.23922],[1.7094,41.23928],[1.70901,41.23943],[1.70871,41.24003],[1.7073,41.23984],[1.70706,41.24069],[1.70663,41.24113],[1.70578,41.24112],[1.70587,41.24205],[1.70557,41.24256],[1.70501,41.24248],[1.70427,41.24264],[1.70345,41.24318],[1.70317,41.24327],[1.7021,41.24336],[1.70197,41.24377],[1.70129,41.24484],[1.70119,41.24545],[1.70142,41.24652],[1.70123,41.24725],[1.70131,41.24883],[1.7014,41.24929],[1.7023,41.25029],[1.70293,41.25143],[1.70297,41.2522],[1.70277,41.25286],[1.70291,41.25313],[1.70291,41.25401],[1.70319,41.25457],[1.70319,41.25501],[1.70333,41.25535],[1.7029,41.25586],[1.70225,41.2564],[1.70115,41.25675],[1.69993,41.25731],[1.69948,41.25761],[1.69721,41.25992],[1.69687,41.26073],[1.69715,41.26067],[1.69744,41.26091],[1.69736,41.26111],[1.6972,41.26136],[1.69643,41.262],[1.69687,41.26206],[1.69711,41.26238],[1.69717,41.26301],[1.69689,41.26445],[1.69451,41.26612],[1.69418,41.26654],[1.69466,41.26735],[1.695,41.26844],[1.69502,41.26927],[1.69518,41.26983],[1.69506,41.2706],[1.69535,41.27059],[1.69668,41.27024],[1.69771,41.26966],[1.69837,41.26901],[1.69978,41.26874],[1.70067,41.26801],[1.70244,41.2684],[1.70494,41.26688],[1.70605,41.26715],[1.70765,41.26737],[1.70833,41.26731],[1.70858,41.2672],[1.70883,41.26724],[1.71008,41.26804]]]}},{"type":"Feature","properties":{"id":"0830703005"},"geometry":{"type":"Polygon","coordinates":[[[1.72363,41.26635],[1.72437,41.26629],[1.72436,41.26565],[1.72307,41.26289],[1.73341,41.25004],[1.73461,41.24819],[1.73645,41.24374],[1.73894,41.23941],[1.73834,41.23888],[1.73669,41.23816],[1.73607,41.23715],[1.73576,41.2369],[1.73336,41.23661],[1.73239,41.23665],[1.73138,41.23619],[1.73073,41.23539],[1.72994,41.23469],[1.72971,41.23387],[1.72975,41.23362],[1.72924,41.23283],[1.72967,41.23096],[1.72949,41.22991],[1.72918,41.2295],[1.72839,41.22907],[1.7279,41.23041],[1.72758,41.23242],[1.72696,41.23355],[1.72649,41.23501],[1.72629,41.2365],[1.72613,41.23697],[1.72628,41.2382],[1.72535,41.24008],[1.7252,41.24064],[1.72523,41.24158],[1.72482,41.24228],[1.72488,41.24234],[1.72267,41.24402],[1.72172,41.24571],[1.72098,41.24675],[1.72107,41.24858],[1.72018,41.25057],[1.71922,41.25204],[1.719,41.25277],[1.71877,41.25306],[1.71866,41.25367],[1.71827,41.2542],[1.71811,41.25477],[1.71781,41.25529],[1.71769,41.25594],[1.71707,41.25752],[1.71703,41.25792],[1.71719,41.25843],[1.71808,41.26018],[1.71739,41.26207],[1.71741,41.26255],[1.71904,41.26315],[1.71928,41.26395],[1.71926,41.2648],[1.71907,41.26519],[1.71842,41.26572],[1.71821,41.26606],[1.71817,41.26644],[1.71838,41.26732],[1.71899,41.26829],[1.71847,41.26842],[1.71855,41.26854],[1.71966,41.26808],[1.72184,41.26742],[1.72363,41.26635]]]}},{"type":"Feature","properties":{"id":"0830704001"},"geometry":{"type":"Polygon","coordinates":[[[1.72597,41.22494],[1.72219,41.22374],[1.72152,41.22478],[1.72154,41.22523],[1.72524,41.2264],[1.72597,41.22494]]]}},{"type":"Feature","properties":{"id":"0830704002"},"geometry":{"type":"Polygon","coordinates":[[[1.72493,41.2272],[1.72524,41.2264],[1.72249,41.22553],[1.72263,41.22634],[1.72258,41.22679],[1.72209,41.22693],[1.72481,41.22777],[1.72485,41.22719],[1.72493,41.2272]]]}},{"type":"Feature","properties":{"id":"0830704003"},"geometry":{"type":"Polygon","coordinates":[[[1.72419,41.22877],[1.72495,41.22846],[1.72481,41.22777],[1.72374,41.22749],[1.72306,41.2272],[1.72209,41.22693],[1.7212,41.22721],[1.72078,41.22724],[1.72167,41.22781],[1.72098,41.22843],[1.72104,41.22849],[1.7206,41.22892],[1.7223,41.2297],[1.7235,41.22924],[1.72419,41.22877]]]}},{"type":"Feature","properties":{"id":"0830704004"},"geometry":{"type":"Polygon","coordinates":[[[1.7212,41.22721],[1.72258,41.22679],[1.72263,41.22634],[1.72249,41.22553],[1.71986,41.22469],[1.718,41.22642],[1.7202,41.22703],[1.72048,41.22713],[1.72053,41.22725],[1.7212,41.22721]]]}},{"type":"Feature","properties":{"id":"0830704005"},"geometry":{"type":"Polygon","coordinates":[[[1.71674,41.22748],[1.71767,41.22633],[1.718,41.22642],[1.71986,41.22469],[1.71773,41.22381],[1.71714,41.22443],[1.71672,41.2247],[1.71526,41.22654],[1.71495,41.22648],[1.71483,41.22666],[1.71674,41.22748]]]}},{"type":"Feature","properties":{"id":"0830704006"},"geometry":{"type":"Polygon","coordinates":[[[1.72219,41.22374],[1.71941,41.22285],[1.71807,41.22395],[1.71993,41.22472],[1.72154,41.22523],[1.72152,41.22478],[1.72219,41.22374]]]}},{"type":"Feature","properties":{"id":"0830704007"},"geometry":{"type":"Polygon","coordinates":[[[1.70071,41.22282],[1.69995,41.22279],[1.69751,41.22204],[1.69714,41.22204],[1.69639,41.22228],[1.69559,41.22279],[1.69172,41.22584],[1.69196,41.22916],[1.69132,41.23008],[1.69105,41.23152],[1.69242,41.23119],[1.69454,41.22992],[1.6952,41.2299],[1.69648,41.23025],[1.69688,41.23024],[1.69714,41.23047],[1.69775,41.2304],[1.6987,41.2299],[1.69893,41.22998],[1.70023,41.22962],[1.70076,41.22916],[1.70137,41.22886],[1.70288,41.22886],[1.70409,41.22873],[1.70488,41.22862],[1.70557,41.22829],[1.70444,41.22704],[1.70169,41.2247],[1.70109,41.22381],[1.70071,41.22282]]]}},{"type":"Feature","properties":{"id":"0830704008"},"geometry":{"type":"Polygon","coordinates":[[[1.71773,41.22381],[1.71526,41.22279],[1.71463,41.22363],[1.71717,41.2244],[1.71773,41.22381]]]}},{"type":"Feature","properties":{"id":"0830704009"},"geometry":{"type":"Polygon","coordinates":[[[1.71941,41.22285],[1.71877,41.22264],[1.7193,41.22205],[1.71651,41.22111],[1.71526,41.22279],[1.71807,41.22395],[1.71941,41.22285]]]}},{"type":"Feature","properties":{"id":"0830704010"},"geometry":{"type":"Polygon","coordinates":[[[1.71651,41.22111],[1.71018,41.21898],[1.70946,41.21938],[1.70827,41.21987],[1.71526,41.22279],[1.71651,41.22111]]]}},{"type":"Feature","properties":{"id":"0830704011"},"geometry":{"type":"Polygon","coordinates":[[[1.71717,41.2244],[1.71524,41.22381],[1.71366,41.22584],[1.7145,41.22629],[1.71526,41.22654],[1.71672,41.2247],[1.71717,41.2244]]]}},{"type":"Feature","properties":{"id":"0830704012"},"geometry":{"type":"Polygon","coordinates":[[[1.71524,41.22382],[1.71463,41.22363],[1.71526,41.22279],[1.71136,41.22114],[1.70931,41.22373],[1.71366,41.22584],[1.71524,41.22382]]]}},{"type":"Feature","properties":{"id":"0830704013"},"geometry":{"type":"Polygon","coordinates":[[[1.71136,41.22114],[1.70827,41.21987],[1.70946,41.21938],[1.71017,41.21898],[1.70918,41.21862],[1.70774,41.21753],[1.70738,41.21791],[1.7066,41.21846],[1.70578,41.21937],[1.70508,41.21965],[1.70424,41.22057],[1.70451,41.22074],[1.7058,41.22211],[1.7083,41.22336],[1.70931,41.22373],[1.71136,41.22114]]]}},{"type":"Feature","properties":{"id":"0830704014"},"geometry":{"type":"Polygon","coordinates":[[[1.70931,41.22373],[1.70807,41.22325],[1.70568,41.22203],[1.70451,41.22074],[1.70363,41.22027],[1.70346,41.21992],[1.70277,41.21933],[1.70267,41.21939],[1.70233,41.21924],[1.70179,41.2188],[1.70096,41.21749],[1.69979,41.2167],[1.69925,41.21619],[1.69977,41.2189],[1.70044,41.22088],[1.70068,41.22271],[1.70109,41.22381],[1.70169,41.2247],[1.70444,41.22704],[1.70557,41.22829],[1.70583,41.22824],[1.70931,41.22373]]]}},{"type":"Feature","properties":{"id":"0830704015"},"geometry":{"type":"Polygon","coordinates":[[[1.72078,41.22724],[1.72053,41.22725],[1.72048,41.22713],[1.7202,41.22703],[1.71767,41.22633],[1.71684,41.22736],[1.71789,41.22787],[1.71858,41.22815],[1.71869,41.22811],[1.72061,41.22892],[1.72104,41.22849],[1.72098,41.22843],[1.72167,41.22781],[1.72078,41.22724]]]}},{"type":"Feature","properties":{"id":"0830704016"},"geometry":{"type":"Polygon","coordinates":[[[1.69506,41.2706],[1.69518,41.26983],[1.69502,41.26927],[1.695,41.26844],[1.69466,41.26735],[1.69418,41.26654],[1.69451,41.26612],[1.69689,41.26445],[1.69717,41.26301],[1.69711,41.26238],[1.69687,41.26206],[1.69643,41.262],[1.6972,41.26136],[1.69736,41.26111],[1.69744,41.26091],[1.69715,41.26067],[1.69687,41.26073],[1.69721,41.25992],[1.69948,41.25761],[1.69993,41.25731],[1.70115,41.25675],[1.70225,41.2564],[1.7029,41.25586],[1.70333,41.25535],[1.70319,41.25501],[1.70319,41.25457],[1.70291,41.25401],[1.70291,41.25313],[1.70277,41.25286],[1.70297,41.2522],[1.70293,41.25143],[1.7023,41.25029],[1.7014,41.24929],[1.70123,41.24831],[1.70123,41.24725],[1.70142,41.24652],[1.70119,41.24545],[1.70129,41.24484],[1.70197,41.24377],[1.7021,41.24336],[1.70317,41.24327],[1.70345,41.24318],[1.70427,41.24264],[1.70501,41.24248],[1.70557,41.24256],[1.70587,41.24205],[1.70578,41.24112],[1.70663,41.24113],[1.70706,41.24069],[1.7073,41.23984],[1.70871,41.24003],[1.70901,41.23943],[1.7094,41.23928],[1.71005,41.23922],[1.71076,41.23935],[1.71093,41.23915],[1.71129,41.23782],[1.71153,41.23757],[1.71166,41.23754],[1.71203,41.23768],[1.71329,41.23752],[1.71348,41.23741],[1.71356,41.23725],[1.71329,41.23688],[1.71334,41.23639],[1.71356,41.23602],[1.71399,41.23573],[1.71428,41.23538],[1.71508,41.23472],[1.71594,41.23426],[1.71701,41.23436],[1.71804,41.2333],[1.7185,41.23297],[1.71863,41.23272],[1.71966,41.23212],[1.72028,41.23113],[1.7213,41.23005],[1.7223,41.2297],[1.71684,41.22736],[1.71674,41.22748],[1.71566,41.22697],[1.71561,41.22704],[1.71483,41.22666],[1.71495,41.22648],[1.70931,41.22373],[1.70583,41.22824],[1.70565,41.22825],[1.70488,41.22862],[1.70409,41.22873],[1.70288,41.22886],[1.70137,41.22886],[1.70076,41.22916],[1.70023,41.22962],[1.69893,41.22998],[1.6987,41.2299],[1.69775,41.2304],[1.69714,41.23047],[1.69688,41.23024],[1.69648,41.23025],[1.6952,41.2299],[1.69454,41.22992],[1.69242,41.23119],[1.6919,41.23136],[1.69104,41.23153],[1.68783,41.23154],[1.68767,41.23138],[1.68786,41.23081],[1.68783,41.23064],[1.68693,41.22939],[1.68572,41.22844],[1.68476,41.22837],[1.68367,41.22811],[1.68272,41.22835],[1.68228,41.22809],[1.682,41.22808],[1.68159,41.22829],[1.68122,41.22862],[1.68064,41.22856],[1.67992,41.22867],[1.67966,41.22882],[1.6793,41.2293],[1.67895,41.22919],[1.67858,41.22888],[1.67752,41.22907],[1.67723,41.22903],[1.67655,41.22927],[1.67588,41.22964],[1.67356,41.2302],[1.67083,41.23823],[1.669,41.24529],[1.66959,41.24637],[1.67043,41.24868],[1.67159,41.25002],[1.67064,41.25406],[1.67241,41.25548],[1.67546,41.25652],[1.67724,41.26031],[1.67992,41.2629],[1.68305,41.26483],[1.69098,41.27161],[1.69506,41.2706]]]}},{"type":"Feature","properties":{"id":"0830704017"},"geometry":{"type":"Polygon","coordinates":[[[1.69105,41.23152],[1.69132,41.23008],[1.69196,41.22916],[1.69172,41.22584],[1.69559,41.22279],[1.69639,41.22228],[1.69714,41.22204],[1.69751,41.22204],[1.69995,41.22279],[1.70071,41.22282],[1.70044,41.22088],[1.69977,41.2189],[1.69925,41.21619],[1.69749,41.21491],[1.6959,41.21323],[1.69173,41.2118],[1.68716,41.2107],[1.6804,41.21005],[1.67356,41.2302],[1.67588,41.22964],[1.67655,41.22927],[1.67723,41.22903],[1.67752,41.22907],[1.67858,41.22888],[1.67895,41.22919],[1.6793,41.2293],[1.67966,41.22882],[1.67992,41.22867],[1.68064,41.22856],[1.68122,41.22862],[1.68159,41.22829],[1.682,41.22808],[1.68228,41.22809],[1.68272,41.22835],[1.68367,41.22811],[1.68476,41.22837],[1.68572,41.22844],[1.68693,41.22939],[1.68783,41.23064],[1.68786,41.23081],[1.68767,41.23138],[1.68783,41.23154],[1.69105,41.23152]]]}}]}