{"type":"FeatureCollection","features":[{"type":"Feature","properties":{"id":"1507801001"},"geometry":{"type":"Polygon","coordinates":[[[-8.54533,42.88293],[-8.54544,42.8817],[-8.54515,42.88171],[-8.54505,42.88138],[-8.54495,42.88129],[-8.54465,42.88133],[-8.54453,42.88112],[-8.54391,42.88126],[-8.54305,42.88124],[-8.54262,42.88114],[-8.5424,42.88119],[-8.54231,42.88136],[-8.54097,42.88184],[-8.54018,42.88186],[-8.54022,42.88109],[-8.54104,42.87919],[-8.54213,42.87909],[-8.54228,42.8797],[-8.54313,42.8797],[-8.54421,42.87984],[-8.54436,42.87994],[-8.54519,42.87981],[-8.54545,42.88094],[-8.54656,42.88083],[-8.54679,42.88177],[-8.54664,42.88242],[-8.54573,42.88293],[-8.54533,42.88293]]]}},{"type":"Feature","properties":{"id":"1507801002"},"geometry":{"type":"Polygon","coordinates":[[[-8.54965,42.8849],[-8.54725,42.88419],[-8.54664,42.8836],[-8.54658,42.88306],[-8.54679,42.88177],[-8.54656,42.88083],[-8.54867,42.88026],[-8.54914,42.88024],[-8.54952,42.88059],[-8.54957,42.88045],[-8.55091,42.88016],[-8.55263,42.87947],[-8.55319,42.87984],[-8.5531,42.87992],[-8.55483,42.88044],[-8.55486,42.88071],[-8.55435,42.88129],[-8.55514,42.8815],[-8.5554,42.88218],[-8.55567,42.88241],[-8.55588,42.8822],[-8.55656,42.88255],[-8.5561,42.88268],[-8.55596,42.88284],[-8.55629,42.88296],[-8.55606,42.88339],[-8.55544,42.88363],[-8.55481,42.88319],[-8.55395,42.88318],[-8.55333,42.88265],[-8.55265,42.88312],[-8.55271,42.88342],[-8.55126,42.88409],[-8.55115,42.88452],[-8.55098,42.88457],[-8.55071,42.88507],[-8.54966,42.88482],[-8.54965,42.8849]]]}},{"type":"Feature","properties":{"id":"1507801003"},"geometry":{"type":"Polygon","coordinates":[[[-8.54721,42.89697],[-8.54759,42.89225],[-8.54699,42.8898],[-8.54696,42.88875],[-8.54714,42.88795],[-8.54772,42.88658],[-8.54772,42.88536],[-8.54815,42.88447],[-8.54965,42.8849],[-8.54966,42.88482],[-8.55079,42.88509],[-8.55147,42.88616],[-8.55239,42.88637],[-8.55229,42.88657],[-8.5516,42.88673],[-8.55185,42.88732],[-8.55188,42.88793],[-8.55126,42.88794],[-8.55112,42.88858],[-8.54872,42.889],[-8.54918,42.88943],[-8.54933,42.88977],[-8.55004,42.89031],[-8.55029,42.89068],[-8.5501,42.89183],[-8.55068,42.89243],[-8.55073,42.89268],[-8.55063,42.89297],[-8.55017,42.89297],[-8.55011,42.89347],[-8.5496,42.89403],[-8.54995,42.89514],[-8.54964,42.89556],[-8.54995,42.8958],[-8.55002,42.89632],[-8.54984,42.89651],[-8.54862,42.89721],[-8.54721,42.89697]]]}},{"type":"Feature","properties":{"id":"1507801004"},"geometry":{"type":"Polygon","coordinates":[[[-8.55656,42.88255],[-8.55588,42.8822],[-8.55567,42.88241],[-8.5554,42.88218],[-8.55514,42.8815],[-8.55435,42.88129],[-8.55486,42.88071],[-8.55483,42.88044],[-8.5531,42.87992],[-8.55319,42.87984],[-8.55263,42.87947],[-8.55091,42.88016],[-8.54957,42.88045],[-8.54956,42.88014],[-8.54938,42.87981],[-8.54804,42.87821],[-8.54715,42.87753],[-8.5463,42.8775],[-8.54619,42.87727],[-8.54626,42.8769],[-8.54671,42.87684],[-8.55005,42.8756],[-8.55149,42.87729],[-8.55112,42.87819],[-8.55439,42.87797],[-8.55538,42.87838],[-8.55551,42.87852],[-8.55733,42.87778],[-8.55856,42.87797],[-8.55892,42.87816],[-8.55895,42.87834],[-8.5584,42.88024],[-8.55811,42.88033],[-8.5579,42.88024],[-8.55794,42.88038],[-8.55764,42.88103],[-8.55759,42.88178],[-8.55743,42.88218],[-8.55685,42.88249],[-8.55656,42.88255]]]}},{"type":"Feature","properties":{"id":"1507801005"},"geometry":{"type":"Polygon","coordinates":[[[-8.58043,42.92421],[-8.58039,42.924],[-8.58071,42.92306],[-8.58064,42.92285],[-8.58088,42.92266],[-8.5816,42.92246],[-8.58287,42.9219],[-8.58163,42.92098],[-8.58121,42.91972],[-8.57956,42.91982],[-8.57925,42.91972],[-8.57875,42.91992],[-8.57824,42.91986],[-8.5781,42.91978],[-8.5781,42.91912],[-8.57844,42.91762],[-8.57876,42.9169],[-8.57929,42.91615],[-8.57868,42.91534],[-8.57948,42.91493],[-8.58037,42.91527],[-8.58088,42.91465],[-8.58176,42.91276],[-8.58131,42.91212],[-8.57935,42.91014],[-8.5791,42.91],[-8.57723,42.90968],[-8.57651,42.90893],[-8.57593,42.90861],[-8.57542,42.90813],[-8.57318,42.90687],[-8.57137,42.90538],[-8.5707,42.90467],[-8.56904,42.90391],[-8.56558,42.90163],[-8.56547,42.90171],[-8.56517,42.90135],[-8.56465,42.90096],[-8.5645,42.90074],[-8.56496,42.89987],[-8.56505,42.89925],[-8.56488,42.89877],[-8.56411,42.89772],[-8.56381,42.897],[-8.56336,42.89643],[-8.56285,42.8953],[-8.56285,42.89495],[-8.56268,42.89455],[-8.56288,42.89376],[-8.56374,42.89231],[-8.56438,42.89164],[-8.56489,42.89152],[-8.56462,42.89126],[-8.56484,42.89101],[-8.56474,42.89019],[-8.56576,42.88987],[-8.56508,42.88877],[-8.56507,42.88776],[-8.56425,42.88696],[-8.56337,42.887],[-8.56266,42.8868],[-8.56216,42.88638],[-8.56172,42.88656],[-8.56145,42.8865],[-8.56112,42.88632],[-8.56075,42.88586],[-8.56029,42.88591],[-8.55953,42.88624],[-8.55961,42.88721],[-8.55949,42.8879],[-8.55888,42.88811],[-8.55722,42.88839],[-8.55633,42.88832],[-8.55593,42.88858],[-8.55582,42.88888],[-8.55535,42.88908],[-8.55382,42.88882],[-8.55332,42.88792],[-8.55295,42.88677],[-8.55239,42.88637],[-8.55147,42.88616],[-8.55071,42.88507],[-8.55098,42.88457],[-8.55115,42.88452],[-8.55126,42.88409],[-8.55271,42.88342],[-8.55265,42.88312],[-8.55333,42.88265],[-8.55395,42.88318],[-8.55481,42.88319],[-8.55544,42.88363],[-8.55606,42.88339],[-8.55629,42.88296],[-8.55596,42.88284],[-8.5561,42.88268],[-8.55685,42.88249],[-8.55743,42.88218],[-8.55759,42.88178],[-8.55764,42.88103],[-8.55794,42.88038],[-8.5579,42.88024],[-8.55811,42.88033],[-8.5584,42.88024],[-8.5588,42.87904],[-8.55892,42.87818],[-8.55934,42.87828],[-8.56005,42.87817],[-8.56095,42.87759],[-8.56303,42.87605],[-8.56327,42.87579],[-8.56338,42.8751],[-8.56361,42.87482],[-8.5654,42.87456],[-8.56677,42.87526],[-8.56781,42.87435],[-8.56849,42.874],[-8.56933,42.87408],[-8.57031,42.87462],[-8.5708,42.87503],[-8.5714,42.87517],[-8.57309,42.87513],[-8.57414,42.87529],[-8.57542,42.87525],[-8.57595,42.87502],[-8.57636,42.87472],[-8.57685,42.87418],[-8.57744,42.87466],[-8.57732,42.8749],[-8.57789,42.87746],[-8.57833,42.87725],[-8.57934,42.87636],[-8.58035,42.87567],[-8.58192,42.87534],[-8.58267,42.87487],[-8.58298,42.87495],[-8.5834,42.87491],[-8.58362,42.87474],[-8.58393,42.8741],[-8.58411,42.87398],[-8.58484,42.87381],[-8.58542,42.87392],[-8.58561,42.87441],[-8.58523,42.87484],[-8.5852,42.87519],[-8.58494,42.87559],[-8.58475,42.87635],[-8.58508,42.87675],[-8.58516,42.87734],[-8.58559,42.87793],[-8.58472,42.87892],[-8.58509,42.87941],[-8.58504,42.87986],[-8.5849,42.88008],[-8.5845,42.88038],[-8.58442,42.88145],[-8.58465,42.88262],[-8.58481,42.88277],[-8.58507,42.88272],[-8.58532,42.88254],[-8.58565,42.88249],[-8.58624,42.88221],[-8.58703,42.88175],[-8.58803,42.88363],[-8.58796,42.88467],[-8.58809,42.8852],[-8.58878,42.88625],[-8.58916,42.88742],[-8.59004,42.88896],[-8.59067,42.88966],[-8.5913,42.89063],[-8.59234,42.89175],[-8.59381,42.89265],[-8.59639,42.89355],[-8.59757,42.89477],[-8.59757,42.89526],[-8.59916,42.89469],[-8.60089,42.89388],[-8.60103,42.8946],[-8.6015,42.89572],[-8.60249,42.89736],[-8.6029,42.89737],[-8.60327,42.89779],[-8.60364,42.89767],[-8.60378,42.89749],[-8.6041,42.89741],[-8.60441,42.89757],[-8.6048,42.89809],[-8.60492,42.89854],[-8.60487,42.89899],[-8.60445,42.89967],[-8.60412,42.89992],[-8.60362,42.90027],[-8.60264,42.90022],[-8.60103,42.90062],[-8.5997,42.90139],[-8.599,42.90242],[-8.59841,42.90264],[-8.59795,42.90298],[-8.59778,42.90364],[-8.59726,42.90438],[-8.59734,42.90515],[-8.59786,42.90675],[-8.59764,42.90719],[-8.59777,42.90729],[-8.59813,42.9073],[-8.59855,42.90703],[-8.60008,42.90696],[-8.60083,42.90727],[-8.60112,42.90789],[-8.60167,42.90821],[-8.60207,42.90871],[-8.60276,42.9088],[-8.60321,42.90858],[-8.60374,42.90911],[-8.60417,42.90924],[-8.60476,42.909],[-8.60548,42.90892],[-8.60567,42.90844],[-8.60631,42.90813],[-8.60686,42.90696],[-8.60818,42.9055],[-8.60856,42.90537],[-8.60982,42.90563],[-8.61003,42.90532],[-8.61053,42.90572],[-8.61087,42.90583],[-8.61143,42.90583],[-8.61219,42.90607],[-8.61287,42.90824],[-8.61273,42.90941],[-8.61275,42.91142],[-8.61233,42.91248],[-8.61169,42.91299],[-8.6115,42.91326],[-8.61148,42.91345],[-8.6119,42.91401],[-8.612,42.91441],[-8.61192,42.91491],[-8.6118,42.91521],[-8.61155,42.91543],[-8.61138,42.91536],[-8.61116,42.91551],[-8.61092,42.91594],[-8.61005,42.91649],[-8.60955,42.91712],[-8.60871,42.91669],[-8.60829,42.91597],[-8.60651,42.91588],[-8.6058,42.91498],[-8.60519,42.91469],[-8.60439,42.91445],[-8.59415,42.91246],[-8.58917,42.91384],[-8.59132,42.9178],[-8.58959,42.91888],[-8.58922,42.91951],[-8.58916,42.91974],[-8.58963,42.92125],[-8.58941,42.92212],[-8.58899,42.92264],[-8.58879,42.92315],[-8.58872,42.92397],[-8.58858,42.92417],[-8.58831,42.92437],[-8.58772,42.92448],[-8.58462,42.92473],[-8.58364,42.92494],[-8.58173,42.92459],[-8.58043,42.92421]]]}},{"type":"Feature","properties":{"id":"1507801006"},"geometry":{"type":"Polygon","coordinates":[[[-8.5849,42.87577],[-8.5852,42.87519],[-8.58523,42.87484],[-8.58561,42.87441],[-8.58542,42.87392],[-8.58484,42.87381],[-8.58411,42.87398],[-8.58393,42.8741],[-8.58362,42.87474],[-8.5834,42.87491],[-8.58298,42.87495],[-8.58267,42.87487],[-8.58192,42.87534],[-8.58035,42.87567],[-8.57934,42.87636],[-8.57833,42.87725],[-8.57789,42.87746],[-8.57732,42.8749],[-8.57767,42.87437],[-8.57849,42.87377],[-8.57885,42.87332],[-8.57915,42.8727],[-8.57922,42.87194],[-8.57822,42.87077],[-8.57674,42.86953],[-8.57628,42.86925],[-8.57608,42.86922],[-8.57653,42.8682],[-8.57703,42.86762],[-8.57691,42.86703],[-8.57654,42.86682],[-8.57704,42.86675],[-8.57723,42.86645],[-8.5775,42.86554],[-8.57795,42.86474],[-8.57833,42.86362],[-8.57845,42.86289],[-8.57964,42.86198],[-8.58017,42.86129],[-8.58044,42.86031],[-8.58041,42.86008],[-8.57958,42.85901],[-8.58019,42.85857],[-8.58032,42.85831],[-8.58051,42.85766],[-8.58027,42.85735],[-8.58108,42.85725],[-8.58134,42.8571],[-8.58153,42.85682],[-8.58176,42.85609],[-8.58173,42.85508],[-8.58186,42.85447],[-8.58432,42.85517],[-8.5847,42.85517],[-8.58545,42.85486],[-8.58625,42.85482],[-8.58699,42.85569],[-8.58711,42.85619],[-8.58725,42.85633],[-8.58771,42.85633],[-8.58864,42.85662],[-8.59003,42.85672],[-8.59209,42.85645],[-8.59319,42.85606],[-8.5931,42.85885],[-8.59257,42.8591],[-8.59249,42.85924],[-8.5932,42.85968],[-8.59342,42.86025],[-8.59629,42.85945],[-8.59751,42.85878],[-8.59779,42.85873],[-8.59787,42.85852],[-8.59837,42.85817],[-8.59876,42.85852],[-8.60222,42.85656],[-8.6026,42.85648],[-8.6029,42.85654],[-8.60302,42.85706],[-8.60247,42.85831],[-8.60254,42.85868],[-8.60279,42.85896],[-8.60295,42.85979],[-8.60313,42.86005],[-8.60368,42.86027],[-8.60391,42.85903],[-8.60417,42.8584],[-8.60518,42.85853],[-8.605,42.86058],[-8.60568,42.86068],[-8.60528,42.86147],[-8.60589,42.86186],[-8.60653,42.86164],[-8.60671,42.8619],[-8.60697,42.86253],[-8.60687,42.86273],[-8.60658,42.86296],[-8.60652,42.86322],[-8.60665,42.86388],[-8.60683,42.864],[-8.6102,42.86421],[-8.60925,42.86595],[-8.60887,42.86628],[-8.60779,42.86671],[-8.60572,42.86693],[-8.60413,42.86854],[-8.60326,42.86896],[-8.6022,42.8689],[-8.60118,42.86866],[-8.60079,42.86866],[-8.6006,42.86875],[-8.60043,42.8689],[-8.60046,42.87006],[-8.60022,42.8705],[-8.59999,42.87043],[-8.59961,42.86999],[-8.59892,42.8696],[-8.59627,42.86965],[-8.59547,42.87053],[-8.59488,42.87149],[-8.59486,42.87325],[-8.59441,42.87447],[-8.594,42.87518],[-8.59369,42.8763],[-8.59314,42.87707],[-8.59279,42.87686],[-8.59011,42.87642],[-8.58837,42.8759],[-8.58811,42.87599],[-8.5849,42.87577]]]}},{"type":"Feature","properties":{"id":"1507801007"},"geometry":{"type":"Polygon","coordinates":[[[-8.61155,42.91543],[-8.6118,42.91521],[-8.612,42.91441],[-8.6119,42.91401],[-8.61148,42.91345],[-8.6115,42.91326],[-8.61169,42.91299],[-8.61233,42.91248],[-8.61275,42.91142],[-8.61273,42.90941],[-8.61287,42.90824],[-8.61219,42.90607],[-8.61143,42.90583],[-8.61087,42.90583],[-8.61053,42.90572],[-8.61003,42.90532],[-8.60982,42.90563],[-8.60856,42.90537],[-8.60818,42.9055],[-8.60686,42.90696],[-8.60631,42.90813],[-8.60567,42.90844],[-8.60548,42.90892],[-8.60476,42.909],[-8.60417,42.90924],[-8.60374,42.90911],[-8.60321,42.90858],[-8.60276,42.9088],[-8.60207,42.90871],[-8.60167,42.90821],[-8.60112,42.90789],[-8.60083,42.90727],[-8.60008,42.90696],[-8.59855,42.90703],[-8.59813,42.9073],[-8.59777,42.90729],[-8.59764,42.90719],[-8.59786,42.90675],[-8.59734,42.90515],[-8.59726,42.90438],[-8.59778,42.90364],[-8.59795,42.90298],[-8.59841,42.90264],[-8.599,42.90242],[-8.5997,42.90139],[-8.60103,42.90062],[-8.60264,42.90022],[-8.60362,42.90027],[-8.60412,42.89992],[-8.60445,42.89967],[-8.60487,42.89899],[-8.60492,42.89854],[-8.6048,42.89809],[-8.60441,42.89757],[-8.6041,42.89741],[-8.60378,42.89749],[-8.60364,42.89767],[-8.60327,42.89779],[-8.6029,42.89737],[-8.60249,42.89736],[-8.6015,42.89572],[-8.60103,42.8946],[-8.60089,42.89388],[-8.59916,42.89469],[-8.59757,42.89526],[-8.59757,42.89477],[-8.59639,42.89355],[-8.59381,42.89265],[-8.59234,42.89175],[-8.5913,42.89063],[-8.59067,42.88966],[-8.59004,42.88896],[-8.58916,42.88742],[-8.58878,42.88625],[-8.58809,42.8852],[-8.58796,42.88467],[-8.58803,42.88363],[-8.58703,42.88175],[-8.58565,42.88249],[-8.58481,42.88277],[-8.58465,42.88262],[-8.58442,42.88145],[-8.5845,42.88038],[-8.5849,42.88008],[-8.58504,42.87986],[-8.58509,42.87941],[-8.58472,42.87892],[-8.58559,42.87793],[-8.58516,42.87734],[-8.58508,42.87675],[-8.58475,42.87635],[-8.5849,42.87577],[-8.58811,42.87599],[-8.58837,42.8759],[-8.59011,42.87642],[-8.59279,42.87686],[-8.59314,42.87707],[-8.59369,42.8763],[-8.594,42.87518],[-8.59441,42.87447],[-8.59486,42.87325],[-8.59488,42.87149],[-8.59547,42.87053],[-8.59627,42.86965],[-8.59892,42.8696],[-8.59961,42.86999],[-8.59999,42.87043],[-8.60022,42.8705],[-8.60046,42.87006],[-8.60043,42.8689],[-8.6006,42.86875],[-8.60079,42.86866],[-8.60118,42.86866],[-8.60278,42.86897],[-8.60326,42.86896],[-8.60368,42.8688],[-8.60413,42.86854],[-8.60572,42.86693],[-8.60779,42.86671],[-8.60887,42.86628],[-8.60925,42.86595],[-8.6102,42.86421],[-8.61066,42.86424],[-8.61638,42.86647],[-8.61669,42.86643],[-8.61766,42.866],[-8.61823,42.86633],[-8.61892,42.86652],[-8.61932,42.86679],[-8.61946,42.86711],[-8.61896,42.86859],[-8.61913,42.86882],[-8.61949,42.86895],[-8.62169,42.86883],[-8.62201,42.86891],[-8.62228,42.86914],[-8.62292,42.87033],[-8.62325,42.87063],[-8.62384,42.87096],[-8.62396,42.87117],[-8.62441,42.87132],[-8.62539,42.87143],[-8.6258,42.87162],[-8.62586,42.87124],[-8.62648,42.87155],[-8.62772,42.87175],[-8.62807,42.87117],[-8.62944,42.87163],[-8.6308,42.87227],[-8.63007,42.87363],[-8.62949,42.87413],[-8.6294,42.87464],[-8.62945,42.87486],[-8.63038,42.87491],[-8.63059,42.8752],[-8.63077,42.87608],[-8.62929,42.87635],[-8.62904,42.87658],[-8.62895,42.87827],[-8.62771,42.87814],[-8.62712,42.87888],[-8.62446,42.88131],[-8.62395,42.88189],[-8.62347,42.88208],[-8.62387,42.88272],[-8.62335,42.88304],[-8.62376,42.88411],[-8.62382,42.88526],[-8.62372,42.88587],[-8.62312,42.88708],[-8.62295,42.8881],[-8.6215,42.88877],[-8.62139,42.88897],[-8.62229,42.89001],[-8.62231,42.89197],[-8.62398,42.8936],[-8.62416,42.89435],[-8.62443,42.89473],[-8.62422,42.8958],[-8.62459,42.89693],[-8.62478,42.8983],[-8.62417,42.90041],[-8.62376,42.90077],[-8.62186,42.9034],[-8.62265,42.90417],[-8.62263,42.90469],[-8.62344,42.90562],[-8.62352,42.90726],[-8.62114,42.9077],[-8.62218,42.90895],[-8.62135,42.91108],[-8.62153,42.91158],[-8.62113,42.913],[-8.62009,42.91459],[-8.61974,42.91564],[-8.61878,42.91714],[-8.61842,42.9172],[-8.61713,42.91669],[-8.61516,42.91618],[-8.6132,42.91668],[-8.61279,42.91638],[-8.6118,42.91595],[-8.6116,42.91577],[-8.61155,42.91543]]]}},{"type":"Feature","properties":{"id":"1507802001"},"geometry":{"type":"Polygon","coordinates":[[[-8.54052,42.88242],[-8.54018,42.88186],[-8.54097,42.88184],[-8.54164,42.88163],[-8.54177,42.88151],[-8.54231,42.88136],[-8.5424,42.88119],[-8.54262,42.88114],[-8.54305,42.88124],[-8.54391,42.88126],[-8.54453,42.88112],[-8.54465,42.88133],[-8.54495,42.88129],[-8.54505,42.88138],[-8.54515,42.88171],[-8.54544,42.8817],[-8.54533,42.88293],[-8.54488,42.88313],[-8.54316,42.88339],[-8.54115,42.8828],[-8.54052,42.88242]]]}},{"type":"Feature","properties":{"id":"1507802002"},"geometry":{"type":"Polygon","coordinates":[[[-8.54694,42.88904],[-8.54624,42.88808],[-8.5453,42.88736],[-8.5451,42.88765],[-8.54486,42.88771],[-8.54408,42.88832],[-8.54309,42.88804],[-8.54285,42.8878],[-8.54271,42.88737],[-8.54268,42.88704],[-8.54287,42.88666],[-8.54271,42.88651],[-8.54234,42.88703],[-8.54049,42.88881],[-8.54019,42.88895],[-8.53981,42.88894],[-8.54142,42.88697],[-8.54122,42.88675],[-8.54186,42.88574],[-8.54175,42.88562],[-8.54111,42.88553],[-8.54175,42.88461],[-8.54264,42.88401],[-8.54317,42.88339],[-8.54488,42.88313],[-8.54533,42.88293],[-8.54573,42.88293],[-8.54664,42.88242],[-8.54658,42.8833],[-8.54671,42.88371],[-8.54726,42.8842],[-8.54815,42.88447],[-8.54772,42.88536],[-8.54772,42.88658],[-8.54712,42.88801],[-8.54694,42.88904]]]}},{"type":"Feature","properties":{"id":"1507802003"},"geometry":{"type":"Polygon","coordinates":[[[-8.53792,42.88776],[-8.53892,42.88733],[-8.54022,42.8865],[-8.5407,42.88605],[-8.54099,42.88551],[-8.54182,42.88567],[-8.54185,42.88583],[-8.54122,42.88675],[-8.54142,42.88697],[-8.53981,42.88894],[-8.53808,42.88839],[-8.53815,42.88825],[-8.53792,42.88776]]]}},{"type":"Feature","properties":{"id":"1507802004"},"geometry":{"type":"Polygon","coordinates":[[[-8.5322,42.88949],[-8.5326,42.88848],[-8.53274,42.88843],[-8.53298,42.88863],[-8.5336,42.88829],[-8.53439,42.88756],[-8.53615,42.88827],[-8.5361,42.8879],[-8.5366,42.88771],[-8.53828,42.88675],[-8.53874,42.88668],[-8.53881,42.8863],[-8.53937,42.8862],[-8.53966,42.88526],[-8.54062,42.88478],[-8.54099,42.8847],[-8.54133,42.88477],[-8.54082,42.88587],[-8.54022,42.8865],[-8.53882,42.88738],[-8.53621,42.88854],[-8.53637,42.88888],[-8.53594,42.88915],[-8.53423,42.89086],[-8.53361,42.89164],[-8.53285,42.89124],[-8.53243,42.89062],[-8.5322,42.88949]]]}},{"type":"Feature","properties":{"id":"1507802005"},"geometry":{"type":"Polygon","coordinates":[[[-8.53364,42.89161],[-8.53411,42.89098],[-8.53614,42.88902],[-8.53685,42.88959],[-8.53774,42.88969],[-8.53754,42.89044],[-8.53802,42.8909],[-8.53809,42.89115],[-8.53777,42.89141],[-8.53582,42.89162],[-8.5354,42.89148],[-8.53456,42.89205],[-8.53364,42.89161]]]}},{"type":"Feature","properties":{"id":"1507802006"},"geometry":{"type":"Polygon","coordinates":[[[-8.53365,42.89954],[-8.53399,42.89708],[-8.53427,42.8961],[-8.53487,42.89512],[-8.53521,42.89431],[-8.5358,42.89357],[-8.53634,42.89311],[-8.5373,42.89304],[-8.53771,42.89266],[-8.53812,42.89263],[-8.53856,42.893],[-8.53829,42.8937],[-8.53853,42.89419],[-8.53903,42.8945],[-8.53924,42.89431],[-8.53972,42.89415],[-8.54065,42.8927],[-8.54061,42.8926],[-8.5432,42.89324],[-8.54334,42.89347],[-8.54333,42.89512],[-8.54368,42.8954],[-8.54362,42.89591],[-8.54432,42.89608],[-8.54461,42.89653],[-8.54571,42.89628],[-8.54575,42.89722],[-8.54714,42.89727],[-8.54721,42.89697],[-8.54862,42.89721],[-8.54984,42.89651],[-8.55002,42.89632],[-8.54995,42.8958],[-8.54964,42.89556],[-8.54989,42.89528],[-8.54995,42.89504],[-8.5496,42.89403],[-8.55011,42.89347],[-8.55017,42.89297],[-8.55063,42.89297],[-8.55073,42.89268],[-8.55068,42.89243],[-8.5501,42.89183],[-8.55029,42.89068],[-8.55004,42.89031],[-8.54933,42.88977],[-8.54918,42.88943],[-8.54872,42.889],[-8.55112,42.88858],[-8.55126,42.88794],[-8.55188,42.88793],[-8.55185,42.88732],[-8.5516,42.88673],[-8.55229,42.88657],[-8.55238,42.88638],[-8.55295,42.88677],[-8.55332,42.88792],[-8.55382,42.88882],[-8.55535,42.88908],[-8.55582,42.88888],[-8.55593,42.88858],[-8.55633,42.88832],[-8.55722,42.88839],[-8.55888,42.88811],[-8.55949,42.8879],[-8.55961,42.88721],[-8.55953,42.88624],[-8.56029,42.88591],[-8.56075,42.88586],[-8.56112,42.88632],[-8.56145,42.8865],[-8.56172,42.88656],[-8.56216,42.88638],[-8.56266,42.8868],[-8.56337,42.887],[-8.56425,42.88696],[-8.56507,42.88776],[-8.56508,42.88877],[-8.56576,42.88987],[-8.56474,42.89019],[-8.56484,42.89101],[-8.56462,42.89126],[-8.56489,42.89152],[-8.56438,42.89164],[-8.56374,42.89231],[-8.56288,42.89376],[-8.56268,42.89455],[-8.56285,42.89495],[-8.56285,42.8953],[-8.56336,42.89643],[-8.56381,42.897],[-8.56411,42.89772],[-8.56488,42.89877],[-8.56505,42.89925],[-8.56496,42.89987],[-8.5645,42.90074],[-8.56547,42.90171],[-8.56558,42.90163],[-8.56904,42.90391],[-8.5707,42.90467],[-8.57137,42.90538],[-8.57318,42.90687],[-8.57542,42.90813],[-8.57593,42.90861],[-8.57651,42.90893],[-8.57723,42.90968],[-8.5791,42.91],[-8.57935,42.91014],[-8.58131,42.91212],[-8.58176,42.91276],[-8.58088,42.91465],[-8.58056,42.91507],[-8.58037,42.91527],[-8.57948,42.91493],[-8.57868,42.91534],[-8.57929,42.91615],[-8.57876,42.9169],[-8.57844,42.91762],[-8.5781,42.91912],[-8.5781,42.91978],[-8.57875,42.91992],[-8.57925,42.91972],[-8.57956,42.91982],[-8.58121,42.91972],[-8.58163,42.92098],[-8.58207,42.92136],[-8.58276,42.92177],[-8.58285,42.92197],[-8.58248,42.92204],[-8.5816,42.92246],[-8.58109,42.92258],[-8.58064,42.92285],[-8.58071,42.92306],[-8.58039,42.924],[-8.58043,42.92421],[-8.58011,42.92424],[-8.57888,42.92465],[-8.57693,42.92515],[-8.57593,42.92562],[-8.57494,42.92697],[-8.57327,42.9285],[-8.57142,42.92981],[-8.56962,42.93164],[-8.56877,42.9319],[-8.5666,42.93139],[-8.56618,42.93142],[-8.56559,42.9317],[-8.56487,42.93175],[-8.56385,42.93145],[-8.56282,42.93093],[-8.56187,42.9307],[-8.56117,42.93073],[-8.56042,42.93049],[-8.55995,42.92998],[-8.55975,42.92991],[-8.55912,42.93011],[-8.55835,42.93056],[-8.55754,42.9312],[-8.5573,42.93151],[-8.55742,42.93285],[-8.55708,42.93383],[-8.55577,42.93459],[-8.55463,42.93554],[-8.55457,42.93575],[-8.55401,42.9361],[-8.55212,42.93669],[-8.55187,42.93695],[-8.55235,42.93614],[-8.55277,42.93493],[-8.55279,42.93458],[-8.55265,42.93441],[-8.55221,42.93418],[-8.55163,42.93406],[-8.55146,42.93396],[-8.55148,42.93379],[-8.55259,42.93278],[-8.55196,42.93273],[-8.55224,42.93111],[-8.55205,42.93044],[-8.55175,42.93013],[-8.5507,42.93007],[-8.55061,42.92999],[-8.55066,42.92975],[-8.55109,42.92951],[-8.5529,42.92943],[-8.55408,42.92912],[-8.555,42.92835],[-8.55631,42.92697],[-8.55415,42.92469],[-8.55308,42.92521],[-8.55269,42.92555],[-8.55247,42.92599],[-8.55227,42.9261],[-8.5521,42.926],[-8.55187,42.92578],[-8.55123,42.92462],[-8.55108,42.92336],[-8.55114,42.92239],[-8.55098,42.92231],[-8.54989,42.92225],[-8.54968,42.92227],[-8.54962,42.92243],[-8.54958,42.92335],[-8.54979,42.92436],[-8.54936,42.92499],[-8.5487,42.92558],[-8.54745,42.92582],[-8.54523,42.92745],[-8.54446,42.92782],[-8.54414,42.92788],[-8.54332,42.92699],[-8.5426,42.92645],[-8.54232,42.92607],[-8.54192,42.92476],[-8.542,42.92372],[-8.54183,42.92337],[-8.54181,42.92268],[-8.54143,42.92112],[-8.54217,42.92087],[-8.54237,42.9207],[-8.54237,42.92031],[-8.54268,42.91972],[-8.54408,42.9182],[-8.54523,42.91785],[-8.54536,42.91773],[-8.54538,42.91709],[-8.54503,42.9168],[-8.54385,42.91616],[-8.54421,42.91498],[-8.54398,42.91424],[-8.54343,42.91339],[-8.54311,42.91247],[-8.54352,42.91207],[-8.54419,42.91203],[-8.54463,42.91181],[-8.54482,42.91133],[-8.54461,42.91044],[-8.54329,42.90863],[-8.54276,42.90704],[-8.54076,42.90709],[-8.53961,42.90695],[-8.53906,42.90642],[-8.53898,42.90523],[-8.53887,42.90516],[-8.53771,42.90517],[-8.53684,42.9043],[-8.53669,42.90382],[-8.53666,42.90202],[-8.53632,42.90135],[-8.53614,42.90057],[-8.53541,42.89992],[-8.53365,42.89954]]]}},{"type":"Feature","properties":{"id":"1507802007"},"geometry":{"type":"Polygon","coordinates":[[[-8.50885,42.90937],[-8.5091,42.90678],[-8.50982,42.90603],[-8.51083,42.90547],[-8.51149,42.90486],[-8.51186,42.90419],[-8.51188,42.90297],[-8.50986,42.89878],[-8.51301,42.89816],[-8.51649,42.89728],[-8.51851,42.89697],[-8.52123,42.8969],[-8.52186,42.89698],[-8.52557,42.89273],[-8.52596,42.89206],[-8.52917,42.89271],[-8.52908,42.8933],[-8.52939,42.89346],[-8.52946,42.89366],[-8.52935,42.89472],[-8.52878,42.89701],[-8.52856,42.89736],[-8.52895,42.89749],[-8.52929,42.89736],[-8.52883,42.89775],[-8.52905,42.89801],[-8.52914,42.89877],[-8.52979,42.8992],[-8.52983,42.89964],[-8.53011,42.90028],[-8.53008,42.90051],[-8.53084,42.90076],[-8.53334,42.9011],[-8.53312,42.90185],[-8.53303,42.90282],[-8.53239,42.90479],[-8.53005,42.90545],[-8.52898,42.90594],[-8.52719,42.90646],[-8.52578,42.90657],[-8.52306,42.9075],[-8.52018,42.90492],[-8.51714,42.90696],[-8.51696,42.90692],[-8.5161,42.90743],[-8.51451,42.9061],[-8.50885,42.90937]]]}},{"type":"Feature","properties":{"id":"1507802008"},"geometry":{"type":"Polygon","coordinates":[[[-8.5432,42.89324],[-8.54329,42.89314],[-8.54357,42.89317],[-8.54461,42.8929],[-8.54443,42.89197],[-8.5429,42.89242],[-8.54261,42.89168],[-8.54354,42.89032],[-8.54434,42.88883],[-8.54432,42.88852],[-8.54408,42.88832],[-8.54486,42.88771],[-8.5451,42.88765],[-8.5453,42.88736],[-8.54624,42.88808],[-8.54694,42.88904],[-8.54699,42.8898],[-8.54753,42.89173],[-8.54759,42.8926],[-8.54714,42.89727],[-8.54575,42.89722],[-8.54571,42.89628],[-8.54461,42.89653],[-8.54432,42.89608],[-8.54362,42.89591],[-8.54368,42.8954],[-8.54333,42.89512],[-8.54334,42.89347],[-8.5432,42.89324]]]}},{"type":"Feature","properties":{"id":"1507802009"},"geometry":{"type":"Polygon","coordinates":[[[-8.54061,42.8926],[-8.54029,42.89184],[-8.54015,42.89107],[-8.54027,42.89106],[-8.54005,42.89023],[-8.54019,42.89017],[-8.54014,42.8899],[-8.54076,42.88985],[-8.54114,42.88997],[-8.54138,42.89018],[-8.54141,42.89042],[-8.54164,42.89043],[-8.54147,42.89148],[-8.54174,42.89197],[-8.5422,42.89218],[-8.54273,42.89208],[-8.5429,42.89242],[-8.54443,42.89197],[-8.54461,42.8929],[-8.54357,42.89317],[-8.54329,42.89314],[-8.5432,42.89324],[-8.54061,42.8926]]]}},{"type":"Feature","properties":{"id":"1507802010"},"geometry":{"type":"Polygon","coordinates":[[[-8.5401,42.89044],[-8.53892,42.89048],[-8.53806,42.88975],[-8.53679,42.88956],[-8.53614,42.88902],[-8.53637,42.88888],[-8.53621,42.88854],[-8.53792,42.88776],[-8.53815,42.88825],[-8.53808,42.88839],[-8.53981,42.88894],[-8.54027,42.88893],[-8.54221,42.88716],[-8.54271,42.88651],[-8.54287,42.88664],[-8.54267,42.88714],[-8.54292,42.8879],[-8.54317,42.88808],[-8.5441,42.88833],[-8.54436,42.88867],[-8.54359,42.89024],[-8.54265,42.89154],[-8.54261,42.89178],[-8.54273,42.89208],[-8.54215,42.89217],[-8.5416,42.89183],[-8.54147,42.89145],[-8.54164,42.89043],[-8.54141,42.89042],[-8.54138,42.89018],[-8.54114,42.88997],[-8.54076,42.88985],[-8.54014,42.8899],[-8.54019,42.89017],[-8.54005,42.89023],[-8.5401,42.89044]]]}},{"type":"Feature","properties":{"id":"1507802011"},"geometry":{"type":"Polygon","coordinates":[[[-8.53218,42.89376],[-8.53364,42.89161],[-8.53456,42.89205],[-8.5354,42.89148],[-8.53582,42.89162],[-8.53763,42.89145],[-8.538,42.89127],[-8.53809,42.89117],[-8.53804,42.89094],[-8.53754,42.89041],[-8.53774,42.88969],[-8.53815,42.8898],[-8.5389,42.89047],[-8.54015,42.89043],[-8.54029,42.89184],[-8.54065,42.8927],[-8.53972,42.89415],[-8.53924,42.89431],[-8.53903,42.8945],[-8.53853,42.89419],[-8.53828,42.89359],[-8.53856,42.893],[-8.53803,42.89261],[-8.53771,42.89266],[-8.5373,42.89304],[-8.53652,42.89305],[-8.53612,42.89327],[-8.53522,42.8943],[-8.53487,42.89512],[-8.5345,42.89554],[-8.53393,42.89561],[-8.53381,42.8952],[-8.53412,42.89473],[-8.53381,42.89436],[-8.53218,42.89376]]]}},{"type":"Feature","properties":{"id":"1507802012"},"geometry":{"type":"Polygon","coordinates":[[[-8.52708,42.93862],[-8.5263,42.93861],[-8.52584,42.93809],[-8.5256,42.93746],[-8.52561,42.93676],[-8.52538,42.93558],[-8.52502,42.93567],[-8.52357,42.93666],[-8.5233,42.93646],[-8.52303,42.93555],[-8.52311,42.93442],[-8.5234,42.934],[-8.52345,42.93299],[-8.52371,42.9326],[-8.52312,42.93079],[-8.52284,42.93085],[-8.52272,42.93099],[-8.52234,42.93185],[-8.52163,42.9325],[-8.52063,42.93287],[-8.51654,42.93382],[-8.51524,42.93469],[-8.51472,42.93529],[-8.5141,42.9347],[-8.51267,42.93402],[-8.51156,42.93456],[-8.5109,42.93477],[-8.51032,42.9348],[-8.50945,42.9347],[-8.50857,42.93528],[-8.50772,42.93559],[-8.50491,42.93344],[-8.50354,42.93256],[-8.50231,42.9315],[-8.49978,42.93007],[-8.49725,42.92921],[-8.49673,42.92895],[-8.49668,42.92876],[-8.49702,42.92804],[-8.49768,42.92727],[-8.49903,42.92607],[-8.50148,42.92471],[-8.49962,42.92421],[-8.4986,42.92381],[-8.49777,42.92323],[-8.49717,42.923],[-8.49736,42.92255],[-8.49837,42.92185],[-8.49871,42.92151],[-8.50154,42.92074],[-8.50272,42.9198],[-8.50335,42.91919],[-8.50357,42.91878],[-8.50338,42.91863],[-8.50232,42.9183],[-8.50171,42.91835],[-8.50105,42.9181],[-8.5004,42.91743],[-8.50031,42.91687],[-8.50057,42.91613],[-8.50044,42.9159],[-8.49846,42.91606],[-8.49794,42.91562],[-8.50085,42.91387],[-8.50885,42.9094],[-8.51451,42.9061],[-8.5161,42.90743],[-8.51696,42.90692],[-8.51714,42.90696],[-8.52018,42.90492],[-8.52306,42.9075],[-8.52578,42.90657],[-8.52719,42.90646],[-8.52898,42.90594],[-8.53005,42.90545],[-8.53239,42.90479],[-8.53303,42.90282],[-8.53312,42.90185],[-8.53365,42.89954],[-8.53541,42.89992],[-8.53614,42.90057],[-8.53632,42.90135],[-8.53666,42.90202],[-8.53669,42.90382],[-8.53684,42.9043],[-8.53771,42.90517],[-8.53887,42.90516],[-8.53898,42.90523],[-8.53906,42.90642],[-8.53961,42.90695],[-8.54076,42.90709],[-8.54276,42.90704],[-8.54329,42.90863],[-8.54461,42.91044],[-8.54482,42.91133],[-8.54463,42.91181],[-8.54419,42.91203],[-8.54352,42.91207],[-8.54311,42.91247],[-8.54343,42.91339],[-8.54398,42.91424],[-8.54421,42.91498],[-8.54385,42.91616],[-8.54503,42.9168],[-8.54538,42.91709],[-8.54536,42.91773],[-8.54523,42.91785],[-8.54408,42.9182],[-8.54268,42.91972],[-8.54237,42.92031],[-8.54237,42.9207],[-8.54217,42.92087],[-8.54143,42.92112],[-8.54181,42.92268],[-8.54183,42.92337],[-8.542,42.92372],[-8.54192,42.92476],[-8.54232,42.92607],[-8.5426,42.92645],[-8.54332,42.92699],[-8.54414,42.92788],[-8.54446,42.92782],[-8.54523,42.92745],[-8.54745,42.92582],[-8.5487,42.92558],[-8.54936,42.92499],[-8.54979,42.92436],[-8.54958,42.92335],[-8.54962,42.92243],[-8.54968,42.92227],[-8.54989,42.92225],[-8.55098,42.92231],[-8.55114,42.92239],[-8.55108,42.92336],[-8.55123,42.92462],[-8.55187,42.92578],[-8.5521,42.926],[-8.55227,42.9261],[-8.55247,42.92599],[-8.55269,42.92555],[-8.55308,42.92521],[-8.55415,42.92469],[-8.55631,42.92697],[-8.555,42.92835],[-8.55408,42.92912],[-8.5529,42.92943],[-8.55109,42.92951],[-8.55062,42.92985],[-8.5507,42.93007],[-8.55175,42.93013],[-8.55205,42.93044],[-8.55224,42.93111],[-8.55196,42.93273],[-8.55259,42.93278],[-8.5516,42.93364],[-8.55146,42.93396],[-8.55221,42.93418],[-8.55265,42.93441],[-8.55279,42.93458],[-8.55277,42.93493],[-8.55235,42.93614],[-8.55182,42.93701],[-8.55228,42.93863],[-8.55223,42.93996],[-8.55206,42.94055],[-8.5518,42.94095],[-8.55133,42.94134],[-8.54921,42.94198],[-8.5487,42.94204],[-8.54818,42.94197],[-8.54767,42.94184],[-8.54717,42.94145],[-8.54719,42.94098],[-8.5474,42.94046],[-8.54727,42.94017],[-8.54692,42.93975],[-8.54621,42.93937],[-8.54606,42.93942],[-8.54604,42.93953],[-8.54615,42.94044],[-8.54606,42.9406],[-8.54574,42.94075],[-8.54442,42.94052],[-8.54322,42.93996],[-8.54244,42.93891],[-8.54057,42.93725],[-8.54016,42.93662],[-8.53978,42.93584],[-8.53908,42.93356],[-8.53834,42.9321],[-8.53663,42.93055],[-8.53573,42.92991],[-8.53503,42.93017],[-8.53399,42.93086],[-8.53422,42.9318],[-8.53174,42.93458],[-8.5288,42.93733],[-8.52708,42.93862]]]}},{"type":"Feature","properties":{"id":"1507802013"},"geometry":{"type":"Polygon","coordinates":[[[-8.52883,42.89775],[-8.5303,42.89634],[-8.53218,42.89376],[-8.53394,42.89446],[-8.53412,42.89473],[-8.53381,42.8952],[-8.53393,42.89561],[-8.53458,42.89552],[-8.53429,42.89605],[-8.53401,42.89699],[-8.53379,42.89875],[-8.53332,42.9011],[-8.53084,42.90076],[-8.53008,42.90051],[-8.53011,42.90028],[-8.52983,42.89964],[-8.52979,42.8992],[-8.52914,42.89877],[-8.52905,42.89801],[-8.52883,42.89775]]]}},{"type":"Feature","properties":{"id":"1507803001"},"geometry":{"type":"Polygon","coordinates":[[[-8.54099,42.88551],[-8.54185,42.88366],[-8.54025,42.88325],[-8.53975,42.8833],[-8.53975,42.88376],[-8.53756,42.88439],[-8.537,42.88375],[-8.5369,42.88311],[-8.53749,42.88195],[-8.53619,42.88218],[-8.53527,42.88254],[-8.53525,42.88178],[-8.53774,42.8813],[-8.53819,42.88128],[-8.53959,42.88184],[-8.5402,42.882],[-8.54052,42.88242],[-8.54115,42.8828],[-8.54317,42.88339],[-8.54264,42.88401],[-8.54175,42.88461],[-8.54111,42.88553],[-8.54099,42.88551]]]}},{"type":"Feature","properties":{"id":"1507803002"},"geometry":{"type":"Polygon","coordinates":[[[-8.5361,42.8879],[-8.53523,42.88735],[-8.53518,42.88583],[-8.53543,42.88475],[-8.53449,42.8846],[-8.53457,42.88405],[-8.53391,42.88476],[-8.5336,42.88473],[-8.53403,42.88409],[-8.53436,42.88262],[-8.53489,42.88196],[-8.53525,42.88178],[-8.53527,42.88254],[-8.53619,42.88218],[-8.53749,42.88195],[-8.5369,42.88311],[-8.537,42.88375],[-8.53746,42.88421],[-8.53808,42.88526],[-8.53841,42.88639],[-8.53833,42.88674],[-8.5366,42.88771],[-8.5361,42.8879]]]}},{"type":"Feature","properties":{"id":"1507803003"},"geometry":{"type":"Polygon","coordinates":[[[-8.53756,42.88439],[-8.53975,42.88376],[-8.53975,42.8833],[-8.54025,42.88325],[-8.54185,42.88366],[-8.54133,42.88477],[-8.54099,42.8847],[-8.54062,42.88478],[-8.53966,42.88526],[-8.53937,42.8862],[-8.53881,42.8863],[-8.53874,42.88668],[-8.53833,42.88674],[-8.53841,42.88639],[-8.53813,42.88536],[-8.53756,42.88439]]]}},{"type":"Feature","properties":{"id":"1507803004"},"geometry":{"type":"Polygon","coordinates":[[[-8.5336,42.88473],[-8.53391,42.88476],[-8.53457,42.88405],[-8.53449,42.8846],[-8.53543,42.88475],[-8.53518,42.88583],[-8.53523,42.88735],[-8.5361,42.8879],[-8.53615,42.88827],[-8.53439,42.88756],[-8.5336,42.88829],[-8.53298,42.88863],[-8.53274,42.88843],[-8.5326,42.88848],[-8.53239,42.88892],[-8.53279,42.88646],[-8.53349,42.88521],[-8.5336,42.88473]]]}},{"type":"Feature","properties":{"id":"1507803005"},"geometry":{"type":"Polygon","coordinates":[[[-8.50489,42.88893],[-8.50603,42.8866],[-8.51298,42.88645],[-8.51293,42.88463],[-8.51394,42.88347],[-8.51638,42.88446],[-8.5173,42.8832],[-8.51717,42.88237],[-8.51784,42.88252],[-8.5202,42.88371],[-8.52115,42.88398],[-8.52196,42.8836],[-8.52371,42.88427],[-8.52156,42.88629],[-8.52124,42.88699],[-8.52281,42.88725],[-8.52366,42.88727],[-8.52344,42.88769],[-8.52314,42.88791],[-8.52233,42.88809],[-8.52139,42.8887],[-8.5201,42.89029],[-8.51902,42.8919],[-8.51564,42.8892],[-8.51521,42.88981],[-8.51485,42.89007],[-8.51163,42.88738],[-8.51102,42.88746],[-8.5109,42.88796],[-8.50977,42.88954],[-8.5091,42.88932],[-8.5084,42.88943],[-8.5075,42.88944],[-8.50489,42.88893]]]}},{"type":"Feature","properties":{"id":"1507803006"},"geometry":{"type":"Polygon","coordinates":[[[-8.50426,42.8957],[-8.50406,42.89561],[-8.50414,42.89124],[-8.50489,42.88893],[-8.5075,42.88944],[-8.5084,42.88943],[-8.5091,42.88932],[-8.50977,42.88954],[-8.5109,42.88796],[-8.51102,42.88746],[-8.51137,42.88736],[-8.51163,42.88738],[-8.51485,42.89007],[-8.51521,42.88981],[-8.51564,42.8892],[-8.51902,42.8919],[-8.5201,42.89029],[-8.52139,42.8887],[-8.52233,42.88809],[-8.52284,42.888],[-8.52315,42.88838],[-8.52389,42.88865],[-8.52493,42.88976],[-8.52432,42.89058],[-8.52351,42.89036],[-8.52273,42.89102],[-8.52596,42.89206],[-8.52557,42.89273],[-8.52186,42.89698],[-8.52123,42.8969],[-8.51851,42.89697],[-8.51649,42.89728],[-8.51301,42.89816],[-8.50839,42.89906],[-8.50645,42.89628],[-8.50678,42.89589],[-8.50581,42.89593],[-8.50559,42.89568],[-8.50464,42.89553],[-8.50426,42.8957]]]}},{"type":"Feature","properties":{"id":"1507803007"},"geometry":{"type":"Polygon","coordinates":[[[-8.46341,42.90531],[-8.46365,42.9049],[-8.46431,42.90425],[-8.46628,42.90291],[-8.46837,42.89959],[-8.46971,42.89854],[-8.46791,42.89715],[-8.46716,42.89636],[-8.4667,42.8957],[-8.46659,42.89251],[-8.46676,42.89172],[-8.46711,42.89098],[-8.46721,42.89038],[-8.46676,42.89019],[-8.46675,42.89004],[-8.46837,42.88856],[-8.46914,42.88804],[-8.47198,42.88664],[-8.47235,42.88634],[-8.47219,42.88627],[-8.47035,42.88643],[-8.46975,42.88511],[-8.46805,42.88342],[-8.4675,42.88254],[-8.4672,42.88226],[-8.46869,42.88217],[-8.47079,42.88233],[-8.4686,42.88091],[-8.46771,42.88008],[-8.46659,42.87865],[-8.46601,42.87715],[-8.46515,42.87581],[-8.46171,42.87299],[-8.46055,42.87443],[-8.46011,42.87481],[-8.45906,42.87546],[-8.45866,42.87553],[-8.45813,42.87532],[-8.45571,42.87366],[-8.45857,42.87308],[-8.46306,42.87169],[-8.46667,42.87089],[-8.47357,42.86798],[-8.47357,42.86767],[-8.47438,42.86745],[-8.47653,42.86718],[-8.47728,42.86723],[-8.47859,42.86834],[-8.47923,42.86873],[-8.48025,42.86895],[-8.48126,42.86894],[-8.48224,42.8692],[-8.48272,42.86955],[-8.48326,42.87022],[-8.48337,42.87084],[-8.4834,42.87148],[-8.48313,42.87218],[-8.4834,42.8722],[-8.4859,42.87134],[-8.4873,42.87114],[-8.48835,42.87112],[-8.48973,42.87087],[-8.49006,42.87096],[-8.49143,42.87223],[-8.49225,42.87249],[-8.49222,42.87263],[-8.49292,42.87288],[-8.49061,42.87749],[-8.49005,42.88024],[-8.489,42.88117],[-8.49002,42.88246],[-8.4914,42.88326],[-8.49113,42.88773],[-8.49177,42.88866],[-8.50158,42.88064],[-8.50205,42.88036],[-8.50434,42.88264],[-8.50596,42.88398],[-8.5068,42.88491],[-8.50482,42.88892],[-8.50414,42.89124],[-8.50406,42.89561],[-8.50426,42.8957],[-8.50318,42.89811],[-8.50226,42.89916],[-8.49984,42.90096],[-8.49801,42.90182],[-8.49406,42.90326],[-8.49071,42.90435],[-8.48937,42.90505],[-8.48884,42.90481],[-8.48808,42.90521],[-8.48738,42.90452],[-8.48726,42.90413],[-8.48709,42.90408],[-8.48558,42.90457],[-8.48509,42.90463],[-8.48417,42.90457],[-8.48379,42.90441],[-8.48283,42.90423],[-8.48183,42.90363],[-8.4813,42.90343],[-8.48076,42.9033],[-8.47954,42.90324],[-8.47915,42.90492],[-8.47833,42.90634],[-8.4778,42.90644],[-8.47697,42.90675],[-8.47455,42.90718],[-8.4741,42.90716],[-8.47343,42.90646],[-8.47252,42.90661],[-8.47277,42.90702],[-8.47242,42.9077],[-8.47189,42.90836],[-8.47085,42.90783],[-8.46894,42.90779],[-8.46813,42.90749],[-8.46632,42.90708],[-8.46568,42.90686],[-8.46341,42.90531]]]}},{"type":"Feature","properties":{"id":"1507803008"},"geometry":{"type":"Polygon","coordinates":[[[-8.47357,42.86767],[-8.47305,42.86193],[-8.47172,42.85857],[-8.47126,42.85427],[-8.47112,42.85417],[-8.47304,42.85365],[-8.47471,42.85281],[-8.47717,42.85218],[-8.47733,42.85206],[-8.47733,42.85081],[-8.4771,42.85058],[-8.47695,42.84981],[-8.47728,42.8491],[-8.4785,42.84837],[-8.47865,42.84817],[-8.47832,42.84652],[-8.47839,42.84602],[-8.47861,42.84566],[-8.47893,42.84548],[-8.48069,42.84487],[-8.48243,42.84461],[-8.48363,42.84463],[-8.48505,42.84428],[-8.48592,42.84387],[-8.4886,42.84291],[-8.4922,42.84192],[-8.49286,42.84181],[-8.49562,42.84085],[-8.49576,42.84108],[-8.4956,42.84249],[-8.49502,42.8446],[-8.49467,42.8451],[-8.49271,42.8459],[-8.49201,42.84627],[-8.48951,42.84724],[-8.48826,42.84811],[-8.48677,42.84893],[-8.48554,42.85027],[-8.48328,42.85061],[-8.48278,42.85081],[-8.48415,42.85095],[-8.48481,42.85114],[-8.48498,42.85156],[-8.48479,42.85225],[-8.48536,42.85241],[-8.48544,42.85266],[-8.48529,42.85316],[-8.48507,42.85344],[-8.485,42.85418],[-8.48525,42.85428],[-8.48611,42.85406],[-8.48742,42.85398],[-8.4877,42.85402],[-8.48799,42.85423],[-8.48836,42.85427],[-8.48967,42.85386],[-8.49116,42.85458],[-8.49249,42.85408],[-8.49334,42.85342],[-8.49509,42.85296],[-8.4958,42.8523],[-8.49623,42.85218],[-8.49726,42.85266],[-8.49857,42.85265],[-8.49892,42.8524],[-8.49921,42.85238],[-8.49989,42.85253],[-8.5012,42.85242],[-8.50291,42.85179],[-8.50429,42.85105],[-8.50469,42.85135],[-8.50479,42.85155],[-8.50526,42.85177],[-8.50662,42.85286],[-8.50716,42.85341],[-8.50968,42.85502],[-8.51013,42.85549],[-8.5111,42.85547],[-8.51293,42.85463],[-8.51337,42.85532],[-8.5137,42.85546],[-8.51407,42.85584],[-8.51418,42.8561],[-8.51546,42.8566],[-8.51735,42.85892],[-8.51785,42.85921],[-8.51781,42.85926],[-8.51838,42.85938],[-8.51766,42.86015],[-8.51686,42.86049],[-8.51585,42.86288],[-8.51557,42.86364],[-8.51563,42.8645],[-8.51536,42.86557],[-8.51454,42.86707],[-8.51467,42.86886],[-8.51507,42.86885],[-8.51776,42.86948],[-8.51878,42.86962],[-8.52061,42.86919],[-8.5211,42.87074],[-8.52135,42.87241],[-8.52111,42.87391],[-8.52076,42.87497],[-8.5201,42.87625],[-8.51949,42.87706],[-8.51887,42.87767],[-8.51795,42.87831],[-8.51597,42.87924],[-8.51192,42.88007],[-8.51044,42.88063],[-8.50939,42.88127],[-8.5087,42.88182],[-8.50806,42.88255],[-8.50745,42.88335],[-8.5068,42.88491],[-8.50596,42.88398],[-8.50434,42.88264],[-8.50205,42.88036],[-8.50158,42.88064],[-8.49177,42.88866],[-8.49113,42.88773],[-8.4914,42.88326],[-8.49002,42.88246],[-8.489,42.88117],[-8.49005,42.88024],[-8.49061,42.87749],[-8.49292,42.87288],[-8.49222,42.87263],[-8.49225,42.87249],[-8.49143,42.87223],[-8.49006,42.87096],[-8.48973,42.87087],[-8.48835,42.87112],[-8.4873,42.87114],[-8.4859,42.87134],[-8.4834,42.8722],[-8.48313,42.87218],[-8.4834,42.87148],[-8.48326,42.87022],[-8.48272,42.86955],[-8.48224,42.8692],[-8.48126,42.86894],[-8.48025,42.86895],[-8.47923,42.86873],[-8.47859,42.86834],[-8.47728,42.86723],[-8.47653,42.86718],[-8.47438,42.86745],[-8.47357,42.86767]]]}},{"type":"Feature","properties":{"id":"1507803009"},"geometry":{"type":"Polygon","coordinates":[[[-8.52596,42.89206],[-8.52273,42.89102],[-8.52351,42.89036],[-8.52432,42.89058],[-8.52493,42.88976],[-8.52389,42.88865],[-8.52315,42.88838],[-8.52293,42.88819],[-8.52284,42.88798],[-8.52331,42.88783],[-8.52354,42.88751],[-8.52572,42.88783],[-8.52939,42.88789],[-8.5304,42.88812],[-8.53103,42.88846],[-8.53195,42.88944],[-8.5322,42.88949],[-8.53243,42.89062],[-8.53285,42.89124],[-8.53361,42.89164],[-8.5303,42.89634],[-8.52928,42.89736],[-8.52895,42.89749],[-8.52856,42.89736],[-8.52878,42.89701],[-8.52935,42.89472],[-8.52946,42.89366],[-8.52939,42.89346],[-8.52908,42.8933],[-8.52917,42.89271],[-8.52596,42.89206]]]}},{"type":"Feature","properties":{"id":"1507804001"},"geometry":{"type":"Polygon","coordinates":[[[-8.54105,42.87919],[-8.54107,42.87911],[-8.53921,42.87873],[-8.53833,42.87843],[-8.53777,42.87838],[-8.5377,42.8777],[-8.53748,42.87732],[-8.5376,42.87632],[-8.53753,42.87588],[-8.53778,42.87522],[-8.53726,42.87381],[-8.53785,42.87356],[-8.53868,42.87438],[-8.53915,42.87525],[-8.54043,42.87593],[-8.54187,42.87686],[-8.54246,42.87762],[-8.54417,42.87689],[-8.54414,42.87748],[-8.54442,42.87752],[-8.54378,42.87832],[-8.54329,42.87972],[-8.54228,42.8797],[-8.54213,42.87909],[-8.54105,42.87919]]]}},{"type":"Feature","properties":{"id":"1507804002"},"geometry":{"type":"Polygon","coordinates":[[[-8.53525,42.88178],[-8.5349,42.88194],[-8.5348,42.88105],[-8.53519,42.87938],[-8.53579,42.87904],[-8.53617,42.87914],[-8.53707,42.87964],[-8.53722,42.87986],[-8.53735,42.87985],[-8.53743,42.87877],[-8.53769,42.87812],[-8.53777,42.87838],[-8.53833,42.87843],[-8.53921,42.87873],[-8.54107,42.87911],[-8.54022,42.88109],[-8.5402,42.882],[-8.53959,42.88184],[-8.53819,42.88128],[-8.53774,42.8813],[-8.53525,42.88178]]]}},{"type":"Feature","properties":{"id":"1507804003"},"geometry":{"type":"Polygon","coordinates":[[[-8.54018,42.87579],[-8.54053,42.87554],[-8.54293,42.87443],[-8.544,42.87577],[-8.54417,42.8769],[-8.54246,42.87762],[-8.54197,42.87693],[-8.54018,42.87579]]]}},{"type":"Feature","properties":{"id":"1507804004"},"geometry":{"type":"Polygon","coordinates":[[[-8.53886,42.86504],[-8.54059,42.86482],[-8.54033,42.86641],[-8.54005,42.86687],[-8.54021,42.86758],[-8.54056,42.86793],[-8.54118,42.86739],[-8.5419,42.86744],[-8.54234,42.86739],[-8.54267,42.86775],[-8.54274,42.86825],[-8.5429,42.8685],[-8.54284,42.86885],[-8.54319,42.86903],[-8.54257,42.86931],[-8.54224,42.86929],[-8.54228,42.86945],[-8.54189,42.86969],[-8.54124,42.86987],[-8.54176,42.87035],[-8.54183,42.87081],[-8.53986,42.87215],[-8.53865,42.87276],[-8.53896,42.87314],[-8.53701,42.87392],[-8.53657,42.87421],[-8.53597,42.87479],[-8.53477,42.87647],[-8.53454,42.87635],[-8.53449,42.87614],[-8.53345,42.87536],[-8.53317,42.87505],[-8.53292,42.87529],[-8.53231,42.87477],[-8.53216,42.87424],[-8.5322,42.87378],[-8.53277,42.87294],[-8.53314,42.87289],[-8.53377,42.87261],[-8.53377,42.87241],[-8.53354,42.87222],[-8.53426,42.87133],[-8.53199,42.87112],[-8.53212,42.87073],[-8.53222,42.86933],[-8.53201,42.86876],[-8.53256,42.86843],[-8.5324,42.86816],[-8.53268,42.868],[-8.53261,42.86786],[-8.53367,42.86759],[-8.53447,42.86749],[-8.53436,42.86698],[-8.535,42.86695],[-8.53655,42.8667],[-8.53728,42.86624],[-8.53858,42.86587],[-8.53886,42.86504]]]}},{"type":"Feature","properties":{"id":"1507804005"},"geometry":{"type":"Polygon","coordinates":[[[-8.5358,42.87904],[-8.53611,42.87838],[-8.53608,42.87824],[-8.53571,42.87841],[-8.53537,42.87793],[-8.53457,42.87879],[-8.53341,42.87975],[-8.53306,42.8798],[-8.53499,42.87609],[-8.53619,42.87455],[-8.53679,42.87405],[-8.53726,42.87381],[-8.53778,42.87522],[-8.53753,42.87588],[-8.5376,42.87632],[-8.53748,42.87732],[-8.5377,42.8777],[-8.53769,42.87812],[-8.53743,42.87877],[-8.53735,42.87985],[-8.53722,42.87986],[-8.53684,42.87949],[-8.53617,42.87914],[-8.5358,42.87904]]]}},{"type":"Feature","properties":{"id":"1507804006"},"geometry":{"type":"Polygon","coordinates":[[[-8.53348,42.88448],[-8.53306,42.8798],[-8.53341,42.87975],[-8.53457,42.87879],[-8.53537,42.87793],[-8.53571,42.87841],[-8.53608,42.87824],[-8.53611,42.87838],[-8.5358,42.87904],[-8.53515,42.87947],[-8.5348,42.88093],[-8.5349,42.88194],[-8.53436,42.88262],[-8.53403,42.88409],[-8.5336,42.88473],[-8.53348,42.88448]]]}},{"type":"Feature","properties":{"id":"1507804007"},"geometry":{"type":"Polygon","coordinates":[[[-8.54267,42.86775],[-8.54309,42.8675],[-8.5435,42.86777],[-8.54364,42.86774],[-8.54469,42.86697],[-8.54402,42.86596],[-8.54467,42.86572],[-8.54483,42.86547],[-8.54403,42.86408],[-8.54663,42.86328],[-8.5473,42.8638],[-8.54784,42.86404],[-8.54834,42.864],[-8.54865,42.86385],[-8.54949,42.8637],[-8.55119,42.86403],[-8.55145,42.86447],[-8.55168,42.86542],[-8.55143,42.86658],[-8.55117,42.86708],[-8.55085,42.86748],[-8.54993,42.86823],[-8.54837,42.86905],[-8.54841,42.8694],[-8.54808,42.86971],[-8.54613,42.87059],[-8.54523,42.87136],[-8.54478,42.87163],[-8.5406,42.87286],[-8.5378,42.87358],[-8.53896,42.87314],[-8.53865,42.87276],[-8.53986,42.87215],[-8.54183,42.87081],[-8.54176,42.87035],[-8.54124,42.86987],[-8.54189,42.86969],[-8.54228,42.86945],[-8.54224,42.86929],[-8.54257,42.86931],[-8.54319,42.86903],[-8.54284,42.86885],[-8.5429,42.8685],[-8.54274,42.86825],[-8.54267,42.86775]]]}},{"type":"Feature","properties":{"id":"1507804008"},"geometry":{"type":"Polygon","coordinates":[[[-8.54057,42.86482],[-8.543,42.8644],[-8.54469,42.86697],[-8.54463,42.86705],[-8.54352,42.86778],[-8.54313,42.8675],[-8.5426,42.86775],[-8.54234,42.86739],[-8.5419,42.86744],[-8.54118,42.86739],[-8.54056,42.86793],[-8.54021,42.86758],[-8.54005,42.86687],[-8.54033,42.86641],[-8.54057,42.86482]]]}},{"type":"Feature","properties":{"id":"1507804009"},"geometry":{"type":"Polygon","coordinates":[[[-8.52928,42.8789],[-8.52922,42.87835],[-8.52856,42.8776],[-8.52875,42.87653],[-8.52771,42.87659],[-8.52685,42.87648],[-8.52577,42.87595],[-8.52506,42.87532],[-8.52482,42.87455],[-8.52502,42.87384],[-8.5251,42.87295],[-8.52502,42.87263],[-8.52478,42.87233],[-8.52453,42.87222],[-8.52387,42.87214],[-8.52316,42.87176],[-8.52277,42.87184],[-8.52192,42.87236],[-8.52129,42.87241],[-8.5212,42.87121],[-8.52061,42.86919],[-8.51878,42.86962],[-8.51776,42.86948],[-8.51507,42.86885],[-8.51467,42.86886],[-8.51454,42.86707],[-8.51536,42.86557],[-8.51563,42.8645],[-8.51557,42.86364],[-8.51686,42.86049],[-8.51766,42.86015],[-8.51838,42.85938],[-8.51862,42.85943],[-8.51868,42.85934],[-8.51919,42.85945],[-8.52062,42.85872],[-8.52115,42.85872],[-8.52155,42.85894],[-8.52253,42.85904],[-8.52363,42.85988],[-8.52392,42.85998],[-8.52451,42.85974],[-8.52523,42.85925],[-8.52634,42.85969],[-8.52797,42.85972],[-8.53003,42.85956],[-8.53035,42.8601],[-8.53122,42.86068],[-8.53157,42.86119],[-8.53157,42.86201],[-8.5313,42.86273],[-8.53126,42.86335],[-8.5337,42.86329],[-8.53415,42.86308],[-8.5368,42.86331],[-8.53674,42.86283],[-8.53805,42.86225],[-8.53858,42.86267],[-8.53883,42.8632],[-8.53905,42.86336],[-8.53901,42.86447],[-8.53858,42.86587],[-8.53728,42.86624],[-8.53655,42.8667],[-8.535,42.86695],[-8.53436,42.86698],[-8.53447,42.86749],[-8.53367,42.86759],[-8.53261,42.86786],[-8.53268,42.868],[-8.5324,42.86816],[-8.53256,42.86843],[-8.53201,42.86876],[-8.53222,42.86933],[-8.53212,42.87073],[-8.53199,42.87112],[-8.53426,42.87133],[-8.53354,42.87222],[-8.53377,42.87241],[-8.53377,42.87261],[-8.53314,42.87289],[-8.53277,42.87294],[-8.5322,42.87378],[-8.53216,42.87424],[-8.53231,42.87477],[-8.53292,42.87529],[-8.53317,42.87505],[-8.53345,42.87536],[-8.53449,42.87614],[-8.53454,42.87635],[-8.53477,42.87647],[-8.53458,42.87683],[-8.53379,42.87773],[-8.53284,42.87832],[-8.53108,42.8788],[-8.52928,42.8789]]]}},{"type":"Feature","properties":{"id":"1507804010"},"geometry":{"type":"Polygon","coordinates":[[[-8.47112,42.85417],[-8.46782,42.85176],[-8.46758,42.8481],[-8.46657,42.8462],[-8.46608,42.84421],[-8.47417,42.83871],[-8.47477,42.83858],[-8.47554,42.83853],[-8.47763,42.83865],[-8.47772,42.83611],[-8.47919,42.83574],[-8.48127,42.83336],[-8.48343,42.83044],[-8.48348,42.83023],[-8.48331,42.8299],[-8.48383,42.82889],[-8.48468,42.82854],[-8.48488,42.82838],[-8.48494,42.82748],[-8.48568,42.82654],[-8.48631,42.82466],[-8.48825,42.82478],[-8.49047,42.82413],[-8.49129,42.82427],[-8.49334,42.82515],[-8.49553,42.8256],[-8.49662,42.82597],[-8.49776,42.82677],[-8.49843,42.82658],[-8.49816,42.82591],[-8.50001,42.82599],[-8.5008,42.82612],[-8.50156,42.82673],[-8.50344,42.8265],[-8.50417,42.82664],[-8.50641,42.82765],[-8.50874,42.82855],[-8.50891,42.82791],[-8.51104,42.8274],[-8.51134,42.82753],[-8.51219,42.82757],[-8.51378,42.82717],[-8.51452,42.82683],[-8.51484,42.82683],[-8.51554,42.827],[-8.51584,42.82697],[-8.51643,42.82669],[-8.51673,42.82668],[-8.51708,42.82676],[-8.51804,42.82746],[-8.51963,42.82638],[-8.51975,42.82598],[-8.51992,42.8259],[-8.52019,42.82595],[-8.5207,42.82624],[-8.5214,42.82637],[-8.52283,42.82604],[-8.52345,42.82603],[-8.52355,42.82643],[-8.52372,42.82658],[-8.52429,42.82669],[-8.52528,42.82704],[-8.52531,42.82907],[-8.52542,42.82944],[-8.52638,42.83075],[-8.52641,42.83169],[-8.52671,42.83217],[-8.52652,42.83262],[-8.52534,42.83285],[-8.52447,42.83362],[-8.52429,42.83393],[-8.52472,42.83454],[-8.52473,42.83484],[-8.52411,42.83549],[-8.52448,42.83664],[-8.52279,42.83704],[-8.5224,42.83731],[-8.5215,42.83739],[-8.52115,42.83764],[-8.52013,42.83757],[-8.51969,42.83739],[-8.51912,42.8369],[-8.51869,42.83727],[-8.51839,42.8374],[-8.51815,42.83778],[-8.51694,42.8386],[-8.51626,42.83934],[-8.51575,42.84038],[-8.5149,42.8417],[-8.51454,42.84265],[-8.51387,42.8435],[-8.51285,42.8433],[-8.51085,42.84412],[-8.51047,42.84438],[-8.50787,42.8479],[-8.50526,42.84995],[-8.50444,42.85069],[-8.50425,42.85104],[-8.50291,42.85179],[-8.5012,42.85242],[-8.49989,42.85253],[-8.49921,42.85238],[-8.49892,42.8524],[-8.49857,42.85265],[-8.49726,42.85266],[-8.49623,42.85218],[-8.4958,42.8523],[-8.49509,42.85296],[-8.49334,42.85342],[-8.49249,42.85408],[-8.49116,42.85458],[-8.48967,42.85386],[-8.48836,42.85427],[-8.48799,42.85423],[-8.4877,42.85402],[-8.48742,42.85398],[-8.48611,42.85406],[-8.48525,42.85428],[-8.485,42.85418],[-8.48507,42.85344],[-8.48529,42.85316],[-8.48544,42.85266],[-8.48536,42.85241],[-8.48479,42.85225],[-8.48498,42.85156],[-8.48481,42.85114],[-8.48415,42.85095],[-8.48278,42.85081],[-8.48328,42.85061],[-8.48554,42.85027],[-8.48677,42.84893],[-8.48826,42.84811],[-8.48951,42.84724],[-8.49201,42.84627],[-8.49271,42.8459],[-8.49467,42.8451],[-8.49502,42.8446],[-8.4956,42.84249],[-8.49576,42.84108],[-8.49562,42.84085],[-8.49286,42.84181],[-8.4922,42.84192],[-8.4886,42.84291],[-8.48592,42.84387],[-8.48505,42.84428],[-8.48363,42.84463],[-8.48243,42.84461],[-8.48069,42.84487],[-8.47893,42.84548],[-8.47861,42.84566],[-8.47839,42.84602],[-8.47832,42.84652],[-8.47865,42.84817],[-8.4785,42.84837],[-8.47728,42.8491],[-8.47695,42.84981],[-8.4771,42.85058],[-8.47733,42.85081],[-8.47733,42.85206],[-8.47717,42.85218],[-8.47471,42.85281],[-8.47304,42.85365],[-8.47112,42.85417]]]}},{"type":"Feature","properties":{"id":"1507804011"},"geometry":{"type":"Polygon","coordinates":[[[-8.51862,42.85943],[-8.51781,42.85926],[-8.51785,42.85921],[-8.51735,42.85892],[-8.51546,42.8566],[-8.51418,42.8561],[-8.51407,42.85584],[-8.5137,42.85546],[-8.51337,42.85532],[-8.51293,42.85463],[-8.5111,42.85547],[-8.51013,42.85549],[-8.50968,42.85502],[-8.50716,42.85341],[-8.50662,42.85286],[-8.50526,42.85177],[-8.50479,42.85155],[-8.50469,42.85135],[-8.50429,42.85105],[-8.5041,42.85111],[-8.50526,42.84995],[-8.50787,42.8479],[-8.51047,42.84438],[-8.51085,42.84412],[-8.51285,42.8433],[-8.51387,42.8435],[-8.51454,42.84265],[-8.5149,42.8417],[-8.51575,42.84038],[-8.51626,42.83934],[-8.51694,42.8386],[-8.51815,42.83778],[-8.51839,42.8374],[-8.51869,42.83727],[-8.51912,42.8369],[-8.51969,42.83739],[-8.52013,42.83757],[-8.52115,42.83764],[-8.5215,42.83739],[-8.5224,42.83731],[-8.52279,42.83704],[-8.52448,42.83664],[-8.52482,42.83715],[-8.52514,42.8373],[-8.52668,42.83766],[-8.52783,42.83858],[-8.52842,42.83888],[-8.5291,42.83876],[-8.53012,42.83923],[-8.53073,42.83931],[-8.53139,42.83928],[-8.53108,42.83992],[-8.52948,42.84035],[-8.53005,42.84172],[-8.53313,42.84156],[-8.53882,42.84631],[-8.53899,42.8463],[-8.53864,42.84683],[-8.53915,42.84755],[-8.53888,42.8478],[-8.5384,42.84802],[-8.53842,42.84809],[-8.53871,42.84816],[-8.53939,42.84816],[-8.53938,42.84832],[-8.53873,42.84871],[-8.53783,42.8501],[-8.53813,42.85181],[-8.53797,42.85223],[-8.53741,42.85284],[-8.53705,42.85308],[-8.53634,42.8533],[-8.53535,42.85379],[-8.53525,42.85401],[-8.53553,42.85448],[-8.5355,42.85458],[-8.53516,42.85477],[-8.53349,42.85524],[-8.53162,42.85616],[-8.52911,42.85708],[-8.52762,42.85785],[-8.52642,42.85867],[-8.52598,42.85882],[-8.52537,42.8593],[-8.52523,42.85925],[-8.52451,42.85974],[-8.52392,42.85998],[-8.52363,42.85988],[-8.52253,42.85904],[-8.52155,42.85894],[-8.52115,42.85872],[-8.52085,42.85867],[-8.51919,42.85945],[-8.51868,42.85934],[-8.51862,42.85943]]]}},{"type":"Feature","properties":{"id":"1507804012"},"geometry":{"type":"Polygon","coordinates":[[[-8.543,42.8644],[-8.53886,42.86504],[-8.53901,42.86447],[-8.53905,42.86336],[-8.53883,42.8632],[-8.53864,42.86276],[-8.53837,42.86247],[-8.53729,42.86178],[-8.53704,42.8615],[-8.5397,42.85962],[-8.53928,42.85939],[-8.53937,42.85928],[-8.53881,42.85901],[-8.5391,42.85891],[-8.53834,42.85766],[-8.53849,42.85758],[-8.53701,42.85562],[-8.53799,42.85521],[-8.53986,42.85486],[-8.54022,42.8559],[-8.54064,42.85591],[-8.54072,42.85661],[-8.54042,42.85673],[-8.54049,42.85685],[-8.54022,42.85697],[-8.54058,42.85751],[-8.54035,42.85989],[-8.54122,42.86147],[-8.54286,42.86152],[-8.54465,42.86174],[-8.54571,42.86265],[-8.54626,42.86337],[-8.54403,42.86408],[-8.54483,42.86547],[-8.54467,42.86572],[-8.54402,42.86596],[-8.543,42.8644]]]}},{"type":"Feature","properties":{"id":"1507804013"},"geometry":{"type":"Polygon","coordinates":[[[-8.50603,42.8866],[-8.50745,42.88335],[-8.5087,42.88182],[-8.50939,42.88127],[-8.51044,42.88063],[-8.51192,42.88007],[-8.51597,42.87924],[-8.51795,42.87831],[-8.51887,42.87767],[-8.51949,42.87706],[-8.5201,42.87625],[-8.52076,42.87497],[-8.52111,42.87391],[-8.52135,42.87241],[-8.52192,42.87236],[-8.52277,42.87184],[-8.52316,42.87176],[-8.52387,42.87214],[-8.52453,42.87222],[-8.52478,42.87233],[-8.52502,42.87263],[-8.5251,42.87295],[-8.52502,42.87384],[-8.52482,42.87455],[-8.52506,42.87532],[-8.52577,42.87595],[-8.52685,42.87648],[-8.52771,42.87659],[-8.52875,42.87653],[-8.52856,42.8776],[-8.52922,42.87835],[-8.52933,42.87987],[-8.52932,42.88007],[-8.52872,42.88094],[-8.52661,42.88035],[-8.52643,42.88105],[-8.526,42.88175],[-8.52371,42.88427],[-8.52196,42.8836],[-8.52115,42.88398],[-8.5202,42.88371],[-8.51784,42.88252],[-8.51717,42.88237],[-8.5173,42.8832],[-8.51638,42.88446],[-8.51394,42.88347],[-8.51293,42.88463],[-8.51298,42.88645],[-8.50603,42.8866]]]}},{"type":"Feature","properties":{"id":"1507804014"},"geometry":{"type":"Polygon","coordinates":[[[-8.5322,42.88949],[-8.53195,42.88944],[-8.53103,42.88846],[-8.53002,42.888],[-8.52918,42.88788],[-8.52572,42.88783],[-8.52354,42.88751],[-8.52366,42.88727],[-8.52543,42.88719],[-8.52646,42.88685],[-8.52761,42.88633],[-8.52794,42.88499],[-8.52942,42.88318],[-8.53349,42.88448],[-8.5336,42.88473],[-8.53349,42.88521],[-8.53279,42.88646],[-8.53238,42.88899],[-8.5322,42.88949]]]}},{"type":"Feature","properties":{"id":"1507804015"},"geometry":{"type":"Polygon","coordinates":[[[-8.52527,42.88723],[-8.52281,42.88725],[-8.52124,42.88699],[-8.52156,42.88629],[-8.52371,42.88428],[-8.52776,42.88555],[-8.52761,42.88633],[-8.52646,42.88685],[-8.52527,42.88723]]]}},{"type":"Feature","properties":{"id":"1507804016"},"geometry":{"type":"Polygon","coordinates":[[[-8.52942,42.88318],[-8.53047,42.88148],[-8.53327,42.88242],[-8.53348,42.88448],[-8.52942,42.88318]]]}},{"type":"Feature","properties":{"id":"1507804017"},"geometry":{"type":"Polygon","coordinates":[[[-8.52506,42.88279],[-8.52625,42.88139],[-8.52661,42.88035],[-8.53042,42.88148],[-8.52932,42.88334],[-8.52881,42.884],[-8.52506,42.88279]]]}},{"type":"Feature","properties":{"id":"1507804018"},"geometry":{"type":"Polygon","coordinates":[[[-8.52371,42.88428],[-8.52506,42.88279],[-8.52881,42.884],[-8.52805,42.88482],[-8.52776,42.88555],[-8.52371,42.88428]]]}},{"type":"Feature","properties":{"id":"1507804019"},"geometry":{"type":"Polygon","coordinates":[[[-8.53327,42.88242],[-8.52872,42.88094],[-8.52932,42.88007],[-8.52928,42.8789],[-8.53108,42.8788],[-8.53284,42.87832],[-8.53379,42.87773],[-8.53458,42.87683],[-8.53306,42.8798],[-8.53327,42.88242]]]}},{"type":"Feature","properties":{"id":"1507805001"},"geometry":{"type":"Polygon","coordinates":[[[-8.54329,42.87972],[-8.54378,42.87832],[-8.54442,42.87752],[-8.54619,42.87727],[-8.54637,42.87754],[-8.5472,42.87755],[-8.54798,42.87815],[-8.54938,42.87981],[-8.54957,42.88044],[-8.54952,42.88059],[-8.54914,42.88024],[-8.54887,42.88022],[-8.54667,42.88082],[-8.54545,42.88094],[-8.54519,42.87981],[-8.54436,42.87994],[-8.54421,42.87984],[-8.54329,42.87972]]]}},{"type":"Feature","properties":{"id":"1507805002"},"geometry":{"type":"Polygon","coordinates":[[[-8.54933,42.87453],[-8.54981,42.87416],[-8.55185,42.87202],[-8.55199,42.8729],[-8.55242,42.87371],[-8.55102,42.87437],[-8.54986,42.87518],[-8.54924,42.87525],[-8.5494,42.8754],[-8.55005,42.8756],[-8.549,42.87601],[-8.54869,42.87527],[-8.54883,42.87527],[-8.54933,42.87453]]]}},{"type":"Feature","properties":{"id":"1507805003"},"geometry":{"type":"Polygon","coordinates":[[[-8.54442,42.87752],[-8.54414,42.87748],[-8.54417,42.87689],[-8.54402,42.87622],[-8.54443,42.87615],[-8.54454,42.87623],[-8.54472,42.87607],[-8.5454,42.87457],[-8.54618,42.87454],[-8.54613,42.87579],[-8.5465,42.8767],[-8.54576,42.87684],[-8.54626,42.8769],[-8.54619,42.87727],[-8.54442,42.87752]]]}},{"type":"Feature","properties":{"id":"1507805004"},"geometry":{"type":"Polygon","coordinates":[[[-8.54402,42.87622],[-8.544,42.87577],[-8.54293,42.87443],[-8.54348,42.87435],[-8.54455,42.87456],[-8.54474,42.87377],[-8.54638,42.87331],[-8.54649,42.87339],[-8.54618,42.87454],[-8.5454,42.87457],[-8.54472,42.87607],[-8.54454,42.87623],[-8.54443,42.87615],[-8.54402,42.87622]]]}},{"type":"Feature","properties":{"id":"1507805005"},"geometry":{"type":"Polygon","coordinates":[[[-8.54499,42.87153],[-8.54596,42.8707],[-8.54652,42.87039],[-8.54828,42.87278],[-8.54474,42.87377],[-8.54474,42.87227],[-8.54499,42.87153]]]}},{"type":"Feature","properties":{"id":"1507805006"},"geometry":{"type":"Polygon","coordinates":[[[-8.53785,42.87356],[-8.54078,42.87281],[-8.54499,42.87153],[-8.54477,42.8721],[-8.54473,42.87402],[-8.54455,42.87456],[-8.5436,42.87436],[-8.54308,42.87437],[-8.54053,42.87554],[-8.54018,42.87579],[-8.53914,42.87523],[-8.53868,42.87438],[-8.53785,42.87356]]]}},{"type":"Feature","properties":{"id":"1507805007"},"geometry":{"type":"Polygon","coordinates":[[[-8.54626,42.8769],[-8.54576,42.87684],[-8.5465,42.8767],[-8.54613,42.87579],[-8.54618,42.87454],[-8.54923,42.87446],[-8.54933,42.87453],[-8.54923,42.8747],[-8.54883,42.87527],[-8.54869,42.87527],[-8.549,42.87601],[-8.54668,42.87685],[-8.54626,42.8769]]]}},{"type":"Feature","properties":{"id":"1507805008"},"geometry":{"type":"Polygon","coordinates":[[[-8.54933,42.87453],[-8.54923,42.87446],[-8.54618,42.87454],[-8.54649,42.87339],[-8.54638,42.87331],[-8.54828,42.87278],[-8.54931,42.87435],[-8.54948,42.8744],[-8.54946,42.8745],[-8.54933,42.87453]]]}},{"type":"Feature","properties":{"id":"1507805010"},"geometry":{"type":"Polygon","coordinates":[[[-8.54743,42.87156],[-8.54947,42.87069],[-8.55045,42.87201],[-8.54828,42.87278],[-8.54743,42.87156]]]}},{"type":"Feature","properties":{"id":"1507805011"},"geometry":{"type":"Polygon","coordinates":[[[-8.55005,42.8756],[-8.5494,42.8754],[-8.54924,42.87525],[-8.54996,42.87513],[-8.55102,42.87437],[-8.55242,42.87371],[-8.55255,42.87378],[-8.55337,42.87316],[-8.55649,42.87281],[-8.56295,42.8719],[-8.56288,42.87212],[-8.56325,42.87243],[-8.5629,42.87286],[-8.56264,42.87295],[-8.56263,42.87323],[-8.56317,42.87338],[-8.5635,42.87401],[-8.56367,42.87412],[-8.5637,42.87448],[-8.56357,42.87475],[-8.56365,42.8748],[-8.56338,42.8751],[-8.56327,42.87579],[-8.56095,42.87759],[-8.56005,42.87817],[-8.55934,42.87828],[-8.55848,42.87794],[-8.55733,42.87778],[-8.55551,42.87852],[-8.55538,42.87838],[-8.55439,42.87797],[-8.55112,42.87819],[-8.55149,42.87729],[-8.55005,42.8756]]]}},{"type":"Feature","properties":{"id":"1507805012"},"geometry":{"type":"Polygon","coordinates":[[[-8.55242,42.87371],[-8.55199,42.8729],[-8.55185,42.87202],[-8.5522,42.8708],[-8.55259,42.87005],[-8.5532,42.86944],[-8.55426,42.86723],[-8.55604,42.8679],[-8.55869,42.87003],[-8.55635,42.87161],[-8.55449,42.87237],[-8.55255,42.87378],[-8.55242,42.87371]]]}},{"type":"Feature","properties":{"id":"1507805013"},"geometry":{"type":"Polygon","coordinates":[[[-8.55337,42.87316],[-8.55449,42.87237],[-8.55635,42.87161],[-8.55986,42.86925],[-8.5604,42.86971],[-8.56029,42.86975],[-8.56114,42.8711],[-8.56139,42.87212],[-8.55337,42.87316]]]}},{"type":"Feature","properties":{"id":"1507805014"},"geometry":{"type":"Polygon","coordinates":[[[-8.55426,42.86723],[-8.55505,42.8654],[-8.55577,42.8642],[-8.55564,42.86392],[-8.55595,42.86379],[-8.5561,42.86318],[-8.5564,42.8627],[-8.55657,42.86262],[-8.5575,42.86239],[-8.55841,42.86295],[-8.55956,42.86295],[-8.55918,42.86377],[-8.56105,42.8642],[-8.56143,42.86449],[-8.56158,42.86483],[-8.5615,42.86517],[-8.56079,42.86592],[-8.56083,42.86601],[-8.5588,42.86742],[-8.55851,42.86737],[-8.55839,42.86772],[-8.55774,42.86833],[-8.5576,42.8689],[-8.55769,42.86924],[-8.55604,42.8679],[-8.55426,42.86723]]]}},{"type":"Feature","properties":{"id":"1507805015"},"geometry":{"type":"Polygon","coordinates":[[[-8.55185,42.87202],[-8.54876,42.86992],[-8.54852,42.86977],[-8.54827,42.86977],[-8.54819,42.86967],[-8.54841,42.8694],[-8.54837,42.86905],[-8.54993,42.86823],[-8.55085,42.86748],[-8.55117,42.86708],[-8.55143,42.86658],[-8.55168,42.86542],[-8.55145,42.86447],[-8.55119,42.86403],[-8.55438,42.86446],[-8.55443,42.8644],[-8.55375,42.864],[-8.55491,42.86305],[-8.55487,42.86288],[-8.55652,42.86257],[-8.5566,42.86261],[-8.5564,42.8627],[-8.5561,42.86318],[-8.55595,42.86379],[-8.55564,42.86392],[-8.55577,42.8642],[-8.55505,42.8654],[-8.5532,42.86944],[-8.55259,42.87005],[-8.55226,42.87062],[-8.55185,42.87202]]]}},{"type":"Feature","properties":{"id":"1507805016"},"geometry":{"type":"Polygon","coordinates":[[[-8.56442,42.86616],[-8.56371,42.8666],[-8.56232,42.86579],[-8.56147,42.86652],[-8.56126,42.86661],[-8.56105,42.86659],[-8.56079,42.86592],[-8.5615,42.86517],[-8.56158,42.86483],[-8.56143,42.86449],[-8.56105,42.8642],[-8.55918,42.86377],[-8.55956,42.86295],[-8.55841,42.86295],[-8.55764,42.86242],[-8.55732,42.8624],[-8.5566,42.86261],[-8.55639,42.86259],[-8.55487,42.86288],[-8.55491,42.86305],[-8.55375,42.864],[-8.55443,42.8644],[-8.55438,42.86446],[-8.55267,42.86426],[-8.55262,42.86418],[-8.55243,42.86424],[-8.55205,42.86412],[-8.55104,42.86403],[-8.55074,42.86389],[-8.54949,42.8637],[-8.54944,42.86313],[-8.54887,42.86284],[-8.54875,42.86246],[-8.54938,42.86201],[-8.55029,42.86288],[-8.55111,42.86253],[-8.5516,42.86206],[-8.55194,42.86198],[-8.55182,42.8612],[-8.55154,42.86087],[-8.55045,42.86024],[-8.55026,42.85987],[-8.55115,42.85945],[-8.55288,42.85832],[-8.5508,42.85642],[-8.55076,42.85613],[-8.55082,42.85509],[-8.55051,42.85348],[-8.55049,42.85275],[-8.55079,42.8515],[-8.55061,42.85109],[-8.55065,42.85073],[-8.55096,42.85017],[-8.55183,42.84944],[-8.55128,42.84867],[-8.55101,42.84783],[-8.55152,42.84719],[-8.5511,42.84628],[-8.55136,42.84566],[-8.55247,42.84571],[-8.55683,42.84459],[-8.56155,42.84219],[-8.56185,42.84267],[-8.56416,42.84483],[-8.56473,42.8449],[-8.56537,42.8453],[-8.56623,42.84504],[-8.57191,42.84748],[-8.57236,42.84781],[-8.57327,42.84749],[-8.5741,42.84765],[-8.57325,42.84959],[-8.57307,42.85025],[-8.57202,42.852],[-8.57145,42.85353],[-8.57116,42.85471],[-8.57082,42.85517],[-8.57047,42.85634],[-8.56853,42.85672],[-8.5676,42.85681],[-8.5667,42.8571],[-8.56589,42.85781],[-8.56536,42.85856],[-8.5653,42.85908],[-8.56543,42.85948],[-8.56561,42.85977],[-8.56601,42.85998],[-8.56602,42.86011],[-8.56648,42.86049],[-8.56611,42.86077],[-8.56639,42.86171],[-8.56668,42.86209],[-8.56749,42.86253],[-8.56746,42.86387],[-8.56837,42.8641],[-8.56866,42.86458],[-8.5679,42.86509],[-8.56757,42.86489],[-8.56563,42.8661],[-8.56565,42.86645],[-8.56524,42.86672],[-8.56442,42.86616]]]}},{"type":"Feature","properties":{"id":"1507805017"},"geometry":{"type":"Polygon","coordinates":[[[-8.56872,42.86971],[-8.56879,42.8696],[-8.56868,42.86925],[-8.56794,42.869],[-8.56786,42.8689],[-8.56787,42.86787],[-8.56738,42.86778],[-8.56525,42.86782],[-8.5652,42.86748],[-8.56401,42.86745],[-8.564,42.86684],[-8.56419,42.86631],[-8.56442,42.86616],[-8.56524,42.86672],[-8.56565,42.86645],[-8.56563,42.8661],[-8.56757,42.86489],[-8.5679,42.86509],[-8.56866,42.86458],[-8.56837,42.8641],[-8.56746,42.86387],[-8.56749,42.86253],[-8.56668,42.86209],[-8.56639,42.86171],[-8.56611,42.86077],[-8.56648,42.86049],[-8.56602,42.86011],[-8.56601,42.85998],[-8.56561,42.85977],[-8.56534,42.85931],[-8.56536,42.85856],[-8.56555,42.85821],[-8.56613,42.85756],[-8.5667,42.8571],[-8.5676,42.85681],[-8.56853,42.85672],[-8.57047,42.85634],[-8.57082,42.85517],[-8.57116,42.85471],[-8.57145,42.85353],[-8.57202,42.852],[-8.57307,42.85025],[-8.57325,42.84959],[-8.57397,42.84797],[-8.57593,42.84846],[-8.57644,42.84816],[-8.57759,42.84823],[-8.57827,42.84817],[-8.58007,42.8485],[-8.58016,42.84811],[-8.58159,42.84821],[-8.58112,42.85417],[-8.58139,42.85439],[-8.58186,42.85447],[-8.58173,42.85508],[-8.58176,42.85609],[-8.58134,42.8571],[-8.58108,42.85725],[-8.58027,42.85735],[-8.58051,42.85766],[-8.58032,42.85831],[-8.58019,42.85857],[-8.57958,42.85901],[-8.58041,42.86008],[-8.58044,42.86031],[-8.58017,42.86129],[-8.57964,42.86198],[-8.57845,42.86289],[-8.57833,42.86362],[-8.57795,42.86474],[-8.5775,42.86554],[-8.57723,42.86645],[-8.57704,42.86675],[-8.57654,42.86682],[-8.57481,42.86642],[-8.57437,42.86643],[-8.57426,42.8665],[-8.5742,42.86672],[-8.57412,42.86805],[-8.57292,42.86846],[-8.57255,42.86845],[-8.57233,42.86871],[-8.572,42.8689],[-8.57088,42.86913],[-8.56917,42.87001],[-8.56872,42.86971]]]}},{"type":"Feature","properties":{"id":"1507805018"},"geometry":{"type":"Polygon","coordinates":[[[-8.54828,42.87278],[-8.55137,42.87168],[-8.55185,42.87202],[-8.54948,42.87441],[-8.54931,42.87435],[-8.54828,42.87278]]]}},{"type":"Feature","properties":{"id":"1507805019"},"geometry":{"type":"Polygon","coordinates":[[[-8.54829,42.87118],[-8.54739,42.87002],[-8.5482,42.86962],[-8.54824,42.86976],[-8.54859,42.86981],[-8.55137,42.87168],[-8.55045,42.87201],[-8.54947,42.87069],[-8.54829,42.87118]]]}},{"type":"Feature","properties":{"id":"1507805020"},"geometry":{"type":"Polygon","coordinates":[[[-8.52569,42.85905],[-8.52668,42.85938],[-8.52771,42.85945],[-8.52883,42.85946],[-8.53024,42.85919],[-8.53138,42.85869],[-8.536,42.85599],[-8.5376,42.85521],[-8.53874,42.85491],[-8.54006,42.85469],[-8.54107,42.85473],[-8.54212,42.85491],[-8.54346,42.85533],[-8.54397,42.85557],[-8.54454,42.85592],[-8.54543,42.85668],[-8.54605,42.85748],[-8.54697,42.85939],[-8.54789,42.86076],[-8.54849,42.86145],[-8.54926,42.86209],[-8.54875,42.86246],[-8.54887,42.86284],[-8.54944,42.86313],[-8.54951,42.86366],[-8.54935,42.86378],[-8.54865,42.86385],[-8.54834,42.864],[-8.54784,42.86404],[-8.5473,42.8638],[-8.54663,42.86328],[-8.54626,42.86337],[-8.54571,42.86265],[-8.54465,42.86174],[-8.54286,42.86152],[-8.54122,42.86147],[-8.54035,42.85989],[-8.54058,42.85751],[-8.54022,42.85697],[-8.54049,42.85685],[-8.54042,42.85673],[-8.54072,42.85661],[-8.54064,42.85591],[-8.54022,42.8559],[-8.53986,42.85486],[-8.53799,42.85521],[-8.53701,42.85562],[-8.53849,42.85758],[-8.53834,42.85766],[-8.5391,42.85891],[-8.53881,42.85901],[-8.53937,42.85928],[-8.53928,42.85939],[-8.5397,42.85962],[-8.53704,42.8615],[-8.53729,42.86178],[-8.53805,42.86225],[-8.53674,42.86283],[-8.5368,42.86331],[-8.53415,42.86308],[-8.5337,42.86329],[-8.53126,42.86335],[-8.5313,42.86273],[-8.53157,42.86201],[-8.53157,42.86119],[-8.53122,42.86068],[-8.53035,42.8601],[-8.53003,42.85956],[-8.52797,42.85972],[-8.52634,42.85969],[-8.52537,42.8593],[-8.52569,42.85905]]]}},{"type":"Feature","properties":{"id":"1507805021"},"geometry":{"type":"Polygon","coordinates":[[[-8.56364,42.87481],[-8.56357,42.87475],[-8.56372,42.87436],[-8.56366,42.87407],[-8.5635,42.87401],[-8.56317,42.87338],[-8.56263,42.87323],[-8.56264,42.87295],[-8.5629,42.87286],[-8.56325,42.87243],[-8.56288,42.87212],[-8.56295,42.8719],[-8.56527,42.87153],[-8.56787,42.87047],[-8.56872,42.86971],[-8.56917,42.87001],[-8.57088,42.86913],[-8.572,42.8689],[-8.57233,42.86871],[-8.57255,42.86845],[-8.57292,42.86846],[-8.57412,42.86805],[-8.5742,42.86672],[-8.57426,42.8665],[-8.57437,42.86643],[-8.57481,42.86642],[-8.57611,42.8667],[-8.57686,42.86696],[-8.57704,42.86733],[-8.57701,42.86768],[-8.57653,42.8682],[-8.57608,42.86922],[-8.57628,42.86925],[-8.57674,42.86953],[-8.57822,42.87077],[-8.57922,42.87194],[-8.57915,42.8727],[-8.57885,42.87332],[-8.57849,42.87377],[-8.57784,42.87423],[-8.57744,42.87466],[-8.57685,42.87418],[-8.57636,42.87472],[-8.57595,42.87502],[-8.57542,42.87525],[-8.57414,42.87529],[-8.57275,42.87512],[-8.57236,42.87519],[-8.5714,42.87517],[-8.5708,42.87503],[-8.57031,42.87462],[-8.56933,42.87408],[-8.56849,42.874],[-8.56781,42.87435],[-8.56677,42.87526],[-8.5654,42.87456],[-8.56364,42.87481]]]}},{"type":"Feature","properties":{"id":"1507805022"},"geometry":{"type":"Polygon","coordinates":[[[-8.54652,42.87039],[-8.54739,42.87002],[-8.54829,42.87118],[-8.54743,42.87156],[-8.54652,42.87039]]]}},{"type":"Feature","properties":{"id":"1507805023"},"geometry":{"type":"Polygon","coordinates":[[[-8.55869,42.87003],[-8.5577,42.86927],[-8.5576,42.86896],[-8.55774,42.86833],[-8.55839,42.86772],[-8.55851,42.86737],[-8.5588,42.86742],[-8.56083,42.86601],[-8.56105,42.86659],[-8.56126,42.86661],[-8.56232,42.86579],[-8.56371,42.8666],[-8.56419,42.86631],[-8.564,42.86684],[-8.56401,42.86745],[-8.5652,42.86748],[-8.56525,42.86782],[-8.56738,42.86778],[-8.56787,42.86787],[-8.56789,42.86896],[-8.56868,42.86925],[-8.56879,42.8696],[-8.56787,42.87047],[-8.56527,42.87153],[-8.56139,42.87212],[-8.56114,42.8711],[-8.56029,42.86975],[-8.5604,42.86971],[-8.55986,42.86925],[-8.55869,42.87003]]]}},{"type":"Feature","properties":{"id":"1507805024"},"geometry":{"type":"Polygon","coordinates":[[[-8.54926,42.86209],[-8.54849,42.86145],[-8.54789,42.86076],[-8.54697,42.85939],[-8.54605,42.85748],[-8.54543,42.85668],[-8.54454,42.85592],[-8.54346,42.85533],[-8.54212,42.85491],[-8.54107,42.85473],[-8.54006,42.85469],[-8.53874,42.85491],[-8.5376,42.85521],[-8.536,42.85599],[-8.53138,42.85869],[-8.53024,42.85919],[-8.52883,42.85946],[-8.52771,42.85945],[-8.52668,42.85938],[-8.52569,42.85905],[-8.52598,42.85882],[-8.52642,42.85867],[-8.52762,42.85785],[-8.52911,42.85708],[-8.53162,42.85616],[-8.53349,42.85524],[-8.53516,42.85477],[-8.5355,42.85458],[-8.53525,42.85401],[-8.53535,42.85379],[-8.53634,42.8533],[-8.53705,42.85308],[-8.53741,42.85284],[-8.53797,42.85223],[-8.53813,42.85181],[-8.53783,42.8501],[-8.53873,42.84871],[-8.53938,42.84832],[-8.53939,42.84816],[-8.53871,42.84816],[-8.53842,42.84809],[-8.5384,42.84802],[-8.53888,42.8478],[-8.53915,42.84755],[-8.53864,42.84683],[-8.53899,42.8463],[-8.54199,42.84626],[-8.54343,42.84376],[-8.54397,42.84374],[-8.54665,42.84079],[-8.54847,42.84288],[-8.55136,42.84566],[-8.5511,42.84628],[-8.55152,42.84719],[-8.55101,42.84783],[-8.55128,42.84867],[-8.55183,42.84944],[-8.55096,42.85017],[-8.55065,42.85073],[-8.55061,42.85109],[-8.55079,42.8515],[-8.55049,42.85275],[-8.55051,42.85348],[-8.55082,42.85509],[-8.55076,42.85613],[-8.5508,42.85642],[-8.55288,42.85832],[-8.55115,42.85945],[-8.55026,42.85987],[-8.55045,42.86024],[-8.55154,42.86087],[-8.55182,42.8612],[-8.55194,42.86198],[-8.5516,42.86206],[-8.55111,42.86253],[-8.55029,42.86288],[-8.54938,42.86201],[-8.54926,42.86209]]]}},{"type":"Feature","properties":{"id":"1507806001"},"geometry":{"type":"Polygon","coordinates":[[[-8.41053,42.94055],[-8.41414,42.9371],[-8.41477,42.93607],[-8.41731,42.93256],[-8.41851,42.93216],[-8.4231,42.93157],[-8.42459,42.93148],[-8.42576,42.93165],[-8.42748,42.93123],[-8.42925,42.93157],[-8.42988,42.93158],[-8.43071,42.93138],[-8.43094,42.93115],[-8.42986,42.93045],[-8.42974,42.92996],[-8.42992,42.92962],[-8.43021,42.9293],[-8.43065,42.9291],[-8.43206,42.92886],[-8.43235,42.9287],[-8.43252,42.92833],[-8.43266,42.92745],[-8.43304,42.92706],[-8.43389,42.92649],[-8.43407,42.92586],[-8.43411,42.92523],[-8.43391,42.92453],[-8.43367,42.92442],[-8.43191,42.92428],[-8.43208,42.92385],[-8.43268,42.92339],[-8.43269,42.92319],[-8.43156,42.92283],[-8.43068,42.92187],[-8.43022,42.92162],[-8.43006,42.92131],[-8.43258,42.92056],[-8.43409,42.92],[-8.43348,42.91949],[-8.43371,42.91903],[-8.43349,42.91871],[-8.43372,42.91811],[-8.43378,42.91731],[-8.43338,42.91691],[-8.43314,42.91641],[-8.4332,42.91615],[-8.43421,42.91587],[-8.43741,42.91459],[-8.43756,42.91541],[-8.43837,42.91581],[-8.43868,42.91587],[-8.43916,42.91579],[-8.43982,42.91557],[-8.44024,42.91532],[-8.4406,42.91509],[-8.44105,42.91461],[-8.44124,42.91454],[-8.44202,42.91467],[-8.44314,42.91465],[-8.44376,42.91455],[-8.44605,42.91194],[-8.44624,42.91194],[-8.44644,42.91221],[-8.44682,42.91236],[-8.44768,42.91209],[-8.44853,42.91197],[-8.44916,42.91202],[-8.44854,42.91166],[-8.44835,42.91126],[-8.44868,42.91011],[-8.44956,42.90866],[-8.45001,42.90853],[-8.45164,42.90775],[-8.45358,42.90714],[-8.45422,42.90678],[-8.45504,42.90648],[-8.45542,42.90714],[-8.45714,42.90674],[-8.45686,42.90598],[-8.45755,42.90495],[-8.45801,42.90344],[-8.45794,42.90292],[-8.45826,42.90293],[-8.45937,42.90326],[-8.45959,42.90316],[-8.4602,42.90326],[-8.46121,42.90314],[-8.46146,42.90361],[-8.46241,42.90462],[-8.46568,42.90686],[-8.46632,42.90708],[-8.46813,42.90749],[-8.46894,42.90779],[-8.47085,42.90783],[-8.47189,42.90836],[-8.47242,42.9077],[-8.47277,42.90702],[-8.47252,42.90661],[-8.47343,42.90646],[-8.4741,42.90716],[-8.47455,42.90718],[-8.47697,42.90675],[-8.4778,42.90644],[-8.47833,42.90634],[-8.47915,42.90492],[-8.47954,42.90324],[-8.48076,42.9033],[-8.4813,42.90343],[-8.48183,42.90363],[-8.48283,42.90423],[-8.48379,42.90441],[-8.48417,42.90457],[-8.48509,42.90463],[-8.48558,42.90457],[-8.48709,42.90408],[-8.48726,42.90413],[-8.48738,42.90452],[-8.48808,42.90521],[-8.48884,42.90481],[-8.48937,42.90505],[-8.49071,42.90435],[-8.49406,42.90326],[-8.49801,42.90182],[-8.49984,42.90096],[-8.50226,42.89916],[-8.50318,42.89811],[-8.50414,42.89582],[-8.50464,42.89553],[-8.50559,42.89568],[-8.50581,42.89593],[-8.50678,42.89589],[-8.50645,42.89628],[-8.50839,42.89906],[-8.50986,42.89878],[-8.51188,42.90297],[-8.51186,42.90419],[-8.51149,42.90486],[-8.51083,42.90547],[-8.50982,42.90603],[-8.5091,42.90678],[-8.50885,42.90937],[-8.50085,42.91387],[-8.49794,42.91562],[-8.49846,42.91606],[-8.50044,42.9159],[-8.50057,42.91613],[-8.50031,42.91687],[-8.5004,42.91743],[-8.50105,42.9181],[-8.50171,42.91835],[-8.50232,42.9183],[-8.50338,42.91863],[-8.50357,42.91878],[-8.50335,42.91919],[-8.50272,42.9198],[-8.50154,42.92074],[-8.49871,42.92151],[-8.49837,42.92185],[-8.49736,42.92255],[-8.49717,42.923],[-8.49777,42.92323],[-8.4986,42.92381],[-8.49905,42.92399],[-8.501,42.92463],[-8.50148,42.92471],[-8.49903,42.92607],[-8.49768,42.92727],[-8.49702,42.92804],[-8.49668,42.92876],[-8.49658,42.92926],[-8.49638,42.9295],[-8.49577,42.92975],[-8.49482,42.92966],[-8.49425,42.92984],[-8.49266,42.93068],[-8.49186,42.93142],[-8.49156,42.93149],[-8.49119,42.93143],[-8.49048,42.93082],[-8.49037,42.92999],[-8.48999,42.92995],[-8.48919,42.93055],[-8.48907,42.93081],[-8.48822,42.9317],[-8.48783,42.93276],[-8.48762,42.93303],[-8.48718,42.93319],[-8.48649,42.9331],[-8.4842,42.93137],[-8.48385,42.9313],[-8.48256,42.93065],[-8.48145,42.93036],[-8.4807,42.93043],[-8.48027,42.93093],[-8.4808,42.93137],[-8.48212,42.93172],[-8.48359,42.93296],[-8.48343,42.93328],[-8.48335,42.9343],[-8.48372,42.93638],[-8.48325,42.93632],[-8.4806,42.93521],[-8.47941,42.93637],[-8.47871,42.9361],[-8.47824,42.93643],[-8.47738,42.93646],[-8.47674,42.93662],[-8.47524,42.93826],[-8.47454,42.93874],[-8.47353,42.93807],[-8.47509,42.93624],[-8.47381,42.93577],[-8.47288,42.93527],[-8.4726,42.93558],[-8.47231,42.9355],[-8.47059,42.93475],[-8.47014,42.93468],[-8.46918,42.9342],[-8.46867,42.93412],[-8.46807,42.93418],[-8.46782,42.93431],[-8.46707,42.93424],[-8.46659,42.93358],[-8.46639,42.93291],[-8.46591,42.93319],[-8.46413,42.93376],[-8.46369,42.93378],[-8.46413,42.93559],[-8.46378,42.93612],[-8.46269,42.93598],[-8.46223,42.93622],[-8.46053,42.93809],[-8.46009,42.93843],[-8.45862,42.93773],[-8.45528,42.93636],[-8.45465,42.93681],[-8.45364,42.93721],[-8.45209,42.9376],[-8.45309,42.93833],[-8.45331,42.93892],[-8.45315,42.93944],[-8.45284,42.93974],[-8.45166,42.94016],[-8.45098,42.94015],[-8.45054,42.94009],[-8.44962,42.93951],[-8.4489,42.93939],[-8.44829,42.93904],[-8.44743,42.93872],[-8.44666,42.93796],[-8.44633,42.93805],[-8.44613,42.93861],[-8.44476,42.93995],[-8.44443,42.94016],[-8.44253,42.94042],[-8.44071,42.94122],[-8.43814,42.94214],[-8.43604,42.94313],[-8.43543,42.94356],[-8.43439,42.94458],[-8.43416,42.94384],[-8.43412,42.94187],[-8.434,42.9416],[-8.43244,42.942],[-8.42977,42.94239],[-8.42933,42.94135],[-8.42898,42.94087],[-8.42649,42.94205],[-8.42565,42.94228],[-8.42241,42.94254],[-8.42165,42.94244],[-8.42065,42.94268],[-8.41938,42.94347],[-8.41769,42.94361],[-8.41661,42.9436],[-8.41523,42.94346],[-8.41183,42.94251],[-8.4114,42.94226],[-8.41104,42.94184],[-8.41063,42.94118],[-8.41053,42.94055]]]}},{"type":"Feature","properties":{"id":"1507806002"},"geometry":{"type":"Polygon","coordinates":[[[-8.45169,42.97102],[-8.45094,42.9704],[-8.44983,42.96901],[-8.4493,42.96861],[-8.44703,42.96761],[-8.4466,42.96726],[-8.44544,42.96495],[-8.44289,42.96675],[-8.43366,42.96991],[-8.43287,42.9669],[-8.43216,42.96688],[-8.43132,42.96551],[-8.43056,42.96665],[-8.43037,42.96757],[-8.43007,42.9683],[-8.42902,42.97031],[-8.42849,42.97048],[-8.42695,42.97042],[-8.42522,42.96978],[-8.42111,42.9689],[-8.41978,42.96925],[-8.41941,42.96923],[-8.41753,42.96832],[-8.4173,42.96751],[-8.41679,42.96668],[-8.41643,42.9665],[-8.41412,42.96614],[-8.41271,42.96574],[-8.4115,42.9656],[-8.40913,42.9659],[-8.40819,42.96625],[-8.40728,42.96677],[-8.40549,42.96741],[-8.40497,42.96769],[-8.40451,42.96818],[-8.40387,42.96935],[-8.40189,42.97178],[-8.40151,42.97245],[-8.40132,42.97312],[-8.40131,42.97377],[-8.40041,42.97398],[-8.39986,42.97393],[-8.39884,42.97294],[-8.39488,42.97257],[-8.39345,42.97226],[-8.39001,42.97112],[-8.39574,42.96543],[-8.39803,42.96032],[-8.39867,42.95816],[-8.40121,42.95182],[-8.40187,42.94929],[-8.40445,42.94702],[-8.40511,42.94632],[-8.40618,42.94464],[-8.40679,42.94399],[-8.41053,42.94055],[-8.41063,42.94118],[-8.41104,42.94184],[-8.4114,42.94226],[-8.41183,42.94251],[-8.41523,42.94346],[-8.41661,42.9436],[-8.41769,42.94361],[-8.41938,42.94347],[-8.42065,42.94268],[-8.42165,42.94244],[-8.42241,42.94254],[-8.42565,42.94228],[-8.42649,42.94205],[-8.42898,42.94087],[-8.42933,42.94135],[-8.42977,42.94239],[-8.43244,42.942],[-8.434,42.9416],[-8.43412,42.94187],[-8.43416,42.94384],[-8.43439,42.94458],[-8.43543,42.94356],[-8.43604,42.94313],[-8.43814,42.94214],[-8.44071,42.94122],[-8.44253,42.94042],[-8.44443,42.94016],[-8.44476,42.93995],[-8.44613,42.93861],[-8.44633,42.93805],[-8.44666,42.93796],[-8.44743,42.93872],[-8.44829,42.93904],[-8.4489,42.93939],[-8.44962,42.93951],[-8.45054,42.94009],[-8.45098,42.94015],[-8.45166,42.94016],[-8.45284,42.93974],[-8.45315,42.93944],[-8.45331,42.93892],[-8.45309,42.93833],[-8.45209,42.9376],[-8.45364,42.93721],[-8.45465,42.93681],[-8.45528,42.93636],[-8.45862,42.93773],[-8.46009,42.93843],[-8.46053,42.93809],[-8.46223,42.93622],[-8.46269,42.93598],[-8.46378,42.93612],[-8.46413,42.93559],[-8.46369,42.93378],[-8.46413,42.93376],[-8.46591,42.93319],[-8.46639,42.93291],[-8.46659,42.93358],[-8.46707,42.93424],[-8.46782,42.93431],[-8.46807,42.93418],[-8.46867,42.93412],[-8.46918,42.9342],[-8.47014,42.93468],[-8.47059,42.93475],[-8.47231,42.9355],[-8.4726,42.93558],[-8.47288,42.93527],[-8.47381,42.93577],[-8.47509,42.93624],[-8.47353,42.93807],[-8.47454,42.93874],[-8.47565,42.93799],[-8.47562,42.93878],[-8.47581,42.93955],[-8.4763,42.94034],[-8.47599,42.94375],[-8.47604,42.94413],[-8.47629,42.94435],[-8.47643,42.94472],[-8.4764,42.94519],[-8.47418,42.94738],[-8.47252,42.94849],[-8.47263,42.94892],[-8.47209,42.94926],[-8.47187,42.94951],[-8.47205,42.95065],[-8.47179,42.95135],[-8.47135,42.95187],[-8.47086,42.95225],[-8.47203,42.95271],[-8.47294,42.95292],[-8.47206,42.9552],[-8.47176,42.95653],[-8.47145,42.9569],[-8.47368,42.95726],[-8.47382,42.96037],[-8.47391,42.96895],[-8.47365,42.9688],[-8.47316,42.96878],[-8.47277,42.96866],[-8.47127,42.968],[-8.46986,42.96768],[-8.47054,42.96568],[-8.47058,42.9648],[-8.47043,42.96442],[-8.46918,42.96405],[-8.46728,42.9639],[-8.46728,42.96653],[-8.46497,42.96629],[-8.46614,42.96781],[-8.46526,42.96803],[-8.46358,42.96932],[-8.46284,42.9711],[-8.46263,42.97223],[-8.46213,42.97335],[-8.46107,42.97291],[-8.45743,42.97234],[-8.4565,42.97193],[-8.45598,42.9718],[-8.45375,42.97166],[-8.45263,42.97143],[-8.45169,42.97102]]]}},{"type":"Feature","properties":{"id":"1507806003"},"geometry":{"type":"Polygon","coordinates":[[[-8.46909,42.9771],[-8.46651,42.97655],[-8.46449,42.97521],[-8.46351,42.97408],[-8.46299,42.97371],[-8.46213,42.97335],[-8.46263,42.97223],[-8.46284,42.9711],[-8.46358,42.96932],[-8.46526,42.96803],[-8.46614,42.96781],[-8.46497,42.96629],[-8.46728,42.96653],[-8.46728,42.9639],[-8.46918,42.96405],[-8.47043,42.96442],[-8.47058,42.9648],[-8.47054,42.96568],[-8.46986,42.96768],[-8.47127,42.968],[-8.47277,42.96866],[-8.47316,42.96878],[-8.47365,42.9688],[-8.47391,42.96895],[-8.47382,42.96037],[-8.47368,42.95726],[-8.47145,42.9569],[-8.47176,42.95653],[-8.47206,42.9552],[-8.47294,42.95292],[-8.47203,42.95271],[-8.47086,42.95225],[-8.47135,42.95187],[-8.47179,42.95135],[-8.47205,42.95065],[-8.47187,42.94951],[-8.47209,42.94926],[-8.47263,42.94892],[-8.47252,42.94849],[-8.47418,42.94738],[-8.4764,42.94519],[-8.47643,42.94472],[-8.47629,42.94435],[-8.47604,42.94413],[-8.47599,42.94375],[-8.4763,42.94034],[-8.47581,42.93955],[-8.47562,42.93878],[-8.47565,42.93799],[-8.47524,42.93826],[-8.47674,42.93662],[-8.47738,42.93646],[-8.47824,42.93643],[-8.47871,42.9361],[-8.47941,42.93637],[-8.4806,42.93521],[-8.48325,42.93632],[-8.48372,42.93638],[-8.48335,42.9343],[-8.48343,42.93328],[-8.48359,42.93296],[-8.48212,42.93172],[-8.4808,42.93137],[-8.48027,42.93093],[-8.4807,42.93043],[-8.48145,42.93036],[-8.48256,42.93065],[-8.48385,42.9313],[-8.4842,42.93137],[-8.48649,42.9331],[-8.48718,42.93319],[-8.48762,42.93303],[-8.48783,42.93276],[-8.48822,42.9317],[-8.48907,42.93081],[-8.48919,42.93055],[-8.48999,42.92995],[-8.49037,42.92999],[-8.49048,42.93082],[-8.49119,42.93143],[-8.49156,42.93149],[-8.49186,42.93142],[-8.49266,42.93068],[-8.49425,42.92984],[-8.49482,42.92966],[-8.49577,42.92975],[-8.4961,42.92965],[-8.49658,42.92926],[-8.49671,42.92885],[-8.49673,42.92895],[-8.49725,42.92921],[-8.49978,42.93007],[-8.50231,42.9315],[-8.50354,42.93256],[-8.50491,42.93344],[-8.50772,42.93559],[-8.50857,42.93528],[-8.50945,42.9347],[-8.51032,42.9348],[-8.5109,42.93477],[-8.51156,42.93456],[-8.51267,42.93402],[-8.5141,42.9347],[-8.51472,42.93529],[-8.51524,42.93469],[-8.51654,42.93382],[-8.52063,42.93287],[-8.52163,42.9325],[-8.52234,42.93185],[-8.52272,42.93099],[-8.52284,42.93085],[-8.52312,42.93079],[-8.52371,42.9326],[-8.52345,42.93299],[-8.5234,42.934],[-8.52311,42.93442],[-8.52303,42.93555],[-8.5233,42.93646],[-8.52357,42.93666],[-8.52502,42.93567],[-8.52538,42.93558],[-8.52561,42.93676],[-8.5256,42.93746],[-8.52584,42.93809],[-8.5263,42.93861],[-8.52675,42.93866],[-8.52652,42.93891],[-8.52565,42.93936],[-8.52434,42.94027],[-8.52124,42.94273],[-8.52023,42.94399],[-8.51887,42.94622],[-8.51885,42.9468],[-8.5192,42.94729],[-8.52019,42.94797],[-8.52119,42.94829],[-8.52153,42.94855],[-8.51984,42.9514],[-8.51901,42.95227],[-8.51952,42.95361],[-8.51978,42.9537],[-8.52192,42.95331],[-8.5232,42.95267],[-8.52363,42.95372],[-8.52404,42.9542],[-8.52445,42.95546],[-8.52414,42.95702],[-8.52348,42.95814],[-8.5227,42.95887],[-8.52178,42.95933],[-8.51732,42.9607],[-8.51556,42.96084],[-8.51468,42.96079],[-8.51192,42.96098],[-8.51127,42.96125],[-8.51008,42.96208],[-8.50963,42.96258],[-8.50935,42.9631],[-8.50912,42.96429],[-8.50854,42.9653],[-8.50835,42.96588],[-8.50834,42.96649],[-8.5087,42.96686],[-8.50912,42.96704],[-8.50967,42.96715],[-8.51114,42.96713],[-8.5126,42.96696],[-8.51477,42.96644],[-8.51563,42.96634],[-8.51739,42.96663],[-8.5194,42.96745],[-8.51974,42.96788],[-8.52055,42.97005],[-8.52176,42.97279],[-8.52182,42.97359],[-8.52241,42.97572],[-8.52258,42.97752],[-8.5235,42.98143],[-8.52217,42.98154],[-8.52181,42.98181],[-8.51681,42.98114],[-8.5159,42.98126],[-8.5153,42.98156],[-8.51527,42.98182],[-8.51589,42.98298],[-8.51552,42.98495],[-8.51514,42.98603],[-8.51454,42.98874],[-8.51351,42.98962],[-8.51307,42.98947],[-8.51153,42.98864],[-8.51079,42.98798],[-8.51024,42.98647],[-8.50985,42.98608],[-8.50883,42.98564],[-8.50722,42.98532],[-8.50642,42.98481],[-8.50519,42.98359],[-8.50365,42.98272],[-8.50293,42.98263],[-8.50246,42.98271],[-8.50059,42.98412],[-8.49974,42.9845],[-8.49904,42.98466],[-8.49841,42.98468],[-8.49673,42.98447],[-8.49607,42.98466],[-8.49567,42.98497],[-8.49472,42.98619],[-8.49429,42.98628],[-8.49157,42.98561],[-8.49097,42.98535],[-8.49054,42.98505],[-8.4898,42.98424],[-8.48792,42.98284],[-8.48658,42.98159],[-8.48627,42.98118],[-8.48596,42.98033],[-8.48592,42.97985],[-8.48617,42.97733],[-8.48584,42.977],[-8.48543,42.97679],[-8.48487,42.9767],[-8.48277,42.97682],[-8.4821,42.977],[-8.48004,42.97805],[-8.47925,42.97828],[-8.47851,42.97838],[-8.47631,42.97935],[-8.47568,42.97944],[-8.47514,42.97912],[-8.47436,42.97811],[-8.47385,42.9777],[-8.47314,42.97735],[-8.47229,42.97709],[-8.47071,42.97689],[-8.46909,42.9771]]]}},{"type":"Feature","properties":{"id":"1507806004"},"geometry":{"type":"Polygon","coordinates":[[[-8.55354,42.96128],[-8.55294,42.96006],[-8.55203,42.95876],[-8.55149,42.95832],[-8.54863,42.95707],[-8.54577,42.95611],[-8.5447,42.95565],[-8.54364,42.95494],[-8.5431,42.95443],[-8.54095,42.95145],[-8.54044,42.95001],[-8.54025,42.94788],[-8.54035,42.94668],[-8.54057,42.94594],[-8.53991,42.94393],[-8.53952,42.94365],[-8.53778,42.94307],[-8.53596,42.9429],[-8.53471,42.94324],[-8.53358,42.94377],[-8.53188,42.94476],[-8.53085,42.94548],[-8.52805,42.94674],[-8.52674,42.94772],[-8.52494,42.94862],[-8.52462,42.94891],[-8.5232,42.95188],[-8.5232,42.95267],[-8.52233,42.95317],[-8.52153,42.95342],[-8.52024,42.95367],[-8.51978,42.9537],[-8.51952,42.95361],[-8.51901,42.95227],[-8.51984,42.9514],[-8.52153,42.94855],[-8.52119,42.94829],[-8.52019,42.94797],[-8.5192,42.94729],[-8.51885,42.9468],[-8.51887,42.94622],[-8.52071,42.94328],[-8.52124,42.94273],[-8.52434,42.94027],[-8.52565,42.93936],[-8.52652,42.93891],[-8.52675,42.93866],[-8.52708,42.93862],[-8.5288,42.93733],[-8.53174,42.93458],[-8.53422,42.9318],[-8.53399,42.93086],[-8.53503,42.93017],[-8.53573,42.92991],[-8.53663,42.93055],[-8.53834,42.9321],[-8.53908,42.93356],[-8.53978,42.93584],[-8.54016,42.93662],[-8.54057,42.93725],[-8.54244,42.93891],[-8.54322,42.93996],[-8.54442,42.94052],[-8.54574,42.94075],[-8.54606,42.9406],[-8.54615,42.94044],[-8.54604,42.93953],[-8.54606,42.93942],[-8.54621,42.93937],[-8.54692,42.93975],[-8.54727,42.94017],[-8.5474,42.94046],[-8.54719,42.94098],[-8.54717,42.94145],[-8.54767,42.94184],[-8.54818,42.94197],[-8.5487,42.94204],[-8.54921,42.94198],[-8.55133,42.94134],[-8.5518,42.94095],[-8.55206,42.94055],[-8.55223,42.93996],[-8.55228,42.93863],[-8.55182,42.93701],[-8.55212,42.93669],[-8.55401,42.9361],[-8.55457,42.93575],[-8.55463,42.93554],[-8.55577,42.93459],[-8.55708,42.93383],[-8.55742,42.93285],[-8.5573,42.93151],[-8.55754,42.9312],[-8.55862,42.9304],[-8.55912,42.93011],[-8.55975,42.92991],[-8.55995,42.92998],[-8.56042,42.93049],[-8.56117,42.93073],[-8.56187,42.9307],[-8.56282,42.93093],[-8.56385,42.93145],[-8.56487,42.93175],[-8.56559,42.9317],[-8.56618,42.93142],[-8.5666,42.93139],[-8.56877,42.9319],[-8.56962,42.93164],[-8.57142,42.92981],[-8.57327,42.9285],[-8.57494,42.92697],[-8.57593,42.92562],[-8.57647,42.9253],[-8.58011,42.92424],[-8.58043,42.92421],[-8.58173,42.92459],[-8.58364,42.92494],[-8.58462,42.92473],[-8.58609,42.92464],[-8.58831,42.92437],[-8.58872,42.92397],[-8.58879,42.92315],[-8.58899,42.92264],[-8.58941,42.92212],[-8.58963,42.92125],[-8.58916,42.91974],[-8.58922,42.91951],[-8.58959,42.91888],[-8.59132,42.9178],[-8.59184,42.91873],[-8.59219,42.92187],[-8.59481,42.9247],[-8.59407,42.9256],[-8.5989,42.92957],[-8.59804,42.9305],[-8.59735,42.93158],[-8.5964,42.93192],[-8.5977,42.93332],[-8.59629,42.93483],[-8.59494,42.93581],[-8.59788,42.93801],[-8.59865,42.93835],[-8.6009,42.93996],[-8.60293,42.94154],[-8.60424,42.94222],[-8.60622,42.94345],[-8.60733,42.94145],[-8.609,42.94129],[-8.61123,42.93941],[-8.61283,42.93833],[-8.61514,42.93768],[-8.61585,42.93649],[-8.61791,42.93665],[-8.6202,42.93865],[-8.62093,42.93896],[-8.62199,42.93877],[-8.62416,42.9391],[-8.62507,42.93937],[-8.62546,42.93999],[-8.62596,42.94002],[-8.62596,42.94083],[-8.6251,42.94106],[-8.62452,42.9421],[-8.62532,42.94342],[-8.62692,42.94366],[-8.62903,42.94425],[-8.63181,42.94537],[-8.63203,42.94591],[-8.63078,42.94728],[-8.63238,42.94749],[-8.63115,42.94962],[-8.62877,42.95014],[-8.62765,42.95097],[-8.62882,42.95262],[-8.62681,42.95389],[-8.62061,42.9618],[-8.61857,42.96266],[-8.61711,42.96428],[-8.61661,42.96647],[-8.61489,42.96622],[-8.61399,42.96625],[-8.61009,42.96729],[-8.60862,42.9686],[-8.60827,42.96939],[-8.60769,42.97022],[-8.607,42.97035],[-8.60623,42.97009],[-8.60585,42.96983],[-8.60533,42.96906],[-8.60506,42.96818],[-8.60447,42.96812],[-8.60385,42.96824],[-8.60279,42.96871],[-8.60209,42.96935],[-8.60074,42.97121],[-8.59839,42.97415],[-8.59762,42.97457],[-8.59663,42.97468],[-8.59566,42.97451],[-8.59534,42.97431],[-8.59475,42.97424],[-8.59287,42.97494],[-8.59258,42.97519],[-8.59206,42.97608],[-8.59212,42.97668],[-8.59321,42.97817],[-8.59305,42.97924],[-8.59246,42.97965],[-8.59124,42.98022],[-8.59059,42.98067],[-8.59015,42.9812],[-8.58957,42.98333],[-8.58913,42.98373],[-8.58841,42.98394],[-8.58728,42.984],[-8.58638,42.98395],[-8.58497,42.98419],[-8.58401,42.98423],[-8.58265,42.98449],[-8.57863,42.98573],[-8.57818,42.98576],[-8.57762,42.98542],[-8.57724,42.98455],[-8.57722,42.98399],[-8.5776,42.98286],[-8.57854,42.98159],[-8.57861,42.98086],[-8.57698,42.9783],[-8.57679,42.97717],[-8.5763,42.97567],[-8.57595,42.97535],[-8.57456,42.97452],[-8.57425,42.97423],[-8.57367,42.97319],[-8.57301,42.97162],[-8.57306,42.97082],[-8.57341,42.97046],[-8.57348,42.97014],[-8.57316,42.96975],[-8.57276,42.9695],[-8.57202,42.96925],[-8.57056,42.96908],[-8.57024,42.96894],[-8.56993,42.96869],[-8.56967,42.96832],[-8.5697,42.96664],[-8.56931,42.9661],[-8.56771,42.96557],[-8.56682,42.96506],[-8.56636,42.96466],[-8.56482,42.96372],[-8.56349,42.96259],[-8.56312,42.96238],[-8.5603,42.9615],[-8.55979,42.96149],[-8.55874,42.96153],[-8.55776,42.96206],[-8.55695,42.96218],[-8.55614,42.96209],[-8.55476,42.96222],[-8.55403,42.96189],[-8.55354,42.96128]]]}},{"type":"Feature","properties":{"id":"1507806005"},"geometry":{"type":"Polygon","coordinates":[[[-8.41469,42.90867],[-8.41707,42.90382],[-8.41551,42.89011],[-8.41945,42.88396],[-8.42662,42.88172],[-8.42999,42.88138],[-8.43439,42.88059],[-8.44022,42.88045],[-8.4416,42.87769],[-8.44724,42.87332],[-8.44939,42.87494],[-8.45571,42.87366],[-8.45813,42.87532],[-8.45866,42.87553],[-8.45906,42.87546],[-8.46011,42.87481],[-8.46055,42.87443],[-8.46171,42.87299],[-8.46515,42.87581],[-8.46601,42.87715],[-8.46659,42.87865],[-8.46771,42.88008],[-8.4686,42.88091],[-8.47079,42.88233],[-8.46869,42.88217],[-8.4672,42.88226],[-8.4675,42.88254],[-8.46805,42.88342],[-8.46975,42.88511],[-8.47035,42.88643],[-8.47219,42.88627],[-8.47235,42.88634],[-8.47198,42.88664],[-8.46914,42.88804],[-8.46837,42.88856],[-8.46675,42.89004],[-8.46676,42.89019],[-8.46721,42.89038],[-8.46711,42.89098],[-8.46676,42.89172],[-8.46659,42.89251],[-8.4667,42.8957],[-8.46716,42.89636],[-8.46791,42.89715],[-8.46971,42.89854],[-8.46837,42.89959],[-8.46628,42.90291],[-8.46431,42.90425],[-8.46365,42.9049],[-8.46341,42.90531],[-8.46241,42.90462],[-8.46197,42.9042],[-8.46146,42.90361],[-8.46121,42.90314],[-8.4602,42.90326],[-8.45959,42.90316],[-8.45937,42.90326],[-8.45826,42.90293],[-8.45794,42.90292],[-8.45801,42.90344],[-8.45755,42.90495],[-8.45686,42.90598],[-8.45714,42.90674],[-8.45542,42.90714],[-8.45504,42.90648],[-8.45422,42.90678],[-8.45358,42.90714],[-8.45164,42.90775],[-8.45001,42.90853],[-8.44956,42.90866],[-8.44868,42.91011],[-8.44835,42.91126],[-8.44854,42.91166],[-8.44916,42.91202],[-8.44853,42.91197],[-8.44768,42.91209],[-8.44682,42.91236],[-8.44644,42.91221],[-8.44624,42.91194],[-8.44605,42.91194],[-8.44376,42.91455],[-8.44314,42.91465],[-8.44202,42.91467],[-8.44124,42.91454],[-8.44105,42.91461],[-8.4406,42.91509],[-8.44024,42.91532],[-8.43982,42.91557],[-8.43916,42.91579],[-8.43868,42.91587],[-8.43837,42.91581],[-8.43756,42.91541],[-8.43741,42.91459],[-8.43421,42.91587],[-8.4332,42.91615],[-8.43314,42.91641],[-8.43338,42.91691],[-8.43378,42.91731],[-8.43372,42.91811],[-8.43349,42.91871],[-8.43371,42.91903],[-8.43348,42.91949],[-8.43409,42.92],[-8.43258,42.92056],[-8.43006,42.92131],[-8.43022,42.92162],[-8.43068,42.92187],[-8.43156,42.92283],[-8.43269,42.92319],[-8.43268,42.92339],[-8.43208,42.92385],[-8.43191,42.92428],[-8.43367,42.92442],[-8.43391,42.92453],[-8.43411,42.92523],[-8.43407,42.92586],[-8.43389,42.92649],[-8.43304,42.92706],[-8.43266,42.92745],[-8.43252,42.92833],[-8.43235,42.9287],[-8.43206,42.92886],[-8.43065,42.9291],[-8.43021,42.9293],[-8.42992,42.92962],[-8.42974,42.92996],[-8.42986,42.93045],[-8.43094,42.93115],[-8.43071,42.93138],[-8.43037,42.93151],[-8.42925,42.93157],[-8.42748,42.93123],[-8.42576,42.93165],[-8.42459,42.93148],[-8.4231,42.93157],[-8.41851,42.93216],[-8.41731,42.93256],[-8.41772,42.93198],[-8.41914,42.93072],[-8.41926,42.92993],[-8.41968,42.92933],[-8.41993,42.92817],[-8.41826,42.92766],[-8.41807,42.92662],[-8.41638,42.92553],[-8.4163,42.92493],[-8.41637,42.92448],[-8.41694,42.92343],[-8.41497,42.92288],[-8.4141,42.92109],[-8.41314,42.91773],[-8.41353,42.91553],[-8.41447,42.91209],[-8.41469,42.90867]]]}}]}