{"type":"FeatureCollection","features":[{"type":"Feature","properties":{"id":"1590201001"},"geometry":{"type":"Polygon","coordinates":[[[-8.18652,43.21083],[-8.18694,43.21039],[-8.18808,43.21011],[-8.19423,43.2082],[-8.19448,43.20798],[-8.19498,43.20798],[-8.20012,43.20634],[-8.2012,43.20706],[-8.20182,43.20798],[-8.20187,43.20851],[-8.2013,43.20889],[-8.19878,43.20961],[-8.19818,43.20986],[-8.19752,43.21027],[-8.19723,43.21077],[-8.19725,43.21117],[-8.19783,43.21157],[-8.19927,43.21213],[-8.20052,43.21274],[-8.20091,43.21306],[-8.20188,43.21358],[-8.20246,43.2143],[-8.20339,43.21478],[-8.20372,43.21754],[-8.20447,43.21766],[-8.2045,43.21803],[-8.20558,43.21883],[-8.20591,43.2194],[-8.20579,43.21955],[-8.20577,43.22033],[-8.20592,43.22063],[-8.20626,43.22087],[-8.20553,43.22103],[-8.20284,43.22116],[-8.20027,43.22097],[-8.19823,43.22304],[-8.19732,43.22353],[-8.19738,43.22459],[-8.1969,43.22531],[-8.19619,43.22582],[-8.19437,43.22675],[-8.19358,43.22732],[-8.19286,43.22826],[-8.19254,43.22889],[-8.1924,43.2295],[-8.19244,43.23047],[-8.19408,43.23231],[-8.19479,43.23375],[-8.19501,43.23427],[-8.19437,43.23485],[-8.19415,43.23501],[-8.19203,43.2357],[-8.18966,43.23618],[-8.18863,43.23657],[-8.1876,43.23681],[-8.18529,43.23712],[-8.18258,43.238],[-8.18169,43.23842],[-8.18085,43.23899],[-8.18088,43.2395],[-8.18072,43.24053],[-8.18052,43.24037],[-8.17857,43.24016],[-8.17834,43.23999],[-8.17817,43.23814],[-8.17799,43.238],[-8.17655,43.23803],[-8.17581,43.2377],[-8.17506,43.23757],[-8.17473,43.23742],[-8.17455,43.23726],[-8.17462,43.23602],[-8.17447,43.23573],[-8.17306,43.23459],[-8.1727,43.23447],[-8.17238,43.23453],[-8.17159,43.23497],[-8.17022,43.23524],[-8.16969,43.23519],[-8.16892,43.2336],[-8.16902,43.23276],[-8.16942,43.23217],[-8.1704,43.23136],[-8.1708,43.23081],[-8.17088,43.23054],[-8.17086,43.23034],[-8.16982,43.22895],[-8.16948,43.22885],[-8.16873,43.22889],[-8.16547,43.22943],[-8.16515,43.22932],[-8.1642,43.22948],[-8.16317,43.22932],[-8.16273,43.22936],[-8.16245,43.22957],[-8.16183,43.23131],[-8.16173,43.23148],[-8.16148,43.23151],[-8.16053,43.23107],[-8.15954,43.23127],[-8.15926,43.23113],[-8.15827,43.23018],[-8.15771,43.22997],[-8.15761,43.22984],[-8.15781,43.22926],[-8.1574,43.22885],[-8.15727,43.22849],[-8.15734,43.22808],[-8.1595,43.22759],[-8.16074,43.22718],[-8.16241,43.22596],[-8.16277,43.22514],[-8.1628,43.22386],[-8.16331,43.22325],[-8.16397,43.2218],[-8.16444,43.22148],[-8.16564,43.2212],[-8.16675,43.22148],[-8.16762,43.22214],[-8.16811,43.22232],[-8.16855,43.22236],[-8.16961,43.22192],[-8.17122,43.22143],[-8.17238,43.22053],[-8.17323,43.22023],[-8.17598,43.21771],[-8.17732,43.21672],[-8.17808,43.21669],[-8.17902,43.21686],[-8.17944,43.21659],[-8.17952,43.21629],[-8.17977,43.21618],[-8.17995,43.21638],[-8.18014,43.21633],[-8.18034,43.21649],[-8.18083,43.21631],[-8.18112,43.21595],[-8.18157,43.21609],[-8.18227,43.2157],[-8.18256,43.21527],[-8.18283,43.21509],[-8.18359,43.21498],[-8.18438,43.21435],[-8.18463,43.21455],[-8.18486,43.2145],[-8.18518,43.21392],[-8.1863,43.21338],[-8.18676,43.21274],[-8.18637,43.2118],[-8.18652,43.21083]]]}},{"type":"Feature","properties":{"id":"1590201002"},"geometry":{"type":"Polygon","coordinates":[[[-8.20012,43.20634],[-8.20206,43.20574],[-8.20264,43.20551],[-8.20307,43.20521],[-8.20906,43.19775],[-8.20941,43.19765],[-8.20966,43.19772],[-8.21003,43.19752],[-8.21028,43.19675],[-8.21048,43.19658],[-8.21038,43.1962],[-8.21045,43.19603],[-8.21759,43.18714],[-8.22289,43.18744],[-8.22377,43.1887],[-8.22352,43.18952],[-8.22345,43.19039],[-8.22381,43.19218],[-8.22415,43.19317],[-8.22415,43.19441],[-8.22449,43.19507],[-8.22487,43.19703],[-8.22516,43.19786],[-8.22519,43.19898],[-8.22553,43.19976],[-8.22506,43.19997],[-8.22289,43.20296],[-8.22323,43.20317],[-8.22466,43.20475],[-8.22653,43.20823],[-8.2265,43.20927],[-8.22698,43.21021],[-8.22703,43.21069],[-8.22636,43.21257],[-8.22641,43.21422],[-8.22625,43.21512],[-8.22596,43.21582],[-8.22602,43.21624],[-8.22667,43.21724],[-8.22707,43.21758],[-8.22747,43.21776],[-8.22826,43.21755],[-8.22906,43.21779],[-8.22946,43.21764],[-8.22968,43.21745],[-8.22997,43.21692],[-8.23055,43.21624],[-8.23094,43.21613],[-8.23138,43.21616],[-8.23192,43.21662],[-8.23393,43.21645],[-8.23424,43.2158],[-8.23461,43.21564],[-8.2363,43.21573],[-8.23683,43.21591],[-8.23723,43.21619],[-8.23742,43.21654],[-8.23741,43.21708],[-8.23755,43.21733],[-8.23755,43.21768],[-8.23679,43.2185],[-8.2369,43.21864],[-8.23726,43.21873],[-8.23731,43.21901],[-8.23713,43.21924],[-8.23679,43.21942],[-8.23668,43.2197],[-8.23708,43.22025],[-8.23429,43.22168],[-8.23379,43.22222],[-8.23383,43.22239],[-8.23501,43.22305],[-8.23537,43.2227],[-8.237,43.22312],[-8.23727,43.22409],[-8.23751,43.22435],[-8.23873,43.22464],[-8.2394,43.22498],[-8.24008,43.22579],[-8.24025,43.22625],[-8.23977,43.22803],[-8.2387,43.22999],[-8.23825,43.23042],[-8.23825,43.23065],[-8.23869,43.23093],[-8.23823,43.23163],[-8.23853,43.23241],[-8.2383,43.23267],[-8.23627,43.2332],[-8.23509,43.2337],[-8.23525,43.23429],[-8.23617,43.23518],[-8.23737,43.23574],[-8.23819,43.23661],[-8.23866,43.23669],[-8.23917,43.23661],[-8.23966,43.23668],[-8.24008,43.23689],[-8.24056,43.2377],[-8.24129,43.238],[-8.24157,43.23825],[-8.24146,43.23854],[-8.24017,43.23894],[-8.2391,43.23975],[-8.23697,43.24116],[-8.23546,43.24194],[-8.23522,43.24228],[-8.23507,43.24285],[-8.23499,43.24379],[-8.22759,43.24922],[-8.22402,43.24896],[-8.22169,43.24854],[-8.21705,43.24734],[-8.21419,43.2468],[-8.21223,43.24628],[-8.21082,43.24606],[-8.21096,43.24776],[-8.20802,43.25205],[-8.20827,43.25321],[-8.20864,43.25392],[-8.20901,43.25436],[-8.20978,43.25491],[-8.21049,43.25511],[-8.21107,43.25554],[-8.21147,43.25757],[-8.21227,43.25819],[-8.21239,43.25851],[-8.21297,43.25905],[-8.21432,43.26096],[-8.21427,43.26119],[-8.21356,43.26149],[-8.21329,43.26178],[-8.21299,43.26239],[-8.21236,43.26465],[-8.21236,43.26507],[-8.21131,43.26604],[-8.21076,43.26619],[-8.21026,43.26653],[-8.21015,43.26676],[-8.21017,43.26733],[-8.20969,43.26798],[-8.20913,43.26837],[-8.20747,43.26761],[-8.20595,43.26488],[-8.20475,43.26348],[-8.20122,43.26155],[-8.19593,43.26296],[-8.19302,43.263],[-8.18808,43.26396],[-8.18696,43.26426],[-8.18636,43.26268],[-8.18637,43.26177],[-8.18613,43.26107],[-8.1857,43.26032],[-8.18588,43.26013],[-8.18556,43.25978],[-8.1853,43.25834],[-8.18485,43.25718],[-8.1848,43.25672],[-8.18444,43.25612],[-8.1838,43.25577],[-8.18325,43.25493],[-8.18321,43.25437],[-8.18409,43.25253],[-8.18412,43.25099],[-8.18512,43.25002],[-8.18511,43.24966],[-8.18445,43.24924],[-8.18438,43.249],[-8.18479,43.24856],[-8.18578,43.24781],[-8.18591,43.24745],[-8.18563,43.24686],[-8.18505,43.24659],[-8.18507,43.24613],[-8.18532,43.24572],[-8.18536,43.24522],[-8.18503,43.2451],[-8.18444,43.24513],[-8.18391,43.24505],[-8.18361,43.24484],[-8.18303,43.24416],[-8.18266,43.24397],[-8.18195,43.24379],[-8.18176,43.24363],[-8.18165,43.24336],[-8.18174,43.2429],[-8.18155,43.24242],[-8.18084,43.24144],[-8.18072,43.24053],[-8.18088,43.2395],[-8.18085,43.23899],[-8.18169,43.23842],[-8.18381,43.23754],[-8.18529,43.23712],[-8.1876,43.23681],[-8.18863,43.23657],[-8.18966,43.23618],[-8.19203,43.2357],[-8.19415,43.23501],[-8.19501,43.23427],[-8.19408,43.23231],[-8.19244,43.23047],[-8.1924,43.2295],[-8.19254,43.22889],[-8.19286,43.22826],[-8.19358,43.22732],[-8.19437,43.22675],[-8.19619,43.22582],[-8.1969,43.22531],[-8.19738,43.22459],[-8.19732,43.22353],[-8.19823,43.22304],[-8.20027,43.22097],[-8.20284,43.22116],[-8.20553,43.22103],[-8.20626,43.22087],[-8.20592,43.22063],[-8.20577,43.22033],[-8.20579,43.21955],[-8.20591,43.2194],[-8.20558,43.21883],[-8.2045,43.21803],[-8.20447,43.21766],[-8.20372,43.21754],[-8.20339,43.21478],[-8.20246,43.2143],[-8.20188,43.21358],[-8.20091,43.21306],[-8.20052,43.21274],[-8.19927,43.21213],[-8.19783,43.21157],[-8.19725,43.21117],[-8.19723,43.21077],[-8.19752,43.21027],[-8.19818,43.20986],[-8.19878,43.20961],[-8.2013,43.20889],[-8.20187,43.20851],[-8.20182,43.20798],[-8.2012,43.20706],[-8.20012,43.20634]]]}},{"type":"Feature","properties":{"id":"1590202001"},"geometry":{"type":"Polygon","coordinates":[[[-8.11609,43.21285],[-8.11483,43.21048],[-8.11313,43.20824],[-8.11215,43.20668],[-8.1109,43.20629],[-8.11047,43.206],[-8.10986,43.20438],[-8.10912,43.20387],[-8.1088,43.2035],[-8.10854,43.20207],[-8.1088,43.2011],[-8.10881,43.20017],[-8.10911,43.19931],[-8.10909,43.19894],[-8.10686,43.19759],[-8.10428,43.19416],[-8.10343,43.19268],[-8.10286,43.1914],[-8.09822,43.18837],[-8.09778,43.18697],[-8.09732,43.18608],[-8.09615,43.18435],[-8.09544,43.18231],[-8.09461,43.18058],[-8.09424,43.18018],[-8.09343,43.18018],[-8.09071,43.18044],[-8.0898,43.18045],[-8.08933,43.18036],[-8.08875,43.18008],[-8.08848,43.17982],[-8.08794,43.17889],[-8.08756,43.17853],[-8.08712,43.17823],[-8.08669,43.17814],[-8.07703,43.1789],[-8.07202,43.17828],[-8.07147,43.1788],[-8.07128,43.18002],[-8.07083,43.18103],[-8.06989,43.18246],[-8.06942,43.184],[-8.06912,43.18432],[-8.06857,43.18438],[-8.06754,43.18397],[-8.06702,43.18403],[-8.06641,43.18463],[-8.06588,43.18479],[-8.06495,43.18483],[-8.06395,43.18211],[-8.06355,43.18003],[-8.0587,43.17895],[-8.05797,43.17825],[-8.05737,43.17792],[-8.05693,43.17786],[-8.05634,43.17796],[-8.05559,43.17824],[-8.05428,43.17798],[-8.05358,43.17761],[-8.05285,43.1768],[-8.05183,43.17594],[-8.05387,43.17353],[-8.06401,43.17312],[-8.06814,43.16671],[-8.07179,43.1614],[-8.07071,43.15965],[-8.07073,43.15924],[-8.07097,43.15884],[-8.0714,43.15849],[-8.0725,43.15835],[-8.07439,43.15828],[-8.07481,43.15813],[-8.07509,43.15779],[-8.07533,43.15688],[-8.07533,43.1563],[-8.07676,43.15515],[-8.07849,43.15474],[-8.07988,43.15495],[-8.08042,43.15478],[-8.08098,43.15428],[-8.08187,43.15293],[-8.08216,43.1526],[-8.08237,43.1525],[-8.08277,43.15266],[-8.08303,43.15291],[-8.0831,43.15373],[-8.08361,43.15435],[-8.08428,43.15455],[-8.08535,43.15457],[-8.08563,43.15473],[-8.0858,43.15503],[-8.08585,43.15541],[-8.0861,43.1558],[-8.08644,43.15608],[-8.08731,43.15653],[-8.08869,43.15708],[-8.08889,43.15735],[-8.08897,43.15774],[-8.08916,43.15793],[-8.09017,43.15841],[-8.09059,43.15889],[-8.09085,43.15895],[-8.09094,43.15878],[-8.09121,43.15863],[-8.09157,43.1587],[-8.09203,43.15902],[-8.09265,43.15912],[-8.09409,43.15961],[-8.09472,43.15928],[-8.09555,43.15905],[-8.09613,43.15901],[-8.09655,43.15916],[-8.09667,43.15965],[-8.09695,43.15991],[-8.09859,43.16046],[-8.09894,43.16049],[-8.09923,43.16038],[-8.10026,43.16048],[-8.10062,43.16032],[-8.10136,43.16024],[-8.10205,43.16035],[-8.10234,43.16046],[-8.10256,43.16097],[-8.10292,43.16136],[-8.10442,43.16267],[-8.10572,43.16308],[-8.10632,43.16315],[-8.10671,43.16344],[-8.10747,43.16352],[-8.10834,43.16392],[-8.1089,43.16392],[-8.10939,43.16363],[-8.1106,43.16214],[-8.11156,43.16146],[-8.11183,43.16099],[-8.11246,43.16061],[-8.11723,43.15892],[-8.11789,43.15849],[-8.11923,43.15714],[-8.11976,43.15697],[-8.12072,43.15684],[-8.12269,43.15558],[-8.12366,43.1551],[-8.12463,43.15477],[-8.12546,43.15471],[-8.1269,43.15505],[-8.12897,43.15528],[-8.13086,43.15508],[-8.13131,43.15518],[-8.1368,43.16387],[-8.13735,43.16528],[-8.13855,43.16754],[-8.14014,43.16873],[-8.14056,43.16917],[-8.14071,43.16971],[-8.14086,43.1718],[-8.14099,43.17226],[-8.1419,43.17271],[-8.14221,43.17278],[-8.14302,43.17275],[-8.14536,43.17876],[-8.14714,43.17945],[-8.1477,43.18034],[-8.14796,43.18046],[-8.14878,43.18054],[-8.15017,43.18089],[-8.15107,43.18139],[-8.15136,43.18132],[-8.15979,43.18269],[-8.1664,43.18096],[-8.17508,43.17842],[-8.1758,43.17783],[-8.17661,43.17824],[-8.17845,43.1789],[-8.18041,43.17906],[-8.18164,43.17931],[-8.18234,43.17958],[-8.18305,43.17965],[-8.18379,43.1796],[-8.18443,43.17939],[-8.1821,43.18133],[-8.1823,43.18244],[-8.18378,43.18273],[-8.18616,43.18763],[-8.18575,43.19812],[-8.18709,43.20605],[-8.18631,43.20696],[-8.18606,43.20751],[-8.18598,43.20828],[-8.18652,43.21083],[-8.18637,43.2118],[-8.18676,43.21274],[-8.1863,43.21338],[-8.18518,43.21392],[-8.18486,43.2145],[-8.18463,43.21455],[-8.18438,43.21435],[-8.18359,43.21498],[-8.18283,43.21509],[-8.18256,43.21527],[-8.18227,43.2157],[-8.18157,43.21609],[-8.18112,43.21595],[-8.18083,43.21631],[-8.18034,43.21649],[-8.18014,43.21633],[-8.17995,43.21638],[-8.17977,43.21618],[-8.17952,43.21629],[-8.17944,43.21659],[-8.17902,43.21686],[-8.17808,43.21669],[-8.17732,43.21672],[-8.17598,43.21771],[-8.17323,43.22023],[-8.17238,43.22053],[-8.17122,43.22143],[-8.16961,43.22192],[-8.16855,43.22236],[-8.16811,43.22232],[-8.16762,43.22214],[-8.16675,43.22148],[-8.16564,43.2212],[-8.16444,43.22148],[-8.16404,43.22169],[-8.16331,43.22325],[-8.1628,43.22386],[-8.16277,43.22514],[-8.16241,43.22596],[-8.16074,43.22718],[-8.1595,43.22759],[-8.15734,43.22808],[-8.15742,43.22755],[-8.15689,43.22656],[-8.15628,43.22606],[-8.15534,43.22561],[-8.15345,43.22535],[-8.15331,43.22525],[-8.1533,43.2247],[-8.15236,43.22349],[-8.14776,43.22666],[-8.11609,43.21285]]]}},{"type":"Feature","properties":{"id":"1590203001"},"geometry":{"type":"Polygon","coordinates":[[[-8.23733,43.20174],[-8.23144,43.19861],[-8.22553,43.19976],[-8.22519,43.19898],[-8.22516,43.19786],[-8.22487,43.19703],[-8.22449,43.19507],[-8.22415,43.19441],[-8.22415,43.19317],[-8.22381,43.19218],[-8.22345,43.19039],[-8.22352,43.18952],[-8.22377,43.1887],[-8.22289,43.18744],[-8.21759,43.18714],[-8.21045,43.19603],[-8.21038,43.1962],[-8.21048,43.19658],[-8.21028,43.19675],[-8.21003,43.19752],[-8.20966,43.19772],[-8.20941,43.19765],[-8.20906,43.19775],[-8.20307,43.20521],[-8.20264,43.20551],[-8.20206,43.20574],[-8.19498,43.20798],[-8.19448,43.20798],[-8.19423,43.2082],[-8.18808,43.21011],[-8.18694,43.21039],[-8.18652,43.21083],[-8.18644,43.2102],[-8.18611,43.2092],[-8.18598,43.20807],[-8.18606,43.20751],[-8.18631,43.20696],[-8.18709,43.20605],[-8.18575,43.19812],[-8.18616,43.18763],[-8.18378,43.18273],[-8.1823,43.18244],[-8.1821,43.18133],[-8.18443,43.17939],[-8.18379,43.1796],[-8.18305,43.17965],[-8.18234,43.17958],[-8.18164,43.17931],[-8.18041,43.17906],[-8.17845,43.1789],[-8.17661,43.17824],[-8.1758,43.17783],[-8.17508,43.17842],[-8.1664,43.18096],[-8.15979,43.18269],[-8.15136,43.18132],[-8.15107,43.18139],[-8.15017,43.18089],[-8.14878,43.18054],[-8.14796,43.18046],[-8.1477,43.18034],[-8.14714,43.17945],[-8.14536,43.17876],[-8.14302,43.17275],[-8.14221,43.17278],[-8.1419,43.17271],[-8.14099,43.17226],[-8.14086,43.1718],[-8.14071,43.16971],[-8.14056,43.16917],[-8.14014,43.16873],[-8.13855,43.16754],[-8.13735,43.16528],[-8.1368,43.16387],[-8.13131,43.15518],[-8.1377,43.15128],[-8.1404,43.14629],[-8.14985,43.13702],[-8.15292,43.13441],[-8.15605,43.13064],[-8.16023,43.11937],[-8.17613,43.13655],[-8.19385,43.1309],[-8.20081,43.13145],[-8.20757,43.12548],[-8.2285,43.13899],[-8.22954,43.14008],[-8.23077,43.14095],[-8.23185,43.1415],[-8.23453,43.14195],[-8.23576,43.14198],[-8.23805,43.14253],[-8.24196,43.14256],[-8.24295,43.14248],[-8.24338,43.14251],[-8.24384,43.14272],[-8.24537,43.14286],[-8.24612,43.14257],[-8.24668,43.14261],[-8.24737,43.14234],[-8.24863,43.14236],[-8.24887,43.14182],[-8.24882,43.14142],[-8.24826,43.1406],[-8.24832,43.13995],[-8.24877,43.13935],[-8.25014,43.1369],[-8.25099,43.1359],[-8.25147,43.13512],[-8.25275,43.13377],[-8.25373,43.13295],[-8.25411,43.1324],[-8.25423,43.13156],[-8.25416,43.13127],[-8.28052,43.12583],[-8.28862,43.1321],[-8.2872,43.14755],[-8.30178,43.15522],[-8.29727,43.15891],[-8.2885,43.16567],[-8.28773,43.16745],[-8.28648,43.16981],[-8.27801,43.17996],[-8.27697,43.18087],[-8.27032,43.18579],[-8.26939,43.18627],[-8.26527,43.18689],[-8.25888,43.18758],[-8.25858,43.18935],[-8.26001,43.19481],[-8.26341,43.20156],[-8.26336,43.20203],[-8.2561,43.20651],[-8.25083,43.20805],[-8.24869,43.20877],[-8.23733,43.20174]]]}}]}