{"type":"FeatureCollection","features":[{"type":"Feature","properties":{"id":"1704801001"},"geometry":{"type":"Polygon","coordinates":[[[3.04089,41.84724],[3.04277,41.84622],[3.0438,41.84629],[3.04543,41.84672],[3.04599,41.84705],[3.04678,41.84779],[3.05772,41.84441],[3.05755,41.84218],[3.05932,41.84195],[3.06231,41.84328],[3.06244,41.8408],[3.0623,41.84079],[3.0625,41.83967],[3.06292,41.83899],[3.06314,41.83886],[3.06309,41.8386],[3.0636,41.83835],[3.06414,41.83771],[3.06436,41.83767],[3.06472,41.83668],[3.06578,41.83589],[3.06634,41.83566],[3.06695,41.83558],[3.07087,41.83406],[3.06966,41.83058],[3.06551,41.82875],[3.0551,41.82808],[3.05327,41.82903],[3.05239,41.82905],[3.05188,41.82937],[3.05183,41.82974],[3.05161,41.82978],[3.05125,41.82966],[3.05119,41.82948],[3.05097,41.82933],[3.05059,41.82934],[3.05043,41.82924],[3.05045,41.82841],[3.04897,41.82795],[3.04734,41.82814],[3.04715,41.82794],[3.04646,41.8265],[3.04507,41.82514],[3.0469,41.8237],[3.04838,41.82381],[3.04887,41.82414],[3.05035,41.82429],[3.05129,41.82462],[3.05163,41.82384],[3.05262,41.82255],[3.05539,41.8213],[3.05275,41.81924],[3.04388,41.81598],[3.04275,41.81526],[3.04263,41.81512],[3.04259,41.81457],[3.0427,41.81444],[3.0425,41.81373],[3.04245,41.81273],[3.04254,41.81229],[3.04023,41.8105],[3.03881,41.8099],[3.03721,41.80948],[3.03693,41.80636],[3.03677,41.80603],[3.02701,41.80532],[3.02682,41.80596],[3.02574,41.80655],[3.02486,41.80651],[3.02412,41.80698],[3.02294,41.80726],[3.0222,41.80851],[3.0221,41.80929],[3.02259,41.81083],[3.02259,41.81139],[3.02238,41.81181],[3.02141,41.81279],[3.02083,41.81356],[3.01881,41.81579],[3.01869,41.81627],[3.0188,41.81689],[3.01959,41.81872],[3.01941,41.81902],[3.01943,41.81929],[3.01912,41.81978],[3.01904,41.82048],[3.01848,41.82121],[3.01889,41.82241],[3.01868,41.82285],[3.01881,41.82386],[3.01793,41.82497],[3.01766,41.82581],[3.01713,41.82692],[3.01669,41.82727],[3.01651,41.82764],[3.01639,41.82827],[3.01664,41.82904],[3.01625,41.82985],[3.01619,41.83142],[3.01529,41.83153],[3.01487,41.83168],[3.0144,41.83218],[3.01458,41.83251],[3.01488,41.83274],[3.01529,41.83286],[3.01584,41.83285],[3.01649,41.83296],[3.01798,41.83336],[3.01959,41.83392],[3.02096,41.83477],[3.0216,41.83548],[3.02372,41.8351],[3.02806,41.83454],[3.02807,41.83602],[3.02903,41.83727],[3.02944,41.83835],[3.02995,41.83884],[3.03004,41.83908],[3.03001,41.84068],[3.03017,41.84091],[3.03106,41.84148],[3.0311,41.84172],[3.03058,41.8429],[3.03088,41.84348],[3.03128,41.84482],[3.03163,41.84546],[3.03172,41.84644],[3.03231,41.84689],[3.0331,41.84709],[3.03339,41.84727],[3.03341,41.84774],[3.03384,41.84781],[3.03364,41.84834],[3.03343,41.84839],[3.03354,41.84873],[3.03523,41.84969],[3.03612,41.85036],[3.03679,41.85054],[3.03736,41.84995],[3.03921,41.84855],[3.04027,41.84749],[3.04089,41.84724]]]}},{"type":"Feature","properties":{"id":"1704801002"},"geometry":{"type":"Polygon","coordinates":[[[3.05183,41.80071],[3.05199,41.8009],[3.0529,41.80137],[3.05322,41.80206],[3.0533,41.80348],[3.05365,41.80396],[3.06569,41.81603],[3.06693,41.81783],[3.06992,41.81669],[3.06883,41.81454],[3.06779,41.81212],[3.06525,41.80492],[3.06503,41.80384],[3.06469,41.80288],[3.06471,41.8025],[3.06487,41.80216],[3.06504,41.80198],[3.06562,41.80179],[3.06606,41.8015],[3.06635,41.80114],[3.06645,41.80079],[3.06621,41.80081],[3.06635,41.80095],[3.06626,41.80114],[3.06612,41.80134],[3.06594,41.80125],[3.06606,41.8014],[3.06572,41.80166],[3.06535,41.80182],[3.06514,41.80155],[3.06531,41.80184],[3.06519,41.80188],[3.06485,41.80194],[3.06479,41.80159],[3.06482,41.80194],[3.06431,41.80194],[3.06434,41.80151],[3.06428,41.80193],[3.06399,41.80191],[3.06407,41.8014],[3.0636,41.80126],[3.06326,41.80135],[3.0628,41.80172],[3.06212,41.80239],[3.06217,41.80293],[3.06202,41.80307],[3.06221,41.80388],[3.06267,41.80447],[3.06228,41.80455],[3.06161,41.80387],[3.06116,41.80402],[3.06149,41.80459],[3.06118,41.80474],[3.06106,41.8047],[3.06083,41.80415],[3.0607,41.80411],[3.05962,41.80417],[3.05939,41.80401],[3.05873,41.80403],[3.05859,41.80409],[3.05861,41.80417],[3.0583,41.80425],[3.05824,41.80418],[3.05645,41.80501],[3.05646,41.80511],[3.05612,41.80519],[3.05609,41.80512],[3.05543,41.80518],[3.0553,41.80504],[3.05544,41.80488],[3.0557,41.80496],[3.05559,41.80486],[3.05578,41.80474],[3.05577,41.80437],[3.05612,41.80435],[3.05617,41.80472],[3.05616,41.80456],[3.05663,41.80451],[3.05696,41.80424],[3.05754,41.80407],[3.05755,41.80399],[3.05853,41.80351],[3.05948,41.80352],[3.0597,41.80369],[3.05979,41.8036],[3.06005,41.80359],[3.06006,41.80367],[3.06085,41.80364],[3.06114,41.80332],[3.06122,41.80339],[3.06137,41.80332],[3.06125,41.80316],[3.06166,41.80281],[3.06152,41.80259],[3.06155,41.80236],[3.06272,41.80124],[3.06284,41.80084],[3.06301,41.80087],[3.06293,41.80076],[3.06305,41.80075],[3.06285,41.80067],[3.06306,41.80068],[3.06313,41.80054],[3.06426,41.80084],[3.06421,41.80094],[3.06474,41.80108],[3.06514,41.80103],[3.06529,41.80117],[3.06511,41.8007],[3.06478,41.8005],[3.06474,41.80035],[3.06479,41.79999],[3.06507,41.79998],[3.0646,41.79977],[3.06446,41.79958],[3.06407,41.79959],[3.06422,41.7995],[3.0641,41.79939],[3.06429,41.79948],[3.0643,41.79942],[3.06409,41.79916],[3.06366,41.79905],[3.06237,41.79986],[3.06115,41.80012],[3.06113,41.79988],[3.06076,41.79948],[3.06024,41.79928],[3.05758,41.79967],[3.05395,41.80005],[3.0529,41.80025],[3.05183,41.80071]]]}},{"type":"Feature","properties":{"id":"1704801003"},"geometry":{"type":"Polygon","coordinates":[[[3.06671,41.81791],[3.0471,41.81527],[3.04262,41.81473],[3.04263,41.81512],[3.04275,41.81526],[3.04388,41.81598],[3.05275,41.81924],[3.05433,41.82041],[3.05814,41.82358],[3.05914,41.82553],[3.05952,41.82588],[3.06046,41.82617],[3.06316,41.82626],[3.06439,41.82613],[3.06573,41.82624],[3.06665,41.82612],[3.06711,41.82595],[3.06961,41.8244],[3.07098,41.82384],[3.07167,41.82326],[3.06784,41.81917],[3.06712,41.81813],[3.06671,41.81791]]]}},{"type":"Feature","properties":{"id":"1704801004"},"geometry":{"type":"Polygon","coordinates":[[[3.08082,41.82523],[3.08035,41.82505],[3.08036,41.82491],[3.08054,41.82488],[3.08054,41.82447],[3.08029,41.82441],[3.0802,41.82413],[3.08,41.82413],[3.07988,41.8243],[3.07942,41.82432],[3.07917,41.82424],[3.07862,41.82395],[3.07849,41.82358],[3.07814,41.82329],[3.07799,41.82333],[3.07777,41.8236],[3.07706,41.8235],[3.07655,41.82324],[3.07664,41.82308],[3.0764,41.82302],[3.0763,41.82285],[3.07543,41.82277],[3.07531,41.82268],[3.07529,41.82242],[3.07436,41.82202],[3.07394,41.82166],[3.07343,41.82049],[3.07307,41.82048],[3.07266,41.82017],[3.07276,41.81995],[3.07249,41.82008],[3.07203,41.81966],[3.07078,41.81805],[3.06992,41.81669],[3.06671,41.81791],[3.06712,41.81813],[3.06784,41.81917],[3.07167,41.82326],[3.07098,41.82384],[3.06961,41.8244],[3.06691,41.82603],[3.06573,41.82624],[3.06439,41.82613],[3.06316,41.82626],[3.06173,41.82626],[3.06046,41.82617],[3.05952,41.82588],[3.05914,41.82553],[3.05814,41.82358],[3.05539,41.8213],[3.05262,41.82255],[3.05163,41.82384],[3.05129,41.82462],[3.05035,41.82429],[3.04887,41.82414],[3.04838,41.82381],[3.0469,41.8237],[3.04507,41.82514],[3.04646,41.8265],[3.04715,41.82794],[3.04734,41.82814],[3.04897,41.82795],[3.05045,41.82841],[3.05043,41.82924],[3.05059,41.82934],[3.05097,41.82933],[3.0514,41.82974],[3.05183,41.82974],[3.05188,41.82937],[3.05239,41.82905],[3.05327,41.82903],[3.0551,41.82808],[3.06551,41.82875],[3.06966,41.83058],[3.07087,41.83406],[3.06695,41.83558],[3.06634,41.83566],[3.06578,41.83589],[3.06472,41.83668],[3.06436,41.83767],[3.06414,41.83771],[3.0636,41.83835],[3.06309,41.8386],[3.06314,41.83886],[3.06292,41.83899],[3.0625,41.83967],[3.0623,41.84079],[3.06244,41.8408],[3.06231,41.84328],[3.06277,41.84349],[3.06469,41.84258],[3.06566,41.84279],[3.06609,41.84261],[3.06657,41.8415],[3.06673,41.84081],[3.06649,41.84017],[3.06667,41.83861],[3.06731,41.83811],[3.06746,41.83767],[3.06766,41.83748],[3.06811,41.83744],[3.0685,41.83758],[3.06937,41.8365],[3.0716,41.83598],[3.07228,41.83642],[3.07286,41.83585],[3.0733,41.83591],[3.07366,41.83572],[3.07429,41.83563],[3.07462,41.83548],[3.07483,41.83573],[3.07517,41.83573],[3.07572,41.83459],[3.07588,41.83462],[3.07516,41.83171],[3.07548,41.83102],[3.07666,41.82974],[3.07696,41.82958],[3.07779,41.82858],[3.0782,41.82834],[3.07811,41.82798],[3.0787,41.82803],[3.07878,41.82725],[3.07926,41.82728],[3.07931,41.82696],[3.07975,41.82699],[3.08022,41.82577],[3.08046,41.82592],[3.08082,41.82523]]]}},{"type":"Feature","properties":{"id":"1704801005"},"geometry":{"type":"Polygon","coordinates":[[[3.05143,41.80086],[3.0529,41.80025],[3.05395,41.80005],[3.05758,41.79967],[3.06024,41.79928],[3.06076,41.79948],[3.06113,41.79988],[3.06115,41.80012],[3.06237,41.79986],[3.06355,41.79908],[3.06331,41.79898],[3.06324,41.79904],[3.06297,41.79884],[3.06286,41.79895],[3.06301,41.79911],[3.0628,41.79923],[3.0623,41.79914],[3.06202,41.79891],[3.06213,41.79895],[3.06218,41.79888],[3.06183,41.79877],[3.06176,41.79863],[3.06181,41.79846],[3.06222,41.79859],[3.06232,41.79836],[3.06209,41.79822],[3.06175,41.79817],[3.06155,41.79832],[3.06135,41.79827],[3.06114,41.79815],[3.06087,41.79778],[3.06072,41.79716],[3.06085,41.79662],[3.06158,41.79674],[3.06181,41.79667],[3.06169,41.7963],[3.06143,41.7963],[3.06139,41.79611],[3.06108,41.79602],[3.06123,41.796],[3.0611,41.79585],[3.06146,41.79586],[3.06158,41.79544],[3.06153,41.79513],[3.06036,41.79415],[3.05975,41.79397],[3.06004,41.79389],[3.06034,41.79395],[3.06047,41.7937],[3.0602,41.79337],[3.0596,41.79333],[3.05958,41.79327],[3.05999,41.79325],[3.06006,41.79318],[3.05978,41.79248],[3.05905,41.79214],[3.05911,41.79168],[3.05878,41.79148],[3.05855,41.79151],[3.0583,41.79138],[3.05784,41.79136],[3.05786,41.79118],[3.05889,41.79128],[3.05906,41.79122],[3.05897,41.7911],[3.05924,41.79096],[3.05926,41.79056],[3.05918,41.79052],[3.05928,41.79041],[3.05922,41.79036],[3.05902,41.79043],[3.05912,41.79052],[3.059,41.79061],[3.05863,41.79039],[3.05872,41.79033],[3.05842,41.79032],[3.05823,41.79036],[3.05817,41.79056],[3.05798,41.79059],[3.05772,41.79047],[3.05756,41.79022],[3.05769,41.79009],[3.05752,41.7901],[3.05755,41.78998],[3.05736,41.78997],[3.05726,41.78986],[3.0568,41.78985],[3.05673,41.78995],[3.05654,41.78983],[3.05675,41.78969],[3.05676,41.78953],[3.05623,41.7892],[3.05643,41.78922],[3.05647,41.78906],[3.05621,41.7889],[3.05565,41.78878],[3.05568,41.78869],[3.05557,41.78864],[3.05577,41.78856],[3.05636,41.78863],[3.05622,41.78844],[3.05654,41.78846],[3.05639,41.78811],[3.05659,41.78817],[3.0566,41.78804],[3.05609,41.78793],[3.0564,41.78793],[3.05647,41.78772],[3.05629,41.78756],[3.05595,41.78754],[3.05609,41.78768],[3.05578,41.78747],[3.05562,41.78746],[3.05568,41.78754],[3.05528,41.78732],[3.05482,41.78733],[3.0549,41.78739],[3.05467,41.78742],[3.05472,41.78754],[3.05454,41.78761],[3.05468,41.78774],[3.05431,41.78781],[3.05444,41.78806],[3.05423,41.78826],[3.05434,41.78851],[3.05423,41.78858],[3.05435,41.78864],[3.05399,41.7887],[3.05406,41.78914],[3.05389,41.78915],[3.05391,41.78895],[3.05381,41.78883],[3.05369,41.78885],[3.05366,41.78901],[3.05378,41.78908],[3.05363,41.78913],[3.0538,41.78923],[3.05393,41.7892],[3.05408,41.78933],[3.05407,41.78945],[3.05392,41.78951],[3.0541,41.78965],[3.05404,41.78974],[3.05423,41.79019],[3.05227,41.79344],[3.05157,41.79558],[3.04998,41.79711],[3.04921,41.79622],[3.04881,41.7959],[3.04853,41.79523],[3.04841,41.79398],[3.04822,41.79362],[3.04724,41.79268],[3.04715,41.79269],[3.04691,41.79345],[3.04611,41.79488],[3.04512,41.79573],[3.04433,41.79656],[3.04234,41.7978],[3.04068,41.79789],[3.03974,41.79735],[3.0371,41.80022],[3.03637,41.79991],[3.03717,41.80158],[3.04002,41.80276],[3.04052,41.80318],[3.04374,41.80659],[3.04695,41.80729],[3.0523,41.80475],[3.05234,41.80427],[3.05201,41.80341],[3.05143,41.80086]]]}},{"type":"Feature","properties":{"id":"1704801006"},"geometry":{"type":"Polygon","coordinates":[[[3.06693,41.81783],[3.06569,41.81603],[3.05365,41.80396],[3.0533,41.80348],[3.05322,41.80206],[3.0529,41.80137],[3.05199,41.8009],[3.05183,41.80071],[3.05143,41.80086],[3.05201,41.80341],[3.05234,41.80427],[3.0523,41.80475],[3.04695,41.80729],[3.04374,41.80659],[3.04052,41.80318],[3.04002,41.80276],[3.03717,41.80158],[3.03637,41.79991],[3.03209,41.79807],[3.03093,41.79857],[3.03003,41.79814],[3.02857,41.80014],[3.02701,41.80532],[3.03677,41.80603],[3.03693,41.80636],[3.03721,41.80948],[3.03881,41.8099],[3.04023,41.8105],[3.04254,41.81229],[3.04245,41.81273],[3.0425,41.81373],[3.0427,41.81444],[3.04259,41.81457],[3.04262,41.81473],[3.06643,41.81787],[3.06671,41.81791],[3.06693,41.81783]]]}}]}