{"type":"FeatureCollection","features":[{"type":"Feature","properties":{"id":"1716301001"},"geometry":{"type":"Polygon","coordinates":[[[2.76732,41.99042],[2.75878,41.99058],[2.75886,41.99031],[2.75853,41.98951],[2.75315,41.99016],[2.75011,41.99024],[2.74942,41.99044],[2.75139,41.99281],[2.75083,41.99327],[2.75129,41.99376],[2.75561,41.9924],[2.75649,41.99163],[2.75683,41.99145],[2.75708,41.99138],[2.75711,41.99153],[2.75801,41.99129],[2.75812,41.99103],[2.75839,41.99102],[2.75829,41.99154],[2.75905,41.99145],[2.75935,41.992],[2.75961,41.99214],[2.75989,41.99271],[2.76395,41.99512],[2.76551,41.99405],[2.76732,41.99061],[2.76732,41.99042]]]}},{"type":"Feature","properties":{"id":"1716301002"},"geometry":{"type":"Polygon","coordinates":[[[2.78381,42.04184],[2.78438,42.04132],[2.78465,42.04087],[2.78524,42.04045],[2.78595,42.04011],[2.78726,42.03759],[2.78693,42.03692],[2.7869,42.03664],[2.78708,42.03576],[2.78701,42.03487],[2.79049,42.03505],[2.79617,42.03169],[2.79701,42.03155],[2.79737,42.03201],[2.79972,42.03168],[2.80227,42.02552],[2.80158,42.02502],[2.80229,42.02448],[2.80277,42.02387],[2.80306,42.02305],[2.80431,42.02316],[2.80476,42.02263],[2.80447,42.02137],[2.80342,42.01924],[2.80337,42.01817],[2.79987,42.01335],[2.8004,42.01071],[2.80552,42.00286],[2.80427,42.00104],[2.80387,42.00097],[2.80296,42.00019],[2.80167,41.99871],[2.801,41.99817],[2.79809,41.99637],[2.79638,41.99514],[2.79019,41.99119],[2.78636,41.98826],[2.78478,41.98674],[2.78262,41.98408],[2.77671,41.98339],[2.77491,41.98248],[2.77281,41.98226],[2.77132,41.9818],[2.76975,41.98167],[2.76902,41.9813],[2.76636,41.97912],[2.76574,41.97734],[2.76477,41.97635],[2.76325,41.97505],[2.76299,41.97453],[2.7621,41.97384],[2.76089,41.97324],[2.75754,41.97229],[2.75372,41.97069],[2.75205,41.97021],[2.75084,41.96896],[2.75036,41.96882],[2.74993,41.96889],[2.74705,41.96989],[2.74456,41.97023],[2.74298,41.97005],[2.73922,41.97001],[2.73658,41.97054],[2.73519,41.97093],[2.73329,41.97067],[2.73179,41.97061],[2.73053,41.96996],[2.72991,41.9698],[2.72564,41.96967],[2.72449,41.96936],[2.72399,41.96957],[2.72194,41.97111],[2.71914,41.97389],[2.71807,41.97551],[2.71629,41.97902],[2.71563,41.97983],[2.71468,41.98051],[2.71193,41.98176],[2.71052,41.98219],[2.70967,41.98229],[2.70835,41.98204],[2.70674,41.98217],[2.70271,41.98102],[2.70253,41.98053],[2.70137,41.98006],[2.69809,41.97959],[2.69767,41.97922],[2.69743,41.97851],[2.69417,41.97596],[2.69357,41.9756],[2.68889,41.97698],[2.6883,41.97726],[2.68604,41.97703],[2.68539,41.9765],[2.68268,41.97539],[2.68169,41.9748],[2.67921,41.97428],[2.67871,41.97471],[2.67654,41.97419],[2.67457,41.97357],[2.67344,41.97401],[2.67285,41.97396],[2.6691,41.97524],[2.66945,41.97763],[2.66918,41.97892],[2.66892,41.97955],[2.66843,41.98211],[2.66808,41.98539],[2.66789,41.9857],[2.66667,41.98645],[2.6664,41.98674],[2.66612,41.9868],[2.66594,41.98696],[2.66687,41.98762],[2.66717,41.98818],[2.66715,41.98838],[2.66664,41.98867],[2.666,41.98855],[2.66551,41.98857],[2.66522,41.9888],[2.66506,41.98927],[2.67096,41.99228],[2.67184,41.99178],[2.67221,41.99145],[2.67282,41.99022],[2.67379,41.99006],[2.67474,41.98969],[2.68152,41.98943],[2.68233,41.98933],[2.6832,41.98908],[2.68367,41.98923],[2.684,41.99009],[2.68417,41.99167],[2.68434,41.99217],[2.68488,41.99313],[2.68554,41.99395],[2.68903,41.99613],[2.69097,41.99546],[2.69391,41.99717],[2.69454,41.99665],[2.69489,41.99652],[2.69573,41.99648],[2.69615,41.99635],[2.69617,41.99575],[2.69716,41.99521],[2.69796,41.99548],[2.69838,41.99576],[2.69785,41.99628],[2.69892,41.99682],[2.70065,41.99901],[2.70237,42.00002],[2.70652,42.00282],[2.7074,42.00367],[2.70931,42.00403],[2.71041,42.00366],[2.71442,42.00498],[2.71523,42.00669],[2.71437,42.01187],[2.71508,42.01213],[2.71525,42.01297],[2.71489,42.01422],[2.71656,42.01486],[2.71622,42.01564],[2.71563,42.01638],[2.71634,42.01702],[2.71692,42.01923],[2.71728,42.0199],[2.71667,42.02253],[2.71745,42.02421],[2.72291,42.02339],[2.72346,42.02396],[2.72528,42.02392],[2.72575,42.02189],[2.72533,42.02107],[2.72516,42.02001],[2.72764,42.02036],[2.72822,42.01966],[2.72857,42.01948],[2.7293,42.01922],[2.7304,42.0191],[2.73328,42.01967],[2.73308,42.02064],[2.73881,42.02031],[2.74029,42.02039],[2.74233,42.02018],[2.7448,42.02074],[2.74647,42.02099],[2.76632,42.02837],[2.76571,42.02895],[2.76514,42.02976],[2.76369,42.03105],[2.76536,42.03217],[2.7668,42.03356],[2.76722,42.03382],[2.76779,42.03401],[2.7673,42.03439],[2.76664,42.03471],[2.76657,42.03491],[2.76669,42.037],[2.76744,42.04155],[2.76865,42.04175],[2.76929,42.04195],[2.76927,42.0421],[2.76977,42.04202],[2.77129,42.04221],[2.77179,42.04216],[2.77316,42.04267],[2.78027,42.04357],[2.78052,42.04331],[2.78136,42.04288],[2.78381,42.04184]],[[2.75162,41.99017],[2.75336,41.98925],[2.7539,41.98885],[2.75506,41.98853],[2.75643,41.98789],[2.75771,41.98779],[2.7569,41.98571],[2.75682,41.98437],[2.75908,41.98414],[2.76006,41.98723],[2.76227,41.98713],[2.76234,41.98859],[2.76404,41.98871],[2.76405,41.98913],[2.76731,41.98958],[2.76732,41.99061],[2.76551,41.99405],[2.76395,41.99512],[2.75989,41.99271],[2.75961,41.99214],[2.75935,41.992],[2.75905,41.99145],[2.75829,41.99154],[2.75839,41.99102],[2.75812,41.99103],[2.75801,41.99129],[2.75711,41.99153],[2.75708,41.99138],[2.75683,41.99145],[2.75649,41.99163],[2.75561,41.9924],[2.75129,41.99376],[2.75083,41.99327],[2.75139,41.99281],[2.74942,41.99044],[2.75011,41.99024],[2.75162,41.99017]]]}},{"type":"Feature","properties":{"id":"1716301003"},"geometry":{"type":"Polygon","coordinates":[[[2.75162,41.99017],[2.75315,41.99016],[2.75853,41.98951],[2.75886,41.99031],[2.75878,41.99058],[2.76732,41.99042],[2.76731,41.98958],[2.76405,41.98913],[2.76404,41.98871],[2.76234,41.98859],[2.76227,41.98713],[2.76006,41.98723],[2.75908,41.98414],[2.75682,41.98437],[2.7569,41.98571],[2.75771,41.98779],[2.75643,41.98789],[2.75506,41.98853],[2.7539,41.98885],[2.75336,41.98925],[2.75162,41.99017]]]}}]}