{"type":"FeatureCollection","features":[{"type":"Feature","properties":{"id":"2006401001"},"geometry":{"type":"Polygon","coordinates":[[[-1.85711,43.34337],[-1.85965,43.34256],[-1.86306,43.34163],[-1.86367,43.34142],[-1.86531,43.34051],[-1.86901,43.33943],[-1.87043,43.33851],[-1.87504,43.33703],[-1.87635,43.33687],[-1.87809,43.33593],[-1.88147,43.33493],[-1.88367,43.33465],[-1.88514,43.33416],[-1.88581,43.33416],[-1.8863,43.33432],[-1.88662,43.33433],[-1.88807,43.33402],[-1.88884,43.33369],[-1.89108,43.33305],[-1.89146,43.33309],[-1.89586,43.33239],[-1.89711,43.33154],[-1.89961,43.3315],[-1.89965,43.33104],[-1.90035,43.3295],[-1.90086,43.32881],[-1.90154,43.32821],[-1.90317,43.32798],[-1.90448,43.32799],[-1.90674,43.32817],[-1.90863,43.32779],[-1.90944,43.32753],[-1.90974,43.32739],[-1.90997,43.327],[-1.90995,43.32513],[-1.91053,43.32498],[-1.9107,43.32458],[-1.91099,43.32438],[-1.91275,43.32396],[-1.91328,43.32409],[-1.91361,43.32393],[-1.91496,43.32469],[-1.91642,43.32512],[-1.9167,43.32512],[-1.91666,43.3248],[-1.91549,43.32428],[-1.91536,43.32372],[-1.91554,43.32372],[-1.91611,43.32408],[-1.91684,43.32428],[-1.91699,43.32415],[-1.91778,43.32442],[-1.91772,43.32455],[-1.91791,43.32463],[-1.91799,43.32448],[-1.91811,43.32453],[-1.91798,43.32466],[-1.91872,43.32499],[-1.91862,43.32512],[-1.91893,43.32509],[-1.91976,43.32559],[-1.91991,43.32542],[-1.91999,43.32547],[-1.91972,43.32565],[-1.91994,43.32575],[-1.92008,43.3261],[-1.92017,43.3261],[-1.92005,43.32625],[-1.92022,43.32623],[-1.92021,43.32631],[-1.92006,43.32628],[-1.92,43.32645],[-1.91989,43.32645],[-1.92006,43.32667],[-1.91992,43.3267],[-1.91992,43.32686],[-1.92005,43.32697],[-1.92018,43.32695],[-1.9201,43.32703],[-1.92068,43.32752],[-1.92065,43.32758],[-1.92117,43.32775],[-1.9216,43.32808],[-1.9218,43.32831],[-1.92177,43.32886],[-1.92207,43.32902],[-1.92235,43.32946],[-1.92332,43.32993],[-1.92361,43.33045],[-1.92366,43.33066],[-1.9235,43.3308],[-1.9235,43.33111],[-1.92375,43.33148],[-1.92378,43.33191],[-1.92394,43.33205],[-1.92356,43.33239],[-1.92382,43.33267],[-1.92359,43.33293],[-1.92333,43.33293],[-1.92304,43.33309],[-1.92297,43.33342],[-1.92476,43.33366],[-1.92615,43.33447],[-1.92679,43.33496],[-1.92715,43.33504],[-1.92691,43.33512],[-1.92701,43.33537],[-1.92688,43.33553],[-1.9271,43.33571],[-1.92796,43.33571],[-1.92711,43.33577],[-1.92622,43.33608],[-1.9258,43.33612],[-1.92325,43.33619],[-1.9232,43.33608],[-1.92277,43.33619],[-1.92193,43.33611],[-1.92164,43.33625],[-1.92109,43.3362],[-1.92039,43.3363],[-1.91872,43.33634],[-1.91822,43.33652],[-1.91709,43.33665],[-1.9161,43.3373],[-1.91499,43.33766],[-1.9145,43.33766],[-1.91283,43.33848],[-1.91275,43.33873],[-1.91234,43.33863],[-1.91231,43.33852],[-1.91196,43.33856],[-1.91172,43.33839],[-1.91139,43.33842],[-1.91102,43.33869],[-1.91097,43.33907],[-1.91022,43.33943],[-1.91005,43.33972],[-1.90979,43.33986],[-1.90959,43.3398],[-1.90904,43.33995],[-1.90904,43.34016],[-1.9094,43.34021],[-1.90932,43.34038],[-1.90741,43.34063],[-1.90724,43.34067],[-1.90741,43.34071],[-1.90718,43.3408],[-1.90569,43.34106],[-1.90593,43.34091],[-1.90578,43.34077],[-1.90557,43.34091],[-1.90523,43.34091],[-1.90494,43.34103],[-1.90495,43.3412],[-1.90477,43.34137],[-1.90465,43.34125],[-1.9042,43.3413],[-1.90407,43.34124],[-1.90353,43.34143],[-1.90298,43.34142],[-1.903,43.34158],[-1.90258,43.3417],[-1.90225,43.34202],[-1.89947,43.34284],[-1.89942,43.34296],[-1.89954,43.34319],[-1.89964,43.34324],[-1.90009,43.34315],[-1.90013,43.34331],[-1.89952,43.34349],[-1.89935,43.34343],[-1.89907,43.34349],[-1.89828,43.3438],[-1.89814,43.34396],[-1.89783,43.34388],[-1.89759,43.34404],[-1.89739,43.34397],[-1.89716,43.34401],[-1.89668,43.3438],[-1.89589,43.3444],[-1.89588,43.34463],[-1.89551,43.34501],[-1.89567,43.34523],[-1.89507,43.34543],[-1.89512,43.34529],[-1.89532,43.34519],[-1.89526,43.34509],[-1.89454,43.34519],[-1.8939,43.345],[-1.89369,43.34521],[-1.89397,43.34536],[-1.89354,43.34561],[-1.89265,43.34601],[-1.89169,43.34618],[-1.89132,43.34639],[-1.89117,43.34661],[-1.89081,43.34667],[-1.89007,43.34719],[-1.88983,43.34722],[-1.88857,43.34797],[-1.88818,43.3479],[-1.88782,43.34802],[-1.88775,43.34819],[-1.88721,43.3486],[-1.88722,43.34867],[-1.88757,43.34863],[-1.88753,43.34877],[-1.88697,43.34901],[-1.88698,43.34875],[-1.88573,43.34921],[-1.88559,43.34933],[-1.88584,43.34947],[-1.88554,43.34964],[-1.88536,43.3497],[-1.88525,43.34948],[-1.88483,43.34949],[-1.88419,43.34932],[-1.88332,43.34949],[-1.88345,43.35006],[-1.88317,43.3503],[-1.88274,43.35048],[-1.88298,43.35087],[-1.88292,43.35095],[-1.8824,43.35126],[-1.88089,43.3526],[-1.88061,43.35267],[-1.88055,43.35289],[-1.87973,43.3538],[-1.87918,43.35465],[-1.87883,43.35563],[-1.87831,43.35616],[-1.87821,43.35653],[-1.87801,43.35654],[-1.87809,43.35687],[-1.87787,43.357],[-1.87794,43.3572],[-1.87767,43.35725],[-1.87782,43.35737],[-1.87754,43.35758],[-1.8776,43.35784],[-1.87743,43.35791],[-1.87751,43.35807],[-1.87736,43.35809],[-1.87729,43.3583],[-1.8771,43.3584],[-1.8771,43.35879],[-1.87688,43.35898],[-1.877,43.35922],[-1.8767,43.3597],[-1.87681,43.35983],[-1.87667,43.35989],[-1.87669,43.36009],[-1.87639,43.36035],[-1.87634,43.36097],[-1.87594,43.36102],[-1.87566,43.36146],[-1.87542,43.36256],[-1.87551,43.36275],[-1.87574,43.36266],[-1.87571,43.36278],[-1.87562,43.36286],[-1.87534,43.36286],[-1.87513,43.36317],[-1.87483,43.363],[-1.87457,43.36297],[-1.87279,43.36353],[-1.87258,43.36371],[-1.87233,43.36371],[-1.87197,43.36421],[-1.87128,43.36767],[-1.8711,43.36797],[-1.871,43.36769],[-1.87023,43.3666],[-1.8689,43.36493],[-1.8672,43.36209],[-1.86384,43.35581],[-1.86038,43.3489],[-1.85711,43.34337]]]}},{"type":"Feature","properties":{"id":"2006401002"},"geometry":{"type":"Polygon","coordinates":[[[-1.90936,43.32325],[-1.91044,43.3232],[-1.91067,43.32326],[-1.91091,43.32317],[-1.91082,43.32292],[-1.91094,43.3229],[-1.91097,43.32318],[-1.9113,43.323],[-1.9113,43.32255],[-1.91071,43.32236],[-1.91051,43.32218],[-1.91013,43.32225],[-1.91019,43.32235],[-1.91011,43.32243],[-1.9098,43.32244],[-1.90985,43.32227],[-1.90975,43.3222],[-1.91017,43.32217],[-1.91012,43.32169],[-1.90968,43.32171],[-1.90968,43.32164],[-1.91047,43.32159],[-1.91039,43.32067],[-1.91156,43.32061],[-1.91164,43.32134],[-1.91168,43.32118],[-1.91171,43.32134],[-1.91173,43.32118],[-1.91176,43.32133],[-1.91188,43.32132],[-1.91187,43.32115],[-1.9119,43.32132],[-1.91191,43.32115],[-1.912,43.32119],[-1.91207,43.32215],[-1.91225,43.32205],[-1.91216,43.32189],[-1.91224,43.32188],[-1.91219,43.32139],[-1.91226,43.32188],[-1.91234,43.32188],[-1.91228,43.32206],[-1.91244,43.32184],[-1.91234,43.32148],[-1.91243,43.32179],[-1.91252,43.32178],[-1.91248,43.32137],[-1.91262,43.32186],[-1.91258,43.32082],[-1.91261,43.32093],[-1.91358,43.32148],[-1.91338,43.32167],[-1.91356,43.32177],[-1.91375,43.32168],[-1.91361,43.3218],[-1.91426,43.32224],[-1.91562,43.32291],[-1.91556,43.32297],[-1.91714,43.3239],[-1.91684,43.32428],[-1.91611,43.32408],[-1.91561,43.32375],[-1.91536,43.32372],[-1.91549,43.32428],[-1.91666,43.3248],[-1.9167,43.32512],[-1.91642,43.32512],[-1.91496,43.32469],[-1.91361,43.32393],[-1.91328,43.32409],[-1.91275,43.32396],[-1.91099,43.32438],[-1.9107,43.32458],[-1.91053,43.32498],[-1.90995,43.32513],[-1.91025,43.32449],[-1.90968,43.3245],[-1.90936,43.32325]]]}},{"type":"Feature","properties":{"id":"2006402001"},"geometry":{"type":"Polygon","coordinates":[[[-1.92481,43.3248],[-1.9258,43.32522],[-1.92607,43.32526],[-1.9261,43.32547],[-1.92686,43.32549],[-1.92688,43.32564],[-1.92699,43.32549],[-1.92696,43.32514],[-1.92731,43.32513],[-1.92823,43.3266],[-1.92981,43.32738],[-1.93093,43.3277],[-1.93092,43.33048],[-1.9312,43.33059],[-1.93109,43.3315],[-1.9316,43.33385],[-1.93108,43.3337],[-1.93126,43.3336],[-1.93113,43.33343],[-1.93126,43.33324],[-1.93105,43.33313],[-1.93115,43.333],[-1.93104,43.33277],[-1.93005,43.33263],[-1.92979,43.33214],[-1.92934,43.33192],[-1.92887,43.33184],[-1.9288,43.33192],[-1.92845,43.33171],[-1.92777,43.33167],[-1.92754,43.33187],[-1.92704,43.3319],[-1.92669,43.33209],[-1.92628,43.33215],[-1.92633,43.33248],[-1.92624,43.33216],[-1.92597,43.33214],[-1.92594,43.33196],[-1.92565,43.33185],[-1.92542,43.33133],[-1.92543,43.33083],[-1.92561,43.33045],[-1.9256,43.32976],[-1.925,43.32955],[-1.92474,43.32918],[-1.92418,43.32906],[-1.92415,43.32894],[-1.92375,43.32884],[-1.92324,43.32845],[-1.92307,43.32825],[-1.92311,43.32777],[-1.92278,43.32709],[-1.9221,43.32676],[-1.92217,43.32666],[-1.92168,43.32655],[-1.92159,43.3264],[-1.92179,43.3255],[-1.92263,43.32506],[-1.92481,43.3248]]]}},{"type":"Feature","properties":{"id":"2006402003"},"geometry":{"type":"Polygon","coordinates":[[[-1.92823,43.3266],[-1.92731,43.32513],[-1.92696,43.32514],[-1.92704,43.32454],[-1.92728,43.32441],[-1.92805,43.32431],[-1.92796,43.32395],[-1.92809,43.32385],[-1.92897,43.32375],[-1.92916,43.32391],[-1.92955,43.32357],[-1.9297,43.32356],[-1.9299,43.32363],[-1.92991,43.32377],[-1.93017,43.32387],[-1.93087,43.32389],[-1.93086,43.32452],[-1.93054,43.3246],[-1.9299,43.3246],[-1.92988,43.3247],[-1.93054,43.32481],[-1.93097,43.32506],[-1.9312,43.32634],[-1.93093,43.3277],[-1.92981,43.32738],[-1.92823,43.3266]]]}},{"type":"Feature","properties":{"id":"2006402009"},"geometry":{"type":"Polygon","coordinates":[[[-1.92481,43.3248],[-1.92573,43.32299],[-1.92729,43.3226],[-1.92832,43.32269],[-1.92816,43.32329],[-1.92773,43.32334],[-1.92733,43.32352],[-1.92766,43.32396],[-1.92796,43.32393],[-1.92805,43.32431],[-1.92728,43.32441],[-1.92704,43.32454],[-1.92694,43.32562],[-1.92686,43.32549],[-1.9261,43.32547],[-1.92607,43.32526],[-1.9258,43.32522],[-1.92481,43.3248]]]}},{"type":"Feature","properties":{"id":"2006403001"},"geometry":{"type":"Polygon","coordinates":[[[-1.90675,43.32122],[-1.90766,43.32014],[-1.90761,43.31935],[-1.90814,43.31909],[-1.90899,43.31875],[-1.91162,43.31797],[-1.9128,43.31786],[-1.91389,43.31799],[-1.91408,43.31751],[-1.915,43.31777],[-1.91508,43.31757],[-1.91564,43.3172],[-1.91585,43.31656],[-1.91621,43.31631],[-1.9163,43.3157],[-1.91666,43.31578],[-1.91645,43.31547],[-1.91642,43.31518],[-1.91659,43.31488],[-1.91724,43.31435],[-1.91746,43.31449],[-1.91778,43.31424],[-1.91788,43.31433],[-1.91756,43.31448],[-1.91672,43.31523],[-1.91685,43.31535],[-1.91692,43.31613],[-1.91637,43.31747],[-1.91702,43.31783],[-1.91925,43.31869],[-1.91919,43.31916],[-1.91934,43.31951],[-1.91922,43.31971],[-1.92191,43.32109],[-1.92173,43.32138],[-1.92313,43.32162],[-1.92416,43.32168],[-1.92725,43.32145],[-1.9294,43.32156],[-1.92944,43.32128],[-1.93205,43.3213],[-1.93183,43.32204],[-1.92704,43.32175],[-1.924,43.32203],[-1.92326,43.32296],[-1.92236,43.323],[-1.92181,43.32196],[-1.9215,43.32199],[-1.91881,43.32085],[-1.91873,43.32094],[-1.91585,43.31969],[-1.91573,43.3197],[-1.91577,43.31965],[-1.91553,43.31955],[-1.91544,43.31966],[-1.91575,43.3198],[-1.91566,43.31991],[-1.91412,43.31925],[-1.91397,43.31943],[-1.91376,43.3192],[-1.91381,43.31935],[-1.91363,43.31922],[-1.91361,43.31901],[-1.90979,43.31921],[-1.90782,43.32147],[-1.90612,43.32221],[-1.90682,43.32181],[-1.90655,43.32148],[-1.90683,43.32125],[-1.90675,43.32122]]]}},{"type":"Feature","properties":{"id":"2006403002"},"geometry":{"type":"Polygon","coordinates":[[[-1.91692,43.31613],[-1.91873,43.3168],[-1.91858,43.31743],[-1.91927,43.31809],[-1.91925,43.31869],[-1.91702,43.31783],[-1.91637,43.31747],[-1.91692,43.31613]]]}},{"type":"Feature","properties":{"id":"2006403003"},"geometry":{"type":"Polygon","coordinates":[[[-1.91692,43.31613],[-1.91685,43.31535],[-1.91672,43.31523],[-1.91756,43.31448],[-1.91788,43.31433],[-1.91778,43.31424],[-1.9186,43.31295],[-1.91914,43.31265],[-1.91952,43.31257],[-1.92051,43.31265],[-1.9209,43.31259],[-1.92107,43.31268],[-1.92026,43.31327],[-1.91956,43.31346],[-1.91879,43.3146],[-1.91873,43.3168],[-1.91692,43.31613]]]}},{"type":"Feature","properties":{"id":"2006404001"},"geometry":{"type":"Polygon","coordinates":[[[-1.93093,43.3277],[-1.9312,43.32634],[-1.93097,43.32506],[-1.93054,43.32481],[-1.92988,43.3247],[-1.9299,43.3246],[-1.93068,43.32459],[-1.93092,43.32446],[-1.93087,43.32389],[-1.93102,43.3238],[-1.931,43.32343],[-1.93209,43.32338],[-1.93217,43.32366],[-1.93207,43.32416],[-1.93223,43.32422],[-1.93254,43.32514],[-1.9328,43.32538],[-1.93323,43.32553],[-1.93386,43.3255],[-1.9337,43.32617],[-1.93365,43.32719],[-1.93554,43.3285],[-1.93519,43.32933],[-1.93337,43.33027],[-1.93092,43.33048],[-1.93093,43.3277]]]}},{"type":"Feature","properties":{"id":"2006404002"},"geometry":{"type":"Polygon","coordinates":[[[-1.93465,43.32434],[-1.93449,43.32405],[-1.93231,43.32442],[-1.93223,43.32422],[-1.93207,43.32416],[-1.93217,43.32366],[-1.93209,43.32338],[-1.931,43.32343],[-1.93102,43.3238],[-1.93091,43.32389],[-1.93017,43.32387],[-1.92991,43.32377],[-1.9299,43.32363],[-1.9297,43.32356],[-1.92955,43.32357],[-1.92916,43.32391],[-1.92897,43.32375],[-1.92766,43.32396],[-1.92733,43.32352],[-1.92773,43.32334],[-1.92816,43.32329],[-1.92832,43.32269],[-1.93197,43.32282],[-1.93183,43.32204],[-1.93205,43.3213],[-1.93342,43.32114],[-1.9358,43.3204],[-1.93881,43.31987],[-1.93951,43.32215],[-1.93791,43.32242],[-1.93752,43.32207],[-1.93723,43.322],[-1.93706,43.32205],[-1.93699,43.32238],[-1.93651,43.32243],[-1.93625,43.32357],[-1.9356,43.32374],[-1.93559,43.32392],[-1.93589,43.3243],[-1.93583,43.3245],[-1.93545,43.32453],[-1.93526,43.3244],[-1.93465,43.32434]]]}},{"type":"Feature","properties":{"id":"2006404003"},"geometry":{"type":"Polygon","coordinates":[[[-1.93231,43.32442],[-1.93449,43.32405],[-1.93465,43.32434],[-1.93462,43.32449],[-1.93487,43.32482],[-1.93386,43.3255],[-1.93323,43.32553],[-1.9328,43.32538],[-1.93254,43.32514],[-1.93231,43.32442]]]}},{"type":"Feature","properties":{"id":"2006404004"},"geometry":{"type":"Polygon","coordinates":[[[-1.93386,43.3255],[-1.93487,43.32482],[-1.93462,43.32449],[-1.93463,43.32434],[-1.93526,43.3244],[-1.93545,43.32453],[-1.93583,43.3245],[-1.93589,43.3243],[-1.93559,43.32392],[-1.9356,43.32374],[-1.93625,43.32357],[-1.93672,43.32372],[-1.93712,43.32432],[-1.93743,43.3244],[-1.9375,43.32454],[-1.93741,43.3247],[-1.93778,43.32504],[-1.93788,43.32533],[-1.93778,43.32568],[-1.93788,43.3262],[-1.93669,43.32621],[-1.93579,43.32596],[-1.93542,43.32552],[-1.93373,43.32644],[-1.93386,43.3255]]]}},{"type":"Feature","properties":{"id":"2006404005"},"geometry":{"type":"Polygon","coordinates":[[[-1.93373,43.32644],[-1.93542,43.32552],[-1.93579,43.32596],[-1.93669,43.32621],[-1.93788,43.3262],[-1.93778,43.32568],[-1.93788,43.32533],[-1.93778,43.32504],[-1.93741,43.3247],[-1.9375,43.32454],[-1.93743,43.3244],[-1.93712,43.32432],[-1.93672,43.32372],[-1.93625,43.32357],[-1.93651,43.32243],[-1.93683,43.32241],[-1.93707,43.32333],[-1.93759,43.32431],[-1.93815,43.32501],[-1.93854,43.32611],[-1.93894,43.32687],[-1.93909,43.32736],[-1.939,43.3277],[-1.93863,43.32797],[-1.93791,43.32824],[-1.9376,43.32789],[-1.9357,43.32837],[-1.93554,43.3285],[-1.93365,43.32719],[-1.93373,43.32644]]]}}]}