{"type":"FeatureCollection","features":[{"type":"Feature","properties":{"id":"3003601001"},"geometry":{"type":"Polygon","coordinates":[[[-0.78804,37.83738],[-0.786,37.83619],[-0.78722,37.8347],[-0.78741,37.83408],[-0.78967,37.83461],[-0.79032,37.83494],[-0.79067,37.83539],[-0.79114,37.83539],[-0.79124,37.83548],[-0.78969,37.83641],[-0.78886,37.83708],[-0.78804,37.83738]]]}},{"type":"Feature","properties":{"id":"3003601002"},"geometry":{"type":"Polygon","coordinates":[[[-0.78143,37.81963],[-0.78312,37.81953],[-0.78441,37.81917],[-0.78468,37.819],[-0.78547,37.81787],[-0.78571,37.81679],[-0.78569,37.81628],[-0.78545,37.81598],[-0.78539,37.81553],[-0.785,37.81537],[-0.7849,37.81525],[-0.78446,37.81515],[-0.78433,37.81462],[-0.78442,37.81421],[-0.78456,37.81415],[-0.78558,37.81451],[-0.78604,37.81445],[-0.78647,37.81451],[-0.78698,37.81437],[-0.7873,37.81414],[-0.78839,37.81421],[-0.78998,37.81395],[-0.79157,37.81512],[-0.79039,37.81554],[-0.78876,37.81655],[-0.78631,37.81961],[-0.78669,37.82465],[-0.78588,37.82442],[-0.78352,37.82317],[-0.78163,37.82149],[-0.78143,37.81963]]]}},{"type":"Feature","properties":{"id":"3003601003"},"geometry":{"type":"Polygon","coordinates":[[[-0.78577,37.83811],[-0.78886,37.83708],[-0.78969,37.83641],[-0.79151,37.8353],[-0.79263,37.8361],[-0.79286,37.83611],[-0.79314,37.83636],[-0.79335,37.83625],[-0.79471,37.83689],[-0.79293,37.83715],[-0.79409,37.83833],[-0.79447,37.83896],[-0.79147,37.83813],[-0.79066,37.83997],[-0.78577,37.83811]]]}},{"type":"Feature","properties":{"id":"3003601004"},"geometry":{"type":"Polygon","coordinates":[[[-0.80009,37.8371],[-0.79543,37.83509],[-0.79757,37.83376],[-0.80041,37.8345],[-0.80069,37.83386],[-0.79833,37.83327],[-0.80012,37.83199],[-0.80428,37.83279],[-0.80303,37.83446],[-0.80009,37.8371]]]}},{"type":"Feature","properties":{"id":"3003601005"},"geometry":{"type":"Polygon","coordinates":[[[-0.79136,37.83474],[-0.78945,37.83247],[-0.79104,37.83185],[-0.79205,37.83172],[-0.79227,37.83144],[-0.79232,37.83118],[-0.79255,37.83119],[-0.79267,37.83129],[-0.79472,37.83319],[-0.79174,37.83506],[-0.79136,37.83474]]]}},{"type":"Feature","properties":{"id":"3003601006"},"geometry":{"type":"Polygon","coordinates":[[[-0.77608,37.82096],[-0.77664,37.8198],[-0.77775,37.81986],[-0.77894,37.81968],[-0.78143,37.81963],[-0.78163,37.82149],[-0.78352,37.82317],[-0.78588,37.82442],[-0.78669,37.82465],[-0.78683,37.8266],[-0.78674,37.82671],[-0.78629,37.82712],[-0.78508,37.82644],[-0.7841,37.82605],[-0.78191,37.82563],[-0.77608,37.82096]]]}},{"type":"Feature","properties":{"id":"3003601007"},"geometry":{"type":"Polygon","coordinates":[[[-0.79426,37.83348],[-0.79737,37.83152],[-0.79879,37.83294],[-0.79833,37.83327],[-0.80069,37.83386],[-0.80041,37.8345],[-0.79757,37.83376],[-0.79543,37.83509],[-0.79487,37.83484],[-0.79501,37.83423],[-0.79426,37.83348]]]}},{"type":"Feature","properties":{"id":"3003601008"},"geometry":{"type":"Polygon","coordinates":[[[-0.77627,37.84399],[-0.77875,37.84278],[-0.77989,37.84199],[-0.78102,37.84085],[-0.78178,37.83976],[-0.7829,37.83884],[-0.78357,37.83764],[-0.7836,37.83686],[-0.78459,37.8349],[-0.78535,37.83579],[-0.78804,37.83738],[-0.78577,37.83811],[-0.79066,37.83997],[-0.79147,37.83813],[-0.79447,37.83896],[-0.79493,37.83945],[-0.79441,37.83979],[-0.79386,37.83993],[-0.79337,37.84019],[-0.7929,37.84057],[-0.79251,37.84113],[-0.79218,37.84187],[-0.79215,37.84235],[-0.79281,37.84306],[-0.79292,37.84333],[-0.79279,37.84401],[-0.79225,37.84506],[-0.79087,37.84694],[-0.79065,37.84765],[-0.79031,37.84828],[-0.78825,37.84705],[-0.78715,37.84651],[-0.786,37.84631],[-0.78303,37.84517],[-0.78171,37.84481],[-0.77813,37.8445],[-0.77627,37.84399]]]}},{"type":"Feature","properties":{"id":"3003601009"},"geometry":{"type":"Polygon","coordinates":[[[-0.79587,37.83041],[-0.79481,37.82994],[-0.78869,37.82801],[-0.78807,37.82925],[-0.78689,37.82765],[-0.7865,37.82245],[-0.78815,37.82279],[-0.7895,37.82321],[-0.78988,37.82338],[-0.78995,37.82378],[-0.79265,37.82491],[-0.79438,37.8246],[-0.79424,37.82418],[-0.79414,37.82309],[-0.79435,37.82226],[-0.79478,37.8216],[-0.79712,37.81932],[-0.79735,37.81954],[-0.79815,37.81996],[-0.80176,37.81707],[-0.80635,37.81948],[-0.80781,37.82019],[-0.80846,37.82041],[-0.81044,37.82155],[-0.81097,37.822],[-0.81118,37.82233],[-0.81117,37.8229],[-0.81087,37.82314],[-0.80125,37.82908],[-0.79874,37.82659],[-0.79695,37.83026],[-0.79641,37.8306],[-0.796,37.83036],[-0.79587,37.83041]]]}},{"type":"Feature","properties":{"id":"3003601010"},"geometry":{"type":"Polygon","coordinates":[[[-0.78813,37.82933],[-0.78866,37.83017],[-0.78946,37.83248],[-0.79001,37.83313],[-0.78664,37.83298],[-0.78543,37.83343],[-0.78562,37.83311],[-0.78566,37.83279],[-0.78558,37.83145],[-0.78743,37.83177],[-0.78778,37.83114],[-0.78813,37.82933]]]}},{"type":"Feature","properties":{"id":"3003601011"},"geometry":{"type":"Polygon","coordinates":[[[-0.76219,37.84659],[-0.76217,37.84595],[-0.76257,37.84471],[-0.76197,37.84254],[-0.76164,37.83941],[-0.7616,37.83795],[-0.76054,37.8338],[-0.76005,37.83278],[-0.75989,37.83189],[-0.75988,37.83071],[-0.75958,37.82954],[-0.7592,37.82848],[-0.75861,37.82748],[-0.75853,37.82714],[-0.75859,37.82687],[-0.75844,37.82659],[-0.75839,37.82605],[-0.75795,37.82487],[-0.75793,37.8244],[-0.75744,37.82313],[-0.75731,37.823],[-0.75691,37.82289],[-0.75529,37.82289],[-0.75411,37.82299],[-0.75161,37.82291],[-0.7513,37.82276],[-0.75069,37.8215],[-0.75073,37.82125],[-0.75119,37.82107],[-0.75207,37.82243],[-0.75326,37.82241],[-0.75345,37.82259],[-0.75664,37.82262],[-0.75747,37.82035],[-0.75777,37.81991],[-0.75804,37.81886],[-0.75799,37.81834],[-0.75686,37.81847],[-0.75679,37.81836],[-0.75814,37.8182],[-0.75823,37.8178],[-0.75816,37.81676],[-0.75728,37.81386],[-0.75693,37.8132],[-0.75621,37.81132],[-0.75526,37.80982],[-0.75491,37.80891],[-0.75508,37.80711],[-0.75485,37.80622],[-0.75497,37.80567],[-0.75462,37.8046],[-0.75392,37.8031],[-0.75314,37.80223],[-0.7528,37.80169],[-0.75294,37.8013],[-0.75291,37.80028],[-0.75282,37.79995],[-0.75223,37.799],[-0.7523,37.798],[-0.75212,37.7967],[-0.75217,37.79612],[-0.75175,37.79473],[-0.75141,37.794],[-0.75096,37.79347],[-0.75048,37.79309],[-0.74972,37.79219],[-0.74928,37.7915],[-0.74895,37.79123],[-0.74875,37.79169],[-0.74877,37.79194],[-0.7487,37.79193],[-0.74856,37.79136],[-0.74819,37.79068],[-0.76199,37.79458],[-0.762,37.79484],[-0.76165,37.79495],[-0.76121,37.7955],[-0.76147,37.79568],[-0.76132,37.79591],[-0.76137,37.7989],[-0.76168,37.79878],[-0.76184,37.79886],[-0.76181,37.799],[-0.76163,37.79904],[-0.7616,37.79923],[-0.76368,37.80181],[-0.76427,37.80283],[-0.76484,37.80348],[-0.76605,37.80549],[-0.76788,37.80781],[-0.76807,37.80826],[-0.76903,37.8097],[-0.76929,37.80989],[-0.77111,37.81267],[-0.77159,37.81318],[-0.77246,37.81457],[-0.77269,37.81477],[-0.77369,37.81653],[-0.77398,37.81673],[-0.77503,37.81846],[-0.77531,37.81879],[-0.77648,37.8194],[-0.77664,37.8198],[-0.77572,37.82161],[-0.77515,37.82433],[-0.77582,37.82702],[-0.77672,37.82692],[-0.78101,37.82763],[-0.7851,37.82867],[-0.78429,37.82964],[-0.78401,37.8305],[-0.78381,37.83171],[-0.78381,37.83259],[-0.78414,37.83398],[-0.78459,37.8349],[-0.7836,37.83686],[-0.78357,37.83764],[-0.7829,37.83884],[-0.78178,37.83976],[-0.78102,37.84085],[-0.77989,37.84199],[-0.77875,37.84278],[-0.77627,37.84399],[-0.77306,37.84386],[-0.77144,37.84383],[-0.7709,37.8439],[-0.76879,37.84454],[-0.76321,37.84645],[-0.76219,37.84659]]]}},{"type":"Feature","properties":{"id":"3003601012"},"geometry":{"type":"Polygon","coordinates":[[[-0.78459,37.8349],[-0.78414,37.83398],[-0.78664,37.83298],[-0.79001,37.83313],[-0.79136,37.83474],[-0.79178,37.83511],[-0.79124,37.83548],[-0.79114,37.83539],[-0.79067,37.83539],[-0.79032,37.83494],[-0.79001,37.83475],[-0.78741,37.83408],[-0.78722,37.8347],[-0.786,37.83619],[-0.78535,37.83579],[-0.78459,37.8349]]]}},{"type":"Feature","properties":{"id":"3003601013"},"geometry":{"type":"Polygon","coordinates":[[[-0.79141,37.81517],[-0.79441,37.81724],[-0.79712,37.81932],[-0.79478,37.8216],[-0.79435,37.82226],[-0.79414,37.82309],[-0.79424,37.82418],[-0.79438,37.8246],[-0.79265,37.82491],[-0.78995,37.82378],[-0.78988,37.82338],[-0.7895,37.82321],[-0.78843,37.82287],[-0.7868,37.82255],[-0.78651,37.82242],[-0.7865,37.8213],[-0.78643,37.82131],[-0.78631,37.81961],[-0.78876,37.81655],[-0.79039,37.81554],[-0.79141,37.81517]]]}},{"type":"Feature","properties":{"id":"3003601014"},"geometry":{"type":"Polygon","coordinates":[[[-0.78866,37.83017],[-0.78811,37.82915],[-0.78869,37.82801],[-0.79481,37.82994],[-0.79587,37.83041],[-0.79564,37.83059],[-0.79531,37.83119],[-0.7937,37.83226],[-0.79255,37.83119],[-0.79232,37.83118],[-0.79227,37.83144],[-0.79205,37.83172],[-0.79104,37.83185],[-0.78946,37.83247],[-0.78866,37.83017]]]}},{"type":"Feature","properties":{"id":"3003601015"},"geometry":{"type":"Polygon","coordinates":[[[-0.77608,37.82096],[-0.78191,37.82563],[-0.7841,37.82605],[-0.78508,37.82644],[-0.78621,37.82705],[-0.78629,37.82712],[-0.78555,37.82835],[-0.7851,37.82867],[-0.78101,37.82763],[-0.77672,37.82692],[-0.77582,37.82702],[-0.77515,37.82433],[-0.77572,37.82161],[-0.77608,37.82096]]]}},{"type":"Feature","properties":{"id":"3003601016"},"geometry":{"type":"Polygon","coordinates":[[[-0.7952,37.83706],[-0.79335,37.83625],[-0.79314,37.83636],[-0.79286,37.83611],[-0.79263,37.8361],[-0.79151,37.8353],[-0.79174,37.83506],[-0.79426,37.83348],[-0.79501,37.83423],[-0.79487,37.83484],[-0.79647,37.83554],[-0.7952,37.83706]]]}},{"type":"Feature","properties":{"id":"3003601017"},"geometry":{"type":"Polygon","coordinates":[[[-0.7851,37.82867],[-0.78555,37.82835],[-0.78624,37.82717],[-0.78683,37.8266],[-0.78689,37.82765],[-0.78813,37.82933],[-0.78774,37.83128],[-0.78743,37.83177],[-0.78558,37.83145],[-0.78562,37.83311],[-0.78543,37.83343],[-0.78414,37.83398],[-0.78381,37.83259],[-0.78381,37.83171],[-0.78401,37.8305],[-0.78429,37.82964],[-0.7851,37.82867]]]}},{"type":"Feature","properties":{"id":"3003601018"},"geometry":{"type":"Polygon","coordinates":[[[-0.79031,37.84828],[-0.79065,37.84765],[-0.79087,37.84694],[-0.79225,37.84506],[-0.79279,37.84401],[-0.79292,37.84333],[-0.79281,37.84306],[-0.79215,37.84235],[-0.79218,37.84187],[-0.79251,37.84113],[-0.7929,37.84057],[-0.79337,37.84019],[-0.79386,37.83993],[-0.79441,37.83979],[-0.79493,37.83945],[-0.79457,37.83913],[-0.79409,37.83833],[-0.79293,37.83715],[-0.79471,37.83689],[-0.7952,37.83706],[-0.79646,37.83556],[-0.80009,37.8371],[-0.80303,37.83446],[-0.80428,37.83279],[-0.80012,37.83199],[-0.79878,37.83293],[-0.79737,37.83152],[-0.81117,37.8229],[-0.81191,37.82457],[-0.81224,37.82508],[-0.81167,37.82638],[-0.81194,37.82784],[-0.81209,37.82817],[-0.81248,37.82847],[-0.8113,37.83026],[-0.81118,37.83124],[-0.81098,37.83173],[-0.81006,37.83297],[-0.80947,37.83475],[-0.81434,37.83706],[-0.81698,37.83844],[-0.81895,37.84035],[-0.82064,37.84167],[-0.82555,37.84496],[-0.8229,37.85017],[-0.8216,37.85227],[-0.82067,37.85311],[-0.82749,37.85765],[-0.83059,37.8601],[-0.84198,37.86802],[-0.84117,37.86916],[-0.84084,37.86985],[-0.84079,37.87035],[-0.84091,37.87095],[-0.84139,37.87186],[-0.84148,37.87225],[-0.84088,37.87177],[-0.83999,37.87128],[-0.83916,37.87019],[-0.83797,37.86928],[-0.83455,37.86701],[-0.83191,37.86513],[-0.83073,37.86442],[-0.83025,37.86426],[-0.81896,37.86182],[-0.81306,37.86077],[-0.80992,37.85991],[-0.8089,37.85983],[-0.80711,37.85988],[-0.8065,37.85981],[-0.80391,37.85915],[-0.80302,37.85843],[-0.80101,37.85636],[-0.79986,37.85551],[-0.7995,37.85482],[-0.79896,37.85418],[-0.79752,37.85301],[-0.79245,37.85041],[-0.79161,37.84975],[-0.79091,37.84883],[-0.79031,37.84828]]]}},{"type":"Feature","properties":{"id":"3003601019"},"geometry":{"type":"Polygon","coordinates":[[[-0.7937,37.83226],[-0.79531,37.83119],[-0.79564,37.83059],[-0.79587,37.83041],[-0.796,37.83036],[-0.79641,37.8306],[-0.79695,37.83026],[-0.79874,37.82659],[-0.80125,37.82908],[-0.79472,37.83319],[-0.7937,37.83226]]]}}]}