{"type":"FeatureCollection","features":[{"type":"Feature","properties":{"id":"3604201001"},"geometry":{"type":"Polygon","coordinates":[[[-8.50241,42.17395],[-8.50373,42.17362],[-8.50733,42.1733],[-8.50709,42.17475],[-8.5074,42.17601],[-8.50733,42.17628],[-8.50703,42.17658],[-8.50657,42.17677],[-8.50558,42.17699],[-8.50557,42.17709],[-8.51022,42.17768],[-8.51019,42.17802],[-8.51033,42.17851],[-8.51071,42.17932],[-8.51072,42.18013],[-8.50816,42.18055],[-8.5075,42.18106],[-8.50706,42.18314],[-8.50624,42.18311],[-8.50452,42.18327],[-8.50316,42.1837],[-8.50182,42.18428],[-8.50054,42.18498],[-8.49927,42.18527],[-8.49702,42.18327],[-8.49655,42.18254],[-8.49659,42.18192],[-8.49714,42.18089],[-8.49761,42.18074],[-8.49891,42.18067],[-8.50069,42.18035],[-8.50231,42.17971],[-8.50253,42.17882],[-8.50243,42.17802],[-8.50256,42.1779],[-8.50242,42.17773],[-8.50266,42.17755],[-8.50247,42.1767],[-8.50271,42.17525],[-8.50241,42.17395]]]}},{"type":"Feature","properties":{"id":"3604201002"},"geometry":{"type":"Polygon","coordinates":[[[-8.50287,42.17297],[-8.50319,42.17273],[-8.50349,42.1723],[-8.50432,42.17081],[-8.50498,42.17036],[-8.50537,42.1702],[-8.50668,42.16995],[-8.50723,42.17074],[-8.50733,42.1733],[-8.50373,42.17362],[-8.50287,42.17297]]]}},{"type":"Feature","properties":{"id":"3604201003"},"geometry":{"type":"Polygon","coordinates":[[[-8.46473,42.18031],[-8.46038,42.18052],[-8.45998,42.18043],[-8.45976,42.18005],[-8.4612,42.17927],[-8.4625,42.1789],[-8.46262,42.17856],[-8.46336,42.17751],[-8.46406,42.17746],[-8.4635,42.1767],[-8.46287,42.17624],[-8.46345,42.17473],[-8.46404,42.17379],[-8.4647,42.17181],[-8.46456,42.1711],[-8.46418,42.17029],[-8.46375,42.16978],[-8.46355,42.1689],[-8.46392,42.16844],[-8.46457,42.16799],[-8.46636,42.1671],[-8.46698,42.16713],[-8.46785,42.16678],[-8.47004,42.16509],[-8.46961,42.16468],[-8.46726,42.16151],[-8.46668,42.16139],[-8.46934,42.16133],[-8.47165,42.16218],[-8.47301,42.1628],[-8.47313,42.16355],[-8.47362,42.16393],[-8.47553,42.16443],[-8.47516,42.16519],[-8.47511,42.16561],[-8.47533,42.16552],[-8.47634,42.16546],[-8.47866,42.16578],[-8.47998,42.16579],[-8.4817,42.16627],[-8.48357,42.16638],[-8.48521,42.16666],[-8.48607,42.16737],[-8.48759,42.16816],[-8.48836,42.16823],[-8.48897,42.16813],[-8.49108,42.16727],[-8.49142,42.16733],[-8.49214,42.16792],[-8.49275,42.16818],[-8.49509,42.16819],[-8.49648,42.16835],[-8.49814,42.16882],[-8.49812,42.1692],[-8.49788,42.16959],[-8.4974,42.17022],[-8.49671,42.17085],[-8.49552,42.17251],[-8.49474,42.17332],[-8.48971,42.17441],[-8.48885,42.17467],[-8.48833,42.17456],[-8.48795,42.1746],[-8.48771,42.175],[-8.48789,42.17528],[-8.48714,42.17576],[-8.4861,42.17605],[-8.48519,42.17728],[-8.48337,42.17896],[-8.48235,42.18087],[-8.48298,42.18413],[-8.48309,42.18583],[-8.48169,42.18841],[-8.47952,42.18852],[-8.47921,42.19066],[-8.47898,42.19124],[-8.47807,42.19237],[-8.4791,42.19546],[-8.47974,42.19629],[-8.47982,42.19684],[-8.47947,42.19693],[-8.47856,42.1965],[-8.47834,42.19488],[-8.47786,42.19271],[-8.47702,42.19135],[-8.47585,42.19083],[-8.47427,42.18978],[-8.47311,42.18877],[-8.4712,42.18653],[-8.46946,42.18569],[-8.46633,42.18505],[-8.46599,42.18464],[-8.46501,42.18416],[-8.46483,42.18396],[-8.46556,42.18234],[-8.46473,42.18031]]]}},{"type":"Feature","properties":{"id":"3604201004"},"geometry":{"type":"Polygon","coordinates":[[[-8.43533,42.19832],[-8.43073,42.19343],[-8.4273,42.18914],[-8.42627,42.18819],[-8.42508,42.18736],[-8.42365,42.1868],[-8.42229,42.18667],[-8.41946,42.18604],[-8.41921,42.18486],[-8.41676,42.18396],[-8.41631,42.17904],[-8.417,42.1766],[-8.41753,42.17333],[-8.41787,42.17215],[-8.41922,42.16953],[-8.41932,42.16792],[-8.42019,42.16664],[-8.42101,42.16594],[-8.42141,42.16414],[-8.42297,42.16326],[-8.42346,42.16262],[-8.42368,42.16178],[-8.424,42.16138],[-8.42469,42.15998],[-8.42416,42.15986],[-8.42363,42.15959],[-8.42363,42.15949],[-8.42436,42.15828],[-8.42536,42.15706],[-8.42551,42.15699],[-8.42581,42.15705],[-8.42675,42.15739],[-8.42715,42.15765],[-8.42725,42.15792],[-8.42719,42.15823],[-8.42674,42.15947],[-8.4269,42.15989],[-8.42693,42.16044],[-8.42728,42.16074],[-8.42778,42.16094],[-8.42802,42.16133],[-8.42854,42.16168],[-8.42921,42.16188],[-8.42995,42.16229],[-8.43163,42.16294],[-8.43253,42.16306],[-8.43298,42.1628],[-8.43273,42.16187],[-8.43328,42.16095],[-8.43338,42.15983],[-8.43391,42.15983],[-8.43594,42.16132],[-8.43654,42.16232],[-8.43687,42.1625],[-8.43813,42.16286],[-8.43899,42.16381],[-8.4394,42.16389],[-8.43982,42.16381],[-8.44168,42.16319],[-8.44212,42.16192],[-8.44216,42.1615],[-8.44191,42.15986],[-8.44186,42.15742],[-8.44161,42.1568],[-8.44212,42.15463],[-8.44229,42.15042],[-8.4488,42.15062],[-8.45021,42.15075],[-8.45276,42.15115],[-8.45257,42.15341],[-8.45295,42.15585],[-8.45287,42.15625],[-8.45385,42.15877],[-8.45371,42.15902],[-8.45429,42.15942],[-8.4558,42.16098],[-8.45785,42.16208],[-8.46047,42.16261],[-8.46595,42.16123],[-8.46726,42.16151],[-8.46961,42.16468],[-8.47004,42.16509],[-8.46785,42.16678],[-8.46698,42.16713],[-8.46636,42.1671],[-8.46457,42.16799],[-8.46392,42.16844],[-8.46355,42.1689],[-8.46375,42.16978],[-8.46418,42.17029],[-8.46456,42.1711],[-8.4647,42.17181],[-8.46404,42.17379],[-8.46345,42.17473],[-8.46287,42.17624],[-8.4635,42.1767],[-8.46406,42.17746],[-8.46336,42.17751],[-8.46262,42.17856],[-8.4625,42.1789],[-8.4612,42.17927],[-8.45976,42.18005],[-8.45998,42.18043],[-8.46038,42.18052],[-8.46473,42.18031],[-8.46556,42.18234],[-8.46483,42.18396],[-8.46501,42.18416],[-8.46599,42.18464],[-8.46633,42.18505],[-8.46946,42.18569],[-8.4712,42.18653],[-8.47311,42.18877],[-8.47427,42.18978],[-8.47585,42.19083],[-8.47702,42.19135],[-8.47786,42.19271],[-8.47834,42.19488],[-8.47856,42.1965],[-8.47947,42.19693],[-8.47982,42.19684],[-8.48002,42.1983],[-8.47775,42.19831],[-8.47655,42.19852],[-8.47466,42.19909],[-8.47308,42.19926],[-8.47168,42.19956],[-8.46821,42.19921],[-8.46588,42.19937],[-8.46004,42.19733],[-8.46003,42.19659],[-8.45982,42.19557],[-8.45985,42.19347],[-8.45855,42.194],[-8.45759,42.19422],[-8.45698,42.19514],[-8.45607,42.19609],[-8.45501,42.19683],[-8.45466,42.19697],[-8.45471,42.19709],[-8.45442,42.19763],[-8.45391,42.19762],[-8.45353,42.19784],[-8.45288,42.19779],[-8.45245,42.1976],[-8.45137,42.1975],[-8.45059,42.19722],[-8.45035,42.19726],[-8.45003,42.19749],[-8.44966,42.19754],[-8.44785,42.19705],[-8.44697,42.19699],[-8.44618,42.19712],[-8.4448,42.19792],[-8.44398,42.19857],[-8.44322,42.19939],[-8.44189,42.20152],[-8.44138,42.20273],[-8.44026,42.2071],[-8.4403,42.20798],[-8.43994,42.20947],[-8.43919,42.21026],[-8.43945,42.21069],[-8.43949,42.21149],[-8.43863,42.21056],[-8.43884,42.20852],[-8.43841,42.20732],[-8.43839,42.20645],[-8.43767,42.20566],[-8.43752,42.20529],[-8.43763,42.2048],[-8.43738,42.20447],[-8.43774,42.20188],[-8.43745,42.20114],[-8.43641,42.20035],[-8.4358,42.19902],[-8.43533,42.19832]]]}},{"type":"Feature","properties":{"id":"3604201006"},"geometry":{"type":"Polygon","coordinates":[[[-8.49067,42.17422],[-8.49029,42.17436],[-8.48978,42.17487],[-8.48854,42.17478],[-8.48848,42.17465],[-8.48821,42.1746],[-8.48804,42.17483],[-8.48817,42.17495],[-8.48873,42.17509],[-8.49707,42.17608],[-8.49879,42.17483],[-8.49947,42.17445],[-8.50011,42.1742],[-8.50151,42.17416],[-8.50241,42.17395],[-8.50271,42.17525],[-8.50247,42.1767],[-8.50266,42.17755],[-8.50242,42.17773],[-8.50256,42.1779],[-8.50243,42.17802],[-8.50253,42.17882],[-8.50231,42.17971],[-8.50069,42.18035],[-8.49891,42.18067],[-8.49761,42.18074],[-8.49714,42.18089],[-8.49659,42.18192],[-8.49655,42.18254],[-8.49702,42.18327],[-8.49927,42.18527],[-8.49613,42.18598],[-8.49345,42.18641],[-8.4877,42.18785],[-8.4852,42.18824],[-8.48169,42.18841],[-8.48309,42.18583],[-8.48298,42.18413],[-8.48235,42.18087],[-8.48337,42.17896],[-8.48519,42.17728],[-8.4861,42.17605],[-8.48714,42.17576],[-8.48789,42.17528],[-8.48771,42.175],[-8.48795,42.1746],[-8.48833,42.17456],[-8.48885,42.17467],[-8.49067,42.17422]]]}},{"type":"Feature","properties":{"id":"3604201007"},"geometry":{"type":"Polygon","coordinates":[[[-8.51594,42.18411],[-8.51284,42.18409],[-8.51175,42.18427],[-8.51141,42.18404],[-8.5112,42.1837],[-8.51075,42.18259],[-8.5106,42.18245],[-8.51084,42.1821],[-8.51072,42.18183],[-8.51071,42.17932],[-8.51033,42.17851],[-8.51019,42.17802],[-8.51022,42.17768],[-8.50557,42.17709],[-8.50558,42.17699],[-8.50657,42.17677],[-8.50703,42.17658],[-8.50733,42.17628],[-8.5074,42.17601],[-8.50709,42.17475],[-8.50727,42.17372],[-8.50905,42.17369],[-8.50918,42.174],[-8.51308,42.17303],[-8.51398,42.17435],[-8.51535,42.17605],[-8.51578,42.17632],[-8.51566,42.17745],[-8.51607,42.17822],[-8.51578,42.1789],[-8.51615,42.18259],[-8.5167,42.18282],[-8.51752,42.1837],[-8.51782,42.1843],[-8.51594,42.18411]]]}},{"type":"Feature","properties":{"id":"3604201008"},"geometry":{"type":"Polygon","coordinates":[[[-8.49967,42.16959],[-8.50222,42.16843],[-8.50562,42.16749],[-8.50608,42.16888],[-8.50668,42.16995],[-8.50537,42.1702],[-8.50498,42.17036],[-8.50432,42.17081],[-8.50349,42.1723],[-8.50319,42.17273],[-8.50287,42.17297],[-8.50022,42.17095],[-8.49998,42.17014],[-8.49967,42.16959]]]}},{"type":"Feature","properties":{"id":"3604201009"},"geometry":{"type":"Polygon","coordinates":[[[-8.50918,42.174],[-8.50905,42.17369],[-8.50727,42.17372],[-8.50723,42.17074],[-8.50608,42.16888],[-8.50579,42.1682],[-8.50566,42.16748],[-8.51201,42.16811],[-8.51186,42.16869],[-8.51205,42.16998],[-8.5125,42.17163],[-8.51287,42.17271],[-8.51308,42.17303],[-8.50918,42.174]]]}},{"type":"Feature","properties":{"id":"3604201010"},"geometry":{"type":"Polygon","coordinates":[[[-8.49029,42.17436],[-8.49474,42.17332],[-8.49552,42.17251],[-8.49671,42.17085],[-8.4974,42.17022],[-8.49788,42.16959],[-8.49812,42.1692],[-8.49814,42.16882],[-8.49967,42.16959],[-8.49998,42.17014],[-8.50022,42.17095],[-8.50373,42.17362],[-8.50151,42.17416],[-8.50011,42.1742],[-8.49879,42.17483],[-8.49707,42.17608],[-8.48873,42.17509],[-8.48817,42.17495],[-8.48804,42.17483],[-8.48821,42.1746],[-8.48848,42.17465],[-8.48854,42.17478],[-8.48978,42.17487],[-8.49029,42.17436]]]}},{"type":"Feature","properties":{"id":"3604202001"},"geometry":{"type":"Polygon","coordinates":[[[-8.49275,42.16818],[-8.49214,42.16792],[-8.49142,42.16733],[-8.49108,42.16727],[-8.48897,42.16813],[-8.48836,42.16823],[-8.48759,42.16816],[-8.48607,42.16737],[-8.48521,42.16666],[-8.48357,42.16638],[-8.4817,42.16627],[-8.47998,42.16579],[-8.47866,42.16578],[-8.47634,42.16546],[-8.47533,42.16552],[-8.47511,42.16561],[-8.47516,42.16519],[-8.47553,42.16443],[-8.47362,42.16393],[-8.47313,42.16355],[-8.47301,42.1628],[-8.47165,42.16218],[-8.46934,42.16133],[-8.47397,42.15844],[-8.47556,42.15784],[-8.47529,42.15773],[-8.47401,42.15634],[-8.47329,42.15572],[-8.47318,42.1549],[-8.47441,42.15441],[-8.47435,42.1541],[-8.47403,42.15313],[-8.47201,42.14879],[-8.47162,42.1474],[-8.47129,42.14714],[-8.47097,42.14662],[-8.47055,42.14503],[-8.47055,42.14466],[-8.47084,42.144],[-8.47091,42.14262],[-8.47124,42.14122],[-8.47162,42.14012],[-8.47194,42.13991],[-8.47194,42.13965],[-8.47576,42.14227],[-8.47774,42.14381],[-8.48201,42.14507],[-8.48502,42.14585],[-8.48966,42.14525],[-8.49079,42.14532],[-8.49237,42.14753],[-8.49424,42.14936],[-8.496,42.15167],[-8.49735,42.15258],[-8.49774,42.15327],[-8.49783,42.15379],[-8.4994,42.15472],[-8.49963,42.15577],[-8.49941,42.15784],[-8.50621,42.15831],[-8.507,42.15785],[-8.5077,42.15784],[-8.50788,42.15741],[-8.50943,42.15652],[-8.51068,42.15656],[-8.51103,42.15632],[-8.51264,42.15628],[-8.51295,42.15578],[-8.51442,42.15481],[-8.51412,42.15597],[-8.51413,42.15872],[-8.51383,42.16063],[-8.51302,42.16229],[-8.51382,42.1649],[-8.51371,42.1654],[-8.51281,42.1664],[-8.51222,42.16733],[-8.51201,42.16811],[-8.50562,42.16749],[-8.50222,42.16843],[-8.49968,42.1696],[-8.49814,42.16882],[-8.49648,42.16835],[-8.49509,42.16819],[-8.49275,42.16818]]]}},{"type":"Feature","properties":{"id":"3604202002"},"geometry":{"type":"Polygon","coordinates":[[[-8.50621,42.15831],[-8.49941,42.15784],[-8.49963,42.15577],[-8.4994,42.15472],[-8.49783,42.15379],[-8.49774,42.15327],[-8.49735,42.15258],[-8.496,42.15167],[-8.49424,42.14936],[-8.49237,42.14753],[-8.49079,42.14532],[-8.49209,42.14442],[-8.49596,42.14305],[-8.4963,42.14276],[-8.49711,42.14269],[-8.49862,42.14221],[-8.50197,42.14052],[-8.50411,42.14058],[-8.50533,42.14029],[-8.50653,42.13747],[-8.50685,42.13635],[-8.50707,42.13496],[-8.50673,42.1327],[-8.50694,42.13056],[-8.50747,42.12714],[-8.50973,42.12484],[-8.50801,42.1234],[-8.50764,42.12291],[-8.50744,42.12239],[-8.50597,42.12077],[-8.50568,42.11998],[-8.5058,42.11827],[-8.5061,42.11669],[-8.50586,42.11607],[-8.50489,42.11467],[-8.50582,42.113],[-8.50606,42.11226],[-8.50611,42.11156],[-8.50596,42.11086],[-8.50564,42.11014],[-8.514,42.11218],[-8.51599,42.11252],[-8.51796,42.11269],[-8.52011,42.1134],[-8.52137,42.11316],[-8.525,42.11528],[-8.53258,42.11909],[-8.53636,42.12124],[-8.53602,42.12543],[-8.53229,42.12667],[-8.53004,42.12767],[-8.52568,42.13138],[-8.52415,42.13293],[-8.5252,42.13523],[-8.52541,42.13604],[-8.5252,42.13662],[-8.52461,42.13723],[-8.52245,42.13863],[-8.52142,42.13983],[-8.52118,42.14035],[-8.52022,42.14124],[-8.52018,42.14245],[-8.52038,42.14306],[-8.52031,42.14358],[-8.51999,42.14408],[-8.51879,42.14448],[-8.51813,42.14561],[-8.51817,42.14593],[-8.51806,42.14607],[-8.51651,42.14621],[-8.51572,42.14678],[-8.51485,42.14785],[-8.51453,42.15114],[-8.51455,42.15434],[-8.51442,42.15481],[-8.51295,42.15578],[-8.51264,42.15628],[-8.51103,42.15632],[-8.51068,42.15656],[-8.50943,42.15652],[-8.50788,42.15741],[-8.5077,42.15784],[-8.507,42.15785],[-8.50621,42.15831]]]}},{"type":"Feature","properties":{"id":"3604203001"},"geometry":{"type":"Polygon","coordinates":[[[-8.51782,42.1843],[-8.51752,42.1837],[-8.5167,42.18282],[-8.51615,42.18259],[-8.51578,42.1789],[-8.51607,42.17822],[-8.51566,42.17745],[-8.51578,42.17632],[-8.51535,42.17605],[-8.51398,42.17435],[-8.51287,42.17271],[-8.51205,42.16998],[-8.51186,42.16869],[-8.51222,42.16733],[-8.51281,42.1664],[-8.51371,42.1654],[-8.51382,42.1649],[-8.51302,42.16229],[-8.51383,42.16063],[-8.51413,42.15872],[-8.51412,42.15597],[-8.51455,42.15434],[-8.51573,42.15434],[-8.51969,42.15709],[-8.52095,42.15885],[-8.52128,42.15861],[-8.52134,42.15817],[-8.52158,42.15788],[-8.52279,42.15754],[-8.52318,42.15864],[-8.52393,42.16005],[-8.52539,42.16206],[-8.52698,42.16374],[-8.52842,42.16482],[-8.53003,42.16546],[-8.53081,42.16562],[-8.53547,42.16706],[-8.53646,42.16747],[-8.53807,42.16777],[-8.53836,42.16706],[-8.5412,42.16557],[-8.54241,42.16543],[-8.5475,42.1638],[-8.55018,42.16284],[-8.55195,42.16247],[-8.55248,42.16337],[-8.55378,42.16422],[-8.55712,42.16557],[-8.56091,42.16487],[-8.5618,42.16521],[-8.56279,42.16608],[-8.56302,42.16604],[-8.56457,42.16636],[-8.55889,42.17129],[-8.55724,42.17181],[-8.55491,42.17331],[-8.55343,42.17537],[-8.55297,42.17564],[-8.55209,42.17593],[-8.55214,42.17735],[-8.55173,42.17772],[-8.54885,42.17825],[-8.54832,42.17845],[-8.54809,42.17915],[-8.54739,42.17968],[-8.54701,42.17989],[-8.54629,42.17983],[-8.54586,42.18024],[-8.54579,42.18102],[-8.5462,42.18295],[-8.5434,42.18463],[-8.54115,42.1862],[-8.53872,42.18756],[-8.53637,42.18862],[-8.53475,42.18917],[-8.53276,42.1903],[-8.53141,42.18943],[-8.52909,42.18824],[-8.52743,42.18771],[-8.52428,42.18705],[-8.5231,42.18666],[-8.51836,42.18435],[-8.51782,42.1843]]]}},{"type":"Feature","properties":{"id":"3604203002"},"geometry":{"type":"Polygon","coordinates":[[[-8.53276,42.1903],[-8.53475,42.18917],[-8.53637,42.18862],[-8.53872,42.18756],[-8.54115,42.1862],[-8.5434,42.18463],[-8.5462,42.18295],[-8.54579,42.18102],[-8.54586,42.18024],[-8.54629,42.17983],[-8.54701,42.17989],[-8.54739,42.17968],[-8.54809,42.17915],[-8.54832,42.17845],[-8.54885,42.17825],[-8.55173,42.17772],[-8.55214,42.17735],[-8.55209,42.17593],[-8.55297,42.17564],[-8.55343,42.17537],[-8.55491,42.17331],[-8.55724,42.17181],[-8.55889,42.17129],[-8.56457,42.16636],[-8.56462,42.16578],[-8.56819,42.16217],[-8.56918,42.16263],[-8.57124,42.164],[-8.57339,42.16506],[-8.57556,42.16562],[-8.57739,42.16684],[-8.57768,42.16733],[-8.57933,42.16803],[-8.58157,42.16803],[-8.58256,42.17179],[-8.58461,42.17651],[-8.58854,42.17876],[-8.58836,42.18079],[-8.58548,42.18652],[-8.58472,42.1891],[-8.58397,42.19253],[-8.5831,42.19748],[-8.58308,42.19844],[-8.57813,42.20082],[-8.57855,42.20171],[-8.57624,42.20477],[-8.57363,42.20497],[-8.57172,42.20488],[-8.57003,42.20475],[-8.5674,42.20417],[-8.56604,42.20413],[-8.56444,42.20426],[-8.56267,42.20461],[-8.56025,42.20469],[-8.55857,42.20443],[-8.55592,42.20373],[-8.55458,42.20324],[-8.55329,42.20247],[-8.55089,42.20131],[-8.54826,42.20028],[-8.54424,42.19952],[-8.54321,42.19916],[-8.54142,42.19802],[-8.53956,42.19731],[-8.53828,42.19642],[-8.53679,42.19505],[-8.53395,42.1915],[-8.53276,42.1903]]]}},{"type":"Feature","properties":{"id":"3604203003"},"geometry":{"type":"Polygon","coordinates":[[[-8.51651,42.14621],[-8.51806,42.14607],[-8.51817,42.14593],[-8.51813,42.14561],[-8.51879,42.14448],[-8.51999,42.14408],[-8.52031,42.14358],[-8.52038,42.14306],[-8.52018,42.14245],[-8.52022,42.14124],[-8.52118,42.14035],[-8.52142,42.13983],[-8.52245,42.13863],[-8.52461,42.13723],[-8.5252,42.13662],[-8.52541,42.13604],[-8.5252,42.13523],[-8.52415,42.13293],[-8.52568,42.13138],[-8.53004,42.12767],[-8.53229,42.12667],[-8.53602,42.12543],[-8.53599,42.12576],[-8.53683,42.12634],[-8.54399,42.12979],[-8.54753,42.13189],[-8.54903,42.13259],[-8.55397,42.13563],[-8.55703,42.139],[-8.55771,42.14026],[-8.55972,42.1412],[-8.56423,42.14412],[-8.56465,42.1446],[-8.56627,42.14775],[-8.57903,42.14811],[-8.58074,42.14901],[-8.58162,42.15306],[-8.58186,42.15571],[-8.58213,42.16284],[-8.58204,42.16467],[-8.58123,42.16577],[-8.58123,42.16673],[-8.58157,42.16803],[-8.57933,42.16803],[-8.57768,42.16733],[-8.57739,42.16684],[-8.57556,42.16562],[-8.57339,42.16506],[-8.57124,42.164],[-8.56918,42.16263],[-8.56819,42.16217],[-8.56462,42.16578],[-8.56455,42.16636],[-8.56302,42.16604],[-8.56279,42.16608],[-8.5618,42.16521],[-8.56091,42.16487],[-8.55712,42.16557],[-8.55378,42.16422],[-8.55248,42.16337],[-8.55195,42.16247],[-8.55018,42.16284],[-8.5475,42.1638],[-8.54241,42.16543],[-8.5412,42.16557],[-8.53836,42.16706],[-8.53807,42.16777],[-8.53646,42.16747],[-8.53547,42.16706],[-8.53081,42.16562],[-8.53003,42.16546],[-8.52842,42.16482],[-8.52698,42.16374],[-8.52539,42.16206],[-8.52393,42.16005],[-8.52318,42.15864],[-8.52279,42.15754],[-8.52158,42.15788],[-8.52134,42.15817],[-8.52128,42.15861],[-8.52095,42.15885],[-8.51969,42.15709],[-8.51573,42.15434],[-8.51455,42.15434],[-8.51453,42.15114],[-8.51485,42.14785],[-8.51572,42.14678],[-8.51651,42.14621]]]}},{"type":"Feature","properties":{"id":"3604204001"},"geometry":{"type":"Polygon","coordinates":[[[-8.52279,42.25601],[-8.52218,42.25564],[-8.52092,42.25521],[-8.52084,42.25476],[-8.52087,42.25418],[-8.52113,42.25394],[-8.52171,42.25391],[-8.52222,42.25365],[-8.52236,42.25346],[-8.52248,42.25244],[-8.52276,42.25204],[-8.5218,42.25043],[-8.52159,42.24968],[-8.52105,42.24917],[-8.52091,42.24881],[-8.52141,42.24866],[-8.52117,42.24646],[-8.52049,42.24533],[-8.52012,42.24517],[-8.51925,42.24547],[-8.51891,42.24508],[-8.51846,42.24477],[-8.51765,42.24454],[-8.51719,42.24419],[-8.51731,42.24353],[-8.51712,42.24291],[-8.51764,42.24244],[-8.51856,42.24217],[-8.51887,42.24173],[-8.51893,42.24124],[-8.51869,42.24063],[-8.51722,42.23907],[-8.51683,42.23829],[-8.51733,42.23763],[-8.51685,42.23457],[-8.51706,42.23379],[-8.51823,42.23248],[-8.51946,42.23223],[-8.5204,42.23241],[-8.5214,42.23207],[-8.52227,42.23158],[-8.52337,42.23003],[-8.52271,42.22956],[-8.52236,42.2291],[-8.52126,42.2292],[-8.5208,42.22898],[-8.52027,42.22703],[-8.51972,42.22637],[-8.52006,42.22568],[-8.52016,42.22504],[-8.51984,42.22425],[-8.51894,42.22306],[-8.51842,42.22274],[-8.51757,42.22151],[-8.51745,42.22102],[-8.51761,42.21977],[-8.5154,42.21803],[-8.51676,42.21699],[-8.51767,42.21603],[-8.51804,42.21545],[-8.51831,42.21459],[-8.51819,42.21318],[-8.51828,42.21268],[-8.51862,42.21211],[-8.52114,42.20957],[-8.52136,42.2091],[-8.52077,42.20814],[-8.52032,42.20763],[-8.51999,42.20759],[-8.51789,42.20795],[-8.51727,42.20746],[-8.51677,42.20587],[-8.51613,42.20251],[-8.51515,42.20112],[-8.51473,42.20013],[-8.51464,42.19958],[-8.51476,42.19901],[-8.51561,42.19776],[-8.51667,42.19692],[-8.5162,42.19608],[-8.51549,42.19557],[-8.51495,42.19492],[-8.51416,42.1928],[-8.51391,42.19153],[-8.51457,42.18907],[-8.51447,42.18856],[-8.51387,42.18729],[-8.51247,42.18563],[-8.51207,42.18468],[-8.51175,42.18427],[-8.51284,42.18409],[-8.51594,42.18411],[-8.51836,42.18435],[-8.5231,42.18666],[-8.52428,42.18705],[-8.52743,42.18771],[-8.52909,42.18824],[-8.53141,42.18943],[-8.53276,42.1903],[-8.53395,42.1915],[-8.53679,42.19505],[-8.53828,42.19642],[-8.53956,42.19731],[-8.54142,42.19802],[-8.54321,42.19916],[-8.54424,42.19952],[-8.54826,42.20028],[-8.55089,42.20131],[-8.55329,42.20247],[-8.55458,42.20324],[-8.55592,42.20373],[-8.55857,42.20443],[-8.56025,42.20469],[-8.56267,42.20461],[-8.56444,42.20426],[-8.56604,42.20413],[-8.5674,42.20417],[-8.57003,42.20475],[-8.57172,42.20488],[-8.57363,42.20497],[-8.57624,42.20477],[-8.57191,42.20889],[-8.57143,42.21063],[-8.57244,42.21326],[-8.574,42.21583],[-8.57015,42.21932],[-8.56986,42.21978],[-8.56943,42.22106],[-8.56747,42.22194],[-8.5673,42.22246],[-8.56705,42.22457],[-8.56727,42.22632],[-8.56729,42.22869],[-8.56765,42.23097],[-8.56756,42.2321],[-8.56681,42.23609],[-8.56892,42.24108],[-8.56853,42.24187],[-8.5676,42.24313],[-8.56665,42.24416],[-8.56513,42.2455],[-8.56261,42.24716],[-8.56019,42.24844],[-8.55824,42.24927],[-8.55614,42.25003],[-8.54692,42.25434],[-8.53993,42.25585],[-8.53831,42.25607],[-8.5346,42.25613],[-8.53297,42.25587],[-8.53166,42.25552],[-8.52692,42.25619],[-8.52518,42.25995],[-8.52474,42.26022],[-8.52362,42.25994],[-8.52337,42.25977],[-8.52329,42.25937],[-8.52374,42.25866],[-8.52352,42.25837],[-8.52375,42.25782],[-8.5235,42.25758],[-8.52318,42.25639],[-8.52279,42.25601]]]}},{"type":"Feature","properties":{"id":"3604204003"},"geometry":{"type":"Polygon","coordinates":[[[-8.50617,42.24682],[-8.50484,42.24554],[-8.50379,42.24435],[-8.50281,42.24294],[-8.49895,42.24174],[-8.49949,42.24112],[-8.50197,42.23979],[-8.50315,42.23881],[-8.50379,42.23778],[-8.50398,42.23706],[-8.50401,42.23588],[-8.5038,42.23536],[-8.50408,42.23478],[-8.50472,42.23417],[-8.50491,42.23366],[-8.50477,42.23326],[-8.50397,42.23265],[-8.50144,42.23126],[-8.49881,42.22918],[-8.49794,42.22875],[-8.49478,42.22659],[-8.49248,42.22695],[-8.49075,42.22681],[-8.48563,42.22713],[-8.48548,42.22647],[-8.48439,42.22438],[-8.47924,42.21901],[-8.47514,42.21546],[-8.47335,42.21537],[-8.4727,42.21368],[-8.4694,42.21063],[-8.47034,42.20978],[-8.47291,42.20797],[-8.47215,42.2061],[-8.47356,42.20388],[-8.46755,42.20195],[-8.46588,42.19937],[-8.46821,42.19921],[-8.47168,42.19956],[-8.47308,42.19926],[-8.47466,42.19909],[-8.47655,42.19852],[-8.47775,42.19831],[-8.48002,42.1983],[-8.47974,42.19629],[-8.4791,42.19546],[-8.47807,42.19237],[-8.47898,42.19124],[-8.47921,42.19066],[-8.47952,42.18852],[-8.4852,42.18824],[-8.4877,42.18785],[-8.49345,42.18641],[-8.49613,42.18598],[-8.50054,42.18498],[-8.50182,42.18428],[-8.50316,42.1837],[-8.50452,42.18327],[-8.50624,42.18311],[-8.50706,42.18314],[-8.5075,42.18106],[-8.50816,42.18055],[-8.51072,42.18013],[-8.51072,42.18183],[-8.51084,42.1821],[-8.5106,42.18245],[-8.51141,42.18404],[-8.51175,42.18427],[-8.51207,42.18468],[-8.51247,42.18563],[-8.51387,42.18729],[-8.51447,42.18856],[-8.51457,42.18907],[-8.51391,42.19153],[-8.51416,42.1928],[-8.51495,42.19492],[-8.51549,42.19557],[-8.5162,42.19608],[-8.51662,42.1967],[-8.51667,42.19692],[-8.51561,42.19776],[-8.51476,42.19901],[-8.51464,42.19958],[-8.51473,42.20013],[-8.51515,42.20112],[-8.51613,42.20251],[-8.51677,42.20587],[-8.51727,42.20746],[-8.51789,42.20795],[-8.51999,42.20759],[-8.52032,42.20763],[-8.52077,42.20814],[-8.52136,42.2091],[-8.52114,42.20957],[-8.51862,42.21211],[-8.51828,42.21268],[-8.51819,42.21318],[-8.51831,42.21459],[-8.51804,42.21545],[-8.51767,42.21603],[-8.51676,42.21699],[-8.5154,42.21803],[-8.51761,42.21977],[-8.51745,42.22102],[-8.51757,42.22151],[-8.51842,42.22274],[-8.51894,42.22306],[-8.51984,42.22425],[-8.52016,42.22504],[-8.52006,42.22568],[-8.51972,42.22637],[-8.52027,42.22703],[-8.5208,42.22898],[-8.52126,42.2292],[-8.52236,42.2291],[-8.52271,42.22956],[-8.52337,42.23003],[-8.52227,42.23158],[-8.5214,42.23207],[-8.5204,42.23241],[-8.51946,42.23223],[-8.51823,42.23248],[-8.51753,42.23317],[-8.51706,42.23379],[-8.51685,42.23457],[-8.51733,42.23763],[-8.51683,42.23829],[-8.51722,42.23907],[-8.51869,42.24063],[-8.51893,42.24124],[-8.51887,42.24173],[-8.51856,42.24217],[-8.51764,42.24244],[-8.51712,42.24291],[-8.51731,42.24353],[-8.51719,42.24419],[-8.51765,42.24454],[-8.51846,42.24477],[-8.51891,42.24508],[-8.51925,42.24547],[-8.52012,42.24517],[-8.52049,42.24533],[-8.52117,42.24646],[-8.52129,42.24721],[-8.52141,42.24866],[-8.52091,42.24881],[-8.52105,42.24917],[-8.52159,42.24968],[-8.5218,42.25043],[-8.52276,42.25204],[-8.52248,42.25244],[-8.52236,42.25346],[-8.52222,42.25365],[-8.52171,42.25391],[-8.52113,42.25394],[-8.52087,42.25418],[-8.52092,42.25521],[-8.52218,42.25564],[-8.52279,42.25601],[-8.52318,42.25639],[-8.5235,42.25758],[-8.52375,42.25782],[-8.52352,42.25837],[-8.52374,42.25866],[-8.52329,42.25937],[-8.52337,42.25977],[-8.52362,42.25994],[-8.52474,42.26022],[-8.51934,42.26364],[-8.51774,42.26506],[-8.5166,42.26679],[-8.51616,42.2662],[-8.51625,42.2632],[-8.51581,42.2604],[-8.51461,42.25875],[-8.51226,42.25753],[-8.51062,42.25637],[-8.50999,42.25522],[-8.50949,42.25466],[-8.50762,42.25361],[-8.5082,42.24976],[-8.50814,42.24875],[-8.50798,42.24825],[-8.50774,42.24795],[-8.50617,42.24682]]]}}]}