{"type":"FeatureCollection","features":[{"type":"Feature","properties":{"id":"4508101001"},"geometry":{"type":"Polygon","coordinates":[[[-3.85136,40.12516],[-3.84869,40.12369],[-3.84584,40.12306],[-3.84607,40.12282],[-3.8484,40.12158],[-3.84885,40.12148],[-3.85224,40.12123],[-3.85201,40.12179],[-3.85266,40.12201],[-3.85288,40.12332],[-3.85275,40.12441],[-3.85294,40.12452],[-3.85257,40.12503],[-3.85233,40.12489],[-3.85216,40.1249],[-3.85136,40.12516]]]}},{"type":"Feature","properties":{"id":"4508101002"},"geometry":{"type":"Polygon","coordinates":[[[-3.84269,40.12206],[-3.84084,40.12186],[-3.83897,40.1215],[-3.83736,40.12145],[-3.83442,40.12105],[-3.83262,40.12103],[-3.83173,40.12115],[-3.82861,40.12129],[-3.82637,40.12106],[-3.82415,40.12101],[-3.82312,40.12088],[-3.82377,40.11666],[-3.82389,40.11496],[-3.82384,40.11321],[-3.82407,40.11269],[-3.82431,40.11145],[-3.82422,40.10964],[-3.82355,40.10759],[-3.82367,40.10698],[-3.82354,40.1053],[-3.82354,40.10212],[-3.82185,40.10047],[-3.82068,40.09957],[-3.81757,40.09753],[-3.82112,40.09279],[-3.82164,40.09238],[-3.82286,40.0918],[-3.82549,40.09076],[-3.82824,40.09126],[-3.83211,40.09137],[-3.83321,40.09338],[-3.83308,40.09586],[-3.8366,40.09567],[-3.8387,40.09615],[-3.83829,40.09743],[-3.83825,40.09847],[-3.83907,40.09884],[-3.83972,40.09862],[-3.83992,40.09925],[-3.85013,40.0976],[-3.85182,40.09766],[-3.85333,40.09811],[-3.85229,40.1003],[-3.85222,40.10104],[-3.85149,40.10278],[-3.85016,40.10522],[-3.84975,40.10667],[-3.84894,40.10826],[-3.84873,40.10984],[-3.84836,40.11073],[-3.84805,40.11198],[-3.84771,40.11264],[-3.84769,40.11394],[-3.8473,40.11531],[-3.84729,40.11634],[-3.84835,40.11738],[-3.84892,40.11837],[-3.8481,40.11895],[-3.84892,40.11926],[-3.84857,40.11953],[-3.84947,40.12049],[-3.84984,40.1203],[-3.85062,40.12137],[-3.8484,40.12158],[-3.84724,40.12217],[-3.84661,40.12187],[-3.84618,40.12183],[-3.84555,40.12161],[-3.84532,40.12053],[-3.84491,40.11994],[-3.84305,40.11841],[-3.84219,40.1179],[-3.84162,40.11773],[-3.84149,40.11792],[-3.84191,40.11964],[-3.84269,40.12206]]]}},{"type":"Feature","properties":{"id":"4508101003"},"geometry":{"type":"Polygon","coordinates":[[[-3.85333,40.09811],[-3.85429,40.09837],[-3.85964,40.09942],[-3.86037,40.09938],[-3.86208,40.1008],[-3.86278,40.10106],[-3.86336,40.10007],[-3.86397,40.09931],[-3.86443,40.09899],[-3.86535,40.09985],[-3.86445,40.10095],[-3.86201,40.10479],[-3.85804,40.11149],[-3.85428,40.11835],[-3.85253,40.12089],[-3.85219,40.12123],[-3.85062,40.12137],[-3.84984,40.1203],[-3.84947,40.12049],[-3.84857,40.11953],[-3.84892,40.11926],[-3.8481,40.11895],[-3.84892,40.11837],[-3.84835,40.11738],[-3.84729,40.11634],[-3.8473,40.11531],[-3.84769,40.11394],[-3.84771,40.11264],[-3.84805,40.11198],[-3.84836,40.11073],[-3.84873,40.10984],[-3.84894,40.10826],[-3.84975,40.10667],[-3.85016,40.10522],[-3.85149,40.10278],[-3.85222,40.10104],[-3.85229,40.1003],[-3.85333,40.09811]]]}},{"type":"Feature","properties":{"id":"4508101004"},"geometry":{"type":"Polygon","coordinates":[[[-3.84584,40.12306],[-3.84269,40.12206],[-3.84191,40.11964],[-3.84149,40.11792],[-3.84162,40.11773],[-3.84219,40.1179],[-3.84305,40.11841],[-3.84491,40.11994],[-3.84532,40.12053],[-3.84555,40.12161],[-3.84618,40.12183],[-3.84661,40.12187],[-3.84724,40.12217],[-3.84607,40.12282],[-3.84584,40.12306]]]}},{"type":"Feature","properties":{"id":"4508101005"},"geometry":{"type":"Polygon","coordinates":[[[-3.91,40.14223],[-3.90777,40.14191],[-3.90662,40.14188],[-3.90391,40.14137],[-3.90312,40.1407],[-3.90133,40.1401],[-3.89908,40.13967],[-3.89697,40.13896],[-3.89498,40.13845],[-3.8906,40.13683],[-3.88929,40.13625],[-3.88791,40.13592],[-3.88704,40.13557],[-3.88342,40.13449],[-3.88088,40.13349],[-3.87838,40.13263],[-3.87717,40.13204],[-3.87685,40.13178],[-3.87679,40.1316],[-3.87593,40.13105],[-3.87294,40.13008],[-3.87108,40.12872],[-3.86914,40.1284],[-3.86496,40.12805],[-3.8632,40.12751],[-3.86163,40.12681],[-3.86082,40.12658],[-3.85961,40.12632],[-3.85821,40.12618],[-3.85688,40.12582],[-3.85636,40.12556],[-3.85493,40.12526],[-3.85333,40.12477],[-3.85318,40.12475],[-3.8526,40.12501],[-3.85294,40.12452],[-3.85275,40.12441],[-3.85288,40.12332],[-3.85266,40.12201],[-3.85201,40.12179],[-3.85224,40.12142],[-3.85219,40.12123],[-3.85253,40.12089],[-3.8548,40.11749],[-3.85804,40.11149],[-3.86269,40.10367],[-3.86445,40.10095],[-3.86535,40.09985],[-3.86767,40.10177],[-3.86888,40.10254],[-3.86998,40.10302],[-3.87075,40.10326],[-3.87332,40.10378],[-3.87498,40.10456],[-3.87676,40.10475],[-3.87732,40.10468],[-3.8778,40.10446],[-3.87992,40.10505],[-3.88055,40.10485],[-3.88097,40.10483],[-3.88211,40.10512],[-3.88302,40.10548],[-3.88725,40.10539],[-3.88799,40.10545],[-3.89064,40.10604],[-3.89198,40.10591],[-3.89468,40.10707],[-3.89605,40.10783],[-3.89848,40.10988],[-3.89851,40.11052],[-3.89899,40.11084],[-3.89856,40.11138],[-3.89909,40.11219],[-3.89852,40.11388],[-3.89909,40.11424],[-3.89913,40.11442],[-3.89874,40.11583],[-3.89888,40.11663],[-3.89883,40.11714],[-3.89974,40.11963],[-3.8995,40.11967],[-3.89961,40.11998],[-3.89778,40.12037],[-3.89859,40.12188],[-3.89901,40.12233],[-3.90045,40.12256],[-3.90094,40.12272],[-3.90156,40.12321],[-3.90283,40.12338],[-3.90293,40.12427],[-3.90361,40.12433],[-3.90482,40.12464],[-3.90449,40.1257],[-3.90468,40.12588],[-3.90569,40.1263],[-3.90617,40.12676],[-3.9066,40.127],[-3.90733,40.12719],[-3.90847,40.12731],[-3.91153,40.12704],[-3.91339,40.12768],[-3.91295,40.1284],[-3.91336,40.12856],[-3.91392,40.12861],[-3.91364,40.12921],[-3.91417,40.12961],[-3.91385,40.13056],[-3.91392,40.13077],[-3.91446,40.13092],[-3.91457,40.1311],[-3.91301,40.13259],[-3.91265,40.13326],[-3.91133,40.1369],[-3.91104,40.13826],[-3.91082,40.1402],[-3.91039,40.14105],[-3.91,40.14223]]]}},{"type":"Feature","properties":{"id":"4508102001"},"geometry":{"type":"Polygon","coordinates":[[[-3.84568,40.12302],[-3.84869,40.12369],[-3.85136,40.12516],[-3.8505,40.12599],[-3.84921,40.12571],[-3.84859,40.12694],[-3.84723,40.1269],[-3.84698,40.12682],[-3.8465,40.12723],[-3.84631,40.12711],[-3.84579,40.1249],[-3.84568,40.12302]]]}},{"type":"Feature","properties":{"id":"4508102002"},"geometry":{"type":"Polygon","coordinates":[[[-3.83005,40.1426],[-3.83162,40.14133],[-3.83248,40.14048],[-3.83352,40.13824],[-3.8344,40.13708],[-3.84555,40.12799],[-3.84561,40.12904],[-3.84609,40.12994],[-3.8464,40.1309],[-3.85097,40.13458],[-3.85097,40.1351],[-3.85064,40.13614],[-3.84931,40.13766],[-3.84824,40.13871],[-3.84713,40.14014],[-3.84658,40.14115],[-3.84636,40.14129],[-3.84596,40.14219],[-3.84601,40.14254],[-3.84549,40.14371],[-3.84343,40.14616],[-3.84305,40.14641],[-3.84228,40.1475],[-3.84102,40.14694],[-3.83985,40.14629],[-3.8384,40.1459],[-3.83712,40.14544],[-3.83624,40.14505],[-3.83589,40.14476],[-3.83357,40.14393],[-3.83307,40.14356],[-3.83005,40.1426]]]}},{"type":"Feature","properties":{"id":"4508102003"},"geometry":{"type":"Polygon","coordinates":[[[-3.85097,40.13465],[-3.85097,40.13374],[-3.85071,40.13184],[-3.84991,40.13079],[-3.84944,40.12976],[-3.84927,40.12924],[-3.8493,40.12842],[-3.84723,40.1269],[-3.84859,40.12694],[-3.84921,40.12571],[-3.85044,40.12598],[-3.8507,40.12617],[-3.85155,40.12825],[-3.85171,40.12949],[-3.85208,40.13043],[-3.85203,40.1316],[-3.85159,40.13501],[-3.85097,40.13465]]]}},{"type":"Feature","properties":{"id":"4508102004"},"geometry":{"type":"Polygon","coordinates":[[[-3.84555,40.12799],[-3.84698,40.12682],[-3.84723,40.1269],[-3.84922,40.12831],[-3.8493,40.12842],[-3.84927,40.12924],[-3.84944,40.12976],[-3.84991,40.13079],[-3.85071,40.13184],[-3.85097,40.13374],[-3.85097,40.13458],[-3.8464,40.1309],[-3.84609,40.12994],[-3.84561,40.12904],[-3.84555,40.12799]]]}},{"type":"Feature","properties":{"id":"4508102005"},"geometry":{"type":"Polygon","coordinates":[[[-3.82752,40.14261],[-3.82709,40.14187],[-3.82717,40.14076],[-3.82551,40.13967],[-3.82387,40.13804],[-3.82163,40.13695],[-3.82073,40.13663],[-3.81946,40.13628],[-3.81864,40.13621],[-3.81765,40.13584],[-3.81587,40.13501],[-3.81512,40.13444],[-3.81439,40.13362],[-3.81454,40.1336],[-3.81665,40.13158],[-3.81926,40.128],[-3.81965,40.12771],[-3.82116,40.12495],[-3.82147,40.12505],[-3.82244,40.12361],[-3.82272,40.12295],[-3.82312,40.12088],[-3.82415,40.12101],[-3.82637,40.12106],[-3.82861,40.12129],[-3.83173,40.12115],[-3.83262,40.12103],[-3.83442,40.12105],[-3.83736,40.12145],[-3.83897,40.1215],[-3.84084,40.12186],[-3.84279,40.12207],[-3.84568,40.12302],[-3.84579,40.1249],[-3.84631,40.12711],[-3.8465,40.12723],[-3.8344,40.13708],[-3.83352,40.13824],[-3.83248,40.14048],[-3.83019,40.14253],[-3.82967,40.14267],[-3.82914,40.14294],[-3.82825,40.14303],[-3.82752,40.14261]]]}},{"type":"Feature","properties":{"id":"4508102006"},"geometry":{"type":"Polygon","coordinates":[[[-3.8726,40.14575],[-3.85994,40.13658],[-3.85906,40.13574],[-3.85772,40.134],[-3.85405,40.1309],[-3.85176,40.12819],[-3.85151,40.12814],[-3.85093,40.12662],[-3.8507,40.12617],[-3.85044,40.12598],[-3.85055,40.12597],[-3.85055,40.12588],[-3.85136,40.12516],[-3.85216,40.1249],[-3.85233,40.12489],[-3.85257,40.12503],[-3.85318,40.12475],[-3.85333,40.12477],[-3.85493,40.12526],[-3.85636,40.12556],[-3.85688,40.12582],[-3.85821,40.12618],[-3.85961,40.12632],[-3.86082,40.12658],[-3.86163,40.12681],[-3.8632,40.12751],[-3.86496,40.12805],[-3.86914,40.1284],[-3.87108,40.12872],[-3.87294,40.13008],[-3.87593,40.13105],[-3.87679,40.1316],[-3.87685,40.13178],[-3.87717,40.13204],[-3.87838,40.13263],[-3.88088,40.13349],[-3.88342,40.13449],[-3.88704,40.13557],[-3.88791,40.13592],[-3.88929,40.13625],[-3.8906,40.13683],[-3.89498,40.13845],[-3.89697,40.13896],[-3.89908,40.13967],[-3.90133,40.1401],[-3.90312,40.1407],[-3.90391,40.14137],[-3.90662,40.14188],[-3.90777,40.14191],[-3.91,40.14223],[-3.90975,40.14224],[-3.90972,40.14236],[-3.90964,40.14321],[-3.90975,40.14407],[-3.9103,40.1441],[-3.91061,40.14429],[-3.9107,40.14505],[-3.91046,40.14851],[-3.91035,40.1489],[-3.90888,40.15033],[-3.90951,40.15044],[-3.90854,40.15131],[-3.90354,40.15651],[-3.90215,40.15588],[-3.90167,40.15552],[-3.90068,40.15448],[-3.89957,40.15292],[-3.89729,40.15133],[-3.89675,40.1506],[-3.89622,40.15059],[-3.89564,40.15076],[-3.8951,40.15074],[-3.89457,40.15044],[-3.89414,40.15002],[-3.89421,40.14974],[-3.89013,40.14748],[-3.89049,40.14728],[-3.88954,40.1468],[-3.88944,40.14641],[-3.88952,40.14617],[-3.89021,40.14586],[-3.88599,40.14305],[-3.88506,40.1444],[-3.88287,40.14328],[-3.88198,40.14487],[-3.88053,40.14427],[-3.87939,40.14361],[-3.87762,40.14235],[-3.87712,40.14329],[-3.87679,40.14351],[-3.87632,40.14356],[-3.87471,40.14282],[-3.87454,40.14311],[-3.87467,40.14355],[-3.87425,40.14415],[-3.8737,40.14402],[-3.8726,40.14575]]]}},{"type":"Feature","properties":{"id":"4508102007"},"geometry":{"type":"Polygon","coordinates":[[[-3.8353,40.15552],[-3.8361,40.15544],[-3.8428,40.15406],[-3.84928,40.15286],[-3.85074,40.15952],[-3.84823,40.16075],[-3.84666,40.16235],[-3.84478,40.16106],[-3.84506,40.16012],[-3.84452,40.15977],[-3.83476,40.15699],[-3.83472,40.15686],[-3.83506,40.1559],[-3.8353,40.15552]]]}},{"type":"Feature","properties":{"id":"4508102008"},"geometry":{"type":"Polygon","coordinates":[[[-3.83421,40.16131],[-3.83413,40.16116],[-3.83423,40.15953],[-3.83472,40.15698],[-3.84452,40.15977],[-3.84506,40.16012],[-3.84478,40.16106],[-3.84176,40.16235],[-3.84087,40.1626],[-3.83812,40.16199],[-3.83421,40.16131]]]}},{"type":"Feature","properties":{"id":"4508102009"},"geometry":{"type":"Polygon","coordinates":[[[-3.83472,40.15698],[-3.82586,40.15255],[-3.82575,40.15203],[-3.82312,40.15136],[-3.82526,40.14695],[-3.82617,40.14532],[-3.82737,40.14407],[-3.82828,40.14363],[-3.82889,40.1447],[-3.82905,40.14537],[-3.82908,40.14625],[-3.82934,40.14716],[-3.82969,40.14735],[-3.83082,40.14625],[-3.83766,40.15032],[-3.83705,40.15141],[-3.8373,40.15149],[-3.83636,40.15331],[-3.83594,40.15452],[-3.83506,40.1559],[-3.83472,40.15698]]]}},{"type":"Feature","properties":{"id":"4508102010"},"geometry":{"type":"Polygon","coordinates":[[[-3.80005,40.17565],[-3.79884,40.17521],[-3.7993,40.17428],[-3.79706,40.17263],[-3.7957,40.17138],[-3.79412,40.17027],[-3.7898,40.16683],[-3.78431,40.1627],[-3.78047,40.15751],[-3.77899,40.15582],[-3.77923,40.15412],[-3.77865,40.14933],[-3.77822,40.14757],[-3.77784,40.14661],[-3.77572,40.14396],[-3.77351,40.1426],[-3.77243,40.14209],[-3.77202,40.14066],[-3.77187,40.13958],[-3.77443,40.13964],[-3.77736,40.13894],[-3.77998,40.13821],[-3.78065,40.1381],[-3.78524,40.13815],[-3.78592,40.13797],[-3.78705,40.13747],[-3.78826,40.13723],[-3.78976,40.13674],[-3.79297,40.13552],[-3.79612,40.13511],[-3.80226,40.13336],[-3.80303,40.1333],[-3.80369,40.1334],[-3.80441,40.13366],[-3.80731,40.13314],[-3.80939,40.13354],[-3.81081,40.13351],[-3.81372,40.13371],[-3.81439,40.13362],[-3.81512,40.13444],[-3.81587,40.13501],[-3.81765,40.13584],[-3.81864,40.13621],[-3.81946,40.13628],[-3.82073,40.13663],[-3.82163,40.13695],[-3.82387,40.13804],[-3.82551,40.13967],[-3.82717,40.14076],[-3.82709,40.14187],[-3.82752,40.14261],[-3.82794,40.14292],[-3.82825,40.14303],[-3.8287,40.14301],[-3.82914,40.14294],[-3.83015,40.14254],[-3.82824,40.14366],[-3.82737,40.14407],[-3.82617,40.14532],[-3.82526,40.14695],[-3.82312,40.15136],[-3.82575,40.15203],[-3.82586,40.15255],[-3.83472,40.15698],[-3.83423,40.15953],[-3.83414,40.16212],[-3.83337,40.16192],[-3.82806,40.16495],[-3.82699,40.16531],[-3.82613,40.16573],[-3.82202,40.1689],[-3.82121,40.16928],[-3.8197,40.17031],[-3.81794,40.17119],[-3.81756,40.17127],[-3.81692,40.17125],[-3.81688,40.17109],[-3.81651,40.17078],[-3.81604,40.17068],[-3.81565,40.17038],[-3.81538,40.1703],[-3.81438,40.17029],[-3.81419,40.16983],[-3.81403,40.16976],[-3.81315,40.16973],[-3.81261,40.16927],[-3.81086,40.16934],[-3.81033,40.16909],[-3.80919,40.1709],[-3.80777,40.17448],[-3.8068,40.1773],[-3.80462,40.17684],[-3.80374,40.17635],[-3.80265,40.17624],[-3.80007,40.17547],[-3.80005,40.17565]]]}},{"type":"Feature","properties":{"id":"4508102011"},"geometry":{"type":"Polygon","coordinates":[[[-3.85074,40.15952],[-3.84804,40.14717],[-3.84658,40.14112],[-3.84713,40.14014],[-3.84824,40.13871],[-3.84931,40.13766],[-3.85064,40.13614],[-3.85097,40.1351],[-3.85097,40.13465],[-3.85159,40.13501],[-3.85208,40.1309],[-3.85208,40.13043],[-3.85171,40.12949],[-3.85151,40.12814],[-3.85176,40.12819],[-3.85405,40.1309],[-3.85772,40.134],[-3.85906,40.13574],[-3.85994,40.13658],[-3.8726,40.14575],[-3.87244,40.14601],[-3.87144,40.14678],[-3.87067,40.14763],[-3.8701,40.148],[-3.86938,40.14826],[-3.86715,40.14869],[-3.86526,40.14859],[-3.86523,40.14943],[-3.86371,40.15023],[-3.86278,40.14994],[-3.86224,40.15034],[-3.861,40.15248],[-3.85975,40.1537],[-3.85957,40.15448],[-3.85975,40.15477],[-3.8605,40.15523],[-3.8607,40.15642],[-3.86082,40.15659],[-3.86174,40.15695],[-3.86188,40.15715],[-3.8617,40.15818],[-3.8615,40.15854],[-3.86199,40.15894],[-3.86126,40.1591],[-3.86057,40.15899],[-3.8576,40.15796],[-3.85699,40.1581],[-3.85612,40.15817],[-3.85427,40.15805],[-3.85371,40.15814],[-3.85243,40.15866],[-3.85074,40.15952]]]}},{"type":"Feature","properties":{"id":"4508102012"},"geometry":{"type":"Polygon","coordinates":[[[-3.83636,40.15331],[-3.83756,40.15111],[-3.83867,40.15021],[-3.84099,40.14868],[-3.8419,40.14775],[-3.84228,40.1475],[-3.84305,40.14641],[-3.84343,40.14616],[-3.84549,40.14371],[-3.84601,40.14254],[-3.84596,40.14219],[-3.84613,40.14174],[-3.84636,40.14129],[-3.84658,40.14115],[-3.84804,40.14717],[-3.84928,40.15286],[-3.8428,40.15406],[-3.8361,40.15544],[-3.8353,40.15552],[-3.83594,40.15452],[-3.83636,40.15331]]]}},{"type":"Feature","properties":{"id":"4508102013"},"geometry":{"type":"Polygon","coordinates":[[[-3.82828,40.14363],[-3.83005,40.1426],[-3.83307,40.14356],[-3.83357,40.14393],[-3.83589,40.14476],[-3.83624,40.14505],[-3.83712,40.14544],[-3.8384,40.1459],[-3.83985,40.14629],[-3.84102,40.14694],[-3.84228,40.1475],[-3.8419,40.14775],[-3.84099,40.14868],[-3.83867,40.15021],[-3.83756,40.15111],[-3.8373,40.15149],[-3.83705,40.15141],[-3.83766,40.15032],[-3.83082,40.14625],[-3.82969,40.14735],[-3.82934,40.14716],[-3.82908,40.14625],[-3.82905,40.14537],[-3.82889,40.1447],[-3.82828,40.14363]]]}}]}