{"type":"FeatureCollection","features":[{"type":"Feature","properties":{"id":"4516801001"},"geometry":{"type":"Polygon","coordinates":[[[-4.01742,39.86039],[-4.01666,39.85913],[-4.01691,39.85866],[-4.01725,39.85739],[-4.01891,39.85419],[-4.01977,39.85338],[-4.02035,39.854],[-4.02028,39.85462],[-4.02067,39.85461],[-4.02093,39.85476],[-4.02095,39.85485],[-4.02056,39.85478],[-4.02071,39.85573],[-4.02062,39.85616],[-4.02154,39.85623],[-4.0216,39.85642],[-4.02152,39.8566],[-4.02119,39.85663],[-4.02182,39.8571],[-4.02196,39.85784],[-4.02269,39.85791],[-4.02268,39.85811],[-4.02343,39.85822],[-4.02278,39.85894],[-4.02158,39.85959],[-4.02132,39.85986],[-4.02115,39.85987],[-4.02102,39.8604],[-4.02111,39.86072],[-4.02172,39.86119],[-4.02199,39.86129],[-4.02347,39.86121],[-4.02325,39.86136],[-4.02201,39.86145],[-4.02015,39.86133],[-4.01882,39.86102],[-4.01813,39.86052],[-4.01808,39.86028],[-4.01742,39.86039]]]}},{"type":"Feature","properties":{"id":"4516801002"},"geometry":{"type":"Polygon","coordinates":[[[-4.02239,39.8592],[-4.02319,39.85923],[-4.0233,39.85937],[-4.02368,39.85947],[-4.02455,39.8595],[-4.0248,39.85962],[-4.02466,39.85966],[-4.02477,39.85992],[-4.0243,39.86047],[-4.02449,39.86088],[-4.02403,39.861],[-4.02418,39.86114],[-4.02199,39.86129],[-4.02172,39.86119],[-4.02111,39.86072],[-4.02102,39.8604],[-4.02115,39.85987],[-4.02132,39.85986],[-4.02179,39.85946],[-4.02239,39.8592]]]}},{"type":"Feature","properties":{"id":"4516802001"},"geometry":{"type":"Polygon","coordinates":[[[-4.02354,39.85823],[-4.02268,39.85811],[-4.02269,39.85791],[-4.02196,39.85784],[-4.02182,39.8571],[-4.02119,39.85663],[-4.02152,39.8566],[-4.0216,39.85642],[-4.02226,39.85651],[-4.02269,39.85691],[-4.02277,39.85688],[-4.02248,39.85591],[-4.02284,39.85581],[-4.02285,39.85566],[-4.02313,39.8556],[-4.02404,39.85565],[-4.02474,39.85645],[-4.02453,39.85669],[-4.02449,39.85786],[-4.02407,39.85788],[-4.02354,39.85823]]]}},{"type":"Feature","properties":{"id":"4516802002"},"geometry":{"type":"Polygon","coordinates":[[[-4.02246,39.85158],[-4.02318,39.85149],[-4.02464,39.85157],[-4.02382,39.85274],[-4.02352,39.85271],[-4.02352,39.85289],[-4.02314,39.85308],[-4.02351,39.85349],[-4.02367,39.85425],[-4.02385,39.85447],[-4.02377,39.85458],[-4.02391,39.85465],[-4.02394,39.85495],[-4.02443,39.8558],[-4.02431,39.85589],[-4.02404,39.85565],[-4.02313,39.8556],[-4.02285,39.85566],[-4.02284,39.85581],[-4.02248,39.85591],[-4.0226,39.85537],[-4.02211,39.85344],[-4.02227,39.85329],[-4.02261,39.85229],[-4.02246,39.85158]]]}},{"type":"Feature","properties":{"id":"4516802003"},"geometry":{"type":"Polygon","coordinates":[[[-4.0216,39.85642],[-4.02149,39.85618],[-4.02062,39.85616],[-4.02071,39.85573],[-4.02056,39.85478],[-4.02095,39.85485],[-4.02093,39.85476],[-4.02067,39.85461],[-4.02028,39.85462],[-4.02035,39.854],[-4.01977,39.85338],[-4.02082,39.85222],[-4.02186,39.85166],[-4.02246,39.85158],[-4.02261,39.85229],[-4.02227,39.85329],[-4.02211,39.85344],[-4.0226,39.85537],[-4.02248,39.85611],[-4.02277,39.85688],[-4.02269,39.85691],[-4.02226,39.85651],[-4.0216,39.85642]]]}},{"type":"Feature","properties":{"id":"4516803001"},"geometry":{"type":"Polygon","coordinates":[[[-4.02474,39.85645],[-4.02431,39.85589],[-4.02443,39.8558],[-4.02394,39.85495],[-4.02391,39.85465],[-4.02377,39.85458],[-4.02385,39.85447],[-4.02367,39.85425],[-4.02351,39.85349],[-4.02314,39.85308],[-4.02352,39.85289],[-4.02352,39.85271],[-4.02382,39.85274],[-4.02464,39.85157],[-4.02606,39.85176],[-4.02598,39.85351],[-4.02649,39.85343],[-4.0264,39.8537],[-4.02663,39.85374],[-4.02668,39.85387],[-4.02664,39.85493],[-4.02628,39.855],[-4.02651,39.8552],[-4.02664,39.85521],[-4.02692,39.85563],[-4.0268,39.85577],[-4.02688,39.85638],[-4.02679,39.85645],[-4.02697,39.85671],[-4.02678,39.85677],[-4.0262,39.85651],[-4.02583,39.8565],[-4.02571,39.85625],[-4.0256,39.85635],[-4.02502,39.85631],[-4.02474,39.85645]]]}},{"type":"Feature","properties":{"id":"4516803002"},"geometry":{"type":"Polygon","coordinates":[[[-4.02717,39.85682],[-4.02679,39.85645],[-4.02688,39.85638],[-4.0268,39.85577],[-4.02692,39.85563],[-4.02664,39.85521],[-4.02651,39.8552],[-4.02628,39.855],[-4.02664,39.85493],[-4.02668,39.85387],[-4.02663,39.85374],[-4.0264,39.8537],[-4.02649,39.85343],[-4.02598,39.85351],[-4.02606,39.85176],[-4.02664,39.85188],[-4.02821,39.85174],[-4.02891,39.85184],[-4.03012,39.85239],[-4.03029,39.85413],[-4.03113,39.85494],[-4.0302,39.85569],[-4.02851,39.85659],[-4.02823,39.85697],[-4.02717,39.85682]]]}},{"type":"Feature","properties":{"id":"4516803003"},"geometry":{"type":"Polygon","coordinates":[[[-4.02921,39.85823],[-4.02956,39.85807],[-4.0298,39.85776],[-4.02955,39.85749],[-4.02909,39.85736],[-4.02879,39.85712],[-4.02819,39.85698],[-4.02851,39.85659],[-4.0302,39.85569],[-4.03113,39.85494],[-4.03164,39.85533],[-4.03356,39.85603],[-4.03429,39.85654],[-4.03409,39.85671],[-4.03476,39.85721],[-4.03532,39.85799],[-4.03587,39.8585],[-4.03417,39.85918],[-4.03389,39.85898],[-4.03289,39.85919],[-4.03231,39.8595],[-4.03211,39.85932],[-4.0322,39.85922],[-4.03212,39.85913],[-4.0313,39.85943],[-4.03014,39.85927],[-4.02972,39.85883],[-4.02996,39.85849],[-4.02921,39.85823]]]}},{"type":"Feature","properties":{"id":"4516804001"},"geometry":{"type":"Polygon","coordinates":[[[-4.02449,39.85786],[-4.02453,39.85669],[-4.02502,39.85631],[-4.0256,39.85635],[-4.02571,39.85625],[-4.02583,39.8565],[-4.0262,39.85651],[-4.02678,39.85677],[-4.02697,39.85671],[-4.02717,39.85682],[-4.02879,39.85712],[-4.02909,39.85736],[-4.02955,39.85749],[-4.0298,39.85776],[-4.02941,39.85815],[-4.02875,39.85795],[-4.02858,39.8582],[-4.02865,39.85831],[-4.02842,39.85835],[-4.02802,39.85805],[-4.02715,39.85856],[-4.0266,39.85844],[-4.02604,39.858],[-4.02561,39.85791],[-4.0249,39.85829],[-4.02449,39.85786]]]}},{"type":"Feature","properties":{"id":"4516804002"},"geometry":{"type":"Polygon","coordinates":[[[-4.02418,39.86114],[-4.02403,39.861],[-4.02449,39.86088],[-4.0243,39.86047],[-4.02477,39.85992],[-4.02466,39.85966],[-4.0248,39.85962],[-4.02455,39.8595],[-4.02368,39.85947],[-4.0233,39.85937],[-4.02319,39.85923],[-4.02239,39.8592],[-4.02291,39.85883],[-4.02343,39.85822],[-4.02354,39.85823],[-4.02407,39.85788],[-4.02449,39.85786],[-4.0249,39.85829],[-4.02561,39.85791],[-4.02604,39.858],[-4.0266,39.85844],[-4.0272,39.85861],[-4.02734,39.85884],[-4.02677,39.85907],[-4.0264,39.8591],[-4.02687,39.85956],[-4.0277,39.86014],[-4.02842,39.86027],[-4.02862,39.86075],[-4.0286,39.86133],[-4.02894,39.86174],[-4.02765,39.86217],[-4.02761,39.86242],[-4.02724,39.86232],[-4.02707,39.86246],[-4.02533,39.86279],[-4.02552,39.86232],[-4.02519,39.86208],[-4.02526,39.8618],[-4.02518,39.86153],[-4.02503,39.86132],[-4.02467,39.86116],[-4.02418,39.86114]]]}},{"type":"Feature","properties":{"id":"4516804004"},"geometry":{"type":"Polygon","coordinates":[[[-4.02715,39.85856],[-4.02802,39.85805],[-4.02842,39.85835],[-4.02865,39.85831],[-4.02858,39.8582],[-4.02875,39.85795],[-4.02928,39.85815],[-4.02921,39.85823],[-4.02996,39.85849],[-4.02972,39.85883],[-4.03014,39.85927],[-4.0313,39.85943],[-4.03212,39.85913],[-4.0322,39.85922],[-4.03211,39.85932],[-4.03231,39.8595],[-4.02894,39.86174],[-4.0286,39.86133],[-4.02862,39.86075],[-4.02842,39.86027],[-4.0277,39.86014],[-4.02687,39.85956],[-4.0264,39.8591],[-4.02677,39.85907],[-4.02734,39.85884],[-4.02715,39.85856]]]}},{"type":"Feature","properties":{"id":"4516805001"},"geometry":{"type":"Polygon","coordinates":[[[-4.02483,39.86315],[-4.02511,39.86308],[-4.02533,39.86279],[-4.02707,39.86246],[-4.02706,39.8626],[-4.02692,39.86257],[-4.02563,39.86514],[-4.02649,39.86701],[-4.02683,39.86727],[-4.02762,39.86759],[-4.02439,39.86874],[-4.02386,39.86882],[-4.02146,39.8689],[-4.02162,39.86846],[-4.0226,39.86713],[-4.02297,39.86621],[-4.02371,39.86527],[-4.02483,39.86315]]]}},{"type":"Feature","properties":{"id":"4516805002"},"geometry":{"type":"Polygon","coordinates":[[[-4.0286,39.86799],[-4.02683,39.86727],[-4.02649,39.86701],[-4.02563,39.86514],[-4.02692,39.86257],[-4.02706,39.8626],[-4.02711,39.86239],[-4.0274,39.86231],[-4.02761,39.86242],[-4.02761,39.86259],[-4.02748,39.86269],[-4.02697,39.86365],[-4.02709,39.86391],[-4.02702,39.86393],[-4.0286,39.86799]]]}},{"type":"Feature","properties":{"id":"4516805003"},"geometry":{"type":"Polygon","coordinates":[[[-4.0286,39.86799],[-4.02702,39.86393],[-4.02709,39.86391],[-4.02697,39.86365],[-4.02756,39.86266],[-4.02763,39.86306],[-4.02942,39.86779],[-4.02951,39.86837],[-4.0286,39.86799]]]}},{"type":"Feature","properties":{"id":"4516805004"},"geometry":{"type":"Polygon","coordinates":[[[-4.02756,39.86266],[-4.02765,39.86217],[-4.02903,39.8617],[-4.03253,39.85935],[-4.03309,39.85913],[-4.03389,39.85898],[-4.03417,39.85918],[-4.03575,39.85855],[-4.03626,39.86028],[-4.03627,39.86069],[-4.03704,39.86158],[-4.0364,39.86209],[-4.03658,39.86223],[-4.03581,39.86288],[-4.03487,39.86333],[-4.03586,39.86522],[-4.03279,39.86675],[-4.03282,39.86685],[-4.02937,39.86764],[-4.02763,39.86306],[-4.02756,39.86266]]]}},{"type":"Feature","properties":{"id":"4516805005"},"geometry":{"type":"Polygon","coordinates":[[[-4.03944,39.8724],[-4.02951,39.86837],[-4.0295,39.86803],[-4.03144,39.86878],[-4.03179,39.86837],[-4.03407,39.86939],[-4.03417,39.8693],[-4.03391,39.86918],[-4.03279,39.86675],[-4.03586,39.86522],[-4.03487,39.86333],[-4.03581,39.86288],[-4.03658,39.86223],[-4.0364,39.86209],[-4.03704,39.86158],[-4.03828,39.86245],[-4.03958,39.86247],[-4.04046,39.86263],[-4.04244,39.86337],[-4.04468,39.86516],[-4.04523,39.86662],[-4.04526,39.86942],[-4.04501,39.871],[-4.04408,39.874],[-4.04408,39.87495],[-4.04452,39.87562],[-4.04383,39.876],[-4.042,39.87458],[-4.04014,39.87278],[-4.03944,39.8724]]]}},{"type":"Feature","properties":{"id":"4516805006"},"geometry":{"type":"Polygon","coordinates":[[[-4.03528,39.87244],[-4.03539,39.87228],[-4.03363,39.87158],[-4.03345,39.87152],[-4.03335,39.87168],[-4.03035,39.87048],[-4.0302,39.87068],[-4.02961,39.87043],[-4.02938,39.86986],[-4.02951,39.86837],[-4.03638,39.87117],[-4.03545,39.87251],[-4.03528,39.87244]]]}},{"type":"Feature","properties":{"id":"4516805007"},"geometry":{"type":"Polygon","coordinates":[[[-4.02961,39.87043],[-4.0302,39.87068],[-4.03035,39.87048],[-4.03335,39.87168],[-4.03345,39.87152],[-4.03539,39.87228],[-4.03378,39.87464],[-4.03337,39.87449],[-4.034,39.87371],[-4.03351,39.87288],[-4.03031,39.8715],[-4.0299,39.87105],[-4.02961,39.87043]]]}},{"type":"Feature","properties":{"id":"4516805008"},"geometry":{"type":"Polygon","coordinates":[[[-4.03545,39.87251],[-4.03638,39.87117],[-4.03944,39.8724],[-4.03889,39.87271],[-4.03827,39.8736],[-4.03545,39.87251]]]}},{"type":"Feature","properties":{"id":"4516805009"},"geometry":{"type":"Polygon","coordinates":[[[-4.0347,39.8733],[-4.03528,39.87244],[-4.03827,39.8736],[-4.03787,39.87408],[-4.03734,39.87438],[-4.0347,39.8733]]]}},{"type":"Feature","properties":{"id":"4516805010"},"geometry":{"type":"Polygon","coordinates":[[[-4.05708,39.87637],[-4.05544,39.87624],[-4.05478,39.87645],[-4.05398,39.8764],[-4.05164,39.87689],[-4.05037,39.87701],[-4.04566,39.87622],[-4.04463,39.87579],[-4.04408,39.87495],[-4.04408,39.874],[-4.04501,39.871],[-4.04526,39.86942],[-4.04523,39.86662],[-4.04468,39.86516],[-4.04244,39.86337],[-4.04046,39.86263],[-4.03958,39.86247],[-4.03828,39.86245],[-4.03784,39.86221],[-4.03674,39.86132],[-4.03627,39.86069],[-4.03626,39.86028],[-4.03575,39.85855],[-4.03587,39.8585],[-4.03532,39.85799],[-4.03476,39.85721],[-4.03409,39.85671],[-4.03429,39.85654],[-4.03356,39.85603],[-4.03164,39.85533],[-4.03081,39.85468],[-4.03029,39.85413],[-4.03012,39.85239],[-4.02891,39.85184],[-4.02821,39.85174],[-4.02664,39.85188],[-4.02465,39.85157],[-4.02318,39.85149],[-4.02186,39.85166],[-4.02082,39.85222],[-4.02034,39.85275],[-4.01999,39.85252],[-4.02012,39.8518],[-4.01948,39.85211],[-4.01972,39.85174],[-4.01914,39.85201],[-4.01871,39.85197],[-4.01907,39.85185],[-4.01928,39.85161],[-4.01887,39.85164],[-4.01877,39.85158],[-4.0195,39.85136],[-4.02022,39.851],[-4.02111,39.8499],[-4.02128,39.84987],[-4.02224,39.85005],[-4.02416,39.84961],[-4.02433,39.84949],[-4.02443,39.84897],[-4.02465,39.84871],[-4.02496,39.84855],[-4.0257,39.84838],[-4.02628,39.848],[-4.02544,39.84703],[-4.02463,39.84674],[-4.02303,39.8456],[-4.02083,39.84446],[-4.01937,39.84289],[-4.01905,39.84193],[-4.01903,39.84059],[-4.0195,39.83618],[-4.0194,39.83384],[-4.01906,39.83237],[-4.01798,39.82931],[-4.01793,39.82871],[-4.01998,39.82674],[-4.02104,39.82549],[-4.02184,39.82417],[-4.0229,39.82338],[-4.02504,39.82217],[-4.02628,39.82097],[-4.02856,39.81965],[-4.02917,39.81916],[-4.02953,39.8186],[-4.03133,39.81863],[-4.03264,39.81853],[-4.0336,39.81834],[-4.03453,39.81986],[-4.03571,39.81975],[-4.03712,39.8207],[-4.03854,39.81984],[-4.04128,39.81851],[-4.04268,39.81745],[-4.0462,39.81683],[-4.04888,39.82284],[-4.05033,39.82496],[-4.05099,39.82576],[-4.0518,39.82636],[-4.05275,39.826],[-4.05378,39.82541],[-4.05653,39.82336],[-4.05721,39.82302],[-4.05865,39.82381],[-4.05937,39.82393],[-4.06111,39.82394],[-4.06281,39.82479],[-4.06354,39.82458],[-4.06438,39.82486],[-4.06673,39.82422],[-4.06716,39.82545],[-4.06732,39.82628],[-4.07065,39.82623],[-4.07502,39.82289],[-4.07995,39.81989],[-4.07877,39.81902],[-4.08088,39.8171],[-4.08154,39.81667],[-4.082,39.81659],[-4.08243,39.81663],[-4.08552,39.8174],[-4.08637,39.81772],[-4.08684,39.81772],[-4.08826,39.81735],[-4.09186,39.81805],[-4.09213,39.8185],[-4.09271,39.81907],[-4.09359,39.81965],[-4.09441,39.81987],[-4.09608,39.81998],[-4.09611,39.82016],[-4.09572,39.8217],[-4.0956,39.82307],[-4.09511,39.82517],[-4.09505,39.82627],[-4.09536,39.82701],[-4.09576,39.82748],[-4.09607,39.82751],[-4.09647,39.8274],[-4.09702,39.82711],[-4.09762,39.82694],[-4.09823,39.82693],[-4.10137,39.82655],[-4.10172,39.82673],[-4.10198,39.8271],[-4.10217,39.82798],[-4.10273,39.82869],[-4.10343,39.8292],[-4.10414,39.82953],[-4.10492,39.82973],[-4.10557,39.82976],[-4.10575,39.82964],[-4.10626,39.82862],[-4.10661,39.8283],[-4.10725,39.8282],[-4.10752,39.82833],[-4.10774,39.82873],[-4.10768,39.82903],[-4.10724,39.82988],[-4.10717,39.83111],[-4.108,39.83267],[-4.10781,39.83409],[-4.10736,39.83541],[-4.10695,39.83577],[-4.10588,39.83619],[-4.10426,39.83647],[-4.10441,39.83731],[-4.10737,39.83726],[-4.10915,39.83756],[-4.10962,39.83776],[-4.11005,39.83808],[-4.11042,39.83874],[-4.10988,39.83981],[-4.10994,39.84004],[-4.11049,39.84032],[-4.11383,39.84144],[-4.11417,39.84265],[-4.1145,39.8431],[-4.12007,39.83672],[-4.12377,39.83497],[-4.12609,39.83266],[-4.12693,39.83206],[-4.12856,39.83017],[-4.12973,39.82897],[-4.13084,39.82806],[-4.13651,39.82767],[-4.13884,39.83057],[-4.13958,39.83127],[-4.14007,39.83154],[-4.14567,39.83141],[-4.14889,39.83294],[-4.14922,39.83351],[-4.14991,39.83406],[-4.15263,39.83492],[-4.15416,39.83681],[-4.15455,39.8392],[-4.15467,39.8407],[-4.15802,39.84005],[-4.16228,39.83937],[-4.16323,39.839],[-4.16589,39.83836],[-4.16728,39.83816],[-4.17123,39.83785],[-4.17287,39.83986],[-4.17427,39.84037],[-4.17778,39.84031],[-4.17888,39.84416],[-4.17906,39.84753],[-4.17776,39.8494],[-4.17701,39.85099],[-4.17328,39.86117],[-4.1701,39.86175],[-4.16666,39.86289],[-4.16433,39.8639],[-4.1617,39.86744],[-4.1564,39.87001],[-4.1557,39.87105],[-4.15366,39.86995],[-4.15233,39.86895],[-4.1487,39.86564],[-4.14796,39.86486],[-4.14487,39.8642],[-4.14,39.86353],[-4.13028,39.86431],[-4.12871,39.86635],[-4.12825,39.8667],[-4.12453,39.86781],[-4.12247,39.86889],[-4.12178,39.86844],[-4.11967,39.86768],[-4.11725,39.8672],[-4.11508,39.86697],[-4.11319,39.86706],[-4.11083,39.86698],[-4.10897,39.86658],[-4.10649,39.8663],[-4.1037,39.86649],[-4.10142,39.86684],[-4.09846,39.86791],[-4.09523,39.86869],[-4.09223,39.86903],[-4.09028,39.86876],[-4.08907,39.86808],[-4.08746,39.86686],[-4.08634,39.86617],[-4.0838,39.86542],[-4.07843,39.86446],[-4.07648,39.86431],[-4.07583,39.86456],[-4.07509,39.86502],[-4.07398,39.86658],[-4.0712,39.87192],[-4.06928,39.87404],[-4.06849,39.87472],[-4.06676,39.87581],[-4.06636,39.87618],[-4.06583,39.87692],[-4.06504,39.87717],[-4.06367,39.8772],[-4.05852,39.87642],[-4.05708,39.87637]]]}},{"type":"Feature","properties":{"id":"4516805011"},"geometry":{"type":"Polygon","coordinates":[[[-4.02074,39.90808],[-4.02055,39.90769],[-4.01992,39.90767],[-4.01967,39.90801],[-4.01945,39.90812],[-4.0186,39.90826],[-4.01802,39.90821],[-4.0178,39.90781],[-4.01674,39.90769],[-4.01469,39.90728],[-4.01358,39.90825],[-4.01329,39.90864],[-4.01367,39.90958],[-4.01337,39.9099],[-4.01191,39.90939],[-4.01206,39.90906],[-4.01139,39.90882],[-4.01123,39.90856],[-4.01371,39.90476],[-4.01647,39.89837],[-4.01682,39.89657],[-4.0197,39.8881],[-4.01985,39.88709],[-4.01971,39.88338],[-4.01985,39.882],[-4.02058,39.87921],[-4.02124,39.87979],[-4.0218,39.88051],[-4.02241,39.88138],[-4.02256,39.88189],[-4.02267,39.88186],[-4.02351,39.88261],[-4.02474,39.88334],[-4.02573,39.88368],[-4.02588,39.8835],[-4.0273,39.88403],[-4.02903,39.88438],[-4.03109,39.88437],[-4.03346,39.88405],[-4.03361,39.88401],[-4.03344,39.88154],[-4.03877,39.87761],[-4.0391,39.87799],[-4.03982,39.87617],[-4.04052,39.87578],[-4.04083,39.87538],[-4.04127,39.87634],[-4.04022,39.87728],[-4.03978,39.87845],[-4.03935,39.88053],[-4.03869,39.88167],[-4.03728,39.88279],[-4.03697,39.88474],[-4.03822,39.88703],[-4.04398,39.88695],[-4.04398,39.88704],[-4.05359,39.88744],[-4.05313,39.88907],[-4.05287,39.89183],[-4.05212,39.8946],[-4.05094,39.89746],[-4.04856,39.9018],[-4.0489,39.90232],[-4.0483,39.90395],[-4.04735,39.90571],[-4.04681,39.90623],[-4.04686,39.90665],[-4.04624,39.90737],[-4.04621,39.90773],[-4.04562,39.90819],[-4.04573,39.90981],[-4.04512,39.91124],[-4.04454,39.91167],[-4.04442,39.91219],[-4.04334,39.91208],[-4.04171,39.90924],[-4.03996,39.90976],[-4.03226,39.90702],[-4.03201,39.90888],[-4.02884,39.90759],[-4.02887,39.90656],[-4.02525,39.90653],[-4.02303,39.90635],[-4.02274,39.90777],[-4.02074,39.90808]]]}},{"type":"Feature","properties":{"id":"4516805012"},"geometry":{"type":"Polygon","coordinates":[[[-4.03232,39.87716],[-4.0341,39.87605],[-4.03545,39.87534],[-4.03609,39.87605],[-4.0357,39.87707],[-4.03545,39.87737],[-4.03346,39.87862],[-4.03268,39.87928],[-4.03231,39.87945],[-4.032,39.87905],[-4.03188,39.87864],[-4.0319,39.87812],[-4.03248,39.87748],[-4.03232,39.87716]]]}},{"type":"Feature","properties":{"id":"4516805014"},"geometry":{"type":"Polygon","coordinates":[[[-4.03347,39.8799],[-4.03282,39.87975],[-4.03231,39.87945],[-4.03268,39.87928],[-4.03346,39.87862],[-4.03545,39.87737],[-4.0357,39.87707],[-4.036,39.87609],[-4.0362,39.87615],[-4.03719,39.87749],[-4.03466,39.87964],[-4.03409,39.87986],[-4.03347,39.8799]]]}},{"type":"Feature","properties":{"id":"4516805015"},"geometry":{"type":"Polygon","coordinates":[[[-4.15956,39.91284],[-4.15776,39.90911],[-4.15803,39.90784],[-4.15693,39.907],[-4.15487,39.90783],[-4.15422,39.90795],[-4.1505,39.90828],[-4.1466,39.90838],[-4.14532,39.90858],[-4.14272,39.90869],[-4.13885,39.90847],[-4.13265,39.90856],[-4.12904,39.90936],[-4.12692,39.90992],[-4.12372,39.91015],[-4.12217,39.91015],[-4.12132,39.91027],[-4.11973,39.9102],[-4.11835,39.91006],[-4.11249,39.9088],[-4.10911,39.90788],[-4.10242,39.90753],[-4.09921,39.90835],[-4.09592,39.90825],[-4.09606,39.90427],[-4.09401,39.90319],[-4.08955,39.90362],[-4.08826,39.90697],[-4.08683,39.91],[-4.08529,39.91143],[-4.0854,39.91225],[-4.08469,39.91099],[-4.08431,39.91061],[-4.08233,39.90997],[-4.08136,39.90893],[-4.08083,39.90858],[-4.07835,39.908],[-4.07754,39.90768],[-4.07072,39.90236],[-4.07016,39.90206],[-4.06951,39.9019],[-4.06907,39.9015],[-4.06855,39.90065],[-4.06672,39.89958],[-4.06646,39.89931],[-4.06617,39.89826],[-4.06541,39.89781],[-4.06473,39.89767],[-4.06433,39.89738],[-4.06281,39.89508],[-4.06216,39.89443],[-4.061,39.89354],[-4.06045,39.8927],[-4.0603,39.89228],[-4.05975,39.89171],[-4.05953,39.89152],[-4.05875,39.89129],[-4.05817,39.89087],[-4.0567,39.88798],[-4.05534,39.88659],[-4.05203,39.88177],[-4.04802,39.87928],[-4.04383,39.876],[-4.04452,39.87562],[-4.04463,39.87579],[-4.04566,39.87622],[-4.05037,39.87701],[-4.05164,39.87689],[-4.05398,39.8764],[-4.05478,39.87645],[-4.05544,39.87624],[-4.05852,39.87642],[-4.06367,39.8772],[-4.06504,39.87717],[-4.06583,39.87692],[-4.06636,39.87618],[-4.06676,39.87581],[-4.06849,39.87472],[-4.06928,39.87404],[-4.0712,39.87192],[-4.07398,39.86658],[-4.07509,39.86502],[-4.07583,39.86456],[-4.07648,39.86431],[-4.07843,39.86446],[-4.0838,39.86542],[-4.08634,39.86617],[-4.08746,39.86686],[-4.08907,39.86808],[-4.09028,39.86876],[-4.09223,39.86903],[-4.09523,39.86869],[-4.09846,39.86791],[-4.10142,39.86684],[-4.1037,39.86649],[-4.10649,39.8663],[-4.10897,39.86658],[-4.11083,39.86698],[-4.11319,39.86706],[-4.11508,39.86697],[-4.11725,39.8672],[-4.11967,39.86768],[-4.12178,39.86844],[-4.12247,39.86889],[-4.122,39.86914],[-4.12303,39.87019],[-4.12485,39.87297],[-4.12608,39.87445],[-4.1272,39.87512],[-4.12833,39.87559],[-4.12985,39.87602],[-4.13069,39.87662],[-4.13241,39.87819],[-4.13297,39.87883],[-4.13366,39.88035],[-4.13388,39.88141],[-4.13419,39.88192],[-4.1346,39.88334],[-4.13461,39.88405],[-4.13476,39.88471],[-4.13546,39.88605],[-4.1368,39.88699],[-4.13814,39.88742],[-4.14015,39.8873],[-4.14239,39.88694],[-4.14666,39.88581],[-4.14754,39.88564],[-4.15094,39.88527],[-4.1519,39.88485],[-4.15259,39.88441],[-4.15343,39.88356],[-4.15374,39.88256],[-4.15248,39.87952],[-4.15273,39.87888],[-4.15336,39.87807],[-4.15435,39.87757],[-4.1554,39.87751],[-4.16202,39.87879],[-4.16569,39.88096],[-4.16895,39.88257],[-4.16857,39.8827],[-4.16798,39.88329],[-4.16697,39.8852],[-4.16693,39.8857],[-4.16718,39.88655],[-4.16742,39.88706],[-4.16893,39.88902],[-4.16923,39.88971],[-4.16989,39.89048],[-4.17039,39.89069],[-4.17217,39.89079],[-4.17192,39.89166],[-4.16762,39.89359],[-4.1681,39.8974],[-4.1669,39.89848],[-4.16331,39.89985],[-4.16261,39.90437],[-4.16718,39.90399],[-4.17545,39.90434],[-4.17563,39.90569],[-4.17633,39.90685],[-4.17667,39.90725],[-4.17888,39.9082],[-4.17905,39.90868],[-4.17861,39.91001],[-4.17778,39.91091],[-4.17732,39.91134],[-4.17523,39.91238],[-4.1738,39.91231],[-4.17244,39.912],[-4.17078,39.91182],[-4.16941,39.91133],[-4.16753,39.91086],[-4.16649,39.91092],[-4.16575,39.91106],[-4.16475,39.91143],[-4.16265,39.9129],[-4.16158,39.91301],[-4.15956,39.91284]]]}},{"type":"Feature","properties":{"id":"4516805016"},"geometry":{"type":"Polygon","coordinates":[[[-4.02089,39.87292],[-4.02102,39.86984],[-4.02146,39.8689],[-4.02386,39.86882],[-4.02439,39.86874],[-4.02556,39.86832],[-4.02714,39.87048],[-4.02489,39.87136],[-4.02502,39.87151],[-4.02347,39.87224],[-4.02271,39.87172],[-4.02228,39.87176],[-4.02206,39.87295],[-4.02089,39.87292]]]}},{"type":"Feature","properties":{"id":"4516805017"},"geometry":{"type":"Polygon","coordinates":[[[-4.03378,39.87464],[-4.0347,39.8733],[-4.03734,39.87438],[-4.03537,39.87539],[-4.03378,39.87464]]]}},{"type":"Feature","properties":{"id":"4516805018"},"geometry":{"type":"Polygon","coordinates":[[[-4.036,39.87609],[-4.03609,39.87605],[-4.03545,39.87534],[-4.03778,39.87414],[-4.03831,39.87354],[-4.03981,39.87436],[-4.04058,39.87486],[-4.04082,39.87515],[-4.04078,39.87551],[-4.04035,39.87589],[-4.0399,39.87614],[-4.03813,39.8768],[-4.03719,39.87749],[-4.0363,39.87622],[-4.036,39.87609]]]}},{"type":"Feature","properties":{"id":"4516805019"},"geometry":{"type":"Polygon","coordinates":[[[-4.03719,39.87749],[-4.03773,39.87704],[-4.03847,39.87662],[-4.03982,39.87617],[-4.0391,39.87799],[-4.03877,39.87761],[-4.03791,39.87826],[-4.03719,39.87749]]]}},{"type":"Feature","properties":{"id":"4516805020"},"geometry":{"type":"Polygon","coordinates":[[[-4.03202,39.87718],[-4.02556,39.86832],[-4.02762,39.86759],[-4.02951,39.86837],[-4.02938,39.86986],[-4.0298,39.87091],[-4.03031,39.8715],[-4.03351,39.87288],[-4.034,39.87371],[-4.03337,39.87449],[-4.03537,39.87539],[-4.0341,39.87605],[-4.03232,39.87716],[-4.03202,39.87718]]]}},{"type":"Feature","properties":{"id":"4516805021"},"geometry":{"type":"Polygon","coordinates":[[[-4.02348,39.87224],[-4.02502,39.87151],[-4.02489,39.87136],[-4.02714,39.87048],[-4.02839,39.87219],[-4.02588,39.87324],[-4.02557,39.87327],[-4.02409,39.87318],[-4.02399,39.8727],[-4.02348,39.87224]]]}},{"type":"Feature","properties":{"id":"4516805022"},"geometry":{"type":"Polygon","coordinates":[[[-4.03323,39.8807],[-4.03331,39.88014],[-4.03347,39.8799],[-4.03409,39.87986],[-4.03466,39.87964],[-4.03719,39.87749],[-4.03791,39.87826],[-4.03409,39.88112],[-4.03323,39.8807]]]}},{"type":"Feature","properties":{"id":"4516805023"},"geometry":{"type":"Polygon","coordinates":[[[-4.02716,39.88206],[-4.02886,39.88032],[-4.03087,39.87875],[-4.03197,39.87722],[-4.03217,39.87713],[-4.03236,39.87718],[-4.03248,39.87748],[-4.0319,39.87812],[-4.03191,39.87876],[-4.03214,39.87928],[-4.03241,39.87952],[-4.03289,39.87977],[-4.03347,39.8799],[-4.03331,39.88014],[-4.03323,39.8807],[-4.03181,39.88185],[-4.03103,39.88225],[-4.03008,39.88246],[-4.02911,39.88252],[-4.02812,39.8824],[-4.02716,39.88206]]]}},{"type":"Feature","properties":{"id":"4516805024"},"geometry":{"type":"Polygon","coordinates":[[[-4.02058,39.87921],[-4.02075,39.87738],[-4.02089,39.87292],[-4.02206,39.87295],[-4.02228,39.87176],[-4.02271,39.87172],[-4.02371,39.87237],[-4.02399,39.8727],[-4.02409,39.87318],[-4.02588,39.87324],[-4.02839,39.87219],[-4.03202,39.87718],[-4.03087,39.87875],[-4.02886,39.88032],[-4.02716,39.88206],[-4.02705,39.88208],[-4.02573,39.88368],[-4.02474,39.88334],[-4.02351,39.88261],[-4.02267,39.88186],[-4.02256,39.88189],[-4.02241,39.88138],[-4.0218,39.88051],[-4.02124,39.87979],[-4.02058,39.87921]]]}},{"type":"Feature","properties":{"id":"4516805025"},"geometry":{"type":"Polygon","coordinates":[[[-4.04127,39.87634],[-4.04078,39.87507],[-4.04058,39.87486],[-4.03831,39.87354],[-4.03889,39.87271],[-4.03944,39.8724],[-4.04014,39.87278],[-4.042,39.87458],[-4.04802,39.87928],[-4.05203,39.88177],[-4.05352,39.8839],[-4.05353,39.88451],[-4.05334,39.88509],[-4.0536,39.88692],[-4.05351,39.88744],[-4.04398,39.88704],[-4.04398,39.88695],[-4.03822,39.88703],[-4.03697,39.88474],[-4.03728,39.88279],[-4.03869,39.88167],[-4.03935,39.88053],[-4.03978,39.87845],[-4.04022,39.87728],[-4.04127,39.87634]]]}},{"type":"Feature","properties":{"id":"4516805026"},"geometry":{"type":"Polygon","coordinates":[[[-4.0295,39.86803],[-4.02937,39.86764],[-4.03282,39.86685],[-4.03391,39.86918],[-4.03417,39.8693],[-4.03407,39.86939],[-4.03179,39.86837],[-4.03144,39.86878],[-4.0295,39.86803]]]}},{"type":"Feature","properties":{"id":"4516805027"},"geometry":{"type":"Polygon","coordinates":[[[-4.05212,39.89459],[-4.05287,39.89183],[-4.05313,39.88907],[-4.05359,39.88744],[-4.05351,39.88744],[-4.0536,39.88692],[-4.05334,39.88509],[-4.05353,39.88451],[-4.05352,39.8839],[-4.05543,39.8867],[-4.0567,39.88798],[-4.05817,39.89087],[-4.05875,39.89129],[-4.05953,39.89152],[-4.05975,39.89171],[-4.0603,39.89228],[-4.06045,39.8927],[-4.061,39.89354],[-4.06216,39.89443],[-4.06281,39.89508],[-4.06433,39.89738],[-4.06456,39.89755],[-4.06339,39.89811],[-4.06142,39.89859],[-4.06102,39.89846],[-4.06005,39.89833],[-4.05983,39.89841],[-4.05926,39.89832],[-4.05901,39.89825],[-4.05913,39.89765],[-4.05759,39.89734],[-4.05703,39.8963],[-4.05648,39.89596],[-4.05513,39.89546],[-4.05212,39.89459]]]}},{"type":"Feature","properties":{"id":"4516805028"},"geometry":{"type":"Polygon","coordinates":[[[-4.02588,39.8835],[-4.02705,39.88208],[-4.02812,39.8824],[-4.02911,39.88252],[-4.03008,39.88246],[-4.03103,39.88225],[-4.03181,39.88185],[-4.03322,39.88069],[-4.03409,39.88112],[-4.03344,39.88154],[-4.03361,39.88401],[-4.03109,39.88437],[-4.02903,39.88438],[-4.0273,39.88403],[-4.02588,39.8835]]]}},{"type":"Feature","properties":{"id":"4516805029"},"geometry":{"type":"Polygon","coordinates":[[[-4.05212,39.89459],[-4.05513,39.89546],[-4.05648,39.89596],[-4.05703,39.8963],[-4.05759,39.89734],[-4.05913,39.89765],[-4.05901,39.89825],[-4.05926,39.89832],[-4.05983,39.89841],[-4.06005,39.89833],[-4.06102,39.89846],[-4.06142,39.89859],[-4.06339,39.89811],[-4.06456,39.89755],[-4.06473,39.89767],[-4.06541,39.89781],[-4.06586,39.89802],[-4.06617,39.89826],[-4.06646,39.89931],[-4.06672,39.89958],[-4.06855,39.90065],[-4.06907,39.9015],[-4.06951,39.9019],[-4.07016,39.90206],[-4.07072,39.90236],[-4.07754,39.90768],[-4.07835,39.908],[-4.08083,39.90858],[-4.08136,39.90893],[-4.08233,39.90997],[-4.08431,39.91061],[-4.08469,39.91099],[-4.0854,39.91225],[-4.08563,39.91416],[-4.08584,39.91438],[-4.09346,39.91805],[-4.09302,39.91865],[-4.09251,39.9189],[-4.09206,39.91902],[-4.08764,39.91928],[-4.08683,39.91926],[-4.08147,39.91753],[-4.07968,39.92048],[-4.07864,39.92498],[-4.07732,39.92543],[-4.07269,39.92399],[-4.06541,39.92238],[-4.06416,39.92093],[-4.05632,39.92097],[-4.05426,39.92237],[-4.05426,39.92043],[-4.05311,39.91957],[-4.05088,39.91447],[-4.04874,39.91443],[-4.04541,39.91459],[-4.04406,39.91441],[-4.04484,39.91223],[-4.04442,39.91219],[-4.04454,39.91167],[-4.04512,39.91124],[-4.04573,39.90981],[-4.04562,39.90819],[-4.04621,39.90773],[-4.04624,39.90737],[-4.04686,39.90665],[-4.04681,39.90623],[-4.04735,39.90571],[-4.0483,39.90395],[-4.0489,39.90232],[-4.04856,39.9018],[-4.05094,39.89746],[-4.05212,39.89459]]]}},{"type":"Feature","properties":{"id":"4516806001"},"geometry":{"type":"Polygon","coordinates":[[[-4.01743,39.86345],[-4.01771,39.86153],[-4.01758,39.8607],[-4.01742,39.86039],[-4.01808,39.86028],[-4.01813,39.86052],[-4.01882,39.86102],[-4.02015,39.86133],[-4.02201,39.86145],[-4.02325,39.86136],[-4.02347,39.86121],[-4.02456,39.86112],[-4.02503,39.86132],[-4.02526,39.8618],[-4.02519,39.86208],[-4.02552,39.86232],[-4.02533,39.86279],[-4.02504,39.86312],[-4.02476,39.8631],[-4.02479,39.86285],[-4.02379,39.86337],[-4.0227,39.86366],[-4.02202,39.86365],[-4.02153,39.86311],[-4.02141,39.86274],[-4.02036,39.86284],[-4.02049,39.86365],[-4.02021,39.86352],[-4.02007,39.86361],[-4.01743,39.86345]]]}},{"type":"Feature","properties":{"id":"4516806002"},"geometry":{"type":"Polygon","coordinates":[[[-4.01422,39.86798],[-4.01498,39.86723],[-4.0163,39.86621],[-4.01691,39.86496],[-4.01743,39.86345],[-4.02007,39.86361],[-4.02021,39.86352],[-4.02049,39.86365],[-4.02036,39.86284],[-4.02141,39.86274],[-4.02153,39.86311],[-4.02202,39.86365],[-4.0227,39.86366],[-4.02379,39.86337],[-4.02479,39.86285],[-4.02472,39.86301],[-4.02483,39.86315],[-4.02371,39.86527],[-4.023,39.86617],[-4.0226,39.86713],[-4.02161,39.86848],[-4.02102,39.86984],[-4.02088,39.87271],[-4.02003,39.87264],[-4.01989,39.87215],[-4.01915,39.87184],[-4.0185,39.87177],[-4.01797,39.87161],[-4.01772,39.87169],[-4.01726,39.87165],[-4.01665,39.87146],[-4.01636,39.87081],[-4.01643,39.8705],[-4.01585,39.86971],[-4.01575,39.86931],[-4.01488,39.86887],[-4.01485,39.8685],[-4.01422,39.86798]]]}},{"type":"Feature","properties":{"id":"4516806003"},"geometry":{"type":"Polygon","coordinates":[[[-3.94599,39.91707],[-3.94741,39.9131],[-3.94656,39.91149],[-3.94719,39.90619],[-3.95089,39.9021],[-3.94919,39.89969],[-3.9503,39.89885],[-3.94899,39.89772],[-3.94813,39.89613],[-3.94805,39.88844],[-3.94674,39.88689],[-3.94783,39.88568],[-3.94799,39.88561],[-3.94879,39.88536],[-3.95003,39.88552],[-3.95108,39.88578],[-3.95278,39.88717],[-3.95408,39.88776],[-3.956,39.88888],[-3.9601,39.88966],[-3.96136,39.88957],[-3.96293,39.88908],[-3.96358,39.88876],[-3.96426,39.888],[-3.96454,39.88711],[-3.96458,39.88638],[-3.96443,39.88541],[-3.9636,39.88405],[-3.96142,39.88236],[-3.95967,39.88161],[-3.95497,39.88065],[-3.95254,39.88095],[-3.95143,39.88073],[-3.9508,39.88017],[-3.95034,39.87957],[-3.95013,39.87903],[-3.95014,39.87827],[-3.95137,39.87644],[-3.95195,39.87583],[-3.95439,39.87395],[-3.95551,39.87336],[-3.95705,39.87313],[-3.95873,39.87311],[-3.96047,39.87324],[-3.9622,39.87321],[-3.9646,39.87219],[-3.9657,39.87138],[-3.96707,39.87014],[-3.96828,39.86976],[-3.97033,39.86946],[-3.97156,39.8694],[-3.97321,39.86965],[-3.9746,39.87008],[-3.97569,39.87056],[-3.97631,39.87127],[-3.97741,39.87327],[-3.97775,39.87427],[-3.97795,39.87557],[-3.97885,39.87693],[-3.97954,39.87741],[-3.98016,39.8777],[-3.98077,39.87764],[-3.98264,39.87616],[-3.9838,39.87504],[-3.98524,39.87289],[-3.98693,39.87167],[-3.98877,39.8713],[-3.99109,39.87175],[-3.99256,39.87241],[-3.99441,39.87346],[-3.99628,39.87425],[-3.99739,39.87454],[-3.99824,39.87441],[-3.99952,39.87398],[-4.00105,39.87297],[-4.00202,39.87173],[-4.00197,39.87077],[-4.00174,39.86983],[-4.00104,39.86885],[-3.99971,39.86745],[-3.99927,39.86674],[-3.99907,39.86605],[-3.9993,39.8653],[-4.0,39.86474],[-4.00039,39.86468],[-4.00104,39.86475],[-4.00166,39.86499],[-4.00262,39.86584],[-4.00356,39.86608],[-4.00424,39.86613],[-4.00539,39.86648],[-4.00636,39.86691],[-4.00814,39.86795],[-4.01132,39.86954],[-4.01233,39.86982],[-4.01422,39.86798],[-4.01485,39.8685],[-4.01488,39.86887],[-4.01575,39.86931],[-4.01585,39.86971],[-4.01643,39.8705],[-4.01636,39.87081],[-4.01665,39.87146],[-4.01726,39.87165],[-4.01772,39.87169],[-4.01797,39.87161],[-4.0185,39.87177],[-4.01915,39.87184],[-4.01989,39.87215],[-4.02003,39.87264],[-4.02088,39.87271],[-4.02075,39.87738],[-4.02057,39.87934],[-4.01985,39.882],[-4.01971,39.88338],[-4.01985,39.88709],[-4.0197,39.8881],[-4.01682,39.89657],[-4.01647,39.89837],[-4.01592,39.89976],[-4.01371,39.90476],[-4.01105,39.90884],[-4.01079,39.90743],[-4.00926,39.90813],[-4.00801,39.90802],[-4.00773,39.90867],[-4.00564,39.90857],[-4.00163,39.9094],[-4.00005,39.91004],[-3.99924,39.90888],[-3.99711,39.90687],[-3.99549,39.90682],[-3.99467,39.9076],[-3.99361,39.90794],[-3.99311,39.90827],[-3.99286,39.9083],[-3.99234,39.90824],[-3.9923,39.90788],[-3.98948,39.90734],[-3.98669,39.90727],[-3.98426,39.90414],[-3.98199,39.90529],[-3.98291,39.90722],[-3.98224,39.90897],[-3.98111,39.91092],[-3.97942,39.91071],[-3.97868,39.91084],[-3.97101,39.91271],[-3.96637,39.91189],[-3.96412,39.91231],[-3.96244,39.9136],[-3.95599,39.91586],[-3.95445,39.91581],[-3.95474,39.91727],[-3.95196,39.9176],[-3.95015,39.91681],[-3.94767,39.91722],[-3.94643,39.91723],[-3.94599,39.91707]]]}},{"type":"Feature","properties":{"id":"4516807001"},"geometry":{"type":"Polygon","coordinates":[[[-4.00732,39.8612],[-4.00769,39.86056],[-4.00686,39.85994],[-4.00689,39.85976],[-4.00729,39.85945],[-4.00691,39.85919],[-4.00753,39.85865],[-4.00813,39.85741],[-4.00856,39.85594],[-4.00896,39.85551],[-4.0096,39.85518],[-4.00886,39.85427],[-4.00919,39.85364],[-4.00923,39.85296],[-4.00922,39.85221],[-4.00904,39.85174],[-4.00916,39.85126],[-4.0091,39.85068],[-4.00892,39.84984],[-4.00913,39.84889],[-4.00911,39.84846],[-4.00892,39.84758],[-4.0081,39.84648],[-4.00794,39.84561],[-4.00803,39.84472],[-4.00787,39.84381],[-4.00784,39.83989],[-4.00826,39.83914],[-4.00829,39.83829],[-4.00865,39.83728],[-4.00906,39.8354],[-4.00874,39.83461],[-4.00724,39.83275],[-4.00678,39.82925],[-4.00625,39.82731],[-4.00586,39.82343],[-4.00538,39.82071],[-4.01086,39.81995],[-4.01147,39.81993],[-4.01397,39.82053],[-4.01417,39.81753],[-4.01432,39.81677],[-4.0145,39.81649],[-4.01512,39.81636],[-4.01494,39.8153],[-4.01563,39.81508],[-4.01802,39.81502],[-4.01909,39.81815],[-4.01679,39.82114],[-4.01762,39.82169],[-4.018,39.82206],[-4.01836,39.82304],[-4.01845,39.82361],[-4.01815,39.82505],[-4.01786,39.82776],[-4.01798,39.82931],[-4.01906,39.83237],[-4.0194,39.83384],[-4.0195,39.83618],[-4.01903,39.84059],[-4.01905,39.84193],[-4.01945,39.84304],[-4.02059,39.84428],[-4.02129,39.84476],[-4.02303,39.8456],[-4.02463,39.84674],[-4.02544,39.84703],[-4.02628,39.84803],[-4.0257,39.84838],[-4.02496,39.84855],[-4.02465,39.84871],[-4.02444,39.84894],[-4.02436,39.84943],[-4.02422,39.84959],[-4.02224,39.85005],[-4.02115,39.84988],[-4.02022,39.851],[-4.0195,39.85136],[-4.01877,39.85158],[-4.01887,39.85164],[-4.01928,39.85161],[-4.01907,39.85185],[-4.01875,39.852],[-4.01914,39.85201],[-4.01972,39.85174],[-4.01948,39.85211],[-4.02012,39.8518],[-4.01999,39.85252],[-4.02034,39.85275],[-4.01891,39.85419],[-4.01725,39.85739],[-4.01691,39.85866],[-4.01666,39.85913],[-4.01742,39.86039],[-4.01688,39.86046],[-4.01694,39.86107],[-4.01682,39.86141],[-4.01431,39.86221],[-4.01342,39.8624],[-4.01316,39.86239],[-4.01089,39.86151],[-4.01061,39.86161],[-4.00913,39.86168],[-4.00877,39.86147],[-4.00776,39.86136],[-4.00732,39.8612]]]}},{"type":"Feature","properties":{"id":"4516807002"},"geometry":{"type":"Polygon","coordinates":[[[-4.00336,39.86013],[-4.00544,39.85839],[-4.00577,39.85856],[-4.00592,39.85839],[-4.00638,39.85851],[-4.00701,39.8588],[-4.00722,39.85893],[-4.00691,39.85919],[-4.00729,39.85945],[-4.00689,39.85976],[-4.00686,39.85994],[-4.00769,39.86056],[-4.00732,39.8612],[-4.0057,39.86002],[-4.00538,39.86029],[-4.00395,39.86083],[-4.00316,39.86128],[-4.00312,39.86099],[-4.00336,39.86013]]]}},{"type":"Feature","properties":{"id":"4516807003"},"geometry":{"type":"Polygon","coordinates":[[[-3.99976,39.85924],[-3.99985,39.85853],[-4.00012,39.85832],[-4.00211,39.8576],[-4.00322,39.85757],[-4.00338,39.85741],[-4.00457,39.85811],[-4.00473,39.85799],[-4.00544,39.85839],[-4.00417,39.85942],[-4.00171,39.85877],[-4.00164,39.85912],[-4.00032,39.85908],[-3.99976,39.85924]]]}},{"type":"Feature","properties":{"id":"4516807004"},"geometry":{"type":"Polygon","coordinates":[[[-3.95047,39.87772],[-3.94942,39.87717],[-3.94949,39.87636],[-3.94939,39.87611],[-3.95006,39.87568],[-3.94999,39.87512],[-3.94993,39.87517],[-3.94971,39.87481],[-3.94668,39.86934],[-3.95017,39.86804],[-3.94955,39.86709],[-3.9533,39.86569],[-3.95393,39.86663],[-3.95724,39.86539],[-3.95428,39.86051],[-3.9544,39.86048],[-3.95424,39.85955],[-3.95424,39.85834],[-3.95271,39.85836],[-3.951,39.85869],[-3.94915,39.85925],[-3.94709,39.8596],[-3.94533,39.85965],[-3.94344,39.85957],[-3.94346,39.85941],[-3.94008,39.85126],[-3.94095,39.84936],[-3.94115,39.84847],[-3.94067,39.84707],[-3.94053,39.84563],[-3.94101,39.84516],[-3.94139,39.84421],[-3.94009,39.84371],[-3.94088,39.84323],[-3.94116,39.84289],[-3.94163,39.84196],[-3.94213,39.84178],[-3.9423,39.84152],[-3.94244,39.84078],[-3.9444,39.83953],[-3.94398,39.83874],[-3.94259,39.83714],[-3.94241,39.83631],[-3.94214,39.83593],[-3.94095,39.83529],[-3.94051,39.8349],[-3.93993,39.83413],[-3.94059,39.8331],[-3.94319,39.83193],[-3.94392,39.83238],[-3.94628,39.83129],[-3.94654,39.83126],[-3.94719,39.83149],[-3.94951,39.83125],[-3.95057,39.8309],[-3.95078,39.83093],[-3.95406,39.83251],[-3.95451,39.83205],[-3.95844,39.83357],[-3.96072,39.83413],[-3.96108,39.8338],[-3.96192,39.83391],[-3.96326,39.83292],[-3.96457,39.83215],[-3.96627,39.83269],[-3.96706,39.83275],[-3.97093,39.83468],[-3.97178,39.83488],[-3.97336,39.83587],[-3.97381,39.83602],[-3.97424,39.83589],[-3.97462,39.8356],[-3.97385,39.83482],[-3.97347,39.83392],[-3.97221,39.83294],[-3.97206,39.83278],[-3.97199,39.83243],[-3.97034,39.83094],[-3.96909,39.83003],[-3.96461,39.82805],[-3.96175,39.82653],[-3.96074,39.8254],[-3.96007,39.82423],[-3.95959,39.82299],[-3.9597,39.82263],[-3.95936,39.8221],[-3.95897,39.82226],[-3.95875,39.82204],[-3.9573,39.82263],[-3.95602,39.82173],[-3.9576,39.82024],[-3.95766,39.81969],[-3.95746,39.81794],[-3.95797,39.81747],[-3.95952,39.81649],[-3.96023,39.8159],[-3.96211,39.81604],[-3.9627,39.81595],[-3.96735,39.81401],[-3.96766,39.814],[-3.96871,39.81454],[-3.97208,39.81671],[-3.97337,39.81691],[-3.97672,39.81772],[-3.97786,39.81786],[-3.97673,39.81552],[-3.97743,39.81535],[-3.97785,39.81406],[-3.97814,39.81368],[-3.98019,39.81276],[-3.98118,39.81252],[-3.98223,39.81245],[-3.98331,39.81253],[-3.98322,39.81345],[-3.98519,39.81381],[-3.98738,39.81385],[-3.98991,39.81401],[-3.99606,39.81276],[-3.99854,39.81212],[-4.00055,39.81206],[-4.00149,39.8128],[-4.00254,39.81383],[-4.00329,39.81494],[-4.0035,39.81503],[-4.00438,39.81508],[-4.00586,39.82343],[-4.00625,39.82731],[-4.00678,39.82925],[-4.00724,39.83275],[-4.00874,39.83461],[-4.00906,39.8354],[-4.00865,39.83728],[-4.00829,39.83829],[-4.00826,39.83914],[-4.00784,39.83989],[-4.00787,39.84381],[-4.00803,39.84472],[-4.00794,39.84561],[-4.0081,39.84648],[-4.00892,39.84758],[-4.00911,39.84846],[-4.00913,39.84889],[-4.00892,39.84984],[-4.0091,39.85068],[-4.00916,39.85126],[-4.00904,39.85174],[-4.00922,39.85221],[-4.00923,39.85296],[-4.00919,39.85364],[-4.00886,39.85427],[-4.0096,39.85518],[-4.00896,39.85551],[-4.00856,39.85594],[-4.00813,39.85741],[-4.00753,39.85865],[-4.00722,39.85893],[-4.00638,39.85851],[-4.00592,39.85839],[-4.00577,39.85856],[-4.00473,39.85799],[-4.00457,39.85811],[-4.00338,39.85741],[-4.00322,39.85757],[-4.00242,39.85756],[-4.00164,39.85774],[-4.00039,39.85819],[-3.99985,39.85853],[-3.99976,39.85928],[-3.99987,39.85987],[-4.00061,39.86131],[-4.00056,39.86159],[-3.99997,39.86231],[-4.00007,39.86249],[-3.99993,39.86291],[-4.00003,39.8629],[-4.00012,39.86472],[-3.99965,39.86496],[-3.9993,39.8653],[-3.99907,39.86605],[-3.99927,39.86674],[-3.99971,39.86745],[-4.00104,39.86885],[-4.00174,39.86983],[-4.00197,39.87077],[-4.00202,39.87173],[-4.00163,39.8723],[-4.00105,39.87297],[-3.99952,39.87398],[-3.99824,39.87441],[-3.99739,39.87454],[-3.99628,39.87425],[-3.99531,39.87386],[-3.99441,39.87346],[-3.99256,39.87241],[-3.99109,39.87175],[-3.98877,39.8713],[-3.98693,39.87167],[-3.98524,39.87289],[-3.9838,39.87504],[-3.98264,39.87616],[-3.98077,39.87764],[-3.98016,39.8777],[-3.97954,39.87741],[-3.97885,39.87693],[-3.97795,39.87557],[-3.97775,39.87427],[-3.97741,39.87327],[-3.97631,39.87127],[-3.97569,39.87056],[-3.9746,39.87008],[-3.97321,39.86965],[-3.97156,39.8694],[-3.97033,39.86946],[-3.96828,39.86976],[-3.96707,39.87014],[-3.9657,39.87138],[-3.9646,39.87219],[-3.9622,39.87321],[-3.96047,39.87324],[-3.95873,39.87311],[-3.95705,39.87313],[-3.95551,39.87336],[-3.95439,39.87395],[-3.95195,39.87583],[-3.95137,39.87644],[-3.95047,39.87772]]]}},{"type":"Feature","properties":{"id":"4516807005"},"geometry":{"type":"Polygon","coordinates":[[[-3.93655,39.87473],[-3.94237,39.8725],[-3.941,39.87049],[-3.94234,39.86997],[-3.94168,39.86891],[-3.94304,39.86838],[-3.94431,39.87036],[-3.94462,39.87025],[-3.94537,39.87135],[-3.94739,39.87059],[-3.94971,39.87481],[-3.94993,39.87517],[-3.94999,39.87512],[-3.95006,39.87568],[-3.94939,39.87611],[-3.94949,39.87636],[-3.94942,39.87717],[-3.95047,39.87772],[-3.95014,39.87827],[-3.95013,39.87903],[-3.95034,39.87957],[-3.9508,39.88017],[-3.95143,39.88073],[-3.95254,39.88095],[-3.95497,39.88065],[-3.95967,39.88161],[-3.96142,39.88236],[-3.9636,39.88405],[-3.96443,39.88541],[-3.96458,39.88638],[-3.96454,39.88711],[-3.96426,39.888],[-3.96358,39.88876],[-3.96293,39.88908],[-3.96136,39.88957],[-3.9601,39.88966],[-3.956,39.88888],[-3.95408,39.88776],[-3.95278,39.88717],[-3.95108,39.88578],[-3.95003,39.88552],[-3.94879,39.88536],[-3.94783,39.88568],[-3.94674,39.88689],[-3.94495,39.88817],[-3.94319,39.8888],[-3.94129,39.88988],[-3.94061,39.89037],[-3.935,39.88497],[-3.93483,39.88508],[-3.93269,39.88352],[-3.93237,39.88318],[-3.93098,39.88099],[-3.93165,39.88085],[-3.9338,39.88005],[-3.93824,39.87797],[-3.93655,39.87473]]]}},{"type":"Feature","properties":{"id":"4516807006"},"geometry":{"type":"Polygon","coordinates":[[[-3.93617,39.86326],[-3.93766,39.86393],[-3.93879,39.86473],[-3.94168,39.86891],[-3.93883,39.87009],[-3.93739,39.87078],[-3.93661,39.8701],[-3.93532,39.86828],[-3.93362,39.86708],[-3.935,39.86557],[-3.93617,39.86326]]]}},{"type":"Feature","properties":{"id":"4516807007"},"geometry":{"type":"Polygon","coordinates":[[[-4.00056,39.86159],[-4.0006,39.86114],[-3.99997,39.86013],[-3.99976,39.85924],[-4.00032,39.85908],[-4.00164,39.85912],[-4.00171,39.85877],[-4.00417,39.85942],[-4.00336,39.86013],[-4.00312,39.86099],[-4.00316,39.86128],[-4.003,39.86142],[-4.00203,39.86162],[-4.00198,39.86186],[-4.00056,39.86159]]]}},{"type":"Feature","properties":{"id":"4516807008"},"geometry":{"type":"Polygon","coordinates":[[[-4.00012,39.86472],[-4.00003,39.8629],[-3.99993,39.86291],[-4.00007,39.86249],[-3.99997,39.86231],[-4.00056,39.86159],[-4.00198,39.86186],[-4.00203,39.86162],[-4.003,39.86142],[-4.00364,39.86098],[-4.00538,39.86029],[-4.0057,39.86002],[-4.00758,39.86132],[-4.00877,39.86147],[-4.00913,39.86168],[-4.01061,39.86161],[-4.01089,39.86151],[-4.01316,39.86239],[-4.01394,39.86231],[-4.01675,39.86145],[-4.01692,39.86132],[-4.01688,39.86046],[-4.01742,39.86039],[-4.01758,39.8607],[-4.01771,39.86153],[-4.01743,39.86345],[-4.01691,39.86496],[-4.0163,39.86621],[-4.01498,39.86723],[-4.01233,39.86982],[-4.01132,39.86954],[-4.00814,39.86795],[-4.00636,39.86691],[-4.00539,39.86648],[-4.00424,39.86613],[-4.00356,39.86608],[-4.00262,39.86584],[-4.00166,39.86499],[-4.00135,39.86485],[-4.00039,39.86468],[-4.00012,39.86472]]]}},{"type":"Feature","properties":{"id":"4516807009"},"geometry":{"type":"Polygon","coordinates":[[[-3.94304,39.86838],[-3.9456,39.86739],[-3.94739,39.87059],[-3.94537,39.87135],[-3.94462,39.87025],[-3.94431,39.87036],[-3.94304,39.86838]]]}},{"type":"Feature","properties":{"id":"4516807010"},"geometry":{"type":"Polygon","coordinates":[[[-3.95393,39.86663],[-3.95176,39.86338],[-3.95529,39.86218],[-3.95724,39.86539],[-3.95393,39.86663]]]}},{"type":"Feature","properties":{"id":"4516807011"},"geometry":{"type":"Polygon","coordinates":[[[-3.94668,39.86934],[-3.94454,39.86551],[-3.94767,39.86431],[-3.95017,39.86804],[-3.94668,39.86934]]]}},{"type":"Feature","properties":{"id":"4516807012"},"geometry":{"type":"Polygon","coordinates":[[[-3.94277,39.86599],[-3.94454,39.86551],[-3.9456,39.86739],[-3.94168,39.86891],[-3.94074,39.86746],[-3.94226,39.86622],[-3.94277,39.86599]]]}},{"type":"Feature","properties":{"id":"4516807013"},"geometry":{"type":"Polygon","coordinates":[[[-3.94955,39.86709],[-3.94719,39.8635],[-3.94683,39.8625],[-3.94831,39.86201],[-3.95088,39.86147],[-3.95147,39.86295],[-3.9533,39.86569],[-3.94955,39.86709]]]}},{"type":"Feature","properties":{"id":"4516807014"},"geometry":{"type":"Polygon","coordinates":[[[-3.93739,39.87078],[-3.93883,39.87009],[-3.94168,39.86891],[-3.94234,39.86997],[-3.941,39.87049],[-3.94237,39.8725],[-3.93655,39.87473],[-3.93581,39.87344],[-3.93532,39.87292],[-3.93674,39.87134],[-3.93739,39.87078]]]}},{"type":"Feature","properties":{"id":"4516807015"},"geometry":{"type":"Polygon","coordinates":[[[-3.94317,39.8608],[-3.94336,39.85956],[-3.94533,39.85965],[-3.94709,39.8596],[-3.94915,39.85925],[-3.951,39.85869],[-3.95271,39.85836],[-3.95424,39.85834],[-3.95424,39.85955],[-3.95284,39.85967],[-3.95064,39.86035],[-3.95088,39.86147],[-3.94831,39.86201],[-3.94683,39.8625],[-3.94649,39.86151],[-3.94614,39.86116],[-3.94567,39.86088],[-3.94484,39.86067],[-3.94317,39.8608]]]}},{"type":"Feature","properties":{"id":"4516807016"},"geometry":{"type":"Polygon","coordinates":[[[-3.94274,39.86086],[-3.94484,39.86067],[-3.94552,39.86082],[-3.94614,39.86116],[-3.94656,39.86165],[-3.94708,39.86327],[-3.94767,39.86431],[-3.94454,39.86551],[-3.94333,39.86348],[-3.94274,39.86086]]]}},{"type":"Feature","properties":{"id":"4516807018"},"geometry":{"type":"Polygon","coordinates":[[[-3.95116,39.8623],[-3.95064,39.86035],[-3.95284,39.85967],[-3.95424,39.85955],[-3.9544,39.86048],[-3.95428,39.86051],[-3.95529,39.86218],[-3.95176,39.86338],[-3.95116,39.8623]]]}},{"type":"Feature","properties":{"id":"4516807019"},"geometry":{"type":"Polygon","coordinates":[[[-3.93617,39.86326],[-3.93755,39.86024],[-3.93825,39.85953],[-3.93933,39.8591],[-3.94021,39.85902],[-3.94221,39.85945],[-3.94336,39.85958],[-3.94317,39.8608],[-3.94274,39.86086],[-3.94333,39.86348],[-3.94454,39.86551],[-3.94277,39.86599],[-3.94226,39.86622],[-3.94076,39.86746],[-3.94059,39.86738],[-3.93931,39.8654],[-3.93848,39.86444],[-3.93766,39.86393],[-3.93617,39.86326]]]}},{"type":"Feature","properties":{"id":"4516807020"},"geometry":{"type":"Polygon","coordinates":[[[-3.90169,39.91181],[-3.89979,39.91211],[-3.89938,39.91208],[-3.8987,39.91184],[-3.89685,39.91055],[-3.89376,39.90794],[-3.89226,39.907],[-3.88861,39.90695],[-3.88505,39.90744],[-3.88266,39.90792],[-3.88081,39.90841],[-3.87868,39.90912],[-3.8775,39.90988],[-3.87638,39.91092],[-3.87479,39.9092],[-3.87302,39.90902],[-3.8735,39.90866],[-3.87248,39.90821],[-3.87105,39.90799],[-3.86969,39.90766],[-3.86879,39.90629],[-3.86893,39.90527],[-3.86835,39.90489],[-3.86544,39.90359],[-3.85977,39.90253],[-3.85671,39.90305],[-3.85259,39.90312],[-3.84798,39.9029],[-3.84488,39.90263],[-3.84002,39.90155],[-3.83455,39.89996],[-3.82972,39.89727],[-3.82511,39.89234],[-3.8223,39.89057],[-3.81962,39.88914],[-3.81487,39.88583],[-3.81688,39.88566],[-3.81772,39.88516],[-3.81785,39.88432],[-3.8194,39.88331],[-3.81987,39.88281],[-3.82061,39.88147],[-3.82548,39.88062],[-3.82884,39.88041],[-3.83123,39.88001],[-3.83831,39.88267],[-3.83941,39.88269],[-3.84037,39.88257],[-3.84701,39.88071],[-3.84901,39.88037],[-3.85428,39.87999],[-3.85725,39.87993],[-3.85845,39.87962],[-3.86031,39.88008],[-3.86423,39.87713],[-3.86636,39.87465],[-3.86709,39.87424],[-3.86788,39.87278],[-3.86676,39.87229],[-3.86521,39.86943],[-3.86594,39.86742],[-3.86539,39.86603],[-3.86513,39.8642],[-3.86486,39.86386],[-3.86443,39.86361],[-3.86369,39.86335],[-3.86271,39.86324],[-3.86181,39.8625],[-3.86166,39.86089],[-3.86088,39.86018],[-3.85992,39.8595],[-3.85769,39.8591],[-3.85751,39.85812],[-3.85898,39.85486],[-3.85885,39.85312],[-3.85908,39.85228],[-3.85878,39.85153],[-3.85925,39.85071],[-3.85976,39.85019],[-3.8599,39.84987],[-3.85905,39.84892],[-3.85935,39.84756],[-3.86021,39.84714],[-3.86289,39.84705],[-3.8647,39.84628],[-3.87015,39.84479],[-3.87097,39.84478],[-3.87244,39.84505],[-3.87626,39.84637],[-3.87814,39.8468],[-3.88033,39.84865],[-3.87962,39.85048],[-3.87891,39.85183],[-3.87917,39.85408],[-3.88173,39.85386],[-3.88571,39.85252],[-3.8863,39.8524],[-3.88749,39.85243],[-3.88844,39.85218],[-3.88907,39.85212],[-3.88995,39.85216],[-3.89364,39.85291],[-3.89399,39.85278],[-3.89536,39.85132],[-3.89568,39.85087],[-3.89589,39.85005],[-3.89668,39.8491],[-3.90023,39.84693],[-3.90265,39.84426],[-3.90392,39.84368],[-3.90407,39.84265],[-3.90402,39.84173],[-3.90422,39.84102],[-3.90451,39.84047],[-3.90643,39.83906],[-3.90666,39.83906],[-3.90829,39.83939],[-3.90969,39.84247],[-3.91075,39.84385],[-3.91131,39.84437],[-3.91314,39.84537],[-3.91722,39.84532],[-3.91989,39.84646],[-3.92015,39.84664],[-3.92101,39.84782],[-3.92267,39.84892],[-3.92522,39.84889],[-3.92574,39.84929],[-3.92631,39.8502],[-3.92804,39.85104],[-3.92853,39.85154],[-3.93037,39.85235],[-3.93201,39.85194],[-3.9329,39.85212],[-3.9337,39.85245],[-3.94008,39.85126],[-3.94346,39.85941],[-3.94344,39.85957],[-3.94221,39.85945],[-3.94021,39.85902],[-3.93933,39.8591],[-3.93825,39.85953],[-3.93755,39.86024],[-3.935,39.86557],[-3.93362,39.86708],[-3.93532,39.86828],[-3.93661,39.8701],[-3.93739,39.87078],[-3.93674,39.87134],[-3.93532,39.87292],[-3.93581,39.87344],[-3.93827,39.87792],[-3.9338,39.88005],[-3.93165,39.88085],[-3.93098,39.88099],[-3.93237,39.88318],[-3.93269,39.88352],[-3.93483,39.88508],[-3.935,39.88497],[-3.94061,39.89037],[-3.93896,39.89153],[-3.93884,39.89205],[-3.93987,39.89346],[-3.94201,39.89489],[-3.94234,39.8954],[-3.94327,39.89808],[-3.94306,39.89887],[-3.94275,39.89932],[-3.94135,39.9007],[-3.9394,39.90209],[-3.93663,39.90383],[-3.93575,39.90417],[-3.93504,39.90414],[-3.93371,39.90369],[-3.93331,39.90318],[-3.93358,39.90095],[-3.93435,39.89754],[-3.93381,39.89662],[-3.93328,39.89617],[-3.93284,39.89531],[-3.932,39.89462],[-3.93142,39.89439],[-3.93004,39.89413],[-3.9285,39.89422],[-3.92741,39.89447],[-3.92287,39.89635],[-3.92122,39.89689],[-3.91881,39.89753],[-3.9181,39.89785],[-3.91765,39.89813],[-3.9174,39.89867],[-3.91691,39.90025],[-3.91693,39.90076],[-3.91715,39.9015],[-3.9175,39.90213],[-3.91961,39.90339],[-3.92124,39.90622],[-3.92098,39.90845],[-3.92031,39.90953],[-3.91878,39.91107],[-3.91694,39.91177],[-3.91546,39.91211],[-3.9136,39.91286],[-3.91264,39.91294],[-3.91162,39.91267],[-3.9108,39.91225],[-3.91016,39.91169],[-3.90956,39.91085],[-3.90922,39.90993],[-3.90909,39.90649],[-3.90879,39.90568],[-3.90628,39.90261],[-3.90527,39.90184],[-3.90432,39.90125],[-3.90341,39.90087],[-3.90276,39.90089],[-3.90256,39.90116],[-3.90251,39.90183],[-3.90267,39.90268],[-3.90433,39.90411],[-3.9052,39.90498],[-3.90572,39.90585],[-3.90582,39.90666],[-3.90573,39.90751],[-3.90524,39.90851],[-3.90481,39.90971],[-3.90424,39.91037],[-3.90281,39.91143],[-3.90169,39.91181]]]}}]}