{"type":"FeatureCollection","features":[{"type":"Feature","properties":{"id":"4600601001"},"geometry":{"type":"Polygon","coordinates":[[[-0.51473,38.83827],[-0.5143,38.83818],[-0.51278,38.8381],[-0.5126,38.83722],[-0.51179,38.83622],[-0.51122,38.83584],[-0.51175,38.83353],[-0.51302,38.83236],[-0.51301,38.83119],[-0.51361,38.83116],[-0.51426,38.83073],[-0.51561,38.83095],[-0.51689,38.83104],[-0.51764,38.83138],[-0.51928,38.8318],[-0.51899,38.8322],[-0.51905,38.83263],[-0.51929,38.833],[-0.51859,38.83385],[-0.5185,38.83433],[-0.51874,38.83515],[-0.51924,38.83574],[-0.5174,38.837],[-0.51762,38.83715],[-0.51685,38.83732],[-0.5169,38.83745],[-0.51599,38.83768],[-0.51694,38.8385],[-0.51643,38.8388],[-0.51575,38.83812],[-0.51538,38.83827],[-0.51506,38.83807],[-0.51473,38.83827]]]}},{"type":"Feature","properties":{"id":"4600601002"},"geometry":{"type":"Polygon","coordinates":[[[-0.51948,38.84015],[-0.51832,38.83863],[-0.51762,38.83906],[-0.51737,38.83861],[-0.51746,38.83827],[-0.51694,38.8385],[-0.51599,38.83768],[-0.5169,38.83745],[-0.51685,38.83732],[-0.51762,38.83715],[-0.5174,38.837],[-0.51805,38.83651],[-0.51855,38.83699],[-0.51868,38.83728],[-0.51865,38.83777],[-0.52035,38.83969],[-0.51948,38.84015]]]}},{"type":"Feature","properties":{"id":"4600601003"},"geometry":{"type":"Polygon","coordinates":[[[-0.5174,38.84154],[-0.51743,38.84126],[-0.51693,38.84066],[-0.51617,38.84008],[-0.51571,38.83939],[-0.51485,38.83881],[-0.51473,38.83827],[-0.51506,38.83807],[-0.51538,38.83827],[-0.51575,38.83812],[-0.51643,38.8388],[-0.51746,38.83827],[-0.51737,38.83861],[-0.51762,38.83906],[-0.51832,38.83863],[-0.52022,38.841],[-0.52037,38.84157],[-0.51946,38.84161],[-0.51896,38.84199],[-0.51777,38.84236],[-0.5174,38.84154]]]}},{"type":"Feature","properties":{"id":"4600601004"},"geometry":{"type":"Polygon","coordinates":[[[-0.52632,38.89232],[-0.52637,38.89187],[-0.52653,38.89163],[-0.52636,38.8915],[-0.52608,38.89086],[-0.5256,38.88824],[-0.52374,38.88432],[-0.523,38.88167],[-0.52088,38.87644],[-0.51918,38.87384],[-0.51923,38.87347],[-0.51944,38.87304],[-0.51908,38.87147],[-0.51925,38.87107],[-0.51994,38.87021],[-0.52025,38.86955],[-0.52051,38.86814],[-0.52035,38.86771],[-0.52003,38.8675],[-0.51863,38.86719],[-0.51768,38.86662],[-0.51709,38.86639],[-0.51442,38.86628],[-0.51293,38.86588],[-0.50915,38.86526],[-0.50776,38.86479],[-0.50558,38.86438],[-0.5061,38.86294],[-0.50614,38.86236],[-0.50594,38.86179],[-0.50458,38.86017],[-0.50505,38.85983],[-0.50669,38.85924],[-0.50772,38.8587],[-0.50848,38.85821],[-0.50882,38.85784],[-0.50897,38.85746],[-0.50894,38.85693],[-0.50819,38.85542],[-0.50827,38.85487],[-0.5088,38.85348],[-0.50864,38.85244],[-0.50888,38.85203],[-0.50885,38.85165],[-0.508,38.85028],[-0.50699,38.84985],[-0.50389,38.84933],[-0.50074,38.84833],[-0.50048,38.84833],[-0.50016,38.84845],[-0.49932,38.84924],[-0.49914,38.84964],[-0.49747,38.84971],[-0.49624,38.84708],[-0.49642,38.84647],[-0.49548,38.84522],[-0.49587,38.84481],[-0.50304,38.84192],[-0.50459,38.84106],[-0.505,38.84061],[-0.50522,38.84009],[-0.50606,38.83474],[-0.50497,38.83486],[-0.50332,38.83463],[-0.50293,38.83339],[-0.50237,38.8327],[-0.50229,38.83235],[-0.50239,38.8319],[-0.50232,38.83154],[-0.50264,38.83117],[-0.50301,38.83035],[-0.50312,38.82957],[-0.50309,38.82686],[-0.50358,38.82601],[-0.5036,38.82569],[-0.50088,38.82675],[-0.50006,38.82698],[-0.49787,38.82854],[-0.49748,38.82682],[-0.49809,38.82587],[-0.49826,38.82542],[-0.49821,38.8252],[-0.49756,38.82447],[-0.49705,38.82423],[-0.49597,38.82416],[-0.49476,38.82443],[-0.49262,38.82553],[-0.49042,38.82868],[-0.4879,38.8293],[-0.48555,38.82975],[-0.48229,38.82548],[-0.47958,38.82215],[-0.47862,38.8204],[-0.47782,38.81947],[-0.4766,38.81834],[-0.47453,38.81592],[-0.47243,38.81314],[-0.47224,38.81276],[-0.47235,38.81125],[-0.47213,38.81038],[-0.47167,38.81],[-0.46982,38.80945],[-0.46675,38.80885],[-0.46188,38.80765],[-0.47449,38.80386],[-0.47754,38.80529],[-0.4781,38.80481],[-0.47946,38.80465],[-0.49506,38.80563],[-0.50286,38.80627],[-0.51121,38.80677],[-0.51341,38.80687],[-0.51583,38.80683],[-0.52089,38.80904],[-0.52206,38.80934],[-0.52411,38.80959],[-0.52564,38.81058],[-0.52577,38.81111],[-0.5257,38.81212],[-0.52462,38.81415],[-0.52258,38.81731],[-0.52249,38.81761],[-0.52255,38.81906],[-0.52281,38.82019],[-0.52267,38.82092],[-0.5232,38.82209],[-0.52422,38.82349],[-0.52432,38.8239],[-0.52425,38.82431],[-0.52377,38.82532],[-0.52155,38.82707],[-0.52057,38.82815],[-0.51968,38.82936],[-0.51979,38.82955],[-0.52088,38.82957],[-0.52198,38.82976],[-0.52296,38.83013],[-0.52386,38.83018],[-0.52675,38.83173],[-0.52775,38.83287],[-0.52819,38.83412],[-0.52897,38.83554],[-0.52925,38.83636],[-0.5305,38.8375],[-0.53139,38.83812],[-0.53303,38.83961],[-0.53544,38.84149],[-0.53574,38.84431],[-0.53843,38.84241],[-0.54012,38.84425],[-0.54029,38.84465],[-0.54088,38.84519],[-0.54121,38.84524],[-0.5416,38.84507],[-0.54241,38.84502],[-0.54303,38.84524],[-0.54533,38.84666],[-0.5456,38.84775],[-0.54572,38.84905],[-0.546,38.84953],[-0.54651,38.84989],[-0.54708,38.85011],[-0.54803,38.85022],[-0.54955,38.85025],[-0.54989,38.85041],[-0.55005,38.8506],[-0.54985,38.85108],[-0.55048,38.85154],[-0.55126,38.85093],[-0.55156,38.85083],[-0.55202,38.85097],[-0.55218,38.85116],[-0.55238,38.85192],[-0.55575,38.85557],[-0.55635,38.85604],[-0.55481,38.8561],[-0.55529,38.85674],[-0.55649,38.85933],[-0.5586,38.85974],[-0.56033,38.86022],[-0.56205,38.86139],[-0.56308,38.86171],[-0.57404,38.86175],[-0.57487,38.8633],[-0.57639,38.86574],[-0.57695,38.86641],[-0.57722,38.86701],[-0.57765,38.86899],[-0.57925,38.87242],[-0.57979,38.87385],[-0.57818,38.87466],[-0.57787,38.87472],[-0.57611,38.87428],[-0.57524,38.87421],[-0.57171,38.87478],[-0.56989,38.87561],[-0.5679,38.87618],[-0.56739,38.87647],[-0.567,38.87681],[-0.56664,38.87732],[-0.5665,38.878],[-0.56665,38.87846],[-0.56692,38.87879],[-0.56797,38.87917],[-0.56841,38.87951],[-0.56859,38.87991],[-0.56867,38.88146],[-0.56772,38.88202],[-0.56687,38.88302],[-0.56628,38.88343],[-0.56519,38.88386],[-0.56218,38.88389],[-0.56141,38.88365],[-0.56032,38.88278],[-0.55984,38.88256],[-0.55887,38.88224],[-0.5582,38.88216],[-0.55772,38.88222],[-0.55757,38.88237],[-0.55761,38.88278],[-0.55776,38.88327],[-0.55835,38.88431],[-0.55846,38.88523],[-0.55889,38.88613],[-0.55895,38.88647],[-0.55885,38.88666],[-0.5555,38.88784],[-0.55237,38.88815],[-0.55091,38.88822],[-0.54885,38.88793],[-0.54647,38.887],[-0.54449,38.88602],[-0.5434,38.88565],[-0.54226,38.88559],[-0.54047,38.88612],[-0.5396,38.88661],[-0.53899,38.88724],[-0.53842,38.88799],[-0.53808,38.88895],[-0.53706,38.89006],[-0.5369,38.89159],[-0.53625,38.89208],[-0.53603,38.89257],[-0.53577,38.89279],[-0.53541,38.89286],[-0.53452,38.89252],[-0.53336,38.89114],[-0.53159,38.89017],[-0.52971,38.88956],[-0.52689,38.89112],[-0.52653,38.89164],[-0.52632,38.89232]],[[-0.52343,38.84339],[-0.52363,38.84151],[-0.52355,38.84137],[-0.52307,38.84135],[-0.52273,38.84117],[-0.52113,38.83925],[-0.52192,38.83882],[-0.5228,38.83749],[-0.52409,38.83631],[-0.52381,38.83626],[-0.52299,38.83565],[-0.52246,38.83465],[-0.52193,38.83437],[-0.52121,38.83349],[-0.52068,38.83246],[-0.52026,38.83243],[-0.51905,38.83213],[-0.51928,38.8318],[-0.51764,38.83138],[-0.51689,38.83104],[-0.51561,38.83095],[-0.51426,38.83073],[-0.51361,38.83116],[-0.51301,38.83119],[-0.51302,38.83236],[-0.51175,38.83353],[-0.51122,38.83584],[-0.51179,38.83622],[-0.5126,38.83722],[-0.51278,38.8381],[-0.5143,38.83818],[-0.51473,38.83827],[-0.51485,38.83881],[-0.51571,38.83939],[-0.51617,38.84008],[-0.51693,38.84066],[-0.51743,38.84126],[-0.5174,38.84154],[-0.51776,38.84234],[-0.51752,38.84247],[-0.51768,38.84298],[-0.51817,38.84339],[-0.51855,38.84436],[-0.5191,38.84515],[-0.51935,38.84503],[-0.52012,38.84553],[-0.52072,38.84572],[-0.52116,38.84637],[-0.52117,38.84706],[-0.5216,38.84737],[-0.52179,38.84739],[-0.52247,38.84712],[-0.52263,38.846],[-0.5222,38.84597],[-0.52198,38.84578],[-0.52174,38.84586],[-0.52098,38.84535],[-0.52045,38.84468],[-0.52032,38.84378],[-0.5233,38.84349],[-0.52343,38.84339]]]}},{"type":"Feature","properties":{"id":"4600601005"},"geometry":{"type":"Polygon","coordinates":[[[-0.51752,38.84247],[-0.51896,38.84199],[-0.51946,38.84161],[-0.52003,38.84156],[-0.52024,38.84161],[-0.52028,38.84176],[-0.52092,38.84133],[-0.5219,38.8415],[-0.52232,38.84168],[-0.5229,38.84173],[-0.5228,38.84293],[-0.52349,38.84295],[-0.52343,38.84339],[-0.5233,38.84349],[-0.52032,38.84378],[-0.52045,38.84468],[-0.52098,38.84535],[-0.52174,38.84586],[-0.52198,38.84578],[-0.5222,38.84597],[-0.52263,38.846],[-0.52247,38.84712],[-0.52179,38.84739],[-0.5216,38.84737],[-0.52117,38.84706],[-0.52116,38.84637],[-0.52072,38.84572],[-0.52012,38.84553],[-0.51935,38.84503],[-0.5191,38.84515],[-0.51855,38.84436],[-0.51817,38.84339],[-0.51768,38.84298],[-0.51752,38.84247]]]}},{"type":"Feature","properties":{"id":"4600601007"},"geometry":{"type":"Polygon","coordinates":[[[-0.52024,38.84161],[-0.52037,38.84157],[-0.52022,38.841],[-0.51949,38.84014],[-0.52035,38.83969],[-0.51865,38.83777],[-0.51868,38.83728],[-0.51855,38.83699],[-0.51805,38.83651],[-0.51924,38.83574],[-0.51874,38.83515],[-0.5185,38.83433],[-0.51859,38.83385],[-0.51929,38.833],[-0.51905,38.83263],[-0.51905,38.83213],[-0.52026,38.83243],[-0.52068,38.83246],[-0.52121,38.83349],[-0.52193,38.83437],[-0.52246,38.83465],[-0.52299,38.83565],[-0.52381,38.83626],[-0.52409,38.83631],[-0.5228,38.83749],[-0.52192,38.83882],[-0.52113,38.83925],[-0.52273,38.84117],[-0.52307,38.84135],[-0.52355,38.84137],[-0.52363,38.84151],[-0.52349,38.84295],[-0.5228,38.84293],[-0.5229,38.84173],[-0.52232,38.84168],[-0.52111,38.84132],[-0.52092,38.84133],[-0.52028,38.84176],[-0.52024,38.84161]]]}}]}