{"type":"FeatureCollection","features":[{"type":"Feature","properties":{"id":"4612301001"},"geometry":{"type":"Polygon","coordinates":[[[-0.29367,39.13563],[-0.27118,39.1281],[-0.27222,39.12598],[-0.27304,39.12389],[-0.27278,39.12258],[-0.27445,39.12343],[-0.28196,39.11946],[-0.28212,39.11861],[-0.28271,39.11812],[-0.2837,39.11796],[-0.28442,39.11766],[-0.28505,39.11724],[-0.28619,39.11679],[-0.28735,39.11614],[-0.28775,39.11577],[-0.28829,39.11441],[-0.2887,39.11414],[-0.29013,39.11348],[-0.29035,39.11327],[-0.29045,39.113],[-0.29048,39.11195],[-0.29068,39.11156],[-0.29161,39.11048],[-0.29274,39.10845],[-0.29407,39.10704],[-0.29516,39.10488],[-0.29659,39.10324],[-0.29748,39.10243],[-0.29814,39.10136],[-0.29841,39.1011],[-0.29876,39.10098],[-0.30026,39.10108],[-0.30073,39.10097],[-0.30472,39.09912],[-0.31171,39.10346],[-0.31269,39.10418],[-0.31481,39.10529],[-0.31587,39.10617],[-0.31702,39.10668],[-0.31785,39.1078],[-0.32037,39.10995],[-0.32092,39.11031],[-0.32244,39.11085],[-0.32473,39.1119],[-0.32112,39.11681],[-0.32061,39.11766],[-0.3204,39.11873],[-0.32023,39.11898],[-0.31958,39.1194],[-0.31891,39.12039],[-0.31859,39.12107],[-0.31858,39.12145],[-0.31885,39.12214],[-0.31879,39.12237],[-0.31862,39.12254],[-0.3144,39.12467],[-0.31407,39.12498],[-0.31322,39.1255],[-0.31179,39.12612],[-0.31149,39.12632],[-0.31117,39.12684],[-0.31089,39.12707],[-0.31017,39.12727],[-0.30817,39.12815],[-0.30707,39.12852],[-0.30659,39.12862],[-0.30489,39.12863],[-0.30415,39.12895],[-0.30317,39.129],[-0.30228,39.12969],[-0.30127,39.13005],[-0.30086,39.1303],[-0.29367,39.13563]],[[-0.28248,39.13165],[-0.2857,39.13267],[-0.28869,39.12852],[-0.28898,39.12878],[-0.28798,39.13023],[-0.28772,39.13084],[-0.28794,39.13143],[-0.28828,39.1317],[-0.28901,39.13195],[-0.28965,39.13185],[-0.29173,39.13052],[-0.29335,39.12969],[-0.29397,39.12923],[-0.29263,39.12816],[-0.29188,39.12726],[-0.28969,39.1269],[-0.28945,39.12487],[-0.28894,39.1248],[-0.28762,39.1242],[-0.28708,39.12372],[-0.28654,39.12392],[-0.28745,39.12446],[-0.28774,39.12667],[-0.2867,39.12675],[-0.28534,39.12794],[-0.28248,39.13165]]]}},{"type":"Feature","properties":{"id":"4612301002"},"geometry":{"type":"Polygon","coordinates":[[[-0.28248,39.13165],[-0.28534,39.12794],[-0.2867,39.12675],[-0.28774,39.12667],[-0.28745,39.12446],[-0.28654,39.12392],[-0.28708,39.12372],[-0.28762,39.1242],[-0.28894,39.1248],[-0.28945,39.12487],[-0.28969,39.1269],[-0.29188,39.12726],[-0.29263,39.12816],[-0.29397,39.12923],[-0.29335,39.12969],[-0.29173,39.13052],[-0.28965,39.13185],[-0.28901,39.13195],[-0.28828,39.1317],[-0.28794,39.13143],[-0.28772,39.13084],[-0.28798,39.13023],[-0.28898,39.12878],[-0.28869,39.12852],[-0.2857,39.13267],[-0.28248,39.13165]]]}}]}