{"type":"FeatureCollection","features":[{"type":"Feature","properties":{"id":"4613401001"},"geometry":{"type":"Polygon","coordinates":[[[-0.33094,39.67497],[-0.33029,39.67621],[-0.3299,39.6763],[-0.32992,39.67638],[-0.32974,39.67631],[-0.32922,39.67666],[-0.32922,39.67691],[-0.32944,39.67701],[-0.32904,39.67746],[-0.32883,39.67729],[-0.32817,39.67747],[-0.328,39.67789],[-0.32887,39.6781],[-0.32895,39.67866],[-0.32685,39.67946],[-0.32824,39.68232],[-0.32823,39.68648],[-0.32965,39.68838],[-0.32571,39.69163],[-0.32527,39.69106],[-0.32492,39.69079],[-0.32435,39.69045],[-0.32346,39.69012],[-0.32218,39.68897],[-0.32098,39.68821],[-0.31942,39.687],[-0.31896,39.68652],[-0.31867,39.68594],[-0.3186,39.68529],[-0.31884,39.68402],[-0.31964,39.68409],[-0.32114,39.68184],[-0.31614,39.67954],[-0.31454,39.67889],[-0.312,39.67822],[-0.31233,39.67753],[-0.31253,39.67675],[-0.31261,39.67571],[-0.31298,39.67495],[-0.31318,39.67474],[-0.31841,39.67257],[-0.3179,39.67034],[-0.31778,39.66937],[-0.31702,39.66725],[-0.31921,39.66458],[-0.3211,39.6626],[-0.32225,39.66201],[-0.32264,39.66192],[-0.33066,39.67194],[-0.3307,39.67284],[-0.33084,39.67299],[-0.33074,39.67367],[-0.33112,39.67382],[-0.33125,39.67401],[-0.33111,39.67426],[-0.33136,39.67452],[-0.33094,39.67497]]]}},{"type":"Feature","properties":{"id":"4613401002"},"geometry":{"type":"Polygon","coordinates":[[[-0.32893,39.67862],[-0.32887,39.6781],[-0.328,39.67789],[-0.32817,39.67747],[-0.32883,39.67729],[-0.32904,39.67746],[-0.32944,39.67701],[-0.32922,39.67691],[-0.32922,39.67666],[-0.32974,39.67631],[-0.32992,39.67638],[-0.3299,39.6763],[-0.33029,39.67621],[-0.33094,39.67497],[-0.33136,39.67452],[-0.33111,39.67426],[-0.33125,39.67401],[-0.33112,39.67382],[-0.33074,39.67367],[-0.33084,39.67299],[-0.3307,39.67284],[-0.33066,39.67194],[-0.32264,39.66192],[-0.3249,39.66141],[-0.32627,39.6605],[-0.32648,39.65779],[-0.32632,39.6574],[-0.32396,39.65442],[-0.32514,39.65215],[-0.32546,39.65181],[-0.33032,39.64951],[-0.33199,39.65127],[-0.33619,39.65249],[-0.33979,39.65343],[-0.34468,39.65493],[-0.35419,39.65801],[-0.35796,39.6594],[-0.35696,39.66368],[-0.35854,39.66442],[-0.35955,39.66534],[-0.36023,39.66571],[-0.36243,39.66633],[-0.36245,39.66676],[-0.36046,39.67284],[-0.35753,39.67751],[-0.35105,39.67805],[-0.34797,39.67982],[-0.34349,39.68198],[-0.33527,39.68629],[-0.33359,39.6869],[-0.33023,39.6879],[-0.32965,39.68838],[-0.32823,39.68648],[-0.32824,39.68232],[-0.32685,39.67946],[-0.32893,39.67862]]]}}]}