{"type":"FeatureCollection","features":[{"type":"Feature","properties":{"id":"4613501001"},"geometry":{"type":"MultiPolygon","coordinates":[[[[-0.40059,39.51927],[-0.40155,39.51548],[-0.40004,39.51436],[-0.39925,39.51121],[-0.40102,39.51064],[-0.4065,39.51395],[-0.40644,39.51405],[-0.40689,39.51724],[-0.40703,39.5176],[-0.40745,39.51802],[-0.40837,39.51858],[-0.4087,39.51916],[-0.41095,39.51961],[-0.4121,39.51998],[-0.41324,39.52209],[-0.41326,39.52309],[-0.41311,39.52366],[-0.41265,39.52434],[-0.41168,39.52534],[-0.41012,39.52652],[-0.40856,39.52557],[-0.40419,39.52134],[-0.39944,39.52109],[-0.40059,39.51927]]],[[[-0.40946,39.5175],[-0.40841,39.51702],[-0.40893,39.5162],[-0.40842,39.51473],[-0.41007,39.5161],[-0.41289,39.51753],[-0.41298,39.51746],[-0.41362,39.51832],[-0.41378,39.51889],[-0.41155,39.51833],[-0.41157,39.51823],[-0.40946,39.5175]]]]}},{"type":"Feature","properties":{"id":"4613502001"},"geometry":{"type":"Polygon","coordinates":[[[-0.41323,39.52334],[-0.41324,39.52209],[-0.4121,39.51998],[-0.41095,39.51961],[-0.4087,39.51916],[-0.40837,39.51858],[-0.40745,39.51802],[-0.40703,39.5176],[-0.40689,39.51724],[-0.40644,39.51405],[-0.40674,39.5134],[-0.40842,39.51473],[-0.40893,39.5162],[-0.40841,39.51702],[-0.40994,39.51773],[-0.41157,39.51823],[-0.41155,39.51833],[-0.41378,39.51889],[-0.41399,39.51995],[-0.4153,39.52294],[-0.41534,39.52349],[-0.41323,39.52334]]]}},{"type":"Feature","properties":{"id":"4613502002"},"geometry":{"type":"Polygon","coordinates":[[[-0.41167,39.52747],[-0.41012,39.52652],[-0.41164,39.52537],[-0.41263,39.52437],[-0.41323,39.52334],[-0.41534,39.52349],[-0.4153,39.52294],[-0.41386,39.51953],[-0.41386,39.5192],[-0.41422,39.51932],[-0.41409,39.51882],[-0.41445,39.51888],[-0.41455,39.51943],[-0.41501,39.51957],[-0.42012,39.52381],[-0.41854,39.52498],[-0.41786,39.5247],[-0.41752,39.52382],[-0.41631,39.52288],[-0.41539,39.52357],[-0.41538,39.52493],[-0.41551,39.52607],[-0.41247,39.52701],[-0.41167,39.52747]]]}},{"type":"Feature","properties":{"id":"4613503001"},"geometry":{"type":"Polygon","coordinates":[[[-0.41501,39.51957],[-0.41666,39.52008],[-0.41714,39.51888],[-0.41792,39.51817],[-0.41894,39.51749],[-0.42398,39.52029],[-0.42422,39.5208],[-0.42012,39.52381],[-0.41501,39.51957]]]}},{"type":"Feature","properties":{"id":"4613503002"},"geometry":{"type":"Polygon","coordinates":[[[-0.41854,39.52498],[-0.42422,39.5208],[-0.4245,39.52138],[-0.42583,39.52312],[-0.42696,39.52378],[-0.42575,39.52424],[-0.42373,39.52467],[-0.42126,39.5246],[-0.42102,39.52447],[-0.42057,39.52477],[-0.42002,39.5249],[-0.41926,39.52536],[-0.41784,39.52575],[-0.4155,39.52608],[-0.41538,39.52493],[-0.41539,39.52357],[-0.41631,39.52288],[-0.41752,39.52382],[-0.41786,39.5247],[-0.41854,39.52498]]]}},{"type":"Feature","properties":{"id":"4613504001"},"geometry":{"type":"Polygon","coordinates":[[[-0.42947,39.55379],[-0.429,39.55262],[-0.42847,39.55194],[-0.42732,39.55076],[-0.42625,39.54795],[-0.42302,39.54052],[-0.42293,39.54053],[-0.42175,39.5377],[-0.41849,39.53072],[-0.41849,39.53025],[-0.4167,39.52591],[-0.41784,39.52575],[-0.41926,39.52536],[-0.42002,39.5249],[-0.42057,39.52477],[-0.42102,39.52447],[-0.42126,39.5246],[-0.42373,39.52467],[-0.42575,39.52424],[-0.42696,39.52378],[-0.43136,39.52629],[-0.43254,39.52686],[-0.44461,39.53964],[-0.45,39.54568],[-0.44779,39.54711],[-0.44611,39.54869],[-0.44388,39.55104],[-0.43873,39.55702],[-0.43958,39.55962],[-0.43254,39.56113],[-0.4325,39.56007],[-0.43187,39.55718],[-0.4302,39.55396],[-0.42947,39.55379]]]}},{"type":"Feature","properties":{"id":"4613504002"},"geometry":{"type":"Polygon","coordinates":[[[-0.42279,39.5402],[-0.41538,39.53586],[-0.41431,39.53242],[-0.41326,39.52844],[-0.41171,39.5275],[-0.41247,39.52701],[-0.4155,39.52608],[-0.4167,39.52591],[-0.41849,39.53025],[-0.41849,39.53072],[-0.42175,39.5377],[-0.42279,39.5402]]]}}]}