{"type":"FeatureCollection","features":[{"type":"Feature","properties":{"id":"4808501001"},"geometry":{"type":"Polygon","coordinates":[[[-2.98122,43.38132],[-2.98175,43.38077],[-2.98261,43.38039],[-2.98303,43.38034],[-2.98399,43.38044],[-2.98483,43.38021],[-2.98548,43.37977],[-2.98619,43.37901],[-2.98737,43.37954],[-2.98766,43.3799],[-2.98771,43.38028],[-2.98762,43.38059],[-2.98609,43.38213],[-2.98528,43.38246],[-2.98415,43.38273],[-2.98384,43.38294],[-2.98122,43.38132]]]}},{"type":"Feature","properties":{"id":"4808501002"},"geometry":{"type":"Polygon","coordinates":[[[-2.97502,43.38133],[-2.97512,43.38069],[-2.97765,43.38065],[-2.97894,43.38017],[-2.9785,43.37927],[-2.97988,43.37864],[-2.98045,43.37809],[-2.98083,43.37756],[-2.98099,43.37756],[-2.98158,43.38012],[-2.98164,43.38084],[-2.98122,43.38132],[-2.98012,43.38156],[-2.97954,43.3816],[-2.97624,43.38128],[-2.97502,43.38133]]]}},{"type":"Feature","properties":{"id":"4808501003"},"geometry":{"type":"Polygon","coordinates":[[[-2.98107,43.3778],[-2.98183,43.37731],[-2.98315,43.37709],[-2.98417,43.37717],[-2.98765,43.37806],[-2.98649,43.37876],[-2.98548,43.37977],[-2.98483,43.38021],[-2.98399,43.38044],[-2.98288,43.38034],[-2.98164,43.38084],[-2.98158,43.38012],[-2.98107,43.3778]]]}},{"type":"Feature","properties":{"id":"4808501004"},"geometry":{"type":"Polygon","coordinates":[[[-2.98711,43.38112],[-2.98769,43.38045],[-2.98766,43.3799],[-2.98737,43.37954],[-2.98619,43.37901],[-2.98765,43.37806],[-2.9866,43.37776],[-2.98689,43.37742],[-2.98655,43.37726],[-2.98753,43.37585],[-2.9892,43.3765],[-2.99092,43.37421],[-2.99189,43.37417],[-2.99283,43.37426],[-2.99395,43.37401],[-2.9946,43.3741],[-2.99463,43.37444],[-2.99313,43.37475],[-2.99251,43.37509],[-2.99217,43.37539],[-2.99124,43.37665],[-2.99092,43.37725],[-2.99064,43.37851],[-2.98977,43.3804],[-2.98888,43.38144],[-2.98841,43.38184],[-2.98711,43.38112]]]}},{"type":"Feature","properties":{"id":"4808501005"},"geometry":{"type":"Polygon","coordinates":[[[-2.98599,43.39508],[-2.9825,43.39432],[-2.98148,43.3936],[-2.97838,43.39175],[-2.97547,43.38941],[-2.97052,43.38721],[-2.96789,43.38654],[-2.96754,43.38637],[-2.96722,43.38601],[-2.96533,43.38541],[-2.96547,43.38379],[-2.96499,43.38317],[-2.96489,43.38286],[-2.96512,43.38139],[-2.96704,43.38111],[-2.96915,43.38104],[-2.97257,43.38131],[-2.97386,43.38151],[-2.97502,43.38132],[-2.97562,43.38147],[-2.9763,43.38227],[-2.97636,43.38246],[-2.97607,43.38323],[-2.97823,43.38362],[-2.9791,43.38356],[-2.97983,43.38376],[-2.98026,43.38376],[-2.98082,43.38365],[-2.98254,43.3828],[-2.98288,43.38285],[-2.98355,43.3832],[-2.98415,43.38273],[-2.98528,43.38246],[-2.98609,43.38213],[-2.98711,43.38112],[-2.98841,43.38184],[-2.98927,43.38104],[-2.98979,43.38037],[-2.99005,43.38089],[-2.99059,43.3815],[-2.99036,43.38178],[-2.99047,43.38226],[-2.99102,43.38242],[-2.99207,43.38298],[-2.9912,43.38372],[-2.99156,43.38389],[-2.9931,43.38522],[-2.99411,43.38577],[-2.99493,43.38638],[-2.9942,43.3872],[-2.99587,43.38826],[-2.9932,43.38984],[-2.99223,43.39059],[-2.99214,43.39076],[-2.99221,43.39107],[-2.99242,43.39125],[-2.9926,43.39125],[-2.9925,43.39138],[-2.99258,43.39148],[-2.99245,43.39156],[-2.99186,43.39177],[-2.99147,43.39155],[-2.9914,43.39135],[-2.99119,43.39131],[-2.99102,43.39142],[-2.99076,43.39135],[-2.99035,43.39169],[-2.99047,43.39192],[-2.99037,43.39197],[-2.99079,43.39243],[-2.99062,43.39241],[-2.99067,43.39257],[-2.99051,43.3925],[-2.99055,43.39264],[-2.99033,43.39272],[-2.99005,43.39302],[-2.98997,43.39354],[-2.98958,43.39369],[-2.98937,43.39366],[-2.9893,43.39389],[-2.98966,43.39472],[-2.99058,43.3953],[-2.99025,43.39523],[-2.9897,43.39488],[-2.98887,43.39518],[-2.98811,43.39513],[-2.98732,43.39483],[-2.98687,43.39478],[-2.98627,43.39492],[-2.98599,43.39508]]]}},{"type":"Feature","properties":{"id":"4808501006"},"geometry":{"type":"Polygon","coordinates":[[[-2.97502,43.38133],[-2.97624,43.38128],[-2.97954,43.3816],[-2.98012,43.38156],[-2.98122,43.38132],[-2.98384,43.38294],[-2.98362,43.38318],[-2.98344,43.3832],[-2.98288,43.38285],[-2.98254,43.3828],[-2.98082,43.38365],[-2.98026,43.38376],[-2.97983,43.38376],[-2.9791,43.38356],[-2.97823,43.38362],[-2.97619,43.38328],[-2.97607,43.38323],[-2.97636,43.38246],[-2.9763,43.38227],[-2.97562,43.38147],[-2.97502,43.38133]]]}},{"type":"Feature","properties":{"id":"4808501007"},"geometry":{"type":"Polygon","coordinates":[[[-3.00039,43.37817],[-2.99855,43.37908],[-2.99585,43.3808],[-2.99337,43.38215],[-2.99121,43.38373],[-2.99207,43.38298],[-2.99102,43.38242],[-2.99047,43.38226],[-2.99036,43.38178],[-2.99059,43.3815],[-2.99005,43.38089],[-2.98979,43.38037],[-2.99064,43.37851],[-2.99092,43.37725],[-2.99124,43.37665],[-2.99217,43.37539],[-2.99251,43.37509],[-2.99337,43.37466],[-2.99463,43.37444],[-2.9946,43.3741],[-2.99395,43.37401],[-2.99283,43.37426],[-2.99189,43.37417],[-2.991,43.3742],[-2.9892,43.3765],[-2.98753,43.37585],[-2.98655,43.37726],[-2.98689,43.37742],[-2.9866,43.37776],[-2.98417,43.37717],[-2.98315,43.37709],[-2.98183,43.37731],[-2.98107,43.3778],[-2.98099,43.37756],[-2.98083,43.37756],[-2.98045,43.37809],[-2.97988,43.37864],[-2.9785,43.37927],[-2.97894,43.38017],[-2.978,43.38057],[-2.97723,43.38069],[-2.97512,43.38069],[-2.97502,43.38132],[-2.97386,43.38151],[-2.97257,43.38131],[-2.96915,43.38104],[-2.96704,43.38111],[-2.96512,43.38139],[-2.96488,43.38085],[-2.96526,43.38022],[-2.96575,43.3801],[-2.96634,43.38011],[-2.96678,43.3799],[-2.96863,43.37702],[-2.96922,43.37503],[-2.96502,43.37406],[-2.96281,43.37332],[-2.959,43.37168],[-2.95418,43.36983],[-2.9493,43.36734],[-2.95201,43.36449],[-2.95479,43.36295],[-2.9583,43.36071],[-2.96004,43.35926],[-2.9607,43.35998],[-2.96423,43.36219],[-2.96589,43.36305],[-2.96876,43.36403],[-2.97172,43.36451],[-2.97446,43.36451],[-2.97917,43.36658],[-2.98212,43.36729],[-2.98333,43.36796],[-2.98378,43.3681],[-2.98445,43.36864],[-2.9847,43.36874],[-2.98557,43.36885],[-2.98653,43.36868],[-2.98697,43.36876],[-2.98912,43.36952],[-2.98923,43.36948],[-2.99051,43.36986],[-2.99307,43.37102],[-2.99616,43.37273],[-2.99687,43.37418],[-2.99633,43.37466],[-2.99752,43.37629],[-3.00003,43.37809],[-3.00039,43.37817]]]}},{"type":"Feature","properties":{"id":"4808501008"},"geometry":{"type":"Polygon","coordinates":[[[-2.99121,43.38373],[-2.99337,43.38215],[-2.99585,43.3808],[-2.99855,43.37908],[-3.00039,43.37817],[-3.00092,43.37829],[-3.00557,43.38319],[-3.00415,43.38423],[-3.00293,43.38554],[-3.00281,43.38582],[-3.00348,43.38622],[-3.00337,43.38626],[-3.00258,43.38588],[-3.00201,43.386],[-3.00145,43.38647],[-3.00142,43.38667],[-3.00162,43.38681],[-3.00132,43.38674],[-3.00114,43.38682],[-3.00055,43.38675],[-3.00033,43.38658],[-2.99974,43.38647],[-2.99928,43.38652],[-2.99816,43.38718],[-2.99658,43.38778],[-2.99587,43.38826],[-2.9942,43.3872],[-2.99493,43.38638],[-2.99411,43.38577],[-2.9931,43.38522],[-2.99156,43.38389],[-2.99121,43.38373]]]}}]}